SUBJ82_2_JMP_05_torso_marker_adjustment_task_1_finalErrors.sto
version=1
nRows=155
nColumns=26
inDegrees=no
endheader
time	R_Asis	L_Asis	Sacral	R_Thigh_Lateral	R_Knee_Lateral	R_Shank_Lateral	R_Ankle_Lateral	R_Heel	R_Toe	L_Thigh_Lateral	L_Knee_Lateral	L_Shank_Lateral	L_Ankle_Lateral	L_Heel	L_Toe	R_Shoulder	L_Shoulder	C7	J_Notch	Thoracic	Sternum	R_Elbow	L_Elbow	R_Wrist	L_Wrist
0.00000000	0.00088054	0.00324795	0.00580040	0.01052608	0.00327358	0.01175180	0.00275353	0.00355856	0.00187864	0.00170338	0.00182098	0.00165244	0.00046709	0.00169727	0.00110186	0.00103097	0.00202894	0.00366674	0.00185334	0.00312224	0.00371662	0.00122938	0.00057371	0.00279413	0.00096871
0.01000000	0.00096363	0.00311529	0.00531672	0.01053554	0.00338839	0.01241177	0.00274980	0.00382534	0.00173030	0.00172547	0.00193033	0.00160528	0.00049195	0.00170896	0.00102857	0.00099086	0.00212019	0.00358311	0.00182513	0.00310363	0.00349469	0.00132678	0.00064308	0.00275856	0.00097564
0.02000000	0.00095006	0.00288097	0.00477121	0.01058803	0.00359141	0.01322538	0.00269253	0.00418334	0.00160677	0.00175855	0.00189359	0.00164439	0.00054201	0.00168855	0.00093499	0.00100727	0.00213295	0.00350775	0.00172068	0.00299790	0.00327829	0.00131424	0.00070233	0.00263997	0.00088978
0.03000000	0.00140067	0.00302256	0.00421414	0.01100274	0.00370804	0.01386009	0.00252748	0.00419627	0.00176422	0.00156861	0.00182117	0.00184952	0.00063998	0.00151773	0.00088520	0.00095437	0.00185747	0.00356661	0.00164335	0.00265714	0.00309926	0.00121221	0.00061662	0.00263558	0.00059937
0.04000000	0.00135108	0.00250449	0.00353810	0.01128825	0.00384405	0.01478312	0.00249414	0.00459520	0.00162564	0.00164707	0.00183309	0.00212972	0.00069978	0.00141269	0.00090422	0.00102737	0.00181693	0.00347219	0.00156520	0.00249361	0.00279553	0.00116132	0.00070701	0.00256489	0.00047010
0.05000000	0.00206593	0.00243737	0.00280044	0.01199301	0.00383140	0.01525555	0.00246404	0.00474683	0.00169081	0.00182967	0.00186865	0.00242093	0.00087036	0.00140510	0.00074612	0.00107968	0.00154885	0.00355639	0.00146511	0.00223593	0.00255522	0.00120091	0.00066366	0.00256008	0.00026289
0.06000000	0.00235149	0.00183982	0.00211046	0.01238897	0.00368033	0.01604050	0.00243294	0.00505293	0.00183468	0.00213835	0.00191785	0.00274579	0.00103461	0.00131776	0.00067219	0.00118593	0.00139926	0.00354286	0.00136194	0.00210893	0.00225649	0.00119054	0.00072732	0.00252178	0.00009499
0.07000000	0.00199260	0.00095271	0.00156531	0.01302968	0.00357046	0.01667903	0.00246793	0.00539170	0.00189118	0.00246341	0.00194111	0.00305385	0.00118233	0.00124418	0.00064800	0.00138062	0.00127799	0.00347036	0.00129001	0.00206861	0.00192932	0.00116847	0.00089968	0.00242483	0.00017337
0.08000000	0.00197022	0.00084097	0.00119367	0.01371282	0.00329526	0.01708467	0.00257237	0.00560543	0.00207667	0.00277672	0.00195209	0.00334161	0.00136799	0.00133182	0.00049255	0.00145306	0.00129414	0.00339264	0.00122488	0.00214130	0.00163249	0.00112296	0.00107647	0.00242912	0.00023867
0.09000000	0.00222876	0.00120469	0.00105066	0.01440779	0.00291748	0.01723779	0.00264103	0.00571273	0.00234016	0.00309750	0.00198483	0.00358935	0.00153911	0.00129271	0.00070129	0.00155302	0.00128985	0.00332870	0.00119749	0.00212453	0.00145654	0.00112765	0.00109993	0.00243805	0.00052428
0.10000000	0.00261024	0.00176099	0.00139918	0.01549626	0.00276570	0.01705397	0.00281885	0.00568899	0.00211454	0.00371333	0.00279970	0.00368947	0.00204949	0.00234102	0.00081866	0.00174739	0.00125673	0.00331070	0.00110732	0.00221439	0.00121115	0.00138833	0.00107938	0.00226116	0.00088603
0.11000000	0.00349133	0.00168043	0.00137034	0.01571447	0.00195529	0.01676795	0.00288867	0.00556276	0.00249570	0.00373896	0.00228542	0.00420322	0.00208613	0.00184422	0.00050464	0.00155780	0.00158483	0.00334651	0.00106667	0.00205781	0.00131236	0.00111309	0.00111518	0.00266023	0.00112845
0.12000000	0.00344496	0.00227011	0.00161027	0.01632151	0.00172523	0.01638665	0.00313800	0.00561952	0.00275049	0.00410169	0.00228596	0.00421351	0.00210593	0.00201145	0.00053477	0.00172805	0.00189942	0.00317172	0.00105678	0.00217811	0.00129220	0.00115571	0.00118510	0.00257289	0.00138290
0.13000000	0.00361386	0.00257864	0.00185350	0.01676590	0.00160660	0.01583136	0.00326777	0.00549619	0.00295387	0.00452803	0.00232370	0.00438883	0.00220014	0.00213876	0.00048179	0.00184766	0.00224638	0.00306625	0.00102754	0.00224996	0.00137842	0.00115279	0.00128941	0.00255694	0.00167698
0.14000000	0.00379089	0.00274627	0.00203371	0.01688247	0.00157400	0.01521527	0.00332248	0.00522246	0.00280195	0.00488036	0.00278534	0.00478692	0.00226448	0.00236570	0.00044631	0.00199713	0.00255111	0.00294817	0.00103116	0.00232771	0.00146389	0.00118771	0.00136341	0.00257439	0.00200394
0.15000000	0.00373669	0.00288466	0.00229362	0.01694617	0.00210650	0.01441060	0.00332307	0.00490354	0.00301962	0.00541943	0.00302671	0.00499500	0.00228620	0.00232827	0.00051026	0.00231856	0.00285381	0.00280007	0.00100784	0.00240314	0.00169317	0.00110910	0.00157251	0.00247492	0.00225993
0.16000000	0.00381094	0.00281086	0.00227835	0.01657687	0.00248960	0.01326878	0.00323328	0.00440736	0.00278320	0.00556984	0.00384287	0.00574372	0.00235505	0.00252276	0.00057082	0.00255793	0.00330336	0.00272978	0.00104010	0.00235988	0.00191804	0.00120047	0.00169406	0.00244140	0.00265060
0.17000000	0.00399580	0.00254419	0.00272280	0.01603467	0.00371862	0.01188557	0.00307621	0.00440542	0.00258123	0.00611336	0.00456262	0.00608896	0.00239842	0.00293358	0.00153001	0.00322168	0.00363747	0.00270834	0.00090420	0.00240159	0.00228754	0.00152418	0.00166875	0.00203857	0.00305164
0.18000000	0.00362961	0.00267020	0.00286338	0.01461827	0.00359332	0.01083361	0.00261067	0.00336953	0.00279026	0.00679465	0.00495483	0.00617594	0.00234582	0.00218123	0.00069310	0.00358141	0.00388087	0.00242044	0.00099913	0.00239060	0.00261611	0.00129917	0.00212745	0.00204993	0.00316631
0.19000000	0.00315583	0.00241666	0.00261220	0.01271355	0.00373730	0.00884983	0.00233769	0.00261163	0.00218424	0.00662841	0.00547650	0.00712902	0.00235395	0.00233809	0.00089424	0.00381253	0.00452717	0.00244629	0.00113244	0.00209047	0.00299564	0.00130269	0.00225219	0.00206462	0.00367172
0.20000000	0.00281105	0.00225030	0.00292143	0.01038799	0.00382939	0.00689476	0.00203406	0.00187849	0.00175033	0.00676585	0.00580382	0.00763384	0.00231188	0.00221479	0.00081343	0.00427005	0.00485497	0.00239067	0.00120800	0.00190288	0.00343934	0.00150590	0.00249020	0.00185185	0.00391187
0.21000000	0.00275802	0.00200407	0.00327884	0.00767907	0.00370584	0.00463371	0.00186087	0.00109896	0.00130725	0.00701006	0.00598247	0.00792684	0.00227137	0.00208697	0.00081504	0.00469724	0.00525206	0.00236712	0.00133295	0.00164642	0.00392976	0.00166883	0.00266541	0.00168486	0.00422348
0.22000000	0.00388158	0.00193766	0.00397277	0.00509142	0.00353773	0.00226222	0.00206933	0.00097686	0.00077734	0.00737562	0.00588632	0.00799595	0.00206569	0.00186026	0.00064817	0.00528187	0.00548605	0.00231795	0.00147244	0.00145780	0.00444038	0.00208632	0.00287692	0.00129939	0.00438017
0.23000000	0.00468546	0.00170522	0.00442206	0.00376867	0.00327198	0.00058380	0.00263886	0.00202482	0.00051144	0.00759121	0.00572601	0.00807802	0.00203131	0.00179834	0.00063562	0.00557796	0.00597511	0.00232148	0.00167863	0.00126614	0.00493495	0.00219317	0.00304533	0.00123045	0.00472510
0.24000000	0.00526809	0.00146922	0.00489015	0.00537701	0.00304464	0.00317150	0.00352879	0.00340996	0.00096203	0.00765972	0.00537419	0.00823447	0.00204265	0.00183979	0.00072084	0.00580176	0.00647272	0.00236282	0.00186522	0.00128061	0.00538343	0.00229236	0.00325012	0.00112895	0.00504809
0.25000000	0.00644894	0.00136959	0.00566745	0.00828580	0.00290377	0.00540656	0.00441802	0.00487041	0.00151915	0.00789746	0.00499859	0.00819641	0.00201060	0.00177677	0.00063573	0.00601772	0.00683736	0.00237568	0.00203337	0.00146530	0.00576394	0.00243737	0.00348552	0.00097071	0.00525192
0.26000000	0.00732887	0.00143438	0.00628506	0.01014826	0.00359723	0.00855839	0.00526897	0.00632453	0.00214047	0.00820734	0.00450352	0.00803053	0.00201281	0.00174436	0.00072130	0.00616137	0.00716628	0.00236973	0.00221967	0.00178647	0.00617383	0.00250945	0.00365514	0.00090650	0.00550142
0.27000000	0.00829737	0.00147690	0.00726739	0.01224326	0.00423953	0.00967690	0.00576782	0.00689661	0.00240282	0.00838507	0.00397951	0.00794580	0.00204712	0.00173769	0.00063770	0.00629992	0.00729640	0.00227749	0.00234243	0.00196415	0.00641990	0.00263877	0.00379043	0.00077513	0.00564900
0.28000000	0.00891281	0.00170936	0.00804327	0.01310202	0.00443224	0.01040007	0.00585051	0.00693546	0.00257231	0.00859981	0.00362126	0.00777189	0.00211698	0.00171418	0.00063581	0.00647698	0.00733883	0.00219050	0.00247374	0.00210818	0.00665863	0.00282823	0.00381227	0.00060853	0.00580162
0.29000000	0.00883413	0.00220542	0.00849256	0.01290639	0.00408562	0.01054538	0.00555514	0.00653278	0.00239063	0.00877480	0.00324933	0.00758220	0.00221078	0.00166553	0.00077015	0.00664612	0.00727332	0.00207815	0.00266169	0.00218102	0.00696439	0.00307973	0.00393090	0.00035765	0.00585205
0.30000000	0.00816186	0.00295977	0.00882980	0.01168380	0.00343843	0.01017620	0.00506220	0.00571200	0.00225319	0.00893416	0.00309865	0.00739909	0.00221214	0.00169879	0.00106990	0.00682301	0.00694495	0.00201181	0.00289722	0.00219740	0.00721338	0.00336972	0.00400551	0.00015936	0.00580927
0.31000000	0.00738252	0.00401011	0.00927684	0.01028319	0.00262565	0.00840709	0.00436905	0.00446866	0.00177703	0.00892516	0.00349087	0.00745043	0.00217555	0.00169166	0.00138110	0.00700973	0.00644300	0.00195347	0.00306645	0.00207674	0.00725865	0.00368691	0.00393006	0.00025334	0.00579551
0.32000000	0.00722254	0.00493219	0.00960140	0.00803889	0.00244627	0.00678826	0.00373038	0.00318490	0.00163621	0.00908482	0.00354067	0.00706025	0.00218090	0.00156682	0.00190694	0.00731441	0.00582170	0.00203497	0.00332492	0.00198315	0.00733499	0.00411554	0.00389585	0.00058259	0.00567703
0.33000000	0.00687292	0.00592120	0.00983149	0.00581155	0.00236983	0.00491456	0.00328613	0.00234518	0.00147398	0.00916060	0.00370967	0.00661048	0.00218441	0.00135909	0.00240297	0.00760037	0.00511994	0.00216737	0.00353530	0.00193560	0.00728224	0.00452366	0.00387160	0.00096307	0.00553781
0.34000000	0.00649702	0.00679260	0.01006949	0.00374589	0.00245502	0.00317340	0.00307342	0.00240255	0.00147401	0.00898133	0.00381685	0.00616419	0.00230242	0.00116899	0.00300111	0.00772704	0.00435693	0.00229328	0.00364344	0.00189015	0.00707206	0.00477970	0.00388659	0.00120337	0.00538175
0.35000000	0.00612262	0.00743007	0.01001094	0.00212523	0.00264927	0.00182659	0.00300379	0.00314325	0.00146954	0.00866588	0.00382650	0.00553389	0.00250763	0.00092495	0.00351772	0.00781514	0.00377858	0.00233601	0.00358755	0.00198526	0.00675036	0.00493668	0.00383171	0.00139601	0.00531597
0.36000000	0.00493698	0.00809348	0.00988570	0.00107198	0.00308407	0.00146465	0.00311017	0.00360276	0.00160170	0.00762036	0.00398071	0.00559895	0.00300897	0.00093888	0.00414918	0.00744757	0.00305571	0.00217335	0.00342180	0.00188396	0.00627456	0.00470654	0.00389844	0.00137616	0.00518085
0.37000000	0.00452582	0.00793330	0.00965081	0.00108101	0.00336353	0.00178855	0.00307012	0.00426269	0.00142857	0.00672730	0.00345241	0.00490734	0.00330188	0.00104512	0.00464191	0.00722171	0.00260733	0.00202908	0.00310107	0.00197614	0.00571110	0.00454436	0.00383285	0.00131783	0.00512900
0.38000000	0.00374121	0.00755049	0.00930262	0.00141765	0.00370232	0.00214053	0.00296830	0.00452356	0.00129549	0.00556423	0.00276994	0.00420243	0.00347708	0.00137881	0.00498047	0.00678301	0.00222249	0.00180428	0.00272216	0.00202429	0.00514653	0.00418225	0.00378247	0.00113426	0.00506318
0.39000000	0.00283438	0.00687864	0.00878277	0.00161083	0.00390244	0.00240477	0.00276193	0.00463448	0.00127941	0.00433472	0.00202139	0.00334650	0.00355309	0.00169072	0.00501720	0.00624400	0.00201163	0.00151890	0.00227738	0.00212486	0.00460458	0.00370510	0.00367360	0.00086440	0.00505236
0.40000000	0.00198798	0.00586760	0.00812551	0.00170010	0.00396712	0.00266843	0.00248169	0.00468902	0.00139776	0.00319348	0.00123044	0.00242623	0.00355634	0.00204675	0.00460963	0.00563812	0.00203458	0.00119848	0.00179625	0.00227367	0.00417726	0.00315631	0.00347232	0.00056103	0.00515640
0.41000000	0.00131832	0.00515905	0.00769885	0.00177332	0.00384020	0.00295294	0.00211465	0.00464245	0.00141346	0.00240749	0.00097280	0.00135042	0.00339794	0.00180269	0.00421812	0.00499774	0.00187622	0.00113510	0.00158163	0.00232646	0.00378441	0.00260013	0.00342519	0.00022211	0.00502927
0.42000000	0.00110374	0.00440990	0.00714251	0.00184236	0.00365534	0.00324774	0.00181298	0.00456269	0.00162570	0.00264514	0.00093727	0.00105593	0.00312592	0.00180504	0.00332210	0.00445919	0.00197206	0.00115786	0.00137852	0.00247063	0.00347343	0.00213121	0.00330099	0.00024984	0.00501530
0.43000000	0.00118753	0.00397504	0.00687953	0.00195724	0.00353337	0.00341516	0.00158930	0.00431226	0.00167303	0.00346126	0.00082653	0.00250258	0.00274937	0.00185885	0.00223218	0.00405050	0.00209170	0.00132488	0.00129440	0.00256716	0.00319452	0.00176727	0.00318199	0.00059238	0.00491272
0.44000000	0.00159221	0.00328114	0.00645103	0.00227378	0.00325643	0.00364530	0.00153247	0.00431939	0.00178152	0.00506557	0.00105116	0.00413453	0.00216779	0.00210787	0.00115666	0.00359305	0.00243629	0.00150088	0.00123239	0.00265872	0.00300540	0.00141453	0.00316044	0.00093056	0.00486530
0.45000000	0.00178740	0.00301446	0.00636939	0.00251941	0.00306587	0.00372424	0.00156255	0.00405350	0.00170820	0.00649419	0.00115670	0.00615259	0.00168356	0.00244619	0.00053773	0.00338581	0.00267359	0.00175870	0.00122296	0.00271448	0.00283996	0.00122772	0.00309656	0.00124014	0.00473738
0.46000000	0.00226203	0.00113628	0.00584703	0.00304908	0.00352593	0.00387682	0.00149424	0.00362817	0.00163916	0.00845882	0.00198388	0.00797855	0.00113236	0.00334192	0.00177171	0.00298852	0.00337429	0.00210783	0.00129432	0.00286916	0.00285168	0.00095845	0.00370230	0.00170882	0.00467451
0.47000000	0.00269525	0.00176179	0.00601621	0.00300756	0.00261181	0.00384619	0.00159912	0.00382382	0.00162173	0.00956145	0.00258960	0.01002722	0.00131114	0.00358246	0.00204454	0.00310079	0.00325851	0.00225545	0.00124967	0.00275197	0.00272019	0.00106170	0.00323728	0.00185334	0.00433670
0.48000000	0.00297321	0.00162960	0.00593961	0.00316135	0.00248339	0.00372682	0.00156868	0.00348790	0.00151844	0.01052802	0.00316077	0.01221068	0.00161990	0.00412923	0.00263779	0.00309758	0.00341607	0.00241771	0.00120850	0.00274563	0.00267402	0.00112712	0.00320718	0.00201228	0.00399250
0.49000000	0.00327775	0.00170009	0.00571261	0.00324868	0.00233972	0.00347888	0.00152424	0.00313617	0.00146458	0.01122829	0.00377969	0.01438680	0.00195768	0.00468637	0.00308590	0.00308715	0.00343791	0.00260670	0.00116732	0.00271530	0.00264944	0.00118230	0.00311168	0.00216300	0.00364188
0.50000000	0.00343502	0.00174406	0.00515073	0.00339006	0.00227838	0.00337627	0.00149603	0.00284137	0.00133603	0.01185958	0.00450128	0.01631619	0.00221189	0.00523426	0.00352224	0.00312049	0.00328251	0.00280034	0.00119344	0.00266913	0.00274004	0.00133325	0.00312415	0.00224227	0.00328508
0.51000000	0.00343290	0.00223174	0.00455983	0.00353326	0.00216063	0.00328527	0.00150697	0.00257510	0.00127077	0.01226892	0.00504921	0.01809959	0.00240485	0.00577286	0.00387384	0.00305090	0.00312651	0.00292506	0.00110776	0.00264010	0.00266927	0.00141549	0.00309789	0.00234412	0.00294596
0.52000000	0.00326700	0.00275688	0.00391385	0.00360808	0.00199441	0.00331419	0.00156151	0.00244080	0.00111301	0.01258195	0.00554107	0.01962872	0.00252962	0.00622160	0.00419356	0.00296556	0.00291372	0.00305087	0.00100498	0.00271635	0.00256349	0.00160946	0.00300838	0.00236622	0.00264765
0.53000000	0.00301994	0.00334434	0.00357654	0.00371638	0.00180167	0.00326692	0.00169490	0.00230984	0.00108724	0.01291302	0.00604814	0.02085592	0.00266171	0.00645983	0.00438002	0.00281422	0.00238056	0.00315291	0.00092099	0.00271750	0.00233882	0.00175303	0.00259087	0.00248432	0.00217311
0.54000000	0.00316519	0.00442054	0.00309297	0.00399708	0.00168992	0.00313050	0.00191037	0.00221742	0.00107857	0.01391710	0.00644060	0.02110443	0.00285244	0.00652310	0.00412238	0.00232774	0.00210598	0.00313763	0.00102034	0.00269535	0.00192286	0.00178774	0.00243423	0.00275392	0.00180546
0.55000000	0.00253946	0.00448736	0.00279196	0.00425261	0.00169268	0.00330004	0.00217082	0.00228749	0.00092220	0.01414569	0.00641315	0.02183887	0.00297924	0.00669876	0.00428021	0.00215704	0.00165369	0.00331335	0.00104265	0.00291803	0.00168776	0.00189742	0.00227474	0.00288438	0.00152436
0.56000000	0.00220035	0.00505197	0.00266398	0.00450786	0.00182358	0.00332796	0.00232565	0.00228058	0.00093478	0.01454885	0.00615539	0.02198919	0.00311013	0.00672496	0.00427741	0.00164799	0.00137169	0.00346156	0.00122999	0.00316633	0.00128138	0.00191159	0.00209125	0.00317872	0.00127021
0.57000000	0.00147797	0.00490185	0.00297215	0.00492200	0.00174944	0.00342288	0.00252433	0.00233926	0.00086622	0.01498378	0.00572595	0.02192540	0.00324408	0.00693019	0.00435826	0.00151637	0.00089987	0.00364021	0.00132317	0.00346649	0.00107371	0.00201913	0.00181331	0.00339351	0.00098835
0.58000000	0.00121950	0.00526489	0.00334511	0.00526783	0.00185836	0.00362994	0.00268738	0.00245596	0.00085723	0.01510246	0.00494748	0.02164070	0.00336013	0.00696481	0.00437347	0.00139280	0.00074850	0.00372696	0.00157910	0.00373708	0.00104457	0.00207732	0.00171128	0.00372195	0.00081063
0.59000000	0.00104367	0.00516152	0.00390076	0.00567385	0.00184843	0.00379975	0.00277177	0.00258281	0.00085053	0.01545692	0.00415659	0.02107221	0.00356377	0.00699465	0.00430968	0.00158026	0.00086797	0.00388110	0.00172162	0.00403837	0.00120152	0.00215450	0.00149774	0.00401711	0.00062757
0.60000000	0.00124482	0.00495647	0.00451998	0.00608433	0.00164144	0.00409790	0.00281984	0.00274938	0.00074631	0.01613869	0.00335698	0.02013446	0.00376152	0.00696009	0.00415800	0.00190134	0.00123734	0.00411556	0.00180678	0.00430036	0.00155406	0.00232237	0.00127949	0.00428742	0.00040796
0.61000000	0.00110655	0.00525304	0.00495167	0.00645741	0.00184406	0.00437004	0.00294046	0.00291897	0.00080011	0.01590726	0.00226557	0.01952417	0.00387417	0.00684607	0.00417560	0.00270536	0.00147245	0.00410643	0.00214434	0.00446504	0.00211634	0.00251828	0.00129377	0.00466340	0.00028432
0.62000000	0.00111552	0.00492861	0.00552914	0.00700215	0.00216886	0.00467259	0.00319110	0.00341098	0.00129395	0.01700681	0.00174257	0.01818786	0.00405401	0.00661533	0.00378198	0.00349196	0.00199737	0.00417233	0.00225020	0.00457475	0.00263305	0.00246743	0.00116409	0.00514162	0.00015278
0.63000000	0.00160187	0.00518225	0.00590022	0.00747061	0.00184916	0.00481000	0.00284346	0.00300131	0.00098647	0.01679193	0.00140388	0.01763920	0.00411947	0.00660231	0.00409964	0.00407032	0.00251792	0.00426424	0.00237490	0.00462631	0.00331934	0.00299186	0.00096402	0.00517904	0.00007916
0.64000000	0.00133208	0.00539556	0.00615287	0.00780895	0.00185179	0.00532833	0.00295208	0.00328123	0.00087027	0.01675868	0.00144245	0.01694052	0.00417066	0.00638095	0.00402273	0.00493185	0.00280091	0.00429296	0.00266445	0.00460421	0.00388006	0.00315275	0.00103202	0.00556498	0.00016782
0.65000000	0.00144316	0.00528028	0.00644837	0.00836083	0.00197139	0.00555297	0.00287467	0.00325602	0.00100614	0.01689966	0.00219929	0.01638103	0.00414617	0.00622954	0.00407822	0.00556283	0.00339861	0.00433844	0.00271815	0.00453172	0.00457521	0.00329222	0.00085562	0.00582778	0.00033207
0.66000000	0.00122372	0.00541820	0.00660930	0.00880931	0.00217730	0.00597215	0.00292777	0.00338832	0.00103117	0.01691160	0.00270371	0.01570459	0.00401402	0.00601111	0.00401548	0.00638733	0.00379354	0.00431331	0.00287544	0.00436959	0.00510738	0.00355181	0.00086729	0.00605787	0.00037395
0.67000000	0.00118740	0.00511038	0.00696908	0.00950621	0.00242929	0.00608570	0.00291742	0.00338347	0.00106255	0.01678058	0.00331971	0.01525834	0.00382796	0.00573891	0.00401442	0.00691083	0.00437664	0.00439428	0.00285032	0.00420741	0.00571048	0.00371131	0.00070245	0.00619370	0.00063181
0.68000000	0.00098369	0.00530342	0.00684691	0.00982308	0.00277854	0.00667456	0.00291599	0.00349103	0.00108454	0.01623667	0.00361954	0.01440845	0.00356692	0.00538407	0.00374780	0.00781810	0.00468367	0.00423851	0.00304918	0.00388888	0.00624792	0.00394377	0.00079345	0.00649706	0.00055753
0.69000000	0.00093806	0.00479318	0.00716200	0.01049825	0.00307672	0.00679097	0.00285958	0.00342720	0.00103036	0.01530563	0.00404724	0.01386065	0.00325560	0.00501165	0.00377146	0.00832588	0.00527835	0.00425390	0.00296590	0.00370757	0.00685448	0.00409975	0.00065279	0.00661589	0.00090550
0.70000000	0.00082934	0.00499539	0.00704656	0.01070362	0.00336216	0.00746122	0.00288352	0.00349818	0.00110635	0.01401426	0.00405450	0.01239757	0.00295551	0.00435066	0.00330581	0.00907144	0.00553249	0.00409595	0.00314894	0.00320788	0.00745201	0.00425418	0.00069151	0.00688974	0.00074380
0.71000000	0.00098871	0.00489091	0.00783334	0.01119404	0.00352509	0.00792405	0.00282526	0.00348412	0.00128911	0.01213493	0.00434185	0.01128347	0.00270349	0.00382633	0.00353691	0.00931438	0.00598479	0.00402430	0.00311860	0.00283056	0.00817118	0.00425616	0.00047059	0.00693063	0.00113890
0.72000000	0.00079790	0.00465855	0.00748592	0.01155226	0.00383569	0.00808641	0.00288812	0.00341508	0.00102157	0.01025687	0.00410402	0.00913126	0.00279744	0.00262571	0.00258099	0.01023980	0.00621062	0.00388636	0.00320153	0.00236349	0.00855478	0.00456216	0.00066170	0.00719203	0.00082499
0.73000000	0.00083826	0.00473868	0.00781003	0.01194727	0.00399064	0.00837730	0.00289085	0.00332365	0.00089630	0.00805335	0.00403497	0.00708412	0.00309111	0.00172033	0.00219355	0.01078463	0.00648567	0.00375342	0.00322260	0.00186108	0.00908737	0.00470475	0.00057965	0.00732452	0.00087956
0.74000000	0.00123611	0.00553465	0.00880075	0.01230777	0.00401635	0.00885006	0.00284568	0.00318951	0.00095200	0.00591211	0.00389728	0.00522217	0.00357426	0.00187398	0.00260166	0.01094173	0.00674555	0.00364947	0.00317749	0.00137858	0.00961875	0.00474974	0.00045475	0.00726090	0.00108885
0.75000000	0.00096009	0.00600570	0.00893869	0.01279170	0.00418024	0.00857970	0.00304396	0.00310001	0.00073051	0.00493247	0.00362619	0.00320964	0.00414809	0.00262033	0.00202154	0.01161133	0.00706608	0.00352323	0.00316588	0.00100985	0.01009245	0.00483368	0.00048283	0.00755856	0.00113870
0.76000000	0.00099039	0.00600957	0.00934943	0.01300700	0.00394892	0.00887317	0.00305377	0.00291310	0.00060703	0.00510032	0.00385132	0.00148986	0.00501425	0.00422639	0.00191551	0.01208333	0.00710972	0.00339439	0.00322428	0.00042425	0.01043766	0.00495653	0.00040584	0.00758562	0.00087150
0.77000000	0.00118982	0.00670771	0.01043560	0.01313329	0.00385848	0.00925871	0.00317949	0.00287298	0.00049125	0.00648935	0.00440812	0.00199788	0.00558150	0.00483046	0.00286635	0.01208522	0.00721587	0.00328044	0.00319491	0.00046397	0.01080502	0.00497433	0.00047028	0.00750916	0.00082924
0.78000000	0.00108024	0.00716743	0.01072257	0.01349490	0.00369648	0.00898587	0.00340248	0.00274034	0.00057214	0.00659343	0.00503074	0.00422691	0.00587855	0.00567971	0.00217981	0.01228272	0.00748489	0.00323100	0.00322057	0.00066580	0.01124357	0.00494875	0.00045927	0.00754241	0.00081307
0.79000000	0.00102861	0.00742801	0.01147190	0.01359906	0.00360838	0.00914799	0.00355425	0.00268982	0.00053909	0.00728431	0.00513910	0.00472806	0.00580604	0.00551373	0.00217241	0.01212006	0.00762327	0.00313926	0.00327339	0.00094785	0.01161936	0.00481886	0.00058363	0.00748260	0.00080994
0.80000000	0.00096005	0.00723700	0.01185996	0.01372040	0.00350989	0.00920844	0.00365330	0.00257551	0.00058277	0.00720280	0.00477238	0.00499459	0.00545280	0.00507078	0.00200625	0.01200415	0.00788743	0.00304648	0.00328071	0.00117166	0.01190079	0.00467461	0.00087781	0.00744982	0.00083082
0.81000000	0.00093983	0.00783403	0.01249263	0.01370243	0.00320205	0.00942619	0.00382391	0.00267906	0.00065361	0.00611473	0.00416867	0.00488660	0.00476200	0.00433445	0.00151121	0.01169000	0.00832362	0.00294205	0.00330864	0.00148624	0.01207110	0.00493421	0.00148267	0.00697346	0.00103144
0.82000000	0.00161365	0.00542202	0.01244828	0.01372368	0.00334302	0.00950084	0.00356956	0.00228459	0.00048062	0.00595412	0.00371069	0.00396044	0.00437402	0.00375516	0.00091654	0.01140434	0.00841311	0.00304322	0.00328818	0.00164531	0.01197425	0.00462595	0.00142838	0.00695412	0.00057192
0.83000000	0.00216024	0.00523458	0.01267148	0.01359086	0.00311463	0.00950474	0.00353917	0.00235070	0.00079208	0.00480869	0.00347242	0.00286625	0.00378369	0.00249466	0.00112773	0.01084062	0.00870302	0.00278700	0.00350334	0.00179280	0.01226416	0.00421270	0.00185593	0.00689510	0.00055261
0.84000000	0.00319232	0.00452116	0.01295724	0.01332150	0.00317853	0.00969767	0.00331023	0.00226771	0.00114777	0.00429761	0.00313828	0.00088421	0.00283822	0.00126121	0.00073675	0.01008671	0.00895403	0.00276885	0.00370442	0.00193848	0.01229136	0.00399376	0.00215439	0.00657383	0.00048810
0.85000000	0.00409860	0.00435287	0.01311245	0.01317752	0.00297477	0.00937772	0.00300924	0.00205459	0.00152143	0.00345622	0.00311389	0.00057973	0.00250774	0.00136658	0.00070190	0.00942904	0.00933336	0.00258343	0.00381785	0.00208383	0.01217815	0.00377892	0.00256127	0.00633670	0.00055000
0.86000000	0.00504511	0.00423564	0.01331847	0.01289849	0.00264367	0.00914497	0.00257811	0.00168098	0.00214160	0.00312437	0.00314470	0.00156427	0.00246150	0.00162365	0.00081239	0.00853544	0.00960047	0.00244406	0.00400016	0.00221839	0.01194988	0.00352224	0.00287449	0.00601280	0.00066072
0.87000000	0.00581363	0.00408254	0.01334795	0.01244953	0.00248250	0.00867983	0.00222899	0.00138735	0.00277080	0.00310275	0.00309138	0.00227602	0.00248861	0.00198460	0.00085707	0.00770961	0.00984745	0.00232695	0.00406627	0.00243311	0.01164372	0.00326308	0.00310549	0.00575237	0.00079409
0.88000000	0.00632961	0.00397013	0.01325182	0.01181682	0.00210981	0.00811496	0.00200142	0.00115809	0.00339969	0.00312809	0.00303559	0.00276095	0.00248509	0.00230655	0.00068199	0.00698474	0.00997435	0.00217945	0.00403981	0.00258898	0.01122918	0.00310241	0.00322172	0.00552106	0.00096999
0.89000000	0.00654751	0.00377622	0.01322313	0.01099118	0.00152210	0.00757731	0.00198156	0.00102716	0.00411270	0.00311157	0.00305496	0.00286852	0.00251447	0.00227765	0.00062764	0.00617938	0.00989678	0.00208498	0.00397363	0.00267531	0.01068543	0.00296723	0.00317141	0.00527169	0.00122561
0.90000000	0.00654726	0.00344528	0.01300544	0.01001126	0.00105271	0.00692746	0.00220643	0.00111345	0.00463277	0.00296485	0.00305177	0.00271058	0.00242717	0.00224675	0.00047487	0.00554470	0.00966604	0.00204613	0.00379921	0.00275056	0.01009769	0.00280786	0.00298424	0.00514623	0.00147399
0.91000000	0.00610211	0.00301027	0.01272324	0.00892361	0.00119349	0.00611733	0.00258055	0.00135701	0.00491605	0.00272758	0.00302542	0.00241089	0.00226142	0.00221870	0.00039816	0.00506098	0.00931815	0.00204383	0.00351075	0.00284305	0.00944559	0.00275358	0.00270079	0.00506858	0.00172985
0.92000000	0.00562444	0.00265671	0.01242822	0.00774366	0.00137442	0.00539026	0.00292710	0.00150578	0.00512765	0.00235200	0.00305519	0.00213073	0.00199667	0.00212501	0.00058673	0.00459321	0.00881843	0.00215150	0.00327070	0.00288954	0.00876838	0.00270130	0.00232731	0.00497096	0.00197323
0.93000000	0.00529106	0.00224448	0.01221389	0.00657097	0.00143714	0.00459861	0.00332964	0.00172978	0.00487735	0.00188504	0.00293631	0.00197225	0.00160276	0.00203343	0.00086741	0.00407827	0.00827811	0.00217732	0.00311041	0.00290844	0.00818153	0.00258477	0.00202157	0.00486344	0.00218227
0.94000000	0.00474365	0.00200251	0.01172796	0.00545398	0.00176144	0.00372632	0.00349266	0.00172093	0.00453970	0.00162566	0.00272817	0.00179649	0.00143356	0.00213536	0.00092108	0.00379326	0.00769579	0.00217379	0.00286513	0.00295459	0.00761924	0.00256263	0.00163356	0.00484664	0.00236056
0.95000000	0.00435321	0.00204143	0.01121009	0.00449448	0.00189551	0.00278348	0.00356260	0.00165980	0.00391628	0.00129836	0.00266181	0.00170105	0.00137094	0.00217466	0.00110503	0.00361695	0.00713686	0.00224123	0.00266353	0.00308670	0.00704242	0.00258714	0.00136244	0.00472948	0.00241530
0.96000000	0.00407518	0.00205178	0.01075076	0.00382969	0.00186959	0.00188936	0.00351436	0.00154923	0.00313788	0.00117966	0.00249211	0.00161157	0.00143494	0.00226523	0.00114835	0.00342149	0.00656493	0.00222463	0.00248017	0.00312366	0.00653826	0.00257155	0.00114606	0.00463358	0.00240401
0.97000000	0.00381405	0.00208984	0.01025499	0.00374494	0.00181522	0.00103483	0.00331922	0.00146470	0.00229143	0.00111924	0.00236704	0.00148220	0.00155166	0.00227275	0.00131255	0.00324485	0.00607114	0.00218210	0.00232978	0.00316598	0.00611909	0.00250932	0.00101353	0.00453866	0.00235967
0.98000000	0.00348432	0.00227273	0.00988463	0.00423863	0.00184911	0.00060016	0.00302471	0.00137163	0.00151364	0.00106209	0.00234772	0.00126509	0.00163198	0.00227375	0.00140064	0.00305288	0.00554181	0.00217200	0.00220361	0.00308377	0.00580000	0.00241254	0.00088637	0.00445073	0.00223510
0.99000000	0.00349607	0.00208086	0.00948405	0.00487530	0.00174481	0.00155643	0.00271367	0.00101893	0.00083334	0.00126768	0.00230787	0.00093593	0.00155955	0.00219959	0.00131391	0.00292279	0.00529585	0.00217423	0.00208256	0.00313685	0.00536588	0.00241614	0.00095482	0.00419976	0.00216848
1.00000000	0.00290998	0.00242756	0.00901252	0.00580036	0.00203347	0.00255760	0.00247634	0.00074524	0.00067019	0.00131503	0.00229562	0.00070028	0.00166337	0.00226477	0.00139968	0.00283457	0.00499217	0.00225113	0.00194227	0.00309718	0.00509875	0.00239882	0.00095217	0.00410319	0.00204634
1.01000000	0.00296065	0.00235961	0.00859649	0.00638483	0.00213726	0.00410904	0.00223817	0.00038296	0.00043246	0.00145881	0.00231704	0.00061848	0.00140581	0.00202252	0.00142270	0.00268138	0.00490053	0.00225892	0.00186943	0.00308576	0.00477664	0.00229260	0.00106447	0.00391103	0.00203290
1.02000000	0.00227780	0.00262780	0.00807229	0.00720428	0.00250393	0.00541943	0.00204507	0.00078005	0.00100311	0.00150967	0.00227803	0.00053942	0.00138489	0.00207852	0.00137717	0.00256904	0.00476571	0.00232728	0.00180638	0.00299655	0.00460188	0.00230046	0.00119300	0.00379870	0.00197437
1.03000000	0.00200520	0.00273311	0.00764244	0.00773964	0.00278659	0.00702876	0.00195882	0.00150450	0.00105687	0.00150578	0.00218675	0.00074482	0.00114099	0.00191276	0.00134469	0.00240739	0.00467748	0.00235911	0.00174259	0.00290090	0.00435773	0.00221975	0.00141361	0.00371518	0.00188797
1.04000000	0.00146190	0.00269461	0.00694478	0.00835141	0.00309126	0.00866883	0.00196646	0.00221309	0.00152711	0.00149897	0.00238660	0.00103333	0.00080691	0.00165343	0.00141169	0.00242073	0.00463846	0.00240104	0.00164176	0.00290260	0.00419763	0.00231123	0.00162278	0.00370691	0.00184257
1.05000000	0.00115156	0.00242446	0.00623602	0.00897785	0.00329262	0.01029722	0.00199882	0.00296112	0.00179726	0.00158599	0.00240033	0.00139323	0.00051040	0.00155986	0.00136068	0.00243123	0.00470595	0.00239214	0.00156855	0.00294545	0.00395627	0.00230520	0.00193227	0.00373758	0.00180447
1.06000000	0.00107490	0.00243334	0.00614765	0.00957243	0.00355489	0.01186046	0.00192107	0.00350116	0.00183544	0.00143783	0.00203034	0.00160297	0.00048360	0.00154225	0.00117710	0.00208857	0.00444229	0.00233871	0.00168288	0.00254118	0.00374647	0.00219634	0.00205882	0.00357703	0.00160820
1.07000000	0.00094782	0.00189537	0.00528854	0.01031500	0.00373560	0.01336888	0.00199785	0.00403813	0.00207793	0.00157504	0.00211528	0.00207138	0.00035453	0.00151357	0.00094791	0.00208748	0.00451755	0.00222933	0.00168154	0.00264034	0.00350800	0.00220106	0.00228460	0.00356638	0.00164795
1.08000000	0.00154902	0.00198571	0.00520515	0.01107339	0.00365580	0.01444943	0.00209690	0.00443250	0.00229309	0.00155982	0.00198000	0.00217208	0.00054421	0.00140513	0.00099162	0.00198820	0.00405024	0.00223129	0.00166338	0.00228395	0.00325688	0.00220649	0.00217960	0.00361575	0.00128678
1.09000000	0.00176953	0.00154187	0.00457976	0.01182642	0.00358252	0.01545214	0.00219289	0.00480709	0.00256209	0.00190066	0.00197175	0.00233823	0.00079505	0.00132029	0.00098219	0.00195992	0.00382947	0.00212658	0.00169706	0.00225400	0.00302702	0.00215499	0.00225967	0.00364305	0.00108181
1.10000000	0.00164245	0.00109646	0.00379355	0.01264981	0.00364084	0.01624893	0.00236921	0.00507381	0.00264968	0.00220139	0.00215948	0.00278309	0.00109514	0.00163338	0.00093313	0.00181542	0.00366761	0.00204305	0.00172413	0.00237930	0.00257927	0.00211253	0.00234990	0.00353652	0.00097765
1.11000000	0.00220917	0.00090592	0.00350460	0.01326698	0.00322554	0.01655321	0.00254741	0.00533988	0.00304307	0.00245021	0.00211730	0.00295124	0.00125933	0.00141461	0.00082767	0.00178906	0.00313120	0.00191694	0.00160491	0.00231889	0.00229654	0.00210913	0.00213900	0.00360784	0.00053082
1.12000000	0.00201875	0.00098458	0.00281901	0.01399719	0.00308089	0.01666035	0.00284082	0.00559950	0.00329628	0.00285803	0.00215044	0.00311747	0.00140251	0.00151635	0.00074548	0.00161905	0.00271970	0.00176926	0.00161729	0.00245698	0.00190380	0.00198252	0.00209388	0.00348198	0.00036823
1.13000000	0.00211636	0.00137514	0.00219674	0.01462511	0.00277634	0.01642656	0.00308333	0.00570532	0.00349628	0.00323837	0.00212608	0.00347735	0.00154022	0.00157020	0.00070171	0.00147713	0.00228403	0.00169593	0.00155965	0.00259897	0.00152167	0.00190010	0.00197365	0.00340366	0.00015879
1.14000000	0.00267194	0.00141613	0.00196399	0.01483979	0.00223152	0.01602973	0.00323679	0.00564087	0.00345113	0.00369573	0.00223989	0.00381795	0.00169253	0.00169858	0.00057780	0.00137616	0.00172662	0.00159377	0.00132636	0.00264198	0.00121864	0.00188399	0.00170060	0.00342152	0.00043586
1.15000000	0.00235341	0.00180887	0.00115637	0.01546066	0.00211045	0.01531473	0.00350300	0.00556494	0.00351674	0.00422533	0.00216027	0.00424525	0.00178046	0.00174326	0.00046383	0.00124638	0.00146187	0.00149165	0.00128580	0.00280632	0.00100874	0.00175114	0.00167233	0.00320242	0.00069635
1.16000000	0.00279233	0.00164305	0.00111728	0.01548516	0.00174155	0.01449657	0.00357207	0.00524020	0.00345480	0.00449589	0.00242813	0.00490344	0.00184433	0.00189810	0.00037945	0.00132160	0.00117927	0.00146110	0.00104165	0.00276530	0.00108435	0.00169690	0.00140695	0.00315797	0.00117163
1.17000000	0.00276679	0.00174447	0.00070132	0.01544333	0.00177224	0.01364118	0.00357117	0.00487917	0.00335995	0.00502120	0.00260607	0.00539748	0.00179913	0.00192838	0.00035070	0.00150512	0.00126379	0.00139259	0.00090722	0.00274811	0.00134403	0.00157277	0.00140564	0.00302969	0.00149089
1.18000000	0.00270622	0.00174140	0.00046156	0.01515440	0.00200848	0.01267429	0.00345082	0.00444989	0.00326460	0.00553866	0.00282090	0.00587833	0.00177194	0.00198830	0.00025175	0.00183375	0.00161917	0.00139626	0.00082168	0.00266305	0.00174451	0.00143159	0.00144622	0.00283960	0.00183836
1.19000000	0.00267796	0.00158276	0.00071829	0.01502975	0.00275547	0.01143293	0.00330019	0.00405837	0.00284402	0.00613019	0.00321122	0.00628379	0.00173159	0.00227691	0.00067013	0.00236825	0.00196702	0.00147662	0.00101762	0.00254288	0.00241960	0.00155582	0.00153814	0.00237163	0.00216109
1.20000000	0.00233943	0.00163347	0.00068654	0.01368493	0.00268832	0.01036784	0.00296863	0.00332457	0.00288445	0.00642776	0.00316058	0.00682539	0.00169119	0.00205663	0.00020098	0.00274744	0.00261864	0.00154392	0.00085037	0.00226966	0.00284070	0.00100959	0.00165425	0.00247337	0.00257225
1.21000000	0.00205806	0.00158010	0.00106783	0.01231856	0.00291978	0.00896687	0.00271598	0.00274779	0.00247393	0.00686872	0.00338385	0.00723065	0.00160954	0.00204218	0.00006286	0.00333315	0.00308207	0.00159716	0.00096622	0.00196692	0.00339231	0.00097968	0.00183837	0.00220870	0.00288430
1.22000000	0.00177708	0.00150796	0.00149029	0.01048735	0.00303872	0.00736746	0.00244118	0.00216278	0.00205964	0.00724821	0.00352440	0.00758261	0.00156063	0.00202067	0.00012261	0.00393221	0.00355254	0.00169854	0.00115319	0.00163864	0.00400088	0.00093481	0.00205032	0.00196043	0.00317602
1.23000000	0.00278858	0.00156629	0.00233109	0.00832888	0.00321920	0.00574998	0.00234129	0.00148826	0.00164202	0.00771123	0.00345983	0.00775341	0.00147405	0.00199304	0.00041211	0.00459877	0.00381179	0.00179990	0.00162694	0.00128888	0.00487122	0.00136034	0.00217301	0.00140865	0.00341938
1.24000000	0.00192086	0.00134087	0.00242998	0.00565448	0.00297650	0.00349118	0.00239804	0.00070114	0.00116303	0.00789538	0.00351728	0.00812973	0.00149110	0.00200321	0.00039523	0.00503064	0.00454512	0.00201933	0.00162389	0.00130989	0.00534132	0.00106387	0.00243023	0.00149412	0.00378058
1.25000000	0.00332139	0.00129314	0.00316592	0.00346346	0.00284888	0.00162118	0.00272081	0.00087446	0.00073277	0.00831823	0.00354249	0.00818256	0.00148195	0.00190645	0.00035223	0.00559358	0.00494089	0.00216127	0.00195372	0.00154085	0.00606962	0.00129069	0.00255427	0.00119974	0.00404187
1.26000000	0.00504827	0.00138158	0.00402817	0.00351837	0.00277830	0.00181127	0.00333083	0.00216294	0.00044720	0.00865008	0.00338304	0.00829612	0.00142572	0.00205362	0.00055131	0.00607875	0.00517173	0.00229189	0.00236557	0.00200644	0.00681929	0.00162424	0.00269973	0.00084262	0.00418797
1.27000000	0.00497059	0.00109552	0.00441928	0.00599045	0.00270054	0.00403711	0.00417264	0.00366029	0.00110125	0.00876626	0.00324382	0.00849809	0.00150024	0.00202127	0.00069277	0.00638004	0.00589043	0.00248456	0.00237927	0.00287784	0.00731225	0.00152506	0.00297229	0.00088298	0.00449505
1.28000000	0.00673276	0.00106066	0.00560805	0.00895477	0.00280948	0.00579596	0.00493698	0.00498162	0.00169321	0.00894864	0.00302868	0.00863189	0.00141004	0.00228516	0.00074458	0.00663448	0.00598481	0.00259996	0.00273438	0.00345665	0.00784858	0.00174575	0.00295652	0.00064924	0.00464226
1.29000000	0.00753440	0.00112838	0.00602559	0.01044631	0.00344250	0.00891434	0.00556595	0.00642315	0.00206782	0.00923467	0.00308033	0.00849827	0.00153544	0.00212852	0.00080067	0.00704416	0.00651396	0.00258772	0.00283053	0.00412418	0.00835840	0.00187816	0.00317246	0.00054048	0.00481758
1.30000000	0.00852963	0.00115501	0.00705691	0.01231553	0.00419543	0.00979195	0.00588849	0.00696066	0.00207699	0.00944633	0.00295099	0.00837887	0.00161926	0.00215835	0.00062055	0.00719971	0.00660693	0.00249159	0.00303662	0.00449724	0.00874458	0.00205961	0.00321434	0.00032755	0.00493162
1.31000000	0.00858053	0.00160075	0.00756871	0.01244167	0.00468680	0.01118482	0.00585607	0.00720880	0.00227384	0.00955148	0.00295532	0.00836598	0.00157942	0.00223568	0.00088402	0.00742294	0.00657209	0.00235262	0.00331383	0.00483740	0.00916555	0.00229208	0.00338250	0.00014838	0.00489186
1.32000000	0.00870520	0.00183499	0.00825855	0.01218788	0.00446286	0.01106080	0.00555795	0.00676732	0.00218534	0.00966218	0.00291118	0.00817011	0.00159273	0.00228097	0.00080723	0.00765655	0.00651162	0.00213366	0.00350959	0.00495327	0.00938438	0.00256640	0.00329465	0.00012140	0.00497681
1.33000000	0.00929403	0.00219154	0.00883486	0.01066280	0.00389357	0.01056898	0.00484382	0.00615740	0.00148427	0.00985648	0.00287166	0.00788151	0.00159298	0.00236781	0.00097811	0.00803877	0.00621783	0.00197355	0.00392773	0.00490891	0.00958819	0.00304794	0.00336169	0.00062344	0.00480738
1.34000000	0.00739968	0.00313677	0.00904688	0.00984698	0.00288907	0.00859036	0.00452409	0.00498562	0.00135083	0.00966918	0.00381347	0.00813077	0.00129341	0.00244056	0.00102226	0.00808579	0.00574603	0.00158029	0.00411879	0.00476230	0.00979908	0.00323585	0.00341784	0.00068982	0.00478690
1.35000000	0.00757273	0.00395019	0.00932049	0.00767185	0.00252613	0.00706309	0.00387267	0.00369329	0.00133584	0.00981002	0.00408833	0.00774522	0.00125020	0.00234720	0.00145510	0.00843154	0.00525178	0.00140865	0.00447864	0.00445040	0.00995023	0.00371826	0.00347652	0.00103888	0.00465439
1.36000000	0.00763253	0.00485812	0.00957870	0.00555107	0.00224781	0.00537558	0.00341731	0.00263015	0.00110686	0.00996504	0.00457634	0.00723367	0.00130221	0.00218790	0.00183406	0.00875181	0.00464584	0.00140238	0.00481323	0.00403738	0.01000264	0.00418053	0.00357953	0.00139431	0.00447624
1.37000000	0.00658711	0.00601580	0.00983405	0.00401893	0.00189807	0.00328365	0.00294838	0.00163625	0.00095218	0.00929540	0.00567700	0.00783924	0.00191698	0.00204219	0.00217075	0.00869859	0.00394676	0.00141789	0.00492185	0.00372332	0.00983199	0.00428337	0.00367285	0.00156367	0.00434260
1.38000000	0.00674749	0.00687019	0.00991346	0.00238795	0.00186236	0.00202353	0.00266215	0.00196967	0.00109461	0.00927976	0.00586847	0.00705706	0.00221684	0.00156814	0.00266536	0.00899320	0.00342102	0.00162838	0.00505209	0.00321949	0.00964536	0.00466334	0.00378892	0.00182980	0.00415304
1.39000000	0.00671706	0.00761872	0.01006671	0.00127016	0.00214777	0.00130475	0.00260929	0.00242767	0.00132995	0.00897960	0.00586733	0.00647404	0.00254615	0.00114887	0.00336089	0.00900407	0.00270978	0.00187776	0.00516364	0.00281253	0.00941637	0.00483303	0.00390897	0.00199356	0.00396621
1.40000000	0.00663421	0.00809170	0.01004633	0.00072914	0.00248693	0.00124467	0.00252582	0.00306842	0.00145949	0.00847065	0.00574534	0.00569392	0.00297031	0.00065525	0.00378717	0.00903141	0.00232751	0.00202992	0.00500522	0.00240083	0.00897505	0.00491556	0.00399427	0.00208489	0.00377624
1.41000000	0.00614841	0.00836884	0.01000644	0.00073323	0.00303442	0.00146513	0.00251495	0.00333039	0.00159549	0.00761501	0.00537455	0.00505418	0.00332164	0.00066456	0.00443135	0.00874574	0.00196188	0.00211482	0.00479063	0.00208733	0.00850282	0.00474546	0.00402897	0.00204859	0.00360755
1.42000000	0.00564407	0.00827133	0.00970683	0.00096426	0.00343672	0.00202231	0.00241733	0.00363717	0.00157838	0.00655861	0.00487768	0.00417958	0.00367492	0.00113827	0.00462620	0.00847385	0.00189090	0.00212193	0.00436304	0.00183968	0.00794445	0.00451739	0.00389563	0.00192181	0.00352840
1.43000000	0.00485078	0.00784919	0.00937806	0.00134962	0.00391301	0.00274756	0.00235043	0.00362901	0.00149234	0.00521546	0.00407535	0.00324928	0.00383232	0.00168040	0.00475077	0.00798419	0.00183104	0.00205840	0.00377839	0.00170660	0.00731977	0.00408046	0.00363556	0.00164850	0.00350885
1.44000000	0.00331650	0.00736783	0.00905370	0.00176434	0.00356901	0.00317113	0.00222340	0.00358022	0.00146897	0.00376589	0.00319787	0.00222598	0.00386359	0.00185339	0.00475767	0.00730934	0.00188646	0.00206733	0.00329318	0.00157239	0.00671585	0.00350054	0.00347486	0.00128588	0.00334754
1.45000000	0.00259988	0.00637016	0.00856477	0.00239761	0.00385759	0.00411646	0.00236507	0.00341038	0.00128253	0.00219683	0.00225598	0.00109722	0.00378595	0.00212159	0.00434431	0.00658223	0.00195064	0.00202424	0.00266914	0.00164479	0.00616361	0.00284770	0.00308120	0.00079491	0.00336415
1.46000000	0.00213004	0.00550201	0.00797513	0.00299998	0.00376337	0.00467126	0.00252814	0.00318204	0.00124711	0.00136744	0.00156470	0.00060967	0.00358999	0.00201571	0.00374839	0.00593717	0.00214883	0.00215877	0.00220863	0.00172500	0.00568233	0.00229631	0.00270392	0.00039556	0.00334713
1.47000000	0.00207433	0.00465398	0.00736291	0.00349660	0.00366567	0.00526555	0.00281070	0.00303034	0.00117405	0.00185253	0.00118855	0.00201881	0.00331700	0.00205906	0.00287477	0.00525407	0.00231218	0.00239693	0.00181275	0.00179899	0.00528326	0.00173905	0.00239772	0.00012775	0.00329988
1.48000000	0.00233670	0.00410346	0.00670349	0.00395779	0.00325438	0.00538417	0.00310738	0.00299390	0.00110288	0.00312585	0.00113918	0.00364080	0.00300106	0.00206798	0.00194054	0.00470281	0.00258019	0.00279845	0.00154259	0.00185404	0.00494121	0.00132545	0.00212683	0.00051954	0.00323687
1.49000000	0.00250400	0.00339052	0.00603556	0.00429178	0.00306035	0.00580814	0.00321489	0.00288256	0.00102216	0.00470369	0.00121586	0.00534423	0.00251190	0.00205611	0.00113811	0.00421026	0.00285170	0.00314148	0.00136202	0.00188639	0.00468724	0.00101296	0.00195983	0.00091813	0.00317766
1.50000000	0.00271470	0.00275846	0.00536263	0.00465388	0.00282651	0.00597806	0.00326266	0.00279138	0.00102890	0.00627445	0.00167893	0.00707345	0.00203691	0.00228739	0.00079117	0.00384412	0.00323161	0.00349141	0.00123892	0.00198092	0.00445485	0.00087535	0.00195250	0.00128426	0.00305519
1.51000000	0.00316580	0.00124466	0.00468247	0.00520064	0.00315584	0.00611966	0.00289924	0.00219623	0.00126034	0.00793823	0.00204885	0.00889943	0.00137912	0.00289956	0.00132264	0.00348048	0.00356206	0.00394645	0.00102287	0.00208112	0.00421254	0.00092171	0.00242016	0.00173180	0.00319913
1.52000000	0.00332813	0.00154671	0.00459514	0.00516056	0.00230092	0.00604490	0.00285433	0.00240767	0.00094146	0.00895372	0.00291291	0.01096319	0.00117535	0.00296809	0.00156741	0.00345325	0.00372891	0.00416927	0.00112330	0.00181293	0.00400577	0.00090488	0.00204114	0.00189920	0.00264880
1.53000000	0.00355595	0.00089030	0.00412613	0.00545652	0.00212749	0.00606001	0.00253591	0.00207836	0.00084956	0.01007251	0.00363562	0.01289751	0.00093052	0.00345775	0.00212221	0.00340300	0.00386497	0.00443250	0.00107268	0.00168140	0.00381802	0.00099002	0.00210789	0.00208226	0.00240747
1.54000000	0.00377414	0.00102704	0.00379410	0.00573562	0.00193559	0.00590411	0.00217075	0.00183832	0.00070810	0.01093418	0.00436181	0.01486124	0.00083987	0.00404014	0.00246134	0.00333881	0.00391444	0.00461587	0.00100298	0.00146021	0.00357663	0.00102726	0.00204999	0.00219608	0.00206271
