SUBJ94_3_JMP_07_upper_limb_body_marker_personalization_task_1_initialErrors.sto
version=1
nRows=240
nColumns=26
inDegrees=no
endheader
time	R_Asis	L_Asis	Sacral	R_Thigh_Lateral	R_Knee_Lateral	R_Shank_Lateral	R_Ankle_Lateral	R_Heel	R_Toe	L_Thigh_Lateral	L_Knee_Lateral	L_Shank_Lateral	L_Ankle_Lateral	L_Heel	L_Toe	R_Shoulder	L_Shoulder	C7	J_Notch	Thoracic	Sternum	R_Elbow	L_Elbow	R_Wrist	L_Wrist
0.00000000	0.00346589	0.00352357	0.00276240	0.00543149	0.00448449	0.00743481	0.00095424	0.00357363	0.00112044	0.00947217	0.00498674	0.00641739	0.00281517	0.00435774	0.00327069	0.00460543	0.00256950	0.00221832	0.00155216	0.00581076	0.00223642	0.00482320	0.00608132	0.01007382	0.01115521
0.01000000	0.00363228	0.00356341	0.00295257	0.00495466	0.00518305	0.00703524	0.00091249	0.00346216	0.00080701	0.00928830	0.00391948	0.00544843	0.00303346	0.00442269	0.00341692	0.00402380	0.00263794	0.00241958	0.00154599	0.00568265	0.00219797	0.00516004	0.00611798	0.01043751	0.01083593
0.02000000	0.00363333	0.00307065	0.00264033	0.00478688	0.00504699	0.00665659	0.00071493	0.00302206	0.00102863	0.00867641	0.00305690	0.00502443	0.00297848	0.00421682	0.00348246	0.00346871	0.00260655	0.00257024	0.00145259	0.00565068	0.00211909	0.00526691	0.00581788	0.01084324	0.01071519
0.03000000	0.00375429	0.00317678	0.00289260	0.00454260	0.00567747	0.00628547	0.00071100	0.00300030	0.00075860	0.00874899	0.00217433	0.00441758	0.00289109	0.00405825	0.00340599	0.00310923	0.00269168	0.00265731	0.00139463	0.00545256	0.00191113	0.00560525	0.00596530	0.01114805	0.01033930
0.04000000	0.00369930	0.00303909	0.00299865	0.00454068	0.00560165	0.00596494	0.00054650	0.00254499	0.00124365	0.00836045	0.00175004	0.00421766	0.00262308	0.00381923	0.00355543	0.00262783	0.00281106	0.00276927	0.00142079	0.00532683	0.00176854	0.00575328	0.00554742	0.01143520	0.01019081
0.05000000	0.00369818	0.00283133	0.00282065	0.00450655	0.00568986	0.00571919	0.00044747	0.00236062	0.00119225	0.00818481	0.00175361	0.00402394	0.00235214	0.00366164	0.00325496	0.00230576	0.00286432	0.00279280	0.00135041	0.00520112	0.00148957	0.00592899	0.00539827	0.01171615	0.00995912
0.06000000	0.00383858	0.00310453	0.00309702	0.00451567	0.00611975	0.00554738	0.00062919	0.00244157	0.00089315	0.00821878	0.00220176	0.00412222	0.00189552	0.00332766	0.00241092	0.00202917	0.00299014	0.00278484	0.00133958	0.00486535	0.00127163	0.00622019	0.00571753	0.01201135	0.00946236
0.07000000	0.00363247	0.00255117	0.00256879	0.00458755	0.00580127	0.00536504	0.00032678	0.00210229	0.00105198	0.00775207	0.00234170	0.00406832	0.00177260	0.00328554	0.00242156	0.00174483	0.00303206	0.00276767	0.00133570	0.00481368	0.00092597	0.00635085	0.00524146	0.01218191	0.00939128
0.08000000	0.00352905	0.00235815	0.00296197	0.00482284	0.00592955	0.00509467	0.00029986	0.00202419	0.00113790	0.00751564	0.00243469	0.00402766	0.00153652	0.00309418	0.00231222	0.00151862	0.00322839	0.00276113	0.00148339	0.00451304	0.00082941	0.00660711	0.00521608	0.01232810	0.00902810
0.09000000	0.00341208	0.00221621	0.00276604	0.00484750	0.00583573	0.00507165	0.00039851	0.00198385	0.00118746	0.00698987	0.00227680	0.00384449	0.00129560	0.00279158	0.00183648	0.00152097	0.00337528	0.00269547	0.00162345	0.00426893	0.00079808	0.00664877	0.00495570	0.01267550	0.00881666
0.10000000	0.00329829	0.00215969	0.00256322	0.00499265	0.00560375	0.00510131	0.00043486	0.00198507	0.00119379	0.00644766	0.00200642	0.00363963	0.00087233	0.00223519	0.00150781	0.00152873	0.00347503	0.00265890	0.00169136	0.00397765	0.00102699	0.00692339	0.00487234	0.01285366	0.00854280
0.11000000	0.00313693	0.00209646	0.00258405	0.00518768	0.00541431	0.00510896	0.00056713	0.00205678	0.00121078	0.00598426	0.00167068	0.00334232	0.00048363	0.00148500	0.00130068	0.00172357	0.00362286	0.00263194	0.00186128	0.00361998	0.00151865	0.00713325	0.00476092	0.01311338	0.00826018
0.12000000	0.00299505	0.00254087	0.00330219	0.00553450	0.00521651	0.00519007	0.00080617	0.00227361	0.00109369	0.00570208	0.00156806	0.00337959	0.00096077	0.00093311	0.00090863	0.00190262	0.00380829	0.00264888	0.00221045	0.00306088	0.00242315	0.00737996	0.00508690	0.01335280	0.00770274
0.13000000	0.00274401	0.00221651	0.00260056	0.00560951	0.00487627	0.00528212	0.00100412	0.00233365	0.00128334	0.00556280	0.00189307	0.00307558	0.00168492	0.00153073	0.00120368	0.00243594	0.00387682	0.00279248	0.00228154	0.00292935	0.00269150	0.00766026	0.00451497	0.01362916	0.00772086
0.14000000	0.00247742	0.00234247	0.00262109	0.00585009	0.00439115	0.00539852	0.00123755	0.00250490	0.00130582	0.00576767	0.00244719	0.00323596	0.00262375	0.00268908	0.00114744	0.00284309	0.00397487	0.00295612	0.00250301	0.00265091	0.00328937	0.00791813	0.00445955	0.01390890	0.00741354
0.15000000	0.00224347	0.00309823	0.00315841	0.00621497	0.00402712	0.00547706	0.00153427	0.00272379	0.00121179	0.00616010	0.00257051	0.00347292	0.00355712	0.00398830	0.00117897	0.00316100	0.00408491	0.00316707	0.00276444	0.00238177	0.00398043	0.00819186	0.00452365	0.01414436	0.00701683
0.16000000	0.00195360	0.00355511	0.00324652	0.00644345	0.00368642	0.00545923	0.00190088	0.00288000	0.00125082	0.00659992	0.00283659	0.00371529	0.00417760	0.00478843	0.00154554	0.00357320	0.00417921	0.00338113	0.00296878	0.00232537	0.00449404	0.00847224	0.00433868	0.01439860	0.00675414
0.17000000	0.00154830	0.00290647	0.00285798	0.00652080	0.00308221	0.00552187	0.00214478	0.00289322	0.00128793	0.00706796	0.00296190	0.00413708	0.00465769	0.00524130	0.00185490	0.00399575	0.00420142	0.00357945	0.00309220	0.00236793	0.00474591	0.00867266	0.00398333	0.01468577	0.00662026
0.18000000	0.00133195	0.00287648	0.00298651	0.00663920	0.00257097	0.00538725	0.00245115	0.00289846	0.00122708	0.00725732	0.00289503	0.00435280	0.00473346	0.00532554	0.00190435	0.00419950	0.00420930	0.00373938	0.00328839	0.00233450	0.00507175	0.00888226	0.00385458	0.01487017	0.00632230
0.19000000	0.00130172	0.00294911	0.00320412	0.00663224	0.00206816	0.00519905	0.00277954	0.00292551	0.00092724	0.00725198	0.00257375	0.00432709	0.00455087	0.00506840	0.00189552	0.00434651	0.00423874	0.00379267	0.00338663	0.00224686	0.00521407	0.00909333	0.00386779	0.01501206	0.00593188
0.20000000	0.00149668	0.00327352	0.00396018	0.00618730	0.00128375	0.00550578	0.00300814	0.00265269	0.00241950	0.00686306	0.00160571	0.00413432	0.00407045	0.00433193	0.00155221	0.00437842	0.00403214	0.00400766	0.00358058	0.00231707	0.00547256	0.00897608	0.00419686	0.01527921	0.00541684
0.21000000	0.00175184	0.00242814	0.00359588	0.00625149	0.00118035	0.00444893	0.00320286	0.00246068	0.00102898	0.00643353	0.00172663	0.00410874	0.00366974	0.00376434	0.00193657	0.00433765	0.00406911	0.00378647	0.00353418	0.00195674	0.00516733	0.00930890	0.00356959	0.01525193	0.00538159
0.22000000	0.00176019	0.00236413	0.00388136	0.00581717	0.00160086	0.00391019	0.00312491	0.00206738	0.00252600	0.00583460	0.00111571	0.00363224	0.00310379	0.00301464	0.00194573	0.00433328	0.00391370	0.00382146	0.00348966	0.00180578	0.00486188	0.00929711	0.00363566	0.01537994	0.00508500
0.23000000	0.00221176	0.00172594	0.00366365	0.00515595	0.00138453	0.00326324	0.00333873	0.00198570	0.00205271	0.00476626	0.00091680	0.00374500	0.00254621	0.00221354	0.00202736	0.00418217	0.00370929	0.00370739	0.00356592	0.00167674	0.00474224	0.00945976	0.00333331	0.01539708	0.00488556
0.24000000	0.00217981	0.00156104	0.00349540	0.00421399	0.00198731	0.00264306	0.00337857	0.00208796	0.00283260	0.00379238	0.00083531	0.00360153	0.00202961	0.00163772	0.00206309	0.00412952	0.00348074	0.00365482	0.00350616	0.00159997	0.00440394	0.00944403	0.00323295	0.01550153	0.00468452
0.25000000	0.00227878	0.00154129	0.00338216	0.00325846	0.00236257	0.00195759	0.00336057	0.00232242	0.00346688	0.00279878	0.00120308	0.00366477	0.00158583	0.00135596	0.00206624	0.00402366	0.00319721	0.00359600	0.00339295	0.00163005	0.00401940	0.00951012	0.00305850	0.01548312	0.00456850
0.26000000	0.00261680	0.00173643	0.00385566	0.00231243	0.00243891	0.00135445	0.00323448	0.00256457	0.00404129	0.00237645	0.00108871	0.00309499	0.00082336	0.00076919	0.00143189	0.00380217	0.00296683	0.00356699	0.00337001	0.00170605	0.00365740	0.00939273	0.00290449	0.01537141	0.00444723
0.27000000	0.00241396	0.00186301	0.00341986	0.00110417	0.00294807	0.00145336	0.00324873	0.00289842	0.00445433	0.00150783	0.00162932	0.00366550	0.00044300	0.00109123	0.00161398	0.00377949	0.00259642	0.00359704	0.00314541	0.00190307	0.00319063	0.00937564	0.00272055	0.01535164	0.00449349
0.28000000	0.00260590	0.00193281	0.00359165	0.00077555	0.00295530	0.00200936	0.00319442	0.00300951	0.00453545	0.00115249	0.00215428	0.00414649	0.00021135	0.00126693	0.00173232	0.00373728	0.00235924	0.00356807	0.00295975	0.00216391	0.00287041	0.00927456	0.00262575	0.01523239	0.00447834
0.29000000	0.00279742	0.00207559	0.00381266	0.00192122	0.00300152	0.00274611	0.00317056	0.00302993	0.00431924	0.00153519	0.00235757	0.00427362	0.00074037	0.00118826	0.00152570	0.00375760	0.00217927	0.00356304	0.00273041	0.00237581	0.00252102	0.00906215	0.00251688	0.01512611	0.00453930
0.30000000	0.00265957	0.00220531	0.00351998	0.00340844	0.00338786	0.00337951	0.00298415	0.00273895	0.00387752	0.00205892	0.00269674	0.00505283	0.00124032	0.00137986	0.00202328	0.00377339	0.00199129	0.00356450	0.00239253	0.00259447	0.00219384	0.00897962	0.00238569	0.01496091	0.00473461
0.31000000	0.00267621	0.00224892	0.00341507	0.00487828	0.00365540	0.00396944	0.00275390	0.00236952	0.00312568	0.00271462	0.00302216	0.00573044	0.00169030	0.00146668	0.00240929	0.00380509	0.00201140	0.00354366	0.00208003	0.00275687	0.00198408	0.00876324	0.00230409	0.01481006	0.00494058
0.32000000	0.00283565	0.00230718	0.00359682	0.00619485	0.00380586	0.00458415	0.00237138	0.00193088	0.00237686	0.00330628	0.00324058	0.00628549	0.00208499	0.00143777	0.00266024	0.00382080	0.00205212	0.00356378	0.00175605	0.00293741	0.00194756	0.00853033	0.00233442	0.01454809	0.00513464
0.33000000	0.00199132	0.00263450	0.00270636	0.00762273	0.00486352	0.00498351	0.00178200	0.00267417	0.00334636	0.00400602	0.00404816	0.00684271	0.00217416	0.00114831	0.00252074	0.00393690	0.00192097	0.00354973	0.00121114	0.00274152	0.00172133	0.00846905	0.00211422	0.01442790	0.00544748
0.34000000	0.00344478	0.00235700	0.00431002	0.00841224	0.00383349	0.00548448	0.00158750	0.00143359	0.00197281	0.00440787	0.00344974	0.00670871	0.00263769	0.00097573	0.00260352	0.00389058	0.00237691	0.00351046	0.00116818	0.00314169	0.00196062	0.00793664	0.00244071	0.01393712	0.00554259
0.35000000	0.00253404	0.00268706	0.00347159	0.00952226	0.00462716	0.00562564	0.00120793	0.00218497	0.00356708	0.00493711	0.00399667	0.00705868	0.00253007	0.00066268	0.00227744	0.00387425	0.00222039	0.00350443	0.00074573	0.00291266	0.00181773	0.00798135	0.00233231	0.01366179	0.00580159
0.36000000	0.00347291	0.00238874	0.00400641	0.01010193	0.00429947	0.00577168	0.00101719	0.00144454	0.00274907	0.00525370	0.00320354	0.00701995	0.00270597	0.00084993	0.00262024	0.00390508	0.00257902	0.00341563	0.00065574	0.00315582	0.00192079	0.00726532	0.00254917	0.01327765	0.00601230
0.37000000	0.00376813	0.00240126	0.00410772	0.01047766	0.00422512	0.00583035	0.00095550	0.00147685	0.00305566	0.00553181	0.00294412	0.00673951	0.00261426	0.00064198	0.00251451	0.00387744	0.00260310	0.00336491	0.00053568	0.00314561	0.00182893	0.00690938	0.00260598	0.01287139	0.00620006
0.38000000	0.00411519	0.00237903	0.00426205	0.01061967	0.00399895	0.00584873	0.00102616	0.00166895	0.00324360	0.00571922	0.00264776	0.00626789	0.00249529	0.00060156	0.00221278	0.00386859	0.00253977	0.00330252	0.00049674	0.00307734	0.00165104	0.00661196	0.00274326	0.01241863	0.00630409
0.39000000	0.00412818	0.00242872	0.00394535	0.01054439	0.00401082	0.00570728	0.00113139	0.00180618	0.00315011	0.00581363	0.00246785	0.00585182	0.00221918	0.00074662	0.00175186	0.00376315	0.00250563	0.00321116	0.00059511	0.00301373	0.00140540	0.00633574	0.00279668	0.01200640	0.00643796
0.40000000	0.00439993	0.00229186	0.00399030	0.01024017	0.00378755	0.00557372	0.00120165	0.00212516	0.00311405	0.00579254	0.00192625	0.00537717	0.00204285	0.00091128	0.00172339	0.00379082	0.00231689	0.00311928	0.00060692	0.00289754	0.00114821	0.00591243	0.00290647	0.01160485	0.00646364
0.41000000	0.00448838	0.00234895	0.00371282	0.00972559	0.00364477	0.00537764	0.00125811	0.00230164	0.00266607	0.00572078	0.00175770	0.00490274	0.00168566	0.00126620	0.00122739	0.00366329	0.00221950	0.00305012	0.00073085	0.00286815	0.00105147	0.00569714	0.00301377	0.01116932	0.00652125
0.42000000	0.00462356	0.00223069	0.00362320	0.00908783	0.00347228	0.00516574	0.00130728	0.00250941	0.00231327	0.00559040	0.00142223	0.00448443	0.00145632	0.00150742	0.00094361	0.00366590	0.00208793	0.00297162	0.00077724	0.00277894	0.00112175	0.00538608	0.00314061	0.01077619	0.00650624
0.43000000	0.00482700	0.00206756	0.00364816	0.00834360	0.00324009	0.00497271	0.00136478	0.00272560	0.00219300	0.00538973	0.00116869	0.00409771	0.00123775	0.00168621	0.00101886	0.00371812	0.00207345	0.00283408	0.00077048	0.00273372	0.00134040	0.00501174	0.00324722	0.01041668	0.00645505
0.44000000	0.00496090	0.00197072	0.00362686	0.00764766	0.00306565	0.00473540	0.00145276	0.00278137	0.00196133	0.00520402	0.00108720	0.00386509	0.00108999	0.00194085	0.00083746	0.00376869	0.00216426	0.00279565	0.00081100	0.00270220	0.00177259	0.00484489	0.00337153	0.00999083	0.00641739
0.45000000	0.00505189	0.00177254	0.00357188	0.00694549	0.00278293	0.00457317	0.00151883	0.00292003	0.00215413	0.00498048	0.00105404	0.00372398	0.00095590	0.00202808	0.00102853	0.00383299	0.00240672	0.00267468	0.00086097	0.00268116	0.00230067	0.00448370	0.00342337	0.00976055	0.00637425
0.46000000	0.00518044	0.00170482	0.00362616	0.00640161	0.00258789	0.00437618	0.00157926	0.00286914	0.00208088	0.00481348	0.00118220	0.00371302	0.00089353	0.00223274	0.00098887	0.00390584	0.00271806	0.00259452	0.00090806	0.00271545	0.00280694	0.00432205	0.00354080	0.00944581	0.00631135
0.47000000	0.00557576	0.00160001	0.00378060	0.00603698	0.00219801	0.00424548	0.00167086	0.00263903	0.00175813	0.00473161	0.00182714	0.00396733	0.00095509	0.00275247	0.00062814	0.00398163	0.00305063	0.00250263	0.00096591	0.00269398	0.00328897	0.00454975	0.00380773	0.00902640	0.00619536
0.48000000	0.00526864	0.00164979	0.00362361	0.00568627	0.00214453	0.00429039	0.00178433	0.00261359	0.00212532	0.00452555	0.00166657	0.00392771	0.00091212	0.00246280	0.00110460	0.00405702	0.00347436	0.00249125	0.00101710	0.00280921	0.00380701	0.00405478	0.00363140	0.00895216	0.00623907
0.49000000	0.00547757	0.00159729	0.00392762	0.00574405	0.00170482	0.00440605	0.00178301	0.00257417	0.00231049	0.00448802	0.00200973	0.00406716	0.00101758	0.00260885	0.00109624	0.00412703	0.00382449	0.00244196	0.00103220	0.00284583	0.00411325	0.00392483	0.00378387	0.00867888	0.00615378
0.50000000	0.00553074	0.00163156	0.00411868	0.00589257	0.00140151	0.00464297	0.00173067	0.00251463	0.00255203	0.00442284	0.00219525	0.00419797	0.00108876	0.00257294	0.00133058	0.00420359	0.00417068	0.00243533	0.00103792	0.00289108	0.00435101	0.00372187	0.00373146	0.00845724	0.00617739
0.51000000	0.00549753	0.00166274	0.00417450	0.00614646	0.00097179	0.00504068	0.00165985	0.00248195	0.00252653	0.00442811	0.00241700	0.00434153	0.00116567	0.00255859	0.00135792	0.00417652	0.00445885	0.00240001	0.00105138	0.00292710	0.00459983	0.00359218	0.00376056	0.00830540	0.00616687
0.52000000	0.00546855	0.00174147	0.00425791	0.00655175	0.00057567	0.00547650	0.00148573	0.00246099	0.00248826	0.00446197	0.00270194	0.00444090	0.00127612	0.00257974	0.00132038	0.00412915	0.00471488	0.00236563	0.00099709	0.00296376	0.00466043	0.00352278	0.00378772	0.00810832	0.00614988
0.53000000	0.00528136	0.00192992	0.00415141	0.00700050	0.00032313	0.00586943	0.00122122	0.00234214	0.00205167	0.00449692	0.00288964	0.00458382	0.00132080	0.00256338	0.00115096	0.00401656	0.00487670	0.00233026	0.00096001	0.00298212	0.00470876	0.00351761	0.00379636	0.00793105	0.00619032
0.54000000	0.00518898	0.00203917	0.00414910	0.00730272	0.00015700	0.00630085	0.00090806	0.00242574	0.00189991	0.00458403	0.00305494	0.00462749	0.00135646	0.00249264	0.00116332	0.00385435	0.00500365	0.00229494	0.00090161	0.00296549	0.00459566	0.00338280	0.00377912	0.00773821	0.00623783
0.55000000	0.00583995	0.00236459	0.00422059	0.00771155	0.00121397	0.00672420	0.00066200	0.00215731	0.00103335	0.00454962	0.00360273	0.00481899	0.00160558	0.00294635	0.00079508	0.00357402	0.00477572	0.00213572	0.00090709	0.00275351	0.00422285	0.00346358	0.00397474	0.00742461	0.00629740
0.56000000	0.00483263	0.00236394	0.00385703	0.00742658	0.00039780	0.00664475	0.00036643	0.00236979	0.00135242	0.00480021	0.00331380	0.00466720	0.00140600	0.00236612	0.00106647	0.00340749	0.00504943	0.00212450	0.00080127	0.00285059	0.00409310	0.00313325	0.00369309	0.00743224	0.00643179
0.57000000	0.00485754	0.00252593	0.00376328	0.00728428	0.00066467	0.00658092	0.00055753	0.00206904	0.00112491	0.00508574	0.00349936	0.00451709	0.00145184	0.00240974	0.00092370	0.00310240	0.00501579	0.00207237	0.00078349	0.00276914	0.00359186	0.00309410	0.00383684	0.00714301	0.00645993
0.58000000	0.00441839	0.00276675	0.00334468	0.00661092	0.00031761	0.00606828	0.00086537	0.00182422	0.00076451	0.00512451	0.00337164	0.00464452	0.00143256	0.00227837	0.00104577	0.00287925	0.00482987	0.00187011	0.00089734	0.00260425	0.00322165	0.00287779	0.00366368	0.00710434	0.00672477
0.59000000	0.00460654	0.00288559	0.00319492	0.00604026	0.00037122	0.00562439	0.00138359	0.00131340	0.00032819	0.00558086	0.00329149	0.00456391	0.00152084	0.00232417	0.00081121	0.00259564	0.00474020	0.00176194	0.00109829	0.00244666	0.00250191	0.00297581	0.00384143	0.00681131	0.00678648
0.60000000	0.00411569	0.00308257	0.00266160	0.00494547	0.00082520	0.00468316	0.00177048	0.00140786	0.00035771	0.00558665	0.00320918	0.00469240	0.00160861	0.00235278	0.00099744	0.00242041	0.00437793	0.00143914	0.00131547	0.00215427	0.00210072	0.00275132	0.00368259	0.00685809	0.00712996
0.61000000	0.00448678	0.00311441	0.00251751	0.00428290	0.00113754	0.00394731	0.00231699	0.00185757	0.00021943	0.00605433	0.00304288	0.00467111	0.00170162	0.00240695	0.00097038	0.00226123	0.00419610	0.00129693	0.00163977	0.00190804	0.00145404	0.00281490	0.00372618	0.00662636	0.00730924
0.62000000	0.00409102	0.00329076	0.00196009	0.00383211	0.00163588	0.00319658	0.00281826	0.00250343	0.00081602	0.00620461	0.00279526	0.00489362	0.00191621	0.00256272	0.00103605	0.00223175	0.00382783	0.00099525	0.00185544	0.00160218	0.00099426	0.00263038	0.00377600	0.00666767	0.00761691
0.63000000	0.00420436	0.00339511	0.00163835	0.00412665	0.00188867	0.00288730	0.00333402	0.00322216	0.00107561	0.00654090	0.00250667	0.00503933	0.00211745	0.00270260	0.00110114	0.00224480	0.00357386	0.00082275	0.00213126	0.00132034	0.00048595	0.00260158	0.00385402	0.00658651	0.00786964
0.64000000	0.00477184	0.00341007	0.00162668	0.00487982	0.00192323	0.00302537	0.00374360	0.00385156	0.00108330	0.00693766	0.00204976	0.00520069	0.00236584	0.00288148	0.00106759	0.00229425	0.00347617	0.00082034	0.00243964	0.00103671	0.00034588	0.00272337	0.00392402	0.00639458	0.00805505
0.65000000	0.00502106	0.00362399	0.00156630	0.00575723	0.00195221	0.00354368	0.00396042	0.00418238	0.00124749	0.00721220	0.00172035	0.00534924	0.00265301	0.00307012	0.00108172	0.00242059	0.00332467	0.00080883	0.00266531	0.00081154	0.00056879	0.00271314	0.00401528	0.00627657	0.00829168
0.66000000	0.00540713	0.00378999	0.00147295	0.00686006	0.00129165	0.00380629	0.00464569	0.00414313	0.00194148	0.00730814	0.00118270	0.00567576	0.00298545	0.00323188	0.00135492	0.00247320	0.00316860	0.00081017	0.00285201	0.00051753	0.00073158	0.00284419	0.00387158	0.00627032	0.00871376
0.67000000	0.00536964	0.00416622	0.00176896	0.00710215	0.00141406	0.00469288	0.00421886	0.00407521	0.00160759	0.00764721	0.00096670	0.00553592	0.00318152	0.00336930	0.00112577	0.00286408	0.00336737	0.00071084	0.00290595	0.00053833	0.00082834	0.00275891	0.00415711	0.00606161	0.00867401
0.68000000	0.00566656	0.00400330	0.00199011	0.00723171	0.00149490	0.00509773	0.00415708	0.00368196	0.00177180	0.00732204	0.00152220	0.00601157	0.00353959	0.00334354	0.00228430	0.00279742	0.00343236	0.00092534	0.00313219	0.00032220	0.00100589	0.00294027	0.00402648	0.00594032	0.00895414
0.69000000	0.00440638	0.00508295	0.00179684	0.00713883	0.00111325	0.00567123	0.00394209	0.00362069	0.00193167	0.00733032	0.00112999	0.00561023	0.00358841	0.00344520	0.00100942	0.00289550	0.00356302	0.00065266	0.00317472	0.00058015	0.00114773	0.00249151	0.00456066	0.00586283	0.00886271
0.70000000	0.00384817	0.00546136	0.00179024	0.00667817	0.00125239	0.00582706	0.00384006	0.00333193	0.00204105	0.00695784	0.00161497	0.00539981	0.00361867	0.00330876	0.00150047	0.00301494	0.00376715	0.00052985	0.00315818	0.00076924	0.00115855	0.00240023	0.00468843	0.00577638	0.00896806
0.71000000	0.00337597	0.00567655	0.00182773	0.00595634	0.00165371	0.00572518	0.00366501	0.00317632	0.00208197	0.00635752	0.00216461	0.00507196	0.00359368	0.00319414	0.00211557	0.00311541	0.00403664	0.00041301	0.00310890	0.00100469	0.00124433	0.00234833	0.00484971	0.00567355	0.00903052
0.72000000	0.00302903	0.00584569	0.00214096	0.00547690	0.00147583	0.00504105	0.00313209	0.00279354	0.00185821	0.00571335	0.00280821	0.00431846	0.00339244	0.00301046	0.00263044	0.00316163	0.00440753	0.00024672	0.00306002	0.00135069	0.00149380	0.00218013	0.00496155	0.00550881	0.00906312
0.73000000	0.00241531	0.00553356	0.00192416	0.00428220	0.00216884	0.00479280	0.00304874	0.00291152	0.00174158	0.00466424	0.00339102	0.00398138	0.00323335	0.00311534	0.00343477	0.00324617	0.00463398	0.00022609	0.00291484	0.00160635	0.00184858	0.00212594	0.00506891	0.00546985	0.00920301
0.74000000	0.00190720	0.00521318	0.00194313	0.00310802	0.00276321	0.00451300	0.00291762	0.00288268	0.00143942	0.00368514	0.00362817	0.00353559	0.00311814	0.00333992	0.00402609	0.00333754	0.00487900	0.00036027	0.00274196	0.00187444	0.00227508	0.00205849	0.00530935	0.00543352	0.00924466
0.75000000	0.00149979	0.00470117	0.00207817	0.00224351	0.00332841	0.00411208	0.00262455	0.00293646	0.00117594	0.00284121	0.00388483	0.00332742	0.00299894	0.00361138	0.00444119	0.00344498	0.00506071	0.00049475	0.00255927	0.00209021	0.00276057	0.00202081	0.00547812	0.00539646	0.00934154
0.76000000	0.00121604	0.00426001	0.00243706	0.00200533	0.00361580	0.00372056	0.00221508	0.00289375	0.00093600	0.00284995	0.00394233	0.00345385	0.00284289	0.00376781	0.00463277	0.00357436	0.00531688	0.00069216	0.00238036	0.00232517	0.00327392	0.00198228	0.00564251	0.00538147	0.00939174
0.77000000	0.00118224	0.00401201	0.00294663	0.00232116	0.00359791	0.00341424	0.00178935	0.00266605	0.00102467	0.00377287	0.00388307	0.00400624	0.00279389	0.00393407	0.00447439	0.00370760	0.00559098	0.00096356	0.00216949	0.00257780	0.00374119	0.00196979	0.00589484	0.00536776	0.00936947
0.78000000	0.00114050	0.00377776	0.00351610	0.00274850	0.00373748	0.00291898	0.00146901	0.00239436	0.00095309	0.00533677	0.00389408	0.00498632	0.00267780	0.00390144	0.00421911	0.00379967	0.00563929	0.00113041	0.00202946	0.00271744	0.00419529	0.00212445	0.00588268	0.00526068	0.00954857
0.79000000	0.00044202	0.00293455	0.00362741	0.00332668	0.00384261	0.00290871	0.00135992	0.00235514	0.00132903	0.00727347	0.00421986	0.00600226	0.00259153	0.00376049	0.00383210	0.00402699	0.00563270	0.00130936	0.00187496	0.00288101	0.00476474	0.00226923	0.00601889	0.00538578	0.00965879
0.80000000	0.00069651	0.00336379	0.00419295	0.00367367	0.00368415	0.00275561	0.00123966	0.00200098	0.00158950	0.00905204	0.00391115	0.00726290	0.00256748	0.00368360	0.00328327	0.00417250	0.00568768	0.00150158	0.00177193	0.00303232	0.00512035	0.00239179	0.00611052	0.00540309	0.00973332
0.81000000	0.00074702	0.00297081	0.00433864	0.00405188	0.00366752	0.00299679	0.00130483	0.00199830	0.00183254	0.01078985	0.00411042	0.00846530	0.00245603	0.00351786	0.00279919	0.00435869	0.00558457	0.00169839	0.00172374	0.00315798	0.00550501	0.00255426	0.00613443	0.00554317	0.00988803
0.82000000	0.00111643	0.00327951	0.00471401	0.00432024	0.00353165	0.00330671	0.00137115	0.00198892	0.00193100	0.01227754	0.00393027	0.00969393	0.00245528	0.00337460	0.00232603	0.00448531	0.00550958	0.00181508	0.00175438	0.00321918	0.00575250	0.00259430	0.00628957	0.00564338	0.00990311
0.83000000	0.00135588	0.00358214	0.00489044	0.00450358	0.00349763	0.00368376	0.00133424	0.00190316	0.00192543	0.01342752	0.00375578	0.01096588	0.00233371	0.00336640	0.00238058	0.00454523	0.00538618	0.00203707	0.00179515	0.00335214	0.00588527	0.00271692	0.00627396	0.00573386	0.01001385
0.84000000	0.00176209	0.00383884	0.00457945	0.00470934	0.00385067	0.00402511	0.00113206	0.00178841	0.00167447	0.01407860	0.00392394	0.01218293	0.00222580	0.00367495	0.00309202	0.00449769	0.00510364	0.00236517	0.00192852	0.00353326	0.00619401	0.00279401	0.00614763	0.00577941	0.01020945
0.85000000	0.00182752	0.00423466	0.00525425	0.00473610	0.00326905	0.00448293	0.00116200	0.00186360	0.00167994	0.01472857	0.00312515	0.01298144	0.00234020	0.00358964	0.00230018	0.00454499	0.00511766	0.00241181	0.00195141	0.00363123	0.00584104	0.00277751	0.00635691	0.00587451	0.01007472
0.86000000	0.00197113	0.00432051	0.00511090	0.00488213	0.00321421	0.00484301	0.00116289	0.00189702	0.00149599	0.01482511	0.00303041	0.01359171	0.00232309	0.00377451	0.00201339	0.00446793	0.00496619	0.00263457	0.00205122	0.00381806	0.00580028	0.00278818	0.00628526	0.00597231	0.01012937
0.87000000	0.00207133	0.00443924	0.00512556	0.00498625	0.00301973	0.00521507	0.00115755	0.00197103	0.00135805	0.01465474	0.00284068	0.01384852	0.00229021	0.00394779	0.00156043	0.00432739	0.00485427	0.00284043	0.00209955	0.00398501	0.00560835	0.00273807	0.00630824	0.00605089	0.01007919
0.88000000	0.00205151	0.00440834	0.00487269	0.00510016	0.00299485	0.00542085	0.00103900	0.00196756	0.00124728	0.01415082	0.00265213	0.01376201	0.00228137	0.00421039	0.00106923	0.00421165	0.00473044	0.00309966	0.00216109	0.00421793	0.00550081	0.00270308	0.00625774	0.00620633	0.01006670
0.89000000	0.00202797	0.00443761	0.00507056	0.00509355	0.00275046	0.00573665	0.00110755	0.00209637	0.00110602	0.01353547	0.00251566	0.01320811	0.00213164	0.00434493	0.00084801	0.00400454	0.00466637	0.00321625	0.00215503	0.00429946	0.00512795	0.00263125	0.00623050	0.00625660	0.00996926
0.90000000	0.00190999	0.00434006	0.00488934	0.00509926	0.00279970	0.00582846	0.00102326	0.00211652	0.00095914	0.01269776	0.00244623	0.01230966	0.00200814	0.00448844	0.00071043	0.00388299	0.00459016	0.00337003	0.00218706	0.00444253	0.00492537	0.00263754	0.00620863	0.00644342	0.00986387
0.91000000	0.00178892	0.00421170	0.00479287	0.00505041	0.00288132	0.00585747	0.00099641	0.00214482	0.00087380	0.01182621	0.00248581	0.01105512	0.00181515	0.00451120	0.00085217	0.00373572	0.00453355	0.00347629	0.00221727	0.00454051	0.00471397	0.00262329	0.00612177	0.00660199	0.00976551
0.92000000	0.00174271	0.00424439	0.00481075	0.00491517	0.00295818	0.00591291	0.00101420	0.00218773	0.00078024	0.01087817	0.00252051	0.00956653	0.00159403	0.00446301	0.00105027	0.00360402	0.00448591	0.00349888	0.00222172	0.00452103	0.00441039	0.00269172	0.00606724	0.00674872	0.00962026
0.93000000	0.00161121	0.00417140	0.00467378	0.00476198	0.00308928	0.00586797	0.00099544	0.00217570	0.00087022	0.00992436	0.00247280	0.00801298	0.00137921	0.00434713	0.00132322	0.00356881	0.00446646	0.00350921	0.00224255	0.00451281	0.00421626	0.00275459	0.00597003	0.00698731	0.00947840
0.94000000	0.00173964	0.00418171	0.00446862	0.00460576	0.00318443	0.00584873	0.00092890	0.00220205	0.00075305	0.00897299	0.00245781	0.00653691	0.00120541	0.00410204	0.00156295	0.00349283	0.00434718	0.00351924	0.00228482	0.00447758	0.00404189	0.00288702	0.00581931	0.00713290	0.00938374
0.95000000	0.00187407	0.00444645	0.00462463	0.00449823	0.00377073	0.00566775	0.00085552	0.00218489	0.00046747	0.00848061	0.00250766	0.00474144	0.00133939	0.00380738	0.00180499	0.00341535	0.00434907	0.00342406	0.00227806	0.00428027	0.00374392	0.00299042	0.00585030	0.00733950	0.00912358
0.96000000	0.00184316	0.00421771	0.00414887	0.00437718	0.00355249	0.00557744	0.00087173	0.00209505	0.00070537	0.00767231	0.00245954	0.00372622	0.00151363	0.00345623	0.00176398	0.00343410	0.00430272	0.00345302	0.00231071	0.00428966	0.00376234	0.00312900	0.00565168	0.00759979	0.00900787
0.97000000	0.00194480	0.00426255	0.00407050	0.00433457	0.00374899	0.00537685	0.00080741	0.00204189	0.00068660	0.00733820	0.00241209	0.00280258	0.00181324	0.00323771	0.00210318	0.00340616	0.00432086	0.00342297	0.00229907	0.00415795	0.00362049	0.00330700	0.00554377	0.00779727	0.00881060
0.98000000	0.00225098	0.00454713	0.00437981	0.00435498	0.00472764	0.00508839	0.00078746	0.00195104	0.00047345	0.00755190	0.00216811	0.00243778	0.00206573	0.00325517	0.00268663	0.00346790	0.00439320	0.00322629	0.00227920	0.00382780	0.00334910	0.00337013	0.00580023	0.00815985	0.00837967
0.99000000	0.00232206	0.00461310	0.00444959	0.00446094	0.00440715	0.00499413	0.00069889	0.00196844	0.00085414	0.00752546	0.00217671	0.00309297	0.00217271	0.00332293	0.00316320	0.00339863	0.00443500	0.00321575	0.00221752	0.00361686	0.00314041	0.00360882	0.00542039	0.00829162	0.00833712
1.00000000	0.00264981	0.00441069	0.00397751	0.00444203	0.00455180	0.00493595	0.00071099	0.00183146	0.00067188	0.00770029	0.00222931	0.00405220	0.00224121	0.00336060	0.00298842	0.00349450	0.00438934	0.00320280	0.00227850	0.00353593	0.00321275	0.00375443	0.00537113	0.00853755	0.00814119
1.01000000	0.00286821	0.00450125	0.00416539	0.00459793	0.00478541	0.00475463	0.00067762	0.00177220	0.00077198	0.00821232	0.00220269	0.00505433	0.00216120	0.00362373	0.00326485	0.00355257	0.00452215	0.00311454	0.00225622	0.00325865	0.00308452	0.00393208	0.00536213	0.00877377	0.00787570
1.02000000	0.00316689	0.00448081	0.00435857	0.00476938	0.00515537	0.00453524	0.00063919	0.00174963	0.00072322	0.00883415	0.00223809	0.00592931	0.00200737	0.00370378	0.00318925	0.00358872	0.00460038	0.00307876	0.00223962	0.00298272	0.00302519	0.00414694	0.00537369	0.00897283	0.00763782
1.03000000	0.00330815	0.00436515	0.00405602	0.00477366	0.00523848	0.00462442	0.00076762	0.00166736	0.00063316	0.00922435	0.00224057	0.00659276	0.00167700	0.00351509	0.00277243	0.00386311	0.00460442	0.00302973	0.00234866	0.00282048	0.00321192	0.00428765	0.00532176	0.00927628	0.00749172
1.04000000	0.00341196	0.00429821	0.00408122	0.00487220	0.00534880	0.00460307	0.00079717	0.00165510	0.00062148	0.00949923	0.00216377	0.00689998	0.00132603	0.00328330	0.00241171	0.00405279	0.00472144	0.00296431	0.00242966	0.00257392	0.00344282	0.00442105	0.00531868	0.00957514	0.00729984
1.05000000	0.00344705	0.00420329	0.00417497	0.00499896	0.00546242	0.00457446	0.00081762	0.00166467	0.00063215	0.00953628	0.00198480	0.00684862	0.00095975	0.00285545	0.00201429	0.00429556	0.00482096	0.00289846	0.00253506	0.00229325	0.00374935	0.00461874	0.00534320	0.00985880	0.00712068
1.06000000	0.00344022	0.00392986	0.00467377	0.00529529	0.00559520	0.00442057	0.00077004	0.00171866	0.00067596	0.00941598	0.00181804	0.00663772	0.00085284	0.00236140	0.00173368	0.00449374	0.00498508	0.00287111	0.00266869	0.00193899	0.00416795	0.00485159	0.00548781	0.01007949	0.00686419
1.07000000	0.00331714	0.00402324	0.00437748	0.00524544	0.00543169	0.00462069	0.00084349	0.00175801	0.00068248	0.00866905	0.00163000	0.00598847	0.00109502	0.00188622	0.00120830	0.00495660	0.00498315	0.00279320	0.00283710	0.00172059	0.00460987	0.00500179	0.00540800	0.01048745	0.00682565
1.08000000	0.00317631	0.00389023	0.00448998	0.00538258	0.00524851	0.00471538	0.00086165	0.00183087	0.00070585	0.00790686	0.00166545	0.00528221	0.00172114	0.00203416	0.00102246	0.00531399	0.00501177	0.00277064	0.00304847	0.00146181	0.00515954	0.00522738	0.00538277	0.01081949	0.00674991
1.09000000	0.00297249	0.00376105	0.00461310	0.00555785	0.00501416	0.00476273	0.00091203	0.00191643	0.00075133	0.00708519	0.00188463	0.00453059	0.00251007	0.00277154	0.00110307	0.00569444	0.00502847	0.00278339	0.00322903	0.00129738	0.00566531	0.00544760	0.00535519	0.01115593	0.00669203
1.10000000	0.00271027	0.00371515	0.00482632	0.00578891	0.00468474	0.00478740	0.00100249	0.00202054	0.00080013	0.00640012	0.00219391	0.00376976	0.00328085	0.00372530	0.00117412	0.00599759	0.00496859	0.00287944	0.00342939	0.00124021	0.00612822	0.00567860	0.00530272	0.01143605	0.00666749
1.11000000	0.00230767	0.00367774	0.00497087	0.00602522	0.00441331	0.00472454	0.00123607	0.00207599	0.00090060	0.00601222	0.00220958	0.00312539	0.00390877	0.00461374	0.00137391	0.00634323	0.00503560	0.00291678	0.00357752	0.00133884	0.00665970	0.00589231	0.00538901	0.01178111	0.00651372
1.12000000	0.00189777	0.00354447	0.00499731	0.00614877	0.00386751	0.00481740	0.00152208	0.00217887	0.00084937	0.00595745	0.00240309	0.00274934	0.00435681	0.00517523	0.00173690	0.00655795	0.00489299	0.00304152	0.00374880	0.00150159	0.00695763	0.00608667	0.00518707	0.01202841	0.00659791
1.13000000	0.00143510	0.00370388	0.00531241	0.00634646	0.00335097	0.00478344	0.00184951	0.00227624	0.00073962	0.00617047	0.00217041	0.00271834	0.00454213	0.00553760	0.00161053	0.00660771	0.00485083	0.00313608	0.00385428	0.00158721	0.00721796	0.00619147	0.00530115	0.01222313	0.00642366
1.14000000	0.00120038	0.00347978	0.00576834	0.00619936	0.00197566	0.00535383	0.00210258	0.00256770	0.00085941	0.00658234	0.00086932	0.00282689	0.00491853	0.00571313	0.00203116	0.00645774	0.00441267	0.00312871	0.00407882	0.00176745	0.00747416	0.00600547	0.00509065	0.01269265	0.00654127
1.15000000	0.00060073	0.00370833	0.00542248	0.00642065	0.00245640	0.00444888	0.00266462	0.00219834	0.00034270	0.00658635	0.00171009	0.00322460	0.00407639	0.00492522	0.00185309	0.00648076	0.00469970	0.00320881	0.00399961	0.00160256	0.00738551	0.00638277	0.00527180	0.01250044	0.00623963
1.16000000	0.00067070	0.00316699	0.00538669	0.00630533	0.00193757	0.00418767	0.00295613	0.00191236	0.00022882	0.00656952	0.00158777	0.00356486	0.00363029	0.00427846	0.00201799	0.00626168	0.00448068	0.00319326	0.00398754	0.00155462	0.00713117	0.00642180	0.00503859	0.01254666	0.00627897
1.17000000	0.00099402	0.00279440	0.00538273	0.00600658	0.00141286	0.00391034	0.00319491	0.00163931	0.00071202	0.00627773	0.00134034	0.00376377	0.00312504	0.00350041	0.00200773	0.00594408	0.00429593	0.00318946	0.00395548	0.00145407	0.00681627	0.00641201	0.00491979	0.01253370	0.00624413
1.18000000	0.00148622	0.00233853	0.00536943	0.00566656	0.00131884	0.00331359	0.00329978	0.00123449	0.00141354	0.00577893	0.00120236	0.00383295	0.00263692	0.00279848	0.00200360	0.00549913	0.00407190	0.00314617	0.00389116	0.00134974	0.00641110	0.00634946	0.00480560	0.01248095	0.00617578
1.19000000	0.00165602	0.00212738	0.00524030	0.00502996	0.00140939	0.00288742	0.00345146	0.00135464	0.00224589	0.00504444	0.00095085	0.00380716	0.00223057	0.00204359	0.00203478	0.00508166	0.00377303	0.00314810	0.00379813	0.00133775	0.00587881	0.00630897	0.00471137	0.01239508	0.00612514
1.20000000	0.00175381	0.00184111	0.00502633	0.00422738	0.00178824	0.00234092	0.00351832	0.00176848	0.00312722	0.00414912	0.00101508	0.00379808	0.00197723	0.00162592	0.00201891	0.00464913	0.00348293	0.00310751	0.00366008	0.00137734	0.00531642	0.00623139	0.00459489	0.01229730	0.00607856
1.21000000	0.00200055	0.00162230	0.00497133	0.00338629	0.00203737	0.00171522	0.00347789	0.00226844	0.00398146	0.00319197	0.00132244	0.00383390	0.00173615	0.00150595	0.00194574	0.00416653	0.00311870	0.00310005	0.00350841	0.00151353	0.00467223	0.00613154	0.00441685	0.01209946	0.00607852
1.22000000	0.00225985	0.00142822	0.00508176	0.00235702	0.00219964	0.00134654	0.00344963	0.00290440	0.00470624	0.00259221	0.00136916	0.00337638	0.00130485	0.00121034	0.00147086	0.00361114	0.00274612	0.00309028	0.00336172	0.00173624	0.00409215	0.00595514	0.00428079	0.01187113	0.00603426
1.23000000	0.00154228	0.00131413	0.00415913	0.00118817	0.00326627	0.00168649	0.00310772	0.00411966	0.00551749	0.00197748	0.00239129	0.00349376	0.00127904	0.00157520	0.00182272	0.00352022	0.00259080	0.00311508	0.00302825	0.00177468	0.00345651	0.00594540	0.00407532	0.01177950	0.00616554
1.24000000	0.00245524	0.00109557	0.00486304	0.00108253	0.00257812	0.00226003	0.00335097	0.00373257	0.00545222	0.00118245	0.00245845	0.00408437	0.00078237	0.00182594	0.00155223	0.00292454	0.00193791	0.00310580	0.00291048	0.00214003	0.00280726	0.00562708	0.00394931	0.01138674	0.00613970
1.25000000	0.00251659	0.00110608	0.00465225	0.00245804	0.00281326	0.00297797	0.00325654	0.00382266	0.00530054	0.00150287	0.00303943	0.00445287	0.00062086	0.00203762	0.00179369	0.00280546	0.00155627	0.00305053	0.00262284	0.00232956	0.00223542	0.00553525	0.00379283	0.01108295	0.00623280
1.26000000	0.00276719	0.00122568	0.00476773	0.00392110	0.00293991	0.00396108	0.00293651	0.00374485	0.00473414	0.00215338	0.00307963	0.00441640	0.00072188	0.00215639	0.00156580	0.00256864	0.00116401	0.00303802	0.00237789	0.00261489	0.00195282	0.00527120	0.00367368	0.01076956	0.00629955
1.27000000	0.00282399	0.00149979	0.00445102	0.00577968	0.00323886	0.00471751	0.00257708	0.00348993	0.00403792	0.00282086	0.00367444	0.00522468	0.00087645	0.00246572	0.00201957	0.00254247	0.00088642	0.00295062	0.00212125	0.00276328	0.00184304	0.00510444	0.00352666	0.01046169	0.00649310
1.28000000	0.00305472	0.00179223	0.00438561	0.00750324	0.00341315	0.00554694	0.00207523	0.00319362	0.00330596	0.00354783	0.00408569	0.00582437	0.00101786	0.00259167	0.00234456	0.00254526	0.00082839	0.00286690	0.00188093	0.00287361	0.00193802	0.00489488	0.00343682	0.01012560	0.00663324
1.29000000	0.00374145	0.00206211	0.00482905	0.00891157	0.00331038	0.00649852	0.00153500	0.00299878	0.00311816	0.00427341	0.00411293	0.00581524	0.00125354	0.00244945	0.00221652	0.00252432	0.00079555	0.00278813	0.00166240	0.00306240	0.00201163	0.00463559	0.00340419	0.00972470	0.00670835
1.30000000	0.00365463	0.00247679	0.00448084	0.01052063	0.00358013	0.00713632	0.00133186	0.00308771	0.00381918	0.00493148	0.00440207	0.00633018	0.00130235	0.00258076	0.00227505	0.00259209	0.00103495	0.00269414	0.00149686	0.00309078	0.00226540	0.00442542	0.00332083	0.00937722	0.00691154
1.31000000	0.00428781	0.00306351	0.00458122	0.01171150	0.00343824	0.00783167	0.00144361	0.00332575	0.00489313	0.00554752	0.00430050	0.00632811	0.00130515	0.00241955	0.00220914	0.00260548	0.00122135	0.00253048	0.00130392	0.00317513	0.00230965	0.00423935	0.00339939	0.00900547	0.00698940
1.32000000	0.00417274	0.00336492	0.00435898	0.01275068	0.00361152	0.00840757	0.00181204	0.00364494	0.00586097	0.00606940	0.00439556	0.00641512	0.00116755	0.00239835	0.00192048	0.00265965	0.00130662	0.00240989	0.00115446	0.00314207	0.00230181	0.00398569	0.00334311	0.00865576	0.00710807
1.33000000	0.00407889	0.00372951	0.00401724	0.01331696	0.00364068	0.00899203	0.00222619	0.00400029	0.00666930	0.00650605	0.00455658	0.00612881	0.00083455	0.00214246	0.00168941	0.00256995	0.00136513	0.00231408	0.00106676	0.00315542	0.00230507	0.00378564	0.00331436	0.00833713	0.00723546
1.34000000	0.00439136	0.00417128	0.00398671	0.01368996	0.00347101	0.00944599	0.00249973	0.00426498	0.00699739	0.00675703	0.00390082	0.00587094	0.00071444	0.00218427	0.00157710	0.00261196	0.00125014	0.00216020	0.00084304	0.00302607	0.00202863	0.00360717	0.00342771	0.00800501	0.00718315
1.35000000	0.00406325	0.00445728	0.00340530	0.01352009	0.00345905	0.00992856	0.00271791	0.00445962	0.00712826	0.00696251	0.00434057	0.00530688	0.00020551	0.00192176	0.00083623	0.00250582	0.00105417	0.00219501	0.00078888	0.00291182	0.00207185	0.00369626	0.00346241	0.00768517	0.00719500
1.36000000	0.00424989	0.00443231	0.00360663	0.01323154	0.00331670	0.01021506	0.00287595	0.00456819	0.00676550	0.00697749	0.00335857	0.00492740	0.00034153	0.00202782	0.00077823	0.00254987	0.00087134	0.00195397	0.00050446	0.00280328	0.00152645	0.00335990	0.00348246	0.00739106	0.00716775
1.37000000	0.00400387	0.00457490	0.00324389	0.01268768	0.00326278	0.01041675	0.00284747	0.00457089	0.00619234	0.00693065	0.00331688	0.00418627	0.00060226	0.00195445	0.00062748	0.00237696	0.00065733	0.00195452	0.00051719	0.00278253	0.00152235	0.00315553	0.00352353	0.00719345	0.00719003
1.38000000	0.00386717	0.00450631	0.00312752	0.01195995	0.00325016	0.01051134	0.00281339	0.00462020	0.00560014	0.00680798	0.00300274	0.00369781	0.00091423	0.00203521	0.00066651	0.00232275	0.00046289	0.00187308	0.00048265	0.00267005	0.00146366	0.00300732	0.00357653	0.00698274	0.00715829
1.39000000	0.00388424	0.00482552	0.00280893	0.01116788	0.00304027	0.01049477	0.00259006	0.00483685	0.00507268	0.00658563	0.00319222	0.00352711	0.00138452	0.00257786	0.00198169	0.00225317	0.00055826	0.00184089	0.00055116	0.00258185	0.00165919	0.00310453	0.00365815	0.00687141	0.00714427
1.40000000	0.00335661	0.00430834	0.00251493	0.01024166	0.00338563	0.01024449	0.00270843	0.00469556	0.00484369	0.00628894	0.00298461	0.00359098	0.00149820	0.00252036	0.00043237	0.00203822	0.00065143	0.00169250	0.00073765	0.00232275	0.00187014	0.00286167	0.00376602	0.00675127	0.00713809
1.41000000	0.00308724	0.00398747	0.00257199	0.00963727	0.00344408	0.00996397	0.00268046	0.00456735	0.00449844	0.00615002	0.00310512	0.00330447	0.00167536	0.00255066	0.00052633	0.00200832	0.00105191	0.00172834	0.00095073	0.00222243	0.00207145	0.00279643	0.00388743	0.00662631	0.00709987
1.42000000	0.00308129	0.00406755	0.00259753	0.00925595	0.00348498	0.00952919	0.00267491	0.00423923	0.00388647	0.00602150	0.00333018	0.00325760	0.00181972	0.00265726	0.00085363	0.00192957	0.00128812	0.00172476	0.00116290	0.00206287	0.00225781	0.00274787	0.00401476	0.00652109	0.00716143
1.43000000	0.00321834	0.00430557	0.00263023	0.00915651	0.00350386	0.00901214	0.00280185	0.00396583	0.00345365	0.00585858	0.00376573	0.00328855	0.00193119	0.00286927	0.00125275	0.00189604	0.00148720	0.00178351	0.00141315	0.00188322	0.00239417	0.00276398	0.00416827	0.00636374	0.00725768
1.44000000	0.00246915	0.00383490	0.00235343	0.00858980	0.00325521	0.00874824	0.00300382	0.00403966	0.00415939	0.00581247	0.00373733	0.00329754	0.00176483	0.00265542	0.00067371	0.00163828	0.00179162	0.00182077	0.00159823	0.00180417	0.00251368	0.00265763	0.00419206	0.00643247	0.00742358
1.45000000	0.00272393	0.00431908	0.00225259	0.00899092	0.00305982	0.00825267	0.00316553	0.00388678	0.00384945	0.00568942	0.00421805	0.00365858	0.00183588	0.00288696	0.00090415	0.00146721	0.00182287	0.00189714	0.00180718	0.00157169	0.00248590	0.00262759	0.00429406	0.00635908	0.00767464
1.46000000	0.00215094	0.00406919	0.00214233	0.00894147	0.00277196	0.00807501	0.00326331	0.00369035	0.00410844	0.00574176	0.00418073	0.00368793	0.00158957	0.00261251	0.00064433	0.00129931	0.00200635	0.00206055	0.00203518	0.00150315	0.00240445	0.00261052	0.00440763	0.00632673	0.00790693
1.47000000	0.00214461	0.00422644	0.00201826	0.00929199	0.00235969	0.00797129	0.00321049	0.00367851	0.00428247	0.00585641	0.00434836	0.00380128	0.00141714	0.00255172	0.00073272	0.00115848	0.00202420	0.00227306	0.00232007	0.00143104	0.00237624	0.00264919	0.00454723	0.00618087	0.00822661
1.48000000	0.00179992	0.00443437	0.00186889	0.00967061	0.00196094	0.00795523	0.00316737	0.00353486	0.00395802	0.00589064	0.00441966	0.00401099	0.00127980	0.00245626	0.00063986	0.00099668	0.00201584	0.00247347	0.00258284	0.00151622	0.00234696	0.00261346	0.00469208	0.00610635	0.00861161
1.49000000	0.00160263	0.00463464	0.00174188	0.00999506	0.00154807	0.00806683	0.00294086	0.00346174	0.00374755	0.00603973	0.00448916	0.00410820	0.00112006	0.00235479	0.00065876	0.00101147	0.00198150	0.00275414	0.00291007	0.00171402	0.00251854	0.00263132	0.00487452	0.00596535	0.00903167
1.50000000	0.00139271	0.00480991	0.00164448	0.01016962	0.00127566	0.00821368	0.00259235	0.00344014	0.00352964	0.00624960	0.00453981	0.00417178	0.00098730	0.00224938	0.00072505	0.00126101	0.00190207	0.00303379	0.00329237	0.00202060	0.00295081	0.00269034	0.00509673	0.00576908	0.00950928
1.51000000	0.00113468	0.00499650	0.00153544	0.01016202	0.00121673	0.00828410	0.00216097	0.00342147	0.00325416	0.00648572	0.00458997	0.00424339	0.00089672	0.00219597	0.00075894	0.00166504	0.00185422	0.00335911	0.00374154	0.00243189	0.00362697	0.00282619	0.00537945	0.00552208	0.00999395
1.52000000	0.00114567	0.00502178	0.00213844	0.00995024	0.00104113	0.00814643	0.00168951	0.00306250	0.00249648	0.00664580	0.00450004	0.00436418	0.00085736	0.00212525	0.00072348	0.00213266	0.00179636	0.00366141	0.00412605	0.00285351	0.00432413	0.00286081	0.00566596	0.00536804	0.01057962
1.53000000	0.00095008	0.00509287	0.00248685	0.00948521	0.00107578	0.00782080	0.00121665	0.00285960	0.00204322	0.00694345	0.00447291	0.00437332	0.00079442	0.00210200	0.00081030	0.00273719	0.00175141	0.00398330	0.00461659	0.00333285	0.00524972	0.00304538	0.00603789	0.00508852	0.01115854
1.54000000	0.00117954	0.00506050	0.00314134	0.00881454	0.00098062	0.00722934	0.00071386	0.00242000	0.00152961	0.00720141	0.00439590	0.00445205	0.00080559	0.00215294	0.00084193	0.00338023	0.00178999	0.00430430	0.00509324	0.00384162	0.00618284	0.00324064	0.00643006	0.00483520	0.01177487
1.55000000	0.00126358	0.00500511	0.00377438	0.00787014	0.00091463	0.00649346	0.00032070	0.00203625	0.00110953	0.00753885	0.00431518	0.00449749	0.00084556	0.00223134	0.00092661	0.00399208	0.00185601	0.00463418	0.00556868	0.00440192	0.00716893	0.00343783	0.00689587	0.00456806	0.01241016
1.56000000	0.00126959	0.00502453	0.00414625	0.00694529	0.00114653	0.00562413	0.00057151	0.00179205	0.00088666	0.00798411	0.00428292	0.00439599	0.00099231	0.00235569	0.00099737	0.00472038	0.00200073	0.00496267	0.00610414	0.00497462	0.00823381	0.00374950	0.00734155	0.00420689	0.01305042
1.57000000	0.00168562	0.00482045	0.00507456	0.00586875	0.00124258	0.00466217	0.00124261	0.00187896	0.00072265	0.00819224	0.00396934	0.00468873	0.00116000	0.00255242	0.00102996	0.00528533	0.00222654	0.00527372	0.00645176	0.00556804	0.00901727	0.00385031	0.00790466	0.00404420	0.01370272
1.58000000	0.00197579	0.00457284	0.00568835	0.00520090	0.00160703	0.00378484	0.00195565	0.00222993	0.00085248	0.00856193	0.00378042	0.00466549	0.00136451	0.00270669	0.00116291	0.00582401	0.00244687	0.00563277	0.00687864	0.00620759	0.00991519	0.00403629	0.00854059	0.00378110	0.01424937
1.59000000	0.00243210	0.00436096	0.00627811	0.00503918	0.00189634	0.00323253	0.00265321	0.00292542	0.00092957	0.00885330	0.00351380	0.00474556	0.00164227	0.00291832	0.00111991	0.00634877	0.00273484	0.00596918	0.00721978	0.00680595	0.01060110	0.00421347	0.00907068	0.00352008	0.01481746
1.60000000	0.00346076	0.00428289	0.00661410	0.00540424	0.00194908	0.00308455	0.00322825	0.00351348	0.00091391	0.00929154	0.00328050	0.00456930	0.00189097	0.00311439	0.00098751	0.00682880	0.00292582	0.00631923	0.00763090	0.00737178	0.01126935	0.00446336	0.00952206	0.00316632	0.01527587
1.61000000	0.00353973	0.00408160	0.00719497	0.00603091	0.00201236	0.00351037	0.00374192	0.00397262	0.00136355	0.00931670	0.00297310	0.00467909	0.00227069	0.00317238	0.00090878	0.00721544	0.00318297	0.00655831	0.00776927	0.00787688	0.01155802	0.00446910	0.01006822	0.00302989	0.01574505
1.62000000	0.00450133	0.00405558	0.00747662	0.00670429	0.00188040	0.00392705	0.00396671	0.00404175	0.00141808	0.00947449	0.00267785	0.00458339	0.00253495	0.00322227	0.00054867	0.00752757	0.00321777	0.00683268	0.00806503	0.00833561	0.01186490	0.00466569	0.01043483	0.00267487	0.01603036
1.63000000	0.00455944	0.00418201	0.00775156	0.00721076	0.00156175	0.00471756	0.00412084	0.00407829	0.00169582	0.00935861	0.00256872	0.00439884	0.00285406	0.00302959	0.00070526	0.00780925	0.00337121	0.00700475	0.00810425	0.00861603	0.01179885	0.00464563	0.01077106	0.00251011	0.01637415
1.64000000	0.00513520	0.00436233	0.00788279	0.00744443	0.00122397	0.00518057	0.00399979	0.00368382	0.00186412	0.00913868	0.00242920	0.00414736	0.00312078	0.00291942	0.00093950	0.00799239	0.00332029	0.00714031	0.00820041	0.00883647	0.01169426	0.00475690	0.01110915	0.00218789	0.01650196
1.65000000	0.00538273	0.00459527	0.00798107	0.00740166	0.00092125	0.00558559	0.00383837	0.00338945	0.00211976	0.00877811	0.00234045	0.00381178	0.00328793	0.00255849	0.00170171	0.00807851	0.00318961	0.00718484	0.00816262	0.00896556	0.01132960	0.00475502	0.01130677	0.00194781	0.01662840
1.66000000	0.00583770	0.00459560	0.00818840	0.00713969	0.00110926	0.00561176	0.00363891	0.00302280	0.00215451	0.00814564	0.00279319	0.00330386	0.00330282	0.00234078	0.00260014	0.00810616	0.00308292	0.00723517	0.00803073	0.00892291	0.01076113	0.00475448	0.01107233	0.00174602	0.01694543
1.67000000	0.00564093	0.00488669	0.00769116	0.00639778	0.00112831	0.00591236	0.00334725	0.00283203	0.00230236	0.00740264	0.00235331	0.00288757	0.00359656	0.00182774	0.00334629	0.00806212	0.00284824	0.00731816	0.00800173	0.00892206	0.01034661	0.00460137	0.01127564	0.00149299	0.01678486
1.68000000	0.00585384	0.00491641	0.00747527	0.00594704	0.00114244	0.00544475	0.00276340	0.00232675	0.00210123	0.00634947	0.00228479	0.00248531	0.00369783	0.00188732	0.00424009	0.00798693	0.00262314	0.00731751	0.00782051	0.00871449	0.00964128	0.00449024	0.01118962	0.00124963	0.01674611
1.69000000	0.00591143	0.00466121	0.00723421	0.00477843	0.00181566	0.00539381	0.00259824	0.00241397	0.00198309	0.00508332	0.00229290	0.00226264	0.00383339	0.00215791	0.00498145	0.00765907	0.00240877	0.00727283	0.00747872	0.00856805	0.00884285	0.00421825	0.01114214	0.00114601	0.01670146
1.70000000	0.00597140	0.00439045	0.00683193	0.00350716	0.00244202	0.00528126	0.00235449	0.00248580	0.00174431	0.00376197	0.00215356	0.00204956	0.00387107	0.00240913	0.00557202	0.00733555	0.00222648	0.00719146	0.00711722	0.00832113	0.00804829	0.00394848	0.01103667	0.00101148	0.01660616
1.71000000	0.00595363	0.00373414	0.00643258	0.00225397	0.00314142	0.00498958	0.00211760	0.00264824	0.00160751	0.00209868	0.00277760	0.00197776	0.00377494	0.00302197	0.00584934	0.00708996	0.00228209	0.00698461	0.00656096	0.00793369	0.00720523	0.00373468	0.01082744	0.00096441	0.01668765
1.72000000	0.00596105	0.00434461	0.00545939	0.00130365	0.00313553	0.00436867	0.00142962	0.00222523	0.00100671	0.00119126	0.00175369	0.00197104	0.00380545	0.00275241	0.00557722	0.00673869	0.00186253	0.00702659	0.00650761	0.00771626	0.00673548	0.00343393	0.01053676	0.00067618	0.01624543
1.73000000	0.00596020	0.00417415	0.00490947	0.00079068	0.00300939	0.00385050	0.00110489	0.00203714	0.00086283	0.00127644	0.00201327	0.00239165	0.00359154	0.00269910	0.00521568	0.00637771	0.00176957	0.00689474	0.00606315	0.00728861	0.00596362	0.00309851	0.01026113	0.00061177	0.01602655
1.74000000	0.00585188	0.00397625	0.00442630	0.00118274	0.00322449	0.00381085	0.00091982	0.00193757	0.00138997	0.00273745	0.00232029	0.00293435	0.00325283	0.00248521	0.00465039	0.00586271	0.00174853	0.00673046	0.00556662	0.00698889	0.00528258	0.00266717	0.01006778	0.00065023	0.01574201
1.75000000	0.00585898	0.00380990	0.00396224	0.00192613	0.00340087	0.00369141	0.00104838	0.00200810	0.00185515	0.00454178	0.00271063	0.00337209	0.00284777	0.00235556	0.00399569	0.00534394	0.00179727	0.00655790	0.00498648	0.00658301	0.00454621	0.00219074	0.00964588	0.00077624	0.01559871
1.76000000	0.00560907	0.00410155	0.00343364	0.00255718	0.00354094	0.00343925	0.00115291	0.00161052	0.00206937	0.00588568	0.00264864	0.00404543	0.00240356	0.00217836	0.00329594	0.00505647	0.00176269	0.00637110	0.00465435	0.00618889	0.00420341	0.00195916	0.00934406	0.00072005	0.01515884
1.77000000	0.00548872	0.00412801	0.00312332	0.00303666	0.00344917	0.00336763	0.00139193	0.00153049	0.00231951	0.00738636	0.00265641	0.00467019	0.00204570	0.00209464	0.00303411	0.00467838	0.00181316	0.00615712	0.00422319	0.00576723	0.00380675	0.00164309	0.00896738	0.00079490	0.01480122
1.78000000	0.00538147	0.00396823	0.00285240	0.00340381	0.00352575	0.00337671	0.00146699	0.00151946	0.00252566	0.00879680	0.00261970	0.00523958	0.00188199	0.00239891	0.00329516	0.00437480	0.00190793	0.00596631	0.00380060	0.00530261	0.00350533	0.00134089	0.00855591	0.00091009	0.01445494
1.79000000	0.00519879	0.00422368	0.00277196	0.00359574	0.00335921	0.00338267	0.00157824	0.00150835	0.00254811	0.00981941	0.00225899	0.00615189	0.00181852	0.00230232	0.00357327	0.00417782	0.00196830	0.00569481	0.00353014	0.00489904	0.00343810	0.00122840	0.00810364	0.00091265	0.01397128
1.80000000	0.00510361	0.00403935	0.00270244	0.00371162	0.00342680	0.00342758	0.00148489	0.00147573	0.00241932	0.01068689	0.00198867	0.00689852	0.00187998	0.00266785	0.00407553	0.00415085	0.00208844	0.00536978	0.00317793	0.00438571	0.00338122	0.00119435	0.00778757	0.00091489	0.01351155
1.81000000	0.00500414	0.00403558	0.00273420	0.00377335	0.00318758	0.00353178	0.00142957	0.00154616	0.00232689	0.01121484	0.00158894	0.00783421	0.00204056	0.00296811	0.00417044	0.00410320	0.00222846	0.00521019	0.00300763	0.00383995	0.00350839	0.00111094	0.00746531	0.00102488	0.01291725
1.82000000	0.00507910	0.00398243	0.00289505	0.00367158	0.00318354	0.00352812	0.00125027	0.00155719	0.00225640	0.01144285	0.00117581	0.00882347	0.00210350	0.00325787	0.00417685	0.00408070	0.00235114	0.00488312	0.00281851	0.00334644	0.00365576	0.00118061	0.00702707	0.00111227	0.01239095
1.83000000	0.00498190	0.00391747	0.00295386	0.00365413	0.00296836	0.00363582	0.00110699	0.00163702	0.00206898	0.01151327	0.00089167	0.00963649	0.00213158	0.00357423	0.00390637	0.00425785	0.00247998	0.00463757	0.00272828	0.00284098	0.00396689	0.00134971	0.00662640	0.00108309	0.01179312
1.84000000	0.00478422	0.00398363	0.00307385	0.00363100	0.00266426	0.00377597	0.00101161	0.00174513	0.00185521	0.01134328	0.00083760	0.01030227	0.00210946	0.00389782	0.00357980	0.00444319	0.00254336	0.00445489	0.00272512	0.00244122	0.00438633	0.00153976	0.00597819	0.00103982	0.01125358
1.85000000	0.00465340	0.00389924	0.00316676	0.00364719	0.00266819	0.00384735	0.00080655	0.00178126	0.00162767	0.01093490	0.00104111	0.01070986	0.00207050	0.00426064	0.00315674	0.00467823	0.00268092	0.00421976	0.00265442	0.00203151	0.00477468	0.00181168	0.00558981	0.00107086	0.01070261
1.86000000	0.00474247	0.00378495	0.00333679	0.00364437	0.00272841	0.00384077	0.00065162	0.00178731	0.00145502	0.01045967	0.00141307	0.01084042	0.00203931	0.00445594	0.00263059	0.00479758	0.00279377	0.00399293	0.00263227	0.00174353	0.00509170	0.00193680	0.00539703	0.00121589	0.00999009
1.87000000	0.00467001	0.00377621	0.00352925	0.00362730	0.00264697	0.00398728	0.00061707	0.00185703	0.00128276	0.00979814	0.00162435	0.01060605	0.00198842	0.00471119	0.00265485	0.00490965	0.00286030	0.00378851	0.00266874	0.00161462	0.00554221	0.00213828	0.00461728	0.00123358	0.00955931
1.88000000	0.00463988	0.00387876	0.00370292	0.00368072	0.00289309	0.00400856	0.00057615	0.00182834	0.00108804	0.00919392	0.00193029	0.00998828	0.00198358	0.00466293	0.00220495	0.00502059	0.00293090	0.00361930	0.00265834	0.00150936	0.00583823	0.00232717	0.00455799	0.00143766	0.00887284
1.89000000	0.00453547	0.00394747	0.00374718	0.00376064	0.00312854	0.00409813	0.00064831	0.00183170	0.00083938	0.00861515	0.00207911	0.00900799	0.00203384	0.00460502	0.00202336	0.00522879	0.00303124	0.00345801	0.00261986	0.00136099	0.00610810	0.00260602	0.00445398	0.00156191	0.00831423
1.90000000	0.00544771	0.00405951	0.00435593	0.00379046	0.00456289	0.00387669	0.00079676	0.00221786	0.00117594	0.00810878	0.00182933	0.00760796	0.00215607	0.00523627	0.00212906	0.00510315	0.00312414	0.00296143	0.00233462	0.00142563	0.00595460	0.00254752	0.00542305	0.00222622	0.00761185
1.91000000	0.00488008	0.00394572	0.00408016	0.00373220	0.00356975	0.00432115	0.00086883	0.00179005	0.00067054	0.00718479	0.00190031	0.00672388	0.00221902	0.00424299	0.00239102	0.00511509	0.00309133	0.00309442	0.00256309	0.00132293	0.00640656	0.00277364	0.00357298	0.00215375	0.00749952
1.92000000	0.00494337	0.00434008	0.00410520	0.00380711	0.00421892	0.00433801	0.00095531	0.00177502	0.00047432	0.00699508	0.00188902	0.00520025	0.00232843	0.00390405	0.00237766	0.00506569	0.00307097	0.00289243	0.00251719	0.00125459	0.00647049	0.00292389	0.00386205	0.00246385	0.00690906
1.93000000	0.00508141	0.00433642	0.00415015	0.00380572	0.00418346	0.00443148	0.00107007	0.00171920	0.00057173	0.00647009	0.00159988	0.00416077	0.00240594	0.00352458	0.00279974	0.00496609	0.00306038	0.00281494	0.00249732	0.00113575	0.00642071	0.00293964	0.00328715	0.00285677	0.00663658
1.94000000	0.00536248	0.00410738	0.00419669	0.00376394	0.00459661	0.00454000	0.00114582	0.00168478	0.00037010	0.00617584	0.00145694	0.00328939	0.00245550	0.00306477	0.00274358	0.00473329	0.00300794	0.00257660	0.00243639	0.00109849	0.00636346	0.00301394	0.00313376	0.00321268	0.00632034
1.95000000	0.00542539	0.00432775	0.00401388	0.00387085	0.00493377	0.00449576	0.00119660	0.00162555	0.00042872	0.00619008	0.00142666	0.00298042	0.00241093	0.00281290	0.00301147	0.00457506	0.00294813	0.00247208	0.00241625	0.00095927	0.00628139	0.00306451	0.00309662	0.00360470	0.00596015
1.96000000	0.00563374	0.00422386	0.00386653	0.00388562	0.00519250	0.00451677	0.00121322	0.00161319	0.00043575	0.00621504	0.00153188	0.00327274	0.00237643	0.00273117	0.00313766	0.00438212	0.00287964	0.00232635	0.00237372	0.00084101	0.00612290	0.00314948	0.00296358	0.00397169	0.00570643
1.97000000	0.00589585	0.00387666	0.00369942	0.00379624	0.00550606	0.00459918	0.00127801	0.00153193	0.00024075	0.00641187	0.00182042	0.00388358	0.00224540	0.00257991	0.00279332	0.00413263	0.00280143	0.00211528	0.00229997	0.00075687	0.00588164	0.00321944	0.00292667	0.00436630	0.00548565
1.98000000	0.00596745	0.00499711	0.00313295	0.00380419	0.00599420	0.00464949	0.00143026	0.00160144	0.00055884	0.00690076	0.00256250	0.00479437	0.00161808	0.00235398	0.00211905	0.00352724	0.00264458	0.00196428	0.00230130	0.00115501	0.00587611	0.00314887	0.00335457	0.00494060	0.00505805
1.99000000	0.00619863	0.00359932	0.00318482	0.00386799	0.00579749	0.00450452	0.00117505	0.00151395	0.00027377	0.00672004	0.00214254	0.00489820	0.00187020	0.00269687	0.00242796	0.00358362	0.00257589	0.00182952	0.00228547	0.00078711	0.00555473	0.00334482	0.00275206	0.00516981	0.00509517
2.00000000	0.00616370	0.00473603	0.00251863	0.00392944	0.00596883	0.00461540	0.00126991	0.00150872	0.00047568	0.00707036	0.00283114	0.00541496	0.00099022	0.00206314	0.00122474	0.00304413	0.00242306	0.00186093	0.00231113	0.00133068	0.00565588	0.00329866	0.00312660	0.00573049	0.00473237
2.01000000	0.00634567	0.00333068	0.00258791	0.00408580	0.00587657	0.00429104	0.00098319	0.00151675	0.00038137	0.00680128	0.00177680	0.00488621	0.00123608	0.00212454	0.00197680	0.00308250	0.00234829	0.00162834	0.00231930	0.00104137	0.00531981	0.00350622	0.00267584	0.00599418	0.00480482
2.02000000	0.00626988	0.00317421	0.00233918	0.00415417	0.00555861	0.00438428	0.00090109	0.00151201	0.00044778	0.00650880	0.00138021	0.00455042	0.00082322	0.00132303	0.00154375	0.00288574	0.00232262	0.00147000	0.00236288	0.00128600	0.00535727	0.00355347	0.00272272	0.00641206	0.00469648
2.03000000	0.00622271	0.00309486	0.00211733	0.00430753	0.00528950	0.00434645	0.00081337	0.00154102	0.00053150	0.00613569	0.00099969	0.00403324	0.00079510	0.00061484	0.00124129	0.00270258	0.00229970	0.00142249	0.00238981	0.00154832	0.00539712	0.00363264	0.00275497	0.00684665	0.00464760
2.04000000	0.00607659	0.00336274	0.00190177	0.00464355	0.00514418	0.00419244	0.00084189	0.00159591	0.00065314	0.00585626	0.00086216	0.00345131	0.00144516	0.00137371	0.00119012	0.00258785	0.00226357	0.00147199	0.00249741	0.00192711	0.00566973	0.00374282	0.00290874	0.00725279	0.00450504
2.05000000	0.00596135	0.00357341	0.00181993	0.00489166	0.00484017	0.00419230	0.00099539	0.00165041	0.00073321	0.00544388	0.00104320	0.00287782	0.00224443	0.00246621	0.00118289	0.00257553	0.00228054	0.00164438	0.00253395	0.00223912	0.00586453	0.00383887	0.00297221	0.00769012	0.00448396
2.06000000	0.00580334	0.00306269	0.00170645	0.00498992	0.00422730	0.00436303	0.00116570	0.00170465	0.00076310	0.00491868	0.00164936	0.00260999	0.00296067	0.00334740	0.00117699	0.00260791	0.00255208	0.00162823	0.00246974	0.00246057	0.00581757	0.00397320	0.00295865	0.00809085	0.00467230
2.07000000	0.00556019	0.00344509	0.00158030	0.00536303	0.00381644	0.00434913	0.00145305	0.00184250	0.00070522	0.00494231	0.00159722	0.00247938	0.00361468	0.00435642	0.00111633	0.00274258	0.00263907	0.00173339	0.00260242	0.00272568	0.00610887	0.00412686	0.00317693	0.00838525	0.00459164
2.08000000	0.00543729	0.00351815	0.00162035	0.00558822	0.00345952	0.00436899	0.00182029	0.00174214	0.00074846	0.00505644	0.00169241	0.00250124	0.00393222	0.00477301	0.00141380	0.00288186	0.00276554	0.00179635	0.00264369	0.00287027	0.00617435	0.00429060	0.00319697	0.00869108	0.00463159
2.09000000	0.00528774	0.00298970	0.00155318	0.00571634	0.00293916	0.00442304	0.00208607	0.00172632	0.00059217	0.00528707	0.00169652	0.00276327	0.00407248	0.00482997	0.00154661	0.00308958	0.00298862	0.00178234	0.00264811	0.00289589	0.00607242	0.00444435	0.00312900	0.00890636	0.00476176
2.10000000	0.00516994	0.00313293	0.00169723	0.00582391	0.00241693	0.00443750	0.00238532	0.00171030	0.00036832	0.00542298	0.00142306	0.00297389	0.00393083	0.00459801	0.00139232	0.00324972	0.00311991	0.00171220	0.00274093	0.00289342	0.00605225	0.00455830	0.00331132	0.00906736	0.00469581
2.11000000	0.00509132	0.00281864	0.00190916	0.00588759	0.00202804	0.00428637	0.00258290	0.00145392	0.00024981	0.00544066	0.00122311	0.00316471	0.00366130	0.00410200	0.00139223	0.00340475	0.00330090	0.00153815	0.00280131	0.00279774	0.00588836	0.00470241	0.00325155	0.00916085	0.00474711
2.12000000	0.00507190	0.00267191	0.00213155	0.00572889	0.00154062	0.00417316	0.00277210	0.00126044	0.00078467	0.00524245	0.00083089	0.00324408	0.00330718	0.00345964	0.00144044	0.00360498	0.00346623	0.00138436	0.00282762	0.00266873	0.00563732	0.00478734	0.00340151	0.00922831	0.00473247
2.13000000	0.00500828	0.00238896	0.00241449	0.00544975	0.00119496	0.00395611	0.00290815	0.00092353	0.00135709	0.00483014	0.00054522	0.00328492	0.00303949	0.00285719	0.00144966	0.00385464	0.00360982	0.00117025	0.00289230	0.00254443	0.00544240	0.00489339	0.00335770	0.00922790	0.00475518
2.14000000	0.00507156	0.00225745	0.00264632	0.00483648	0.00132480	0.00364850	0.00300042	0.00105570	0.00233319	0.00417576	0.00042979	0.00324427	0.00286946	0.00237104	0.00142197	0.00401499	0.00385403	0.00094389	0.00282606	0.00238952	0.00505027	0.00503968	0.00349647	0.00922919	0.00478084
2.15000000	0.00491751	0.00202730	0.00289180	0.00428060	0.00140032	0.00320134	0.00295029	0.00121159	0.00304343	0.00337703	0.00076712	0.00316519	0.00265967	0.00223547	0.00150514	0.00436919	0.00403469	0.00080368	0.00281109	0.00235662	0.00485428	0.00507023	0.00355110	0.00921268	0.00481114
2.16000000	0.00487129	0.00197066	0.00305110	0.00321080	0.00201727	0.00290517	0.00298656	0.00188595	0.00397034	0.00256218	0.00130687	0.00299439	0.00255154	0.00228189	0.00150727	0.00459550	0.00426706	0.00073288	0.00263219	0.00225289	0.00447745	0.00505611	0.00366827	0.00928433	0.00486558
2.17000000	0.00473695	0.00199078	0.00320055	0.00219435	0.00258392	0.00258374	0.00281768	0.00256625	0.00484920	0.00196979	0.00193380	0.00281877	0.00246844	0.00236889	0.00161925	0.00485042	0.00458925	0.00072765	0.00238540	0.00217169	0.00416808	0.00508161	0.00378792	0.00930674	0.00497540
2.18000000	0.00432376	0.00206073	0.00376727	0.00161888	0.00222101	0.00231022	0.00290088	0.00290776	0.00496420	0.00133487	0.00208729	0.00276152	0.00202484	0.00240545	0.00135011	0.00544229	0.00470269	0.00059514	0.00256601	0.00234835	0.00455333	0.00519655	0.00382104	0.00902363	0.00496123
2.19000000	0.00388821	0.00187043	0.00379663	0.00171955	0.00277300	0.00264678	0.00292656	0.00326945	0.00526771	0.00159997	0.00256647	0.00269831	0.00178968	0.00257865	0.00130770	0.00571606	0.00507070	0.00067421	0.00227570	0.00238010	0.00448949	0.00514400	0.00404594	0.00900884	0.00512516
2.20000000	0.00346971	0.00193539	0.00403352	0.00285450	0.00308873	0.00318862	0.00290587	0.00341132	0.00518217	0.00221192	0.00295349	0.00266470	0.00146261	0.00272064	0.00146440	0.00601451	0.00539185	0.00076629	0.00204133	0.00243840	0.00460416	0.00505496	0.00423911	0.00894349	0.00526726
2.21000000	0.00305082	0.00210319	0.00435866	0.00429760	0.00328895	0.00395509	0.00276757	0.00335930	0.00468264	0.00288687	0.00316683	0.00259122	0.00102916	0.00275783	0.00162701	0.00636118	0.00566238	0.00090562	0.00186882	0.00253651	0.00486857	0.00501163	0.00437957	0.00877677	0.00535828
2.22000000	0.00276706	0.00248169	0.00477804	0.00575821	0.00340150	0.00477030	0.00258494	0.00313525	0.00398982	0.00352476	0.00337442	0.00236608	0.00066383	0.00264980	0.00174980	0.00665193	0.00585948	0.00104579	0.00173334	0.00263039	0.00511051	0.00494710	0.00448233	0.00856566	0.00544925
2.23000000	0.00219360	0.00246027	0.00495997	0.00744963	0.00379431	0.00552177	0.00235914	0.00282623	0.00332846	0.00406598	0.00355166	0.00229610	0.00042714	0.00269952	0.00187569	0.00687080	0.00615518	0.00116452	0.00151679	0.00270400	0.00537230	0.00478449	0.00466770	0.00835728	0.00562449
2.24000000	0.00185954	0.00269566	0.00517711	0.00889457	0.00392769	0.00627234	0.00213528	0.00245268	0.00291205	0.00462880	0.00358655	0.00223503	0.00030960	0.00269216	0.00194105	0.00706089	0.00639235	0.00127240	0.00139202	0.00278847	0.00563141	0.00463564	0.00479096	0.00806995	0.00578504
2.25000000	0.00174929	0.00293397	0.00537889	0.01016267	0.00400595	0.00692616	0.00202810	0.00222975	0.00306125	0.00502946	0.00365806	0.00201492	0.00035405	0.00251462	0.00206840	0.00720686	0.00654543	0.00149841	0.00131159	0.00295917	0.00576581	0.00443301	0.00487584	0.00777042	0.00591950
2.26000000	0.00160666	0.00314258	0.00557047	0.01128046	0.00415350	0.00739028	0.00203584	0.00208481	0.00345997	0.00539464	0.00369853	0.00178087	0.00040698	0.00235179	0.00211159	0.00727747	0.00663294	0.00167064	0.00129365	0.00304340	0.00585740	0.00419593	0.00488966	0.00741509	0.00606554
2.27000000	0.00230447	0.00339888	0.00565853	0.01198702	0.00387770	0.00783387	0.00207916	0.00211944	0.00403270	0.00570758	0.00362660	0.00147761	0.00049193	0.00204292	0.00200765	0.00738677	0.00672092	0.00186070	0.00130936	0.00324427	0.00589502	0.00405579	0.00496469	0.00692818	0.00620398
2.28000000	0.00225470	0.00373334	0.00528246	0.01240865	0.00429268	0.00806115	0.00230201	0.00243666	0.00487498	0.00607032	0.00415091	0.00125771	0.00034275	0.00173258	0.00178065	0.00709922	0.00664517	0.00220013	0.00144454	0.00320091	0.00586646	0.00410042	0.00480987	0.00647942	0.00634474
2.29000000	0.00198064	0.00353362	0.00543107	0.01255646	0.00417191	0.00816248	0.00230801	0.00206526	0.00419875	0.00612232	0.00380537	0.00097084	0.00031278	0.00170773	0.00184748	0.00721329	0.00665824	0.00222783	0.00144032	0.00350705	0.00579965	0.00360759	0.00481894	0.00601387	0.00656580
2.30000000	0.00271895	0.00380529	0.00560382	0.01245345	0.00378017	0.00804586	0.00221203	0.00193781	0.00382311	0.00642119	0.00329287	0.00101601	0.00036992	0.00174767	0.00171319	0.00721730	0.00647372	0.00235838	0.00155348	0.00360467	0.00564755	0.00339008	0.00467901	0.00543826	0.00659551
2.31000000	0.00268137	0.00375542	0.00522047	0.01204339	0.00384876	0.00780332	0.00220163	0.00186132	0.00319276	0.00648312	0.00351901	0.00109789	0.00041456	0.00146473	0.00165468	0.00699550	0.00631534	0.00268850	0.00170907	0.00379211	0.00556192	0.00324992	0.00446942	0.00494081	0.00677036
2.32000000	0.00271978	0.00362539	0.00511354	0.01145253	0.00384387	0.00735222	0.00205457	0.00188156	0.00245021	0.00659710	0.00334089	0.00137150	0.00043190	0.00143563	0.00157365	0.00687736	0.00610275	0.00275506	0.00169922	0.00393427	0.00537702	0.00307735	0.00430864	0.00435813	0.00695623
2.33000000	0.00304508	0.00387643	0.00517831	0.01073795	0.00367887	0.00663145	0.00195972	0.00202888	0.00222909	0.00670406	0.00296563	0.00156847	0.00049999	0.00167484	0.00139485	0.00678164	0.00586566	0.00279583	0.00173248	0.00404152	0.00510812	0.00279363	0.00421895	0.00387646	0.00704744
2.34000000	0.00297241	0.00365930	0.00493764	0.00994967	0.00383298	0.00583571	0.00172414	0.00205655	0.00142165	0.00672970	0.00302781	0.00186995	0.00071265	0.00157896	0.00139036	0.00659838	0.00564131	0.00292270	0.00175302	0.00423377	0.00496650	0.00264093	0.00404516	0.00339047	0.00726846
2.35000000	0.00304620	0.00355328	0.00479148	0.00911764	0.00393332	0.00493499	0.00144155	0.00215064	0.00112004	0.00678238	0.00303940	0.00207614	0.00084799	0.00161438	0.00133721	0.00642155	0.00540644	0.00296224	0.00177524	0.00434349	0.00480725	0.00251062	0.00391694	0.00292535	0.00747229
2.36000000	0.00311060	0.00348956	0.00463966	0.00836564	0.00415337	0.00390404	0.00114431	0.00204736	0.00097439	0.00679995	0.00304826	0.00222901	0.00100137	0.00168646	0.00131086	0.00626391	0.00519321	0.00302326	0.00181455	0.00443750	0.00468250	0.00239602	0.00383070	0.00251119	0.00768212
2.37000000	0.00333525	0.00351854	0.00447479	0.00765442	0.00416752	0.00286679	0.00078711	0.00210458	0.00102470	0.00683357	0.00316776	0.00229439	0.00116039	0.00173327	0.00127835	0.00606260	0.00502697	0.00302431	0.00185647	0.00450741	0.00454816	0.00225200	0.00379907	0.00219595	0.00794750
2.38000000	0.00340371	0.00361504	0.00424179	0.00705160	0.00412449	0.00194818	0.00047667	0.00206073	0.00134764	0.00677908	0.00320426	0.00228008	0.00123263	0.00191073	0.00113618	0.00583754	0.00497769	0.00300683	0.00188914	0.00455895	0.00446562	0.00209165	0.00395941	0.00197169	0.00827051
2.39000000	0.00355117	0.00386765	0.00400774	0.00656854	0.00415936	0.00116716	0.00031378	0.00185337	0.00144781	0.00666962	0.00319025	0.00229089	0.00133613	0.00201987	0.00104643	0.00563633	0.00495580	0.00297384	0.00197511	0.00457475	0.00444844	0.00198227	0.00410017	0.00177776	0.00860813
