SUBJ36_1_JMP_08_wrist_axis_personalization_task_1_initialErrors.sto
version=1
nRows=324
nColumns=26
inDegrees=no
endheader
time	R_Asis	L_Asis	Sacral	R_Thigh_Lateral	R_Knee_Lateral	R_Shank_Lateral	R_Ankle_Lateral	R_Heel	R_Toe	L_Thigh_Lateral	L_Knee_Lateral	L_Shank_Lateral	L_Ankle_Lateral	L_Heel	L_Toe	R_Shoulder	L_Shoulder	C7	J_Notch	Thoracic	Sternum	R_Elbow	L_Elbow	R_Wrist	L_Wrist
0.00000000	0.00567543	0.00631838	0.00214221	0.01090412	0.01115509	0.02722520	0.02006056	0.01032522	0.00651005	0.00718049	0.00187331	0.00559658	0.00290747	0.00150588	0.00306993	0.00310682	0.00209525	0.00353315	0.00293995	0.00337041	0.00229981	0.00026781	0.00172326	0.00018197	0.00022731
0.01000000	0.00582686	0.00571972	0.00276339	0.01132502	0.01130634	0.02781520	0.01935064	0.01037678	0.00661178	0.00759507	0.00232867	0.00553914	0.00303803	0.00152798	0.00296228	0.00297591	0.00187697	0.00363400	0.00313482	0.00307952	0.00223195	0.00047279	0.00152163	0.00037725	0.00025452
0.02000000	0.00600212	0.00556613	0.00334493	0.01130998	0.01093953	0.02839695	0.01880082	0.01068680	0.00667003	0.00743659	0.00194617	0.00533991	0.00314724	0.00156258	0.00298631	0.00293795	0.00153159	0.00370124	0.00343877	0.00273482	0.00223546	0.00026653	0.00119639	0.00018038	0.00035349
0.03000000	0.00633041	0.00499196	0.00399135	0.01204103	0.01102280	0.02838894	0.01850906	0.01074399	0.00650692	0.00762350	0.00270099	0.00511156	0.00324486	0.00158668	0.00274074	0.00271409	0.00121498	0.00384675	0.00366877	0.00250721	0.00208479	0.00069765	0.00102163	0.00052646	0.00081782
0.04000000	0.00654540	0.00494575	0.00442118	0.01183022	0.01041737	0.02835804	0.01825377	0.01113429	0.00649390	0.00722573	0.00196522	0.00463332	0.00329183	0.00141870	0.00292235	0.00283059	0.00076582	0.00388756	0.00381779	0.00205576	0.00204727	0.00055759	0.00077885	0.00035590	0.00097955
0.05000000	0.00643432	0.00463758	0.00488176	0.01250709	0.01024010	0.02765341	0.01823411	0.01094134	0.00633798	0.00681409	0.00213621	0.00425692	0.00324385	0.00129918	0.00302451	0.00274022	0.00034510	0.00393039	0.00391177	0.00180247	0.00191413	0.00073647	0.00080940	0.00046112	0.00138741
0.06000000	0.00669591	0.00464734	0.00513119	0.01285114	0.00984680	0.02661753	0.01814084	0.01069924	0.00617248	0.00627218	0.00221034	0.00360075	0.00320293	0.00109192	0.00291797	0.00274167	0.00030995	0.00397462	0.00394175	0.00158616	0.00193504	0.00070313	0.00114197	0.00041449	0.00185327
0.07000000	0.00671016	0.00432562	0.00564420	0.01315568	0.00927744	0.02527882	0.01821003	0.01031201	0.00602152	0.00586065	0.00239360	0.00287029	0.00305494	0.00080564	0.00281422	0.00263915	0.00060742	0.00403119	0.00384003	0.00161040	0.00193311	0.00102067	0.00145016	0.00060309	0.00235315
0.08000000	0.00704840	0.00429382	0.00572769	0.01319041	0.00856839	0.02372407	0.01818803	0.00991962	0.00582861	0.00530147	0.00271511	0.00182899	0.00287411	0.00083075	0.00252539	0.00266544	0.00108355	0.00404476	0.00382737	0.00171319	0.00211840	0.00095326	0.00193578	0.00052905	0.00286290
0.09000000	0.00729207	0.00405479	0.00612492	0.01355356	0.00782892	0.02187865	0.01833621	0.00932575	0.00542715	0.00497726	0.00398279	0.00108885	0.00252536	0.00169945	0.00252562	0.00257341	0.00136231	0.00407063	0.00380969	0.00201169	0.00238165	0.00145360	0.00213972	0.00107153	0.00338694
0.10000000	0.00731487	0.00390764	0.00639718	0.01290815	0.00677880	0.02035221	0.01825152	0.00899604	0.00535435	0.00480544	0.00320735	0.00155953	0.00247149	0.00112315	0.00188456	0.00249553	0.00174031	0.00405638	0.00382770	0.00218168	0.00269070	0.00145566	0.00266027	0.00078050	0.00374960
0.11000000	0.00789129	0.00374461	0.00664784	0.01307122	0.00587535	0.01839231	0.01845434	0.00825747	0.00473777	0.00518526	0.00477651	0.00218796	0.00207481	0.00226518	0.00216151	0.00257089	0.00202827	0.00394479	0.00385903	0.00256153	0.00312883	0.00208655	0.00285049	0.00142126	0.00419323
0.12000000	0.00766000	0.00296718	0.00639898	0.01250486	0.00518958	0.01680108	0.01829129	0.00803045	0.00443999	0.00491901	0.00561916	0.00440650	0.00187149	0.00185609	0.00096565	0.00263904	0.00245003	0.00368847	0.00388699	0.00271622	0.00341574	0.00167720	0.00335826	0.00085386	0.00430727
0.13000000	0.00768284	0.00299065	0.00668081	0.01178146	0.00431105	0.01554599	0.01807163	0.00755940	0.00405944	0.00538833	0.00609199	0.00553340	0.00181653	0.00218512	0.00063174	0.00260001	0.00267085	0.00339256	0.00386679	0.00287065	0.00387038	0.00202460	0.00363538	0.00102742	0.00446965
0.14000000	0.00772245	0.00268457	0.00655771	0.01113570	0.00375057	0.01431672	0.01782609	0.00702300	0.00359531	0.00552472	0.00725736	0.00671268	0.00179442	0.00251145	0.00039014	0.00272604	0.00301887	0.00300784	0.00381083	0.00304548	0.00428533	0.00228458	0.00402296	0.00121884	0.00451173
0.15000000	0.00763992	0.00229772	0.00674639	0.01045455	0.00324491	0.01309551	0.01772141	0.00632757	0.00297554	0.00554114	0.00842658	0.00780594	0.00184854	0.00277294	0.00011972	0.00284699	0.00321072	0.00264236	0.00376404	0.00310153	0.00466972	0.00255745	0.00420213	0.00139519	0.00442844
0.16000000	0.00750869	0.00227629	0.00692688	0.00936881	0.00290081	0.01234423	0.01736074	0.00564313	0.00260468	0.00565305	0.00927238	0.00844885	0.00203217	0.00298094	0.00039083	0.00300401	0.00340310	0.00236748	0.00368217	0.00314607	0.00507271	0.00292027	0.00442944	0.00163649	0.00424757
0.17000000	0.00725252	0.00247250	0.00717241	0.00799467	0.00273102	0.01184402	0.01696697	0.00502149	0.00234071	0.00581426	0.00993164	0.00876674	0.00222568	0.00307574	0.00056822	0.00326025	0.00349750	0.00214826	0.00366915	0.00322380	0.00551896	0.00333069	0.00455999	0.00189291	0.00403363
0.18000000	0.00713675	0.00236637	0.00740092	0.00666258	0.00265388	0.01113316	0.01681877	0.00428792	0.00190643	0.00578401	0.01068150	0.00908053	0.00235163	0.00316509	0.00073032	0.00359709	0.00363161	0.00216228	0.00362478	0.00327014	0.00577192	0.00366159	0.00467462	0.00215908	0.00366285
0.19000000	0.00697955	0.00265218	0.00786174	0.00499357	0.00269867	0.01119596	0.01645649	0.00369339	0.00159211	0.00608757	0.01110776	0.00904615	0.00245351	0.00310594	0.00078148	0.00398923	0.00357607	0.00207101	0.00366083	0.00336565	0.00616574	0.00411900	0.00466565	0.00251953	0.00345176
0.20000000	0.00705067	0.00302509	0.00847137	0.00359122	0.00282718	0.01134993	0.01634030	0.00311621	0.00141388	0.00639644	0.01138292	0.00895719	0.00250734	0.00303922	0.00085107	0.00449781	0.00350471	0.00203444	0.00371832	0.00357750	0.00647255	0.00460248	0.00458674	0.00300392	0.00325969
0.21000000	0.00736056	0.00320879	0.00895422	0.00307056	0.00270651	0.01193016	0.01620634	0.00276505	0.00094273	0.00661610	0.01202389	0.00885454	0.00246181	0.00310663	0.00101916	0.00488528	0.00348063	0.00215968	0.00378008	0.00363485	0.00673085	0.00496786	0.00453706	0.00324764	0.00298159
0.22000000	0.00797677	0.00352875	0.00945031	0.00375315	0.00264852	0.01265636	0.01642353	0.00208029	0.00048077	0.00679022	0.01260815	0.00882015	0.00247093	0.00318493	0.00102650	0.00524883	0.00348758	0.00226000	0.00383482	0.00370948	0.00696908	0.00528271	0.00448741	0.00349333	0.00286774
0.23000000	0.00869032	0.00386385	0.01025645	0.00553592	0.00255572	0.01396608	0.01631305	0.00207526	0.00035664	0.00710535	0.01286447	0.00858361	0.00239527	0.00318121	0.00099154	0.00556593	0.00344122	0.00233025	0.00386504	0.00382646	0.00715189	0.00560069	0.00436213	0.00384637	0.00283093
0.24000000	0.00921514	0.00423204	0.01098053	0.00723808	0.00240352	0.01519594	0.01627726	0.00224262	0.00033824	0.00735416	0.01318914	0.00835504	0.00228160	0.00318544	0.00104172	0.00580134	0.00338567	0.00242587	0.00391750	0.00388948	0.00730241	0.00584180	0.00424329	0.00408713	0.00276004
0.25000000	0.00971535	0.00460500	0.01159682	0.00847974	0.00236310	0.01616140	0.01625004	0.00241198	0.00057406	0.00754623	0.01345771	0.00808828	0.00222153	0.00312339	0.00103788	0.00597301	0.00335121	0.00255735	0.00400109	0.00394135	0.00749818	0.00602391	0.00409313	0.00430173	0.00272816
0.26000000	0.01029271	0.00491509	0.01207605	0.00944837	0.00245541	0.01670209	0.01606063	0.00237939	0.00073869	0.00782924	0.01356173	0.00778007	0.00203381	0.00313247	0.00114441	0.00608059	0.00327393	0.00271816	0.00413266	0.00389701	0.00765595	0.00609865	0.00404659	0.00450271	0.00235268
0.27000000	0.01049851	0.00548570	0.01253276	0.00938125	0.00239491	0.01676576	0.01591835	0.00272203	0.00077965	0.00810653	0.01337966	0.00744511	0.00189649	0.00311044	0.00113570	0.00621168	0.00312125	0.00266522	0.00418946	0.00397007	0.00774458	0.00625660	0.00381909	0.00467909	0.00243813
0.28000000	0.01035557	0.00602194	0.01271087	0.00846007	0.00250023	0.01635211	0.01582863	0.00285128	0.00095048	0.00812088	0.01358793	0.00692812	0.00211102	0.00283510	0.00126695	0.00630653	0.00313823	0.00271732	0.00416234	0.00404079	0.00769883	0.00643347	0.00360042	0.00470565	0.00244367
0.29000000	0.01040490	0.00658247	0.01280343	0.00724727	0.00246675	0.01551546	0.01550634	0.00363306	0.00138849	0.00838576	0.01308979	0.00625349	0.00206164	0.00274276	0.00101908	0.00641343	0.00292724	0.00270217	0.00426876	0.00409368	0.00771290	0.00656792	0.00328409	0.00483737	0.00226938
0.30000000	0.01026518	0.00705068	0.01268753	0.00554313	0.00308625	0.01428004	0.01541041	0.00365094	0.00101017	0.00830536	0.01288393	0.00557357	0.00244919	0.00253572	0.00142064	0.00640564	0.00284786	0.00271056	0.00421657	0.00402117	0.00752589	0.00662762	0.00301350	0.00485262	0.00206708
0.31000000	0.01009994	0.00752837	0.01241393	0.00385203	0.00298600	0.01315969	0.01496896	0.00479176	0.00180292	0.00846145	0.01192878	0.00450992	0.00244183	0.00247685	0.00106123	0.00650707	0.00253871	0.00261974	0.00426512	0.00407552	0.00739743	0.00678485	0.00255464	0.00502100	0.00185343
0.32000000	0.00977581	0.00777584	0.01185057	0.00206336	0.00387048	0.01181295	0.01508336	0.00447005	0.00085393	0.00807607	0.01144248	0.00362282	0.00306404	0.00234393	0.00159555	0.00637040	0.00235858	0.00252627	0.00410072	0.00384864	0.00698636	0.00670444	0.00218559	0.00497932	0.00159709
0.33000000	0.00940706	0.00793511	0.01095100	0.00159472	0.00424862	0.01083047	0.01504753	0.00452138	0.00094831	0.00768788	0.01049238	0.00248167	0.00344455	0.00240834	0.00169002	0.00625826	0.00214358	0.00239437	0.00391523	0.00373276	0.00652268	0.00662552	0.00178047	0.00497772	0.00138986
0.34000000	0.00906859	0.00780163	0.00985591	0.00266671	0.00444714	0.01015535	0.01503472	0.00440299	0.00145765	0.00704370	0.00929136	0.00144917	0.00382830	0.00260092	0.00161424	0.00603977	0.00193825	0.00224035	0.00369381	0.00367546	0.00594597	0.00642155	0.00139761	0.00482419	0.00123142
0.35000000	0.00787507	0.00794263	0.00856457	0.00366414	0.00432628	0.00939075	0.01531228	0.00428134	0.00141440	0.00629027	0.00808171	0.00148438	0.00406703	0.00271199	0.00193511	0.00570947	0.00170275	0.00207336	0.00345961	0.00362292	0.00524050	0.00600248	0.00104716	0.00470933	0.00093112
0.36000000	0.00677496	0.00761575	0.00732134	0.00398858	0.00399747	0.00923719	0.01522790	0.00475369	0.00160197	0.00517058	0.00648986	0.00232934	0.00433731	0.00280086	0.00199352	0.00524744	0.00156365	0.00191295	0.00323021	0.00375616	0.00451861	0.00544869	0.00074858	0.00439257	0.00081109
0.37000000	0.00627659	0.00662989	0.00606178	0.00475440	0.00410030	0.00904535	0.01546115	0.00406810	0.00197132	0.00400676	0.00451736	0.00309484	0.00450932	0.00308572	0.00212630	0.00454945	0.00139198	0.00180811	0.00299187	0.00380583	0.00376188	0.00467199	0.00078994	0.00375830	0.00078610
0.38000000	0.00466616	0.00601093	0.00496799	0.00459366	0.00363764	0.00907984	0.01551473	0.00446763	0.00199871	0.00220425	0.00256372	0.00404067	0.00435769	0.00253751	0.00221018	0.00390277	0.00128405	0.00166996	0.00281041	0.00405588	0.00304366	0.00391670	0.00072859	0.00322283	0.00082349
0.39000000	0.00420005	0.00481824	0.00402470	0.00501580	0.00389226	0.00931465	0.01552232	0.00393884	0.00229368	0.00194169	0.00091384	0.00418722	0.00435683	0.00264644	0.00229145	0.00303856	0.00103540	0.00169309	0.00265461	0.00417222	0.00236883	0.00297942	0.00100520	0.00241426	0.00099323
0.40000000	0.00370797	0.00347603	0.00339601	0.00537346	0.00431550	0.00934725	0.01558774	0.00341045	0.00251800	0.00301022	0.00184498	0.00422781	0.00396999	0.00333574	0.00286837	0.00236925	0.00075310	0.00169155	0.00256353	0.00446017	0.00182302	0.00223197	0.00149800	0.00166880	0.00131735
0.41000000	0.00250973	0.00417205	0.00317068	0.00487333	0.00339797	0.00951939	0.01551557	0.00383939	0.00218416	0.00384066	0.00227206	0.00475213	0.00369895	0.00210954	0.00222706	0.00162328	0.00090190	0.00151639	0.00263716	0.00460132	0.00131078	0.00151068	0.00126905	0.00119546	0.00110448
0.42000000	0.00260513	0.00401123	0.00294126	0.00504996	0.00352967	0.01003089	0.01502728	0.00366417	0.00237973	0.00522158	0.00314087	0.00469311	0.00328023	0.00249854	0.00225406	0.00106261	0.00084000	0.00149861	0.00272490	0.00470532	0.00100368	0.00089956	0.00151601	0.00064988	0.00115047
0.43000000	0.00239689	0.00450500	0.00311173	0.00517892	0.00348946	0.01011716	0.01477098	0.00348049	0.00239446	0.00619322	0.00348078	0.00491581	0.00282952	0.00259765	0.00211195	0.00074748	0.00087049	0.00160429	0.00268985	0.00479335	0.00087571	0.00057013	0.00160604	0.00027162	0.00115910
0.44000000	0.00177056	0.00460048	0.00349508	0.00521629	0.00357211	0.00984005	0.01473107	0.00298995	0.00215514	0.00681483	0.00393584	0.00510104	0.00192423	0.00292581	0.00161966	0.00050891	0.00092523	0.00159641	0.00274838	0.00484651	0.00098012	0.00034148	0.00155706	0.00018157	0.00108508
0.45000000	0.00153472	0.00484038	0.00371104	0.00540782	0.00362119	0.01006541	0.01427050	0.00295835	0.00216941	0.00758137	0.00412733	0.00522886	0.00147470	0.00309215	0.00183411	0.00055093	0.00091679	0.00173647	0.00276724	0.00477146	0.00126116	0.00029565	0.00161191	0.00014571	0.00094300
0.46000000	0.00144310	0.00500154	0.00379336	0.00554766	0.00383370	0.01001360	0.01409144	0.00253512	0.00215556	0.00793942	0.00419675	0.00550491	0.00127197	0.00337373	0.00189681	0.00056727	0.00087067	0.00186878	0.00276853	0.00471250	0.00141409	0.00020279	0.00152404	0.00011677	0.00089511
0.47000000	0.00185586	0.00441929	0.00358707	0.00573588	0.00400359	0.01054794	0.01353309	0.00251979	0.00204755	0.00855456	0.00466154	0.00575257	0.00177544	0.00379340	0.00279514	0.00058379	0.00081882	0.00197424	0.00278732	0.00462528	0.00148408	0.00043840	0.00152818	0.00028077	0.00079317
0.48000000	0.00205940	0.00481463	0.00367233	0.00587968	0.00411977	0.01047115	0.01356252	0.00219806	0.00196081	0.00851730	0.00458091	0.00627436	0.00214267	0.00392278	0.00300283	0.00067299	0.00069459	0.00205731	0.00277693	0.00450127	0.00150982	0.00027561	0.00139815	0.00021361	0.00075113
0.49000000	0.00252445	0.00423088	0.00351841	0.00605208	0.00436413	0.01082793	0.01333274	0.00206627	0.00188732	0.00876965	0.00514375	0.00686893	0.00253451	0.00420802	0.00353483	0.00081708	0.00058755	0.00213772	0.00277612	0.00438915	0.00152840	0.00074060	0.00136851	0.00035675	0.00069212
0.50000000	0.00280117	0.00397445	0.00350597	0.00612419	0.00447743	0.01109650	0.01329642	0.00193470	0.00178228	0.00881362	0.00555533	0.00785228	0.00274563	0.00430398	0.00358696	0.00110187	0.00050338	0.00216196	0.00276120	0.00426860	0.00170026	0.00113233	0.00132146	0.00059493	0.00062663
0.51000000	0.00298799	0.00375443	0.00346404	0.00613389	0.00460653	0.01131240	0.01333536	0.00181974	0.00178154	0.00875215	0.00593301	0.00923425	0.00276668	0.00443004	0.00328836	0.00140246	0.00049180	0.00218781	0.00273500	0.00416054	0.00201476	0.00144924	0.00123391	0.00076629	0.00060344
0.52000000	0.00308863	0.00337757	0.00342278	0.00602687	0.00506269	0.01112459	0.01386698	0.00093125	0.00179548	0.00895350	0.00603288	0.01098609	0.00274705	0.00457223	0.00346918	0.00167783	0.00074420	0.00221051	0.00267221	0.00418902	0.00227173	0.00219146	0.00142575	0.00111611	0.00075498
0.53000000	0.00297301	0.00308779	0.00319986	0.00591365	0.00473826	0.01189286	0.01337771	0.00170979	0.00182994	0.00877285	0.00647835	0.01303164	0.00246497	0.00484306	0.00258779	0.00204322	0.00074076	0.00216140	0.00276680	0.00400955	0.00279472	0.00176625	0.00106858	0.00095921	0.00049414
0.54000000	0.00290022	0.00263519	0.00287964	0.00582371	0.00480755	0.01208724	0.01342568	0.00180146	0.00187513	0.00899106	0.00670184	0.01522429	0.00229629	0.00513349	0.00244656	0.00224731	0.00083518	0.00215352	0.00280496	0.00401476	0.00321760	0.00179550	0.00095060	0.00094920	0.00048531
0.55000000	0.00281409	0.00217401	0.00243704	0.00577066	0.00491545	0.01235219	0.01342101	0.00188730	0.00195039	0.00943273	0.00678982	0.01744477	0.00217556	0.00539766	0.00261210	0.00246041	0.00105380	0.00220892	0.00282531	0.00403204	0.00353256	0.00175380	0.00089111	0.00090516	0.00044117
0.56000000	0.00305177	0.00155506	0.00218011	0.00564984	0.00489468	0.01275143	0.01335662	0.00194011	0.00216467	0.00995290	0.00673322	0.01951349	0.00217881	0.00578005	0.00309698	0.00257554	0.00116546	0.00226603	0.00283440	0.00414256	0.00367260	0.00146259	0.00080700	0.00086389	0.00040657
0.57000000	0.00363835	0.00126400	0.00213817	0.00563922	0.00471920	0.01315736	0.01337466	0.00211483	0.00213344	0.01059975	0.00670408	0.02123530	0.00229560	0.00595063	0.00344536	0.00261585	0.00130485	0.00243905	0.00278540	0.00427323	0.00377871	0.00124718	0.00072863	0.00075095	0.00039708
0.58000000	0.00356634	0.00155588	0.00149169	0.00592103	0.00516847	0.01342785	0.01352744	0.00192892	0.00174339	0.01154211	0.00658848	0.02250980	0.00263326	0.00616859	0.00376309	0.00271654	0.00129331	0.00249614	0.00281075	0.00444297	0.00399251	0.00142052	0.00076249	0.00063434	0.00021190
0.59000000	0.00428347	0.00140779	0.00159170	0.00609289	0.00460686	0.01422759	0.01335215	0.00228933	0.00172214	0.01192526	0.00642400	0.02327645	0.00283271	0.00640612	0.00432488	0.00273230	0.00131776	0.00266237	0.00272586	0.00477011	0.00383626	0.00108324	0.00055455	0.00052031	0.00026077
0.60000000	0.00426191	0.00179881	0.00128979	0.00679456	0.00533595	0.01461272	0.01338292	0.00197042	0.00137022	0.01280532	0.00634949	0.02336368	0.00322986	0.00655023	0.00456923	0.00277044	0.00130093	0.00279776	0.00270974	0.00503757	0.00384054	0.00115066	0.00048833	0.00031617	0.00031733
0.61000000	0.00465182	0.00187844	0.00164291	0.00723394	0.00490093	0.01561625	0.01324423	0.00233767	0.00119701	0.01263051	0.00615219	0.02313794	0.00340104	0.00657556	0.00474707	0.00280956	0.00118589	0.00294397	0.00269237	0.00534587	0.00368386	0.00080423	0.00021964	0.00037718	0.00010113
0.62000000	0.00467545	0.00218486	0.00170545	0.00802666	0.00515226	0.01642338	0.01308926	0.00236639	0.00117741	0.01297534	0.00607104	0.02221745	0.00368106	0.00667815	0.00486788	0.00287678	0.00115294	0.00307760	0.00269639	0.00560879	0.00355397	0.00065111	0.00024318	0.00046055	0.00013593
0.63000000	0.00481680	0.00251479	0.00193361	0.00873955	0.00521309	0.01734703	0.01302199	0.00260001	0.00105876	0.01297378	0.00595309	0.02098970	0.00385168	0.00669855	0.00484470	0.00294760	0.00117030	0.00324133	0.00266593	0.00582027	0.00336090	0.00048709	0.00035032	0.00043649	0.00018377
0.64000000	0.00495135	0.00284579	0.00213339	0.00955282	0.00539145	0.01821708	0.01297561	0.00277376	0.00103096	0.01282313	0.00581651	0.01952415	0.00395864	0.00668657	0.00470276	0.00298424	0.00112373	0.00335426	0.00265201	0.00602770	0.00319206	0.00032365	0.00047371	0.00032686	0.00026344
0.65000000	0.00510394	0.00317457	0.00224913	0.01024816	0.00551543	0.01912078	0.01290147	0.00294914	0.00105281	0.01257884	0.00572159	0.01792918	0.00397778	0.00658462	0.00448934	0.00298338	0.00097825	0.00336264	0.00266100	0.00623162	0.00305905	0.00020690	0.00058181	0.00032084	0.00044053
0.66000000	0.00518626	0.00501173	0.00204033	0.01137940	0.00682472	0.01945665	0.01270514	0.00271512	0.00050862	0.01312108	0.00526973	0.01601439	0.00406373	0.00617630	0.00380536	0.00277070	0.00100991	0.00352086	0.00264583	0.00649350	0.00306817	0.00002863	0.00098499	0.00019827	0.00088014
0.67000000	0.00494782	0.00329713	0.00250829	0.01156063	0.00598180	0.02066603	0.01272314	0.00329683	0.00090767	0.01181684	0.00558869	0.01450311	0.00383484	0.00569043	0.00361372	0.00288148	0.00093473	0.00353574	0.00257019	0.00642848	0.00284888	0.00026377	0.00076623	0.00009481	0.00056881
0.68000000	0.00483915	0.00339897	0.00261251	0.01192792	0.00613034	0.02124550	0.01271415	0.00338654	0.00102824	0.01115641	0.00550006	0.01270964	0.00358049	0.00509564	0.00330028	0.00280966	0.00095714	0.00358747	0.00252617	0.00644049	0.00280867	0.00043974	0.00092686	0.00019286	0.00060760
0.69000000	0.00464455	0.00356182	0.00253856	0.01219519	0.00641986	0.02170835	0.01261919	0.00350544	0.00094521	0.01014517	0.00536706	0.01088140	0.00331773	0.00450009	0.00290136	0.00272269	0.00099343	0.00357255	0.00252716	0.00644021	0.00284846	0.00056243	0.00110788	0.00025668	0.00076387
0.70000000	0.00471804	0.00420063	0.00244227	0.01230021	0.00675529	0.02193167	0.01263817	0.00346533	0.00086719	0.00884673	0.00511968	0.00897110	0.00296768	0.00381786	0.00260543	0.00266579	0.00108792	0.00356032	0.00251697	0.00637865	0.00286456	0.00062336	0.00133364	0.00034069	0.00084280
0.71000000	0.00450070	0.00404493	0.00250693	0.01231935	0.00693929	0.02224327	0.01262346	0.00348967	0.00091886	0.00728032	0.00494615	0.00668610	0.00267661	0.00294365	0.00209057	0.00258953	0.00112100	0.00349844	0.00250077	0.00634181	0.00286092	0.00072462	0.00143597	0.00040632	0.00092045
0.72000000	0.00440522	0.00607800	0.00238322	0.01242923	0.00764755	0.02212833	0.01253010	0.00341494	0.00040203	0.00559219	0.00436057	0.00444805	0.00243780	0.00208018	0.00120826	0.00265841	0.00141153	0.00338048	0.00262668	0.00630266	0.00308990	0.00065481	0.00176618	0.00046168	0.00159531
0.73000000	0.00426964	0.00467525	0.00271748	0.01223366	0.00747642	0.02253798	0.01266517	0.00336314	0.00083507	0.00373153	0.00419542	0.00151066	0.00212767	0.00118625	0.00106475	0.00241439	0.00126205	0.00333392	0.00246591	0.00625053	0.00292428	0.00081838	0.00167265	0.00041609	0.00112744
0.74000000	0.00431592	0.00549179	0.00299981	0.01219499	0.00777860	0.02251161	0.01275448	0.00325725	0.00076459	0.00371511	0.00365192	0.00149247	0.00190138	0.00101632	0.00051829	0.00233120	0.00135042	0.00317942	0.00245464	0.00624541	0.00295937	0.00077712	0.00181767	0.00048004	0.00124176
0.75000000	0.00407232	0.00573629	0.00329675	0.01215430	0.00792434	0.02263650	0.01277957	0.00328915	0.00071491	0.00571933	0.00320400	0.00474470	0.00195454	0.00206383	0.00076799	0.00229729	0.00139926	0.00304202	0.00246473	0.00622853	0.00306436	0.00083102	0.00185437	0.00047380	0.00136266
0.76000000	0.00399783	0.00651203	0.00378331	0.01218506	0.00823022	0.02256010	0.01287701	0.00315135	0.00072659	0.00851828	0.00276672	0.00793532	0.00203074	0.00332696	0.00144993	0.00217380	0.00145446	0.00290296	0.00244098	0.00625126	0.00314818	0.00084045	0.00194791	0.00049207	0.00142433
0.77000000	0.00387648	0.00749128	0.00420506	0.01216196	0.00865022	0.02247591	0.01296702	0.00301409	0.00064374	0.01086118	0.00202659	0.01109722	0.00234839	0.00485350	0.00223380	0.00202170	0.00151721	0.00282702	0.00241759	0.00628186	0.00330767	0.00085009	0.00203202	0.00050214	0.00152419
0.78000000	0.00403954	0.00865986	0.00486128	0.01213109	0.00881869	0.02214836	0.01323177	0.00289647	0.00063869	0.01371413	0.00230954	0.01314585	0.00222097	0.00553706	0.00264298	0.00197422	0.00163693	0.00263978	0.00246585	0.00632264	0.00346583	0.00073066	0.00214308	0.00044195	0.00175747
0.79000000	0.00389112	0.00943243	0.00571653	0.01215832	0.00879454	0.02202052	0.01323805	0.00283134	0.00066352	0.01604095	0.00210677	0.01437033	0.00259777	0.00603498	0.00358649	0.00197571	0.00176537	0.00241424	0.00243215	0.00635035	0.00349400	0.00083706	0.00224242	0.00047494	0.00203163
0.80000000	0.00404295	0.00997602	0.00586907	0.01214990	0.00912966	0.02160253	0.01345308	0.00267842	0.00054530	0.01670357	0.00315332	0.01530287	0.00205967	0.00632457	0.00342023	0.00191888	0.00194243	0.00231228	0.00262274	0.00644132	0.00388759	0.00036990	0.00253167	0.00043093	0.00211717
0.81000000	0.00380854	0.00962865	0.00550593	0.01176165	0.01001797	0.02159792	0.01352149	0.00238815	0.00059097	0.01535475	0.00203017	0.01607256	0.00268623	0.00693981	0.00365245	0.00182856	0.00193247	0.00236360	0.00257759	0.00642661	0.00412110	0.00063316	0.00245503	0.00031306	0.00201142
0.82000000	0.00388579	0.01006017	0.00576559	0.01176677	0.01003134	0.02103724	0.01368521	0.00225000	0.00047165	0.01465511	0.00201286	0.01518574	0.00256251	0.00637060	0.00353161	0.00183292	0.00210979	0.00230235	0.00267491	0.00646696	0.00439611	0.00040577	0.00258902	0.00028961	0.00218343
0.83000000	0.00417379	0.01027230	0.00579043	0.01171685	0.00993914	0.02032863	0.01388276	0.00209599	0.00047816	0.01345801	0.00188143	0.01377271	0.00240310	0.00562133	0.00331585	0.00184564	0.00235281	0.00221369	0.00277737	0.00660717	0.00463925	0.00043420	0.00282565	0.00014841	0.00244731
0.84000000	0.00446217	0.00922514	0.00578404	0.01100322	0.01049759	0.02012046	0.01400693	0.00216439	0.00046735	0.01203359	0.00163764	0.01222563	0.00252591	0.00482893	0.00314969	0.00188317	0.00230914	0.00227032	0.00274431	0.00655928	0.00473290	0.00014922	0.00275875	0.00009505	0.00237694
0.85000000	0.00487073	0.00928120	0.00600842	0.01070093	0.01009320	0.01919926	0.01422426	0.00202832	0.00055970	0.01027776	0.00169765	0.01057052	0.00268387	0.00404388	0.00295026	0.00199871	0.00255077	0.00227097	0.00280038	0.00670413	0.00485861	0.00036861	0.00302321	0.00012460	0.00258016
0.86000000	0.00574519	0.00811078	0.00594698	0.00986743	0.01007555	0.01848197	0.01453043	0.00228453	0.00052616	0.00890988	0.00168846	0.00905123	0.00279414	0.00346909	0.00266583	0.00216261	0.00262133	0.00228468	0.00272519	0.00676771	0.00477162	0.00069953	0.00308508	0.00023209	0.00264440
0.87000000	0.00623573	0.00805472	0.00626205	0.00929068	0.00929690	0.01724430	0.01486880	0.00205436	0.00076669	0.00710143	0.00224498	0.00792112	0.00302501	0.00328758	0.00236234	0.00245093	0.00277989	0.00233423	0.00268658	0.00684029	0.00466947	0.00120021	0.00326953	0.00041007	0.00280175
0.88000000	0.00680256	0.00780068	0.00631442	0.00844174	0.00834305	0.01598475	0.01525818	0.00184642	0.00098887	0.00540715	0.00290631	0.00715178	0.00301710	0.00332803	0.00214200	0.00254518	0.00303687	0.00235265	0.00250978	0.00704651	0.00431193	0.00155287	0.00356490	0.00057496	0.00293791
0.89000000	0.00790651	0.00623897	0.00614925	0.00710341	0.00772266	0.01480423	0.01589813	0.00230487	0.00072458	0.00483961	0.00253308	0.00635709	0.00242734	0.00332806	0.00156496	0.00277784	0.00297846	0.00245047	0.00220045	0.00697115	0.00375255	0.00186001	0.00344186	0.00071288	0.00289997
0.90000000	0.00805699	0.00613507	0.00586042	0.00588471	0.00625621	0.01337499	0.01658408	0.00205707	0.00087184	0.00353732	0.00303766	0.00622383	0.00206420	0.00316632	0.00173882	0.00292981	0.00301871	0.00260675	0.00195765	0.00694511	0.00330606	0.00203926	0.00347287	0.00080952	0.00290413
0.91000000	0.00865888	0.00515889	0.00575406	0.00445952	0.00497601	0.01219900	0.01725971	0.00210348	0.00095057	0.00396090	0.00237443	0.00514898	0.00138098	0.00275966	0.00105678	0.00300977	0.00288958	0.00257722	0.00164915	0.00695260	0.00255569	0.00220592	0.00325838	0.00091567	0.00276668
0.92000000	0.00852762	0.00483456	0.00514148	0.00287932	0.00335717	0.01103084	0.01814777	0.00228336	0.00110797	0.00399931	0.00283888	0.00472652	0.00162265	0.00222080	0.00176678	0.00301793	0.00260948	0.00267713	0.00139092	0.00689298	0.00201649	0.00205758	0.00289877	0.00086713	0.00249126
0.93000000	0.00871852	0.00369485	0.00483007	0.00156078	0.00207767	0.01041807	0.01876707	0.00298706	0.00110960	0.00438574	0.00220863	0.00345409	0.00202830	0.00168999	0.00182957	0.00296767	0.00240126	0.00268181	0.00112495	0.00686258	0.00140083	0.00181530	0.00253630	0.00076950	0.00223711
0.94000000	0.00820378	0.00315014	0.00426971	0.00217265	0.00169577	0.00970796	0.01965888	0.00390656	0.00110816	0.00500792	0.00269930	0.00284102	0.00253620	0.00104084	0.00239743	0.00290929	0.00205477	0.00267644	0.00104357	0.00687782	0.00107619	0.00140859	0.00200555	0.00059083	0.00185496
0.95000000	0.00735325	0.00262271	0.00383197	0.00411196	0.00264823	0.00947772	0.02036006	0.00514588	0.00128126	0.00562302	0.00311780	0.00216279	0.00276422	0.00066835	0.00266918	0.00273226	0.00179973	0.00268028	0.00108198	0.00705559	0.00106952	0.00085769	0.00155321	0.00028923	0.00147142
0.96000000	0.00794005	0.00192598	0.00387577	0.00553750	0.00328849	0.00944115	0.02081225	0.00651625	0.00094746	0.00562958	0.00279060	0.00161637	0.00294838	0.00042406	0.00270976	0.00266898	0.00163567	0.00261509	0.00112712	0.00694202	0.00098938	0.00056732	0.00108350	0.00029569	0.00115412
0.97000000	0.00756629	0.00166307	0.00401761	0.00720246	0.00426100	0.00928187	0.02136450	0.00757286	0.00104160	0.00540949	0.00273550	0.00111828	0.00276714	0.00079279	0.00243809	0.00272999	0.00155608	0.00244340	0.00136019	0.00690348	0.00125457	0.00029921	0.00062941	0.00013273	0.00082113
0.98000000	0.00741499	0.00140484	0.00410990	0.00856579	0.00487809	0.00917279	0.02176722	0.00837517	0.00107112	0.00502432	0.00261947	0.00072757	0.00249467	0.00105057	0.00227455	0.00254398	0.00160868	0.00239118	0.00144245	0.00691990	0.00142631	0.00023851	0.00040274	0.00021745	0.00066135
0.99000000	0.00729259	0.00147804	0.00431404	0.00968150	0.00537692	0.00909908	0.02196734	0.00894053	0.00120366	0.00451722	0.00243033	0.00046029	0.00223564	0.00137761	0.00200552	0.00249877	0.00165017	0.00229909	0.00160518	0.00682621	0.00160280	0.00052753	0.00018692	0.00025014	0.00054101
1.00000000	0.00727728	0.00145978	0.00454460	0.00995766	0.00543294	0.00979108	0.02160524	0.01001231	0.00114503	0.00417323	0.00251290	0.00068804	0.00188704	0.00100947	0.00168553	0.00246618	0.00166467	0.00225439	0.00172847	0.00667416	0.00162297	0.00077087	0.00018156	0.00036131	0.00045148
1.01000000	0.00689496	0.00169018	0.00457088	0.01036130	0.00576463	0.01002014	0.02146965	0.01034351	0.00137587	0.00375033	0.00267161	0.00060881	0.00158790	0.00106909	0.00146050	0.00240347	0.00161683	0.00215817	0.00181695	0.00651436	0.00162009	0.00095548	0.00017175	0.00046682	0.00045341
1.02000000	0.00641906	0.00200293	0.00438873	0.01050803	0.00608203	0.01042810	0.02122846	0.01062580	0.00156182	0.00343158	0.00293926	0.00054651	0.00135372	0.00099274	0.00139387	0.00217372	0.00144293	0.00203249	0.00177161	0.00643362	0.00150439	0.00113003	0.00033999	0.00053732	0.00056427
1.03000000	0.00625257	0.00254373	0.00443541	0.01066589	0.00653678	0.01078616	0.02108628	0.01032936	0.00185757	0.00309198	0.00293634	0.00045501	0.00130858	0.00097868	0.00130544	0.00193591	0.00133531	0.00192587	0.00172576	0.00623093	0.00138765	0.00118139	0.00040988	0.00056202	0.00055587
1.04000000	0.00594109	0.00307661	0.00433970	0.01062274	0.00698090	0.01155340	0.02085844	0.01013236	0.00216605	0.00294941	0.00300296	0.00054853	0.00132485	0.00088068	0.00131458	0.00168884	0.00116062	0.00177596	0.00164224	0.00609079	0.00132048	0.00120370	0.00058439	0.00061540	0.00063546
1.05000000	0.00553287	0.00351113	0.00419032	0.01048553	0.00751761	0.01269720	0.02049633	0.01005163	0.00247493	0.00301748	0.00305671	0.00071396	0.00133277	0.00078229	0.00134656	0.00136977	0.00107795	0.00163918	0.00150553	0.00601389	0.00137708	0.00124623	0.00079626	0.00066343	0.00075668
1.06000000	0.00513222	0.00389573	0.00407411	0.01036131	0.00801350	0.01406770	0.02019713	0.00980995	0.00287124	0.00323088	0.00303427	0.00085372	0.00134942	0.00066413	0.00143585	0.00113096	0.00108278	0.00153130	0.00139423	0.00589383	0.00164373	0.00127977	0.00094895	0.00073959	0.00082821
1.07000000	0.00486057	0.00399092	0.00366980	0.01049334	0.00892846	0.01539322	0.01981884	0.00953571	0.00416918	0.00384683	0.00346488	0.00092353	0.00147484	0.00085848	0.00135661	0.00098255	0.00091650	0.00155378	0.00141523	0.00594460	0.00209562	0.00165924	0.00105152	0.00094687	0.00072879
1.08000000	0.00447609	0.00431180	0.00376351	0.01022268	0.00900548	0.01726452	0.01963673	0.00928420	0.00368576	0.00393011	0.00283063	0.00073769	0.00161663	0.00041261	0.00185405	0.00077070	0.00110540	0.00134246	0.00115774	0.00566702	0.00231687	0.00136060	0.00107748	0.00100778	0.00081946
1.09000000	0.00418480	0.00473326	0.00346750	0.01014657	0.00935060	0.01907843	0.01926085	0.00931826	0.00411872	0.00369723	0.00224820	0.00098249	0.00171464	0.00055423	0.00165778	0.00076874	0.00111993	0.00121426	0.00107151	0.00541416	0.00256549	0.00141367	0.00098871	0.00098788	0.00074355
1.10000000	0.00426761	0.00435500	0.00298205	0.01025061	0.00989380	0.02082205	0.01888893	0.00943789	0.00465562	0.00428549	0.00258820	0.00076962	0.00179655	0.00087632	0.00163634	0.00083390	0.00103843	0.00111626	0.00101656	0.00525540	0.00281207	0.00154876	0.00093464	0.00107088	0.00061997
1.11000000	0.00374956	0.00439064	0.00274176	0.01028569	0.00981912	0.02261515	0.01876398	0.00970778	0.00482137	0.00437168	0.00216440	0.00081649	0.00197810	0.00074561	0.00208755	0.00090413	0.00085059	0.00095498	0.00088996	0.00509515	0.00279243	0.00155285	0.00075403	0.00111916	0.00043731
1.12000000	0.00358825	0.00443454	0.00256405	0.01057557	0.00996393	0.02425262	0.01856138	0.00996630	0.00505989	0.00438657	0.00185661	0.00093165	0.00209698	0.00095102	0.00202749	0.00100210	0.00072800	0.00087618	0.00082346	0.00479242	0.00285460	0.00157947	0.00056359	0.00110305	0.00034466
1.13000000	0.00415230	0.00395316	0.00253375	0.01102874	0.01014205	0.02568464	0.01840822	0.01035882	0.00544112	0.00486791	0.00270140	0.00105848	0.00218172	0.00173990	0.00153027	0.00105641	0.00039874	0.00074214	0.00074738	0.00457286	0.00267857	0.00173788	0.00039056	0.00084857	0.00017265
1.14000000	0.00394330	0.00395346	0.00259159	0.01148083	0.01000883	0.02702061	0.01841173	0.01072862	0.00565452	0.00470402	0.00209048	0.00128467	0.00236201	0.00145405	0.00218322	0.00107317	0.00023891	0.00066637	0.00064676	0.00427442	0.00249553	0.00146106	0.00019844	0.00090868	0.00009896
1.15000000	0.00437734	0.00372769	0.00289582	0.01227713	0.01007879	0.02794998	0.01833660	0.01096029	0.00593578	0.00494971	0.00269175	0.00136148	0.00247861	0.00193735	0.00175167	0.00109435	0.00021873	0.00061310	0.00057909	0.00409123	0.00224154	0.00146451	0.00033555	0.00073203	0.00035114
1.16000000	0.00443072	0.00407239	0.00306217	0.01317524	0.01007028	0.02840665	0.01838248	0.01105989	0.00608093	0.00446931	0.00201101	0.00167283	0.00263818	0.00187686	0.00182689	0.00118936	0.00063088	0.00070696	0.00054577	0.00379529	0.00201967	0.00121381	0.00065209	0.00061334	0.00048856
1.17000000	0.00476674	0.00403641	0.00336497	0.01397236	0.00979919	0.02858220	0.01843590	0.01109426	0.00631261	0.00451520	0.00204012	0.00202864	0.00282299	0.00193430	0.00172413	0.00117432	0.00091068	0.00068483	0.00053452	0.00371671	0.00169703	0.00095992	0.00088946	0.00048102	0.00066228
1.18000000	0.00508184	0.00388465	0.00369456	0.01477638	0.00940420	0.02833003	0.01850153	0.01103988	0.00652489	0.00464661	0.00219241	0.00259903	0.00283723	0.00205763	0.00156385	0.00111245	0.00125074	0.00063955	0.00058771	0.00362789	0.00130110	0.00072881	0.00118791	0.00027604	0.00086222
1.19000000	0.00539768	0.00387993	0.00388210	0.01573903	0.00905215	0.02746271	0.01857484	0.01063997	0.00661514	0.00476085	0.00254163	0.00342727	0.00283209	0.00219827	0.00134092	0.00124559	0.00162966	0.00077664	0.00066454	0.00349223	0.00107627	0.00047055	0.00151480	0.00025144	0.00105151
1.20000000	0.00558195	0.00372199	0.00418949	0.01637311	0.00828281	0.02632090	0.01872520	0.01035858	0.00654846	0.00533206	0.00280974	0.00432592	0.00273824	0.00227169	0.00108468	0.00117956	0.00193129	0.00075241	0.00073375	0.00345401	0.00081517	0.00047658	0.00180460	0.00027173	0.00123153
1.21000000	0.00589054	0.00356917	0.00415692	0.01672374	0.00755624	0.02477426	0.01878778	0.00982945	0.00628352	0.00556871	0.00347926	0.00566024	0.00250118	0.00257696	0.00072293	0.00130289	0.00236106	0.00085137	0.00089887	0.00329525	0.00091849	0.00021819	0.00216485	0.00018292	0.00145427
1.22000000	0.00590849	0.00346217	0.00436141	0.01660522	0.00651927	0.02320034	0.01880891	0.00931913	0.00583988	0.00632055	0.00377960	0.00679452	0.00235765	0.00268318	0.00052376	0.00125721	0.00264688	0.00085697	0.00100211	0.00324667	0.00111759	0.00053370	0.00245605	0.00026100	0.00159981
1.23000000	0.00599125	0.00309042	0.00424467	0.01625354	0.00565996	0.02125981	0.01877603	0.00862115	0.00517030	0.00668232	0.00479282	0.00806866	0.00200691	0.00293928	0.00028000	0.00146180	0.00299767	0.00104896	0.00114852	0.00313708	0.00144888	0.00049124	0.00273537	0.00034723	0.00175292
1.24000000	0.00588602	0.00311997	0.00430530	0.01524844	0.00456821	0.01955301	0.01859326	0.00801056	0.00444759	0.00749242	0.00523436	0.00887613	0.00186925	0.00301763	0.00029026	0.00153066	0.00318863	0.00120022	0.00128420	0.00318724	0.00186084	0.00086179	0.00290790	0.00058737	0.00185512
1.25000000	0.00578054	0.00282494	0.00420691	0.01387003	0.00384288	0.01766087	0.01825312	0.00724063	0.00392742	0.00752773	0.00608446	0.00987428	0.00159556	0.00330119	0.00058448	0.00171225	0.00347120	0.00134437	0.00135843	0.00310666	0.00216799	0.00092406	0.00318457	0.00053120	0.00194421
1.26000000	0.00557912	0.00250194	0.00415385	0.01231417	0.00324792	0.01560163	0.01805900	0.00639313	0.00322041	0.00758960	0.00690362	0.01053386	0.00134152	0.00338295	0.00092688	0.00191764	0.00365257	0.00152617	0.00141090	0.00308518	0.00242433	0.00104441	0.00331715	0.00067503	0.00202225
1.27000000	0.00540521	0.00250745	0.00409555	0.01028336	0.00292961	0.01395614	0.01755473	0.00562563	0.00273038	0.00776344	0.00755652	0.01077971	0.00126575	0.00342500	0.00104036	0.00211141	0.00377129	0.00168452	0.00148740	0.00307443	0.00274208	0.00127339	0.00340923	0.00081061	0.00206639
1.28000000	0.00528509	0.00239819	0.00404909	0.00830560	0.00284025	0.01215432	0.01728677	0.00466143	0.00215325	0.00768443	0.00817941	0.01095779	0.00124987	0.00341099	0.00129013	0.00234687	0.00385270	0.00185090	0.00154473	0.00294758	0.00295184	0.00138950	0.00345019	0.00093976	0.00207155
1.29000000	0.00523674	0.00247746	0.00406077	0.00587767	0.00289342	0.01118860	0.01686093	0.00397333	0.00174419	0.00782029	0.00845681	0.01088611	0.00128735	0.00339980	0.00140961	0.00254051	0.00382016	0.00201714	0.00165330	0.00281005	0.00326230	0.00154096	0.00340601	0.00116047	0.00211694
1.30000000	0.00524928	0.00260577	0.00406211	0.00408584	0.00297908	0.01050297	0.01671188	0.00296302	0.00121253	0.00795248	0.00896695	0.01067782	0.00139622	0.00327974	0.00149119	0.00279478	0.00385072	0.00216331	0.00166221	0.00261055	0.00339162	0.00177226	0.00342971	0.00128874	0.00208305
1.31000000	0.00585238	0.00284875	0.00437396	0.00312998	0.00313062	0.01081370	0.01647585	0.00231917	0.00114439	0.00842583	0.00907192	0.01025740	0.00148946	0.00314749	0.00150662	0.00306608	0.00374028	0.00237463	0.00174600	0.00254772	0.00362936	0.00209573	0.00335413	0.00169262	0.00203705
1.32000000	0.00611251	0.00297294	0.00461954	0.00394753	0.00310399	0.01150960	0.01652632	0.00180626	0.00044769	0.00841581	0.00965560	0.01016802	0.00160117	0.00321900	0.00163540	0.00320738	0.00363315	0.00251081	0.00185470	0.00251526	0.00376059	0.00218230	0.00325685	0.00167484	0.00202233
1.33000000	0.00706510	0.00316785	0.00522240	0.00577514	0.00306921	0.01270528	0.01645497	0.00154527	0.00024066	0.00871977	0.00985341	0.00984085	0.00174826	0.00325337	0.00157671	0.00335975	0.00346587	0.00269768	0.00199984	0.00291294	0.00395845	0.00239186	0.00318410	0.00190850	0.00193387
1.34000000	0.00767452	0.00343315	0.00581072	0.00743804	0.00296510	0.01385296	0.01652715	0.00164089	0.00028330	0.00887601	0.01031340	0.00954143	0.00192016	0.00331598	0.00151657	0.00343504	0.00332233	0.00283786	0.00213841	0.00354234	0.00408991	0.00253895	0.00313990	0.00202790	0.00186530
1.35000000	0.00848980	0.00375547	0.00652868	0.00919371	0.00302373	0.01444702	0.01676669	0.00113538	0.00114038	0.00907548	0.01064723	0.00928836	0.00199049	0.00343144	0.00149345	0.00338635	0.00321490	0.00290621	0.00226362	0.00421962	0.00416139	0.00250182	0.00324948	0.00234630	0.00166083
1.36000000	0.00893710	0.00407887	0.00693162	0.00938081	0.00280679	0.01540878	0.01657430	0.00193771	0.00068843	0.00895208	0.01090595	0.00888474	0.00228333	0.00355843	0.00128086	0.00349915	0.00313102	0.00312171	0.00242218	0.00485221	0.00433235	0.00278058	0.00304444	0.00233609	0.00188324
1.37000000	0.00905111	0.00440645	0.00743767	0.00941689	0.00264510	0.01568862	0.01648832	0.00201259	0.00091127	0.00897921	0.01124006	0.00856496	0.00244993	0.00363156	0.00127129	0.00342175	0.00289678	0.00325751	0.00257879	0.00519410	0.00437126	0.00276435	0.00291157	0.00230415	0.00171724
1.38000000	0.00928688	0.00486529	0.00786260	0.00886799	0.00260430	0.01550906	0.01627739	0.00223759	0.00123506	0.00898667	0.01108269	0.00813436	0.00248430	0.00373497	0.00112565	0.00342399	0.00273310	0.00339909	0.00267534	0.00539266	0.00446344	0.00287891	0.00287471	0.00251968	0.00161013
1.39000000	0.00912649	0.00535472	0.00806355	0.00779818	0.00274552	0.01494917	0.01612037	0.00225811	0.00115387	0.00884380	0.01117723	0.00763533	0.00279148	0.00365839	0.00123787	0.00340574	0.00261227	0.00348745	0.00277904	0.00549168	0.00446602	0.00302674	0.00264438	0.00256016	0.00162435
1.40000000	0.00894245	0.00584632	0.00824665	0.00635376	0.00296395	0.01406072	0.01593366	0.00282087	0.00128609	0.00881910	0.01091886	0.00705382	0.00294464	0.00355746	0.00128292	0.00336135	0.00239499	0.00352014	0.00282196	0.00538605	0.00440465	0.00312920	0.00244754	0.00265216	0.00147340
1.41000000	0.00867262	0.00629407	0.00824362	0.00467061	0.00324557	0.01305075	0.01576241	0.00347398	0.00130214	0.00868212	0.01046513	0.00635029	0.00317033	0.00339620	0.00143042	0.00337667	0.00217955	0.00350689	0.00282742	0.00529285	0.00433686	0.00327590	0.00215472	0.00275078	0.00135560
1.42000000	0.00837823	0.00657379	0.00810242	0.00295289	0.00350225	0.01208348	0.01560722	0.00413552	0.00137430	0.00843981	0.00976129	0.00548115	0.00340082	0.00323267	0.00161849	0.00341826	0.00192207	0.00343025	0.00275132	0.00516084	0.00421046	0.00342914	0.00185115	0.00284764	0.00116199
1.43000000	0.00807041	0.00664060	0.00780037	0.00142518	0.00379236	0.01120968	0.01556543	0.00452932	0.00137485	0.00807871	0.00886719	0.00458244	0.00366500	0.00305053	0.00192139	0.00341827	0.00165342	0.00323911	0.00260160	0.00501930	0.00394894	0.00351792	0.00151702	0.00285790	0.00093257
1.44000000	0.00768619	0.00651748	0.00730937	0.00110562	0.00393555	0.01050634	0.01566946	0.00448658	0.00136325	0.00756679	0.00777355	0.00365318	0.00395446	0.00291251	0.00232923	0.00343875	0.00137088	0.00298653	0.00241293	0.00494345	0.00369790	0.00349891	0.00117663	0.00289936	0.00075613
1.45000000	0.00733878	0.00610105	0.00664075	0.00216754	0.00391149	0.01003025	0.01574105	0.00429297	0.00181874	0.00677941	0.00644000	0.00270013	0.00424681	0.00284440	0.00266299	0.00335775	0.00112513	0.00270866	0.00210807	0.00489914	0.00336939	0.00335755	0.00094390	0.00278427	0.00067184
1.46000000	0.00585999	0.00598789	0.00588078	0.00283995	0.00353916	0.00933936	0.01600494	0.00441720	0.00160260	0.00572103	0.00517983	0.00196763	0.00443035	0.00272515	0.00318382	0.00317194	0.00083790	0.00247635	0.00184324	0.00480077	0.00297840	0.00300578	0.00078181	0.00257611	0.00042539
1.47000000	0.00571795	0.00489682	0.00495517	0.00355426	0.00353849	0.00935098	0.01582728	0.00403304	0.00219364	0.00442100	0.00343774	0.00138368	0.00473585	0.00283011	0.00338807	0.00287838	0.00087172	0.00216381	0.00161025	0.00479195	0.00277783	0.00251987	0.00083005	0.00217379	0.00061857
1.48000000	0.00399053	0.00456758	0.00434967	0.00341619	0.00280930	0.00904556	0.01582924	0.00451118	0.00186905	0.00309095	0.00197102	0.00139134	0.00480920	0.00235805	0.00373125	0.00256961	0.00073173	0.00215186	0.00148975	0.00468278	0.00256712	0.00192589	0.00075317	0.00177688	0.00048820
1.49000000	0.00385129	0.00359503	0.00384501	0.00377781	0.00277709	0.00917781	0.01558851	0.00408342	0.00202844	0.00191713	0.00123246	0.00190605	0.00483516	0.00238698	0.00393892	0.00220897	0.00090889	0.00209667	0.00149879	0.00464619	0.00260799	0.00121886	0.00095970	0.00125078	0.00058238
1.50000000	0.00377825	0.00332012	0.00368559	0.00404442	0.00266472	0.00929090	0.01531659	0.00373398	0.00221813	0.00213600	0.00181178	0.00248839	0.00482930	0.00233899	0.00382047	0.00199349	0.00114142	0.00211276	0.00165392	0.00461412	0.00283007	0.00054286	0.00110425	0.00076246	0.00087201
1.51000000	0.00315065	0.00378895	0.00398167	0.00408300	0.00231528	0.00903161	0.01538391	0.00330684	0.00207186	0.00321994	0.00241679	0.00300905	0.00459428	0.00195843	0.00359644	0.00193784	0.00139468	0.00220451	0.00175593	0.00468052	0.00299144	0.00008909	0.00130684	0.00035756	0.00076101
1.52000000	0.00328317	0.00388298	0.00412863	0.00420790	0.00229754	0.00960104	0.01474507	0.00323796	0.00225690	0.00424148	0.00342249	0.00388206	0.00407643	0.00247105	0.00338529	0.00203269	0.00164091	0.00226898	0.00197871	0.00469058	0.00338124	0.00053672	0.00152089	0.00027213	0.00085045
1.53000000	0.00281916	0.00432418	0.00482455	0.00434280	0.00219801	0.00937698	0.01476812	0.00281572	0.00214246	0.00550383	0.00385814	0.00432222	0.00332792	0.00238101	0.00277649	0.00219908	0.00179551	0.00231412	0.00209701	0.00476802	0.00362315	0.00073991	0.00158056	0.00026432	0.00089683
1.54000000	0.00257665	0.00472102	0.00525014	0.00462873	0.00231949	0.00941869	0.01461890	0.00247354	0.00227482	0.00642968	0.00424387	0.00484475	0.00254468	0.00265449	0.00227564	0.00236735	0.00194169	0.00224734	0.00224906	0.00483187	0.00386556	0.00093181	0.00169208	0.00041996	0.00094823
1.55000000	0.00258685	0.00479464	0.00536525	0.00491605	0.00243944	0.00983611	0.01423763	0.00244243	0.00231711	0.00728553	0.00470193	0.00540348	0.00174048	0.00301364	0.00223478	0.00259723	0.00204005	0.00214884	0.00237357	0.00481876	0.00398079	0.00105653	0.00173631	0.00053752	0.00096007
1.56000000	0.00258992	0.00463989	0.00534656	0.00514228	0.00276847	0.00991565	0.01416542	0.00213519	0.00242288	0.00782876	0.00493919	0.00584348	0.00097976	0.00336956	0.00167811	0.00259904	0.00206346	0.00210392	0.00237925	0.00493739	0.00392367	0.00093450	0.00172421	0.00039774	0.00098386
1.57000000	0.00269251	0.00463738	0.00523430	0.00533198	0.00297358	0.01008164	0.01409769	0.00203991	0.00244985	0.00830568	0.00514150	0.00635464	0.00108267	0.00356693	0.00193693	0.00257180	0.00201016	0.00194178	0.00234390	0.00505749	0.00369771	0.00073482	0.00173785	0.00029507	0.00095766
1.58000000	0.00300265	0.00422148	0.00497610	0.00548509	0.00317023	0.01048404	0.01389741	0.00196496	0.00240621	0.00876169	0.00565587	0.00689780	0.00155174	0.00388490	0.00265994	0.00250713	0.00195392	0.00180107	0.00226780	0.00515677	0.00333018	0.00049858	0.00176835	0.00019226	0.00091697
1.59000000	0.00330057	0.00396963	0.00481363	0.00548287	0.00337405	0.01059237	0.01393697	0.00191260	0.00245022	0.00896174	0.00606757	0.00766157	0.00191149	0.00411255	0.00307062	0.00243191	0.00188087	0.00170893	0.00215896	0.00518794	0.00288318	0.00041295	0.00176158	0.00028773	0.00088383
1.60000000	0.00343983	0.00357853	0.00456457	0.00545101	0.00352449	0.01070057	0.01404004	0.00168070	0.00241987	0.00907141	0.00658849	0.00866915	0.00212655	0.00428239	0.00321218	0.00243006	0.00178800	0.00163728	0.00208281	0.00520524	0.00243451	0.00066422	0.00176755	0.00035476	0.00084780
1.61000000	0.00353010	0.00334846	0.00444614	0.00532599	0.00355451	0.01089057	0.01410820	0.00156616	0.00235836	0.00907989	0.00701858	0.00997324	0.00219315	0.00431274	0.00302959	0.00235632	0.00163450	0.00166593	0.00190128	0.00514964	0.00199788	0.00082942	0.00170973	0.00063783	0.00073706
1.62000000	0.00343170	0.00303113	0.00422153	0.00521236	0.00363417	0.01102106	0.01421483	0.00142218	0.00236088	0.00897804	0.00729363	0.01157431	0.00212360	0.00450256	0.00276369	0.00231469	0.00154601	0.00160402	0.00183156	0.00503751	0.00181325	0.00105746	0.00173030	0.00071007	0.00072463
1.63000000	0.00401422	0.00257799	0.00409120	0.00469380	0.00315123	0.01137960	0.01417451	0.00156078	0.00238288	0.00905422	0.00754848	0.01315934	0.00192764	0.00465661	0.00270895	0.00212714	0.00151381	0.00165224	0.00171133	0.00474099	0.00178491	0.00042285	0.00162144	0.00040498	0.00075735
1.64000000	0.00360743	0.00239395	0.00369419	0.00468177	0.00335988	0.01142760	0.01429520	0.00130161	0.00236854	0.00908892	0.00767118	0.01511725	0.00185078	0.00481697	0.00238611	0.00207142	0.00143514	0.00172370	0.00161276	0.00448481	0.00185158	0.00061180	0.00153958	0.00031488	0.00064691
1.65000000	0.00325993	0.00221854	0.00334871	0.00462323	0.00362932	0.01155832	0.01435370	0.00100352	0.00241726	0.00928499	0.00756822	0.01704104	0.00176370	0.00519428	0.00251867	0.00188813	0.00147485	0.00170380	0.00163083	0.00421120	0.00191385	0.00084043	0.00149236	0.00043599	0.00060526
1.66000000	0.00303807	0.00205904	0.00316436	0.00450294	0.00361018	0.01193185	0.01421779	0.00113258	0.00229249	0.00955667	0.00753231	0.01888801	0.00167520	0.00550238	0.00291994	0.00165968	0.00137588	0.00175839	0.00162728	0.00386986	0.00193713	0.00075209	0.00126551	0.00054284	0.00041629
1.67000000	0.00324231	0.00190771	0.00291623	0.00428844	0.00355268	0.01224687	0.01417449	0.00126263	0.00218665	0.01007749	0.00747626	0.02050711	0.00165798	0.00569380	0.00332056	0.00133460	0.00126596	0.00179362	0.00169626	0.00341142	0.00193616	0.00058618	0.00095674	0.00040703	0.00038816
1.68000000	0.00327644	0.00211498	0.00293573	0.00436843	0.00392342	0.01243266	0.01425220	0.00114250	0.00195823	0.01087254	0.00730858	0.02178110	0.00185158	0.00582683	0.00354292	0.00105428	0.00126174	0.00174196	0.00186316	0.00307449	0.00182196	0.00061004	0.00073169	0.00041988	0.00044734
1.69000000	0.00368300	0.00238974	0.00293200	0.00422390	0.00387681	0.01296251	0.01415641	0.00141040	0.00188669	0.01131773	0.00702466	0.02271304	0.00200106	0.00609459	0.00409517	0.00068785	0.00112661	0.00169252	0.00197781	0.00279819	0.00163538	0.00061351	0.00047088	0.00027873	0.00019022
1.70000000	0.00419464	0.00278885	0.00312131	0.00438564	0.00391244	0.01343242	0.01419848	0.00150489	0.00170133	0.01192382	0.00678220	0.02308218	0.00218978	0.00608958	0.00428988	0.00051170	0.00110380	0.00155948	0.00217398	0.00265198	0.00144598	0.00083813	0.00030746	0.00032844	0.00022073
1.71000000	0.00441847	0.00310104	0.00340234	0.00477283	0.00418626	0.01408185	0.01413987	0.00151145	0.00153842	0.01242188	0.00651060	0.02296999	0.00256274	0.00617814	0.00459676	0.00060190	0.00095456	0.00155868	0.00232536	0.00258740	0.00111904	0.00104353	0.00016009	0.00039226	0.00012898
1.72000000	0.00475883	0.00339349	0.00369662	0.00536307	0.00439722	0.01478836	0.01415748	0.00167887	0.00142342	0.01277264	0.00630192	0.02229914	0.00284960	0.00613804	0.00475306	0.00082927	0.00086608	0.00150649	0.00247761	0.00261906	0.00087662	0.00129113	0.00039078	0.00049366	0.00020705
1.73000000	0.00498803	0.00367706	0.00401422	0.00616248	0.00465446	0.01556845	0.01416626	0.00191710	0.00133154	0.01298793	0.00615361	0.02114828	0.00316156	0.00604278	0.00481374	0.00105973	0.00079868	0.00148804	0.00259312	0.00272018	0.00067355	0.00149722	0.00066242	0.00058594	0.00032226
1.74000000	0.00517566	0.00395725	0.00425577	0.00706630	0.00489592	0.01639420	0.01417573	0.00213215	0.00130654	0.01299734	0.00603306	0.01960261	0.00343214	0.00599861	0.00479467	0.00130842	0.00081191	0.00144175	0.00272343	0.00284520	0.00063234	0.00171849	0.00089307	0.00063968	0.00041582
1.75000000	0.00577508	0.00494997	0.00419371	0.00841138	0.00639192	0.01680461	0.01402062	0.00178550	0.00164916	0.01351533	0.00582571	0.01764958	0.00395841	0.00593639	0.00439412	0.00154373	0.00099472	0.00151437	0.00286213	0.00299054	0.00066740	0.00176123	0.00135500	0.00098494	0.00091688
1.76000000	0.00550209	0.00453776	0.00448406	0.00871263	0.00525832	0.01797969	0.01420620	0.00249083	0.00102346	0.01237525	0.00581546	0.01600266	0.00396918	0.00587822	0.00441350	0.00180585	0.00091683	0.00138447	0.00291239	0.00304032	0.00101257	0.00211881	0.00136246	0.00091061	0.00069443
1.77000000	0.00538789	0.00461722	0.00456322	0.00944564	0.00546875	0.01872512	0.01412200	0.00262100	0.00089496	0.01175860	0.00582706	0.01407544	0.00417104	0.00586416	0.00394924	0.00199294	0.00102143	0.00136023	0.00295022	0.00311527	0.00121960	0.00228859	0.00154140	0.00099294	0.00086619
1.78000000	0.00547896	0.00490881	0.00466005	0.00998771	0.00558981	0.01918487	0.01418760	0.00261338	0.00081203	0.01089664	0.00571512	0.01230326	0.00424036	0.00586017	0.00363050	0.00210938	0.00108199	0.00139151	0.00304062	0.00311189	0.00150495	0.00241627	0.00183119	0.00104223	0.00096925
1.79000000	0.00523143	0.00481978	0.00471928	0.01037339	0.00571571	0.01971703	0.01412428	0.00260282	0.00069376	0.00986574	0.00571521	0.01041438	0.00417301	0.00554158	0.00303150	0.00230665	0.00122147	0.00133840	0.00305461	0.00320486	0.00168386	0.00259667	0.00194209	0.00111746	0.00119380
1.80000000	0.00504946	0.00478604	0.00480699	0.01063828	0.00596302	0.02001716	0.01408345	0.00249001	0.00060141	0.00858112	0.00568090	0.00860178	0.00399984	0.00502583	0.00245422	0.00240984	0.00133412	0.00136828	0.00310544	0.00322549	0.00187946	0.00270041	0.00212635	0.00112746	0.00139017
1.81000000	0.00506657	0.00503404	0.00492417	0.01071808	0.00616922	0.02008439	0.01415089	0.00235167	0.00046686	0.00695221	0.00542276	0.00677068	0.00354500	0.00433613	0.00206325	0.00253315	0.00145146	0.00141719	0.00316516	0.00324163	0.00212384	0.00280005	0.00237721	0.00126131	0.00156263
1.82000000	0.00480261	0.00492249	0.00509622	0.01071386	0.00635339	0.02019983	0.01409806	0.00220741	0.00046060	0.00525958	0.00529275	0.00465847	0.00304789	0.00330238	0.00161458	0.00265662	0.00161563	0.00149251	0.00315300	0.00329949	0.00222935	0.00293161	0.00256524	0.00127919	0.00175149
1.83000000	0.00457719	0.00515547	0.00539561	0.01064053	0.00662165	0.02016148	0.01411661	0.00201908	0.00040008	0.00350682	0.00491098	0.00245089	0.00249108	0.00214850	0.00118611	0.00272493	0.00174906	0.00157056	0.00321726	0.00334929	0.00243628	0.00302333	0.00272069	0.00132199	0.00197671
1.84000000	0.00429180	0.00528100	0.00571225	0.01052897	0.00685454	0.02016937	0.01408191	0.00187995	0.00030584	0.00288406	0.00457462	0.00094336	0.00211640	0.00124523	0.00075098	0.00280638	0.00190886	0.00167397	0.00320833	0.00343092	0.00254576	0.00312470	0.00285892	0.00136816	0.00213738
1.85000000	0.00434818	0.00606415	0.00620608	0.01046214	0.00718270	0.01991817	0.01420529	0.00169177	0.00021070	0.00461349	0.00401438	0.00286843	0.00190249	0.00155465	0.00030368	0.00284028	0.00210058	0.00181587	0.00323628	0.00345394	0.00271544	0.00316714	0.00305948	0.00141039	0.00232606
1.86000000	0.00398563	0.00631160	0.00660578	0.01039891	0.00752472	0.01995687	0.01414521	0.00158403	0.00026239	0.00699076	0.00363346	0.00573565	0.00223514	0.00288166	0.00039881	0.00288962	0.00223552	0.00188152	0.00321824	0.00354520	0.00278968	0.00325559	0.00315050	0.00135911	0.00244228
1.87000000	0.00397587	0.00739142	0.00691401	0.01017223	0.00799734	0.01983172	0.01436483	0.00148440	0.00033510	0.00899499	0.00250417	0.00859159	0.00281237	0.00446282	0.00093668	0.00299587	0.00237356	0.00188565	0.00324049	0.00366300	0.00297866	0.00336950	0.00319229	0.00140054	0.00258873
1.88000000	0.00409716	0.00805228	0.00751310	0.01026018	0.00823313	0.01951976	0.01452797	0.00136365	0.00020109	0.01165707	0.00252909	0.01050161	0.00300420	0.00539095	0.00098141	0.00289395	0.00255718	0.00205967	0.00321104	0.00359426	0.00312163	0.00327240	0.00336959	0.00140493	0.00277865
1.89000000	0.00417890	0.00867385	0.00801117	0.01040654	0.00845566	0.01919680	0.01467368	0.00130318	0.00036911	0.01365734	0.00276327	0.01185087	0.00309602	0.00609727	0.00123100	0.00272820	0.00273385	0.00222355	0.00324781	0.00355752	0.00329087	0.00307449	0.00347981	0.00132282	0.00300324
1.90000000	0.00417429	0.00897404	0.00802831	0.01016083	0.00892242	0.01915352	0.01480742	0.00160649	0.00031501	0.01348662	0.00182125	0.01325586	0.00370365	0.00699067	0.00173553	0.00280637	0.00273938	0.00212985	0.00321440	0.00360805	0.00335950	0.00314228	0.00342792	0.00121361	0.00296763
1.91000000	0.00439700	0.00915019	0.00833235	0.01025069	0.00898818	0.01874924	0.01492623	0.00170394	0.00044586	0.01359630	0.00210520	0.01313622	0.00358678	0.00692118	0.00174325	0.00256460	0.00283634	0.00226786	0.00319420	0.00351988	0.00346281	0.00292042	0.00350552	0.00106865	0.00313365
1.92000000	0.00479926	0.00936607	0.00851790	0.01029836	0.00893427	0.01823471	0.01504511	0.00171667	0.00061737	0.01288868	0.00203488	0.01216536	0.00333908	0.00643099	0.00174304	0.00239097	0.00294366	0.00238754	0.00321511	0.00343099	0.00358057	0.00266293	0.00362142	0.00094249	0.00330369
1.93000000	0.00525538	0.00933928	0.00859273	0.01025235	0.00871176	0.01756013	0.01523937	0.00173234	0.00079059	0.01137200	0.00196125	0.01073004	0.00302133	0.00565762	0.00171065	0.00215860	0.00304608	0.00252142	0.00320136	0.00334340	0.00366415	0.00239807	0.00374203	0.00069391	0.00349079
1.94000000	0.00589838	0.00831890	0.00834396	0.00971498	0.00890479	0.01709747	0.01546700	0.00232989	0.00056381	0.00949484	0.00186287	0.00917063	0.00253394	0.00478603	0.00173835	0.00198517	0.00301626	0.00250359	0.00316178	0.00319029	0.00362396	0.00208327	0.00369498	0.00046899	0.00347226
1.95000000	0.00631824	0.00807750	0.00838369	0.00939736	0.00838751	0.01618178	0.01572304	0.00228657	0.00080947	0.00734040	0.00199647	0.00751146	0.00216160	0.00367892	0.00173013	0.00171214	0.00305759	0.00250796	0.00316605	0.00290810	0.00370745	0.00167776	0.00379123	0.00035055	0.00363539
1.96000000	0.00671700	0.00767883	0.00827161	0.00882300	0.00762347	0.01523750	0.01601027	0.00210615	0.00092661	0.00511358	0.00256778	0.00629365	0.00180199	0.00267253	0.00180305	0.00154109	0.00321662	0.00249178	0.00302654	0.00267200	0.00365891	0.00129007	0.00395300	0.00017538	0.00381559
1.97000000	0.00759528	0.00581492	0.00794710	0.00787049	0.00728456	0.01447614	0.01630512	0.00239130	0.00087516	0.00415940	0.00246693	0.00528029	0.00123235	0.00156772	0.00149804	0.00146307	0.00324350	0.00236414	0.00293597	0.00229391	0.00362836	0.00073768	0.00392462	0.00039253	0.00383458
1.98000000	0.00777005	0.00531788	0.00777522	0.00713888	0.00638133	0.01323489	0.01678302	0.00211249	0.00110006	0.00287642	0.00333202	0.00503760	0.00097734	0.00101626	0.00133034	0.00152245	0.00329682	0.00212037	0.00277702	0.00187686	0.00363318	0.00041877	0.00388719	0.00074096	0.00391185
1.99000000	0.00765300	0.00495832	0.00727477	0.00574648	0.00506311	0.01234212	0.01725469	0.00191206	0.00116965	0.00291460	0.00411987	0.00518942	0.00071870	0.00093298	0.00170969	0.00160479	0.00348196	0.00182983	0.00257978	0.00155884	0.00372360	0.00047702	0.00397876	0.00096982	0.00399428
2.00000000	0.00814837	0.00350820	0.00686506	0.00455896	0.00423086	0.01141890	0.01775875	0.00210636	0.00133144	0.00384117	0.00329730	0.00453201	0.00151800	0.00034229	0.00079849	0.00174868	0.00348152	0.00154834	0.00246079	0.00117846	0.00394815	0.00081938	0.00379695	0.00113612	0.00397503
2.01000000	0.00785260	0.00322376	0.00610162	0.00322218	0.00288186	0.01063859	0.01838611	0.00252339	0.00160924	0.00467818	0.00397994	0.00455527	0.00195002	0.00062437	0.00199365	0.00177604	0.00333491	0.00115937	0.00247527	0.00085333	0.00431564	0.00097967	0.00353619	0.00115159	0.00374456
2.02000000	0.00740930	0.00303207	0.00516899	0.00217898	0.00187012	0.00990633	0.01917424	0.00329473	0.00185812	0.00598109	0.00457346	0.00419523	0.00262385	0.00086273	0.00278207	0.00167041	0.00321489	0.00078579	0.00251257	0.00080917	0.00461622	0.00073219	0.00321133	0.00106703	0.00358188
2.03000000	0.00767106	0.00164634	0.00501533	0.00252659	0.00177400	0.00974308	0.01954521	0.00441631	0.00189957	0.00586432	0.00326343	0.00242803	0.00342072	0.00073337	0.00264199	0.00165265	0.00299576	0.00077574	0.00257787	0.00072361	0.00490264	0.00071903	0.00283146	0.00100665	0.00335214
2.04000000	0.00742913	0.00124697	0.00461961	0.00384035	0.00243087	0.00967558	0.02002681	0.00547501	0.00189778	0.00673466	0.00359065	0.00182431	0.00381441	0.00096064	0.00334183	0.00149617	0.00273257	0.00079426	0.00274660	0.00096083	0.00516747	0.00038430	0.00243172	0.00078251	0.00306961
2.05000000	0.00712042	0.00078199	0.00429232	0.00546605	0.00337045	0.00969368	0.02054609	0.00635125	0.00182087	0.00732819	0.00376818	0.00127368	0.00384603	0.00121676	0.00371915	0.00133621	0.00250244	0.00095242	0.00292398	0.00124900	0.00538655	0.00019587	0.00205288	0.00051842	0.00284919
2.06000000	0.00686255	0.00054523	0.00437102	0.00692562	0.00432076	0.00993016	0.02086781	0.00727574	0.00161448	0.00745585	0.00381762	0.00102506	0.00371649	0.00128265	0.00382599	0.00129328	0.00225509	0.00106972	0.00314385	0.00154731	0.00557331	0.00057392	0.00173548	0.00022129	0.00259484
2.07000000	0.00687907	0.00096449	0.00469797	0.00808470	0.00499718	0.01024559	0.02118101	0.00786994	0.00136104	0.00706866	0.00343979	0.00106229	0.00344653	0.00142362	0.00365204	0.00131076	0.00207482	0.00116357	0.00330673	0.00178050	0.00565446	0.00089013	0.00150255	0.00020272	0.00240572
2.08000000	0.00719708	0.00153249	0.00520499	0.00869062	0.00535709	0.01101776	0.02108168	0.00855515	0.00105280	0.00654251	0.00282295	0.00122958	0.00319549	0.00119721	0.00321628	0.00141135	0.00207305	0.00115065	0.00335524	0.00209002	0.00559602	0.00127387	0.00154106	0.00034136	0.00233072
2.09000000	0.00684324	0.00231956	0.00542627	0.00951047	0.00619950	0.01122253	0.02125281	0.00855979	0.00129684	0.00570191	0.00242816	0.00134098	0.00259479	0.00173574	0.00296224	0.00153858	0.00211323	0.00117924	0.00343305	0.00228967	0.00566223	0.00162592	0.00154010	0.00054185	0.00233119
2.10000000	0.00674223	0.00309900	0.00571784	0.00989753	0.00684750	0.01167767	0.02117517	0.00853118	0.00150647	0.00489457	0.00205675	0.00150900	0.00212278	0.00190569	0.00274808	0.00168044	0.00223114	0.00117115	0.00345468	0.00243552	0.00570664	0.00186656	0.00167496	0.00071553	0.00232394
2.11000000	0.00517069	0.00364622	0.00598459	0.01078001	0.00812963	0.01200031	0.02089530	0.00836412	0.00319567	0.00424103	0.00242307	0.00176928	0.00159978	0.00217122	0.00290470	0.00203661	0.00251466	0.00132004	0.00347740	0.00271740	0.00598325	0.00253432	0.00204131	0.00095448	0.00227066
2.12000000	0.00596896	0.00377337	0.00587709	0.00958620	0.00765933	0.01360696	0.02050845	0.00887473	0.00188598	0.00422480	0.00274250	0.00131407	0.00155582	0.00139731	0.00227749	0.00203255	0.00282413	0.00112062	0.00331722	0.00265441	0.00592983	0.00232102	0.00224756	0.00086503	0.00255472
2.13000000	0.00499947	0.00417601	0.00612468	0.01020430	0.00871004	0.01411492	0.02019756	0.00832820	0.00331673	0.00397616	0.00328840	0.00122186	0.00138342	0.00162578	0.00233956	0.00237183	0.00309951	0.00118994	0.00322784	0.00282568	0.00614034	0.00281951	0.00267790	0.00093352	0.00241026
2.14000000	0.00568691	0.00475658	0.00603172	0.00938169	0.00869234	0.01527252	0.02008252	0.00818580	0.00259427	0.00362302	0.00270428	0.00125848	0.00151004	0.00140871	0.00226179	0.00233688	0.00338474	0.00113664	0.00299930	0.00256079	0.00619330	0.00241446	0.00275116	0.00088033	0.00268894
2.15000000	0.00522546	0.00485418	0.00582922	0.00913229	0.00907801	0.01646104	0.01969170	0.00808402	0.00300840	0.00364672	0.00292816	0.00121169	0.00158223	0.00141545	0.00235369	0.00245435	0.00368160	0.00120896	0.00281358	0.00236589	0.00644725	0.00240451	0.00302916	0.00087009	0.00277987
2.16000000	0.00509515	0.00483523	0.00565201	0.00910193	0.00976295	0.01736862	0.01934720	0.00776832	0.00360495	0.00404264	0.00328917	0.00107582	0.00171759	0.00133006	0.00241868	0.00257920	0.00381746	0.00123542	0.00263368	0.00216651	0.00658853	0.00241121	0.00317600	0.00081770	0.00273252
2.17000000	0.00458114	0.00472061	0.00551759	0.00875287	0.00943379	0.01877702	0.01902721	0.00765983	0.00375102	0.00398785	0.00319270	0.00134130	0.00197726	0.00139145	0.00284182	0.00271127	0.00394639	0.00137413	0.00240697	0.00182759	0.00667796	0.00224146	0.00320824	0.00079955	0.00269858
2.18000000	0.00454499	0.00436888	0.00505425	0.00881254	0.00996113	0.01973037	0.01858984	0.00751099	0.00415058	0.00452774	0.00382737	0.00176185	0.00225057	0.00118138	0.00267189	0.00287113	0.00390841	0.00136741	0.00228708	0.00159928	0.00671617	0.00225709	0.00325327	0.00076805	0.00246464
2.19000000	0.00394340	0.00450290	0.00476727	0.00853348	0.00933359	0.02116722	0.01816308	0.00751386	0.00431741	0.00412014	0.00323812	0.00208157	0.00246623	0.00148127	0.00286375	0.00285723	0.00376344	0.00143689	0.00212758	0.00119924	0.00663773	0.00199710	0.00302716	0.00069435	0.00242003
2.20000000	0.00412603	0.00385596	0.00416745	0.00888251	0.00947518	0.02195203	0.01801210	0.00760970	0.00453748	0.00470174	0.00401012	0.00257833	0.00269161	0.00144951	0.00257335	0.00308386	0.00364618	0.00139608	0.00199564	0.00112742	0.00633668	0.00205725	0.00298806	0.00064515	0.00210643
2.21000000	0.00377281	0.00421045	0.00380217	0.00897774	0.00904310	0.02310991	0.01777781	0.00765607	0.00460351	0.00407419	0.00272708	0.00267689	0.00288215	0.00176647	0.00293663	0.00287255	0.00331325	0.00146608	0.00188747	0.00107931	0.00599397	0.00166326	0.00265079	0.00051457	0.00201865
2.22000000	0.00395905	0.00385521	0.00338267	0.00947855	0.00887104	0.02385098	0.01774840	0.00801066	0.00482190	0.00441417	0.00292008	0.00301130	0.00302450	0.00170515	0.00300975	0.00294727	0.00304719	0.00145228	0.00182417	0.00129907	0.00543970	0.00155586	0.00234838	0.00041581	0.00175918
2.23000000	0.00408971	0.00361602	0.00305174	0.01005316	0.00863485	0.02440283	0.01778255	0.00848484	0.00512955	0.00480927	0.00312686	0.00317494	0.00312199	0.00171637	0.00288955	0.00295258	0.00274816	0.00140240	0.00179155	0.00161051	0.00488880	0.00155219	0.00213591	0.00042634	0.00151217
2.24000000	0.00379330	0.00395045	0.00293133	0.01062386	0.00831813	0.02489475	0.01786644	0.00853642	0.00499541	0.00470229	0.00282212	0.00346350	0.00314230	0.00189662	0.00279518	0.00284763	0.00234301	0.00135126	0.00183829	0.00207487	0.00440367	0.00130598	0.00163424	0.00027458	0.00127181
2.25000000	0.00400288	0.00402924	0.00291015	0.01142988	0.00801552	0.02495185	0.01805520	0.00882171	0.00509575	0.00485053	0.00277420	0.00369690	0.00312117	0.00201282	0.00267253	0.00278069	0.00205579	0.00129447	0.00184476	0.00245726	0.00392502	0.00114453	0.00128876	0.00019700	0.00104955
2.26000000	0.00492910	0.00396448	0.00310710	0.01263702	0.00778325	0.02472600	0.01822757	0.00901895	0.00520446	0.00517702	0.00405336	0.00380014	0.00297224	0.00276942	0.00220330	0.00262748	0.00187042	0.00130106	0.00173036	0.00284658	0.00338052	0.00105513	0.00125682	0.00055578	0.00081526
2.27000000	0.00458864	0.00397665	0.00314327	0.01326972	0.00729768	0.02420255	0.01850830	0.00910660	0.00535610	0.00519612	0.00305456	0.00468909	0.00281086	0.00250887	0.00224320	0.00247889	0.00162906	0.00126040	0.00183664	0.00327986	0.00320866	0.00070647	0.00056542	0.00036158	0.00056919
2.28000000	0.00491951	0.00397011	0.00325747	0.01406177	0.00679189	0.02350124	0.01864766	0.00904379	0.00542251	0.00556577	0.00320393	0.00559156	0.00266043	0.00276444	0.00197625	0.00233654	0.00153351	0.00124999	0.00186117	0.00365640	0.00302932	0.00049955	0.00019334	0.00046968	0.00033038
2.29000000	0.00531794	0.00379709	0.00342060	0.01466039	0.00614240	0.02263862	0.01870368	0.00888021	0.00541142	0.00627592	0.00339434	0.00662362	0.00251227	0.00300850	0.00174658	0.00215019	0.00154243	0.00132439	0.00180916	0.00396287	0.00288246	0.00045109	0.00021494	0.00070541	0.00021273
2.30000000	0.00540942	0.00351170	0.00335905	0.01512344	0.00563021	0.02140514	0.01875641	0.00842784	0.00496716	0.00678500	0.00416017	0.00800004	0.00222276	0.00347142	0.00126867	0.00192885	0.00152648	0.00136469	0.00191301	0.00435020	0.00297871	0.00014119	0.00045900	0.00085433	0.00015433
2.31000000	0.00557944	0.00338941	0.00333530	0.01492330	0.00491481	0.02032528	0.01845771	0.00794512	0.00456353	0.00750574	0.00467395	0.00932387	0.00214462	0.00374595	0.00104827	0.00170256	0.00155484	0.00143940	0.00192954	0.00470701	0.00306938	0.00050067	0.00079790	0.00100954	0.00036588
2.32000000	0.00566688	0.00279485	0.00328945	0.01452874	0.00440470	0.01878939	0.01820346	0.00727938	0.00391963	0.00796956	0.00568558	0.01068265	0.00195808	0.00399670	0.00094954	0.00153546	0.00155856	0.00151774	0.00192561	0.00499068	0.00316444	0.00070823	0.00100453	0.00119811	0.00052023
2.33000000	0.00555350	0.00267349	0.00327037	0.01340973	0.00400639	0.01728848	0.01766251	0.00654220	0.00327382	0.00855212	0.00624537	0.01163830	0.00195805	0.00420610	0.00093948	0.00140357	0.00161339	0.00163518	0.00193900	0.00521888	0.00334596	0.00095462	0.00125355	0.00141017	0.00065981
2.34000000	0.00556740	0.00268111	0.00323217	0.01150037	0.00384850	0.01599625	0.01700711	0.00580160	0.00271380	0.00941724	0.00671481	0.01196723	0.00196606	0.00420095	0.00088272	0.00142428	0.00148887	0.00185725	0.00184758	0.00541495	0.00355860	0.00149408	0.00129333	0.00171080	0.00067765
2.35000000	0.00522628	0.00264546	0.00323678	0.00937669	0.00394676	0.01415627	0.01644701	0.00496493	0.00209570	0.00937824	0.00717997	0.01253004	0.00205096	0.00433964	0.00117260	0.00142096	0.00164416	0.00189267	0.00186032	0.00552128	0.00372534	0.00162353	0.00154759	0.00180809	0.00085775
2.36000000	0.00521789	0.00247574	0.00323578	0.00725742	0.00401444	0.01201408	0.01645251	0.00367392	0.00110700	0.00924624	0.00794835	0.01279427	0.00217845	0.00434825	0.00142370	0.00144442	0.00163081	0.00188633	0.00180993	0.00567937	0.00378022	0.00178342	0.00167564	0.00195158	0.00090631
2.37000000	0.00513477	0.00278824	0.00344544	0.00471836	0.00414101	0.01152924	0.01614248	0.00288997	0.00060406	0.00945212	0.00820456	0.01251213	0.00229008	0.00433655	0.00152918	0.00157690	0.00159317	0.00203722	0.00171950	0.00570254	0.00391527	0.00206120	0.00171021	0.00218174	0.00094349
2.38000000	0.00522742	0.00296705	0.00365895	0.00412086	0.00417967	0.01183106	0.01627438	0.00205190	0.00016938	0.00948184	0.00864380	0.01221188	0.00240464	0.00435344	0.00161143	0.00173326	0.00148950	0.00214170	0.00161098	0.00570761	0.00393704	0.00227987	0.00168755	0.00239446	0.00091475
2.39000000	0.00590034	0.00327125	0.00411623	0.00611729	0.00405275	0.01344268	0.01632133	0.00175663	0.00060634	0.00972978	0.00890671	0.01167927	0.00250467	0.00431036	0.00161216	0.00196876	0.00137146	0.00227650	0.00153351	0.00565153	0.00399254	0.00253204	0.00161714	0.00266193	0.00089495
2.40000000	0.00688751	0.00352985	0.00471028	0.00882706	0.00387442	0.01545637	0.01651254	0.00193064	0.00113931	0.01001975	0.00919894	0.01110942	0.00255654	0.00426105	0.00151011	0.00222149	0.00117455	0.00237912	0.00149872	0.00557832	0.00400569	0.00279036	0.00146070	0.00295593	0.00084209
2.41000000	0.00777449	0.00383093	0.00521201	0.01115120	0.00360748	0.01743284	0.01668422	0.00236459	0.00142617	0.01016256	0.00961971	0.01060822	0.00255937	0.00424066	0.00152358	0.00239770	0.00102082	0.00243523	0.00147724	0.00549504	0.00396964	0.00299467	0.00135699	0.00321160	0.00079928
2.42000000	0.00867979	0.00422531	0.00562128	0.01255769	0.00356333	0.01893650	0.01684546	0.00248106	0.00165021	0.01020684	0.01007407	0.01018499	0.00247985	0.00425135	0.00158360	0.00250743	0.00088683	0.00245382	0.00144562	0.00554675	0.00384681	0.00315532	0.00135571	0.00360182	0.00063093
2.43000000	0.00929751	0.00446061	0.00614784	0.01307564	0.00326262	0.01962094	0.01680760	0.00288651	0.00180563	0.01021679	0.01070265	0.00972709	0.00253931	0.00412845	0.00153160	0.00268523	0.00062041	0.00243565	0.00151123	0.00524066	0.00386109	0.00329996	0.00105904	0.00369233	0.00063668
2.44000000	0.00979793	0.00490170	0.00642191	0.01255098	0.00321919	0.01936462	0.01674972	0.00288992	0.00186728	0.01020828	0.01120199	0.00925715	0.00246215	0.00400621	0.00154201	0.00280642	0.00047285	0.00245280	0.00155075	0.00514434	0.00386139	0.00340922	0.00099273	0.00399333	0.00043986
2.45000000	0.01022717	0.00525907	0.00673343	0.01107696	0.00314913	0.01843855	0.01656604	0.00261675	0.00163435	0.01010040	0.01176183	0.00890768	0.00252854	0.00387938	0.00154905	0.00287782	0.00030308	0.00238905	0.00162133	0.00499254	0.00381484	0.00352112	0.00070144	0.00408533	0.00038036
2.46000000	0.01048793	0.00573177	0.00693990	0.00910327	0.00297105	0.01686232	0.01635648	0.00253849	0.00182765	0.01011134	0.01202897	0.00837728	0.00243784	0.00377774	0.00157332	0.00301785	0.00039669	0.00241210	0.00171434	0.00489563	0.00385069	0.00372851	0.00051433	0.00425447	0.00018502
2.47000000	0.01057317	0.00623609	0.00716282	0.00679350	0.00298523	0.01510259	0.01625308	0.00200672	0.00120137	0.01004814	0.01232672	0.00808509	0.00255111	0.00368700	0.00175570	0.00301831	0.00071976	0.00236994	0.00182378	0.00472471	0.00379622	0.00380671	0.00012132	0.00423291	0.00010542
2.48000000	0.01074885	0.00672103	0.00735622	0.00464273	0.00263570	0.01363489	0.01592605	0.00288389	0.00158462	0.01008201	0.01207531	0.00738438	0.00255011	0.00347298	0.00168970	0.00319841	0.00115165	0.00243793	0.00191076	0.00462549	0.00385284	0.00408336	0.00038984	0.00435559	0.00036377
2.49000000	0.01070166	0.00718167	0.00743398	0.00268726	0.00276822	0.01246577	0.01590982	0.00289304	0.00072008	0.00981380	0.01201130	0.00687282	0.00290382	0.00340921	0.00205928	0.00321060	0.00139898	0.00229951	0.00189763	0.00457130	0.00364872	0.00428945	0.00071896	0.00427821	0.00061270
2.50000000	0.01051892	0.00759290	0.00748002	0.00152186	0.00277152	0.01191614	0.01579584	0.00347128	0.00048612	0.00963791	0.01145263	0.00609616	0.00313663	0.00320759	0.00221607	0.00329031	0.00189462	0.00219614	0.00186609	0.00440812	0.00349022	0.00441066	0.00121637	0.00429721	0.00091113
2.51000000	0.00954418	0.00831771	0.00690453	0.00177114	0.00274928	0.01124578	0.01609607	0.00304958	0.00066007	0.00920182	0.01119733	0.00554089	0.00351992	0.00315900	0.00263730	0.00324167	0.00230269	0.00185294	0.00175260	0.00421129	0.00321470	0.00432921	0.00164979	0.00422123	0.00113554
2.52000000	0.00950864	0.00828773	0.00685908	0.00216285	0.00263405	0.01132533	0.01580163	0.00354884	0.00146041	0.00875802	0.00970498	0.00434753	0.00353879	0.00301540	0.00307446	0.00332541	0.00270327	0.00169513	0.00156290	0.00418309	0.00291885	0.00445803	0.00202022	0.00414741	0.00142352
2.53000000	0.00864237	0.00832206	0.00637891	0.00283549	0.00273779	0.01064974	0.01607518	0.00320252	0.00072341	0.00783517	0.00870564	0.00343978	0.00410078	0.00292070	0.00334834	0.00315011	0.00305344	0.00133052	0.00141347	0.00407227	0.00252015	0.00408228	0.00239313	0.00395914	0.00166344
2.54000000	0.00796314	0.00791554	0.00575777	0.00312700	0.00277000	0.01031978	0.01606855	0.00309939	0.00106715	0.00665286	0.00704904	0.00244534	0.00438966	0.00293671	0.00374464	0.00293401	0.00308952	0.00101557	0.00110249	0.00420818	0.00202966	0.00376298	0.00240379	0.00366301	0.00174390
2.55000000	0.00755662	0.00692657	0.00494905	0.00363254	0.00299784	0.01027922	0.01594884	0.00278472	0.00165405	0.00518478	0.00511616	0.00169229	0.00473340	0.00301970	0.00394465	0.00258548	0.00294850	0.00070129	0.00077751	0.00436754	0.00154548	0.00321158	0.00221263	0.00314795	0.00157193
2.56000000	0.00550444	0.00636380	0.00439773	0.00352013	0.00256482	0.01017320	0.01580066	0.00366181	0.00147865	0.00350081	0.00317392	0.00104913	0.00480958	0.00239360	0.00411327	0.00232971	0.00298168	0.00074940	0.00059039	0.00440791	0.00118972	0.00255038	0.00203945	0.00276617	0.00154803
2.57000000	0.00471971	0.00505878	0.00362569	0.00400786	0.00289102	0.01029678	0.01575190	0.00324523	0.00189824	0.00164328	0.00121566	0.00168963	0.00489426	0.00244931	0.00417646	0.00204938	0.00269240	0.00076549	0.00048499	0.00467508	0.00087751	0.00176943	0.00147702	0.00212198	0.00129176
2.58000000	0.00306882	0.00452129	0.00322443	0.00413609	0.00263748	0.01021882	0.01575515	0.00344857	0.00199935	0.00167891	0.00083938	0.00216461	0.00486039	0.00185289	0.00400125	0.00211677	0.00255051	0.00091650	0.00060613	0.00487031	0.00096082	0.00108062	0.00103834	0.00162155	0.00101582
2.59000000	0.00278717	0.00386422	0.00297751	0.00451654	0.00284917	0.01050406	0.01545484	0.00334894	0.00230525	0.00261648	0.00179594	0.00314610	0.00470376	0.00202332	0.00378721	0.00233647	0.00236743	0.00107853	0.00084160	0.00522332	0.00113002	0.00058814	0.00047253	0.00126586	0.00074344
2.60000000	0.00220929	0.00406465	0.00330626	0.00465133	0.00277440	0.01025363	0.01551240	0.00311655	0.00235226	0.00382685	0.00226232	0.00390792	0.00438013	0.00215820	0.00331509	0.00254370	0.00232514	0.00126135	0.00096977	0.00546569	0.00147954	0.00034202	0.00018528	0.00099801	0.00047525
2.61000000	0.00185623	0.00410297	0.00361516	0.00481852	0.00271268	0.01031953	0.01519158	0.00318369	0.00235806	0.00493973	0.00277484	0.00469221	0.00380244	0.00234603	0.00282635	0.00290078	0.00232176	0.00131711	0.00122999	0.00562802	0.00163172	0.00023493	0.00046048	0.00087779	0.00024563
2.62000000	0.00170905	0.00424133	0.00388761	0.00507706	0.00285962	0.01026794	0.01495013	0.00310392	0.00236638	0.00581956	0.00306876	0.00526045	0.00314358	0.00251729	0.00227774	0.00307998	0.00224356	0.00129411	0.00138062	0.00581411	0.00182301	0.00026775	0.00078340	0.00076943	0.00008955
2.63000000	0.00168550	0.00434350	0.00411015	0.00528647	0.00297103	0.01028018	0.01471890	0.00300938	0.00234839	0.00646651	0.00331352	0.00576030	0.00233982	0.00263903	0.00186846	0.00312667	0.00219864	0.00127528	0.00148204	0.00592355	0.00187354	0.00024455	0.00101840	0.00081534	0.00010567
2.64000000	0.00200732	0.00394128	0.00392484	0.00555250	0.00315089	0.01071452	0.01421883	0.00315551	0.00229047	0.00708229	0.00398517	0.00612701	0.00155971	0.00296565	0.00184128	0.00311224	0.00212197	0.00123039	0.00155962	0.00598558	0.00178140	0.00031559	0.00124197	0.00087570	0.00018668
2.65000000	0.00234539	0.00375682	0.00389602	0.00573373	0.00330495	0.01090134	0.01403456	0.00307256	0.00220046	0.00745733	0.00456734	0.00650281	0.00095848	0.00313169	0.00195539	0.00295803	0.00205886	0.00122406	0.00160267	0.00597870	0.00152307	0.00050162	0.00136737	0.00100291	0.00019230
2.66000000	0.00255444	0.00286286	0.00380929	0.00602354	0.00381547	0.01078479	0.01417734	0.00254466	0.00210135	0.00793128	0.00542950	0.00677171	0.00077323	0.00356086	0.00290032	0.00267545	0.00193459	0.00124658	0.00148696	0.00608368	0.00119669	0.00114365	0.00168263	0.00093578	0.00057422
2.67000000	0.00283446	0.00303645	0.00380604	0.00619285	0.00399373	0.01115951	0.01401154	0.00252988	0.00206082	0.00786978	0.00602229	0.00741999	0.00107159	0.00364522	0.00264281	0.00261726	0.00174907	0.00105979	0.00139275	0.00592619	0.00070475	0.00131550	0.00157494	0.00104505	0.00052192
2.68000000	0.00306947	0.00388094	0.00389935	0.00607244	0.00374131	0.01160890	0.01396608	0.00261054	0.00197523	0.00730335	0.00617078	0.00856066	0.00121280	0.00353586	0.00149680	0.00241805	0.00166804	0.00095337	0.00130705	0.00562765	0.00061642	0.00090165	0.00126904	0.00133082	0.00026600
2.69000000	0.00299445	0.00369081	0.00370105	0.00624638	0.00408595	0.01195707	0.01401071	0.00245299	0.00185879	0.00730620	0.00681476	0.00962110	0.00146867	0.00377128	0.00141074	0.00230373	0.00161497	0.00088697	0.00127684	0.00538271	0.00093785	0.00111766	0.00121584	0.00119509	0.00026249
2.70000000	0.00307196	0.00328158	0.00365000	0.00628480	0.00406083	0.01259622	0.01390864	0.00257080	0.00190188	0.00735596	0.00722266	0.01091606	0.00153901	0.00411956	0.00162427	0.00203228	0.00156453	0.00082752	0.00125523	0.00509679	0.00137715	0.00088422	0.00110461	0.00114423	0.00025161
2.71000000	0.00281472	0.00315166	0.00312823	0.00649178	0.00447087	0.01295500	0.01406447	0.00243899	0.00164149	0.00754767	0.00752021	0.01246820	0.00167570	0.00440053	0.00151197	0.00190939	0.00157896	0.00070475	0.00138187	0.00478320	0.00195903	0.00108832	0.00105676	0.00089661	0.00018494
2.72000000	0.00324802	0.00236288	0.00281375	0.00659887	0.00425907	0.01367380	0.01394447	0.00267593	0.00179273	0.00788897	0.00759946	0.01417736	0.00158777	0.00478816	0.00195067	0.00157214	0.00161399	0.00075342	0.00151821	0.00438025	0.00231497	0.00045645	0.00099895	0.00074674	0.00024412
2.73000000	0.00339265	0.00199733	0.00222360	0.00686023	0.00435688	0.01422648	0.01392079	0.00278005	0.00175937	0.00846184	0.00755258	0.01604548	0.00159616	0.00513964	0.00223886	0.00136016	0.00166030	0.00068638	0.00174225	0.00394635	0.00271634	0.00017848	0.00091075	0.00053290	0.00022886
2.74000000	0.00376498	0.00156848	0.00154013	0.00721238	0.00444949	0.01473441	0.01394758	0.00290858	0.00170727	0.00921382	0.00741483	0.01788791	0.00161090	0.00551880	0.00264241	0.00126532	0.00163270	0.00061323	0.00193587	0.00350643	0.00305661	0.00023677	0.00085256	0.00030596	0.00012655
2.75000000	0.00375750	0.00183941	0.00090472	0.00764257	0.00519679	0.01519274	0.01403930	0.00281862	0.00124529	0.01041912	0.00718737	0.01955534	0.00188498	0.00585050	0.00280481	0.00122237	0.00167506	0.00041593	0.00226026	0.00309790	0.00350676	0.00049678	0.00069491	0.00061266	0.00020168
2.76000000	0.00451017	0.00136241	0.00062907	0.00805191	0.00482589	0.01594759	0.01396606	0.00312026	0.00165963	0.01096746	0.00697758	0.02110679	0.00182965	0.00610363	0.00344339	0.00130767	0.00151062	0.00051436	0.00234740	0.00269138	0.00362927	0.00082275	0.00058386	0.00012754	0.00012521
2.77000000	0.00495840	0.00150568	0.00095562	0.00861760	0.00494432	0.01664492	0.01394095	0.00337534	0.00161027	0.01180077	0.00676121	0.02213203	0.00205183	0.00631086	0.00379238	0.00151312	0.00140061	0.00053891	0.00250462	0.00238587	0.00385906	0.00112785	0.00041383	0.00024664	0.00027584
2.78000000	0.00537033	0.00172410	0.00146320	0.00927037	0.00514392	0.01735997	0.01396636	0.00356248	0.00157904	0.01253671	0.00660003	0.02261599	0.00230246	0.00640980	0.00405535	0.00175263	0.00125445	0.00067958	0.00263945	0.00222732	0.00408309	0.00139873	0.00023468	0.00040421	0.00043381
2.79000000	0.00564172	0.00203091	0.00188160	0.00988636	0.00533570	0.01818004	0.01395760	0.00379521	0.00150015	0.01311931	0.00641840	0.02252288	0.00257956	0.00654244	0.00438398	0.00195899	0.00115888	0.00091276	0.00280057	0.00221920	0.00431442	0.00166167	0.00025715	0.00044267	0.00061934
2.80000000	0.00600691	0.00219938	0.00223955	0.01056878	0.00552800	0.01895174	0.01407318	0.00393443	0.00145260	0.01335106	0.00631454	0.02191791	0.00286164	0.00639290	0.00442368	0.00220561	0.00097624	0.00120307	0.00286104	0.00233912	0.00449355	0.00189374	0.00042921	0.00059400	0.00075002
2.81000000	0.00654640	0.00324457	0.00243393	0.01160186	0.00690590	0.01923437	0.01397358	0.00376419	0.00094057	0.01418362	0.00615720	0.02061220	0.00327597	0.00627594	0.00430377	0.00233376	0.00097437	0.00155779	0.00305577	0.00242648	0.00475028	0.00191966	0.00072544	0.00098271	0.00110218
2.82000000	0.00642392	0.00265654	0.00266281	0.01175021	0.00593764	0.02043054	0.01395143	0.00421379	0.00128716	0.01336494	0.00607502	0.01933665	0.00323872	0.00596694	0.00444527	0.00257418	0.00080589	0.00167943	0.00296765	0.00274357	0.00482786	0.00229446	0.00089363	0.00078074	0.00104480
2.83000000	0.00648648	0.00330198	0.00280657	0.01241932	0.00635878	0.02079421	0.01364303	0.00429808	0.00126036	0.01320025	0.00585058	0.01765854	0.00334381	0.00565269	0.00437741	0.00258711	0.00091034	0.00183764	0.00309889	0.00292516	0.00507271	0.00239002	0.00128440	0.00073161	0.00116509
2.84000000	0.00677286	0.00351265	0.00287788	0.01260170	0.00639556	0.02131645	0.01331167	0.00441924	0.00122000	0.01255681	0.00567999	0.01587057	0.00327303	0.00519744	0.00416280	0.00269149	0.00092439	0.00198197	0.00308095	0.00309229	0.00515685	0.00251675	0.00147538	0.00085753	0.00122735
2.85000000	0.00645378	0.00322807	0.00287400	0.01286669	0.00656650	0.02188644	0.01261609	0.00456251	0.00119324	0.01170772	0.00561870	0.01382864	0.00303751	0.00459281	0.00370913	0.00281447	0.00092861	0.00210425	0.00305752	0.00332253	0.00530825	0.00265940	0.00156767	0.00092293	0.00138316
2.86000000	0.00648444	0.00342489	0.00303126	0.01299825	0.00676770	0.02207046	0.01197931	0.00457808	0.00127329	0.01065082	0.00547611	0.01185114	0.00275206	0.00394007	0.00328791	0.00285388	0.00102593	0.00218665	0.00307905	0.00338469	0.00544216	0.00273271	0.00171745	0.00096091	0.00144688
2.87000000	0.00644910	0.00355304	0.00311550	0.01306840	0.00702101	0.02216876	0.01115841	0.00460338	0.00136476	0.00934404	0.00538402	0.00975653	0.00246077	0.00320863	0.00273459	0.00291518	0.00114143	0.00225511	0.00310876	0.00339652	0.00559350	0.00280792	0.00186105	0.00100238	0.00155584
2.88000000	0.00646716	0.00386408	0.00327483	0.01306166	0.00724206	0.02209479	0.01039966	0.00454949	0.00147130	0.00774184	0.00520048	0.00752956	0.00213374	0.00248108	0.00225160	0.00297829	0.00127251	0.00227202	0.00313289	0.00339965	0.00577352	0.00292555	0.00204510	0.00103290	0.00163182
2.89000000	0.00655893	0.00422100	0.00350008	0.01290117	0.00739288	0.02201683	0.00960366	0.00457030	0.00161029	0.00605981	0.00502641	0.00508307	0.00192757	0.00182427	0.00164675	0.00304601	0.00137210	0.00233590	0.00318132	0.00331782	0.00589989	0.00299305	0.00212683	0.00115025	0.00169523
2.90000000	0.00650722	0.00467133	0.00379570	0.01277082	0.00757165	0.02186104	0.00904686	0.00451688	0.00173464	0.00455366	0.00474286	0.00244921	0.00184398	0.00125959	0.00098974	0.00309809	0.00147551	0.00236923	0.00324452	0.00326063	0.00607017	0.00310297	0.00220644	0.00119228	0.00178294
2.91000000	0.00625657	0.00510402	0.00411077	0.01268612	0.00783199	0.02174034	0.00873657	0.00438988	0.00181266	0.00414570	0.00443762	0.00095558	0.00193423	0.00123291	0.00045811	0.00316115	0.00154338	0.00246542	0.00330817	0.00320786	0.00622787	0.00321739	0.00224331	0.00119522	0.00189492
2.92000000	0.00614867	0.00595594	0.00459587	0.01252240	0.00808549	0.02159501	0.00886125	0.00415890	0.00180137	0.00562735	0.00397806	0.00366101	0.00204414	0.00172824	0.00084871	0.00319422	0.00161482	0.00251510	0.00335290	0.00311436	0.00635129	0.00331294	0.00230569	0.00125036	0.00197083
2.93000000	0.00586905	0.00667938	0.00506110	0.01239944	0.00843755	0.02153850	0.00923555	0.00385351	0.00166121	0.00804106	0.00356068	0.00673333	0.00233145	0.00269086	0.00163719	0.00322152	0.00171907	0.00258862	0.00342301	0.00298100	0.00646781	0.00340096	0.00236737	0.00123681	0.00205357
2.94000000	0.00585178	0.00807224	0.00579540	0.01235553	0.00870426	0.02122724	0.00999587	0.00356877	0.00154280	0.01091041	0.00313808	0.00933553	0.00259480	0.00347102	0.00231956	0.00313843	0.00189664	0.00268067	0.00354306	0.00275401	0.00659368	0.00333393	0.00242063	0.00126484	0.00233796
2.95000000	0.00519338	0.00817863	0.00597832	0.01212960	0.00929992	0.02148238	0.01056009	0.00326695	0.00139695	0.01248019	0.00235221	0.01233624	0.00300750	0.00501260	0.00318667	0.00319809	0.00185966	0.00277700	0.00352888	0.00277599	0.00669818	0.00343330	0.00239867	0.00115121	0.00230559
2.96000000	0.00534004	0.00928445	0.00667913	0.01210483	0.00947885	0.02111371	0.01148398	0.00303287	0.00123033	0.01450603	0.00229663	0.01376129	0.00310626	0.00536353	0.00357226	0.00310373	0.00204589	0.00285746	0.00360223	0.00247701	0.00673453	0.00329812	0.00247360	0.00115542	0.00255172
2.97000000	0.00503846	0.00950333	0.00678018	0.01185550	0.01002665	0.02109684	0.01219178	0.00287867	0.00120121	0.01449096	0.00145617	0.01512731	0.00334834	0.00627953	0.00409768	0.00312947	0.00207223	0.00290868	0.00356002	0.00248354	0.00680417	0.00334175	0.00252598	0.00107433	0.00261241
2.98000000	0.00505718	0.00999664	0.00722574	0.01191571	0.01007522	0.02068016	0.01281675	0.00274446	0.00103509	0.01448171	0.00156822	0.01496679	0.00330233	0.00607865	0.00418598	0.00296638	0.00224772	0.00295894	0.00364261	0.00235969	0.00689679	0.00316499	0.00265714	0.00089594	0.00287423
2.99000000	0.00518845	0.01033915	0.00750340	0.01197638	0.01002551	0.02019399	0.01324397	0.00251588	0.00104001	0.01361950	0.00145573	0.01392282	0.00304900	0.00584539	0.00395639	0.00269056	0.00241174	0.00302012	0.00373692	0.00244044	0.00704067	0.00303919	0.00266590	0.00062149	0.00327590
3.00000000	0.00530699	0.01019925	0.00759244	0.01182796	0.01018052	0.01974085	0.01351023	0.00253212	0.00078418	0.01185488	0.00117789	0.01254546	0.00292092	0.00526448	0.00389669	0.00269404	0.00255313	0.00298021	0.00375402	0.00272806	0.00706576	0.00279495	0.00300950	0.00068362	0.00328284
3.01000000	0.00544504	0.00991931	0.00762670	0.01161572	0.01027541	0.01925015	0.01366422	0.00254472	0.00085517	0.00985399	0.00094188	0.01074854	0.00271663	0.00456674	0.00373556	0.00256151	0.00268243	0.00287434	0.00382097	0.00328660	0.00716318	0.00253026	0.00313701	0.00053912	0.00339460
3.02000000	0.00602054	0.00852566	0.00752658	0.01082069	0.01050686	0.01892084	0.01401707	0.00273220	0.00091918	0.00850606	0.00087195	0.00863118	0.00223412	0.00349134	0.00336729	0.00242989	0.00266576	0.00281731	0.00375044	0.00401397	0.00701528	0.00225899	0.00309084	0.00029915	0.00336535
3.03000000	0.00669663	0.00833316	0.00766176	0.01053367	0.00989909	0.01786223	0.01439982	0.00227529	0.00103933	0.00651977	0.00085106	0.00703958	0.00175300	0.00294335	0.00323766	0.00206782	0.00285968	0.00277568	0.00372293	0.00495967	0.00689386	0.00193302	0.00315544	0.00017937	0.00362124
3.04000000	0.00717739	0.00769556	0.00789830	0.00979351	0.00945311	0.01712085	0.01460635	0.00237830	0.00116524	0.00491082	0.00174572	0.00579823	0.00191233	0.00192768	0.00273534	0.00197807	0.00290707	0.00255588	0.00364360	0.00607411	0.00657233	0.00147556	0.00320591	0.00024257	0.00356457
3.05000000	0.00783492	0.00707173	0.00804903	0.00899883	0.00874259	0.01604900	0.01500617	0.00200761	0.00127339	0.00348363	0.00253770	0.00516245	0.00194394	0.00160172	0.00242554	0.00177645	0.00299186	0.00236877	0.00344691	0.00732993	0.00607120	0.00108330	0.00320349	0.00053617	0.00363245
3.06000000	0.00866275	0.00550896	0.00817007	0.00799002	0.00810167	0.01493335	0.01548961	0.00155253	0.00129017	0.00318666	0.00217520	0.00464531	0.00161377	0.00151816	0.00179028	0.00156535	0.00305827	0.00217639	0.00325272	0.00849164	0.00542354	0.00066698	0.00304449	0.00078364	0.00357060
3.07000000	0.00889602	0.00522558	0.00797339	0.00661901	0.00683689	0.01356200	0.01619615	0.00086406	0.00162190	0.00226827	0.00282886	0.00489802	0.00135167	0.00184473	0.00174342	0.00156581	0.00307403	0.00189550	0.00298444	0.00956534	0.00470040	0.00054530	0.00291184	0.00107712	0.00349127
3.08000000	0.00901546	0.00479174	0.00749809	0.00527022	0.00559440	0.01195072	0.01699539	0.00041914	0.00167196	0.00210903	0.00336008	0.00516440	0.00092487	0.00184468	0.00158571	0.00144444	0.00301055	0.00155160	0.00263930	0.01020714	0.00387985	0.00064362	0.00254064	0.00116828	0.00328946
3.09000000	0.00889633	0.00431451	0.00673985	0.00360217	0.00422685	0.01029960	0.01778910	0.00137634	0.00185366	0.00273249	0.00348846	0.00515927	0.00057362	0.00179941	0.00178505	0.00133454	0.00279947	0.00135584	0.00226245	0.01030311	0.00304433	0.00067088	0.00205352	0.00123273	0.00301947
3.10000000	0.00874898	0.00347335	0.00600618	0.00176269	0.00283508	0.00890678	0.01828000	0.00304999	0.00188183	0.00335931	0.00236918	0.00413106	0.00085031	0.00153666	0.00130468	0.00132142	0.00262794	0.00129451	0.00198667	0.00964325	0.00228390	0.00064861	0.00170870	0.00127553	0.00275242
3.11000000	0.00800181	0.00314012	0.00466733	0.00076614	0.00151515	0.00747923	0.01901675	0.00432311	0.00243033	0.00399377	0.00289904	0.00358498	0.00136219	0.00126720	0.00181060	0.00126317	0.00229050	0.00129945	0.00160099	0.00863649	0.00152629	0.00055359	0.00124993	0.00108266	0.00237536
3.12000000	0.00778465	0.00274594	0.00379222	0.00268037	0.00153183	0.00651338	0.01952375	0.00586900	0.00205186	0.00447375	0.00269928	0.00293053	0.00190535	0.00110090	0.00223318	0.00122219	0.00198422	0.00142716	0.00134853	0.00735750	0.00097064	0.00055572	0.00075721	0.00099952	0.00200780
3.13000000	0.00731537	0.00226938	0.00276418	0.00493301	0.00242680	0.00630638	0.02003756	0.00713375	0.00210114	0.00487841	0.00280797	0.00212388	0.00207291	0.00106937	0.00247845	0.00133243	0.00175054	0.00159905	0.00119335	0.00603418	0.00061365	0.00087660	0.00046588	0.00071403	0.00174146
3.14000000	0.00712471	0.00209824	0.00262712	0.00677919	0.00327483	0.00699767	0.02040931	0.00826739	0.00189874	0.00497610	0.00266684	0.00161731	0.00213926	0.00106318	0.00255619	0.00145415	0.00157247	0.00178094	0.00114887	0.00497694	0.00054132	0.00116144	0.00050256	0.00053223	0.00149732
3.15000000	0.00545053	0.00250627	0.00242376	0.00899307	0.00502165	0.00813534	0.02042409	0.00957535	0.00333329	0.00491169	0.00304810	0.00114570	0.00194162	0.00099242	0.00240424	0.00202809	0.00125577	0.00199901	0.00120870	0.00423019	0.00089122	0.00191968	0.00071392	0.00043580	0.00135044
3.16000000	0.00629197	0.00189370	0.00288439	0.01010896	0.00514897	0.00927793	0.02101112	0.00953289	0.00188775	0.00436730	0.00245810	0.00085034	0.00175276	0.00150617	0.00238081	0.00191549	0.00143084	0.00199707	0.00132884	0.00393240	0.00091498	0.00195843	0.00059530	0.00028824	0.00134929
3.17000000	0.00635116	0.00204882	0.00332479	0.01102696	0.00573986	0.01085316	0.02097052	0.00982430	0.00184562	0.00383249	0.00207221	0.00079261	0.00158119	0.00159046	0.00217473	0.00208014	0.00137665	0.00204018	0.00148309	0.00401070	0.00097621	0.00217310	0.00054147	0.00027561	0.00132900
3.18000000	0.00630055	0.00249494	0.00353581	0.01139774	0.00620124	0.01285937	0.02063247	0.01016854	0.00197552	0.00337985	0.00193764	0.00094638	0.00133874	0.00128108	0.00202013	0.00225392	0.00135323	0.00207597	0.00154747	0.00437822	0.00114589	0.00246400	0.00047330	0.00037311	0.00146664
3.19000000	0.00577870	0.00306375	0.00358274	0.01194163	0.00705251	0.01453589	0.02050966	0.00987262	0.00243018	0.00289062	0.00186607	0.00081923	0.00113888	0.00158864	0.00185325	0.00239272	0.00150720	0.00206629	0.00167903	0.00489189	0.00147343	0.00266716	0.00054967	0.00053231	0.00164292
3.20000000	0.00437557	0.00383098	0.00384617	0.01274039	0.00833668	0.01612994	0.02016176	0.00952990	0.00387444	0.00258306	0.00243374	0.00088395	0.00076960	0.00150906	0.00211232	0.00269597	0.00153429	0.00215503	0.00166423	0.00564519	0.00181065	0.00318118	0.00095479	0.00074740	0.00177110
3.21000000	0.00502638	0.00440093	0.00392995	0.01238590	0.00882015	0.01818910	0.02010307	0.00921332	0.00344598	0.00235836	0.00180410	0.00101197	0.00089413	0.00174167	0.00181517	0.00267661	0.00198163	0.00200243	0.00174746	0.00666047	0.00212694	0.00290078	0.00121945	0.00070476	0.00205348
3.22000000	0.00450215	0.00489369	0.00405129	0.01234535	0.00969224	0.02014619	0.01984297	0.00912555	0.00405904	0.00244501	0.00204967	0.00118655	0.00077910	0.00160834	0.00187958	0.00281367	0.00236888	0.00191897	0.00178087	0.00795512	0.00257506	0.00300176	0.00157111	0.00080496	0.00226543
3.23000000	0.00379738	0.00540915	0.00433188	0.01266186	0.01056726	0.02181954	0.01977270	0.00887050	0.00484250	0.00287507	0.00276289	0.00151852	0.00080318	0.00107372	0.00186382	0.00311321	0.00255038	0.00193229	0.00175904	0.00963157	0.00296713	0.00336704	0.00190429	0.00097163	0.00224936
