Model Marker Errors from IK
version=1
nRows=240
nColumns=4
inDegrees=no
endheader
time	total_squared_error	marker_error_RMS	marker_error_max
      0.23000000	      0.00200607	      0.00895783	      0.01927770
      0.24000000	      0.00191399	      0.00874983	      0.01919349
      0.25000000	      0.00182849	      0.00855218	      0.01907117
      0.26000000	      0.00176373	      0.00839935	      0.01893783
      0.27000000	      0.00171197	      0.00827520	      0.01881831
      0.28000000	      0.00165279	      0.00813091	      0.01856253
      0.29000000	      0.00163545	      0.00808815	      0.01846797
      0.30000000	      0.00161236	      0.00803085	      0.01832875
      0.31000000	      0.00162134	      0.00805317	      0.01814268
      0.32000000	      0.00164331	      0.00810756	      0.01802694
      0.33000000	      0.00167367	      0.00818209	      0.01791085
      0.34000000	      0.00170866	      0.00826719	      0.01787131
      0.35000000	      0.00175199	      0.00837135	      0.01775349
      0.36000000	      0.00179346	      0.00846985	      0.01766035
      0.37000000	      0.00183147	      0.00855914	      0.01764778
      0.38000000	      0.00184835	      0.00859849	      0.01785523
      0.39000000	      0.00186173	      0.00862955	      0.01773766
      0.40000000	      0.00186450	      0.00863598	      0.01787867
      0.41000000	      0.00186170	      0.00862949	      0.01785699
      0.42000000	      0.00185143	      0.00860564	      0.01804487
      0.43000000	      0.00183726	      0.00857267	      0.01802525
      0.44000000	      0.00182829	      0.00855171	      0.01804212
      0.45000000	      0.00181841	      0.00852857	      0.01821977
      0.46000000	      0.00181552	      0.00852179	      0.01827554
      0.47000000	      0.00181200	      0.00851351	      0.01854449
      0.48000000	      0.00181630	      0.00852363	      0.01850462
      0.49000000	      0.00182162	      0.00853610	      0.01850217
      0.50000000	      0.00182576	      0.00854578	      0.01842835
      0.51000000	      0.00182693	      0.00854851	      0.01839522
      0.52000000	      0.00180749	      0.00850293	      0.01821220
      0.53000000	      0.00179445	      0.00847219	      0.01796073
      0.54000000	      0.00177005	      0.00841439	      0.01764719
      0.55000000	      0.00173336	      0.00832673	      0.01723833
      0.56000000	      0.00167368	      0.00818214	      0.01667630
      0.57000000	      0.00162102	      0.00805239	      0.01621706
      0.58000000	      0.00156431	      0.00791026	      0.01570678
      0.59000000	      0.00150685	      0.00776362	      0.01492755
      0.60000000	      0.00146553	      0.00765645	      0.01445494
      0.61000000	      0.00144136	      0.00759304	      0.01388754
      0.62000000	      0.00142937	      0.00756141	      0.01339149
      0.63000000	      0.00143421	      0.00757420	      0.01324453
      0.64000000	      0.00144901	      0.00761316	      0.01350788
      0.65000000	      0.00145555	      0.00763034	      0.01413333
      0.66000000	      0.00145827	      0.00763747	      0.01465327
      0.67000000	      0.00145394	      0.00762611	      0.01495480
      0.68000000	      0.00143464	      0.00757533	      0.01486222
      0.69000000	      0.00140280	      0.00749078	      0.01443834
      0.70000000	      0.00137532	      0.00741705	      0.01384449
      0.71000000	      0.00132976	      0.00729318	      0.01284871
      0.72000000	      0.00128461	      0.00716829	      0.01171024
      0.73000000	      0.00125621	      0.00708862	      0.01194204
      0.74000000	      0.00123886	      0.00703948	      0.01225087
      0.75000000	      0.00123255	      0.00702154	      0.01267157
      0.76000000	      0.00123450	      0.00702710	      0.01307572
      0.77000000	      0.00125872	      0.00709570	      0.01362102
      0.78000000	      0.00131831	      0.00726170	      0.01397216
      0.79000000	      0.00138611	      0.00744609	      0.01452356
      0.80000000	      0.00147235	      0.00767425	      0.01506417
      0.81000000	      0.00157043	      0.00792574	      0.01545703
      0.82000000	      0.00167762	      0.00819174	      0.01586315
      0.83000000	      0.00177792	      0.00843308	      0.01615487
      0.84000000	      0.00187380	      0.00865748	      0.01646898
      0.85000000	      0.00195155	      0.00883527	      0.01745806
      0.86000000	      0.00199943	      0.00894300	      0.01826982
      0.87000000	      0.00201489	      0.00897752	      0.01881763
      0.88000000	      0.00201135	      0.00896961	      0.01910736
      0.89000000	      0.00199298	      0.00892856	      0.01918130
      0.90000000	      0.00194965	      0.00883098	      0.01925719
      0.91000000	      0.00190951	      0.00873959	      0.01914214
      0.92000000	      0.00186601	      0.00863946	      0.01908735
      0.93000000	      0.00183457	      0.00856637	      0.01893235
      0.94000000	      0.00181428	      0.00851887	      0.01879267
      0.95000000	      0.00181014	      0.00850914	      0.01860397
      0.96000000	      0.00181784	      0.00852723	      0.01847751
      0.97000000	      0.00185781	      0.00862046	      0.01833092
      0.98000000	      0.00187573	      0.00866195	      0.01809085
      0.99000000	      0.00192011	      0.00876381	      0.01804924
      1.00000000	      0.00195616	      0.00884570	      0.01786915
      1.01000000	      0.00199652	      0.00893649	      0.01781465
      1.02000000	      0.00204284	      0.00903955	      0.01787782
      1.03000000	      0.00207058	      0.00910072	      0.01770787
      1.04000000	      0.00209430	      0.00915271	      0.01775432
      1.05000000	      0.00211010	      0.00918716	      0.01849029
      1.06000000	      0.00213616	      0.00924373	      0.01894557
      1.07000000	      0.00217092	      0.00931863	      0.01948739
      1.08000000	      0.00222302	      0.00942979	      0.02008874
      1.09000000	      0.00227781	      0.00954529	      0.02056593
      1.10000000	      0.00234312	      0.00968117	      0.02101065
      1.11000000	      0.00240969	      0.00981772	      0.02144011
      1.12000000	      0.00246348	      0.00992668	      0.02196409
      1.13000000	      0.00248486	      0.00996968	      0.02212182
      1.14000000	      0.00246803	      0.00993585	      0.02216248
      1.15000000	      0.00242160	      0.00984195	      0.02216806
      1.16000000	      0.00233582	      0.00966607	      0.02180007
      1.17000000	      0.00223454	      0.00945418	      0.02155555
      1.18000000	      0.00211808	      0.00920452	      0.02111360
      1.19000000	      0.00200381	      0.00895279	      0.02070261
      1.20000000	      0.00189819	      0.00871364	      0.02028402
      1.21000000	      0.00178505	      0.00844997	      0.01964159
      1.22000000	      0.00166844	      0.00816930	      0.01893668
      1.23000000	      0.00158013	      0.00795017	      0.01830159
      1.24000000	      0.00151633	      0.00778802	      0.01782063
      1.25000000	      0.00144814	      0.00761088	      0.01727785
      1.26000000	      0.00141057	      0.00751152	      0.01683131
      1.27000000	      0.00138985	      0.00745615	      0.01639820
      1.28000000	      0.00140405	      0.00749412	      0.01600803
      1.29000000	      0.00143796	      0.00758410	      0.01577709
      1.30000000	      0.00149893	      0.00774321	      0.01549137
      1.31000000	      0.00157492	      0.00793706	      0.01530903
      1.32000000	      0.00165348	      0.00813260	      0.01510835
      1.33000000	      0.00171962	      0.00829367	      0.01497823
      1.34000000	      0.00176538	      0.00840328	      0.01566678
      1.35000000	      0.00179520	      0.00847396	      0.01613787
      1.36000000	      0.00177645	      0.00842959	      0.01638073
      1.37000000	      0.00175898	      0.00838804	      0.01633671
      1.38000000	      0.00172214	      0.00829975	      0.01611265
      1.39000000	      0.00167683	      0.00818983	      0.01591712
      1.40000000	      0.00163828	      0.00809512	      0.01543943
      1.41000000	      0.00159414	      0.00798532	      0.01518230
      1.42000000	      0.00156179	      0.00790390	      0.01492972
      1.43000000	      0.00153717	      0.00784136	      0.01485718
      1.44000000	      0.00152037	      0.00779839	      0.01473926
      1.45000000	      0.00151141	      0.00777538	      0.01447344
      1.46000000	      0.00152052	      0.00779877	      0.01456579
      1.47000000	      0.00150467	      0.00775801	      0.01469397
      1.48000000	      0.00149957	      0.00774486	      0.01499990
      1.49000000	      0.00148398	      0.00770449	      0.01519671
      1.50000000	      0.00147067	      0.00766986	      0.01543793
      1.51000000	      0.00144386	      0.00759963	      0.01546308
      1.52000000	      0.00141851	      0.00753261	      0.01536048
      1.53000000	      0.00138441	      0.00744153	      0.01498015
      1.54000000	      0.00136962	      0.00740167	      0.01451126
      1.55000000	      0.00136432	      0.00738735	      0.01390042
      1.56000000	      0.00137715	      0.00742200	      0.01404875
      1.57000000	      0.00141881	      0.00753343	      0.01509812
      1.58000000	      0.00148131	      0.00769755	      0.01606691
      1.59000000	      0.00155439	      0.00788514	      0.01622823
      1.60000000	      0.00163496	      0.00808694	      0.01643423
      1.61000000	      0.00170802	      0.00826563	      0.01720559
      1.62000000	      0.00175802	      0.00838575	      0.01716071
      1.63000000	      0.00178499	      0.00844983	      0.01803342
      1.64000000	      0.00178391	      0.00844727	      0.01764370
      1.65000000	      0.00176254	      0.00839652	      0.01808604
      1.66000000	      0.00171546	      0.00828362	      0.01829172
      1.67000000	      0.00166150	      0.00815229	      0.01846425
      1.68000000	      0.00159574	      0.00798935	      0.01837961
      1.69000000	      0.00150588	      0.00776113	      0.01783937
      1.70000000	      0.00143426	      0.00757431	      0.01766519
      1.71000000	      0.00136974	      0.00740200	      0.01745835
      1.72000000	      0.00129696	      0.00720268	      0.01744706
      1.73000000	      0.00125378	      0.00708174	      0.01700157
      1.74000000	      0.00123568	      0.00703044	      0.01671307
      1.75000000	      0.00119839	      0.00692357	      0.01674084
      1.76000000	      0.00120780	      0.00695068	      0.01604200
      1.77000000	      0.00123156	      0.00701872	      0.01544751
      1.78000000	      0.00126495	      0.00711323	      0.01485282
      1.79000000	      0.00129516	      0.00719766	      0.01507471
      1.80000000	      0.00134193	      0.00732648	      0.01584459
      1.81000000	      0.00135600	      0.00736478	      0.01690615
      1.82000000	      0.00138209	      0.00743529	      0.01767479
      1.83000000	      0.00136380	      0.00738595	      0.01822099
      1.84000000	      0.00135770	      0.00736941	      0.01859134
      1.85000000	      0.00132203	      0.00727195	      0.01873638
      1.86000000	      0.00128222	      0.00716161	      0.01870819
      1.87000000	      0.00125056	      0.00707264	      0.01871225
      1.88000000	      0.00123301	      0.00702284	      0.01864471
      1.89000000	      0.00119431	      0.00691176	      0.01843885
      1.90000000	      0.00115671	      0.00680209	      0.01822964
      1.91000000	      0.00115341	      0.00679237	      0.01808246
      1.92000000	      0.00116018	      0.00681228	      0.01795290
      1.93000000	      0.00117831	      0.00686530	      0.01779933
      1.94000000	      0.00123830	      0.00703788	      0.01786702
      1.95000000	      0.00122043	      0.00698694	      0.01770836
      1.96000000	      0.00125551	      0.00708662	      0.01763258
      1.97000000	      0.00128513	      0.00716975	      0.01755053
      1.98000000	      0.00131283	      0.00724659	      0.01748536
      1.99000000	      0.00133672	      0.00731223	      0.01739012
      2.00000000	      0.00135660	      0.00736642	      0.01726276
      2.01000000	      0.00138093	      0.00743217	      0.01712516
      2.02000000	      0.00140888	      0.00750701	      0.01690371
      2.03000000	      0.00144399	      0.00759998	      0.01664782
      2.04000000	      0.00149623	      0.00773623	      0.01652455
      2.05000000	      0.00155788	      0.00789401	      0.01647869
      2.06000000	      0.00160606	      0.00801513	      0.01659218
      2.07000000	      0.00166023	      0.00814919	      0.01678745
      2.08000000	      0.00169374	      0.00823102	      0.01689803
      2.09000000	      0.00169323	      0.00822977	      0.01712056
      2.10000000	      0.00166290	      0.00815574	      0.01717264
      2.11000000	      0.00160493	      0.00801232	      0.01698340
      2.12000000	      0.00152939	      0.00782148	      0.01657672
      2.13000000	      0.00144738	      0.00760889	      0.01592509
      2.14000000	      0.00136807	      0.00739749	      0.01506515
      2.15000000	      0.00129109	      0.00718635	      0.01399269
      2.16000000	      0.00121156	      0.00696150	      0.01364317
      2.17000000	      0.00116333	      0.00682152	      0.01338938
      2.18000000	      0.00111209	      0.00666960	      0.01314107
      2.19000000	      0.00108863	      0.00659889	      0.01286202
      2.20000000	      0.00108421	      0.00658548	      0.01268729
      2.21000000	      0.00106123	      0.00651530	      0.01256168
      2.22000000	      0.00108048	      0.00657413	      0.01230143
      2.23000000	      0.00110379	      0.00664466	      0.01232288
      2.24000000	      0.00115556	      0.00679869	      0.01212728
      2.25000000	      0.00121579	      0.00697365	      0.01209008
      2.26000000	      0.00129161	      0.00718780	      0.01255820
      2.27000000	      0.00133893	      0.00731828	      0.01278971
      2.28000000	      0.00140067	      0.00748512	      0.01294465
      2.29000000	      0.00141731	      0.00752944	      0.01376272
      2.30000000	      0.00143423	      0.00757426	      0.01431362
      2.31000000	      0.00142306	      0.00754468	      0.01472762
      2.32000000	      0.00140345	      0.00749253	      0.01503208
      2.33000000	      0.00138019	      0.00743018	      0.01512384
      2.34000000	      0.00136027	      0.00737637	      0.01527619
      2.35000000	      0.00135118	      0.00735169	      0.01540842
      2.36000000	      0.00134203	      0.00732675	      0.01548891
      2.37000000	      0.00134984	      0.00734802	      0.01565467
      2.38000000	      0.00136359	      0.00738537	      0.01577711
      2.39000000	      0.00138830	      0.00745198	      0.01597898
      2.40000000	      0.00141983	      0.00753611	      0.01610500
      2.41000000	      0.00145623	      0.00763213	      0.01632899
      2.42000000	      0.00149822	      0.00774138	      0.01640143
      2.43000000	      0.00154616	      0.00786425	      0.01654659
      2.44000000	      0.00158535	      0.00796329	      0.01672295
      2.45000000	      0.00162916	      0.00807256	      0.01697123
      2.46000000	      0.00166030	      0.00814935	      0.01710891
      2.47000000	      0.00168463	      0.00820886	      0.01729105
      2.48000000	      0.00171053	      0.00827170	      0.01742420
      2.49000000	      0.00173596	      0.00833298	      0.01754951
      2.50000000	      0.00176893	      0.00841172	      0.01762372
      2.51000000	      0.00181395	      0.00851810	      0.01767811
      2.52000000	      0.00187428	      0.00865859	      0.01771969
      2.53000000	      0.00195537	      0.00884392	      0.01781843
      2.54000000	      0.00205356	      0.00906324	      0.01793482
      2.55000000	      0.00215538	      0.00928522	      0.01792477
      2.56000000	      0.00226130	      0.00951063	      0.01819682
      2.57000000	      0.00235659	      0.00970894	      0.01841599
      2.58000000	      0.00242921	      0.00985740	      0.01817951
      2.59000000	      0.00247397	      0.00994779	      0.01846285
      2.60000000	      0.00247792	      0.00995574	      0.01869642
      2.61000000	      0.00246867	      0.00993713	      0.01913398
      2.62000000	      0.00242904	      0.00985707	      0.01914193
