TVC32_3_JMP_01_pelvis_thigh_marker_adjustment_task_1_initialErrors.sto
version=1
nRows=311
nColumns=28
inDegrees=no
endheader
time	R_Asis	L_Asis	R_Psis	L_Psis	Sacral	R_Thigh_Lateral	R_Knee_Lateral	R_Shank_Lateral	R_Ankle_Lateral	R_Heel	R_Toe	L_Thigh_Lateral	L_Knee_Lateral	L_Shank_Lateral	L_Ankle_Lateral	L_Heel	L_Toe	R_Shoulder	L_Shoulder	C7	J_Notch	Thoracic	Sternum	R_Elbow	L_Elbow	R_Wrist	L_Wrist
0.50000000	0.00900430	0.01132519	0.00412533	0.00548479	0.00421987	0.01115813	0.01947553	0.00779644	0.00706127	0.00327521	0.00240015	0.00632259	0.01636512	0.00848568	0.00775805	0.00913681	0.00440936	0.01353248	0.01259016	0.00455464	0.00590295	0.00304728	0.01852701	0.00588365	0.00723697	0.00249322	0.00377271
0.51000000	0.00957883	0.01127652	0.00420860	0.00562290	0.00437238	0.01092474	0.02045580	0.00809323	0.00725230	0.00407888	0.00264526	0.00658979	0.01621922	0.00799941	0.00746345	0.00859750	0.00437032	0.01332192	0.01251473	0.00445906	0.00611560	0.00298667	0.01845526	0.00562379	0.00729051	0.00237783	0.00391470
0.52000000	0.01024504	0.01102036	0.00429666	0.00575885	0.00447962	0.01059500	0.02159522	0.00850169	0.00739576	0.00482170	0.00308413	0.00675263	0.01598986	0.00781701	0.00725349	0.00843887	0.00429611	0.01308148	0.01235726	0.00434634	0.00645173	0.00297049	0.01844638	0.00540771	0.00732177	0.00230148	0.00383968
0.53000000	0.01077150	0.01096711	0.00440829	0.00583128	0.00458836	0.01017177	0.02282056	0.00913515	0.00763503	0.00575501	0.00358479	0.00671203	0.01599660	0.00749184	0.00697612	0.00815704	0.00418183	0.01299927	0.01224098	0.00425673	0.00690835	0.00300372	0.01830774	0.00523765	0.00727693	0.00219789	0.00386145
0.54000000	0.01158144	0.01074305	0.00452807	0.00601319	0.00471438	0.00960671	0.02427283	0.00980065	0.00767115	0.00658050	0.00408028	0.00663496	0.01580881	0.00758501	0.00680405	0.00817156	0.00419810	0.01278165	0.01195672	0.00416356	0.00729621	0.00296084	0.01820425	0.00507439	0.00721173	0.00206197	0.00386397
0.55000000	0.01225516	0.01051437	0.00465447	0.00618410	0.00484111	0.00927042	0.02580415	0.01085187	0.00762044	0.00732946	0.00460058	0.00643321	0.01569075	0.00772356	0.00658570	0.00835607	0.00403592	0.01249965	0.01164657	0.00402777	0.00772004	0.00288347	0.01815125	0.00488411	0.00705503	0.00195997	0.00385367
0.56000000	0.01270730	0.01038709	0.00480178	0.00628189	0.00498309	0.00842764	0.02747807	0.01195130	0.00767890	0.00833192	0.00493995	0.00611459	0.01565058	0.00779220	0.00635397	0.00825845	0.00417080	0.01235950	0.01138132	0.00389076	0.00821841	0.00285176	0.01801666	0.00472149	0.00694153	0.00185808	0.00376616
0.57000000	0.01305619	0.01025596	0.00484068	0.00633026	0.00503534	0.00801249	0.02903702	0.01354987	0.00765658	0.00926074	0.00520942	0.00597446	0.01562527	0.00788658	0.00610635	0.00826032	0.00398735	0.01218720	0.01112273	0.00373523	0.00864329	0.00275808	0.01785647	0.00453553	0.00683519	0.00172433	0.00376604
0.58000000	0.01335544	0.01018772	0.00501384	0.00637897	0.00516367	0.00698445	0.03082590	0.01474182	0.00772550	0.01037300	0.00524003	0.00599030	0.01559973	0.00791650	0.00591420	0.00795827	0.00407555	0.01211626	0.01078241	0.00364402	0.00907037	0.00264751	0.01757634	0.00432803	0.00663890	0.00151988	0.00366779
0.59000000	0.01348786	0.00988095	0.00502978	0.00641531	0.00521705	0.00697717	0.03228817	0.01687687	0.00752780	0.01092671	0.00523544	0.00586754	0.01554412	0.00804906	0.00566135	0.00809532	0.00376797	0.01188726	0.01045828	0.00345131	0.00940717	0.00251275	0.01740461	0.00409029	0.00651096	0.00134388	0.00367448
0.60000000	0.01357221	0.00949589	0.00516376	0.00641308	0.00530116	0.00659972	0.03397738	0.01829451	0.00750415	0.01168504	0.00502115	0.00596871	0.01548391	0.00812431	0.00547905	0.00787729	0.00386633	0.01174063	0.01004147	0.00326003	0.00977851	0.00235457	0.01714319	0.00386681	0.00627706	0.00116532	0.00354775
0.61000000	0.01333094	0.00918546	0.00508102	0.00637217	0.00529251	0.00716867	0.03527037	0.02061387	0.00721183	0.01184398	0.00487725	0.00599511	0.01547485	0.00808385	0.00525757	0.00778712	0.00377582	0.01147498	0.00969551	0.00302551	0.01004617	0.00221227	0.01689930	0.00356658	0.00611099	0.00093033	0.00353695
0.62000000	0.01331652	0.00859697	0.00525174	0.00634830	0.00538146	0.00757589	0.03688407	0.02161732	0.00728140	0.01230389	0.00491046	0.00631122	0.01545572	0.00807867	0.00510654	0.00740016	0.00399692	0.01132457	0.00914565	0.00275547	0.01039747	0.00202604	0.01653222	0.00334165	0.00577299	0.00077846	0.00332057
0.63000000	0.01319136	0.00801211	0.00515661	0.00633245	0.00537627	0.00860608	0.03762377	0.02409873	0.00700969	0.01213078	0.00506025	0.00641207	0.01526704	0.00821498	0.00502575	0.00761040	0.00351263	0.01096858	0.00866200	0.00256413	0.01047473	0.00185820	0.01625674	0.00295372	0.00553402	0.00043366	0.00334586
0.64000000	0.01276474	0.00746871	0.00501306	0.00617017	0.00527608	0.00970843	0.03856506	0.02576346	0.00693948	0.01203391	0.00549317	0.00660560	0.01525263	0.00813929	0.00499375	0.00731737	0.00358585	0.01070146	0.00810621	0.00227149	0.01068957	0.00175495	0.01595775	0.00267885	0.00524657	0.00022327	0.00320862
0.65000000	0.01243621	0.00684203	0.00489712	0.00603793	0.00519950	0.01085600	0.03935370	0.02720711	0.00694147	0.01183837	0.00607285	0.00681606	0.01517762	0.00815233	0.00499955	0.00711868	0.00360798	0.01039816	0.00749651	0.00200113	0.01085911	0.00164937	0.01562380	0.00237319	0.00490290	0.00011746	0.00304649
0.66000000	0.01213223	0.00627843	0.00482616	0.00593849	0.00516343	0.01200826	0.03994938	0.02845065	0.00702829	0.01165157	0.00676359	0.00708505	0.01510971	0.00814991	0.00502386	0.00692806	0.00359429	0.01007741	0.00682828	0.00175477	0.01096585	0.00155186	0.01522929	0.00204565	0.00453506	0.00037322	0.00290860
0.67000000	0.01191655	0.00563198	0.00483653	0.00584884	0.00515649	0.01309387	0.04066904	0.02901074	0.00721047	0.01160554	0.00745556	0.00748120	0.01502406	0.00822148	0.00502450	0.00668499	0.00356814	0.00980072	0.00608634	0.00150306	0.01114663	0.00149046	0.01482377	0.00174739	0.00407155	0.00065793	0.00259778
0.68000000	0.01174845	0.00508008	0.00468860	0.00570629	0.00504697	0.01411152	0.04091859	0.02993112	0.00733501	0.01146088	0.00795075	0.00769401	0.01489056	0.00835770	0.00504892	0.00663532	0.00349581	0.00946134	0.00537018	0.00128988	0.01126454	0.00144360	0.01447297	0.00146957	0.00367330	0.00097861	0.00241717
0.69000000	0.01118982	0.00491986	0.00466690	0.00557704	0.00502212	0.01501658	0.04143108	0.03017922	0.00749638	0.01136444	0.00850820	0.00798771	0.01497428	0.00821856	0.00511880	0.00617125	0.00364834	0.00920487	0.00465874	0.00112827	0.01148429	0.00141456	0.01407872	0.00128830	0.00320019	0.00124216	0.00220786
0.70000000	0.01113415	0.00470172	0.00441333	0.00545998	0.00486753	0.01579693	0.04115165	0.03114025	0.00753090	0.01135097	0.00850924	0.00794177	0.01486783	0.00828838	0.00520148	0.00634537	0.00340219	0.00876825	0.00399227	0.00110500	0.01165203	0.00139653	0.01379923	0.00103888	0.00271945	0.00163481	0.00211365
0.71000000	0.01052523	0.00468592	0.00447137	0.00531759	0.00485815	0.01650344	0.04158626	0.03091158	0.00771084	0.01136549	0.00855260	0.00820141	0.01497018	0.00811058	0.00527816	0.00595576	0.00346742	0.00859201	0.00338788	0.00111271	0.01195859	0.00129437	0.01344069	0.00095770	0.00224618	0.00195828	0.00184874
0.72000000	0.00983922	0.00435049	0.00450880	0.00502224	0.00475220	0.01723152	0.04190407	0.03061859	0.00792588	0.01169032	0.00806350	0.00841110	0.01498769	0.00800067	0.00543386	0.00594964	0.00326641	0.00850489	0.00289287	0.00127692	0.01248921	0.00112211	0.01317129	0.00076003	0.00198693	0.00234011	0.00181893
0.73000000	0.01002859	0.00475092	0.00452615	0.00515567	0.00483323	0.01753823	0.04185387	0.03047943	0.00793510	0.01146836	0.00818910	0.00843793	0.01503741	0.00796095	0.00525434	0.00566169	0.00343564	0.00816573	0.00239101	0.00121121	0.01268973	0.00118609	0.01281587	0.00115193	0.00169407	0.00255273	0.00146763
0.74000000	0.00976855	0.00471708	0.00448387	0.00497634	0.00472849	0.01800310	0.04184508	0.03010656	0.00805291	0.01178025	0.00762824	0.00851820	0.01499621	0.00794089	0.00521496	0.00578647	0.00331187	0.00799839	0.00204918	0.00140717	0.01326604	0.00105989	0.01259365	0.00110416	0.00158809	0.00287514	0.00130779
0.75000000	0.00999618	0.00503639	0.00448670	0.00505134	0.00476863	0.01825224	0.04165487	0.02973988	0.00794522	0.01173730	0.00766376	0.00859347	0.01507435	0.00788899	0.00513712	0.00561286	0.00328349	0.00781123	0.00209990	0.00133604	0.01358806	0.00113294	0.01229774	0.00146671	0.00147042	0.00308522	0.00103160
0.76000000	0.00987252	0.00497051	0.00467811	0.00502281	0.00484956	0.01865057	0.04189141	0.02920282	0.00818321	0.01152841	0.00609105	0.00850872	0.01483130	0.00807584	0.00520562	0.00613878	0.00344983	0.00768991	0.00191724	0.00150929	0.01416954	0.00101014	0.01195192	0.00127496	0.00209705	0.00359213	0.00137475
0.77000000	0.01018548	0.00542256	0.00460619	0.00514233	0.00487375	0.01878790	0.04150256	0.02861432	0.00795894	0.01152644	0.00713747	0.00867525	0.01509983	0.00786720	0.00490397	0.00556409	0.00340835	0.00741425	0.00248432	0.00154297	0.01450049	0.00116910	0.01173597	0.00175519	0.00164571	0.00359810	0.00085307
0.78000000	0.01016787	0.00539465	0.00463248	0.00507000	0.00484959	0.01908656	0.04139285	0.02801233	0.00822872	0.01181375	0.00613518	0.00862593	0.01494088	0.00800695	0.00502095	0.00605663	0.00342089	0.00745192	0.00239529	0.00159323	0.01508928	0.00126472	0.01150960	0.00170076	0.00235961	0.00383016	0.00112290
0.79000000	0.01094805	0.00568399	0.00460359	0.00538120	0.00499207	0.01920625	0.04121029	0.02734756	0.00793836	0.01115425	0.00663572	0.00853159	0.01483920	0.00823600	0.00486298	0.00606855	0.00337534	0.00675108	0.00355591	0.00195543	0.01520118	0.00143629	0.01140283	0.00189311	0.00136607	0.00380095	0.00035165
0.80000000	0.01108261	0.00573660	0.00473321	0.00545746	0.00509498	0.01935199	0.04122500	0.02658688	0.00799012	0.01102289	0.00640887	0.00863709	0.01487254	0.00824091	0.00472196	0.00594950	0.00345911	0.00663067	0.00379014	0.00210818	0.01541957	0.00151602	0.01116512	0.00202775	0.00173587	0.00388418	0.00073882
0.81000000	0.01128611	0.00584388	0.00485655	0.00563844	0.00524679	0.01945878	0.04128878	0.02590820	0.00817408	0.01082452	0.00581881	0.00870744	0.01482532	0.00823839	0.00472834	0.00621076	0.00340066	0.00647711	0.00392986	0.00226375	0.01544950	0.00157986	0.01087687	0.00224233	0.00216551	0.00395145	0.00105846
0.82000000	0.01148419	0.00581852	0.00500900	0.00572851	0.00536709	0.01946148	0.04133490	0.02506075	0.00819881	0.01056865	0.00615124	0.00870251	0.01480021	0.00836149	0.00463172	0.00601444	0.00344958	0.00622768	0.00430991	0.00256473	0.01539319	0.00177677	0.01083697	0.00213169	0.00245976	0.00389598	0.00153783
0.83000000	0.01176519	0.00586561	0.00512786	0.00595398	0.00553791	0.01949581	0.04132595	0.02452232	0.00837025	0.01053224	0.00570087	0.00869277	0.01479150	0.00833788	0.00460303	0.00630926	0.00345184	0.00601401	0.00447028	0.00278750	0.01503965	0.00183202	0.01061835	0.00250742	0.00276494	0.00378199	0.00199237
0.84000000	0.01191678	0.00581144	0.00535298	0.00609448	0.00572074	0.01963603	0.04119983	0.02408129	0.00837621	0.01029984	0.00594949	0.00890827	0.01477412	0.00848618	0.00436522	0.00570183	0.00353367	0.00577679	0.00454259	0.00308056	0.01458472	0.00195637	0.01049546	0.00223875	0.00314170	0.00382686	0.00234601
0.85000000	0.01206260	0.00577078	0.00553692	0.00626168	0.00589563	0.01969946	0.04108838	0.02370319	0.00847467	0.01009227	0.00577973	0.00894071	0.01470893	0.00861087	0.00426540	0.00559321	0.00355698	0.00555532	0.00464682	0.00336782	0.01397716	0.00207745	0.01044857	0.00217653	0.00356577	0.00373145	0.00271619
0.86000000	0.01214027	0.00581823	0.00582686	0.00648382	0.00615164	0.01955270	0.04110068	0.02305679	0.00861164	0.00995168	0.00557901	0.00883672	0.01466477	0.00865468	0.00425132	0.00566999	0.00347769	0.00543029	0.00467292	0.00361641	0.01328759	0.00224182	0.01045376	0.00220983	0.00394218	0.00351328	0.00322786
0.87000000	0.01248939	0.00589471	0.00595620	0.00675918	0.00635190	0.01959910	0.04070950	0.02298056	0.00868479	0.00983688	0.00532924	0.00883807	0.01456661	0.00877790	0.00422629	0.00574626	0.00347183	0.00517063	0.00488136	0.00390380	0.01236149	0.00231495	0.01037484	0.00254054	0.00412263	0.00330041	0.00378324
0.88000000	0.01246207	0.00592046	0.00623377	0.00692342	0.00657454	0.01960541	0.04031041	0.02263000	0.00859296	0.00974027	0.00517840	0.00889328	0.01455135	0.00887311	0.00410753	0.00522335	0.00349443	0.00508219	0.00483737	0.00408987	0.01167185	0.00249317	0.01053529	0.00212444	0.00487065	0.00333561	0.00399462
0.89000000	0.01293243	0.00593829	0.00628472	0.00714357	0.00670489	0.01964000	0.03947920	0.02258441	0.00866600	0.01006376	0.00521741	0.00859093	0.01473898	0.00869627	0.00410802	0.00548147	0.00368808	0.00480378	0.00538372	0.00442627	0.01075762	0.00257380	0.01060820	0.00274038	0.00486509	0.00291448	0.00469652
0.90000000	0.01260922	0.00614626	0.00670421	0.00735195	0.00702534	0.01938782	0.03936288	0.02147130	0.00854403	0.00945126	0.00456648	0.00885767	0.01449323	0.00898566	0.00400667	0.00503101	0.00326380	0.00497770	0.00503397	0.00456231	0.01021302	0.00273204	0.01078467	0.00220963	0.00550744	0.00288430	0.00476760
0.91000000	0.01278313	0.00627309	0.00685366	0.00752478	0.00718644	0.01924792	0.03849041	0.02086832	0.00843513	0.00924360	0.00430036	0.00885958	0.01440315	0.00911079	0.00397200	0.00484755	0.00339822	0.00504264	0.00516617	0.00477938	0.00969720	0.00288266	0.01097683	0.00210502	0.00598107	0.00273973	0.00503186
0.92000000	0.01294468	0.00633686	0.00670310	0.00757124	0.00713365	0.01924241	0.03728406	0.02072806	0.00819176	0.00917937	0.00407107	0.00888481	0.01428613	0.00929060	0.00385671	0.00481987	0.00329523	0.00500899	0.00545575	0.00497285	0.00920033	0.00291883	0.01114198	0.00226195	0.00613387	0.00264480	0.00542906
0.93000000	0.01273664	0.00672464	0.00691196	0.00777806	0.00734355	0.01884860	0.03643036	0.01929861	0.00797286	0.00886978	0.00349712	0.00905658	0.01443485	0.00905883	0.00384206	0.00436605	0.00321757	0.00523082	0.00539699	0.00507519	0.00894485	0.00306501	0.01138178	0.00213321	0.00677806	0.00254504	0.00541207
0.94000000	0.01305382	0.00681891	0.00710022	0.00793848	0.00751761	0.01828316	0.03503990	0.01775150	0.00794814	0.00871355	0.00353837	0.00901194	0.01434350	0.00919168	0.00385874	0.00437510	0.00322387	0.00548711	0.00570887	0.00524899	0.00880940	0.00326277	0.01162181	0.00214160	0.00702751	0.00233116	0.00579381
0.95000000	0.01311142	0.00694647	0.00699989	0.00795969	0.00747810	0.01788175	0.03357165	0.01644590	0.00778390	0.00848543	0.00345606	0.00903709	0.01432506	0.00920385	0.00381417	0.00422429	0.00325301	0.00571248	0.00587225	0.00532766	0.00874197	0.00338608	0.01189396	0.00219640	0.00740506	0.00220844	0.00603834
0.96000000	0.01335757	0.00672862	0.00655364	0.00776608	0.00715591	0.01801039	0.03209733	0.01561798	0.00738712	0.00803382	0.00365421	0.00902242	0.01416038	0.00941493	0.00369660	0.00438571	0.00304859	0.00580616	0.00593038	0.00536113	0.00863777	0.00339272	0.01211155	0.00227697	0.00743399	0.00231032	0.00646150
0.97000000	0.01345638	0.00662894	0.00616925	0.00763693	0.00689832	0.01825754	0.03075904	0.01444320	0.00705637	0.00762805	0.00369800	0.00905989	0.01404097	0.00955947	0.00365965	0.00433271	0.00289364	0.00592665	0.00594860	0.00538006	0.00863648	0.00347500	0.01240671	0.00232148	0.00768207	0.00240278	0.00667978
0.98000000	0.01370485	0.00686420	0.00652480	0.00784419	0.00717797	0.01709118	0.02867980	0.01173948	0.00759019	0.00834429	0.00439723	0.00907243	0.01421820	0.00931878	0.00376096	0.00416410	0.00301257	0.00652774	0.00617443	0.00557218	0.00876012	0.00377887	0.01259685	0.00221848	0.00805426	0.00204143	0.00682373
0.99000000	0.01397833	0.00661132	0.00597866	0.00765363	0.00680439	0.01794520	0.02737948	0.01077640	0.00722452	0.00785789	0.00462809	0.00901518	0.01404189	0.00949261	0.00366535	0.00432404	0.00295763	0.00666886	0.00611220	0.00554078	0.00873617	0.00382385	0.01282152	0.00236523	0.00824684	0.00217987	0.00704053
1.00000000	0.01386111	0.00671729	0.00586656	0.00762774	0.00673464	0.01783359	0.02567638	0.00939744	0.00747533	0.00862752	0.00499904	0.00905313	0.01414532	0.00932396	0.00375762	0.00411213	0.00298051	0.00707451	0.00605831	0.00562691	0.00882531	0.00404119	0.01306287	0.00232663	0.00844856	0.00197748	0.00721961
1.01000000	0.01377460	0.00663495	0.00542468	0.00749207	0.00644493	0.01868726	0.02456270	0.00872690	0.00731041	0.00876108	0.00502480	0.00900337	0.01411094	0.00931552	0.00378930	0.00401695	0.00304726	0.00726175	0.00582618	0.00558529	0.00881794	0.00419097	0.01328557	0.00247442	0.00866490	0.00195087	0.00732265
1.02000000	0.01398504	0.00637365	0.00499215	0.00738029	0.00616769	0.01969378	0.02363249	0.00828525	0.00698011	0.00841243	0.00533081	0.00883658	0.01399533	0.00944255	0.00374765	0.00417133	0.00284215	0.00743352	0.00562568	0.00562335	0.00881312	0.00433486	0.01348896	0.00251321	0.00863506	0.00208298	0.00756031
1.03000000	0.01362350	0.00645119	0.00462844	0.00729082	0.00594267	0.02019594	0.02272831	0.00812254	0.00679935	0.00869078	0.00517527	0.00877025	0.01403811	0.00926907	0.00378763	0.00399621	0.00303266	0.00766399	0.00530983	0.00560935	0.00881101	0.00453306	0.01370518	0.00262817	0.00884449	0.00201812	0.00755306
1.04000000	0.01357740	0.00678533	0.00414399	0.00732289	0.00570862	0.02070937	0.02157905	0.00803166	0.00665794	0.00868291	0.00571644	0.00832233	0.01393163	0.00936742	0.00380843	0.00445811	0.00311809	0.00786810	0.00524179	0.00569649	0.00886752	0.00475001	0.01387990	0.00292530	0.00851276	0.00188315	0.00799199
1.05000000	0.01361459	0.00690030	0.00390300	0.00740974	0.00562446	0.02077647	0.02086971	0.00804026	0.00618616	0.00819524	0.00589016	0.00798217	0.01380808	0.00946438	0.00387149	0.00480116	0.00309798	0.00798699	0.00511254	0.00579513	0.00884815	0.00489707	0.01397793	0.00319311	0.00829659	0.00209206	0.00817565
1.06000000	0.01331913	0.00609675	0.00383059	0.00717743	0.00548246	0.02034001	0.02097164	0.00829650	0.00555247	0.00740672	0.00514670	0.00810687	0.01373343	0.00948407	0.00369037	0.00408573	0.00280273	0.00797934	0.00431045	0.00561517	0.00872314	0.00507881	0.01423640	0.00293620	0.00869214	0.00240416	0.00789484
1.07000000	0.01309831	0.00624868	0.00360281	0.00720657	0.00537988	0.01957145	0.02048849	0.00846887	0.00509992	0.00701311	0.00474776	0.00772514	0.01361973	0.00951708	0.00380447	0.00454891	0.00271436	0.00788705	0.00409215	0.00566254	0.00878848	0.00529176	0.01448180	0.00312691	0.00832916	0.00240127	0.00821855
1.08000000	0.01250513	0.00623774	0.00355860	0.00711559	0.00531208	0.01815244	0.02002739	0.00875050	0.00490096	0.00695682	0.00472820	0.00757601	0.01365719	0.00942344	0.00369083	0.00401936	0.00277210	0.00811371	0.00376113	0.00558424	0.00871770	0.00540657	0.01455712	0.00338433	0.00843859	0.00247690	0.00797564
1.09000000	0.01244583	0.00627612	0.00364976	0.00728516	0.00544193	0.01645044	0.02016982	0.00891119	0.00426594	0.00618373	0.00449306	0.00714943	0.01350257	0.00956168	0.00378234	0.00447497	0.00276967	0.00780793	0.00348101	0.00559720	0.00868625	0.00548109	0.01471262	0.00356416	0.00807349	0.00275065	0.00813742
1.10000000	0.01169892	0.00613002	0.00377338	0.00706080	0.00538338	0.01506485	0.01939948	0.00914208	0.00431535	0.00656974	0.00440148	0.00708072	0.01375599	0.00926373	0.00367231	0.00346297	0.00315749	0.00795129	0.00308161	0.00550539	0.00874035	0.00566170	0.01492192	0.00347043	0.00826399	0.00261530	0.00773020
1.11000000	0.01115856	0.00596154	0.00373291	0.00688733	0.00527778	0.01353763	0.01922712	0.00939939	0.00435477	0.00673993	0.00422795	0.00697049	0.01370010	0.00928517	0.00359360	0.00342376	0.00290961	0.00784267	0.00287202	0.00532988	0.00883180	0.00577130	0.01521150	0.00368413	0.00809760	0.00270442	0.00781808
1.12000000	0.01077857	0.00566343	0.00385534	0.00675199	0.00526674	0.01222020	0.01918951	0.00950749	0.00431910	0.00683585	0.00420817	0.00691343	0.01368437	0.00930774	0.00350822	0.00328703	0.00289423	0.00769984	0.00271107	0.00521818	0.00891536	0.00582650	0.01547828	0.00380752	0.00789759	0.00285055	0.00779290
1.13000000	0.01068877	0.00558854	0.00399661	0.00675427	0.00533341	0.01093697	0.01913752	0.00956495	0.00435398	0.00683210	0.00450040	0.00677344	0.01371819	0.00937921	0.00353076	0.00342851	0.00266504	0.00749326	0.00262522	0.00510394	0.00898999	0.00578798	0.01571356	0.00391834	0.00778656	0.00306138	0.00765921
1.14000000	0.01050491	0.00560402	0.00417378	0.00674937	0.00541183	0.00985650	0.01896963	0.00935454	0.00463068	0.00746354	0.00436000	0.00663005	0.01389013	0.00929928	0.00346454	0.00325329	0.00296419	0.00730302	0.00262406	0.00494520	0.00909578	0.00575346	0.01593747	0.00411050	0.00756877	0.00316587	0.00765734
1.15000000	0.01056856	0.00548982	0.00433257	0.00673065	0.00547386	0.00917020	0.01900150	0.00920076	0.00470755	0.00740080	0.00490211	0.00663833	0.01397435	0.00941804	0.00352471	0.00344251	0.00278072	0.00705680	0.00258923	0.00478322	0.00921183	0.00567923	0.01620675	0.00410093	0.00754683	0.00347529	0.00748900
1.16000000	0.01052981	0.00541061	0.00450806	0.00672813	0.00555903	0.00869365	0.01915513	0.00891994	0.00489157	0.00790034	0.00443063	0.00657285	0.01423764	0.00936998	0.00359553	0.00343910	0.00300070	0.00682734	0.00276337	0.00471392	0.00931132	0.00555324	0.01641103	0.00436144	0.00725258	0.00358301	0.00745164
1.17000000	0.01099435	0.00553767	0.00486021	0.00692202	0.00582059	0.00836254	0.01940539	0.00841197	0.00468314	0.00733836	0.00516453	0.00669005	0.01438592	0.00952263	0.00368878	0.00381173	0.00313206	0.00644671	0.00281203	0.00454282	0.00937827	0.00541327	0.01653758	0.00422746	0.00749327	0.00417983	0.00702799
1.18000000	0.01036680	0.00550352	0.00464567	0.00665797	0.00560207	0.00878240	0.01986555	0.00848626	0.00498519	0.00811936	0.00434253	0.00696174	0.01488510	0.00928741	0.00373833	0.00379552	0.00315725	0.00636805	0.00302718	0.00459518	0.00946259	0.00534809	0.01676881	0.00464202	0.00682505	0.00401806	0.00717906
1.19000000	0.01048226	0.00569198	0.00467811	0.00666052	0.00561860	0.00876217	0.01989701	0.00824741	0.00512865	0.00832999	0.00457557	0.00705232	0.01520742	0.00938991	0.00405107	0.00437241	0.00328343	0.00615205	0.00315217	0.00444297	0.00960322	0.00527677	0.01696075	0.00467389	0.00683232	0.00418498	0.00702045
1.20000000	0.01084790	0.00598868	0.00477928	0.00674957	0.00571058	0.00883114	0.01994265	0.00805305	0.00500068	0.00807942	0.00487932	0.00721478	0.01559410	0.00959470	0.00446327	0.00470674	0.00374425	0.00587830	0.00313744	0.00424152	0.00975395	0.00521825	0.01716178	0.00429335	0.00728336	0.00468339	0.00657371
1.21000000	0.01067306	0.00624308	0.00469280	0.00661510	0.00561595	0.00887314	0.02029772	0.00802160	0.00516380	0.00847451	0.00477497	0.00736940	0.01608799	0.00960527	0.00493352	0.00555151	0.00353023	0.00570280	0.00343435	0.00427290	0.00979265	0.00512926	0.01724625	0.00471794	0.00657231	0.00450800	0.00682375
1.22000000	0.01065785	0.00660799	0.00458164	0.00650066	0.00550562	0.00913910	0.02036081	0.00817350	0.00517897	0.00854895	0.00476223	0.00752707	0.01663729	0.00980414	0.00551738	0.00616177	0.00375749	0.00564802	0.00355361	0.00426543	0.00990735	0.00510149	0.01740211	0.00459574	0.00653793	0.00460679	0.00659965
1.23000000	0.01064423	0.00723734	0.00461117	0.00653803	0.00553881	0.00908976	0.02066456	0.00804958	0.00503247	0.00841341	0.00477883	0.00758854	0.01726587	0.01002412	0.00618987	0.00687528	0.00392193	0.00547129	0.00376622	0.00419956	0.00992929	0.00510670	0.01740306	0.00461264	0.00632858	0.00474028	0.00650501
1.24000000	0.01054335	0.00780629	0.00453890	0.00649128	0.00547014	0.00915322	0.02069860	0.00819111	0.00499846	0.00850973	0.00460953	0.00774827	0.01816456	0.01043578	0.00670285	0.00714305	0.00417135	0.00556838	0.00402521	0.00428778	0.00994428	0.00507932	0.01739510	0.00456600	0.00612038	0.00478787	0.00627560
1.25000000	0.01051537	0.00851461	0.00450993	0.00645459	0.00541995	0.00919694	0.02070839	0.00821196	0.00484937	0.00831971	0.00468885	0.00768743	0.01892381	0.01101604	0.00749459	0.00796967	0.00432372	0.00544879	0.00404593	0.00424952	0.00998560	0.00525086	0.01742154	0.00436983	0.00592188	0.00478474	0.00611258
1.26000000	0.01051571	0.00897855	0.00441259	0.00639797	0.00533229	0.00908802	0.02045817	0.00822855	0.00475731	0.00834069	0.00459839	0.00752831	0.02008575	0.01177861	0.00809822	0.00837491	0.00446040	0.00551725	0.00416873	0.00423428	0.01001351	0.00533455	0.01743310	0.00427820	0.00583504	0.00478013	0.00591763
1.27000000	0.01043768	0.00941584	0.00427139	0.00634266	0.00522416	0.00941178	0.02020506	0.00821629	0.00446431	0.00805014	0.00440434	0.00711607	0.02108810	0.01263600	0.00896499	0.00922093	0.00477359	0.00560668	0.00415664	0.00413327	0.01005819	0.00553639	0.01745481	0.00407218	0.00585744	0.00477979	0.00572248
1.28000000	0.01015668	0.01013462	0.00420771	0.00620545	0.00509139	0.00931778	0.01989847	0.00831133	0.00448592	0.00819949	0.00426945	0.00701544	0.02200916	0.01417383	0.00936940	0.00935857	0.00478103	0.00581455	0.00417488	0.00425657	0.01000004	0.00571987	0.01736093	0.00396089	0.00553003	0.00463247	0.00544235
1.29000000	0.01012840	0.01056774	0.00422387	0.00630535	0.00514988	0.00959696	0.01957448	0.00806764	0.00408655	0.00764824	0.00435198	0.00645420	0.02335885	0.01498418	0.00997644	0.01005962	0.00473579	0.00577997	0.00409289	0.00418387	0.00995849	0.00598455	0.01727190	0.00376879	0.00536367	0.00454235	0.00520676
1.30000000	0.00988550	0.01107159	0.00416398	0.00628552	0.00509845	0.00981326	0.01918029	0.00799480	0.00386196	0.00738714	0.00429480	0.00606138	0.02448660	0.01623284	0.01035016	0.01038735	0.00470490	0.00592539	0.00394065	0.00416084	0.00989561	0.00625393	0.01716481	0.00361739	0.00514475	0.00439689	0.00498908
1.31000000	0.00963187	0.01093237	0.00386496	0.00625635	0.00494951	0.01032692	0.01863855	0.00783161	0.00346263	0.00705613	0.00393488	0.00537007	0.02588463	0.01720895	0.01081454	0.01077781	0.00510914	0.00611092	0.00386536	0.00405840	0.00996643	0.00652652	0.01720969	0.00332133	0.00503851	0.00427854	0.00488578
1.32000000	0.00940671	0.01103029	0.00379463	0.00627480	0.00492625	0.01069972	0.01819103	0.00763974	0.00309136	0.00662175	0.00386332	0.00505807	0.02702087	0.01826609	0.01105636	0.01109115	0.00492858	0.00635770	0.00374213	0.00409893	0.00994179	0.00678399	0.01711270	0.00310926	0.00477388	0.00399017	0.00460552
1.33000000	0.00915896	0.01156788	0.00390349	0.00628368	0.00497345	0.01063240	0.01783959	0.00760465	0.00300732	0.00639359	0.00410130	0.00491990	0.02771202	0.01976399	0.01090020	0.01093174	0.00413699	0.00640361	0.00342013	0.00413630	0.00970915	0.00701187	0.01683326	0.00302841	0.00439335	0.00389288	0.00429001
1.34000000	0.00897713	0.01128296	0.00378081	0.00629054	0.00492316	0.01090380	0.01740366	0.00743512	0.00269818	0.00605697	0.00388750	0.00465354	0.02871898	0.02073143	0.01085685	0.01082456	0.00392400	0.00650882	0.00319256	0.00405392	0.00964657	0.00725795	0.01672773	0.00290627	0.00412877	0.00371933	0.00415179
1.35000000	0.00881660	0.01124762	0.00367044	0.00636073	0.00489702	0.01106072	0.01682260	0.00750929	0.00249746	0.00589090	0.00385457	0.00441326	0.02940718	0.02184331	0.01059766	0.01042539	0.00369288	0.00655978	0.00290554	0.00400954	0.00956186	0.00746967	0.01659695	0.00267909	0.00385259	0.00358452	0.00392850
1.36000000	0.00875436	0.01077034	0.00359580	0.00647301	0.00490592	0.01134443	0.01632157	0.00747191	0.00218328	0.00563438	0.00356925	0.00444688	0.03009992	0.02266541	0.01035325	0.01002164	0.00362685	0.00662628	0.00266207	0.00397272	0.00949418	0.00769091	0.01646783	0.00244978	0.00348949	0.00338871	0.00373521
1.37000000	0.00861153	0.01032091	0.00343392	0.00654125	0.00484771	0.01149471	0.01598775	0.00738311	0.00196064	0.00535742	0.00346583	0.00518041	0.03060186	0.02318045	0.01013431	0.00971773	0.00359049	0.00668235	0.00241011	0.00386887	0.00946091	0.00784431	0.01638274	0.00229137	0.00320857	0.00321530	0.00363666
1.38000000	0.00836553	0.01036484	0.00345043	0.00669028	0.00491250	0.01171243	0.01566861	0.00741182	0.00175041	0.00503118	0.00344343	0.00608880	0.03090477	0.02330639	0.00998184	0.00952313	0.00374783	0.00688105	0.00233896	0.00379313	0.00940114	0.00800525	0.01618395	0.00200654	0.00290800	0.00296137	0.00339633
1.39000000	0.00801997	0.01002293	0.00333979	0.00666131	0.00483012	0.01185396	0.01559712	0.00730619	0.00161269	0.00454970	0.00354865	0.00732702	0.03122375	0.02310480	0.00993786	0.00938243	0.00396433	0.00710119	0.00218316	0.00367851	0.00942707	0.00813784	0.01611445	0.00180505	0.00264422	0.00267757	0.00331503
1.40000000	0.00794344	0.01014821	0.00342584	0.00689680	0.00497789	0.01204094	0.01511675	0.00747653	0.00141347	0.00434818	0.00354696	0.00823322	0.03119515	0.02309991	0.00980014	0.00928143	0.00428944	0.00714204	0.00225460	0.00350154	0.00936571	0.00825831	0.01588628	0.00148318	0.00226993	0.00246319	0.00313197
1.41000000	0.00785034	0.01014270	0.00344357	0.00705723	0.00505496	0.01208672	0.01479843	0.00755124	0.00136414	0.00427823	0.00332586	0.00927535	0.03120425	0.02311934	0.00952032	0.00890574	0.00432887	0.00719083	0.00224682	0.00333612	0.00930245	0.00834369	0.01569535	0.00116634	0.00207229	0.00229304	0.00290465
1.42000000	0.00763924	0.00999649	0.00345055	0.00714060	0.00508274	0.01220332	0.01450342	0.00761543	0.00126204	0.00410894	0.00334353	0.01029697	0.03114864	0.02299496	0.00939932	0.00873797	0.00436781	0.00730446	0.00234572	0.00318134	0.00929027	0.00841734	0.01556179	0.00098961	0.00181014	0.00202059	0.00276209
1.43000000	0.00755922	0.00935758	0.00324826	0.00734655	0.00505552	0.01252432	0.01429755	0.00753957	0.00125952	0.00382572	0.00341847	0.01131629	0.03157080	0.02235795	0.00934090	0.00871717	0.00442395	0.00759383	0.00244102	0.00302890	0.00936110	0.00815616	0.01552445	0.00100283	0.00169941	0.00180892	0.00273870
1.44000000	0.00732136	0.00992819	0.00346160	0.00735989	0.00518175	0.01244668	0.01411068	0.00761895	0.00113125	0.00369831	0.00333979	0.01209525	0.03103436	0.02265820	0.00917371	0.00849269	0.00428913	0.00754522	0.00266186	0.00281666	0.00924349	0.00835178	0.01524359	0.00088947	0.00155203	0.00155388	0.00241367
1.45000000	0.00719855	0.00974232	0.00346954	0.00749130	0.00524184	0.01257861	0.01398739	0.00756918	0.00110757	0.00341372	0.00348026	0.01283463	0.03109973	0.02253250	0.00903650	0.00828854	0.00425788	0.00767840	0.00287158	0.00265656	0.00919892	0.00826948	0.01508843	0.00109493	0.00152668	0.00137551	0.00223949
1.46000000	0.00704992	0.00975924	0.00346030	0.00759862	0.00529546	0.01278496	0.01389761	0.00751993	0.00111932	0.00323867	0.00342946	0.01348832	0.03097669	0.02264631	0.00894594	0.00822445	0.00429658	0.00778688	0.00306204	0.00247859	0.00915776	0.00814877	0.01494026	0.00152038	0.00149714	0.00104910	0.00210590
1.47000000	0.00690181	0.00983504	0.00344948	0.00771182	0.00534611	0.01290084	0.01377697	0.00752048	0.00107555	0.00309899	0.00347511	0.01398682	0.03095008	0.02283977	0.00885487	0.00821677	0.00422701	0.00790468	0.00328169	0.00232246	0.00910474	0.00804091	0.01480236	0.00185045	0.00149760	0.00083186	0.00195563
1.48000000	0.00676196	0.00989619	0.00340201	0.00780520	0.00537561	0.01299979	0.01366079	0.00756740	0.00104246	0.00295466	0.00354756	0.01441238	0.03103524	0.02311164	0.00881043	0.00810623	0.00413048	0.00804568	0.00351557	0.00219511	0.00904904	0.00790177	0.01468374	0.00222946	0.00155767	0.00073885	0.00180987
1.49000000	0.00660198	0.01008561	0.00335453	0.00798146	0.00544422	0.01291576	0.01356586	0.00745800	0.00101651	0.00303089	0.00335261	0.01474161	0.03114689	0.02348413	0.00876820	0.00817399	0.00370042	0.00808152	0.00381972	0.00200700	0.00898752	0.00788696	0.01454027	0.00240677	0.00141536	0.00040420	0.00162478
1.50000000	0.00651132	0.01023679	0.00340287	0.00812582	0.00556221	0.01304687	0.01351865	0.00741581	0.00095013	0.00290046	0.00352263	0.01491519	0.03130464	0.02380677	0.00876239	0.00823378	0.00388875	0.00828136	0.00410089	0.00190979	0.00888967	0.00777656	0.01441726	0.00282277	0.00150683	0.00022466	0.00141965
1.51000000	0.00633002	0.01036051	0.00338282	0.00826893	0.00563870	0.01306423	0.01338902	0.00745687	0.00093477	0.00286397	0.00348374	0.01507003	0.03166584	0.02402567	0.00880774	0.00822598	0.00376631	0.00848663	0.00440891	0.00180679	0.00883506	0.00772295	0.01435207	0.00319234	0.00156649	0.00014699	0.00121389
1.52000000	0.00627805	0.01070473	0.00347015	0.00839228	0.00578670	0.01311512	0.01336500	0.00750414	0.00095203	0.00296033	0.00377645	0.01524355	0.03192014	0.02436688	0.00881071	0.00819366	0.00394584	0.00867628	0.00464767	0.00179150	0.00868855	0.00751311	0.01428515	0.00364034	0.00175811	0.00037149	0.00101281
1.53000000	0.00594358	0.01085360	0.00347463	0.00854327	0.00586677	0.01300958	0.01337829	0.00740344	0.00088925	0.00276086	0.00352626	0.01522793	0.03230017	0.02434779	0.00904997	0.00834578	0.00395080	0.00901235	0.00502095	0.00168487	0.00869311	0.00758155	0.01430252	0.00396986	0.00171750	0.00057949	0.00085754
1.54000000	0.00595631	0.01134572	0.00366510	0.00865003	0.00605365	0.01299960	0.01340860	0.00741982	0.00094790	0.00294944	0.00370715	0.01527157	0.03261567	0.02441757	0.00912968	0.00835659	0.00418197	0.00927331	0.00531856	0.00167284	0.00853535	0.00742063	0.01427399	0.00449625	0.00197897	0.00065225	0.00057838
1.55000000	0.00565282	0.01135859	0.00372054	0.00877963	0.00613400	0.01286758	0.01323173	0.00742593	0.00086912	0.00268464	0.00353633	0.01518413	0.03298680	0.02417577	0.00935437	0.00850682	0.00421178	0.00972093	0.00564241	0.00161953	0.00859896	0.00750188	0.01437400	0.00478269	0.00191188	0.00103888	0.00048735
1.56000000	0.00564548	0.01195031	0.00395610	0.00889022	0.00633103	0.01272775	0.01322515	0.00744162	0.00092649	0.00285930	0.00375267	0.01514620	0.03307083	0.02407720	0.00953659	0.00859177	0.00449627	0.01004680	0.00599100	0.00164475	0.00846871	0.00744395	0.01439629	0.00527543	0.00210509	0.00106070	0.00035103
1.57000000	0.00541979	0.01199967	0.00404273	0.00898780	0.00640981	0.01255503	0.01304778	0.00747006	0.00089236	0.00260197	0.00363323	0.01507224	0.03329847	0.02365155	0.00975116	0.00873015	0.00449731	0.01049130	0.00629385	0.00167983	0.00852205	0.00743583	0.01452096	0.00554685	0.00208562	0.00145431	0.00035224
1.58000000	0.00550147	0.01262161	0.00431069	0.00908209	0.00660492	0.01237367	0.01316906	0.00734347	0.00091694	0.00272693	0.00373006	0.01489295	0.03307196	0.02336412	0.00998524	0.00903261	0.00485262	0.01094349	0.00659815	0.00171045	0.00842162	0.00741815	0.01456543	0.00613134	0.00231526	0.00145126	0.00025927
1.59000000	0.00535610	0.01268454	0.00439635	0.00918723	0.00668574	0.01225603	0.01274793	0.00752854	0.00091404	0.00251358	0.00375329	0.01481739	0.03320820	0.02274396	0.00999831	0.00901274	0.00464937	0.01139629	0.00681607	0.00181948	0.00847387	0.00733580	0.01468757	0.00634432	0.00232502	0.00182941	0.00016292
1.60000000	0.00545789	0.01321976	0.00464705	0.00929993	0.00688251	0.01205084	0.01278168	0.00745103	0.00101843	0.00267746	0.00372321	0.01465133	0.03282453	0.02227573	0.01016174	0.00919852	0.00489559	0.01178463	0.00712225	0.00193038	0.00835861	0.00730146	0.01474306	0.00677913	0.00246361	0.00188401	0.00049260
1.61000000	0.00555342	0.01369949	0.00483479	0.00940536	0.00704219	0.01186483	0.01271895	0.00744011	0.00109145	0.00277284	0.00380104	0.01448762	0.03239348	0.02177843	0.01031692	0.00939659	0.00503880	0.01216387	0.00739862	0.00201725	0.00825122	0.00722113	0.01477667	0.00723094	0.00260692	0.00188708	0.00069787
1.62000000	0.00544641	0.01347338	0.00475847	0.00942021	0.00698931	0.01169610	0.01244578	0.00745617	0.00108737	0.00239160	0.00366552	0.01431829	0.03237107	0.02110705	0.01022625	0.00938108	0.00463694	0.01268300	0.00753329	0.00225134	0.00839539	0.00713500	0.01491206	0.00730553	0.00250251	0.00227567	0.00046559
1.63000000	0.00552554	0.01352255	0.00480938	0.00944552	0.00702009	0.01149857	0.01239032	0.00734747	0.00111699	0.00237543	0.00349242	0.01408530	0.03201365	0.02053338	0.01033329	0.00952143	0.00463951	0.01313740	0.00772917	0.00240551	0.00842844	0.00707008	0.01500182	0.00760302	0.00243982	0.00243303	0.00050153
1.64000000	0.00575654	0.01399933	0.00498771	0.00951730	0.00717134	0.01122732	0.01257217	0.00720948	0.00119739	0.00250714	0.00344538	0.01384051	0.03122319	0.02024704	0.01058828	0.00993295	0.00505817	0.01345762	0.00794833	0.00250776	0.00826947	0.00698032	0.01498774	0.00797826	0.00255507	0.00236449	0.00066122
1.65000000	0.00575960	0.01391632	0.00495484	0.00958601	0.00716322	0.01105669	0.01235723	0.00712962	0.00124197	0.00234617	0.00321266	0.01345432	0.03111850	0.01940494	0.01068977	0.01005610	0.00485721	0.01404104	0.00801451	0.00273178	0.00842768	0.00693283	0.01508256	0.00816841	0.00235879	0.00260356	0.00054546
1.66000000	0.00601320	0.01442294	0.00511309	0.00965883	0.00731177	0.01075175	0.01257491	0.00700707	0.00132166	0.00244093	0.00323367	0.01322059	0.03038071	0.01930883	0.01091081	0.01042576	0.00527685	0.01429305	0.00818824	0.00287689	0.00824959	0.00683243	0.01503722	0.00840224	0.00243909	0.00247120	0.00051944
1.67000000	0.00599708	0.01470253	0.00508918	0.00957562	0.00727833	0.01045311	0.01269751	0.00698345	0.00143489	0.00247384	0.00325033	0.01300564	0.02982452	0.01931580	0.01118437	0.01089342	0.00564199	0.01461773	0.00834871	0.00276051	0.00812630	0.00669048	0.01508502	0.00879404	0.00267624	0.00277753	0.00054327
1.68000000	0.00618599	0.01428436	0.00506314	0.00972504	0.00730953	0.01048009	0.01240627	0.00701622	0.00156359	0.00223965	0.00293291	0.01274813	0.03022303	0.01861041	0.01108421	0.01069969	0.00497399	0.01513296	0.00821258	0.00313888	0.00834933	0.00655291	0.01512915	0.00869737	0.00219218	0.00292166	0.00039547
1.69000000	0.00612523	0.01475692	0.00502889	0.00974693	0.00733080	0.01021512	0.01230009	0.00721118	0.00184737	0.00238312	0.00289279	0.01263435	0.02987608	0.01867426	0.01118633	0.01094531	0.00493387	0.01538201	0.00822318	0.00317995	0.00827911	0.00641214	0.01525007	0.00891571	0.00220600	0.00298797	0.00033003
1.70000000	0.00627369	0.01490135	0.00509267	0.00989254	0.00744090	0.00996160	0.01242886	0.00716472	0.00201611	0.00222829	0.00275014	0.01235024	0.02986882	0.01849997	0.01128328	0.01120475	0.00483055	0.01574159	0.00827016	0.00336841	0.00824901	0.00633411	0.01518483	0.00895075	0.00211031	0.00302002	0.00021740
1.71000000	0.00629324	0.01507919	0.00508742	0.00994234	0.00747461	0.00967572	0.01249289	0.00726049	0.00228614	0.00231615	0.00254180	0.01216483	0.02959599	0.01857037	0.01148354	0.01152738	0.00511428	0.01602800	0.00828826	0.00341671	0.00823443	0.00625879	0.01530300	0.00915458	0.00208064	0.00314678	0.00026549
1.72000000	0.00650375	0.01545131	0.00529206	0.01035917	0.00777621	0.00936320	0.01272115	0.00708497	0.00243687	0.00223202	0.00227197	0.01146823	0.02913926	0.01816929	0.01178084	0.01216209	0.00553009	0.01653105	0.00834943	0.00369330	0.00823211	0.00641853	0.01521609	0.00929210	0.00198634	0.00306678	0.00012488
1.73000000	0.00654045	0.01560533	0.00529562	0.01048373	0.00785154	0.00915331	0.01282096	0.00721925	0.00272737	0.00223990	0.00212624	0.01130443	0.02901283	0.01824093	0.01180490	0.01237045	0.00553847	0.01679465	0.00842667	0.00382532	0.00820486	0.00640463	0.01528583	0.00935346	0.00196107	0.00315333	0.00007797
1.74000000	0.00664083	0.01589974	0.00538261	0.01063409	0.00798413	0.00884563	0.01310719	0.00725424	0.00296799	0.00243164	0.00183335	0.01114508	0.02851924	0.01846908	0.01188586	0.01260032	0.00585375	0.01704564	0.00852272	0.00394311	0.00812621	0.00644829	0.01536455	0.00949004	0.00204746	0.00313093	0.00020359
1.75000000	0.00663113	0.01567850	0.00530562	0.01089156	0.00806261	0.00876602	0.01312090	0.00728903	0.00321831	0.00233630	0.00182421	0.01085255	0.02856999	0.01813469	0.01192911	0.01290931	0.00577490	0.01738757	0.00862759	0.00417380	0.00821160	0.00652624	0.01543356	0.00953991	0.00193922	0.00322278	0.00017524
1.76000000	0.00663011	0.01594419	0.00530230	0.01102740	0.00814189	0.00860584	0.01326744	0.00748505	0.00357059	0.00244802	0.00158934	0.01075324	0.02806423	0.01821083	0.01189503	0.01309846	0.00587978	0.01760346	0.00873660	0.00430140	0.00816416	0.00658624	0.01558810	0.00965958	0.00205099	0.00327015	0.00023389
1.77000000	0.00659920	0.01614367	0.00526987	0.01118760	0.00821153	0.00844271	0.01347689	0.00758860	0.00386808	0.00251311	0.00147412	0.01062890	0.02771792	0.01806068	0.01178762	0.01321551	0.00593407	0.01779286	0.00899422	0.00447909	0.00812225	0.00667708	0.01571237	0.00969932	0.00216171	0.00325702	0.00028102
1.78000000	0.00657489	0.01599853	0.00518169	0.01145324	0.00829698	0.00844771	0.01359013	0.00754886	0.00406641	0.00234744	0.00149086	0.01050958	0.02762985	0.01771675	0.01168697	0.01331622	0.00595308	0.01791642	0.00922726	0.00464561	0.00811070	0.00673198	0.01577776	0.00970224	0.00222744	0.00332727	0.00015734
1.79000000	0.00686883	0.01600183	0.00530629	0.01170309	0.00848840	0.00824238	0.01396916	0.00740968	0.00418812	0.00224311	0.00168367	0.01036356	0.02664222	0.01784749	0.01183737	0.01403273	0.00589276	0.01797889	0.00945431	0.00484495	0.00800193	0.00680601	0.01583226	0.00966176	0.00240053	0.00324097	0.00044298
1.80000000	0.00633094	0.01613808	0.00488980	0.01173837	0.00829026	0.00831459	0.01387613	0.00768363	0.00468489	0.00245568	0.00132444	0.01045589	0.02673205	0.01721327	0.01143001	0.01354496	0.00597074	0.01812802	0.00971932	0.00497937	0.00810425	0.00682814	0.01621195	0.00981204	0.00254843	0.00343935	0.00018566
1.81000000	0.00669042	0.01600714	0.00499958	0.01208288	0.00851879	0.00827057	0.01420728	0.00749043	0.00473395	0.00223074	0.00198865	0.01036328	0.02573028	0.01723574	0.01162542	0.01442527	0.00579008	0.01808562	0.00996176	0.00514973	0.00797257	0.00683239	0.01622699	0.00971462	0.00280034	0.00338655	0.00039559
1.82000000	0.00601162	0.01606518	0.00446391	0.01217846	0.00827601	0.00845443	0.01407453	0.00772722	0.00518183	0.00250948	0.00146332	0.01058209	0.02578749	0.01662187	0.01121686	0.01380872	0.00599716	0.01817703	0.01036539	0.00525396	0.00808111	0.00678636	0.01663343	0.00984178	0.00301320	0.00355521	0.00006917
1.83000000	0.00585255	0.01587793	0.00421138	0.01259044	0.00834186	0.00868532	0.01412395	0.00765942	0.00530074	0.00248940	0.00150509	0.01064075	0.02550815	0.01623356	0.01107677	0.01384970	0.00607646	0.01811651	0.01073697	0.00537250	0.00805576	0.00670067	0.01683943	0.00982501	0.00327592	0.00350493	0.00015461
1.84000000	0.00606848	0.01559106	0.00412236	0.01314975	0.00857285	0.00878590	0.01430504	0.00747974	0.00531342	0.00242909	0.00204743	0.01066788	0.02451998	0.01629660	0.01128497	0.01470578	0.00584758	0.01800055	0.01108318	0.00548128	0.00796822	0.00656675	0.01692405	0.00969446	0.00361275	0.00351517	0.00037656
1.85000000	0.00534639	0.01557751	0.00353442	0.01367022	0.00849573	0.00902542	0.01422014	0.00757219	0.00563900	0.00257244	0.00174799	0.01093441	0.02470076	0.01572021	0.01086309	0.01402966	0.00608221	0.01790233	0.01150035	0.00548006	0.00803531	0.00633604	0.01735131	0.00976360	0.00390011	0.00359426	0.00036226
1.86000000	0.00546305	0.01521360	0.00329011	0.01448803	0.00877427	0.00923576	0.01431106	0.00737855	0.00560373	0.00256179	0.00215929	0.01098188	0.02376170	0.01588937	0.01104656	0.01469393	0.00600192	0.01778340	0.01182515	0.00559932	0.00804161	0.00612539	0.01751757	0.00960556	0.00420237	0.00360943	0.00047563
1.87000000	0.00488093	0.01509251	0.00278978	0.01546978	0.00894953	0.00951539	0.01427930	0.00737565	0.00579881	0.00252469	0.00193014	0.01115185	0.02412279	0.01528442	0.01062518	0.01397709	0.00616653	0.01756753	0.01223510	0.00551677	0.00803835	0.00576380	0.01786062	0.00959804	0.00455393	0.00352631	0.00066916
1.88000000	0.00484646	0.01474437	0.00248073	0.01659729	0.00930154	0.00978798	0.01429044	0.00722725	0.00579290	0.00257704	0.00223723	0.01124841	0.02314204	0.01563208	0.01077023	0.01433521	0.00633391	0.01738440	0.01252734	0.00555906	0.00812407	0.00548281	0.01810697	0.00944295	0.00478219	0.00359795	0.00079358
1.89000000	0.00470254	0.01453881	0.00231478	0.01791359	0.00972186	0.01003906	0.01430256	0.00712820	0.00585016	0.00273267	0.00241762	0.01130423	0.02234876	0.01587099	0.01077373	0.01430559	0.00665247	0.01720230	0.01287892	0.00553787	0.00817729	0.00516723	0.01830791	0.00927269	0.00508566	0.00361157	0.00113577
1.90000000	0.00410566	0.01400654	0.00209305	0.01941874	0.01008558	0.01030294	0.01440667	0.00700427	0.00587259	0.00246108	0.00221235	0.01128653	0.02316182	0.01504065	0.01038936	0.01387717	0.00574736	0.01668882	0.01316944	0.00524513	0.00818282	0.00467076	0.01872791	0.00926742	0.00535964	0.00335414	0.00094238
1.91000000	0.00400041	0.01387047	0.00246756	0.02080011	0.01048503	0.01062954	0.01441999	0.00696442	0.00594726	0.00251858	0.00229490	0.01120797	0.02212433	0.01546905	0.01037425	0.01345724	0.00660055	0.01649709	0.01338477	0.00519199	0.00836228	0.00449259	0.01903666	0.00911288	0.00551685	0.00343753	0.00124671
1.92000000	0.00387386	0.01308658	0.00279131	0.02243019	0.01098493	0.01066680	0.01471194	0.00667435	0.00591568	0.00248483	0.00236537	0.01081077	0.02216724	0.01484894	0.01031204	0.01353878	0.00582801	0.01608977	0.01369881	0.00499578	0.00841402	0.00425475	0.01924656	0.00891475	0.00579188	0.00323250	0.00120406
1.93000000	0.00381504	0.01331277	0.00364561	0.02367441	0.01133538	0.01105285	0.01475394	0.00679910	0.00608074	0.00245424	0.00237179	0.01061125	0.02104611	0.01519529	0.01015517	0.01261812	0.00692000	0.01581367	0.01383173	0.00490688	0.00859933	0.00428198	0.01954652	0.00869844	0.00589319	0.00325975	0.00165995
1.94000000	0.00405002	0.01338735	0.00451271	0.02476171	0.01156487	0.01112575	0.01511877	0.00667758	0.00600918	0.00232766	0.00253784	0.01016672	0.02107482	0.01449797	0.00993323	0.01279653	0.00521206	0.01515656	0.01408715	0.00463564	0.00851081	0.00415600	0.01965506	0.00830255	0.00627813	0.00301126	0.00184084
1.95000000	0.00448437	0.01278146	0.00500636	0.02571948	0.01180013	0.01119246	0.01544130	0.00653896	0.00609022	0.00229717	0.00263349	0.00938829	0.02048803	0.01385601	0.00989329	0.01249381	0.00546935	0.01472028	0.01417275	0.00442757	0.00863964	0.00435756	0.01986147	0.00814336	0.00637117	0.00294478	0.00203960
1.96000000	0.00489887	0.01320007	0.00577875	0.02603287	0.01176627	0.01127855	0.01592720	0.00659843	0.00620890	0.00249579	0.00268260	0.00891382	0.01975745	0.01345094	0.00957362	0.01194894	0.00503651	0.01421550	0.01420353	0.00430497	0.00866449	0.00457181	0.01994901	0.00776029	0.00655686	0.00280990	0.00235776
1.97000000	0.00559526	0.01297646	0.00622799	0.02599425	0.01161586	0.01132279	0.01650546	0.00658019	0.00632327	0.00280743	0.00282342	0.00833335	0.01913347	0.01275595	0.00936305	0.01152671	0.00483584	0.01366738	0.01421189	0.00415290	0.00869129	0.00478088	0.02001014	0.00745563	0.00664986	0.00265940	0.00254921
1.98000000	0.00625804	0.01290943	0.00649853	0.02550827	0.01136195	0.01125052	0.01724648	0.00669718	0.00648013	0.00296761	0.00305336	0.00737394	0.01812144	0.01186523	0.00924839	0.01121472	0.00508657	0.01320898	0.01406319	0.00401511	0.00871864	0.00495428	0.02000400	0.00722172	0.00663449	0.00259324	0.00286799
1.99000000	0.00706104	0.01295577	0.00673060	0.02423673	0.01076295	0.01110891	0.01815984	0.00691555	0.00664715	0.00356238	0.00328692	0.00711347	0.01764734	0.01113305	0.00887647	0.01061412	0.00479246	0.01267630	0.01394419	0.00388343	0.00863558	0.00504337	0.01989597	0.00687660	0.00674506	0.00247540	0.00312621
2.00000000	0.00802901	0.01238150	0.00662746	0.02267816	0.01014163	0.01095202	0.01922440	0.00714259	0.00677792	0.00401849	0.00370313	0.00678914	0.01713335	0.01027528	0.00865438	0.01032548	0.00471971	0.01217838	0.01370911	0.00375106	0.00858139	0.00501807	0.01973539	0.00662458	0.00663927	0.00236349	0.00329423
2.01000000	0.00880023	0.01238830	0.00653655	0.02049296	0.00930425	0.01058021	0.02039936	0.00771210	0.00710092	0.00517053	0.00392437	0.00695921	0.01680931	0.00950458	0.00830778	0.00966706	0.00452424	0.01173487	0.01333980	0.00369346	0.00847477	0.00495081	0.01953364	0.00626440	0.00661650	0.00234876	0.00342348
2.02000000	0.00996137	0.01153010	0.00602814	0.01831567	0.00855787	0.01023726	0.02187509	0.00815780	0.00708430	0.00560990	0.00459504	0.00682276	0.01636220	0.00890785	0.00814074	0.00980097	0.00438241	0.01131183	0.01303570	0.00352709	0.00830325	0.00462727	0.01914257	0.00608359	0.00644686	0.00211426	0.00352479
2.03000000	0.01028563	0.01173131	0.00573889	0.01558626	0.00755888	0.00942266	0.02347236	0.00904632	0.00752373	0.00681616	0.00528960	0.00726387	0.01637521	0.00808511	0.00766710	0.00892963	0.00435958	0.01110853	0.01285330	0.00337112	0.00818266	0.00433239	0.01874418	0.00585072	0.00634320	0.00204572	0.00359597
2.04000000	0.01140020	0.01099203	0.00501690	0.01341290	0.00691459	0.00910587	0.02525530	0.00996503	0.00731583	0.00771548	0.00547346	0.00673287	0.01577079	0.00798999	0.00777554	0.00942839	0.00447995	0.01066466	0.01213008	0.00318462	0.00793545	0.00384926	0.01837806	0.00567467	0.00612384	0.00198875	0.00359317
2.05000000	0.01224692	0.01073348	0.00455723	0.01114857	0.00623460	0.00823773	0.02700038	0.01102334	0.00742614	0.00894480	0.00582240	0.00715178	0.01576235	0.00773221	0.00751515	0.00905479	0.00455061	0.01047738	0.01164267	0.00302487	0.00774199	0.00337992	0.01783286	0.00542904	0.00589054	0.00185498	0.00350978
2.06000000	0.01298292	0.01046320	0.00417834	0.00918190	0.00563504	0.00753247	0.02876134	0.01234791	0.00745242	0.01003917	0.00613853	0.00732605	0.01569027	0.00769971	0.00729768	0.00905487	0.00442569	0.01027444	0.01102207	0.00279859	0.00758250	0.00292472	0.01738509	0.00524840	0.00559415	0.00174286	0.00338553
2.07000000	0.01272429	0.01072695	0.00398043	0.00742830	0.00507024	0.00652131	0.03079150	0.01347412	0.00770529	0.01101527	0.00739404	0.00757374	0.01597921	0.00713878	0.00690250	0.00859582	0.00399864	0.01036175	0.01051773	0.00256564	0.00761565	0.00260086	0.01703145	0.00510376	0.00522245	0.00176729	0.00320036
2.08000000	0.01351451	0.01038121	0.00373009	0.00660871	0.00477631	0.00730835	0.03220245	0.01586701	0.00715725	0.01166491	0.00609109	0.00730963	0.01568604	0.00759106	0.00682204	0.00893416	0.00426428	0.00989675	0.00965348	0.00231808	0.00732166	0.00208270	0.01664275	0.00481585	0.00493594	0.00155016	0.00313130
2.09000000	0.01358833	0.01037335	0.00375069	0.00598863	0.00456132	0.00741356	0.03383934	0.01761906	0.00695467	0.01229456	0.00572392	0.00722676	0.01562292	0.00766118	0.00664746	0.00882553	0.00421020	0.00975862	0.00899692	0.00208303	0.00723012	0.00169803	0.01623903	0.00455620	0.00461389	0.00138875	0.00293845
2.10000000	0.01318704	0.01032243	0.00395977	0.00550974	0.00441608	0.00742836	0.03576071	0.01848193	0.00692745	0.01287649	0.00649121	0.00741156	0.01588034	0.00722691	0.00637727	0.00839495	0.00396782	0.00994034	0.00823998	0.00182122	0.00736087	0.00150822	0.01592394	0.00436704	0.00420660	0.00136486	0.00265151
2.11000000	0.01339907	0.01008189	0.00389307	0.00547138	0.00431598	0.00865229	0.03656976	0.02122620	0.00651763	0.01290140	0.00502189	0.00718269	0.01555958	0.00772656	0.00627110	0.00848799	0.00415486	0.00947459	0.00759182	0.00174038	0.00718738	0.00114713	0.01559499	0.00394134	0.00395199	0.00101819	0.00256530
2.12000000	0.01317315	0.00965926	0.00401577	0.00534456	0.00428406	0.00967641	0.03769979	0.02288860	0.00635567	0.01290665	0.00498982	0.00707959	0.01552745	0.00777669	0.00610618	0.00837758	0.00406274	0.00932922	0.00691669	0.00167359	0.00725202	0.00096447	0.01534085	0.00360322	0.00362541	0.00081919	0.00236243
2.13000000	0.01289679	0.00924822	0.00411907	0.00529359	0.00432963	0.01077657	0.03862497	0.02452833	0.00625461	0.01275895	0.00530870	0.00717034	0.01542255	0.00783958	0.00598434	0.00819840	0.00395540	0.00913149	0.00621292	0.00169659	0.00733563	0.00087432	0.01511514	0.00320796	0.00329806	0.00059533	0.00219473
2.14000000	0.01251594	0.00872450	0.00417464	0.00523666	0.00438148	0.01195055	0.03939178	0.02607301	0.00625363	0.01249020	0.00591298	0.00724391	0.01537971	0.00782616	0.00595517	0.00793524	0.00391236	0.00893365	0.00557324	0.00181194	0.00746907	0.00084484	0.01493173	0.00280438	0.00302073	0.00034640	0.00199782
2.15000000	0.01214291	0.00810707	0.00421218	0.00521397	0.00445644	0.01309815	0.04003403	0.02744049	0.00633867	0.01219787	0.00669986	0.00739394	0.01528373	0.00785785	0.00587298	0.00776959	0.00389029	0.00866626	0.00493646	0.00198411	0.00762065	0.00087560	0.01481637	0.00237789	0.00274108	0.00013498	0.00186503
2.16000000	0.01179358	0.00729624	0.00446372	0.00529351	0.00468060	0.01416917	0.04094719	0.02802481	0.00655420	0.01197822	0.00767617	0.00774035	0.01524383	0.00788113	0.00583344	0.00737800	0.00408595	0.00848036	0.00431764	0.00210278	0.00783915	0.00093774	0.01466910	0.00195564	0.00246644	0.00014606	0.00158108
2.17000000	0.01144425	0.00680000	0.00427256	0.00526480	0.00464124	0.01511657	0.04091403	0.02980156	0.00673751	0.01171502	0.00815399	0.00783305	0.01512236	0.00789616	0.00590863	0.00741564	0.00381225	0.00811810	0.00379962	0.00237200	0.00799198	0.00101970	0.01466214	0.00154078	0.00222791	0.00041924	0.00161916
2.18000000	0.01015718	0.00595055	0.00443399	0.00508281	0.00469830	0.01622209	0.04189333	0.03016408	0.00695655	0.01170873	0.00859857	0.00839830	0.01515967	0.00764777	0.00608031	0.00723530	0.00349844	0.00808807	0.00363178	0.00271118	0.00835327	0.00091082	0.01469379	0.00124425	0.00205222	0.00070008	0.00166566
2.19000000	0.01093586	0.00562596	0.00435135	0.00538626	0.00482022	0.01661153	0.04144572	0.03156016	0.00722340	0.01152204	0.00898737	0.00841573	0.01500958	0.00791265	0.00600877	0.00719230	0.00370895	0.00751780	0.00289801	0.00275314	0.00837530	0.00115098	0.01458256	0.00080527	0.00175025	0.00095575	0.00138460
2.20000000	0.01036582	0.00510978	0.00447348	0.00540069	0.00491470	0.01723603	0.04189744	0.03188700	0.00743609	0.01147746	0.00918784	0.00887142	0.01504836	0.00782651	0.00606584	0.00687033	0.00379949	0.00736875	0.00259088	0.00288871	0.00859206	0.00113927	0.01457025	0.00062797	0.00157897	0.00120085	0.00119235
2.21000000	0.01006997	0.00477442	0.00456887	0.00546331	0.00500690	0.01766946	0.04213323	0.03225707	0.00763036	0.01145137	0.00916620	0.00925584	0.01512231	0.00766940	0.00608839	0.00672235	0.00375823	0.00711202	0.00229812	0.00304900	0.00876774	0.00119212	0.01455123	0.00069085	0.00144740	0.00144359	0.00108140
2.22000000	0.01005211	0.00453178	0.00459785	0.00546834	0.00502924	0.01798490	0.04214628	0.03259734	0.00771984	0.01149912	0.00905549	0.00949389	0.01505099	0.00781800	0.00608257	0.00666638	0.00380401	0.00684237	0.00207738	0.00317063	0.00888571	0.00120545	0.01452591	0.00084174	0.00124868	0.00170239	0.00096873
2.23000000	0.01003768	0.00440450	0.00462691	0.00546494	0.00504412	0.01825604	0.04203414	0.03282384	0.00781152	0.01157039	0.00884465	0.00966202	0.01510407	0.00778994	0.00617723	0.00660067	0.00373035	0.00659019	0.00196022	0.00330819	0.00897491	0.00121345	0.01447679	0.00099444	0.00104515	0.00197571	0.00094200
2.24000000	0.00975384	0.00440508	0.00454035	0.00534126	0.00493794	0.01846032	0.04206676	0.03269735	0.00799070	0.01169191	0.00835088	0.00986752	0.01515178	0.00767124	0.00611983	0.00664776	0.00367228	0.00636300	0.00180042	0.00347091	0.00916192	0.00121320	0.01456311	0.00137001	0.00086287	0.00211372	0.00083883
2.25000000	0.00988679	0.00458287	0.00458406	0.00540122	0.00498832	0.01855015	0.04197938	0.03244113	0.00795348	0.01157210	0.00820580	0.00996085	0.01517657	0.00770441	0.00605862	0.00654386	0.00375680	0.00607624	0.00173017	0.00358869	0.00917394	0.00120618	0.01446017	0.00157337	0.00070014	0.00239767	0.00058950
2.26000000	0.01007645	0.00467595	0.00453951	0.00536639	0.00494763	0.01869657	0.04177126	0.03208939	0.00800334	0.01138638	0.00806858	0.00994452	0.01516687	0.00781971	0.00596278	0.00651102	0.00386880	0.00581550	0.00171664	0.00367819	0.00918735	0.00120635	0.01440424	0.00178527	0.00048477	0.00261052	0.00026450
2.27000000	0.01031406	0.00488537	0.00461365	0.00545394	0.00502769	0.01878665	0.04162936	0.03147862	0.00802055	0.01125564	0.00775472	0.00998388	0.01517020	0.00786371	0.00593928	0.00652723	0.00377109	0.00554750	0.00181938	0.00374207	0.00912945	0.00121379	0.01427991	0.00206062	0.00056972	0.00279625	0.00023784
2.28000000	0.01046451	0.00500032	0.00465460	0.00548876	0.00506473	0.01890495	0.04155569	0.03073284	0.00816879	0.01104226	0.00720171	0.00991175	0.01510686	0.00795684	0.00589269	0.00672072	0.00376209	0.00531419	0.00184938	0.00386524	0.00912056	0.00117987	0.01417335	0.00230897	0.00091348	0.00299407	0.00030597
2.29000000	0.01086188	0.00512292	0.00464091	0.00556031	0.00509650	0.01894323	0.04139536	0.02970055	0.00806350	0.01085363	0.00752068	0.00968971	0.01503882	0.00819425	0.00580650	0.00676637	0.00388205	0.00505308	0.00216026	0.00397547	0.00918574	0.00128879	0.01415758	0.00230107	0.00094013	0.00304701	0.00067080
2.30000000	0.01099390	0.00523664	0.00463254	0.00558866	0.00510698	0.01899206	0.04126323	0.02879670	0.00842474	0.01083412	0.00691657	0.00949959	0.01505580	0.00814798	0.00577736	0.00710776	0.00382868	0.00478428	0.00225056	0.00414355	0.00924540	0.00129810	0.01411148	0.00265941	0.00147390	0.00309540	0.00101163
2.31000000	0.01121127	0.00545565	0.00485133	0.00576431	0.00530201	0.01907787	0.04111986	0.02781773	0.00840188	0.01051538	0.00713798	0.00968057	0.01510963	0.00825872	0.00555138	0.00639614	0.00386682	0.00455648	0.00270249	0.00424110	0.00910805	0.00129863	0.01392477	0.00280243	0.00162908	0.00325043	0.00122463
2.32000000	0.01159910	0.00552653	0.00494951	0.00591988	0.00543068	0.01909561	0.04096839	0.02691068	0.00867707	0.01039428	0.00666515	0.00954951	0.01512338	0.00817925	0.00552949	0.00675651	0.00374975	0.00434021	0.00311420	0.00433797	0.00906862	0.00137907	0.01381082	0.00314871	0.00203682	0.00328974	0.00148002
2.33000000	0.01189715	0.00569608	0.00509734	0.00612486	0.00560727	0.01915861	0.04080704	0.02605794	0.00880605	0.01024637	0.00644642	0.00960999	0.01495808	0.00839315	0.00542068	0.00675553	0.00366243	0.00411215	0.00342515	0.00443886	0.00899481	0.00136988	0.01364800	0.00335417	0.00234625	0.00354567	0.00185532
2.34000000	0.01178047	0.00558809	0.00554820	0.00640782	0.00597225	0.01896730	0.04090333	0.02461906	0.00889954	0.00993656	0.00643779	0.00955315	0.01501019	0.00846058	0.00521913	0.00626637	0.00372302	0.00393831	0.00392417	0.00459771	0.00917063	0.00156627	0.01378233	0.00329676	0.00270194	0.00341207	0.00218409
2.35000000	0.01199579	0.00557037	0.00567476	0.00652990	0.00609723	0.01907388	0.04057415	0.02393607	0.00891055	0.00984619	0.00623826	0.00955622	0.01497690	0.00853522	0.00508188	0.00603240	0.00376366	0.00369104	0.00437087	0.00474574	0.00920104	0.00166494	0.01377601	0.00347442	0.00301995	0.00347834	0.00250248
2.36000000	0.01259143	0.00561389	0.00581768	0.00670594	0.00625578	0.01907699	0.03997705	0.02344844	0.00899557	0.01004484	0.00611238	0.00934348	0.01506842	0.00845797	0.00506323	0.00629255	0.00366180	0.00334157	0.00503205	0.00484214	0.00912772	0.00183152	0.01369411	0.00391626	0.00324557	0.00347370	0.00288148
2.37000000	0.01244039	0.00579052	0.00588119	0.00680543	0.00633945	0.01922855	0.03959188	0.02299202	0.00889564	0.00976676	0.00571797	0.00961740	0.01483824	0.00883026	0.00480704	0.00558724	0.00363601	0.00313944	0.00532805	0.00501448	0.00914836	0.00185816	0.01370844	0.00402902	0.00359748	0.00355503	0.00299482
2.38000000	0.01255069	0.00580996	0.00641627	0.00719325	0.00680134	0.01885992	0.03934240	0.02153953	0.00888015	0.00954752	0.00537347	0.00950313	0.01481867	0.00881740	0.00472308	0.00558158	0.00355433	0.00292827	0.00577609	0.00511405	0.00931120	0.00208522	0.01386272	0.00405691	0.00399424	0.00361639	0.00337116
2.39000000	0.01286576	0.00591817	0.00632656	0.00719111	0.00675422	0.01894921	0.03841190	0.02131130	0.00865591	0.00953593	0.00519879	0.00944762	0.01464745	0.00904031	0.00459812	0.00559714	0.00353826	0.00261421	0.00615942	0.00519411	0.00928720	0.00217368	0.01387319	0.00435862	0.00425224	0.00376026	0.00372631
2.40000000	0.01280074	0.00617177	0.00643994	0.00733596	0.00688549	0.01894425	0.03767847	0.02061601	0.00831766	0.00923628	0.00459060	0.00957027	0.01479799	0.00894148	0.00446556	0.00501622	0.00343307	0.00229966	0.00647425	0.00528187	0.00922979	0.00225203	0.01388630	0.00456169	0.00455612	0.00383558	0.00379189
2.41000000	0.01312510	0.00627687	0.00685590	0.00760063	0.00722518	0.01839275	0.03669387	0.01891182	0.00830906	0.00906820	0.00457641	0.00943860	0.01468481	0.00909826	0.00445648	0.00504333	0.00341980	0.00212828	0.00694978	0.00543280	0.00943665	0.00257032	0.01411686	0.00455150	0.00489270	0.00373787	0.00416018
2.42000000	0.01299676	0.00655746	0.00677202	0.00760587	0.00718636	0.01826633	0.03555759	0.01793533	0.00795410	0.00884921	0.00421065	0.00949042	0.01468385	0.00908878	0.00432567	0.00479186	0.00340640	0.00181979	0.00719839	0.00550993	0.00947809	0.00270174	0.01427554	0.00472478	0.00521913	0.00374476	0.00436396
2.43000000	0.01339667	0.00651753	0.00637209	0.00734283	0.00684517	0.01841987	0.03405888	0.01747994	0.00753772	0.00847323	0.00443232	0.00936734	0.01444519	0.00940173	0.00422455	0.00499975	0.00333173	0.00158508	0.00736583	0.00553859	0.00945273	0.00279280	0.01440356	0.00490716	0.00535274	0.00392750	0.00475857
2.44000000	0.01319905	0.00678550	0.00671956	0.00754345	0.00712615	0.01780177	0.03279414	0.01510687	0.00752910	0.00841468	0.00406732	0.00946681	0.01459167	0.00923681	0.00421729	0.00460359	0.00327739	0.00148535	0.00766811	0.00570626	0.00954192	0.00304930	0.01459366	0.00486705	0.00567934	0.00376988	0.00483780
2.45000000	0.01338798	0.00698776	0.00655512	0.00748133	0.00700809	0.01759605	0.03123457	0.01361192	0.00737200	0.00838319	0.00394616	0.00952287	0.01459081	0.00927782	0.00417467	0.00436890	0.00323648	0.00143272	0.00777838	0.00573732	0.00950372	0.00319347	0.01470646	0.00501653	0.00598833	0.00376670	0.00500024
2.46000000	0.01359144	0.00690038	0.00641094	0.00732523	0.00685204	0.01758884	0.02955411	0.01206237	0.00729698	0.00839970	0.00421040	0.00944830	0.01458583	0.00932821	0.00408831	0.00436287	0.00323876	0.00158422	0.00785268	0.00578186	0.00950912	0.00337631	0.01489293	0.00503498	0.00618051	0.00380690	0.00528927
2.47000000	0.01360751	0.00700308	0.00608166	0.00716893	0.00660207	0.01789784	0.02799691	0.01072297	0.00719791	0.00847841	0.00419862	0.00948212	0.01454718	0.00935642	0.00404069	0.00423850	0.00322291	0.00180694	0.00781810	0.00579140	0.00946971	0.00354374	0.01508066	0.00514744	0.00644640	0.00380398	0.00544087
2.48000000	0.01376872	0.00694841	0.00584949	0.00703529	0.00640980	0.01832842	0.02641218	0.00942433	0.00713748	0.00860423	0.00443889	0.00946200	0.01455690	0.00936153	0.00396031	0.00420875	0.00325416	0.00217587	0.00774905	0.00580306	0.00941817	0.00375060	0.01524519	0.00520126	0.00661049	0.00379425	0.00565966
2.49000000	0.01391467	0.00691946	0.00552722	0.00691537	0.00617519	0.01898665	0.02498850	0.00838861	0.00702924	0.00863607	0.00471917	0.00947769	0.01448199	0.00941495	0.00391566	0.00427164	0.00310375	0.00254077	0.00761584	0.00581510	0.00935892	0.00397324	0.01543821	0.00523830	0.00675205	0.00381861	0.00583817
2.50000000	0.01417999	0.00664792	0.00496301	0.00669567	0.00576204	0.02026387	0.02390037	0.00780149	0.00673340	0.00812897	0.00509677	0.00933185	0.01435293	0.00959424	0.00374035	0.00452081	0.00301274	0.00287460	0.00735224	0.00578543	0.00929171	0.00425179	0.01567855	0.00525934	0.00675995	0.00392866	0.00612239
2.51000000	0.01422115	0.00650987	0.00450188	0.00659188	0.00547002	0.02127367	0.02311880	0.00735626	0.00641454	0.00776595	0.00520388	0.00921451	0.01427711	0.00966288	0.00361153	0.00461646	0.00300877	0.00324566	0.00703689	0.00576323	0.00920866	0.00453756	0.01591148	0.00536613	0.00686002	0.00397144	0.00627300
2.52000000	0.01372204	0.00682438	0.00414992	0.00658876	0.00529860	0.02178471	0.02219486	0.00719733	0.00626682	0.00803581	0.00483398	0.00925400	0.01434236	0.00947064	0.00366366	0.00435737	0.00317587	0.00374709	0.00669811	0.00580567	0.00916912	0.00486715	0.01615354	0.00543759	0.00701799	0.00378946	0.00626319
2.53000000	0.01380663	0.00673306	0.00376582	0.00658851	0.00509824	0.02237177	0.02161635	0.00717230	0.00584351	0.00742111	0.00491316	0.00907125	0.01426087	0.00954935	0.00353602	0.00455839	0.00308636	0.00411534	0.00635871	0.00580688	0.00910135	0.00521559	0.01639121	0.00550330	0.00692376	0.00381146	0.00647802
2.54000000	0.01367259	0.00708655	0.00345244	0.00673208	0.00500142	0.02266501	0.02067212	0.00730126	0.00563639	0.00726758	0.00491975	0.00874802	0.01411401	0.00961811	0.00351999	0.00507074	0.00309862	0.00440376	0.00619435	0.00584149	0.00907658	0.00559851	0.01664392	0.00579791	0.00658343	0.00357112	0.00685128
2.55000000	0.01328045	0.00677500	0.00326903	0.00661584	0.00487059	0.02226460	0.02089322	0.00758363	0.00497730	0.00653732	0.00443928	0.00879391	0.01415560	0.00953198	0.00345565	0.00440169	0.00322086	0.00480432	0.00548932	0.00582750	0.00898073	0.00588108	0.01690249	0.00571408	0.00698743	0.00373645	0.00651589
2.56000000	0.01296672	0.00673574	0.00314736	0.00661895	0.00481289	0.02154820	0.02063141	0.00795900	0.00455971	0.00605271	0.00425203	0.00859347	0.01409475	0.00954296	0.00337548	0.00436050	0.00322044	0.00510938	0.00508708	0.00582670	0.00892153	0.00617908	0.01714240	0.00585593	0.00689696	0.00373991	0.00659541
2.57000000	0.01268576	0.00678617	0.00310282	0.00665468	0.00480586	0.02033785	0.02038098	0.00834649	0.00419753	0.00578265	0.00401844	0.00834757	0.01407244	0.00954659	0.00331467	0.00445289	0.00306162	0.00541819	0.00483997	0.00593430	0.00888861	0.00644038	0.01736062	0.00599981	0.00660442	0.00361787	0.00663984
2.58000000	0.01218719	0.00678672	0.00311174	0.00658785	0.00477846	0.01907156	0.01990927	0.00887750	0.00406939	0.00584577	0.00369418	0.00819314	0.01406517	0.00951191	0.00326869	0.00420052	0.00300096	0.00558533	0.00442851	0.00587043	0.00889051	0.00669713	0.01763512	0.00608535	0.00656865	0.00362115	0.00665735
2.59000000	0.01225409	0.00674724	0.00320087	0.00678808	0.00492158	0.01699192	0.02043399	0.00902222	0.00347284	0.00511673	0.00354683	0.00767973	0.01379130	0.00976464	0.00335860	0.00485484	0.00299136	0.00555506	0.00434340	0.00588909	0.00882614	0.00677353	0.01782684	0.00652732	0.00614689	0.00365480	0.00694262
2.60000000	0.01140253	0.00674562	0.00328477	0.00650864	0.00482093	0.01576005	0.01941645	0.00956604	0.00392205	0.00604659	0.00337723	0.00774700	0.01398524	0.00956438	0.00317799	0.00409992	0.00290424	0.00578840	0.00394764	0.00578547	0.00895969	0.00701764	0.01817387	0.00637591	0.00626449	0.00356458	0.00674890
2.61000000	0.01110040	0.00664710	0.00359777	0.00652697	0.00497005	0.01404601	0.01934729	0.00952199	0.00383000	0.00593015	0.00365742	0.00747521	0.01406514	0.00949881	0.00318795	0.00381941	0.00315083	0.00585040	0.00374772	0.00567852	0.00900773	0.00705087	0.01839994	0.00639062	0.00636930	0.00376297	0.00653016
2.62000000	0.01089318	0.00642123	0.00377235	0.00644617	0.00500672	0.01275839	0.01934266	0.00971013	0.00392847	0.00603539	0.00374588	0.00729243	0.01396191	0.00970942	0.00329829	0.00405892	0.00281586	0.00589833	0.00360274	0.00570257	0.00910014	0.00707058	0.01873275	0.00648485	0.00604604	0.00364452	0.00667387
2.63000000	0.01058004	0.00648449	0.00404717	0.00641175	0.00512551	0.01149323	0.01904109	0.00953040	0.00436371	0.00673061	0.00375959	0.00717923	0.01406347	0.00968432	0.00312643	0.00375560	0.00293504	0.00586521	0.00350322	0.00549364	0.00921013	0.00705579	0.01899614	0.00663849	0.00614257	0.00381531	0.00663488
2.64000000	0.01022178	0.00619621	0.00441933	0.00630493	0.00525428	0.01079271	0.01939113	0.00924906	0.00444099	0.00671122	0.00390801	0.00718598	0.01423527	0.00960637	0.00307366	0.00352693	0.00303104	0.00582397	0.00345564	0.00548843	0.00932427	0.00702087	0.01931152	0.00669836	0.00614643	0.00383725	0.00643959
2.65000000	0.01030994	0.00632135	0.00474024	0.00639285	0.00545403	0.00994387	0.01932105	0.00895807	0.00480449	0.00717107	0.00407570	0.00709569	0.01438989	0.00962551	0.00308231	0.00358059	0.00304945	0.00573972	0.00349170	0.00533946	0.00942034	0.00688967	0.01951138	0.00682723	0.00612133	0.00410519	0.00648720
2.66000000	0.01047911	0.00625372	0.00498582	0.00635855	0.00554846	0.00937315	0.01950699	0.00866606	0.00499967	0.00728554	0.00451323	0.00709604	0.01447350	0.00981532	0.00320419	0.00386992	0.00293707	0.00557424	0.00360026	0.00530602	0.00959148	0.00678246	0.01982236	0.00685118	0.00606634	0.00412339	0.00645054
2.67000000	0.01076543	0.00636147	0.00531948	0.00642956	0.00574815	0.00894320	0.01960803	0.00840729	0.00521774	0.00747974	0.00484325	0.00713002	0.01466594	0.00991628	0.00341150	0.00414164	0.00291806	0.00535839	0.00376304	0.00518976	0.00973765	0.00662842	0.02003133	0.00684848	0.00613522	0.00442380	0.00639391
2.68000000	0.01070973	0.00673228	0.00552956	0.00652479	0.00592132	0.00846186	0.01972726	0.00817332	0.00571459	0.00837269	0.00465629	0.00717513	0.01509994	0.00972644	0.00351180	0.00428958	0.00319209	0.00530140	0.00394120	0.00515649	0.00982137	0.00645817	0.02014329	0.00708893	0.00607353	0.00437632	0.00637915
2.69000000	0.01114385	0.00687467	0.00579204	0.00657622	0.00608166	0.00825684	0.02000598	0.00802700	0.00571589	0.00829222	0.00486566	0.00731233	0.01532393	0.00996046	0.00381686	0.00463913	0.00342217	0.00510261	0.00409126	0.00504411	0.00997784	0.00624287	0.02032625	0.00691628	0.00628459	0.00484904	0.00628244
2.70000000	0.01094488	0.00730336	0.00572923	0.00653225	0.00605981	0.00821289	0.02040767	0.00816941	0.00602844	0.00870649	0.00486323	0.00742144	0.01578956	0.00985174	0.00415231	0.00515297	0.00330572	0.00492859	0.00430848	0.00504638	0.01005897	0.00613423	0.02044097	0.00725760	0.00598047	0.00474639	0.00647885
2.71000000	0.01111311	0.00770017	0.00578438	0.00656099	0.00611617	0.00817074	0.02070762	0.00821740	0.00609287	0.00881823	0.00488294	0.00757000	0.01625638	0.00995258	0.00460117	0.00566401	0.00352293	0.00489037	0.00457571	0.00506541	0.01018856	0.00595416	0.02050967	0.00717495	0.00610180	0.00496382	0.00628377
2.72000000	0.01085237	0.00821779	0.00556271	0.00647036	0.00597901	0.00849323	0.02139127	0.00848843	0.00605353	0.00862728	0.00471969	0.00772737	0.01683467	0.01006869	0.00504704	0.00604266	0.00370056	0.00481517	0.00479967	0.00513312	0.01026451	0.00585000	0.02057279	0.00727617	0.00588703	0.00514561	0.00633162
2.73000000	0.01102670	0.00867475	0.00553865	0.00650841	0.00599398	0.00849953	0.02147336	0.00857224	0.00605361	0.00871108	0.00480545	0.00769060	0.01746800	0.01029314	0.00574953	0.00687465	0.00387238	0.00461576	0.00498773	0.00504850	0.01042883	0.00572229	0.02064986	0.00715657	0.00595966	0.00528809	0.00630371
2.74000000	0.01110209	0.00942339	0.00547833	0.00658491	0.00600595	0.00844802	0.02172589	0.00860899	0.00598033	0.00863854	0.00491849	0.00771777	0.01811733	0.01067003	0.00643996	0.00759816	0.00405633	0.00441356	0.00515134	0.00503798	0.01051594	0.00558925	0.02062495	0.00707251	0.00588185	0.00535612	0.00624289
2.75000000	0.01106774	0.01014647	0.00533823	0.00659500	0.00593577	0.00861647	0.02179121	0.00876154	0.00592728	0.00867097	0.00491343	0.00771223	0.01888823	0.01119421	0.00712271	0.00820684	0.00433547	0.00432492	0.00531448	0.00504374	0.01059878	0.00550184	0.02057686	0.00696152	0.00583574	0.00543175	0.00614928
2.76000000	0.01107695	0.01066017	0.00517604	0.00658518	0.00584217	0.00891232	0.02178857	0.00875972	0.00570489	0.00852324	0.00480094	0.00754691	0.01980517	0.01182664	0.00790441	0.00898279	0.00467127	0.00425397	0.00544167	0.00501485	0.01073009	0.00546442	0.02057066	0.00673967	0.00585407	0.00549138	0.00608799
2.77000000	0.01097487	0.01156615	0.00515126	0.00666223	0.00584565	0.00910992	0.02182122	0.00869618	0.00556125	0.00837171	0.00492440	0.00754669	0.02072741	0.01269825	0.00846131	0.00949650	0.00472451	0.00410494	0.00542033	0.00501909	0.01070572	0.00544444	0.02038523	0.00657987	0.00572956	0.00549861	0.00593778
2.78000000	0.01112093	0.01144302	0.00495286	0.00652702	0.00568355	0.00911847	0.02138151	0.00855647	0.00540516	0.00854083	0.00465032	0.00708070	0.02226440	0.01404737	0.00880324	0.00949958	0.00472584	0.00422769	0.00561891	0.00509371	0.01077418	0.00542435	0.02032414	0.00643650	0.00567680	0.00545935	0.00582465
2.79000000	0.01097870	0.01181978	0.00484767	0.00658539	0.00565108	0.00979012	0.02108208	0.00842976	0.00503116	0.00812316	0.00456852	0.00666829	0.02346025	0.01493555	0.00941452	0.01018996	0.00486465	0.00416454	0.00552436	0.00507711	0.01086544	0.00554013	0.02025431	0.00608017	0.00558932	0.00527978	0.00575155
2.80000000	0.01066618	0.01250609	0.00475452	0.00655584	0.00556545	0.01006766	0.02073527	0.00844906	0.00494064	0.00808600	0.00456669	0.00637007	0.02445816	0.01627105	0.00962094	0.01036359	0.00483238	0.00422873	0.00543225	0.00510341	0.01077200	0.00561850	0.02000224	0.00597060	0.00550946	0.00513685	0.00555777
2.81000000	0.01069761	0.01218166	0.00462587	0.00646345	0.00546424	0.01023152	0.02030003	0.00810849	0.00460042	0.00786188	0.00432154	0.00557996	0.02577691	0.01785948	0.00976817	0.01041237	0.00460440	0.00427351	0.00529576	0.00514142	0.01073940	0.00572256	0.01985943	0.00574165	0.00539403	0.00502773	0.00546123
2.82000000	0.01040687	0.01225963	0.00455020	0.00649249	0.00543288	0.01079375	0.01984271	0.00792171	0.00424584	0.00738963	0.00436181	0.00513528	0.02685344	0.01881136	0.01001240	0.01083357	0.00436734	0.00439484	0.00510488	0.00514062	0.01073235	0.00590767	0.01968902	0.00541738	0.00530148	0.00477892	0.00534331
2.83000000	0.01017544	0.01225608	0.00454795	0.00654228	0.00544900	0.01131621	0.01947150	0.00761270	0.00381633	0.00691164	0.00414828	0.00483515	0.02785072	0.01969191	0.01014346	0.01109519	0.00420037	0.00446212	0.00479417	0.00513182	0.01067460	0.00610667	0.01947663	0.00508176	0.00513851	0.00457537	0.00525771
2.84000000	0.01012000	0.01203788	0.00440271	0.00653534	0.00536300	0.01135911	0.01882484	0.00756397	0.00364092	0.00688550	0.00382766	0.00391044	0.02871293	0.02118515	0.00984578	0.01057423	0.00400563	0.00447155	0.00455690	0.00518022	0.01052275	0.00621911	0.01923178	0.00501842	0.00494837	0.00437619	0.00513397
2.85000000	0.00981138	0.01177540	0.00436971	0.00658289	0.00535637	0.01175759	0.01839039	0.00726363	0.00322613	0.00630525	0.00390825	0.00397051	0.02951738	0.02165527	0.00994490	0.01077573	0.00364451	0.00466930	0.00430458	0.00517357	0.01048396	0.00638867	0.01903011	0.00471387	0.00482806	0.00411513	0.00502533
2.86000000	0.00952511	0.01172034	0.00432133	0.00660743	0.00532484	0.01201063	0.01795675	0.00706978	0.00291301	0.00587673	0.00375615	0.00426243	0.03006128	0.02218634	0.00990698	0.01069560	0.00353960	0.00475635	0.00401096	0.00513931	0.01043878	0.00658149	0.01883647	0.00442369	0.00466117	0.00384534	0.00490950
2.87000000	0.00932821	0.01179630	0.00427006	0.00672605	0.00533737	0.01212342	0.01732775	0.00713207	0.00275863	0.00580870	0.00351224	0.00448982	0.03043856	0.02282062	0.00970408	0.01029601	0.00367630	0.00474877	0.00366649	0.00515665	0.01029067	0.00669645	0.01856213	0.00429293	0.00440232	0.00362371	0.00478718
2.88000000	0.00906951	0.01130274	0.00424828	0.00675350	0.00531895	0.01233715	0.01701620	0.00677594	0.00230880	0.00519844	0.00353075	0.00536850	0.03095876	0.02278919	0.00986182	0.01023302	0.00378590	0.00491026	0.00343672	0.00515619	0.01028062	0.00682101	0.01840593	0.00398604	0.00419208	0.00333846	0.00465668
2.89000000	0.00882753	0.01130016	0.00427109	0.00685157	0.00536264	0.01254626	0.01642827	0.00678531	0.00207677	0.00492329	0.00337436	0.00616425	0.03116276	0.02289032	0.00987678	0.01004802	0.00402681	0.00491378	0.00313060	0.00507333	0.01021145	0.00695498	0.01818451	0.00374636	0.00392203	0.00312408	0.00458234
2.90000000	0.00874215	0.01044829	0.00408699	0.00724434	0.00537734	0.01280117	0.01567866	0.00665838	0.00164233	0.00477098	0.00339082	0.00723862	0.03234058	0.02200302	0.00994765	0.00982742	0.00454206	0.00522652	0.00324231	0.00499296	0.01028918	0.00681811	0.01813930	0.00361024	0.00375283	0.00288302	0.00466881
2.91000000	0.00835550	0.01123110	0.00417878	0.00702238	0.00537383	0.01255722	0.01557437	0.00661979	0.00165183	0.00452371	0.00297502	0.00810879	0.03135841	0.02297127	0.00997521	0.00951855	0.00439988	0.00488460	0.00252012	0.00494421	0.01009099	0.00707799	0.01781382	0.00338755	0.00344219	0.00274323	0.00440389
2.92000000	0.00810632	0.01079785	0.00420328	0.00707718	0.00539453	0.01277394	0.01525047	0.00642654	0.00128953	0.00402931	0.00303109	0.00906010	0.03164930	0.02259933	0.01013845	0.00934155	0.00461283	0.00499259	0.00237551	0.00485117	0.01011049	0.00714600	0.01770292	0.00311582	0.00321438	0.00247486	0.00430468
2.93000000	0.00787507	0.01086198	0.00416194	0.00708825	0.00536601	0.01274394	0.01478438	0.00652533	0.00124065	0.00397947	0.00275604	0.00984587	0.03157252	0.02279900	0.01018257	0.00910047	0.00439762	0.00494026	0.00210293	0.00483035	0.01007263	0.00722113	0.01757819	0.00280373	0.00293864	0.00237530	0.00418610
2.94000000	0.00769266	0.01041820	0.00410325	0.00717047	0.00536651	0.01316973	0.01447192	0.00637354	0.00083714	0.00359298	0.00279932	0.01070669	0.03165567	0.02257773	0.01032639	0.00914824	0.00468673	0.00509310	0.00204874	0.00470891	0.01010623	0.00713809	0.01749759	0.00258438	0.00281237	0.00210677	0.00410394
2.95000000	0.00741542	0.01107201	0.00416304	0.00738681	0.00551654	0.01310324	0.01417128	0.00641059	0.00077994	0.00339047	0.00285089	0.01144388	0.03139471	0.02287572	0.01031721	0.00906789	0.00428555	0.00491237	0.00191541	0.00459409	0.00995665	0.00710378	0.01722202	0.00237850	0.00280193	0.00206492	0.00379452
2.96000000	0.00731549	0.01060987	0.00411347	0.00736762	0.00547642	0.01348382	0.01395307	0.00633684	0.00046639	0.00311020	0.00292974	0.01189406	0.03164335	0.02280812	0.01027682	0.00902010	0.00450405	0.00509299	0.00198706	0.00456395	0.00998560	0.00703081	0.01718050	0.00203450	0.00247597	0.00184131	0.00376688
2.97000000	0.00704529	0.01100805	0.00421436	0.00755205	0.00561719	0.01353866	0.01369082	0.00634710	0.00041605	0.00296417	0.00282016	0.01228994	0.03162304	0.02313093	0.01018075	0.00890611	0.00408527	0.00499261	0.00204982	0.00446142	0.00987510	0.00706732	0.01696818	0.00170831	0.00236015	0.00173160	0.00350358
2.98000000	0.00680558	0.01064367	0.00395726	0.00741217	0.00538089	0.01403956	0.01332974	0.00655035	0.00037948	0.00326825	0.00296401	0.01275028	0.03177841	0.02362286	0.00993002	0.00914346	0.00408417	0.00531237	0.00217264	0.00458566	0.00996551	0.00690835	0.01711801	0.00122748	0.00256364	0.00194530	0.00322461
2.99000000	0.00675175	0.01093058	0.00403999	0.00753618	0.00553955	0.01419350	0.01333011	0.00644372	0.00023097	0.00259435	0.00322586	0.01296433	0.03194640	0.02362301	0.00984352	0.00879509	0.00435312	0.00521233	0.00233235	0.00440080	0.00979282	0.00680400	0.01684013	0.00130934	0.00214375	0.00142596	0.00322505
3.00000000	0.00669323	0.01127563	0.00407799	0.00772303	0.00566849	0.01428174	0.01328258	0.00640714	0.00037778	0.00266183	0.00346484	0.01314765	0.03226624	0.02389481	0.00955671	0.00860806	0.00401900	0.00522359	0.00256766	0.00438070	0.00961553	0.00662199	0.01664038	0.00132201	0.00230062	0.00149548	0.00291224
3.01000000	0.00633388	0.01146731	0.00404983	0.00783001	0.00568816	0.01426212	0.01327063	0.00624969	0.00030155	0.00224485	0.00305043	0.01317106	0.03239789	0.02402796	0.00956946	0.00887512	0.00400803	0.00533926	0.00276165	0.00415314	0.00965491	0.00671556	0.01661154	0.00092021	0.00185255	0.00105134	0.00279843
3.02000000	0.00625791	0.01156649	0.00401458	0.00790227	0.00570669	0.01436771	0.01303044	0.00626504	0.00040280	0.00219819	0.00302435	0.01322915	0.03269045	0.02417972	0.00941920	0.00880639	0.00398421	0.00553377	0.00299379	0.00398798	0.00963917	0.00666302	0.01656063	0.00068876	0.00182236	0.00097088	0.00258424
3.03000000	0.00629606	0.01201805	0.00402306	0.00794746	0.00576585	0.01443735	0.01289756	0.00630079	0.00046780	0.00231603	0.00344563	0.01334569	0.03285534	0.02437748	0.00928032	0.00872315	0.00412389	0.00573325	0.00327078	0.00399484	0.00949176	0.00639546	0.01643689	0.00116737	0.00217826	0.00103311	0.00209088
3.04000000	0.00614643	0.01221992	0.00398381	0.00802227	0.00578947	0.01446184	0.01268668	0.00638029	0.00049023	0.00199879	0.00335783	0.01341519	0.03302821	0.02426612	0.00927021	0.00887737	0.00427012	0.00603464	0.00345439	0.00372394	0.00949915	0.00634476	0.01644709	0.00141934	0.00179080	0.00072742	0.00219374
3.05000000	0.00626308	0.01281618	0.00410866	0.00813257	0.00593805	0.01437361	0.01269945	0.00628529	0.00058251	0.00217924	0.00349794	0.01345623	0.03312403	0.02418709	0.00927994	0.00879190	0.00436773	0.00632014	0.00374987	0.00361598	0.00935363	0.00610840	0.01633316	0.00192288	0.00221895	0.00093528	0.00160796
3.06000000	0.00608456	0.01258204	0.00411886	0.00825722	0.00598346	0.01415648	0.01262994	0.00609723	0.00054934	0.00181028	0.00305653	0.01342150	0.03333218	0.02377717	0.00941566	0.00892309	0.00428164	0.00687516	0.00403062	0.00329655	0.00946869	0.00614094	0.01641169	0.00194991	0.00193430	0.00036556	0.00162624
3.07000000	0.00627805	0.01328126	0.00427081	0.00832802	0.00613259	0.01393763	0.01263561	0.00604697	0.00058438	0.00202362	0.00330022	0.01350497	0.03311359	0.02352370	0.00954496	0.00908804	0.00463377	0.00725420	0.00437401	0.00315623	0.00933675	0.00590301	0.01630591	0.00256282	0.00227063	0.00061729	0.00111023
3.08000000	0.00641602	0.01391601	0.00444903	0.00842875	0.00629999	0.01376895	0.01241486	0.00610560	0.00054154	0.00214647	0.00351653	0.01365868	0.03289533	0.02312944	0.00960142	0.00908447	0.00476177	0.00768762	0.00464656	0.00294429	0.00923273	0.00569195	0.01626312	0.00307650	0.00242953	0.00072436	0.00079484
3.09000000	0.00627574	0.01351992	0.00439698	0.00845459	0.00626935	0.01354407	0.01223334	0.00601713	0.00044818	0.00158306	0.00292252	0.01368537	0.03284353	0.02256805	0.00969905	0.00921799	0.00451688	0.00842452	0.00474342	0.00254458	0.00942420	0.00563828	0.01648199	0.00309200	0.00210014	0.00038222	0.00097509
3.10000000	0.00649556	0.01420299	0.00465467	0.00856342	0.00647877	0.01317987	0.01223253	0.00593616	0.00037678	0.00184101	0.00313325	0.01377022	0.03218337	0.02221238	0.00985627	0.00944717	0.00483444	0.00895161	0.00513283	0.00234397	0.00930904	0.00546991	0.01639599	0.00359921	0.00234568	0.00052095	0.00044362
3.11000000	0.00651333	0.01408086	0.00467964	0.00862184	0.00651429	0.01290947	0.01204747	0.00586153	0.00033058	0.00149627	0.00281730	0.01383274	0.03200982	0.02158984	0.00983809	0.00945520	0.00454773	0.00962832	0.00525852	0.00198836	0.00941810	0.00535009	0.01653306	0.00376250	0.00220625	0.00064823	0.00051354
3.12000000	0.00667143	0.01461221	0.00483717	0.00863886	0.00662350	0.01260832	0.01187732	0.00594163	0.00031925	0.00179387	0.00288836	0.01395842	0.03122498	0.02128140	0.00999836	0.00963443	0.00476821	0.01019272	0.00554855	0.00175867	0.00936544	0.00521160	0.01654130	0.00418714	0.00231319	0.00069015	0.00032509
3.13000000	0.00674595	0.01467482	0.00484949	0.00866180	0.00664511	0.01234240	0.01168667	0.00596148	0.00044904	0.00157578	0.00272661	0.01400971	0.03098360	0.02068386	0.00996242	0.00969688	0.00443463	0.01075196	0.00563049	0.00146851	0.00943062	0.00503242	0.01667800	0.00440389	0.00224999	0.00101002	0.00014290
3.14000000	0.00690558	0.01466944	0.00494035	0.00870175	0.00670859	0.01192910	0.01179492	0.00575413	0.00049084	0.00149307	0.00252285	0.01394133	0.03055460	0.02014307	0.01011783	0.00988704	0.00451174	0.01139667	0.00581831	0.00118039	0.00948470	0.00496524	0.01673214	0.00470643	0.00222607	0.00110717	0.00005194
3.15000000	0.00704249	0.01499670	0.00501079	0.00873316	0.00677172	0.01164097	0.01166211	0.00582034	0.00068209	0.00155676	0.00250005	0.01390634	0.03003133	0.01978337	0.01022387	0.01013963	0.00446711	0.01192143	0.00596564	0.00094492	0.00946598	0.00486086	0.01676296	0.00498436	0.00225757	0.00121956	0.00014536
3.16000000	0.00712164	0.01529422	0.00498493	0.00862222	0.00672132	0.01136322	0.01152301	0.00599438	0.00094222	0.00172448	0.00241100	0.01395916	0.02957097	0.01948844	0.01038237	0.01031221	0.00456635	0.01230987	0.00602481	0.00077765	0.00949626	0.00476089	0.01693753	0.00523127	0.00220865	0.00132780	0.00032796
3.17000000	0.00747165	0.01513799	0.00515988	0.00882432	0.00689106	0.01100764	0.01176012	0.00565111	0.00098583	0.00163200	0.00214403	0.01350465	0.02931362	0.01863732	0.01075455	0.01089755	0.00491105	0.01291796	0.00613356	0.00058923	0.00957039	0.00478931	0.01689743	0.00550968	0.00213067	0.00149700	0.00028375
3.18000000	0.00754345	0.01573462	0.00517570	0.00873137	0.00688240	0.01068808	0.01173047	0.00585089	0.00130381	0.00183596	0.00211665	0.01346329	0.02873734	0.01862127	0.01090387	0.01120470	0.00504534	0.01326193	0.00620817	0.00051695	0.00947208	0.00474514	0.01692366	0.00574131	0.00227539	0.00153704	0.00047460
3.19000000	0.00758199	0.01596314	0.00509028	0.00861891	0.00679562	0.01050034	0.01165198	0.00604288	0.00165523	0.00173895	0.00202588	0.01337831	0.02879159	0.01822155	0.01095511	0.01140842	0.00472680	0.01357327	0.00619027	0.00064750	0.00950741	0.00472574	0.01702500	0.00585987	0.00222492	0.00166780	0.00044790
3.20000000	0.00791889	0.01636209	0.00533274	0.00888685	0.00704521	0.01019679	0.01193206	0.00581544	0.00179789	0.00173091	0.00168485	0.01259013	0.02814051	0.01726719	0.01157862	0.01239210	0.00553470	0.01396088	0.00618725	0.00095320	0.00953027	0.00490257	0.01700016	0.00609685	0.00214631	0.00176237	0.00043528
3.21000000	0.00799175	0.01655080	0.00528356	0.00872614	0.00695163	0.01005448	0.01200279	0.00594492	0.00208104	0.00181969	0.00154946	0.01243838	0.02804473	0.01701537	0.01169064	0.01264253	0.00550817	0.01422379	0.00624986	0.00118625	0.00951880	0.00496998	0.01702832	0.00623294	0.00220894	0.00181305	0.00047799
3.22000000	0.00807032	0.01674700	0.00526296	0.00862113	0.00689712	0.00989982	0.01211363	0.00603988	0.00239582	0.00188381	0.00150495	0.01229403	0.02799262	0.01664746	0.01178618	0.01289077	0.00553761	0.01437901	0.00631139	0.00145055	0.00949988	0.00503764	0.01705861	0.00629829	0.00223593	0.00185902	0.00049580
3.23000000	0.00825925	0.01675119	0.00529244	0.00857734	0.00688586	0.00978535	0.01237139	0.00591157	0.00257644	0.00193275	0.00132847	0.01195759	0.02768962	0.01615620	0.01209464	0.01337468	0.00591026	0.01453716	0.00637501	0.00174707	0.00952313	0.00517466	0.01708107	0.00643912	0.00223810	0.00195917	0.00055960
3.24000000	0.00826581	0.01716370	0.00532569	0.00857469	0.00690425	0.00975565	0.01240063	0.00607290	0.00293652	0.00205123	0.00117290	0.01149668	0.02726334	0.01553934	0.01228211	0.01385411	0.00614587	0.01465795	0.00643662	0.00208560	0.00951245	0.00535123	0.01713616	0.00652698	0.00226637	0.00197463	0.00055969
3.25000000	0.00830100	0.01742686	0.00530216	0.00837142	0.00680183	0.00975293	0.01255427	0.00620928	0.00325483	0.00205344	0.00103342	0.01141254	0.02708795	0.01520089	0.01220900	0.01386360	0.00616040	0.01466938	0.00656403	0.00231308	0.00945620	0.00542216	0.01717220	0.00658610	0.00239693	0.00199376	0.00060419
3.26000000	0.00858957	0.01762907	0.00544920	0.00831843	0.00685368	0.00957459	0.01291920	0.00607093	0.00337696	0.00203278	0.00158252	0.01130522	0.02627613	0.01533122	0.01242653	0.01446029	0.00589966	0.01450366	0.00666578	0.00251515	0.00928484	0.00545630	0.01716236	0.00657602	0.00259798	0.00192943	0.00065584
3.27000000	0.00832316	0.01763198	0.00520732	0.00805197	0.00659770	0.00986420	0.01279121	0.00634029	0.00379693	0.00211975	0.00078892	0.01122423	0.02653256	0.01455600	0.01204630	0.01384208	0.00622522	0.01463455	0.00696367	0.00281017	0.00938216	0.00558418	0.01726921	0.00663719	0.00261533	0.00201735	0.00075110
3.28000000	0.00866157	0.01767879	0.00534920	0.00798014	0.00663370	0.00981934	0.01311430	0.00621280	0.00386274	0.00212850	0.00155806	0.01100070	0.02585646	0.01452028	0.01215025	0.01436412	0.00578095	0.01436369	0.00706542	0.00296757	0.00919103	0.00556249	0.01728964	0.00661292	0.00284617	0.00202620	0.00086411
3.29000000	0.00817024	0.01774339	0.00500831	0.00758780	0.00627123	0.01007508	0.01298722	0.00657464	0.00439856	0.00226681	0.00075508	0.01096473	0.02563206	0.01414499	0.01175416	0.01374724	0.00598343	0.01451108	0.00753567	0.00317933	0.00929268	0.00563657	0.01749240	0.00671850	0.00305666	0.00216100	0.00094510
3.30000000	0.00811798	0.01772757	0.00488744	0.00740149	0.00611698	0.01025382	0.01308035	0.00663060	0.00459549	0.00232759	0.00094173	0.01084419	0.02510380	0.01403903	0.01159044	0.01365830	0.00584635	0.01437189	0.00797937	0.00332956	0.00923608	0.00562139	0.01754888	0.00664512	0.00321050	0.00220183	0.00109242
3.31000000	0.00838958	0.01761820	0.00497320	0.00731999	0.00611723	0.01038254	0.01322016	0.00663891	0.00467246	0.00251922	0.00180657	0.01051284	0.02448963	0.01399508	0.01149912	0.01382692	0.00543640	0.01416132	0.00823622	0.00349618	0.00903505	0.00553895	0.01758797	0.00649600	0.00354569	0.00220696	0.00121224
3.32000000	0.00790030	0.01748410	0.00455307	0.00698118	0.00573574	0.01076396	0.01317094	0.00679880	0.00499348	0.00235621	0.00093992	0.01034503	0.02429124	0.01374899	0.01102176	0.01305955	0.00576899	0.01409090	0.00872648	0.00356767	0.00913931	0.00551685	0.01790090	0.00665093	0.00369114	0.00235338	0.00146139
3.33000000	0.00821582	0.01725784	0.00460550	0.00682825	0.00568337	0.01091771	0.01327707	0.00683788	0.00503143	0.00254718	0.00180584	0.00994114	0.02360204	0.01385897	0.01089426	0.01308595	0.00557092	0.01389138	0.00907180	0.00370250	0.00896203	0.00540015	0.01798403	0.00648490	0.00403442	0.00244066	0.00169293
3.34000000	0.00773520	0.01706247	0.00420672	0.00664846	0.00539001	0.01130428	0.01328102	0.00691859	0.00523710	0.00242783	0.00101071	0.00972930	0.02347179	0.01360436	0.01042584	0.01244111	0.00563625	0.01374669	0.00960205	0.00369956	0.00897065	0.00527908	0.01823912	0.00656505	0.00429102	0.00237238	0.00196544
3.35000000	0.00798801	0.01676141	0.00419564	0.00640339	0.00526264	0.01147895	0.01334348	0.00703530	0.00532393	0.00271729	0.00157798	0.00938866	0.02269917	0.01387326	0.01028197	0.01223301	0.00582618	0.01356197	0.00995634	0.00378097	0.00885203	0.00514216	0.01839083	0.00641352	0.00464052	0.00263156	0.00223917
3.36000000	0.00768545	0.01651442	0.00389057	0.00634242	0.00507593	0.01180192	0.01345614	0.00703063	0.00541238	0.00255821	0.00124238	0.00900881	0.02263039	0.01356564	0.00983213	0.01189344	0.00535127	0.01344366	0.01055680	0.00376597	0.00875608	0.00495562	0.01853588	0.00640154	0.00506672	0.00243927	0.00255494
3.37000000	0.00785536	0.01626227	0.00384651	0.00604167	0.00490691	0.01197752	0.01355145	0.00719803	0.00555899	0.00278568	0.00155357	0.00874499	0.02173129	0.01398570	0.00960410	0.01134440	0.00591147	0.01334025	0.01088035	0.00386180	0.00874034	0.00488516	0.01878624	0.00628894	0.00530286	0.00278900	0.00287819
3.38000000	0.00777320	0.01557778	0.00354045	0.00617079	0.00478785	0.01230341	0.01371915	0.00709862	0.00558951	0.00270544	0.00141455	0.00831817	0.02168166	0.01356925	0.00935099	0.01153875	0.00495599	0.01301286	0.01119190	0.00378994	0.00870537	0.00474191	0.01913693	0.00639833	0.00556387	0.00259291	0.00296134
3.39000000	0.00785403	0.01539063	0.00348783	0.00580409	0.00459138	0.01245152	0.01391174	0.00733398	0.00582759	0.00283319	0.00157904	0.00802400	0.02085327	0.01389648	0.00902908	0.01057839	0.00591134	0.01314677	0.01164080	0.00389030	0.00871483	0.00471702	0.01928651	0.00632149	0.00590350	0.00297070	0.00339051
3.40000000	0.00811666	0.01518855	0.00345168	0.00594782	0.00464446	0.01261903	0.01442598	0.00706669	0.00573932	0.00257618	0.00155636	0.00755282	0.02085675	0.01333759	0.00864611	0.01068705	0.00483465	0.01289034	0.01219515	0.00378817	0.00849080	0.00446457	0.01926384	0.00619979	0.00634590	0.00275184	0.00377947
3.41000000	0.00839560	0.01467511	0.00324327	0.00590636	0.00449690	0.01278595	0.01478456	0.00701177	0.00588436	0.00262403	0.00173972	0.00715626	0.02044861	0.01308240	0.00846150	0.01067283	0.00441274	0.01279049	0.01242058	0.00377452	0.00851132	0.00444627	0.01954988	0.00629229	0.00658871	0.00285585	0.00394126
3.42000000	0.00883496	0.01438805	0.00325323	0.00591136	0.00448948	0.01289015	0.01535356	0.00693395	0.00604673	0.00264647	0.00177569	0.00687162	0.02002575	0.01277343	0.00821690	0.01036827	0.00437081	0.01273359	0.01268912	0.00380241	0.00848925	0.00442721	0.01965727	0.00624836	0.00678676	0.00297120	0.00416786
3.43000000	0.00925409	0.01424892	0.00325794	0.00585529	0.00446051	0.01287188	0.01610511	0.00689320	0.00626984	0.00273204	0.00187919	0.00657106	0.01969880	0.01232403	0.00791943	0.00993803	0.00447161	0.01279862	0.01307953	0.00382178	0.00843996	0.00440990	0.01962791	0.00622055	0.00704832	0.00301552	0.00444600
3.44000000	0.00989085	0.01407325	0.00327704	0.00588566	0.00446295	0.01282939	0.01696007	0.00683170	0.00648927	0.00296017	0.00211829	0.00646089	0.01925231	0.01199243	0.00770501	0.00978330	0.00432783	0.01273891	0.01309279	0.00383280	0.00846269	0.00445208	0.01977833	0.00626100	0.00709564	0.00321020	0.00456538
3.45000000	0.01065730	0.01391661	0.00334126	0.00598762	0.00451477	0.01268008	0.01797836	0.00675424	0.00674312	0.00344159	0.00247469	0.00628098	0.01901506	0.01140918	0.00756649	0.00970334	0.00436366	0.01269533	0.01330986	0.00382498	0.00843623	0.00444208	0.01970506	0.00621531	0.00714248	0.00320942	0.00456068
3.46000000	0.01127203	0.01399872	0.00337809	0.00594438	0.00450331	0.01238872	0.01923505	0.00687579	0.00705241	0.00405304	0.00282078	0.00627181	0.01869929	0.01098470	0.00729289	0.00945014	0.00435692	0.01270309	0.01337714	0.00380642	0.00844408	0.00446341	0.01974415	0.00624526	0.00708133	0.00333125	0.00464268
3.47000000	0.01168216	0.01417896	0.00338045	0.00580923	0.00443610	0.01194507	0.02069287	0.00723816	0.00745878	0.00476845	0.00347688	0.00632664	0.01849044	0.01047806	0.00696182	0.00913576	0.00441025	0.01289212	0.01355003	0.00377399	0.00844770	0.00453890	0.01957687	0.00631204	0.00712002	0.00342150	0.00466375
3.48000000	0.01245803	0.01425838	0.00345828	0.00585882	0.00447682	0.01138699	0.02223914	0.00767925	0.00778937	0.00595282	0.00394317	0.00644669	0.01828396	0.01007563	0.00675893	0.00906103	0.00437053	0.01278678	0.01346221	0.00373039	0.00844420	0.00451134	0.01957878	0.00631776	0.00688500	0.00345418	0.00447686
3.49000000	0.01318865	0.01429228	0.00356528	0.00591155	0.00453281	0.01068170	0.02401905	0.00832850	0.00805512	0.00692879	0.00473760	0.00652611	0.01811618	0.00968128	0.00660667	0.00904551	0.00434268	0.01268238	0.01332431	0.00363052	0.00841884	0.00446723	0.01950366	0.00633570	0.00663718	0.00354034	0.00425184
3.50000000	0.01370218	0.01432434	0.00353685	0.00580294	0.00444329	0.00981387	0.02594030	0.00919111	0.00836277	0.00812226	0.00552566	0.00671550	0.01795533	0.00930769	0.00632184	0.00899183	0.00427720	0.01273804	0.01323621	0.00354969	0.00841860	0.00447751	0.01936866	0.00642744	0.00641058	0.00353821	0.00398199
3.51000000	0.01480290	0.01414739	0.00373678	0.00615435	0.00467791	0.00997457	0.02796725	0.01056194	0.00790910	0.00866055	0.00539138	0.00638764	0.01761833	0.00917143	0.00635209	0.00951248	0.00447727	0.01231082	0.01285980	0.00351765	0.00819789	0.00423763	0.01917411	0.00626106	0.00606871	0.00342284	0.00369961
3.52000000	0.01538092	0.01404025	0.00388917	0.00620119	0.00476146	0.00902560	0.02999352	0.01183478	0.00806359	0.00989984	0.00561578	0.00662168	0.01739465	0.00895252	0.00616564	0.00936334	0.00455769	0.01218578	0.01266896	0.00341184	0.00810492	0.00415109	0.01890918	0.00624895	0.00573937	0.00333116	0.00332823
3.53000000	0.01573923	0.01375487	0.00392992	0.00618942	0.00476055	0.00894803	0.03186731	0.01373677	0.00791989	0.01058547	0.00578267	0.00675729	0.01706744	0.00880592	0.00603587	0.00957841	0.00428712	0.01196931	0.01232469	0.00332921	0.00806156	0.00412954	0.01880309	0.00615947	0.00531852	0.00331486	0.00288122
3.54000000	0.01601312	0.01348405	0.00408340	0.00621353	0.00485074	0.00819743	0.03393406	0.01504900	0.00800211	0.01163340	0.00561313	0.00708068	0.01702992	0.00833921	0.00577444	0.00911135	0.00456188	0.01178322	0.01205138	0.00324102	0.00796440	0.00407796	0.01849697	0.00613072	0.00496908	0.00306727	0.00239871
3.55000000	0.01604338	0.01297595	0.00414285	0.00623810	0.00491159	0.00885971	0.03558158	0.01739502	0.00757326	0.01170333	0.00532338	0.00698080	0.01674919	0.00812096	0.00574483	0.00929248	0.00432077	0.01145135	0.01181302	0.00317755	0.00783898	0.00409329	0.01823130	0.00592836	0.00465038	0.00289275	0.00199451
3.56000000	0.01607334	0.01235476	0.00430163	0.00619472	0.00497136	0.00885518	0.03738201	0.01855826	0.00771325	0.01241546	0.00526873	0.00755804	0.01663207	0.00773474	0.00556546	0.00869471	0.00449527	0.01120393	0.01118161	0.00307157	0.00784122	0.00415249	0.01805810	0.00589298	0.00421189	0.00277766	0.00153409
3.57000000	0.01621065	0.01138909	0.00442890	0.00623761	0.00506511	0.00996108	0.03848138	0.02088666	0.00724993	0.01218267	0.00501074	0.00747568	0.01603591	0.00799572	0.00555237	0.00914608	0.00402627	0.01083298	0.01086465	0.00306726	0.00776246	0.00421732	0.01774336	0.00560548	0.00389484	0.00250072	0.00115089
3.58000000	0.01549306	0.01090049	0.00438081	0.00608673	0.00503396	0.01108468	0.03967770	0.02276641	0.00707571	0.01197114	0.00517807	0.00765845	0.01582509	0.00766136	0.00555473	0.00862875	0.00416213	0.01041404	0.01032129	0.00305840	0.00774378	0.00436988	0.01759887	0.00540496	0.00364999	0.00224554	0.00073613
3.59000000	0.01529083	0.00987576	0.00462988	0.00606636	0.00516079	0.01195525	0.04106562	0.02348747	0.00714930	0.01196520	0.00593729	0.00808097	0.01573658	0.00740884	0.00549992	0.00803318	0.00431139	0.01005368	0.00966010	0.00295865	0.00783736	0.00444772	0.01735891	0.00517591	0.00325535	0.00200348	0.00033857
3.60000000	0.01487849	0.00909957	0.00459341	0.00600523	0.00516148	0.01329902	0.04141804	0.02570532	0.00694988	0.01131647	0.00650814	0.00794549	0.01536479	0.00749366	0.00565391	0.00804547	0.00397106	0.00943022	0.00912336	0.00300558	0.00784678	0.00459199	0.01720943	0.00481387	0.00301871	0.00166050	0.00014135
