TVC32_3_JMP_01_pelvis_thigh_marker_adjustment_task_1_finalErrors.sto
version=1
nRows=311
nColumns=28
inDegrees=no
endheader
time	R_Asis	L_Asis	R_Psis	L_Psis	Sacral	R_Thigh_Lateral	R_Knee_Lateral	R_Shank_Lateral	R_Ankle_Lateral	R_Heel	R_Toe	L_Thigh_Lateral	L_Knee_Lateral	L_Shank_Lateral	L_Ankle_Lateral	L_Heel	L_Toe	R_Shoulder	L_Shoulder	C7	J_Notch	Thoracic	Sternum	R_Elbow	L_Elbow	R_Wrist	L_Wrist
0.50000000	0.00538141	0.00303234	0.00560897	0.00528039	0.00441461	0.00405299	0.00143614	0.00350791	0.00309160	0.00244174	0.00162426	0.00405863	0.00531080	0.00396378	0.00447987	0.00239810	0.00164370	0.00668506	0.01089156	0.00437811	0.00104052	0.00744676	0.01466110	0.00141244	0.00756663	0.00019385	0.00398469
0.51000000	0.00600039	0.00309951	0.00560347	0.00546943	0.00453046	0.00380241	0.00178154	0.00315459	0.00319858	0.00199596	0.00165655	0.00465966	0.00589542	0.00468305	0.00474056	0.00267535	0.00154674	0.00653994	0.01070413	0.00438766	0.00152346	0.00719420	0.01456294	0.00118688	0.00764055	0.00024079	0.00396626
0.52000000	0.00663415	0.00311650	0.00562042	0.00562832	0.00460221	0.00348687	0.00233554	0.00280854	0.00325260	0.00164470	0.00163906	0.00503683	0.00633003	0.00533119	0.00487932	0.00292501	0.00148865	0.00642800	0.01053709	0.00438027	0.00202129	0.00693076	0.01443699	0.00096111	0.00759326	0.00036227	0.00399068
0.53000000	0.00698069	0.00301437	0.00561694	0.00573480	0.00471037	0.00302290	0.00302703	0.00271653	0.00339918	0.00124844	0.00185078	0.00527673	0.00691444	0.00578417	0.00511452	0.00303839	0.00138808	0.00634509	0.01038649	0.00432349	0.00254720	0.00663046	0.01428165	0.00084456	0.00758052	0.00039338	0.00404327
0.54000000	0.00720509	0.00295078	0.00562411	0.00579736	0.00479890	0.00243004	0.00382064	0.00301420	0.00356830	0.00135200	0.00211011	0.00544670	0.00741842	0.00605619	0.00525841	0.00309800	0.00122763	0.00639495	0.01030697	0.00427653	0.00309483	0.00628187	0.01398441	0.00070799	0.00759084	0.00052155	0.00408079
0.55000000	0.00734208	0.00284076	0.00564613	0.00577716	0.00484102	0.00184863	0.00465849	0.00368217	0.00372208	0.00192757	0.00245397	0.00547994	0.00783957	0.00630094	0.00540485	0.00309194	0.00105291	0.00649040	0.01020408	0.00419360	0.00366584	0.00596150	0.01364912	0.00063587	0.00756167	0.00063079	0.00409797
0.56000000	0.00756571	0.00284341	0.00565431	0.00569595	0.00479613	0.00131120	0.00547892	0.00453236	0.00381034	0.00257033	0.00286554	0.00548880	0.00802651	0.00650125	0.00536786	0.00310318	0.00097701	0.00640917	0.00986550	0.00415407	0.00405957	0.00584894	0.01348788	0.00062314	0.00739838	0.00072467	0.00408225
0.57000000	0.00869592	0.00276886	0.00547176	0.00585488	0.00463213	0.00148761	0.00570446	0.00584998	0.00367358	0.00315721	0.00301029	0.00564676	0.00761437	0.00648341	0.00495534	0.00302959	0.00090547	0.00603076	0.00943039	0.00410926	0.00425922	0.00607167	0.01335305	0.00044901	0.00726811	0.00098470	0.00403507
0.58000000	0.00858648	0.00280654	0.00551470	0.00568480	0.00458533	0.00274615	0.00665631	0.00698358	0.00372577	0.00380046	0.00319681	0.00568636	0.00777228	0.00665256	0.00500243	0.00294455	0.00080752	0.00602567	0.00912235	0.00400751	0.00466924	0.00602762	0.01302256	0.00047046	0.00713228	0.00115238	0.00396594
0.59000000	0.00865526	0.00281665	0.00549146	0.00559100	0.00452643	0.00421171	0.00737029	0.00837437	0.00367719	0.00433567	0.00319184	0.00574101	0.00787280	0.00677531	0.00497597	0.00289410	0.00076905	0.00596876	0.00879781	0.00387224	0.00504196	0.00606016	0.01267291	0.00062856	0.00697688	0.00135658	0.00388518
0.60000000	0.00880846	0.00263174	0.00533777	0.00561228	0.00443897	0.00541379	0.00778400	0.01020901	0.00352798	0.00479185	0.00278991	0.00586919	0.00808049	0.00675472	0.00493587	0.00285164	0.00062177	0.00582226	0.00847317	0.00372688	0.00531045	0.00617575	0.01234089	0.00083384	0.00686098	0.00160173	0.00389447
0.61000000	0.00846692	0.00281288	0.00518529	0.00542563	0.00432309	0.00642294	0.00846734	0.01216118	0.00322826	0.00499886	0.00218451	0.00612766	0.00823152	0.00691175	0.00504112	0.00273154	0.00064794	0.00567766	0.00809565	0.00357976	0.00556843	0.00627480	0.01200925	0.00117046	0.00669776	0.00179795	0.00388287
0.62000000	0.00801986	0.00322648	0.00528479	0.00512127	0.00427364	0.00849370	0.00930407	0.01309021	0.00310685	0.00511791	0.00204799	0.00650640	0.00838533	0.00724607	0.00525040	0.00263557	0.00063881	0.00568272	0.00757267	0.00334654	0.00592820	0.00642681	0.01151292	0.00141704	0.00635453	0.00199100	0.00368653
0.63000000	0.00786336	0.00355385	0.00522863	0.00496762	0.00419240	0.01020336	0.00973342	0.01434469	0.00289610	0.00515955	0.00186605	0.00681215	0.00855181	0.00753930	0.00540231	0.00259691	0.00064477	0.00556928	0.00701086	0.00313879	0.00614922	0.00667262	0.01103274	0.00171569	0.00602003	0.00233222	0.00350401
0.64000000	0.00763841	0.00359441	0.00468384	0.00482831	0.00388124	0.01027742	0.00972878	0.01675964	0.00227984	0.00501088	0.00144587	0.00682965	0.00924021	0.00771651	0.00560794	0.00264359	0.00069433	0.00534738	0.00664535	0.00298228	0.00625656	0.00684701	0.01057342	0.00209382	0.00593880	0.00260965	0.00361656
0.65000000	0.00650723	0.00414765	0.00481840	0.00465324	0.00397982	0.01210101	0.01063369	0.01724669	0.00200124	0.00480682	0.00287334	0.00736698	0.00964695	0.00796882	0.00596199	0.00253851	0.00072426	0.00538077	0.00603016	0.00266595	0.00663310	0.00696642	0.00996886	0.00235915	0.00549043	0.00279911	0.00342171
0.66000000	0.00682500	0.00439121	0.00417190	0.00434366	0.00348642	0.01223784	0.01017232	0.01915000	0.00162368	0.00474552	0.00297719	0.00723898	0.01012708	0.00836947	0.00611771	0.00268516	0.00081082	0.00515049	0.00543950	0.00255198	0.00663412	0.00723555	0.00951036	0.00275301	0.00522808	0.00324577	0.00334229
0.67000000	0.00630648	0.00481510	0.00386296	0.00409730	0.00327647	0.01299249	0.01030696	0.02005906	0.00146762	0.00466905	0.00368538	0.00738414	0.01060167	0.00866684	0.00640464	0.00266047	0.00081330	0.00507039	0.00481741	0.00235226	0.00685563	0.00739999	0.00892360	0.00307146	0.00486974	0.00357840	0.00316902
0.68000000	0.00589258	0.00517284	0.00350872	0.00382771	0.00301725	0.01348821	0.01029619	0.02085092	0.00144447	0.00469881	0.00430455	0.00752730	0.01105807	0.00888758	0.00663008	0.00267757	0.00079291	0.00505742	0.00417187	0.00219778	0.00703475	0.00754932	0.00832386	0.00340772	0.00448655	0.00397474	0.00301899
0.69000000	0.00528224	0.00553388	0.00318007	0.00364284	0.00282727	0.01397353	0.01043641	0.02132591	0.00150007	0.00466264	0.00467957	0.00760517	0.01143685	0.00907761	0.00678809	0.00265990	0.00085150	0.00495902	0.00355019	0.00208267	0.00729004	0.00766234	0.00779685	0.00376870	0.00412449	0.00428444	0.00279225
0.70000000	0.00365777	0.00589659	0.00313369	0.00369253	0.00291105	0.01456348	0.01094312	0.02128130	0.00169266	0.00472162	0.00493925	0.00778245	0.01203967	0.00915314	0.00704290	0.00257603	0.00154283	0.00508721	0.00313738	0.00196558	0.00788244	0.00749040	0.00716322	0.00385582	0.00360218	0.00463082	0.00279998
0.71000000	0.00438762	0.00593768	0.00248064	0.00316584	0.00234235	0.01414979	0.01037813	0.02197876	0.00163924	0.00495324	0.00499652	0.00774810	0.01206563	0.00926445	0.00699159	0.00258849	0.00087908	0.00495171	0.00248837	0.00194578	0.00791086	0.00777729	0.00672937	0.00439355	0.00324458	0.00503464	0.00245357
0.72000000	0.00358149	0.00603056	0.00218508	0.00296458	0.00213698	0.01410383	0.01052445	0.02187822	0.00163217	0.00523768	0.00497633	0.00779020	0.01226794	0.00937946	0.00697717	0.00263518	0.00105734	0.00503991	0.00219781	0.00194098	0.00840196	0.00767755	0.00619869	0.00458620	0.00289486	0.00530000	0.00232813
0.73000000	0.00254681	0.00616917	0.00205244	0.00319828	0.00225481	0.01414252	0.01071411	0.02167467	0.00191728	0.00526698	0.00453849	0.00766250	0.01262741	0.00933856	0.00704754	0.00251463	0.00152943	0.00508232	0.00189871	0.00203489	0.00913617	0.00744559	0.00573874	0.00471940	0.00246469	0.00565756	0.00233535
0.74000000	0.00345854	0.00598270	0.00146289	0.00266304	0.00173237	0.01339522	0.01020088	0.02191141	0.00171621	0.00547717	0.00453795	0.00765851	0.01240371	0.00931522	0.00681647	0.00252078	0.00085747	0.00484522	0.00215896	0.00206829	0.00928410	0.00767179	0.00547825	0.00521709	0.00192726	0.00599744	0.00187884
0.75000000	0.00282945	0.00583079	0.00128514	0.00261748	0.00166214	0.01315004	0.01037435	0.02146734	0.00174499	0.00554172	0.00408527	0.00766995	0.01237356	0.00927092	0.00673501	0.00249397	0.00073368	0.00490603	0.00229081	0.00214704	0.00986979	0.00751460	0.00506082	0.00549875	0.00160545	0.00627737	0.00170530
0.76000000	0.00252784	0.00557653	0.00106972	0.00258633	0.00158376	0.01282262	0.01043945	0.02098218	0.00170030	0.00566215	0.00382673	0.00766783	0.01231978	0.00922516	0.00665644	0.00241691	0.00053029	0.00492076	0.00256736	0.00221696	0.01039411	0.00735940	0.00472744	0.00576403	0.00135464	0.00656575	0.00152144
0.77000000	0.00241590	0.00526874	0.00086033	0.00253658	0.00149601	0.01244108	0.01040884	0.02044904	0.00167336	0.00580229	0.00372142	0.00770112	0.01228258	0.00911555	0.00653291	0.00243750	0.00056703	0.00484917	0.00287152	0.00232819	0.01093515	0.00723508	0.00440689	0.00596707	0.00130381	0.00675859	0.00118853
0.78000000	0.00252432	0.00497605	0.00070053	0.00237535	0.00131046	0.01208573	0.01053885	0.01987194	0.00161998	0.00563124	0.00341475	0.00762303	0.01210165	0.00919470	0.00636619	0.00243981	0.00069251	0.00481462	0.00325955	0.00243852	0.01127974	0.00715148	0.00405128	0.00620756	0.00120006	0.00704366	0.00099713
0.79000000	0.00258059	0.00468884	0.00049458	0.00237101	0.00128671	0.01178943	0.01054848	0.01925462	0.00156453	0.00556129	0.00342958	0.00771640	0.01200432	0.00907828	0.00621806	0.00238992	0.00061428	0.00458235	0.00361561	0.00264417	0.01166509	0.00703392	0.00383064	0.00632592	0.00086964	0.00711182	0.00072148
0.80000000	0.00276746	0.00453744	0.00050367	0.00214543	0.00106754	0.01158796	0.01061756	0.01863393	0.00171302	0.00524809	0.00310752	0.00763052	0.01204950	0.00907388	0.00607577	0.00234214	0.00093535	0.00457930	0.00381175	0.00273356	0.01178348	0.00696446	0.00344623	0.00658623	0.00100872	0.00734054	0.00048564
0.81000000	0.00311780	0.00443761	0.00049972	0.00212177	0.00102605	0.01160664	0.01055895	0.01783505	0.00168248	0.00500293	0.00336498	0.00783763	0.01186856	0.00896974	0.00587198	0.00226138	0.00086162	0.00405979	0.00422636	0.00300658	0.01187039	0.00696024	0.00335963	0.00658888	0.00057101	0.00726100	0.00019594
0.82000000	0.00319634	0.00429527	0.00052971	0.00195874	0.00089410	0.01152189	0.01060805	0.01726801	0.00184204	0.00484385	0.00305272	0.00774940	0.01193181	0.00898510	0.00575700	0.00226344	0.00106872	0.00397159	0.00438308	0.00321013	0.01167156	0.00686604	0.00306733	0.00685090	0.00088743	0.00724276	0.00052256
0.83000000	0.00309555	0.00402797	0.00050339	0.00191352	0.00085289	0.01142375	0.01069024	0.01678755	0.00187815	0.00471826	0.00311124	0.00790189	0.01181778	0.00892174	0.00568135	0.00211983	0.00080028	0.00353169	0.00439575	0.00344566	0.01138125	0.00678381	0.00293093	0.00685698	0.00121313	0.00722781	0.00090796
0.84000000	0.00346525	0.00409136	0.00065798	0.00169074	0.00068424	0.01160711	0.01059086	0.01628650	0.00199533	0.00466798	0.00291518	0.00768160	0.01211650	0.00893643	0.00557629	0.00218908	0.00130807	0.00329223	0.00456635	0.00371129	0.01072059	0.00677743	0.00274148	0.00722053	0.00138639	0.00706475	0.00138452
0.85000000	0.00326437	0.00383076	0.00070934	0.00157933	0.00058590	0.01145635	0.01062897	0.01602880	0.00197959	0.00454177	0.00307353	0.00789060	0.01186120	0.00900582	0.00554899	0.00190805	0.00085957	0.00288769	0.00446241	0.00389930	0.01002430	0.00667278	0.00273364	0.00707372	0.00180988	0.00709831	0.00175270
0.86000000	0.00321596	0.00388512	0.00087498	0.00155103	0.00047306	0.01151259	0.01052910	0.01569471	0.00190082	0.00446270	0.00307435	0.00791419	0.01201858	0.00900900	0.00550925	0.00175467	0.00086696	0.00231373	0.00449826	0.00415952	0.00917431	0.00660363	0.00284725	0.00699890	0.00224373	0.00696873	0.00209795
0.87000000	0.00299529	0.00402168	0.00110659	0.00163292	0.00055469	0.01171598	0.01044536	0.01521268	0.00191734	0.00431241	0.00286275	0.00779137	0.01225369	0.00912023	0.00553044	0.00156894	0.00105006	0.00201799	0.00435340	0.00428524	0.00827062	0.00645634	0.00312235	0.00704833	0.00267505	0.00680609	0.00257233
0.88000000	0.00286257	0.00404566	0.00111810	0.00162339	0.00054737	0.01203666	0.01035517	0.01474383	0.00184400	0.00426532	0.00268887	0.00777351	0.01252284	0.00910103	0.00543522	0.00153670	0.00096663	0.00151230	0.00431906	0.00454907	0.00732549	0.00631982	0.00345901	0.00702732	0.00297234	0.00658218	0.00294116
0.89000000	0.00281931	0.00403692	0.00122646	0.00158145	0.00049712	0.01217007	0.01014470	0.01433565	0.00173731	0.00420883	0.00248878	0.00765244	0.01271193	0.00919818	0.00545215	0.00140663	0.00104174	0.00095537	0.00431766	0.00478969	0.00634411	0.00623072	0.00379175	0.00709622	0.00328269	0.00643627	0.00329151
0.90000000	0.00271969	0.00395988	0.00132977	0.00155984	0.00047929	0.01231040	0.00984216	0.01375276	0.00162501	0.00408626	0.00219249	0.00756083	0.01297829	0.00928062	0.00545890	0.00133177	0.00095469	0.00057022	0.00428502	0.00498747	0.00549963	0.00609220	0.00424178	0.00716467	0.00352578	0.00627124	0.00368599
0.91000000	0.00254330	0.00400813	0.00127562	0.00156939	0.00044009	0.01216104	0.00943546	0.01320459	0.00139108	0.00404799	0.00187910	0.00753056	0.01323546	0.00926233	0.00541796	0.00120793	0.00104216	0.00033389	0.00434100	0.00515572	0.00485454	0.00588471	0.00476811	0.00717664	0.00398762	0.00610189	0.00394401
0.92000000	0.00288198	0.00400893	0.00123372	0.00102155	0.00012907	0.01173135	0.00877605	0.01285407	0.00115322	0.00418338	0.00166745	0.00745317	0.01340614	0.00923252	0.00527676	0.00123200	0.00107953	0.00068316	0.00454978	0.00537920	0.00434219	0.00576153	0.00526804	0.00737205	0.00403279	0.00600605	0.00445096
0.93000000	0.00214794	0.00389908	0.00128352	0.00145654	0.00015852	0.01126015	0.00849984	0.01149320	0.00082234	0.00385534	0.00133188	0.00749731	0.01369556	0.00918509	0.00535376	0.00103498	0.00108324	0.00113405	0.00436421	0.00547097	0.00413214	0.00540828	0.00583517	0.00730727	0.00466773	0.00584986	0.00446496
0.94000000	0.00247149	0.00367645	0.00146820	0.00102167	0.00049967	0.01041495	0.00780292	0.01063566	0.00057694	0.00379921	0.00127081	0.00748687	0.01374634	0.00919965	0.00528650	0.00107770	0.00097437	0.00167244	0.00454252	0.00572735	0.00396421	0.00520597	0.00621822	0.00746470	0.00471678	0.00580365	0.00473007
0.95000000	0.00203487	0.00364555	0.00144187	0.00128257	0.00020551	0.00989405	0.00707714	0.00821695	0.00083285	0.00283996	0.00064819	0.00732674	0.01403900	0.00931889	0.00531086	0.00107299	0.00093923	0.00210996	0.00456789	0.00577962	0.00404129	0.00492667	0.00675399	0.00743724	0.00510121	0.00562005	0.00505304
0.96000000	0.00187497	0.00352257	0.00155942	0.00117270	0.00055282	0.00862845	0.00638770	0.00663428	0.00082885	0.00250031	0.00077709	0.00733595	0.01413267	0.00923249	0.00522804	0.00105952	0.00103197	0.00252486	0.00452126	0.00588319	0.00413212	0.00461223	0.00726252	0.00753270	0.00541270	0.00550857	0.00525572
0.97000000	0.00188826	0.00334149	0.00175736	0.00116473	0.00088537	0.00749889	0.00561290	0.00473264	0.00104147	0.00190967	0.00081753	0.00734461	0.01416848	0.00916721	0.00517130	0.00108382	0.00102000	0.00301153	0.00451302	0.00602598	0.00422189	0.00431818	0.00766982	0.00759838	0.00560143	0.00542611	0.00549745
0.98000000	0.00336721	0.00318518	0.00218067	0.00138981	0.00167367	0.00641116	0.00451124	0.00347359	0.00126573	0.00188263	0.00108114	0.00733935	0.01408475	0.00909214	0.00497748	0.00121210	0.00095259	0.00331878	0.00458397	0.00617337	0.00439816	0.00413066	0.00814296	0.00761853	0.00567887	0.00557033	0.00587040
0.99000000	0.00265829	0.00300702	0.00213327	0.00128432	0.00150111	0.00611130	0.00377267	0.00140532	0.00158817	0.00050387	0.00086523	0.00741579	0.01412851	0.00902446	0.00503398	0.00111910	0.00088016	0.00376288	0.00447467	0.00625361	0.00448245	0.00388847	0.00845030	0.00761512	0.00601100	0.00534683	0.00598389
1.00000000	0.00322510	0.00290455	0.00240932	0.00158719	0.00194662	0.00646606	0.00298792	0.00204826	0.00175509	0.00078177	0.00099887	0.00743132	0.01403864	0.00888502	0.00487825	0.00112806	0.00082371	0.00409301	0.00433514	0.00630096	0.00456609	0.00368707	0.00883577	0.00771777	0.00630064	0.00526170	0.00619303
1.01000000	0.00356459	0.00275349	0.00260120	0.00179697	0.00220720	0.00733818	0.00238226	0.00353260	0.00200380	0.00151085	0.00102524	0.00751590	0.01395468	0.00875684	0.00482793	0.00103482	0.00076400	0.00439610	0.00417221	0.00640488	0.00466338	0.00355687	0.00914363	0.00769795	0.00650328	0.00520777	0.00633687
1.02000000	0.00463892	0.00257108	0.00296145	0.00235592	0.00273491	0.00839184	0.00194637	0.00460882	0.00221040	0.00186716	0.00123235	0.00741538	0.01379931	0.00876760	0.00466862	0.00121097	0.00075990	0.00471586	0.00407468	0.00654070	0.00473144	0.00343946	0.00938760	0.00770148	0.00645944	0.00536995	0.00665108
1.03000000	0.00509665	0.00249259	0.00317531	0.00268594	0.00303747	0.00925321	0.00197024	0.00560285	0.00230714	0.00230621	0.00135378	0.00739162	0.01369169	0.00863786	0.00452200	0.00121432	0.00060351	0.00505328	0.00390951	0.00662656	0.00475564	0.00333554	0.00957363	0.00778165	0.00657147	0.00537513	0.00680913
1.04000000	0.00479705	0.00238117	0.00330438	0.00280681	0.00316986	0.00951503	0.00226646	0.00656192	0.00226960	0.00297761	0.00138299	0.00726723	0.01358897	0.00852121	0.00446762	0.00115793	0.00045048	0.00528322	0.00352423	0.00657564	0.00476653	0.00323416	0.00991296	0.00782890	0.00685737	0.00527426	0.00693358
1.05000000	0.00404984	0.00234348	0.00318065	0.00259340	0.00298339	0.00960913	0.00228386	0.00707392	0.00238592	0.00319616	0.00131745	0.00720790	0.01362690	0.00839429	0.00439701	0.00107838	0.00060353	0.00541978	0.00333631	0.00669924	0.00487736	0.00316943	0.01007048	0.00783283	0.00685668	0.00520940	0.00695632
1.06000000	0.00405187	0.00219828	0.00337980	0.00277028	0.00318217	0.00921434	0.00235444	0.00697006	0.00232250	0.00291644	0.00130045	0.00701603	0.01356125	0.00835306	0.00428544	0.00107703	0.00050292	0.00557352	0.00308798	0.00679295	0.00490587	0.00313691	0.01022819	0.00790192	0.00675541	0.00534024	0.00704231
1.07000000	0.00371984	0.00204946	0.00345466	0.00278994	0.00323215	0.00830967	0.00243331	0.00671525	0.00226093	0.00258674	0.00130482	0.00677210	0.01354663	0.00828354	0.00418281	0.00103844	0.00039919	0.00572455	0.00287110	0.00681899	0.00491837	0.00307245	0.01038193	0.00803189	0.00674759	0.00537734	0.00706902
1.08000000	0.00379474	0.00199726	0.00354064	0.00293870	0.00336563	0.00699331	0.00248463	0.00624567	0.00205330	0.00236348	0.00101899	0.00624266	0.01372898	0.00835615	0.00407839	0.00104908	0.00119704	0.00556410	0.00270904	0.00683531	0.00504605	0.00295677	0.01064264	0.00829600	0.00636908	0.00550553	0.00743243
1.09000000	0.00236107	0.00214830	0.00331175	0.00258926	0.00300717	0.00580624	0.00242359	0.00572505	0.00229619	0.00182240	0.00128543	0.00625411	0.01353246	0.00817222	0.00401961	0.00094802	0.00046010	0.00575151	0.00248710	0.00682452	0.00497226	0.00306888	0.01072712	0.00824955	0.00647421	0.00549499	0.00712105
1.10000000	0.00218612	0.00217303	0.00316027	0.00250501	0.00288905	0.00386905	0.00238828	0.00547069	0.00225476	0.00257271	0.00142642	0.00570924	0.01372833	0.00822029	0.00381463	0.00105052	0.00112611	0.00562071	0.00255722	0.00688785	0.00506225	0.00293087	0.01086373	0.00856369	0.00623830	0.00587230	0.00710018
1.11000000	0.00204376	0.00199515	0.00335942	0.00251712	0.00297483	0.00316380	0.00249874	0.00428614	0.00228286	0.00234436	0.00135186	0.00566109	0.01344517	0.00806304	0.00380082	0.00073602	0.00072167	0.00556954	0.00247124	0.00676363	0.00506184	0.00303322	0.01109939	0.00847664	0.00601931	0.00568408	0.00713753
1.12000000	0.00176583	0.00190806	0.00308857	0.00223628	0.00264531	0.00227642	0.00288616	0.00384488	0.00249231	0.00205938	0.00131860	0.00537851	0.01318601	0.00805400	0.00363209	0.00083149	0.00051202	0.00553852	0.00253939	0.00665370	0.00505851	0.00293603	0.01118410	0.00864991	0.00599389	0.00588007	0.00697723
1.13000000	0.00168882	0.00207596	0.00290194	0.00212596	0.00243625	0.00217269	0.00314604	0.00341769	0.00244085	0.00214591	0.00147447	0.00514545	0.01287990	0.00800174	0.00354558	0.00076964	0.00054308	0.00544684	0.00265270	0.00655373	0.00507385	0.00285855	0.01133507	0.00875587	0.00585950	0.00608060	0.00685637
1.14000000	0.00178258	0.00257907	0.00286571	0.00223407	0.00241381	0.00250754	0.00271260	0.00320409	0.00233056	0.00174115	0.00154128	0.00560714	0.01220919	0.00718252	0.00328223	0.00088928	0.00036262	0.00535539	0.00290508	0.00657829	0.00510780	0.00273250	0.01155127	0.00897239	0.00555840	0.00627145	0.00671604
1.15000000	0.00184787	0.00281904	0.00278054	0.00222738	0.00232365	0.00293270	0.00287566	0.00289411	0.00221312	0.00229308	0.00132459	0.00537394	0.01168543	0.00715911	0.00308080	0.00068581	0.00054606	0.00521187	0.00300775	0.00642953	0.00512824	0.00267978	0.01175783	0.00896989	0.00548930	0.00653910	0.00655762
1.16000000	0.00199360	0.00276161	0.00267551	0.00214371	0.00218072	0.00343253	0.00328936	0.00256349	0.00217784	0.00201584	0.00119531	0.00518126	0.01091212	0.00714333	0.00287491	0.00057583	0.00063242	0.00513905	0.00301858	0.00623993	0.00513237	0.00257058	0.01186990	0.00912518	0.00540264	0.00678154	0.00645893
1.17000000	0.00204236	0.00279419	0.00267004	0.00206985	0.00208931	0.00385937	0.00357749	0.00235260	0.00210781	0.00136193	0.00106622	0.00514112	0.01000156	0.00697813	0.00260079	0.00057102	0.00077261	0.00513121	0.00323696	0.00621417	0.00517296	0.00243386	0.01191820	0.00936994	0.00508526	0.00690268	0.00632933
1.18000000	0.00210720	0.00299229	0.00275205	0.00215912	0.00213399	0.00416322	0.00360495	0.00219066	0.00194785	0.00120804	0.00095295	0.00522193	0.00908881	0.00656427	0.00231959	0.00049819	0.00089272	0.00501748	0.00337023	0.00615309	0.00524309	0.00237875	0.01208142	0.00947417	0.00479424	0.00708910	0.00623961
1.19000000	0.00167949	0.00338870	0.00265938	0.00220176	0.00205619	0.00452257	0.00371110	0.00224741	0.00197731	0.00166166	0.00083299	0.00527672	0.00804137	0.00629885	0.00211331	0.00039530	0.00142854	0.00490763	0.00328034	0.00593854	0.00524952	0.00249550	0.01224857	0.00921555	0.00530531	0.00768580	0.00571843
1.20000000	0.00194107	0.00360856	0.00282793	0.00238338	0.00216014	0.00470504	0.00370255	0.00199803	0.00190344	0.00116616	0.00048585	0.00528033	0.00713727	0.00568965	0.00185809	0.00072186	0.00127301	0.00494998	0.00344252	0.00593802	0.00527714	0.00245491	0.01227939	0.00962152	0.00457446	0.00756694	0.00590419
1.21000000	0.00190360	0.00400530	0.00290214	0.00248948	0.00215683	0.00492776	0.00348204	0.00199413	0.00182014	0.00129695	0.00040137	0.00541005	0.00607509	0.00487904	0.00186689	0.00097319	0.00121893	0.00487704	0.00352332	0.00589193	0.00531821	0.00255131	0.01235906	0.00966141	0.00430512	0.00781133	0.00578141
1.22000000	0.00215457	0.00441838	0.00300485	0.00275728	0.00222294	0.00510938	0.00313469	0.00184687	0.00171309	0.00137809	0.00040248	0.00562300	0.00438075	0.00381699	0.00190851	0.00114773	0.00121587	0.00502354	0.00366913	0.00590707	0.00528451	0.00263431	0.01235852	0.00961008	0.00417341	0.00803939	0.00551002
1.23000000	0.00190788	0.00485280	0.00303969	0.00292060	0.00228521	0.00542379	0.00333081	0.00160121	0.00180876	0.00128816	0.00024678	0.00558809	0.00324792	0.00300601	0.00233884	0.00156802	0.00145423	0.00482896	0.00350529	0.00572656	0.00534278	0.00289132	0.01250283	0.00945131	0.00418107	0.00820934	0.00534927
1.24000000	0.00177938	0.00530957	0.00312957	0.00303724	0.00232945	0.00563284	0.00336111	0.00147975	0.00184479	0.00135465	0.00017562	0.00551418	0.00235783	0.00214659	0.00288048	0.00222024	0.00157993	0.00471549	0.00351383	0.00566438	0.00535814	0.00313679	0.01251573	0.00938656	0.00406969	0.00830570	0.00510261
1.25000000	0.00171206	0.00580573	0.00316271	0.00315154	0.00230491	0.00587186	0.00335818	0.00143362	0.00187043	0.00146815	0.00021883	0.00541579	0.00184055	0.00171084	0.00345441	0.00275477	0.00165106	0.00464438	0.00354973	0.00560146	0.00533860	0.00340112	0.01245209	0.00932619	0.00386442	0.00834941	0.00491700
1.26000000	0.00175576	0.00635937	0.00324098	0.00331947	0.00233230	0.00606120	0.00331765	0.00146369	0.00184073	0.00160955	0.00020413	0.00533807	0.00222341	0.00220333	0.00401973	0.00323037	0.00176836	0.00458990	0.00355418	0.00553666	0.00526203	0.00372846	0.01230415	0.00923571	0.00368197	0.00835713	0.00468227
1.27000000	0.00204090	0.00695130	0.00322434	0.00356339	0.00230313	0.00620582	0.00324860	0.00152868	0.00183083	0.00157677	0.00029786	0.00523887	0.00324569	0.00350312	0.00447317	0.00353682	0.00202845	0.00457078	0.00369930	0.00554581	0.00522890	0.00398303	0.01215099	0.00909266	0.00338089	0.00821563	0.00444280
1.28000000	0.00202211	0.00726769	0.00315810	0.00363730	0.00229110	0.00643380	0.00333489	0.00161558	0.00189881	0.00162500	0.00032072	0.00532146	0.00468751	0.00498649	0.00501769	0.00409630	0.00213170	0.00451105	0.00368873	0.00547970	0.00515438	0.00429148	0.01198192	0.00892181	0.00327830	0.00815805	0.00415616
1.29000000	0.00232384	0.00759010	0.00308617	0.00373921	0.00226834	0.00650507	0.00330028	0.00189285	0.00183367	0.00164306	0.00033601	0.00538662	0.00612759	0.00674367	0.00537071	0.00443923	0.00228999	0.00449410	0.00368067	0.00546035	0.00509781	0.00453206	0.01184059	0.00873785	0.00304385	0.00801506	0.00394067
1.30000000	0.00229742	0.00760479	0.00298688	0.00373283	0.00231871	0.00667901	0.00341761	0.00213842	0.00196147	0.00168435	0.00035831	0.00578087	0.00774991	0.00831432	0.00578871	0.00494780	0.00227886	0.00447137	0.00364228	0.00541851	0.00503019	0.00480070	0.01165277	0.00851881	0.00288248	0.00783510	0.00368816
1.31000000	0.00252875	0.00766746	0.00284870	0.00369219	0.00227719	0.00677854	0.00343990	0.00246203	0.00195349	0.00173360	0.00038019	0.00621858	0.00912522	0.01001125	0.00603796	0.00526168	0.00228757	0.00441326	0.00356521	0.00534360	0.00494682	0.00502999	0.01145782	0.00833640	0.00267647	0.00768999	0.00351261
1.32000000	0.00267793	0.00748225	0.00277497	0.00363301	0.00234955	0.00688105	0.00350134	0.00281061	0.00206193	0.00177933	0.00033318	0.00672905	0.01057150	0.01151760	0.00626607	0.00562225	0.00210910	0.00440781	0.00344533	0.00529432	0.00486123	0.00526728	0.01124118	0.00807512	0.00249254	0.00750920	0.00329756
1.33000000	0.00284929	0.00664157	0.00273194	0.00356599	0.00255680	0.00719707	0.00388627	0.00284465	0.00221224	0.00161857	0.00077351	0.00707527	0.01249670	0.01272782	0.00634538	0.00574676	0.00254684	0.00463832	0.00339802	0.00515389	0.00482892	0.00521697	0.01108928	0.00783306	0.00238445	0.00729107	0.00333087
1.34000000	0.00336195	0.00735413	0.00253481	0.00336852	0.00222854	0.00695260	0.00355070	0.00358220	0.00211226	0.00173808	0.00053363	0.00771766	0.01259654	0.01445437	0.00630495	0.00576056	0.00187267	0.00442188	0.00327911	0.00518168	0.00467990	0.00557223	0.01074451	0.00767260	0.00209776	0.00706287	0.00293609
1.35000000	0.00352436	0.00692832	0.00250283	0.00325319	0.00229832	0.00703139	0.00367388	0.00394933	0.00233322	0.00178295	0.00047133	0.00831628	0.01367114	0.01535211	0.00637777	0.00586217	0.00158771	0.00448376	0.00322383	0.00509521	0.00460365	0.00568801	0.01045014	0.00734426	0.00194773	0.00684614	0.00276468
1.36000000	0.00381366	0.00663552	0.00243758	0.00307746	0.00225274	0.00705796	0.00371191	0.00426656	0.00241343	0.00190543	0.00047053	0.00879173	0.01431898	0.01628245	0.00638040	0.00586334	0.00153045	0.00449810	0.00316766	0.00499381	0.00456195	0.00573177	0.01020152	0.00710047	0.00178728	0.00654463	0.00262697
1.37000000	0.00415181	0.00656339	0.00237115	0.00285251	0.00212836	0.00711520	0.00377582	0.00451596	0.00243500	0.00183834	0.00062097	0.00905554	0.01470078	0.01715186	0.00626570	0.00577305	0.00171848	0.00446501	0.00307707	0.00490621	0.00448663	0.00580242	0.00991704	0.00685031	0.00162671	0.00630237	0.00246863
1.38000000	0.00430984	0.00536258	0.00279473	0.00290992	0.00257963	0.00732065	0.00432152	0.00457575	0.00268540	0.00174368	0.00122738	0.00940527	0.01628296	0.01697026	0.00610139	0.00562464	0.00243128	0.00490420	0.00311449	0.00474072	0.00451219	0.00551267	0.00969362	0.00654197	0.00155556	0.00592811	0.00252072
1.39000000	0.00465607	0.00618285	0.00228814	0.00247065	0.00195495	0.00724160	0.00392132	0.00496979	0.00254348	0.00189903	0.00071633	0.00954717	0.01529592	0.01817582	0.00602894	0.00558425	0.00237977	0.00447297	0.00297818	0.00466541	0.00436276	0.00583715	0.00932336	0.00626630	0.00148127	0.00579744	0.00218542
1.40000000	0.00470404	0.00553280	0.00241207	0.00242811	0.00208377	0.00735971	0.00407658	0.00517866	0.00280131	0.00204220	0.00043756	0.00997423	0.01582760	0.01807867	0.00599376	0.00553048	0.00274081	0.00458238	0.00298964	0.00449834	0.00434557	0.00578161	0.00902198	0.00587772	0.00148540	0.00550577	0.00211885
1.41000000	0.00489111	0.00537096	0.00232047	0.00229550	0.00196548	0.00732163	0.00405258	0.00551887	0.00285381	0.00216174	0.00052578	0.01020235	0.01578119	0.01828293	0.00590786	0.00551287	0.00308815	0.00447548	0.00297407	0.00433446	0.00429782	0.00576233	0.00871762	0.00559293	0.00160540	0.00527592	0.00195326
1.42000000	0.00487403	0.00435818	0.00249521	0.00226496	0.00213083	0.00751387	0.00451060	0.00551680	0.00295330	0.00202569	0.00128402	0.01062445	0.01647550	0.01795091	0.00584060	0.00551337	0.00332481	0.00497094	0.00289989	0.00420200	0.00433896	0.00529831	0.00856039	0.00525438	0.00172103	0.00495410	0.00200371
1.43000000	0.00500799	0.00513863	0.00208789	0.00196085	0.00165180	0.00753990	0.00421553	0.00568700	0.00275780	0.00217288	0.00078734	0.01048696	0.01541813	0.01895501	0.00549542	0.00530816	0.00323627	0.00425590	0.00296695	0.00403497	0.00420054	0.00565313	0.00818042	0.00492115	0.00176354	0.00487706	0.00165657
1.44000000	0.00498729	0.00442804	0.00217434	0.00201704	0.00177881	0.00764964	0.00438824	0.00573827	0.00284113	0.00220818	0.00083900	0.01090679	0.01563265	0.01880122	0.00537835	0.00528833	0.00332412	0.00444117	0.00295383	0.00388516	0.00419012	0.00543506	0.00795943	0.00451872	0.00187454	0.00461977	0.00167016
1.45000000	0.00497724	0.00454201	0.00199014	0.00191940	0.00158035	0.00767132	0.00424949	0.00593227	0.00274328	0.00231891	0.00072917	0.01115986	0.01511708	0.01924981	0.00524614	0.00526359	0.00317249	0.00408758	0.00303497	0.00372914	0.00411693	0.00548652	0.00767422	0.00420146	0.00200461	0.00442929	0.00141913
1.46000000	0.00485204	0.00408777	0.00193940	0.00197779	0.00159768	0.00775301	0.00437586	0.00605558	0.00279100	0.00233172	0.00094791	0.01154162	0.01508301	0.01934591	0.00505879	0.00531778	0.00324634	0.00423817	0.00300818	0.00362486	0.00409096	0.00523578	0.00746311	0.00379737	0.00216292	0.00417556	0.00134527
1.47000000	0.00486218	0.00400140	0.00186134	0.00204544	0.00157344	0.00782123	0.00418859	0.00613628	0.00268902	0.00242898	0.00056151	0.01200866	0.01487376	0.01953585	0.00491823	0.00530441	0.00317145	0.00409971	0.00310119	0.00350634	0.00401943	0.00519394	0.00723698	0.00353840	0.00229833	0.00386782	0.00120424
1.48000000	0.00472921	0.00361195	0.00175965	0.00184417	0.00141138	0.00806008	0.00457772	0.00574770	0.00253012	0.00210509	0.00132217	0.01207546	0.01477544	0.02022161	0.00467464	0.00533535	0.00348185	0.00451471	0.00317906	0.00354935	0.00393732	0.00488541	0.00719728	0.00285726	0.00270611	0.00388847	0.00109249
1.49000000	0.00468216	0.00394154	0.00174751	0.00217996	0.00156609	0.00781803	0.00398206	0.00625885	0.00248917	0.00247682	0.00050384	0.01276300	0.01452618	0.02012810	0.00470154	0.00538665	0.00289970	0.00377023	0.00335577	0.00330908	0.00385053	0.00509285	0.00686797	0.00281491	0.00243009	0.00345344	0.00083255
1.50000000	0.00456073	0.00384108	0.00159563	0.00220702	0.00152231	0.00780430	0.00397710	0.00628520	0.00241253	0.00242820	0.00074571	0.01299683	0.01435536	0.02054069	0.00454082	0.00541365	0.00302448	0.00374652	0.00344447	0.00328176	0.00376750	0.00497953	0.00674534	0.00233681	0.00259919	0.00333757	0.00069600
1.51000000	0.00448193	0.00385730	0.00179818	0.00235287	0.00171494	0.00772449	0.00386294	0.00625840	0.00231109	0.00243573	0.00056273	0.01331886	0.01444071	0.02057642	0.00455661	0.00543962	0.00296771	0.00353864	0.00369979	0.00314921	0.00371562	0.00500670	0.00665731	0.00198837	0.00257577	0.00305580	0.00051043
1.52000000	0.00440460	0.00388096	0.00158954	0.00230732	0.00161412	0.00767459	0.00392362	0.00617997	0.00215066	0.00234495	0.00087148	0.01346021	0.01424549	0.02101362	0.00446785	0.00532694	0.00307519	0.00361826	0.00386787	0.00317398	0.00355164	0.00495493	0.00660475	0.00146438	0.00278279	0.00300813	0.00036307
1.53000000	0.00435036	0.00394722	0.00191843	0.00243871	0.00184266	0.00751065	0.00370056	0.00618745	0.00207239	0.00233054	0.00042716	0.01370104	0.01442733	0.02076665	0.00455230	0.00536129	0.00307751	0.00354745	0.00408124	0.00306589	0.00356376	0.00492374	0.00665695	0.00141042	0.00276690	0.00253425	0.00020845
1.54000000	0.00432428	0.00399395	0.00211427	0.00247513	0.00196203	0.00736305	0.00361778	0.00608425	0.00198941	0.00221451	0.00035789	0.01376709	0.01441482	0.02068137	0.00462153	0.00534178	0.00320094	0.00359656	0.00436121	0.00302938	0.00349807	0.00493610	0.00671039	0.00118390	0.00287961	0.00230688	0.00013075
1.55000000	0.00430051	0.00409486	0.00204967	0.00244314	0.00194483	0.00725176	0.00376860	0.00592102	0.00180098	0.00211531	0.00072309	0.01382382	0.01418456	0.02073468	0.00460156	0.00516047	0.00323297	0.00373310	0.00463318	0.00303421	0.00332202	0.00502140	0.00680360	0.00081863	0.00305750	0.00232724	0.00051825
1.56000000	0.00430754	0.00419629	0.00249919	0.00252966	0.00216342	0.00694643	0.00352561	0.00588777	0.00172891	0.00210620	0.00023029	0.01369899	0.01442920	0.02012154	0.00465216	0.00510114	0.00330813	0.00395504	0.00494238	0.00296714	0.00335481	0.00499792	0.00689497	0.00119470	0.00318562	0.00179041	0.00040815
1.57000000	0.00426260	0.00422580	0.00250520	0.00248471	0.00216718	0.00682981	0.00370806	0.00570746	0.00156683	0.00192498	0.00062775	0.01364565	0.01401775	0.01988911	0.00465122	0.00510355	0.00343282	0.00412500	0.00517295	0.00297172	0.00324837	0.00509907	0.00714464	0.00120045	0.00328839	0.00184836	0.00072296
1.58000000	0.00431170	0.00426463	0.00297199	0.00256402	0.00237762	0.00660352	0.00351434	0.00558599	0.00153599	0.00180309	0.00027083	0.01331097	0.01424093	0.01908634	0.00469953	0.00481109	0.00333231	0.00440585	0.00539266	0.00291744	0.00331875	0.00505672	0.00731657	0.00156640	0.00327083	0.00141043	0.00063006
1.59000000	0.00417019	0.00425837	0.00291824	0.00250047	0.00233730	0.00646022	0.00377794	0.00539089	0.00142938	0.00168802	0.00072108	0.01315774	0.01353818	0.01870780	0.00471190	0.00487033	0.00337650	0.00466959	0.00567970	0.00291282	0.00321349	0.00523201	0.00755386	0.00185111	0.00340556	0.00147789	0.00100600
1.60000000	0.00425399	0.00430737	0.00320290	0.00252397	0.00242559	0.00615536	0.00349556	0.00538406	0.00132807	0.00153922	0.00030261	0.01259389	0.01365838	0.01781268	0.00459627	0.00452312	0.00328778	0.00504371	0.00592003	0.00289047	0.00325174	0.00520921	0.00769396	0.00221640	0.00345870	0.00103451	0.00093213
1.61000000	0.00409979	0.00423571	0.00308316	0.00247742	0.00235077	0.00602214	0.00364915	0.00523464	0.00124373	0.00142028	0.00063385	0.01237512	0.01303415	0.01719548	0.00452992	0.00448400	0.00321192	0.00523220	0.00613677	0.00294500	0.00318377	0.00537097	0.00796659	0.00247069	0.00351440	0.00111424	0.00113667
1.62000000	0.00416117	0.00425864	0.00339239	0.00249217	0.00244269	0.00582488	0.00340085	0.00507743	0.00118406	0.00133460	0.00043711	0.01176541	0.01304213	0.01614589	0.00444376	0.00418690	0.00304816	0.00562967	0.00629948	0.00290548	0.00323854	0.00537884	0.00810387	0.00280258	0.00344634	0.00076129	0.00111658
1.63000000	0.00395136	0.00409939	0.00307143	0.00239999	0.00224038	0.00563959	0.00355693	0.00498018	0.00110070	0.00130566	0.00075779	0.01142722	0.01218191	0.01567839	0.00437149	0.00431848	0.00302972	0.00583336	0.00657360	0.00293828	0.00310597	0.00560168	0.00831548	0.00313572	0.00357266	0.00082320	0.00127683
1.64000000	0.00399493	0.00402155	0.00286779	0.00231487	0.00206557	0.00562136	0.00348930	0.00471072	0.00109396	0.00117092	0.00041203	0.01089125	0.01208328	0.01498907	0.00410803	0.00386715	0.00276931	0.00609895	0.00658605	0.00295582	0.00315093	0.00561381	0.00856384	0.00338336	0.00357580	0.00050888	0.00124081
1.65000000	0.00400418	0.00419872	0.00319419	0.00239274	0.00219733	0.00536199	0.00325197	0.00461278	0.00109416	0.00116154	0.00052089	0.01026776	0.01181963	0.01400679	0.00412157	0.00376094	0.00264422	0.00653294	0.00671830	0.00292480	0.00317860	0.00576125	0.00859183	0.00362064	0.00340991	0.00037924	0.00117332
1.66000000	0.00397280	0.00407213	0.00288803	0.00235145	0.00201867	0.00528564	0.00324479	0.00439606	0.00109031	0.00111484	0.00050466	0.00980610	0.01134154	0.01363692	0.00397517	0.00365654	0.00249347	0.00675247	0.00681633	0.00294794	0.00312511	0.00592593	0.00876947	0.00382324	0.00344170	0.00031430	0.00112979
1.67000000	0.00397644	0.00396192	0.00265532	0.00230153	0.00186649	0.00513120	0.00318979	0.00421886	0.00114932	0.00110477	0.00053627	0.00936582	0.01097444	0.01323530	0.00389409	0.00352850	0.00235606	0.00701732	0.00688375	0.00291258	0.00309195	0.00609915	0.00897302	0.00407187	0.00345153	0.00028737	0.00111352
1.68000000	0.00400320	0.00406048	0.00284083	0.00239607	0.00195235	0.00497610	0.00305526	0.00398066	0.00120469	0.00113571	0.00073864	0.00900512	0.01076470	0.01248181	0.00396390	0.00356826	0.00225505	0.00733661	0.00688702	0.00286822	0.00310149	0.00632785	0.00907267	0.00425241	0.00328924	0.00005774	0.00104982
1.69000000	0.00403679	0.00406829	0.00258767	0.00243408	0.00185247	0.00481265	0.00301607	0.00379185	0.00127699	0.00126217	0.00068845	0.00858725	0.01037534	0.01235665	0.00389220	0.00350907	0.00217932	0.00759822	0.00701192	0.00284991	0.00303772	0.00654487	0.00918893	0.00439444	0.00328818	0.00015986	0.00095710
1.70000000	0.00405953	0.00406535	0.00253913	0.00249797	0.00183612	0.00463343	0.00295246	0.00361468	0.00136171	0.00135314	0.00083172	0.00827105	0.01011565	0.01203419	0.00394226	0.00352860	0.00210589	0.00792681	0.00703971	0.00280815	0.00303903	0.00676836	0.00932553	0.00455205	0.00323217	0.00013468	0.00087105
1.71000000	0.00416467	0.00398390	0.00237228	0.00255226	0.00180787	0.00448231	0.00285009	0.00348424	0.00148995	0.00143656	0.00086416	0.00806084	0.00984785	0.01186000	0.00391727	0.00355573	0.00206583	0.00814399	0.00710224	0.00272462	0.00300340	0.00700868	0.00952366	0.00472572	0.00321215	0.00030243	0.00082189
1.72000000	0.00415879	0.00376972	0.00223409	0.00271995	0.00192586	0.00422823	0.00275294	0.00350789	0.00160081	0.00145151	0.00172004	0.00779788	0.00890240	0.01209672	0.00408392	0.00409847	0.00251129	0.00840626	0.00727010	0.00261303	0.00282686	0.00735826	0.00961554	0.00496843	0.00352514	0.00049571	0.00075689
1.73000000	0.00429670	0.00403022	0.00219952	0.00279987	0.00191356	0.00423643	0.00280985	0.00329200	0.00173512	0.00169752	0.00097959	0.00764516	0.00937494	0.01146595	0.00378190	0.00362057	0.00207721	0.00870298	0.00721275	0.00260368	0.00296673	0.00751455	0.00982139	0.00498943	0.00325055	0.00052689	0.00074569
1.74000000	0.00437581	0.00393688	0.00210700	0.00292454	0.00198418	0.00401801	0.00266925	0.00332729	0.00186057	0.00176384	0.00135676	0.00750903	0.00880743	0.01131427	0.00382703	0.00375988	0.00222708	0.00895803	0.00741507	0.00254670	0.00290320	0.00778523	0.01001688	0.00515345	0.00337884	0.00045121	0.00073364
1.75000000	0.00426876	0.00411680	0.00218921	0.00314338	0.00206777	0.00399650	0.00277022	0.00312666	0.00184788	0.00220859	0.00119941	0.00720848	0.00890308	0.01076763	0.00376884	0.00377315	0.00206500	0.00924868	0.00753006	0.00257980	0.00295283	0.00800722	0.01008509	0.00514717	0.00325649	0.00043221	0.00060732
1.76000000	0.00433454	0.00404810	0.00208099	0.00325235	0.00210684	0.00390583	0.00262230	0.00319388	0.00199721	0.00230042	0.00137710	0.00705494	0.00845837	0.01044711	0.00375312	0.00391127	0.00212221	0.00943718	0.00767489	0.00254674	0.00297138	0.00821643	0.01034501	0.00528135	0.00334617	0.00050050	0.00061801
1.77000000	0.00423758	0.00408156	0.00203982	0.00343243	0.00217395	0.00389659	0.00259813	0.00310051	0.00201032	0.00264491	0.00151783	0.00683730	0.00819377	0.00992716	0.00369069	0.00400815	0.00210443	0.00965313	0.00787830	0.00261118	0.00301175	0.00841412	0.01053667	0.00532936	0.00340126	0.00046930	0.00060928
1.78000000	0.00435414	0.00391500	0.00187526	0.00354216	0.00227108	0.00381029	0.00238037	0.00335035	0.00210608	0.00258249	0.00206546	0.00690237	0.00745426	0.00955090	0.00364013	0.00419421	0.00217257	0.00973303	0.00815306	0.00262832	0.00300001	0.00859912	0.01082215	0.00542219	0.00361365	0.00054982	0.00065269
1.79000000	0.00421360	0.00411759	0.00170550	0.00373122	0.00228449	0.00395058	0.00242702	0.00335699	0.00221733	0.00293459	0.00165938	0.00645892	0.00727252	0.00913825	0.00339197	0.00404251	0.00216255	0.00982356	0.00837013	0.00273339	0.00309299	0.00871743	0.01108524	0.00545116	0.00368119	0.00060128	0.00061339
1.80000000	0.00402126	0.00394241	0.00174782	0.00409943	0.00258572	0.00393527	0.00218683	0.00359107	0.00225147	0.00294360	0.00263583	0.00610249	0.00593661	0.00916957	0.00358405	0.00486626	0.00204183	0.00979001	0.00867512	0.00285170	0.00307738	0.00895210	0.01128426	0.00541121	0.00395592	0.00052368	0.00066498
1.81000000	0.00396405	0.00402636	0.00144427	0.00424712	0.00245389	0.00407901	0.00240564	0.00344184	0.00229939	0.00339717	0.00180777	0.00601764	0.00658193	0.00800705	0.00316883	0.00419687	0.00215877	0.00985579	0.00898923	0.00293932	0.00318389	0.00891439	0.01160148	0.00550462	0.00407053	0.00065431	0.00072123
1.82000000	0.00377032	0.00372823	0.00148272	0.00469066	0.00275391	0.00408842	0.00215317	0.00366975	0.00235259	0.00344280	0.00267934	0.00572977	0.00523231	0.00803175	0.00341144	0.00514979	0.00191435	0.00979004	0.00931300	0.00309471	0.00321970	0.00904412	0.01180992	0.00545016	0.00435420	0.00063934	0.00076765
1.83000000	0.00385048	0.00396150	0.00110036	0.00501851	0.00266177	0.00429383	0.00229256	0.00365311	0.00244856	0.00359916	0.00207189	0.00568294	0.00561659	0.00717604	0.00292770	0.00432783	0.00219264	0.00974634	0.00968547	0.00319222	0.00332764	0.00889627	0.01220676	0.00551929	0.00461965	0.00074974	0.00087358
1.84000000	0.00367856	0.00366518	0.00125091	0.00567040	0.00303294	0.00435133	0.00210272	0.00379494	0.00242594	0.00373263	0.00275502	0.00554171	0.00442795	0.00714263	0.00318529	0.00526859	0.00197978	0.00965772	0.00999302	0.00338136	0.00341324	0.00891730	0.01240300	0.00542918	0.00492321	0.00080605	0.00090257
1.85000000	0.00363484	0.00363037	0.00130116	0.00636491	0.00312131	0.00452979	0.00227891	0.00373984	0.00245025	0.00406149	0.00208716	0.00537700	0.00523204	0.00635424	0.00282347	0.00455859	0.00218036	0.00944802	0.01040047	0.00344980	0.00349004	0.00873800	0.01276015	0.00547358	0.00506087	0.00075173	0.00090599
1.86000000	0.00363877	0.00365020	0.00150680	0.00726585	0.00342851	0.00470745	0.00226788	0.00377683	0.00245308	0.00419202	0.00221654	0.00544951	0.00494732	0.00604157	0.00269307	0.00450989	0.00220395	0.00928915	0.01078727	0.00358062	0.00355888	0.00857389	0.01301022	0.00538716	0.00540039	0.00078388	0.00107172
1.87000000	0.00364928	0.00364483	0.00194879	0.00829583	0.00386272	0.00486005	0.00221687	0.00385402	0.00241579	0.00431179	0.00260395	0.00541474	0.00379964	0.00629883	0.00290891	0.00510499	0.00220678	0.00917830	0.01113462	0.00374111	0.00365219	0.00837905	0.01320274	0.00527652	0.00567419	0.00085829	0.00117869
1.88000000	0.00372222	0.00400786	0.00245369	0.00952864	0.00434182	0.00505307	0.00224366	0.00390717	0.00241147	0.00442157	0.00283297	0.00541316	0.00287801	0.00649872	0.00299476	0.00528794	0.00241908	0.00908375	0.01145119	0.00389816	0.00375468	0.00814083	0.01338172	0.00516046	0.00597106	0.00093377	0.00141480
1.89000000	0.00393965	0.00453619	0.00301859	0.01091898	0.00464307	0.00533780	0.00220485	0.00383225	0.00245368	0.00457713	0.00234016	0.00582518	0.00402326	0.00551542	0.00245366	0.00429679	0.00223505	0.00863118	0.01181044	0.00391448	0.00378869	0.00784782	0.01372896	0.00504754	0.00632125	0.00073183	0.00154716
1.90000000	0.00413279	0.00529097	0.00378764	0.01234783	0.00517446	0.00561294	0.00223707	0.00379643	0.00245445	0.00464152	0.00237440	0.00560030	0.00270391	0.00614171	0.00266415	0.00433228	0.00280000	0.00846362	0.01205042	0.00402120	0.00389065	0.00756060	0.01392927	0.00492002	0.00648318	0.00085564	0.00178898
1.91000000	0.00430722	0.00533387	0.00442896	0.01405420	0.00576982	0.00549574	0.00221870	0.00406059	0.00245634	0.00454093	0.00237329	0.00569772	0.00371186	0.00512552	0.00255274	0.00422808	0.00197850	0.00807814	0.01226209	0.00400353	0.00390201	0.00738403	0.01409159	0.00482667	0.00666574	0.00069700	0.00162622
1.92000000	0.00453677	0.00658004	0.00526226	0.01552071	0.00625249	0.00569518	0.00210444	0.00405218	0.00240166	0.00463399	0.00224929	0.00563253	0.00295701	0.00509263	0.00248360	0.00361563	0.00243037	0.00784809	0.01266182	0.00409916	0.00388438	0.00709449	0.01409524	0.00452915	0.00695440	0.00061537	0.00201518
1.93000000	0.00485244	0.00742203	0.00607535	0.01691752	0.00662379	0.00588828	0.00206235	0.00399717	0.00241433	0.00439167	0.00250311	0.00543719	0.00271297	0.00480798	0.00247479	0.00369150	0.00146928	0.00730458	0.01269329	0.00416648	0.00397485	0.00702801	0.01435784	0.00428300	0.00714088	0.00054057	0.00215216
1.94000000	0.00515387	0.00831593	0.00680878	0.01813369	0.00696961	0.00595717	0.00199188	0.00398507	0.00236801	0.00427432	0.00248910	0.00504314	0.00228993	0.00432302	0.00250040	0.00330507	0.00134168	0.00696451	0.01285676	0.00420943	0.00397832	0.00693081	0.01439452	0.00404451	0.00732348	0.00041369	0.00239055
1.95000000	0.00537941	0.00933019	0.00751031	0.01901171	0.00721887	0.00604047	0.00178741	0.00391880	0.00233306	0.00414850	0.00239194	0.00450165	0.00157781	0.00386721	0.00253576	0.00264725	0.00139943	0.00661222	0.01299000	0.00427337	0.00396183	0.00689823	0.01435236	0.00374278	0.00749330	0.00031872	0.00275427
1.96000000	0.00568669	0.00990008	0.00804656	0.01953647	0.00736779	0.00579298	0.00199050	0.00403754	0.00239948	0.00371390	0.00215610	0.00383438	0.00135789	0.00301357	0.00271757	0.00242650	0.00131746	0.00619134	0.01288486	0.00425352	0.00400003	0.00700840	0.01437050	0.00353707	0.00740235	0.00025294	0.00290393
1.97000000	0.00597263	0.01070574	0.00857018	0.01941277	0.00719348	0.00579989	0.00163470	0.00376715	0.00239661	0.00335842	0.00228543	0.00326023	0.00082707	0.00238276	0.00283888	0.00191641	0.00115646	0.00574257	0.01289874	0.00432927	0.00396229	0.00705232	0.01429922	0.00317480	0.00756671	0.00012799	0.00316703
1.98000000	0.00628124	0.01101957	0.00882018	0.01886813	0.00688961	0.00569573	0.00137245	0.00341807	0.00242042	0.00296513	0.00238453	0.00286181	0.00111219	0.00162645	0.00305013	0.00173903	0.00103202	0.00533332	0.01278883	0.00437775	0.00393475	0.00711434	0.01419498	0.00285537	0.00764195	0.00008198	0.00338129
1.99000000	0.00659902	0.01093686	0.00874942	0.01790945	0.00654298	0.00531619	0.00129995	0.00316789	0.00243913	0.00278401	0.00187106	0.00279092	0.00172497	0.00113466	0.00337024	0.00186806	0.00102233	0.00504970	0.01256481	0.00430484	0.00388314	0.00714894	0.01397601	0.00265822	0.00752280	0.00024828	0.00362702
2.00000000	0.00684617	0.01079947	0.00865336	0.01629448	0.00594856	0.00496931	0.00123502	0.00269864	0.00256312	0.00218604	0.00221567	0.00327805	0.00258961	0.00160903	0.00364274	0.00199434	0.00108780	0.00464237	0.01232225	0.00430678	0.00379800	0.00716208	0.01377878	0.00234370	0.00749325	0.00022979	0.00375503
2.01000000	0.00720680	0.01026402	0.00822669	0.01437044	0.00532539	0.00446900	0.00151266	0.00222718	0.00264848	0.00189474	0.00225498	0.00386721	0.00335670	0.00268956	0.00391500	0.00243223	0.00108736	0.00441754	0.01204975	0.00423744	0.00365316	0.00710253	0.01339561	0.00208460	0.00740019	0.00040191	0.00390463
2.02000000	0.00724549	0.00964581	0.00787570	0.01197359	0.00457338	0.00386787	0.00214181	0.00196287	0.00290579	0.00153998	0.00261212	0.00497480	0.00448467	0.00347719	0.00435615	0.00239650	0.00105018	0.00426146	0.01172824	0.00415487	0.00353878	0.00695504	0.01308110	0.00187661	0.00725198	0.00038119	0.00405081
2.03000000	0.00782148	0.00872653	0.00717081	0.00958410	0.00397069	0.00304334	0.00276233	0.00189000	0.00294357	0.00183351	0.00304093	0.00541944	0.00497519	0.00458249	0.00451777	0.00290795	0.00108489	0.00395430	0.01122922	0.00400304	0.00332810	0.00699072	0.01266118	0.00166318	0.00707031	0.00052225	0.00400524
2.04000000	0.00800753	0.00759996	0.00650083	0.00721953	0.00347669	0.00201519	0.00366906	0.00242557	0.00313998	0.00226845	0.00359429	0.00612162	0.00571583	0.00543285	0.00481975	0.00301654	0.00119865	0.00391166	0.01077224	0.00389736	0.00314957	0.00688843	0.01218435	0.00140837	0.00684546	0.00064658	0.00396007
2.05000000	0.00819583	0.00651668	0.00583504	0.00500452	0.00313587	0.00092902	0.00456672	0.00331844	0.00334557	0.00299060	0.00406236	0.00667409	0.00634205	0.00609231	0.00501224	0.00314134	0.00120977	0.00382894	0.01018547	0.00372291	0.00296823	0.00686374	0.01176979	0.00126346	0.00658362	0.00069868	0.00387929
2.06000000	0.00847245	0.00557935	0.00523657	0.00327281	0.00301046	0.00076330	0.00538553	0.00452086	0.00344355	0.00372113	0.00445152	0.00689265	0.00684944	0.00663354	0.00508877	0.00331212	0.00126577	0.00385401	0.00961326	0.00354352	0.00274080	0.00687119	0.01124815	0.00106936	0.00631613	0.00084793	0.00376977
2.07000000	0.00885231	0.00465133	0.00465817	0.00262641	0.00296800	0.00176765	0.00599699	0.00606127	0.00357467	0.00449595	0.00451543	0.00688918	0.00748201	0.00701621	0.00522182	0.00343940	0.00112287	0.00380232	0.00889730	0.00333599	0.00252325	0.00700245	0.01080920	0.00091835	0.00597524	0.00093463	0.00368899
2.08000000	0.00887845	0.00398615	0.00428557	0.00307700	0.00308347	0.00318044	0.00685511	0.00757128	0.00353881	0.00505627	0.00450278	0.00684794	0.00785120	0.00732731	0.00524362	0.00353813	0.00111706	0.00374661	0.00825601	0.00314903	0.00229797	0.00711526	0.01037923	0.00075725	0.00566156	0.00105620	0.00352024
2.09000000	0.00879234	0.00332859	0.00398542	0.00367555	0.00307594	0.00455734	0.00764263	0.00917802	0.00347564	0.00551804	0.00413566	0.00695913	0.00823052	0.00751323	0.00538122	0.00345255	0.00104727	0.00387442	0.00758474	0.00299831	0.00211937	0.00720322	0.00992008	0.00061970	0.00534223	0.00122319	0.00336423
2.10000000	0.00830528	0.00302010	0.00404489	0.00405616	0.00316034	0.00664394	0.00874968	0.01013298	0.00332035	0.00582635	0.00385203	0.00714549	0.00845142	0.00774297	0.00553193	0.00331989	0.00107893	0.00400807	0.00686236	0.00279155	0.00205623	0.00730147	0.00948402	0.00078161	0.00493436	0.00127981	0.00306446
2.11000000	0.00849436	0.00270782	0.00382000	0.00459099	0.00308628	0.00798294	0.00900510	0.01191978	0.00304942	0.00591616	0.00287151	0.00700079	0.00870314	0.00775395	0.00551243	0.00339159	0.00094612	0.00407523	0.00626344	0.00274180	0.00186089	0.00748103	0.00897887	0.00062108	0.00469293	0.00166173	0.00293562
2.12000000	0.00773873	0.00274921	0.00403679	0.00447805	0.00311826	0.00980669	0.00992027	0.01295293	0.00270620	0.00597449	0.00286567	0.00726514	0.00894575	0.00788459	0.00571718	0.00328136	0.00096587	0.00425887	0.00549115	0.00258419	0.00200121	0.00754871	0.00862628	0.00109427	0.00430154	0.00168674	0.00263909
2.13000000	0.00785922	0.00261325	0.00351981	0.00463990	0.00286155	0.01013395	0.00979032	0.01542359	0.00215452	0.00554713	0.00139064	0.00713007	0.00917788	0.00782822	0.00574554	0.00332490	0.00083287	0.00419008	0.00491945	0.00278266	0.00185716	0.00771082	0.00825248	0.00130705	0.00414102	0.00211830	0.00269066
2.14000000	0.00697645	0.00289444	0.00373813	0.00411203	0.00277845	0.01192081	0.01054309	0.01616563	0.00170297	0.00536718	0.00219096	0.00744628	0.00924713	0.00815000	0.00599532	0.00319878	0.00095598	0.00432516	0.00423375	0.00271989	0.00212043	0.00775961	0.00795168	0.00168237	0.00379574	0.00228966	0.00238043
2.15000000	0.00652929	0.00320926	0.00370777	0.00379578	0.00268800	0.01324327	0.01081040	0.01723568	0.00137708	0.00516082	0.00295283	0.00770912	0.00946372	0.00825657	0.00617634	0.00318264	0.00088324	0.00432163	0.00365638	0.00279171	0.00237200	0.00784352	0.00767660	0.00202360	0.00354591	0.00256990	0.00217620
2.16000000	0.00655370	0.00336468	0.00319643	0.00364632	0.00238862	0.01346581	0.01057191	0.01909347	0.00091864	0.00482736	0.00333779	0.00761113	0.00999467	0.00829807	0.00635697	0.00330161	0.00087635	0.00431092	0.00317964	0.00304257	0.00241956	0.00792968	0.00738840	0.00251237	0.00340706	0.00293282	0.00221982
2.17000000	0.00579132	0.00381486	0.00296251	0.00324423	0.00224957	0.01364023	0.01058899	0.02055451	0.00084093	0.00480175	0.00418905	0.00778867	0.01026332	0.00855137	0.00661174	0.00328426	0.00089345	0.00431026	0.00271750	0.00321414	0.00271124	0.00788017	0.00727931	0.00298328	0.00316998	0.00314414	0.00216793
2.18000000	0.00523763	0.00425566	0.00285434	0.00297224	0.00217532	0.01431637	0.01071343	0.02137335	0.00097862	0.00479658	0.00480713	0.00804676	0.01057961	0.00872629	0.00682966	0.00331351	0.00091512	0.00438449	0.00232774	0.00332059	0.00296688	0.00785126	0.00711975	0.00339204	0.00301046	0.00345597	0.00200395
2.19000000	0.00356869	0.00478274	0.00289685	0.00304159	0.00239454	0.01491740	0.01124922	0.02193346	0.00132079	0.00483946	0.00537601	0.00837191	0.01109856	0.00889374	0.00718246	0.00327362	0.00144505	0.00460659	0.00235879	0.00353555	0.00340365	0.00751031	0.00700367	0.00375704	0.00284911	0.00370835	0.00208165
2.20000000	0.00417234	0.00498083	0.00249481	0.00253893	0.00195919	0.01494355	0.01079874	0.02285991	0.00142251	0.00503329	0.00550906	0.00852028	0.01101528	0.00917761	0.00720901	0.00329338	0.00101629	0.00449448	0.00199949	0.00361958	0.00344541	0.00766210	0.00689077	0.00418629	0.00273665	0.00405082	0.00183627
2.21000000	0.00408679	0.00524464	0.00221989	0.00230050	0.00176963	0.01457540	0.01051736	0.02378240	0.00158707	0.00530097	0.00560778	0.00855040	0.01124253	0.00936139	0.00728350	0.00334055	0.00098854	0.00448825	0.00189289	0.00374094	0.00364099	0.00759948	0.00685056	0.00462511	0.00245361	0.00431320	0.00177271
2.22000000	0.00332822	0.00542118	0.00213214	0.00236337	0.00181963	0.01455382	0.01062668	0.02408046	0.00170967	0.00545751	0.00550053	0.00876157	0.01136100	0.00949300	0.00739250	0.00329312	0.00107016	0.00459979	0.00196764	0.00386888	0.00385435	0.00738587	0.00679532	0.00496498	0.00229962	0.00458400	0.00170174
2.23000000	0.00327932	0.00541749	0.00189180	0.00231634	0.00169088	0.01427893	0.01048141	0.02439363	0.00172935	0.00567183	0.00547473	0.00881520	0.01147418	0.00957409	0.00739862	0.00330806	0.00106827	0.00457635	0.00207197	0.00400483	0.00395766	0.00726544	0.00675099	0.00531127	0.00215293	0.00487287	0.00152261
2.24000000	0.00269810	0.00544463	0.00185943	0.00252735	0.00183760	0.01402242	0.01042776	0.02438196	0.00177443	0.00581603	0.00526986	0.00892964	0.01154234	0.00958371	0.00743354	0.00321177	0.00097244	0.00466866	0.00206690	0.00408683	0.00417624	0.00702050	0.00676429	0.00563940	0.00181957	0.00511324	0.00143034
2.25000000	0.00245380	0.00524727	0.00169904	0.00259568	0.00181898	0.01373167	0.01040833	0.02417989	0.00172173	0.00592004	0.00506960	0.00898024	0.01148255	0.00960021	0.00736317	0.00318212	0.00092617	0.00464171	0.00222992	0.00425259	0.00425760	0.00688253	0.00670588	0.00597228	0.00163619	0.00529308	0.00132347
2.26000000	0.00242825	0.00496812	0.00157177	0.00260972	0.00176615	0.01331102	0.01030459	0.02388153	0.00172515	0.00589785	0.00489638	0.00893839	0.01141589	0.00963309	0.00725973	0.00318560	0.00100280	0.00473036	0.00235219	0.00430062	0.00422133	0.00672415	0.00658982	0.00630007	0.00142568	0.00560662	0.00110718
2.27000000	0.00247302	0.00470674	0.00141600	0.00259363	0.00168914	0.01299342	0.01027951	0.02335908	0.00171842	0.00577429	0.00467441	0.00881410	0.01135245	0.00965780	0.00714642	0.00314364	0.00104468	0.00467181	0.00250617	0.00446095	0.00420639	0.00661347	0.00649327	0.00660854	0.00121705	0.00581857	0.00091987
2.28000000	0.00307613	0.00460684	0.00135522	0.00248115	0.00160882	0.01263873	0.01003920	0.02272986	0.00168235	0.00550671	0.00483621	0.00874465	0.01139006	0.00957430	0.00690594	0.00315888	0.00109972	0.00452939	0.00274687	0.00458341	0.00424949	0.00653484	0.00643213	0.00666048	0.00093578	0.00599049	0.00053678
2.29000000	0.00305827	0.00426153	0.00130360	0.00252853	0.00161095	0.01241580	0.01000996	0.02185583	0.00171455	0.00534672	0.00467198	0.00869464	0.01134424	0.00956019	0.00679922	0.00307224	0.00106928	0.00452055	0.00291514	0.00471771	0.00424030	0.00641229	0.00632587	0.00693113	0.00067872	0.00612471	0.00033775
2.30000000	0.00298578	0.00396326	0.00121184	0.00251509	0.00159173	0.01222954	0.00999160	0.02094251	0.00181079	0.00517866	0.00449783	0.00864520	0.01132147	0.00950759	0.00664063	0.00300844	0.00099826	0.00450868	0.00308056	0.00485145	0.00423171	0.00629785	0.00626484	0.00722484	0.00046094	0.00625132	0.00017401
2.31000000	0.00311531	0.00381568	0.00135904	0.00258037	0.00165908	0.01200772	0.00990115	0.01999895	0.00187949	0.00488969	0.00438790	0.00859534	0.01134802	0.00954820	0.00652631	0.00286993	0.00103495	0.00446570	0.00331459	0.00495938	0.00422395	0.00620049	0.00619977	0.00738777	0.00026016	0.00638245	0.00028773
2.32000000	0.00316398	0.00355957	0.00130487	0.00249835	0.00159459	0.01189235	0.00983728	0.01905896	0.00201422	0.00476749	0.00427850	0.00856151	0.01138271	0.00951832	0.00635438	0.00281998	0.00098112	0.00444421	0.00360897	0.00510643	0.00417860	0.00613703	0.00614733	0.00767177	0.00050387	0.00646816	0.00048730
2.33000000	0.00365200	0.00351636	0.00132268	0.00220004	0.00140709	0.01199736	0.00966508	0.01811281	0.00215474	0.00468408	0.00398057	0.00832074	0.01178161	0.00947834	0.00620957	0.00287350	0.00117042	0.00454615	0.00391801	0.00520435	0.00410211	0.00615755	0.00603997	0.00804460	0.00077369	0.00659127	0.00074514
2.34000000	0.00335516	0.00320893	0.00127788	0.00233862	0.00148496	0.01172748	0.00964817	0.01741003	0.00219704	0.00453298	0.00397767	0.00851742	0.01155894	0.00952876	0.00610556	0.00257945	0.00084046	0.00443701	0.00418741	0.00537100	0.00414698	0.00598364	0.00614259	0.00820554	0.00097305	0.00663470	0.00107310
2.35000000	0.00332584	0.00318752	0.00137172	0.00234791	0.00151849	0.01171881	0.00952907	0.01661018	0.00221796	0.00443367	0.00379974	0.00848432	0.01166317	0.00957802	0.00597316	0.00245922	0.00083933	0.00443289	0.00448895	0.00549468	0.00416205	0.00588283	0.00621687	0.00844311	0.00122720	0.00670956	0.00137140
2.36000000	0.00317377	0.00326670	0.00155042	0.00255393	0.00168771	0.01178660	0.00943717	0.01575456	0.00221997	0.00427227	0.00353714	0.00848222	0.01188554	0.00957548	0.00587449	0.00231703	0.00088207	0.00437888	0.00480092	0.00567674	0.00425204	0.00571648	0.00637533	0.00852316	0.00147380	0.00678027	0.00159712
2.37000000	0.00399900	0.00330654	0.00149512	0.00200705	0.00134833	0.01189077	0.00885297	0.01510643	0.00207787	0.00462956	0.00344281	0.00814219	0.01224957	0.00968237	0.00576743	0.00241848	0.00120802	0.00447893	0.00530107	0.00569823	0.00414041	0.00585004	0.00641711	0.00907218	0.00164505	0.00677985	0.00210868
2.38000000	0.00297664	0.00320400	0.00156490	0.00258711	0.00169020	0.01168056	0.00897103	0.01433875	0.00195991	0.00415637	0.00307411	0.00837761	0.01227650	0.00961144	0.00575479	0.00197988	0.00085153	0.00446095	0.00536374	0.00580374	0.00429937	0.00544861	0.00676173	0.00909930	0.00209679	0.00695248	0.00220746
2.39000000	0.00289612	0.00306452	0.00148170	0.00253590	0.00160287	0.01166954	0.00869828	0.01350713	0.00180836	0.00390756	0.00272503	0.00831443	0.01250743	0.00961830	0.00572089	0.00186449	0.00077312	0.00448155	0.00565932	0.00592142	0.00429191	0.00530496	0.00695195	0.00937033	0.00232780	0.00701876	0.00244966
2.40000000	0.00348889	0.00301777	0.00124424	0.00203445	0.00126132	0.01136342	0.00810354	0.01299740	0.00151313	0.00399074	0.00254026	0.00819988	0.01271670	0.00959444	0.00559088	0.00181432	0.00086368	0.00454673	0.00599920	0.00599364	0.00429638	0.00522138	0.00718665	0.00961534	0.00250076	0.00713489	0.00278876
2.41000000	0.00255149	0.00298176	0.00134244	0.00263833	0.00158881	0.01112454	0.00791841	0.01144251	0.00126489	0.00339820	0.00204906	0.00812404	0.01295916	0.00962850	0.00564666	0.00163301	0.00095106	0.00441390	0.00615595	0.00611511	0.00436124	0.00487921	0.00751978	0.00976657	0.00282661	0.00710312	0.00297967
2.42000000	0.00250665	0.00287106	0.00122484	0.00254178	0.00148277	0.01060339	0.00737198	0.01021807	0.00103248	0.00292067	0.00169278	0.00805390	0.01316902	0.00959782	0.00562545	0.00152840	0.00095714	0.00439389	0.00632219	0.00620662	0.00439100	0.00465971	0.00780832	0.00993978	0.00306706	0.00713704	0.00321009
2.43000000	0.00326473	0.00269584	0.00088187	0.00193209	0.00106850	0.00968112	0.00667296	0.00941048	0.00072794	0.00290372	0.00169358	0.00798680	0.01323507	0.00947797	0.00549507	0.00155239	0.00090010	0.00452675	0.00642179	0.00622241	0.00436060	0.00445087	0.00811776	0.01016500	0.00319229	0.00738183	0.00358077
2.44000000	0.00259339	0.00260316	0.00096926	0.00229113	0.00123522	0.00911460	0.00605835	0.00699925	0.00088706	0.00173686	0.00106876	0.00792093	0.01347320	0.00949907	0.00556683	0.00142655	0.00084719	0.00435673	0.00658427	0.00634759	0.00438933	0.00414228	0.00840918	0.01020300	0.00348463	0.00726689	0.00370967
2.45000000	0.00364694	0.00245976	0.00090040	0.00189504	0.00116381	0.00793941	0.00524756	0.00594913	0.00099082	0.00179106	0.00109462	0.00791865	0.01347370	0.00930803	0.00540312	0.00147893	0.00085802	0.00444944	0.00660905	0.00640809	0.00440101	0.00387273	0.00878514	0.01034228	0.00366524	0.00744325	0.00397833
2.46000000	0.00252213	0.00231492	0.00091296	0.00215596	0.00125451	0.00724576	0.00473751	0.00365644	0.00123520	0.00103936	0.00096768	0.00795092	0.01361197	0.00914459	0.00543610	0.00125280	0.00098191	0.00441148	0.00653751	0.00645860	0.00435533	0.00343573	0.00907737	0.01052547	0.00396657	0.00729658	0.00419398
2.47000000	0.00289827	0.00215111	0.00113951	0.00220592	0.00148769	0.00686864	0.00400303	0.00166340	0.00142236	0.00118752	0.00065326	0.00802099	0.01362833	0.00899232	0.00538243	0.00118153	0.00084794	0.00436571	0.00653887	0.00655704	0.00440495	0.00306053	0.00944203	0.01048368	0.00419656	0.00727478	0.00431080
2.48000000	0.00410342	0.00193251	0.00157720	0.00234762	0.00191025	0.00707297	0.00320557	0.00096965	0.00166262	0.00148774	0.00058074	0.00806233	0.01344882	0.00892362	0.00525628	0.00125676	0.00070100	0.00444674	0.00636098	0.00658637	0.00438014	0.00274656	0.00975481	0.01055630	0.00430987	0.00733963	0.00464869
2.49000000	0.00364013	0.00187315	0.00157430	0.00238711	0.00191583	0.00779287	0.00256214	0.00244384	0.00195141	0.00216926	0.00054424	0.00805397	0.01349403	0.00878352	0.00522302	0.00106414	0.00090772	0.00447897	0.00627302	0.00664574	0.00441012	0.00236313	0.01009895	0.01056601	0.00458799	0.00721488	0.00478452
2.50000000	0.00409458	0.00178516	0.00175450	0.00252014	0.00212320	0.00865536	0.00204065	0.00404907	0.00224985	0.00275267	0.00055205	0.00810218	0.01340697	0.00866421	0.00511152	0.00102490	0.00086044	0.00457055	0.00614563	0.00669317	0.00442543	0.00205883	0.01040400	0.01054891	0.00475642	0.00715037	0.00501397
2.51000000	0.00440048	0.00176775	0.00198141	0.00269347	0.00236196	0.00952887	0.00185793	0.00544408	0.00246754	0.00330865	0.00069761	0.00813220	0.01332465	0.00853564	0.00497542	0.00094793	0.00077029	0.00466630	0.00589088	0.00673108	0.00445971	0.00175773	0.01073483	0.01053062	0.00491822	0.00708263	0.00520004
2.52000000	0.00456264	0.00177045	0.00214911	0.00282524	0.00253387	0.01019183	0.00201750	0.00651250	0.00264677	0.00366630	0.00087234	0.00816347	0.01327074	0.00834775	0.00481270	0.00091813	0.00069869	0.00479730	0.00565893	0.00679375	0.00449322	0.00149314	0.01104311	0.01051677	0.00504938	0.00700494	0.00532741
2.53000000	0.00504220	0.00186523	0.00244500	0.00306793	0.00283009	0.01070488	0.00229977	0.00696512	0.00262941	0.00362416	0.00120558	0.00809341	0.01313675	0.00832015	0.00464018	0.00094811	0.00062189	0.00501542	0.00539477	0.00690121	0.00446615	0.00133787	0.01125590	0.01054040	0.00496754	0.00700665	0.00550387
2.54000000	0.00538598	0.00172551	0.00279450	0.00331286	0.00316530	0.01078391	0.00253174	0.00710650	0.00280108	0.00334280	0.00185090	0.00778344	0.01294802	0.00844202	0.00431662	0.00123956	0.00076637	0.00522846	0.00527227	0.00698820	0.00450407	0.00110374	0.01152477	0.01074765	0.00470245	0.00669188	0.00586428
2.55000000	0.00486603	0.00209576	0.00280186	0.00327520	0.00312580	0.01036034	0.00271857	0.00724108	0.00244857	0.00328573	0.00128318	0.00784204	0.01297639	0.00817699	0.00434740	0.00080287	0.00029866	0.00542598	0.00470051	0.00703562	0.00447133	0.00131974	0.01178860	0.01057982	0.00507310	0.00697808	0.00561787
2.56000000	0.00413647	0.00223527	0.00280299	0.00316437	0.00305575	0.00953685	0.00281464	0.00708319	0.00240762	0.00300604	0.00135385	0.00766149	0.01295574	0.00806678	0.00424282	0.00065000	0.00028976	0.00560972	0.00437411	0.00708564	0.00450612	0.00144733	0.01208694	0.01059656	0.00516518	0.00683948	0.00557759
2.57000000	0.00371786	0.00228699	0.00282080	0.00306055	0.00300509	0.00833298	0.00289154	0.00670354	0.00233217	0.00262164	0.00128197	0.00735257	0.01291220	0.00803321	0.00407328	0.00060253	0.00027209	0.00581914	0.00413151	0.00714553	0.00451591	0.00157260	0.01233823	0.01078202	0.00501327	0.00672316	0.00566631
2.58000000	0.00379967	0.00234377	0.00273769	0.00299391	0.00294421	0.00674417	0.00298336	0.00634435	0.00213236	0.00271820	0.00070109	0.00685340	0.01310582	0.00801925	0.00378361	0.00109401	0.00098322	0.00596353	0.00401131	0.00720214	0.00460983	0.00158371	0.01265972	0.01115174	0.00450930	0.00660061	0.00609824
2.59000000	0.00310340	0.00263938	0.00291161	0.00292481	0.00294898	0.00567745	0.00294707	0.00544290	0.00219686	0.00208098	0.00095634	0.00678414	0.01276443	0.00797187	0.00375047	0.00049742	0.00020253	0.00609168	0.00376115	0.00728186	0.00462892	0.00192541	0.01290482	0.01094919	0.00469740	0.00652315	0.00569946
2.60000000	0.00265546	0.00292597	0.00271120	0.00272579	0.00269826	0.00442402	0.00306607	0.00494078	0.00215853	0.00198046	0.00072382	0.00643905	0.01271615	0.00795719	0.00369167	0.00035870	0.00033020	0.00616460	0.00357023	0.00724232	0.00468192	0.00203233	0.01321587	0.01106558	0.00460554	0.00655773	0.00574355
2.61000000	0.00240472	0.00322286	0.00260577	0.00261246	0.00253388	0.00335007	0.00319660	0.00445954	0.00210800	0.00206353	0.00068157	0.00617294	0.01260816	0.00788470	0.00347296	0.00038464	0.00039745	0.00622360	0.00349233	0.00723459	0.00475266	0.00210004	0.01350709	0.01114843	0.00447778	0.00655320	0.00573543
2.62000000	0.00212744	0.00354965	0.00248017	0.00249720	0.00233104	0.00275703	0.00347673	0.00407603	0.00208944	0.00174070	0.00090100	0.00602750	0.01237255	0.00778723	0.00334575	0.00035844	0.00024903	0.00638402	0.00351119	0.00722222	0.00476100	0.00205026	0.01369148	0.01118965	0.00449379	0.00661231	0.00554534
2.63000000	0.00210330	0.00392000	0.00242206	0.00251388	0.00223220	0.00284052	0.00373476	0.00362925	0.00194072	0.00156241	0.00082413	0.00586604	0.01204653	0.00765537	0.00315479	0.00044616	0.00034277	0.00640292	0.00350400	0.00718717	0.00484243	0.00202971	0.01400363	0.01125846	0.00445639	0.00667756	0.00547651
2.64000000	0.00203512	0.00430209	0.00245981	0.00254965	0.00221646	0.00319995	0.00384518	0.00331909	0.00171551	0.00167361	0.00070292	0.00574108	0.01159543	0.00756326	0.00298285	0.00045188	0.00038981	0.00644437	0.00355329	0.00717188	0.00489954	0.00194239	0.01427172	0.01138624	0.00426185	0.00672103	0.00551444
2.65000000	0.00191835	0.00467070	0.00245629	0.00258191	0.00217585	0.00361544	0.00388051	0.00310955	0.00155556	0.00218853	0.00082955	0.00557557	0.01124517	0.00741260	0.00273844	0.00026897	0.00063827	0.00642878	0.00358490	0.00712968	0.00499985	0.00181396	0.01456537	0.01151091	0.00420070	0.00689033	0.00549929
2.66000000	0.00203416	0.00486614	0.00264096	0.00277114	0.00234938	0.00408827	0.00429549	0.00279648	0.00137990	0.00175593	0.00057836	0.00553241	0.01053105	0.00730650	0.00252024	0.00031104	0.00074818	0.00651660	0.00367370	0.00705365	0.00504077	0.00157301	0.01471159	0.01158085	0.00425903	0.00697770	0.00538661
2.67000000	0.00164177	0.00527850	0.00268776	0.00285064	0.00237340	0.00446538	0.00420613	0.00275652	0.00118624	0.00224645	0.00108694	0.00547090	0.00991089	0.00711960	0.00220739	0.00043417	0.00105095	0.00649895	0.00371547	0.00700197	0.00513362	0.00136734	0.01499175	0.01158392	0.00418394	0.00730047	0.00541383
2.68000000	0.00193650	0.00539931	0.00290980	0.00298987	0.00258231	0.00453828	0.00358723	0.00267737	0.00100496	0.00150762	0.00074362	0.00602087	0.00829280	0.00619188	0.00180314	0.00085445	0.00043751	0.00671751	0.00386356	0.00712507	0.00512209	0.00134722	0.01510588	0.01199933	0.00392800	0.00747066	0.00541228
2.69000000	0.00171601	0.00572136	0.00304201	0.00323029	0.00274285	0.00476868	0.00368746	0.00245948	0.00088856	0.00137871	0.00040005	0.00596077	0.00738663	0.00591934	0.00155927	0.00048543	0.00064967	0.00673139	0.00393142	0.00704689	0.00518331	0.00110883	0.01522810	0.01200661	0.00403518	0.00771923	0.00529856
2.70000000	0.00103050	0.00608314	0.00315291	0.00337369	0.00284504	0.00507837	0.00376009	0.00254628	0.00092665	0.00166322	0.00032454	0.00596621	0.00631039	0.00562448	0.00143190	0.00048978	0.00142263	0.00666224	0.00398910	0.00692855	0.00526864	0.00075464	0.01532279	0.01183082	0.00431785	0.00822903	0.00506982
2.71000000	0.00132264	0.00631637	0.00323232	0.00369795	0.00301143	0.00528159	0.00374236	0.00207578	0.00085294	0.00103248	0.00020321	0.00578950	0.00557806	0.00498049	0.00137807	0.00107982	0.00091127	0.00668884	0.00407871	0.00687169	0.00532621	0.00060054	0.01539107	0.01213605	0.00395536	0.00807308	0.00526708
2.72000000	0.00111441	0.00670480	0.00326199	0.00390414	0.00308329	0.00554387	0.00359917	0.00195699	0.00082568	0.00108123	0.00022520	0.00576280	0.00463033	0.00420149	0.00157597	0.00145264	0.00097552	0.00670146	0.00422835	0.00682398	0.00537986	0.00037529	0.01539686	0.01213021	0.00390207	0.00829763	0.00520561
2.73000000	0.00071943	0.00711341	0.00353338	0.00423355	0.00340078	0.00590786	0.00377951	0.00194195	0.00091483	0.00092809	0.00035820	0.00576387	0.00299153	0.00376138	0.00203572	0.00145821	0.00230526	0.00649019	0.00425373	0.00667203	0.00547056	0.00028057	0.01536924	0.01172449	0.00434104	0.00880571	0.00484663
2.74000000	0.00113346	0.00767380	0.00349780	0.00444134	0.00337749	0.00599200	0.00328926	0.00169871	0.00081993	0.00102395	0.00033414	0.00569287	0.00274170	0.00252069	0.00240579	0.00229382	0.00130880	0.00651389	0.00442187	0.00674102	0.00549396	0.00040983	0.01532167	0.01197214	0.00370960	0.00858411	0.00505411
2.75000000	0.00112568	0.00802448	0.00341830	0.00454103	0.00331697	0.00633964	0.00324693	0.00169791	0.00088261	0.00091270	0.00030361	0.00556774	0.00201898	0.00204457	0.00299075	0.00279237	0.00146998	0.00641588	0.00457009	0.00668676	0.00556476	0.00058690	0.01526372	0.01186706	0.00370932	0.00872685	0.00491601
2.76000000	0.00112209	0.00831380	0.00342835	0.00465445	0.00335777	0.00666932	0.00327524	0.00165225	0.00097497	0.00084779	0.00045708	0.00555656	0.00225570	0.00234017	0.00357193	0.00333858	0.00183739	0.00627444	0.00457470	0.00658136	0.00560540	0.00085184	0.01517176	0.01166768	0.00371273	0.00888654	0.00486525
2.77000000	0.00139118	0.00890666	0.00345350	0.00483729	0.00334248	0.00689740	0.00312379	0.00170839	0.00094980	0.00101191	0.00039129	0.00549702	0.00311993	0.00344020	0.00398475	0.00366202	0.00191694	0.00608518	0.00470318	0.00657033	0.00561353	0.00116095	0.01496059	0.01155808	0.00353641	0.00878847	0.00472477
2.78000000	0.00150906	0.00922970	0.00343784	0.00490220	0.00331791	0.00710973	0.00312223	0.00186770	0.00099059	0.00116396	0.00034155	0.00552289	0.00450707	0.00492901	0.00439236	0.00405951	0.00209895	0.00590913	0.00476558	0.00653329	0.00561461	0.00145323	0.01474739	0.01134319	0.00346980	0.00874400	0.00459667
2.79000000	0.00155843	0.00930512	0.00345751	0.00489572	0.00334463	0.00733201	0.00318814	0.00201385	0.00110729	0.00123258	0.00042630	0.00580170	0.00607044	0.00637231	0.00490803	0.00471172	0.00215730	0.00564459	0.00472651	0.00648459	0.00562934	0.00178760	0.01454725	0.01107772	0.00338069	0.00862762	0.00449213
2.80000000	0.00162375	0.00940226	0.00346384	0.00486381	0.00334808	0.00748023	0.00320998	0.00226392	0.00121107	0.00136645	0.00049071	0.00614417	0.00749587	0.00802494	0.00523914	0.00515621	0.00227032	0.00539363	0.00465257	0.00643953	0.00562158	0.00210250	0.01431710	0.01078713	0.00329994	0.00847941	0.00439493
2.81000000	0.00178653	0.00959818	0.00341927	0.00479159	0.00327766	0.00755420	0.00320419	0.00261984	0.00122574	0.00154226	0.00046058	0.00648082	0.00879875	0.00975269	0.00534505	0.00534550	0.00238049	0.00510946	0.00457442	0.00637354	0.00559816	0.00239033	0.01406360	0.01052500	0.00321317	0.00827938	0.00430813
2.82000000	0.00160923	0.00905595	0.00343330	0.00466549	0.00338239	0.00780325	0.00341180	0.00273138	0.00150812	0.00152494	0.00066631	0.00692947	0.01055187	0.01107700	0.00560738	0.00582934	0.00246326	0.00498298	0.00448536	0.00631451	0.00557182	0.00256427	0.01380059	0.01024362	0.00309208	0.00801202	0.00435742
2.83000000	0.00193488	0.00916710	0.00344244	0.00451040	0.00330873	0.00768426	0.00334316	0.00322762	0.00158555	0.00183554	0.00053418	0.00761079	0.01144272	0.01255646	0.00576491	0.00611799	0.00211458	0.00471983	0.00435162	0.00631949	0.00546493	0.00288736	0.01342402	0.00995073	0.00305911	0.00777160	0.00409684
2.84000000	0.00236606	0.00925826	0.00337522	0.00435896	0.00319382	0.00754301	0.00328607	0.00371244	0.00158144	0.00198053	0.00055242	0.00781883	0.01225214	0.01410954	0.00564241	0.00607783	0.00201805	0.00458478	0.00419875	0.00630160	0.00535873	0.00307462	0.01307226	0.00972639	0.00299441	0.00749286	0.00399004
2.85000000	0.00245972	0.00875041	0.00340993	0.00421041	0.00324901	0.00751632	0.00340273	0.00401920	0.00181446	0.00211859	0.00056277	0.00832545	0.01338680	0.01500627	0.00577724	0.00626145	0.00177704	0.00438723	0.00407596	0.00622781	0.00531829	0.00318390	0.01277792	0.00943249	0.00287030	0.00718755	0.00396514
2.86000000	0.00269651	0.00858931	0.00339522	0.00403573	0.00318930	0.00743808	0.00344096	0.00442664	0.00194944	0.00223853	0.00060990	0.00870770	0.01404011	0.01592991	0.00579005	0.00628978	0.00164517	0.00430771	0.00390988	0.00620116	0.00521560	0.00329558	0.01240500	0.00917267	0.00278775	0.00689032	0.00386927
2.87000000	0.00278952	0.00768182	0.00356090	0.00399702	0.00339889	0.00764298	0.00377400	0.00433732	0.00213875	0.00222864	0.00081028	0.00900241	0.01517633	0.01631435	0.00588595	0.00635894	0.00197110	0.00425856	0.00381666	0.00608300	0.00526019	0.00317378	0.01221671	0.00887684	0.00267976	0.00650569	0.00395144
2.88000000	0.00322123	0.00825289	0.00339736	0.00373063	0.00310021	0.00735143	0.00352176	0.00489642	0.00209711	0.00241946	0.00070461	0.00904066	0.01485335	0.01743926	0.00586042	0.00614222	0.00197996	0.00396346	0.00358141	0.00607587	0.00511155	0.00337856	0.01181114	0.00866769	0.00259218	0.00631304	0.00370046
2.89000000	0.00339494	0.00799683	0.00334653	0.00354527	0.00300820	0.00739555	0.00363745	0.00506293	0.00220314	0.00249561	0.00071883	0.00915563	0.01517808	0.01788968	0.00592425	0.00606755	0.00232670	0.00382692	0.00337979	0.00598707	0.00503714	0.00336346	0.01149925	0.00845414	0.00249675	0.00610434	0.00364246
2.90000000	0.00345619	0.00719816	0.00354338	0.00356532	0.00321844	0.00757088	0.00389964	0.00507166	0.00241407	0.00244246	0.00091668	0.00952382	0.01585362	0.01775613	0.00614841	0.00610614	0.00271805	0.00379772	0.00330708	0.00588974	0.00506183	0.00322591	0.01126255	0.00814035	0.00234441	0.00574857	0.00365850
2.91000000	0.00377172	0.00732443	0.00325728	0.00329891	0.00289851	0.00743691	0.00374219	0.00549041	0.00239050	0.00261329	0.00067725	0.00961529	0.01559895	0.01825620	0.00622797	0.00597881	0.00298408	0.00364689	0.00308171	0.00580727	0.00495390	0.00316516	0.01094502	0.00799542	0.00238390	0.00565078	0.00348930
2.92000000	0.00370589	0.00617061	0.00352052	0.00337588	0.00319288	0.00761370	0.00428533	0.00550564	0.00253584	0.00259857	0.00105969	0.00986008	0.01638634	0.01797620	0.00637779	0.00592893	0.00316248	0.00378084	0.00310204	0.00566700	0.00497490	0.00275596	0.01074994	0.00777155	0.00221256	0.00543876	0.00361090
2.93000000	0.00406784	0.00676534	0.00326097	0.00317949	0.00290036	0.00758992	0.00386661	0.00578598	0.00250799	0.00257194	0.00073326	0.00994226	0.01551240	0.01866278	0.00648021	0.00591314	0.00326629	0.00335164	0.00287219	0.00562849	0.00489970	0.00293070	0.01043818	0.00749138	0.00225958	0.00523464	0.00329824
2.94000000	0.00415537	0.00615508	0.00329925	0.00314010	0.00295063	0.00769990	0.00398114	0.00593666	0.00260734	0.00256218	0.00063217	0.01027959	0.01564587	0.01862548	0.00655962	0.00587441	0.00341538	0.00329024	0.00283941	0.00554362	0.00488073	0.00269611	0.01021040	0.00723895	0.00219663	0.00503151	0.00324623
2.95000000	0.00426109	0.00586539	0.00325576	0.00308987	0.00292513	0.00778326	0.00397508	0.00610477	0.00256926	0.00262510	0.00051340	0.01054162	0.01547636	0.01881441	0.00655573	0.00593442	0.00341259	0.00320970	0.00271760	0.00546895	0.00483079	0.00254729	0.00997313	0.00696711	0.00223971	0.00488223	0.00311253
2.96000000	0.00426750	0.00543614	0.00319059	0.00301400	0.00287944	0.00788073	0.00407973	0.00634572	0.00260394	0.00255343	0.00061559	0.01075806	0.01529232	0.01907018	0.00648923	0.00605659	0.00343288	0.00316810	0.00260027	0.00534334	0.00477219	0.00229339	0.00975686	0.00675532	0.00217648	0.00479154	0.00312002
2.97000000	0.00420823	0.00491128	0.00318313	0.00283286	0.00283000	0.00823311	0.00467551	0.00583199	0.00239203	0.00232901	0.00127189	0.01074067	0.01554187	0.01964039	0.00616106	0.00582199	0.00348126	0.00352206	0.00277875	0.00558292	0.00473444	0.00199278	0.00965643	0.00614964	0.00272545	0.00486750	0.00281747
2.98000000	0.00434300	0.00498276	0.00309160	0.00285468	0.00278040	0.00805932	0.00402131	0.00652046	0.00249943	0.00249652	0.00048787	0.01128209	0.01499186	0.01968045	0.00604945	0.00601750	0.00330643	0.00305445	0.00260485	0.00535307	0.00461812	0.00204844	0.00933231	0.00608239	0.00255941	0.00450435	0.00272054
2.99000000	0.00415525	0.00457947	0.00293208	0.00258329	0.00259689	0.00842289	0.00461867	0.00600879	0.00233350	0.00222438	0.00119353	0.01098996	0.01459584	0.02060089	0.00577413	0.00627507	0.00377476	0.00339122	0.00261773	0.00547353	0.00467703	0.00178182	0.00941479	0.00540384	0.00300286	0.00458445	0.00254516
3.00000000	0.00433308	0.00484360	0.00310556	0.00291757	0.00283026	0.00808173	0.00377100	0.00669385	0.00232818	0.00235089	0.00058617	0.01178250	0.01467048	0.02015711	0.00556352	0.00598958	0.00303307	0.00213636	0.00250786	0.00514796	0.00452988	0.00210114	0.00901537	0.00541694	0.00234340	0.00425320	0.00234201
3.01000000	0.00427042	0.00471177	0.00301685	0.00280119	0.00272862	0.00807329	0.00376065	0.00674558	0.00229513	0.00229865	0.00049196	0.01197347	0.01452771	0.02038696	0.00528583	0.00592935	0.00308710	0.00193837	0.00255521	0.00510555	0.00441736	0.00209849	0.00884163	0.00508721	0.00238258	0.00410961	0.00217411
3.02000000	0.00420150	0.00448359	0.00310719	0.00280460	0.00277435	0.00799061	0.00373002	0.00676328	0.00227728	0.00225471	0.00058594	0.01225690	0.01466674	0.02029532	0.00510557	0.00564262	0.00290246	0.00156517	0.00261557	0.00500855	0.00439704	0.00209761	0.00876795	0.00462341	0.00243152	0.00401564	0.00198137
3.03000000	0.00409554	0.00472860	0.00284345	0.00262548	0.00254441	0.00790601	0.00394329	0.00671822	0.00217652	0.00227514	0.00084562	0.01223113	0.01429160	0.02065108	0.00476609	0.00556426	0.00303964	0.00144678	0.00274292	0.00499694	0.00419847	0.00222826	0.00857163	0.00420765	0.00270609	0.00406543	0.00160597
3.04000000	0.00404987	0.00456384	0.00306778	0.00273275	0.00270056	0.00776100	0.00371754	0.00670631	0.00220293	0.00223170	0.00044730	0.01233858	0.01432639	0.02031165	0.00466605	0.00545569	0.00304309	0.00087067	0.00286541	0.00483560	0.00417711	0.00227470	0.00851906	0.00402946	0.00258561	0.00362755	0.00160723
3.05000000	0.00401944	0.00447165	0.00305722	0.00263584	0.00263773	0.00755675	0.00370434	0.00660124	0.00213572	0.00227027	0.00042536	0.01243998	0.01429845	0.02002652	0.00452866	0.00523673	0.00303915	0.00063453	0.00303226	0.00474381	0.00409549	0.00239192	0.00847877	0.00361013	0.00268437	0.00351507	0.00135866
3.06000000	0.00392865	0.00481334	0.00279584	0.00245714	0.00241765	0.00730186	0.00403428	0.00644715	0.00204217	0.00234261	0.00079174	0.01262202	0.01381237	0.01990676	0.00433897	0.00512973	0.00308546	0.00067052	0.00326569	0.00470408	0.00389213	0.00267723	0.00837218	0.00313101	0.00302065	0.00360383	0.00077123
3.07000000	0.00393344	0.00455353	0.00307045	0.00251943	0.00256586	0.00709102	0.00379238	0.00631125	0.00209154	0.00229304	0.00033931	0.01244817	0.01388875	0.01927164	0.00427941	0.00486000	0.00305286	0.00090451	0.00337545	0.00448442	0.00394126	0.00269474	0.00847102	0.00293714	0.00290780	0.00312791	0.00092083
3.08000000	0.00383097	0.00490171	0.00286439	0.00235856	0.00238988	0.00670471	0.00413256	0.00619596	0.00201045	0.00236022	0.00078055	0.01267145	0.01316122	0.01891803	0.00417389	0.00487451	0.00311129	0.00120784	0.00368516	0.00438776	0.00375272	0.00304474	0.00841384	0.00248173	0.00313528	0.00324822	0.00038035
3.09000000	0.00386715	0.00458502	0.00320169	0.00240796	0.00255597	0.00647347	0.00390710	0.00599586	0.00205177	0.00230132	0.00049707	0.01232611	0.01323903	0.01811162	0.00408161	0.00447061	0.00296437	0.00189260	0.00377762	0.00413852	0.00386138	0.00305976	0.00859631	0.00220978	0.00307255	0.00277191	0.00044180
3.10000000	0.00383905	0.00447935	0.00343467	0.00237545	0.00264588	0.00619132	0.00384098	0.00582048	0.00200602	0.00236405	0.00068477	0.01220421	0.01293205	0.01728846	0.00402719	0.00427099	0.00284745	0.00247700	0.00399460	0.00391285	0.00389908	0.00324758	0.00873138	0.00165117	0.00306998	0.00265358	0.00013800
3.11000000	0.00367997	0.00465686	0.00314278	0.00210603	0.00237570	0.00571845	0.00414084	0.00574790	0.00197106	0.00249865	0.00114640	0.01235416	0.01183895	0.01688451	0.00397505	0.00444757	0.00292893	0.00292572	0.00434229	0.00378453	0.00374811	0.00361003	0.00872969	0.00124839	0.00321767	0.00273890	0.00045098
3.12000000	0.00369895	0.00461939	0.00314043	0.00199729	0.00228776	0.00561175	0.00397823	0.00541020	0.00198684	0.00240509	0.00080051	0.01185560	0.01175132	0.01620882	0.00368426	0.00391683	0.00268886	0.00350007	0.00439227	0.00361085	0.00379120	0.00371928	0.00895867	0.00125342	0.00323195	0.00227748	0.00024813
3.13000000	0.00367493	0.00455426	0.00320994	0.00188779	0.00224101	0.00531828	0.00390809	0.00523603	0.00199730	0.00244204	0.00092304	0.01159906	0.01136077	0.01539911	0.00359910	0.00372370	0.00252663	0.00400219	0.00455044	0.00342970	0.00381560	0.00395233	0.00913729	0.00101042	0.00322821	0.00209281	0.00044049
3.14000000	0.00360702	0.00455313	0.00298279	0.00165671	0.00198986	0.00511442	0.00391320	0.00501039	0.00199158	0.00247593	0.00102406	0.01134147	0.01082266	0.01484605	0.00342767	0.00356530	0.00237271	0.00445232	0.00473499	0.00328877	0.00377991	0.00421446	0.00928758	0.00087612	0.00327186	0.00196788	0.00060667
3.15000000	0.00359691	0.00454685	0.00289790	0.00153433	0.00184127	0.00486604	0.00386678	0.00484294	0.00199309	0.00250221	0.00113048	0.01092929	0.01039547	0.01423645	0.00335924	0.00339936	0.00219553	0.00492125	0.00484054	0.00311853	0.00377868	0.00446613	0.00943942	0.00091918	0.00328347	0.00180232	0.00073806
3.16000000	0.00357521	0.00447883	0.00262382	0.00131556	0.00155214	0.00467045	0.00384409	0.00467867	0.00204854	0.00247813	0.00125593	0.01060686	0.00991721	0.01371813	0.00328971	0.00330452	0.00204272	0.00527974	0.00494157	0.00297502	0.00376740	0.00473823	0.00964446	0.00092560	0.00331836	0.00169162	0.00088342
3.17000000	0.00372837	0.00464577	0.00286117	0.00143016	0.00168875	0.00467257	0.00336391	0.00442678	0.00202579	0.00265648	0.00144969	0.01031262	0.00951434	0.01260401	0.00345952	0.00338994	0.00200200	0.00574411	0.00498211	0.00271304	0.00382225	0.00503762	0.00978163	0.00110483	0.00325089	0.00153563	0.00094331
3.18000000	0.00369877	0.00457656	0.00240220	0.00122260	0.00128598	0.00447616	0.00337552	0.00430458	0.00209252	0.00264535	0.00146837	0.00980083	0.00908739	0.01237287	0.00341403	0.00330863	0.00181106	0.00599190	0.00506302	0.00259997	0.00378416	0.00530630	0.00998035	0.00122747	0.00331980	0.00144865	0.00107914
3.19000000	0.00372756	0.00455649	0.00217222	0.00121011	0.00107134	0.00430331	0.00338597	0.00421329	0.00211977	0.00268253	0.00148593	0.00919850	0.00890715	0.01189086	0.00340805	0.00327878	0.00171106	0.00632175	0.00512798	0.00243881	0.00374240	0.00556806	0.01009614	0.00139248	0.00340650	0.00132897	0.00113744
3.20000000	0.00374106	0.00447789	0.00205545	0.00124619	0.00090916	0.00415050	0.00336002	0.00416444	0.00213122	0.00273429	0.00161318	0.00858392	0.00878468	0.01129778	0.00354136	0.00336356	0.00163132	0.00656024	0.00518811	0.00224314	0.00375618	0.00586152	0.01021206	0.00152898	0.00339395	0.00124108	0.00113934
3.21000000	0.00384814	0.00467951	0.00230379	0.00131339	0.00104550	0.00405960	0.00306752	0.00412308	0.00214677	0.00289957	0.00186961	0.00821181	0.00822975	0.01012839	0.00398430	0.00393769	0.00185262	0.00684462	0.00517757	0.00194364	0.00377213	0.00623362	0.01029268	0.00168855	0.00335791	0.00116810	0.00118260
3.22000000	0.00383318	0.00469950	0.00202253	0.00137656	0.00084193	0.00400317	0.00308397	0.00408953	0.00217532	0.00299263	0.00187438	0.00754259	0.00800351	0.00977658	0.00403227	0.00398338	0.00185093	0.00700635	0.00526987	0.00179427	0.00370678	0.00650268	0.01038732	0.00177266	0.00347613	0.00110409	0.00123628
3.23000000	0.00380991	0.00468406	0.00198479	0.00147132	0.00076169	0.00393630	0.00307473	0.00412488	0.00219360	0.00312277	0.00198252	0.00696666	0.00784632	0.00901616	0.00419146	0.00417536	0.00192847	0.00712960	0.00533761	0.00159052	0.00370062	0.00679357	0.01050730	0.00187739	0.00350778	0.00102502	0.00127766
3.24000000	0.00385272	0.00475938	0.00177869	0.00151907	0.00064007	0.00389373	0.00291086	0.00430259	0.00228184	0.00312937	0.00202780	0.00645810	0.00743042	0.00858211	0.00424984	0.00425531	0.00198797	0.00721602	0.00543056	0.00143153	0.00367126	0.00703332	0.01065711	0.00198864	0.00364082	0.00094262	0.00132638
3.25000000	0.00388730	0.00493702	0.00163804	0.00170714	0.00073727	0.00372122	0.00277755	0.00453782	0.00230859	0.00317997	0.00242662	0.00605021	0.00691978	0.00805061	0.00433575	0.00439388	0.00234134	0.00725086	0.00571549	0.00135786	0.00353345	0.00728064	0.01068818	0.00195997	0.00384788	0.00102772	0.00137290
3.26000000	0.00382401	0.00502304	0.00152791	0.00174686	0.00065543	0.00386258	0.00272657	0.00466460	0.00238662	0.00329413	0.00228843	0.00565688	0.00673143	0.00739848	0.00422415	0.00428425	0.00225436	0.00727268	0.00582782	0.00123966	0.00359322	0.00745816	0.01092590	0.00205695	0.00387672	0.00088209	0.00136191
3.27000000	0.00375600	0.00514015	0.00149525	0.00184484	0.00068548	0.00390997	0.00266352	0.00488462	0.00243217	0.00344090	0.00235383	0.00529817	0.00646943	0.00666410	0.00415635	0.00423971	0.00226209	0.00733611	0.00606432	0.00122124	0.00349953	0.00766920	0.01095688	0.00213603	0.00408803	0.00082217	0.00155958
3.28000000	0.00357779	0.00528961	0.00154542	0.00213794	0.00095047	0.00393893	0.00256028	0.00514847	0.00242351	0.00350143	0.00332685	0.00472025	0.00540540	0.00673459	0.00433638	0.00477593	0.00179637	0.00713525	0.00618879	0.00137093	0.00336463	0.00794115	0.01114452	0.00204713	0.00426700	0.00087173	0.00154958
3.29000000	0.00334622	0.00528460	0.00146089	0.00194946	0.00064302	0.00433055	0.00261693	0.00527938	0.00251891	0.00381794	0.00227421	0.00462121	0.00565960	0.00579261	0.00389251	0.00401004	0.00199843	0.00710049	0.00647696	0.00135737	0.00350826	0.00801959	0.01139454	0.00221089	0.00423153	0.00061951	0.00168898
3.30000000	0.00327565	0.00523029	0.00154827	0.00222628	0.00090925	0.00436318	0.00244133	0.00561676	0.00253107	0.00390583	0.00309978	0.00424244	0.00481975	0.00568744	0.00394938	0.00443671	0.00156549	0.00689035	0.00672651	0.00158204	0.00334815	0.00822736	0.01154320	0.00217527	0.00450321	0.00062847	0.00182748
3.31000000	0.00300994	0.00525949	0.00141861	0.00204128	0.00066338	0.00477545	0.00249347	0.00576518	0.00260039	0.00404612	0.00252364	0.00428002	0.00480365	0.00499216	0.00354046	0.00372321	0.00191529	0.00694721	0.00726952	0.00167545	0.00341698	0.00814887	0.01171354	0.00221953	0.00468539	0.00048025	0.00196862
3.32000000	0.00291919	0.00517478	0.00156932	0.00223342	0.00089872	0.00484143	0.00233037	0.00613880	0.00257497	0.00422239	0.00312393	0.00409035	0.00392836	0.00511391	0.00350969	0.00394921	0.00156234	0.00673511	0.00755095	0.00195160	0.00332988	0.00828048	0.01192247	0.00212824	0.00489941	0.00047182	0.00210112
3.33000000	0.00224649	0.00527145	0.00158285	0.00200352	0.00068736	0.00530143	0.00236521	0.00626963	0.00256925	0.00454498	0.00248624	0.00405171	0.00403015	0.00476985	0.00311259	0.00324590	0.00175396	0.00651723	0.00793224	0.00205307	0.00340994	0.00829743	0.01221886	0.00216222	0.00494986	0.00037684	0.00233921
3.34000000	0.00235874	0.00496024	0.00171578	0.00222755	0.00098147	0.00547546	0.00223586	0.00656391	0.00266084	0.00462920	0.00280536	0.00397521	0.00319327	0.00502101	0.00314467	0.00325762	0.00172194	0.00639535	0.00827311	0.00235982	0.00335761	0.00829410	0.01242979	0.00211297	0.00530007	0.00034247	0.00255137
3.35000000	0.00161036	0.00505142	0.00172850	0.00206914	0.00088490	0.00585689	0.00222943	0.00669192	0.00268292	0.00475741	0.00255822	0.00409053	0.00340604	0.00463757	0.00277355	0.00284691	0.00154785	0.00621365	0.00878021	0.00247097	0.00336332	0.00822343	0.01263143	0.00206921	0.00554519	0.00027014	0.00278744
3.36000000	0.00178518	0.00474710	0.00192031	0.00229785	0.00125022	0.00604410	0.00205986	0.00696225	0.00272099	0.00484989	0.00266126	0.00394306	0.00244150	0.00522330	0.00288522	0.00254990	0.00187694	0.00613629	0.00910967	0.00276867	0.00340981	0.00813748	0.01288464	0.00201666	0.00582723	0.00032596	0.00306924
3.37000000	0.00188450	0.00466599	0.00215499	0.00256347	0.00164594	0.00624390	0.00189267	0.00718210	0.00276565	0.00494678	0.00266692	0.00379093	0.00176975	0.00578162	0.00299100	0.00208052	0.00237179	0.00613578	0.00953408	0.00302656	0.00346619	0.00799425	0.01304830	0.00199780	0.00612801	0.00069292	0.00337335
3.38000000	0.00138231	0.00435243	0.00234950	0.00218201	0.00129276	0.00639766	0.00191646	0.00733972	0.00272123	0.00492009	0.00254246	0.00381356	0.00255040	0.00449232	0.00270101	0.00238590	0.00133004	0.00570488	0.00985093	0.00297289	0.00351384	0.00800253	0.01335578	0.00205297	0.00629986	0.00023683	0.00336229
3.39000000	0.00163574	0.00399487	0.00254347	0.00258374	0.00183297	0.00664063	0.00154140	0.00743381	0.00284873	0.00493427	0.00213662	0.00337545	0.00180027	0.00520704	0.00308873	0.00152661	0.00222247	0.00576473	0.01011544	0.00323498	0.00365945	0.00779538	0.01358167	0.00205584	0.00654048	0.00071445	0.00372224
3.40000000	0.00212133	0.00423361	0.00247073	0.00274340	0.00186954	0.00682596	0.00147552	0.00722690	0.00274587	0.00472010	0.00273620	0.00355309	0.00209694	0.00434763	0.00292842	0.00171736	0.00126615	0.00554897	0.01058356	0.00344479	0.00355186	0.00767013	0.01360507	0.00178814	0.00690287	0.00031737	0.00408708
3.41000000	0.00223781	0.00413132	0.00274201	0.00311639	0.00237891	0.00699033	0.00088392	0.00722348	0.00294407	0.00474063	0.00177846	0.00292432	0.00218274	0.00497881	0.00357130	0.00060808	0.00205957	0.00568101	0.01082365	0.00363329	0.00373261	0.00738108	0.01379846	0.00182685	0.00705504	0.00087823	0.00442636
3.42000000	0.00357162	0.00386584	0.00294880	0.00302657	0.00213089	0.00688556	0.00131556	0.00707368	0.00284043	0.00431567	0.00213764	0.00267786	0.00210973	0.00330036	0.00326766	0.00158945	0.00142681	0.00544085	0.01104301	0.00359989	0.00373563	0.00735257	0.01386798	0.00190193	0.00716156	0.00062014	0.00433139
3.43000000	0.00412649	0.00390688	0.00295868	0.00339896	0.00244353	0.00682694	0.00106957	0.00671387	0.00289996	0.00386021	0.00229859	0.00245662	0.00232834	0.00301943	0.00356563	0.00145158	0.00136051	0.00543019	0.01133638	0.00373229	0.00374758	0.00709230	0.01389225	0.00181435	0.00736294	0.00071560	0.00459956
3.44000000	0.00410600	0.00405741	0.00328746	0.00375064	0.00295963	0.00690360	0.00140274	0.00640286	0.00315074	0.00382312	0.00113641	0.00236825	0.00324976	0.00323803	0.00426520	0.00085396	0.00159091	0.00558338	0.01143349	0.00391216	0.00388811	0.00683018	0.01394489	0.00172774	0.00732551	0.00112312	0.00482070
3.45000000	0.00572645	0.00394416	0.00321291	0.00380731	0.00269459	0.00660672	0.00134704	0.00566777	0.00304911	0.00314877	0.00153411	0.00218938	0.00287722	0.00219017	0.00396406	0.00204010	0.00118628	0.00544948	0.01151246	0.00388008	0.00385701	0.00673713	0.01392388	0.00187591	0.00744370	0.00090906	0.00467540
3.46000000	0.00675590	0.00392780	0.00332855	0.00417928	0.00290793	0.00570400	0.00160400	0.00534664	0.00328482	0.00223768	0.00148542	0.00246667	0.00312661	0.00215980	0.00403119	0.00220023	0.00108975	0.00543492	0.01156124	0.00388858	0.00384550	0.00660478	0.01382976	0.00187016	0.00733417	0.00104485	0.00474570
3.47000000	0.00723103	0.00410871	0.00331831	0.00437832	0.00305770	0.00531734	0.00235288	0.00446923	0.00336492	0.00174696	0.00165726	0.00277964	0.00366689	0.00234797	0.00421181	0.00244737	0.00108701	0.00547194	0.01168641	0.00392744	0.00379897	0.00635433	0.01371352	0.00187289	0.00734927	0.00104242	0.00474479
3.48000000	0.00798020	0.00414866	0.00337426	0.00455368	0.00312197	0.00489726	0.00310769	0.00355789	0.00341950	0.00151236	0.00182661	0.00319342	0.00400800	0.00273008	0.00422466	0.00276270	0.00097530	0.00547234	0.01157138	0.00397686	0.00380640	0.00624807	0.01363468	0.00185884	0.00719293	0.00112257	0.00460310
3.49000000	0.00844778	0.00437071	0.00342452	0.00471975	0.00325340	0.00424178	0.00412451	0.00287389	0.00351755	0.00152892	0.00228035	0.00346257	0.00438962	0.00330912	0.00425870	0.00302579	0.00120690	0.00539338	0.01151066	0.00396346	0.00374136	0.00615566	0.01351520	0.00183745	0.00699547	0.00114118	0.00442414
3.50000000	0.00859486	0.00453185	0.00341580	0.00465603	0.00323944	0.00365787	0.00525382	0.00276087	0.00364606	0.00195455	0.00271824	0.00414577	0.00505445	0.00358502	0.00448303	0.00296225	0.00088772	0.00544858	0.01141686	0.00394925	0.00369686	0.00600455	0.01340529	0.00192203	0.00676355	0.00115609	0.00426605
3.51000000	0.00889321	0.00462460	0.00343521	0.00463352	0.00322868	0.00311706	0.00627341	0.00332944	0.00377529	0.00274319	0.00306398	0.00464176	0.00548854	0.00404216	0.00453652	0.00306745	0.00090558	0.00545606	0.01123903	0.00393494	0.00362573	0.00597231	0.01322180	0.00195740	0.00652831	0.00115690	0.00392458
3.52000000	0.00955391	0.00456125	0.00343820	0.00465016	0.00315406	0.00284953	0.00716203	0.00430051	0.00376035	0.00342805	0.00337615	0.00500044	0.00561204	0.00473636	0.00452544	0.00319379	0.00101625	0.00532387	0.01102219	0.00395798	0.00349152	0.00608158	0.01293279	0.00185346	0.00619354	0.00101712	0.00352544
3.53000000	0.00991335	0.00436009	0.00340006	0.00460830	0.00306479	0.00330202	0.00806374	0.00562234	0.00376738	0.00405589	0.00350989	0.00545250	0.00587252	0.00525520	0.00453460	0.00332164	0.00106092	0.00530058	0.01080544	0.00398113	0.00335405	0.00614999	0.01261170	0.00182465	0.00590210	0.00087221	0.00318404
3.54000000	0.01005125	0.00425045	0.00345747	0.00449495	0.00302761	0.00429051	0.00893279	0.00703288	0.00380021	0.00463209	0.00348008	0.00599298	0.00620903	0.00573730	0.00473463	0.00324877	0.00103335	0.00517129	0.01043819	0.00393232	0.00327103	0.00632330	0.01238828	0.00183933	0.00545263	0.00079210	0.00275344
3.55000000	0.01072019	0.00359943	0.00334726	0.00469543	0.00299847	0.00524377	0.00942204	0.00890414	0.00348725	0.00483023	0.00298531	0.00631527	0.00642251	0.00614208	0.00462816	0.00357886	0.00085770	0.00500787	0.01021129	0.00400647	0.00307475	0.00649294	0.01195256	0.00159905	0.00515518	0.00048814	0.00233416
3.56000000	0.01057952	0.00313540	0.00319142	0.00463469	0.00291686	0.00642038	0.01017003	0.01068870	0.00321785	0.00490889	0.00238835	0.00660860	0.00675562	0.00667202	0.00484498	0.00361015	0.00093520	0.00483385	0.00981085	0.00403473	0.00296578	0.00666169	0.01171322	0.00152618	0.00491197	0.00046959	0.00190583
3.57000000	0.00998438	0.00308596	0.00326208	0.00407360	0.00269975	0.00824724	0.01124376	0.01157664	0.00304674	0.00495920	0.00212543	0.00735489	0.00717099	0.00715499	0.00526270	0.00339874	0.00110562	0.00466559	0.00930102	0.00401580	0.00294483	0.00687603	0.01141039	0.00140187	0.00446935	0.00010199	0.00133843
3.58000000	0.01002372	0.00250704	0.00298588	0.00405892	0.00256535	0.00889368	0.01136702	0.01371848	0.00253860	0.00471359	0.00137423	0.00749517	0.00784543	0.00746182	0.00552868	0.00348776	0.00099614	0.00437534	0.00885329	0.00409441	0.00283363	0.00707277	0.01106865	0.00115238	0.00421510	0.00024484	0.00101355
3.59000000	0.00943034	0.00227999	0.00284639	0.00378210	0.00241570	0.01002209	0.01186193	0.01515924	0.00207012	0.00442277	0.00158124	0.00770217	0.00847693	0.00788444	0.00593907	0.00345839	0.00087374	0.00410336	0.00831653	0.00411912	0.00281032	0.00725817	0.01075521	0.00095001	0.00393454	0.00057427	0.00066275
3.60000000	0.00909900	0.00211607	0.00272398	0.00346903	0.00218080	0.01109548	0.01210236	0.01637962	0.00169050	0.00415689	0.00254555	0.00786131	0.00908847	0.00829017	0.00625966	0.00350193	0.00095148	0.00380490	0.00775562	0.00410423	0.00278614	0.00743085	0.01037775	0.00073981	0.00366983	0.00091731	0.00034743
