TVC36_1_JMP_04_ankle_axis_personalization_task_1_finalErrors.sto
version=1
nRows=321
nColumns=28
inDegrees=no
endheader
time	R_Asis	L_Asis	R_Psis	L_Psis	Sacral	R_Thigh_Lateral	R_Knee_Lateral	R_Shank_Lateral	R_Ankle_Lateral	R_Heel	R_Toe	L_Thigh_Lateral	L_Knee_Lateral	L_Shank_Lateral	L_Ankle_Lateral	L_Heel	L_Toe	R_Shoulder	L_Shoulder	C7	J_Notch	Thoracic	Sternum	R_Elbow	L_Elbow	R_Wrist	L_Wrist
0.50000000	0.00444943	0.00518065	0.00207851	0.00120774	0.00124923	0.01271070	0.01139228	0.01134889	0.00184663	0.00450379	0.00150112	0.00638702	0.01078997	0.01335707	0.00622393	0.00388388	0.00325320	0.01432431	0.00796114	0.00568235	0.00628411	0.00708009	0.01098735	0.00137280	0.00778892	0.00102204	0.00434522
0.51000000	0.00443026	0.00638289	0.00194491	0.00108296	0.00119138	0.01240247	0.01019557	0.01229830	0.00155033	0.00455036	0.00090869	0.00681530	0.01046929	0.01330276	0.00619709	0.00378079	0.00344169	0.01393276	0.00754576	0.00570474	0.00623667	0.00667572	0.01099480	0.00098821	0.00792161	0.00068276	0.00427800
0.52000000	0.00453571	0.00764667	0.00181971	0.00097519	0.00114379	0.01198503	0.00902726	0.01302550	0.00126566	0.00433778	0.00076149	0.00695917	0.01029695	0.01319578	0.00618834	0.00371534	0.00363212	0.01357517	0.00709924	0.00571397	0.00608593	0.00629598	0.01084862	0.00070643	0.00802406	0.00047915	0.00421630
0.53000000	0.00403872	0.00875958	0.00167487	0.00167222	0.00124451	0.01124585	0.00819641	0.01264891	0.00117189	0.00361202	0.00091683	0.00675442	0.01073964	0.01353113	0.00631462	0.00383081	0.00359835	0.01317651	0.00640503	0.00576316	0.00591000	0.00589724	0.01062622	0.00059958	0.00796310	0.00036392	0.00420508
0.54000000	0.00431314	0.00996243	0.00154516	0.00174837	0.00120727	0.01082227	0.00717642	0.01224185	0.00135608	0.00289687	0.00113722	0.00662634	0.01077476	0.01348651	0.00634075	0.00388392	0.00356326	0.01267480	0.00597961	0.00579333	0.00581873	0.00555353	0.01043792	0.00084258	0.00801540	0.00021057	0.00412242
0.55000000	0.00474145	0.01091134	0.00142505	0.00153577	0.00102440	0.01025202	0.00619791	0.01180911	0.00162310	0.00227365	0.00152044	0.00643956	0.01069022	0.01334946	0.00631155	0.00397316	0.00348625	0.01219428	0.00566624	0.00581786	0.00573895	0.00529711	0.01022771	0.00127261	0.00802809	0.00011792	0.00426004
0.56000000	0.00538066	0.01151365	0.00141586	0.00115953	0.00086617	0.00990951	0.00534837	0.01109354	0.00192361	0.00166009	0.00173888	0.00641768	0.01056789	0.01307956	0.00626951	0.00400334	0.00368083	0.01191785	0.00532366	0.00588018	0.00568704	0.00520678	0.00997071	0.00161159	0.00814981	0.00023269	0.00394564
0.57000000	0.00523864	0.01163959	0.00141017	0.00153200	0.00083006	0.00906054	0.00501052	0.00931098	0.00224087	0.00121083	0.00166951	0.00636013	0.01075101	0.01319611	0.00631546	0.00411807	0.00362399	0.01150855	0.00518907	0.00584814	0.00556400	0.00495442	0.00982319	0.00183476	0.00828640	0.00031150	0.00393745
0.58000000	0.00519761	0.01138548	0.00149579	0.00129220	0.00071999	0.00861838	0.00437853	0.00815517	0.00250002	0.00151224	0.00172788	0.00634854	0.01065505	0.01298442	0.00629707	0.00413791	0.00350160	0.01124809	0.00513680	0.00581511	0.00551204	0.00482349	0.00970065	0.00215672	0.00844134	0.00047768	0.00391010
0.59000000	0.00488041	0.01065809	0.00165535	0.00097993	0.00067172	0.00836919	0.00374748	0.00712014	0.00267389	0.00192561	0.00175376	0.00631997	0.01040384	0.01279500	0.00620905	0.00417249	0.00346700	0.01107366	0.00509735	0.00580951	0.00546641	0.00468354	0.00959430	0.00248375	0.00854545	0.00068527	0.00396047
0.60000000	0.00473590	0.00935554	0.00192976	0.00035695	0.00084723	0.00842991	0.00306903	0.00651050	0.00265299	0.00215036	0.00176671	0.00632297	0.01004757	0.01247931	0.00609196	0.00415163	0.00339364	0.01110156	0.00499355	0.00586725	0.00538621	0.00462367	0.00941278	0.00285352	0.00860072	0.00091386	0.00399210
0.61000000	0.00355211	0.00804834	0.00205561	0.00044190	0.00092412	0.00842069	0.00251273	0.00565790	0.00259584	0.00220824	0.00165956	0.00654399	0.00968856	0.01221739	0.00595504	0.00407789	0.00327721	0.01091403	0.00497916	0.00582547	0.00535811	0.00442166	0.00938789	0.00310119	0.00875923	0.00108974	0.00399258
0.62000000	0.00309121	0.00624834	0.00233682	0.00045378	0.00125331	0.00859107	0.00193981	0.00541617	0.00241464	0.00207779	0.00161819	0.00658509	0.00913532	0.01187982	0.00581594	0.00391957	0.00328787	0.01103241	0.00470448	0.00596799	0.00532002	0.00451579	0.00920516	0.00333163	0.00868281	0.00123216	0.00405669
0.63000000	0.00207504	0.00470609	0.00244104	0.00076874	0.00139251	0.00862663	0.00146338	0.00515900	0.00230334	0.00192582	0.00155270	0.00675619	0.00867908	0.01151105	0.00561949	0.00372391	0.00306550	0.01096511	0.00461963	0.00595237	0.00525070	0.00469883	0.00906477	0.00352739	0.00876010	0.00131690	0.00413097
0.64000000	0.00148391	0.00318459	0.00250022	0.00100386	0.00151526	0.00858863	0.00113133	0.00503569	0.00231003	0.00167682	0.00159737	0.00691071	0.00814745	0.01114053	0.00538738	0.00347261	0.00304010	0.01107076	0.00442078	0.00600237	0.00510730	0.00514839	0.00877629	0.00360319	0.00875638	0.00142089	0.00416511
0.65000000	0.00117540	0.00208361	0.00243189	0.00116843	0.00149483	0.00845538	0.00130079	0.00475756	0.00220642	0.00172447	0.00144396	0.00699596	0.00764006	0.01073721	0.00516704	0.00322196	0.00290323	0.01094254	0.00439473	0.00596173	0.00511265	0.00571486	0.00864032	0.00364631	0.00878725	0.00145177	0.00422407
0.66000000	0.00148959	0.00133680	0.00227887	0.00128612	0.00142820	0.00826859	0.00151053	0.00444165	0.00216326	0.00169461	0.00133516	0.00700697	0.00717611	0.01030570	0.00497876	0.00288068	0.00284990	0.01082356	0.00436908	0.00597121	0.00516753	0.00636185	0.00850814	0.00361209	0.00869914	0.00141121	0.00438703
0.67000000	0.00148643	0.00134284	0.00208940	0.00135981	0.00141553	0.00799961	0.00186137	0.00422677	0.00199780	0.00176059	0.00130024	0.00712702	0.00637899	0.00999882	0.00465837	0.00288010	0.00267673	0.01097489	0.00424937	0.00600303	0.00493241	0.00691164	0.00805844	0.00343349	0.00872356	0.00167893	0.00429609
0.68000000	0.00200702	0.00105629	0.00179392	0.00138346	0.00119668	0.00766853	0.00209024	0.00369023	0.00192799	0.00178721	0.00110102	0.00689510	0.00641287	0.00934452	0.00464352	0.00232622	0.00258430	0.01074148	0.00444450	0.00592415	0.00499760	0.00741187	0.00798294	0.00354672	0.00876996	0.00140685	0.00436883
0.69000000	0.00183218	0.00154515	0.00156076	0.00141560	0.00118395	0.00735107	0.00250949	0.00329099	0.00183888	0.00169281	0.00113301	0.00678354	0.00547100	0.00909154	0.00432142	0.00257980	0.00230323	0.01080078	0.00441879	0.00591072	0.00482791	0.00771130	0.00767735	0.00340866	0.00877399	0.00155866	0.00443246
0.70000000	0.00199291	0.00152514	0.00135190	0.00147476	0.00106778	0.00701496	0.00257622	0.00266763	0.00179981	0.00185543	0.00087585	0.00635214	0.00581085	0.00828130	0.00439723	0.00190950	0.00239966	0.01055618	0.00455826	0.00587749	0.00493015	0.00792531	0.00769306	0.00337259	0.00876861	0.00132308	0.00446267
0.71000000	0.00184332	0.00192257	0.00128596	0.00145077	0.00112360	0.00674309	0.00298576	0.00225654	0.00178884	0.00173984	0.00088593	0.00603901	0.00485546	0.00796635	0.00411767	0.00240361	0.00197151	0.01060539	0.00458650	0.00580759	0.00473418	0.00794971	0.00746710	0.00334701	0.00881200	0.00151091	0.00455853
0.72000000	0.00177241	0.00226449	0.00123297	0.00149224	0.00108264	0.00646978	0.00294436	0.00174024	0.00180520	0.00200203	0.00061314	0.00546404	0.00518258	0.00715898	0.00425622	0.00172057	0.00203306	0.01035371	0.00467500	0.00577847	0.00485052	0.00789535	0.00756557	0.00314362	0.00881303	0.00134585	0.00445965
0.73000000	0.00156726	0.00297843	0.00128787	0.00143178	0.00100482	0.00614481	0.00292037	0.00132971	0.00183646	0.00214586	0.00053750	0.00499936	0.00514614	0.00655190	0.00403781	0.00141256	0.00161569	0.01022964	0.00470933	0.00574400	0.00486260	0.00773028	0.00756560	0.00300650	0.00879095	0.00130912	0.00439502
0.74000000	0.00142075	0.00347480	0.00136884	0.00138346	0.00097255	0.00593515	0.00304302	0.00113369	0.00188142	0.00225760	0.00054363	0.00445799	0.00487123	0.00596103	0.00384072	0.00126251	0.00128412	0.01014293	0.00472431	0.00567896	0.00481900	0.00751751	0.00755634	0.00285139	0.00874048	0.00125180	0.00440492
0.75000000	0.00160762	0.00350262	0.00146894	0.00131323	0.00110841	0.00586157	0.00370522	0.00108619	0.00201797	0.00218815	0.00080937	0.00390794	0.00387745	0.00553213	0.00372179	0.00203789	0.00116267	0.01026917	0.00466384	0.00558353	0.00460836	0.00726314	0.00741227	0.00282478	0.00873590	0.00127302	0.00441035
0.76000000	0.00129831	0.00379514	0.00154018	0.00143817	0.00117018	0.00570759	0.00370681	0.00142969	0.00212448	0.00250122	0.00042200	0.00325142	0.00405578	0.00463003	0.00391107	0.00153971	0.00075397	0.00994753	0.00478054	0.00543093	0.00468169	0.00697136	0.00757400	0.00234647	0.00865890	0.00110514	0.00446165
0.77000000	0.00090805	0.00421153	0.00165702	0.00136801	0.00112284	0.00545461	0.00374514	0.00176085	0.00211978	0.00261618	0.00042906	0.00277700	0.00393297	0.00402934	0.00372388	0.00124247	0.00042994	0.00984715	0.00486933	0.00531368	0.00463479	0.00668926	0.00756503	0.00213580	0.00861051	0.00106811	0.00434018
0.78000000	0.00066136	0.00433592	0.00176528	0.00136501	0.00117720	0.00523335	0.00399731	0.00199819	0.00205513	0.00269728	0.00043317	0.00248828	0.00364360	0.00345815	0.00367913	0.00127651	0.00025190	0.00983669	0.00494319	0.00516270	0.00447778	0.00644045	0.00749899	0.00201549	0.00851636	0.00091244	0.00439781
0.79000000	0.00067456	0.00443099	0.00192380	0.00114705	0.00112736	0.00500508	0.00383307	0.00236813	0.00202865	0.00270732	0.00073170	0.00213803	0.00335831	0.00328625	0.00338863	0.00101995	0.00046867	0.00979411	0.00497676	0.00515354	0.00450127	0.00629465	0.00754678	0.00191359	0.00829557	0.00083834	0.00436663
0.80000000	0.00074113	0.00435026	0.00194930	0.00126815	0.00126339	0.00479478	0.00425963	0.00252788	0.00207011	0.00268108	0.00060722	0.00234120	0.00320353	0.00290626	0.00355413	0.00122976	0.00060896	0.00975723	0.00504778	0.00505050	0.00441964	0.00602455	0.00751194	0.00171001	0.00812426	0.00074553	0.00444319
0.81000000	0.00089064	0.00421032	0.00195945	0.00120450	0.00133665	0.00454307	0.00481067	0.00251990	0.00206528	0.00260042	0.00118974	0.00281012	0.00299834	0.00292239	0.00369539	0.00147461	0.00165944	0.00971314	0.00513935	0.00503820	0.00445754	0.00577424	0.00752099	0.00165854	0.00800975	0.00084630	0.00429180
0.82000000	0.00142085	0.00450076	0.00213064	0.00130414	0.00139612	0.00431556	0.00415788	0.00297406	0.00193574	0.00280637	0.00079656	0.00268116	0.00306139	0.00310916	0.00356008	0.00156716	0.00106199	0.00979375	0.00520678	0.00495724	0.00430680	0.00559025	0.00749000	0.00143323	0.00775121	0.00073556	0.00435728
0.83000000	0.00160111	0.00431764	0.00212658	0.00141377	0.00149422	0.00417179	0.00452332	0.00311693	0.00191552	0.00270477	0.00069263	0.00306771	0.00300803	0.00307761	0.00367801	0.00159795	0.00116954	0.00973175	0.00533259	0.00491511	0.00428580	0.00532013	0.00752292	0.00138213	0.00756195	0.00065371	0.00439249
0.84000000	0.00155239	0.00410287	0.00212001	0.00141348	0.00154920	0.00408663	0.00484305	0.00315953	0.00190141	0.00263505	0.00112634	0.00324475	0.00290382	0.00325375	0.00378056	0.00155682	0.00162591	0.00967019	0.00560368	0.00480880	0.00428245	0.00499506	0.00760450	0.00128389	0.00751257	0.00088183	0.00419823
0.85000000	0.00169712	0.00407417	0.00216627	0.00156518	0.00164219	0.00404837	0.00481413	0.00355643	0.00184084	0.00265933	0.00062601	0.00333151	0.00287628	0.00314540	0.00378434	0.00152330	0.00126838	0.00971051	0.00560974	0.00482241	0.00425079	0.00464914	0.00762994	0.00126619	0.00719046	0.00062867	0.00434531
0.86000000	0.00137344	0.00374124	0.00212958	0.00154234	0.00165845	0.00430478	0.00499308	0.00361407	0.00188622	0.00255460	0.00123872	0.00314050	0.00268345	0.00333107	0.00384874	0.00146360	0.00175263	0.00967076	0.00589320	0.00468302	0.00424584	0.00420159	0.00774857	0.00124546	0.00724151	0.00089008	0.00403894
0.87000000	0.00132617	0.00386499	0.00216411	0.00161089	0.00168643	0.00431508	0.00484552	0.00418595	0.00179999	0.00263985	0.00068139	0.00295358	0.00264391	0.00315262	0.00377625	0.00143986	0.00127928	0.00965917	0.00573219	0.00485382	0.00435256	0.00371506	0.00780539	0.00117226	0.00672931	0.00055670	0.00431965
0.88000000	0.00070892	0.00358897	0.00220327	0.00166178	0.00176525	0.00467439	0.00494751	0.00431999	0.00181756	0.00256614	0.00119928	0.00256782	0.00246720	0.00324669	0.00384580	0.00129753	0.00146118	0.00954707	0.00611386	0.00463827	0.00433412	0.00313720	0.00792433	0.00102035	0.00675937	0.00088375	0.00408087
0.89000000	0.00028782	0.00353273	0.00217838	0.00159110	0.00171843	0.00481144	0.00500017	0.00467484	0.00180979	0.00259713	0.00119088	0.00245464	0.00241816	0.00301068	0.00377155	0.00126409	0.00129465	0.00952157	0.00626689	0.00455085	0.00433349	0.00263843	0.00797917	0.00104609	0.00667788	0.00090000	0.00390913
0.90000000	0.00047233	0.00339277	0.00213526	0.00156302	0.00169749	0.00526476	0.00511214	0.00484214	0.00184613	0.00249407	0.00158087	0.00205920	0.00227150	0.00290813	0.00383033	0.00119852	0.00131242	0.00932391	0.00637280	0.00456776	0.00442179	0.00230958	0.00806640	0.00123467	0.00673364	0.00110051	0.00372116
0.91000000	0.00047802	0.00350581	0.00203307	0.00144215	0.00152676	0.00514212	0.00474264	0.00572337	0.00168587	0.00268945	0.00102729	0.00172297	0.00211565	0.00265144	0.00379535	0.00128944	0.00105259	0.00971549	0.00570929	0.00481224	0.00437593	0.00222323	0.00790059	0.00059327	0.00599520	0.00048265	0.00416127
0.92000000	0.00102680	0.00343794	0.00210804	0.00143439	0.00158563	0.00532779	0.00491530	0.00586433	0.00169427	0.00256852	0.00136254	0.00150346	0.00204816	0.00241224	0.00384707	0.00121718	0.00095079	0.00953117	0.00591540	0.00471424	0.00438466	0.00252549	0.00792924	0.00055155	0.00604644	0.00067784	0.00389812
0.93000000	0.00151837	0.00348133	0.00222746	0.00147961	0.00168344	0.00541357	0.00512358	0.00595314	0.00167967	0.00250902	0.00175991	0.00135739	0.00212938	0.00217483	0.00385506	0.00117586	0.00080235	0.00930119	0.00610250	0.00465059	0.00442726	0.00296388	0.00794975	0.00073388	0.00602709	0.00097438	0.00375567
0.94000000	0.00182933	0.00359232	0.00233288	0.00151802	0.00175595	0.00542928	0.00535448	0.00605536	0.00166206	0.00240838	0.00203330	0.00128338	0.00236528	0.00193990	0.00386432	0.00117581	0.00062110	0.00913962	0.00618644	0.00460749	0.00446030	0.00334012	0.00793931	0.00109808	0.00607561	0.00116578	0.00353056
0.95000000	0.00120376	0.00351192	0.00206939	0.00119827	0.00141845	0.00550124	0.00497182	0.00660708	0.00162852	0.00271903	0.00103500	0.00121037	0.00183302	0.00186605	0.00404411	0.00127168	0.00073415	0.00949693	0.00554424	0.00473299	0.00432660	0.00324537	0.00772417	0.00040781	0.00548901	0.00035941	0.00393649
0.96000000	0.00131410	0.00371444	0.00226127	0.00132846	0.00159424	0.00530942	0.00529266	0.00663055	0.00156123	0.00261254	0.00133088	0.00125115	0.00225639	0.00170102	0.00402667	0.00117528	0.00049748	0.00936836	0.00561985	0.00460359	0.00431914	0.00334839	0.00764400	0.00065947	0.00545143	0.00045716	0.00370156
0.97000000	0.00096002	0.00364753	0.00216047	0.00127199	0.00152069	0.00529823	0.00524735	0.00680647	0.00161132	0.00277388	0.00090045	0.00146768	0.00191640	0.00175438	0.00422403	0.00132158	0.00056636	0.00942560	0.00541943	0.00448043	0.00422851	0.00303800	0.00755482	0.00046471	0.00525646	0.00020758	0.00384251
0.98000000	0.00085556	0.00374507	0.00226065	0.00136173	0.00164769	0.00517786	0.00544789	0.00679204	0.00155417	0.00264137	0.00102404	0.00144411	0.00217205	0.00185928	0.00434209	0.00129418	0.00058020	0.00951027	0.00532610	0.00428313	0.00411511	0.00272323	0.00742333	0.00072231	0.00520275	0.00032827	0.00380317
0.99000000	0.00061323	0.00403108	0.00207259	0.00132439	0.00154730	0.00513808	0.00541297	0.00686927	0.00156486	0.00276430	0.00092913	0.00166249	0.00217150	0.00210064	0.00442068	0.00146701	0.00049115	0.00950140	0.00519670	0.00417974	0.00410200	0.00239111	0.00731299	0.00053898	0.00508019	0.00018699	0.00374474
1.00000000	0.00051700	0.00415939	0.00216259	0.00150827	0.00173415	0.00499284	0.00567853	0.00674035	0.00148798	0.00265500	0.00106619	0.00156590	0.00277288	0.00228082	0.00453061	0.00139296	0.00051174	0.00967197	0.00508861	0.00397591	0.00395724	0.00210515	0.00714618	0.00093730	0.00506717	0.00043656	0.00373380
1.01000000	0.00061412	0.00454206	0.00186211	0.00144641	0.00157372	0.00499075	0.00538285	0.00688207	0.00148853	0.00274887	0.00096270	0.00173670	0.00266297	0.00264207	0.00464831	0.00161924	0.00036930	0.00970479	0.00501744	0.00388251	0.00391889	0.00206832	0.00702928	0.00068755	0.00497492	0.00024269	0.00367434
1.02000000	0.00066632	0.00488714	0.00177754	0.00155091	0.00160105	0.00491855	0.00531520	0.00688781	0.00143166	0.00270364	0.00096715	0.00168421	0.00288714	0.00296698	0.00474650	0.00168193	0.00034208	0.00978478	0.00492818	0.00384372	0.00386207	0.00220687	0.00692034	0.00071872	0.00499619	0.00018356	0.00358980
1.03000000	0.00069342	0.00518106	0.00175820	0.00167707	0.00165424	0.00483061	0.00515621	0.00693480	0.00138183	0.00267115	0.00098653	0.00158216	0.00320090	0.00318198	0.00486766	0.00174459	0.00035219	0.00993414	0.00485158	0.00384000	0.00377410	0.00246204	0.00679826	0.00076613	0.00503979	0.00024718	0.00353151
1.04000000	0.00084691	0.00546966	0.00176889	0.00174191	0.00166736	0.00501207	0.00495960	0.00693340	0.00130996	0.00257008	0.00102292	0.00160939	0.00339536	0.00335517	0.00497390	0.00174277	0.00029993	0.01004162	0.00482183	0.00395242	0.00368807	0.00271298	0.00664096	0.00079741	0.00506786	0.00034406	0.00356269
1.05000000	0.00106841	0.00553568	0.00201841	0.00204277	0.00195045	0.00491729	0.00527422	0.00676461	0.00123229	0.00237296	0.00106737	0.00155254	0.00397247	0.00331274	0.00504745	0.00167473	0.00066336	0.01021047	0.00480385	0.00410358	0.00356372	0.00287857	0.00648147	0.00104072	0.00512888	0.00069019	0.00371223
1.06000000	0.00131332	0.00581922	0.00197719	0.00188037	0.00182862	0.00515761	0.00467907	0.00705514	0.00120771	0.00236333	0.00101619	0.00162572	0.00379755	0.00342700	0.00519343	0.00168987	0.00039290	0.01022081	0.00478289	0.00442952	0.00357805	0.00297200	0.00640344	0.00079759	0.00535760	0.00043951	0.00350350
1.07000000	0.00172885	0.00589344	0.00219844	0.00221090	0.00214829	0.00503729	0.00493693	0.00694992	0.00110199	0.00220294	0.00102505	0.00164243	0.00416996	0.00329370	0.00521431	0.00159468	0.00059557	0.01035423	0.00474393	0.00474155	0.00352323	0.00293512	0.00623346	0.00094411	0.00549020	0.00070224	0.00353000
1.08000000	0.00213634	0.00595965	0.00226334	0.00243517	0.00231367	0.00497532	0.00488706	0.00703064	0.00108627	0.00215629	0.00093707	0.00181003	0.00425878	0.00319638	0.00527667	0.00148450	0.00062880	0.01042581	0.00480635	0.00503451	0.00344743	0.00279958	0.00606229	0.00105946	0.00568043	0.00080662	0.00358277
1.09000000	0.00236498	0.00600280	0.00217415	0.00251572	0.00229646	0.00524273	0.00437832	0.00720271	0.00104949	0.00216381	0.00102599	0.00210090	0.00421644	0.00292710	0.00538503	0.00160452	0.00040174	0.01033890	0.00493354	0.00532404	0.00347827	0.00267121	0.00606971	0.00053698	0.00593395	0.00043054	0.00351240
1.10000000	0.00272273	0.00612515	0.00232781	0.00311754	0.00258748	0.00510522	0.00458635	0.00715282	0.00090541	0.00196614	0.00100648	0.00235410	0.00429619	0.00279129	0.00531045	0.00143784	0.00057410	0.01035095	0.00496662	0.00563498	0.00343800	0.00242869	0.00583985	0.00063840	0.00609691	0.00057041	0.00357991
1.11000000	0.00307108	0.00620074	0.00245319	0.00368204	0.00277240	0.00505384	0.00482256	0.00702311	0.00075414	0.00170339	0.00102012	0.00270619	0.00427851	0.00262446	0.00531084	0.00145345	0.00091087	0.01028685	0.00505226	0.00589718	0.00343832	0.00218772	0.00570947	0.00086593	0.00628330	0.00057219	0.00367484
1.12000000	0.00317302	0.00630845	0.00267757	0.00444971	0.00311034	0.00476078	0.00442720	0.00732386	0.00078064	0.00185571	0.00088067	0.00286907	0.00442600	0.00221780	0.00530119	0.00139739	0.00093657	0.01033750	0.00503027	0.00610672	0.00339702	0.00182876	0.00537560	0.00071242	0.00646058	0.00051166	0.00348464
1.13000000	0.00340443	0.00633972	0.00278006	0.00488368	0.00316175	0.00484042	0.00480751	0.00698563	0.00062903	0.00151656	0.00103579	0.00333394	0.00423858	0.00216639	0.00539604	0.00177578	0.00149324	0.01015750	0.00521052	0.00635114	0.00339152	0.00160261	0.00524913	0.00100834	0.00666063	0.00039632	0.00374040
1.14000000	0.00339837	0.00647154	0.00295765	0.00540462	0.00336361	0.00455947	0.00479039	0.00701068	0.00050216	0.00146568	0.00106729	0.00368876	0.00436733	0.00191998	0.00537492	0.00189491	0.00174975	0.01014329	0.00527401	0.00653739	0.00332814	0.00127362	0.00490537	0.00107586	0.00681085	0.00043313	0.00375542
1.15000000	0.00324914	0.00577695	0.00300850	0.00606529	0.00365856	0.00469022	0.00364542	0.00732115	0.00074040	0.00179290	0.00104572	0.00354944	0.00476438	0.00138833	0.00542674	0.00212505	0.00107553	0.00994906	0.00547231	0.00665561	0.00335128	0.00117648	0.00477925	0.00078342	0.00699235	0.00033951	0.00357355
1.16000000	0.00330421	0.00533809	0.00310870	0.00619857	0.00368498	0.00496805	0.00328378	0.00695756	0.00083773	0.00170441	0.00093716	0.00380852	0.00536716	0.00156743	0.00536251	0.00234778	0.00088092	0.00990590	0.00555129	0.00680019	0.00334822	0.00106415	0.00460943	0.00095973	0.00707578	0.00044700	0.00364111
1.17000000	0.00338262	0.00537124	0.00326497	0.00631253	0.00376006	0.00470172	0.00357151	0.00660200	0.00081499	0.00140519	0.00130780	0.00412931	0.00521869	0.00172107	0.00554195	0.00269378	0.00141979	0.00991630	0.00562874	0.00703412	0.00327804	0.00115032	0.00431245	0.00119415	0.00720781	0.00075933	0.00374427
1.18000000	0.00321276	0.00549878	0.00336330	0.00656080	0.00399093	0.00428929	0.00356879	0.00651169	0.00074436	0.00133438	0.00133289	0.00432464	0.00540224	0.00155184	0.00555008	0.00271403	0.00156706	0.00979230	0.00570421	0.00740824	0.00329233	0.00142404	0.00392449	0.00121590	0.00732160	0.00088017	0.00375637
1.19000000	0.00318755	0.00520086	0.00331773	0.00667745	0.00408367	0.00408579	0.00310482	0.00651471	0.00080103	0.00146539	0.00081253	0.00430491	0.00565259	0.00140499	0.00568339	0.00281601	0.00163994	0.00975220	0.00587520	0.00758885	0.00327567	0.00182408	0.00382786	0.00169227	0.00737595	0.00074759	0.00376499
1.20000000	0.00317528	0.00520466	0.00347604	0.00683409	0.00428373	0.00372657	0.00314590	0.00619870	0.00087025	0.00121726	0.00127845	0.00456788	0.00573445	0.00144264	0.00583497	0.00290270	0.00193456	0.00973867	0.00596460	0.00790305	0.00322948	0.00220092	0.00346103	0.00169296	0.00752116	0.00102913	0.00370847
1.21000000	0.00310511	0.00517830	0.00352816	0.00699467	0.00447056	0.00334959	0.00295449	0.00605471	0.00096348	0.00114252	0.00134315	0.00481448	0.00593265	0.00144474	0.00594540	0.00277986	0.00201184	0.00967806	0.00605266	0.00822191	0.00327467	0.00262877	0.00328057	0.00191332	0.00754509	0.00120783	0.00379121
1.22000000	0.00329401	0.00477074	0.00338763	0.00693084	0.00445050	0.00329575	0.00249553	0.00592409	0.00104467	0.00105487	0.00106858	0.00479406	0.00614072	0.00169735	0.00612786	0.00278000	0.00190617	0.00970702	0.00626787	0.00840392	0.00319386	0.00308929	0.00321890	0.00246664	0.00768241	0.00085520	0.00372764
1.23000000	0.00325857	0.00474769	0.00356047	0.00712447	0.00472463	0.00295050	0.00232371	0.00569893	0.00120444	0.00076301	0.00154493	0.00499511	0.00636711	0.00174167	0.00630318	0.00253367	0.00208341	0.00961999	0.00631745	0.00875280	0.00323169	0.00349179	0.00288280	0.00243826	0.00770817	0.00128047	0.00370225
1.24000000	0.00342687	0.00435389	0.00350963	0.00699672	0.00473246	0.00339360	0.00148648	0.00523659	0.00145282	0.00089270	0.00088219	0.00515105	0.00669120	0.00215596	0.00635911	0.00247425	0.00176639	0.00952928	0.00652311	0.00889835	0.00323634	0.00389354	0.00292192	0.00285625	0.00774499	0.00093282	0.00364192
1.25000000	0.00340561	0.00420537	0.00369412	0.00709290	0.00498897	0.00303479	0.00126622	0.00509396	0.00168160	0.00059851	0.00156835	0.00531515	0.00701833	0.00226637	0.00645602	0.00209282	0.00192277	0.00940707	0.00658268	0.00921898	0.00326183	0.00428988	0.00254014	0.00279729	0.00771207	0.00138932	0.00364789
1.26000000	0.00338289	0.00389151	0.00370719	0.00700099	0.00507555	0.00287414	0.00115202	0.00506864	0.00183224	0.00054709	0.00149654	0.00551915	0.00715223	0.00243424	0.00654524	0.00188839	0.00190207	0.00923673	0.00675654	0.00953821	0.00328925	0.00474146	0.00237010	0.00298308	0.00769211	0.00152667	0.00374133
1.27000000	0.00347564	0.00377735	0.00372018	0.00691193	0.00513939	0.00306934	0.00088500	0.00492837	0.00197336	0.00071776	0.00098355	0.00546710	0.00670587	0.00241469	0.00655694	0.00194563	0.00179264	0.00924346	0.00691262	0.00987704	0.00320084	0.00536014	0.00217349	0.00348844	0.00768112	0.00093686	0.00361058
1.28000000	0.00340827	0.00351717	0.00384073	0.00687956	0.00526721	0.00312708	0.00066114	0.00483727	0.00209597	0.00072376	0.00111003	0.00551817	0.00663058	0.00254176	0.00654273	0.00179549	0.00175240	0.00919597	0.00701579	0.01020367	0.00318362	0.00585269	0.00207776	0.00368896	0.00757220	0.00088951	0.00357611
1.29000000	0.00333238	0.00316785	0.00414101	0.00701359	0.00554213	0.00309565	0.00055610	0.00475857	0.00224324	0.00071417	0.00181243	0.00560526	0.00716840	0.00289180	0.00634438	0.00121375	0.00178095	0.00913062	0.00695818	0.01058566	0.00321995	0.00617868	0.00187950	0.00337954	0.00736531	0.00146429	0.00367943
1.30000000	0.00341177	0.00295308	0.00398480	0.00676712	0.00535173	0.00321096	0.00061114	0.00481692	0.00234873	0.00095403	0.00096761	0.00547204	0.00643003	0.00293926	0.00636438	0.00181166	0.00177337	0.00911007	0.00723957	0.01107996	0.00310030	0.00676793	0.00205340	0.00396935	0.00742601	0.00094848	0.00353026
1.31000000	0.00341552	0.00277098	0.00408095	0.00684547	0.00543189	0.00335594	0.00059442	0.00470168	0.00247202	0.00098111	0.00111344	0.00548055	0.00636126	0.00300697	0.00628357	0.00189040	0.00177166	0.00900432	0.00737453	0.01148811	0.00313457	0.00715719	0.00243703	0.00415188	0.00723080	0.00098355	0.00356630
1.32000000	0.00345720	0.00283068	0.00414606	0.00693548	0.00549495	0.00351753	0.00043803	0.00460090	0.00256398	0.00098932	0.00123315	0.00534112	0.00605672	0.00295392	0.00625345	0.00166645	0.00169168	0.00899750	0.00761522	0.01190742	0.00296981	0.00758027	0.00277853	0.00425148	0.00723636	0.00072611	0.00344232
1.33000000	0.00351490	0.00290081	0.00413745	0.00698249	0.00550288	0.00364097	0.00049658	0.00452366	0.00267350	0.00104923	0.00114154	0.00527972	0.00596360	0.00290289	0.00622284	0.00156117	0.00158903	0.00889090	0.00776042	0.01240262	0.00301429	0.00788343	0.00323272	0.00437255	0.00706099	0.00078402	0.00348112
1.34000000	0.00344195	0.00293886	0.00431815	0.00725432	0.00573213	0.00374019	0.00042487	0.00444317	0.00270070	0.00129768	0.00112041	0.00528486	0.00623077	0.00314757	0.00611208	0.00129179	0.00160185	0.00879963	0.00772532	0.01285841	0.00306059	0.00803486	0.00377235	0.00406271	0.00688115	0.00128162	0.00350786
1.35000000	0.00362894	0.00305510	0.00407158	0.00700713	0.00548449	0.00380479	0.00049608	0.00435861	0.00270136	0.00128441	0.00095599	0.00510197	0.00598902	0.00309163	0.00626029	0.00171585	0.00155400	0.00885836	0.00800013	0.01327683	0.00296938	0.00833123	0.00412040	0.00445953	0.00678634	0.00073259	0.00349097
1.36000000	0.00350683	0.00328328	0.00424183	0.00715937	0.00565842	0.00398868	0.00037204	0.00422174	0.00265850	0.00159442	0.00087195	0.00507599	0.00609695	0.00323142	0.00628128	0.00172261	0.00160597	0.00878108	0.00795287	0.01370571	0.00303234	0.00844981	0.00467529	0.00423604	0.00658678	0.00133871	0.00354500
1.37000000	0.00385519	0.00353956	0.00391945	0.00681466	0.00532431	0.00390228	0.00065377	0.00418557	0.00274540	0.00134134	0.00096204	0.00480071	0.00621632	0.00318971	0.00640016	0.00189843	0.00144960	0.00887786	0.00829110	0.01392894	0.00291490	0.00865431	0.00488149	0.00462443	0.00649360	0.00057018	0.00340886
1.38000000	0.00369134	0.00390667	0.00405893	0.00683179	0.00540743	0.00413095	0.00038573	0.00405801	0.00265737	0.00169711	0.00077701	0.00478537	0.00610373	0.00328979	0.00658207	0.00225543	0.00160562	0.00873799	0.00826614	0.01430117	0.00300775	0.00881107	0.00536032	0.00442407	0.00627986	0.00114087	0.00345329
1.39000000	0.00389699	0.00419644	0.00377374	0.00653361	0.00511151	0.00407969	0.00082890	0.00407952	0.00272872	0.00151323	0.00083209	0.00455638	0.00647990	0.00333472	0.00662770	0.00235130	0.00148918	0.00865691	0.00855936	0.01446132	0.00302198	0.00901735	0.00550041	0.00462887	0.00617899	0.00053372	0.00328042
1.40000000	0.00378939	0.00454860	0.00382441	0.00641285	0.00507677	0.00433457	0.00056602	0.00394640	0.00269553	0.00190520	0.00059071	0.00458990	0.00614316	0.00337043	0.00684696	0.00300868	0.00180060	0.00850213	0.00847104	0.01482963	0.00314709	0.00935131	0.00591985	0.00446649	0.00592028	0.00109642	0.00337592
1.41000000	0.00399726	0.00475723	0.00330331	0.00606640	0.00462986	0.00416220	0.00125332	0.00407904	0.00269471	0.00175950	0.00083971	0.00420534	0.00690724	0.00340298	0.00687457	0.00294713	0.00155327	0.00819631	0.00899753	0.01487508	0.00318283	0.00966697	0.00576568	0.00462341	0.00579408	0.00059417	0.00334296
1.42000000	0.00397556	0.00486342	0.00333580	0.00591176	0.00456968	0.00440270	0.00112423	0.00401907	0.00262976	0.00200023	0.00058872	0.00428316	0.00639571	0.00357528	0.00710747	0.00353628	0.00181677	0.00804464	0.00898450	0.01509725	0.00333489	0.01025012	0.00609940	0.00454555	0.00550234	0.00103460	0.00332297
1.43000000	0.00415526	0.00483377	0.00304522	0.00559646	0.00425661	0.00448562	0.00135413	0.00402493	0.00268698	0.00195228	0.00077824	0.00414876	0.00686128	0.00376218	0.00697924	0.00342750	0.00170857	0.00803294	0.00910274	0.01516224	0.00340118	0.01086343	0.00607941	0.00468941	0.00520375	0.00038358	0.00330328
1.44000000	0.00414125	0.00478067	0.00298473	0.00538377	0.00412638	0.00475807	0.00128999	0.00393945	0.00265922	0.00217157	0.00041338	0.00424566	0.00601017	0.00401235	0.00726990	0.00415785	0.00204473	0.00786000	0.00908449	0.01539656	0.00352563	0.01166225	0.00642591	0.00450153	0.00495307	0.00107807	0.00333808
1.45000000	0.00439907	0.00465072	0.00264283	0.00512413	0.00380365	0.00472751	0.00161146	0.00397371	0.00274216	0.00198472	0.00070034	0.00392678	0.00692874	0.00398088	0.00704613	0.00368084	0.00178350	0.00757481	0.00939462	0.01544240	0.00370596	0.01226280	0.00621067	0.00458836	0.00468074	0.00027877	0.00325662
1.46000000	0.00446104	0.00431568	0.00267760	0.00495884	0.00374616	0.00505027	0.00153114	0.00387718	0.00272270	0.00202138	0.00055776	0.00424740	0.00656817	0.00407149	0.00701042	0.00376278	0.00190558	0.00746845	0.00943412	0.01551377	0.00390932	0.01297257	0.00642800	0.00449309	0.00436326	0.00025356	0.00317025
1.47000000	0.00456830	0.00402016	0.00267100	0.00476976	0.00364897	0.00532812	0.00147982	0.00381203	0.00270907	0.00205837	0.00051051	0.00440580	0.00626457	0.00423629	0.00690850	0.00367018	0.00195289	0.00734367	0.00950668	0.01559094	0.00409781	0.01350680	0.00659646	0.00438322	0.00402237	0.00015173	0.00317366
1.48000000	0.00467220	0.00373720	0.00265913	0.00457486	0.00354408	0.00556450	0.00142289	0.00371540	0.00274554	0.00204921	0.00033265	0.00454213	0.00581290	0.00439642	0.00675166	0.00359786	0.00204682	0.00717568	0.00961358	0.01569641	0.00432553	0.01383062	0.00675558	0.00429433	0.00372203	0.00032356	0.00312705
1.49000000	0.00461652	0.00342116	0.00256147	0.00436328	0.00339683	0.00583995	0.00131643	0.00359164	0.00265678	0.00219718	0.00045833	0.00450941	0.00466992	0.00489902	0.00692999	0.00406742	0.00232875	0.00709434	0.00966739	0.01578162	0.00437845	0.01399491	0.00716843	0.00401190	0.00355846	0.00114024	0.00316959
1.50000000	0.00482966	0.00333554	0.00237693	0.00408645	0.00312222	0.00586865	0.00141813	0.00360542	0.00259848	0.00192076	0.00048766	0.00410915	0.00551066	0.00491877	0.00642306	0.00284723	0.00191622	0.00709139	0.00979928	0.01577030	0.00452181	0.01373127	0.00695763	0.00395127	0.00331606	0.00039720	0.00304246
1.51000000	0.00486569	0.00297196	0.00246002	0.00402205	0.00314043	0.00609082	0.00129825	0.00346379	0.00267459	0.00177635	0.00031385	0.00423961	0.00514603	0.00501697	0.00634158	0.00265628	0.00195798	0.00696829	0.00996061	0.01567641	0.00471792	0.01336870	0.00715336	0.00366178	0.00311286	0.00045166	0.00297294
1.52000000	0.00483218	0.00269973	0.00243221	0.00384892	0.00305081	0.00634381	0.00117819	0.00331819	0.00261973	0.00187602	0.00038307	0.00429554	0.00403987	0.00540304	0.00641485	0.00286874	0.00218333	0.00676078	0.01012208	0.01568570	0.00485183	0.01292318	0.00744449	0.00332434	0.00299307	0.00094292	0.00298770
1.53000000	0.00495547	0.00270390	0.00244874	0.00371155	0.00298113	0.00650307	0.00111818	0.00321926	0.00260774	0.00163390	0.00030711	0.00423360	0.00438062	0.00546276	0.00602763	0.00193822	0.00199345	0.00685081	0.01008970	0.01556427	0.00500748	0.01233686	0.00745361	0.00306936	0.00276933	0.00066576	0.00296434
1.54000000	0.00497545	0.00256287	0.00245073	0.00362317	0.00295399	0.00673622	0.00100901	0.00303823	0.00258988	0.00171751	0.00030216	0.00449533	0.00361836	0.00557133	0.00601054	0.00198469	0.00207130	0.00652709	0.01026973	0.01552061	0.00530473	0.01177249	0.00754048	0.00281183	0.00280724	0.00036562	0.00277720
1.55000000	0.00508007	0.00284336	0.00240096	0.00350658	0.00285918	0.00679683	0.00108075	0.00300557	0.00255330	0.00140779	0.00028865	0.00426182	0.00382096	0.00567115	0.00582812	0.00135079	0.00193668	0.00675541	0.01018579	0.01527027	0.00536191	0.01128794	0.00759500	0.00239415	0.00268948	0.00058618	0.00278732
1.56000000	0.00513065	0.00341889	0.00229487	0.00330245	0.00266998	0.00674394	0.00118152	0.00302285	0.00251252	0.00135029	0.00016503	0.00418805	0.00369633	0.00555988	0.00581597	0.00119832	0.00185315	0.00683118	0.01008873	0.01513368	0.00543518	0.01087798	0.00759086	0.00201042	0.00264840	0.00020566	0.00273599
1.57000000	0.00521720	0.00323837	0.00238762	0.00342173	0.00280330	0.00692933	0.00111606	0.00281646	0.00246252	0.00136466	0.00033460	0.00442630	0.00309163	0.00569821	0.00570912	0.00145042	0.00183875	0.00648067	0.01033734	0.01493726	0.00575971	0.01049247	0.00756143	0.00163575	0.00287038	0.00047575	0.00247013
1.58000000	0.00522906	0.00385570	0.00242008	0.00333205	0.00273711	0.00686480	0.00115107	0.00283848	0.00248539	0.00113908	0.00012692	0.00427065	0.00326691	0.00551335	0.00560944	0.00105432	0.00180902	0.00701975	0.00995718	0.01466877	0.00572664	0.01030138	0.00753564	0.00128827	0.00264137	0.00041674	0.00264863
1.59000000	0.00528840	0.00370292	0.00252998	0.00352594	0.00291494	0.00700698	0.00101069	0.00265903	0.00245631	0.00121487	0.00038837	0.00424552	0.00252361	0.00582664	0.00551583	0.00138389	0.00194640	0.00675103	0.01018968	0.01444910	0.00598370	0.01008259	0.00745831	0.00083076	0.00286688	0.00149360	0.00247014
1.60000000	0.00523837	0.00414292	0.00264947	0.00350628	0.00292988	0.00687778	0.00107151	0.00266164	0.00244419	0.00096237	0.00021080	0.00428783	0.00274022	0.00555841	0.00533323	0.00100407	0.00173948	0.00741437	0.00983581	0.01412871	0.00597840	0.01004988	0.00734671	0.00131145	0.00286678	0.00119188	0.00251647
1.61000000	0.00521100	0.00402558	0.00278179	0.00378653	0.00316380	0.00693773	0.00098048	0.00250112	0.00245606	0.00092361	0.00041034	0.00440146	0.00218460	0.00569458	0.00518774	0.00132788	0.00179554	0.00719065	0.01015717	0.01388657	0.00624782	0.00992697	0.00713969	0.00116767	0.00311926	0.00203557	0.00240178
1.62000000	0.00492261	0.00420554	0.00283674	0.00387639	0.00322537	0.00691559	0.00096146	0.00241403	0.00237720	0.00073494	0.00051871	0.00449579	0.00208813	0.00555725	0.00503181	0.00133580	0.00166030	0.00775337	0.01002734	0.01355500	0.00636124	0.00995123	0.00701016	0.00183155	0.00340599	0.00182091	0.00228339
1.63000000	0.00482202	0.00466156	0.00310748	0.00382814	0.00330405	0.00663014	0.00093965	0.00242776	0.00237783	0.00073036	0.00037243	0.00449104	0.00217696	0.00517675	0.00499975	0.00105637	0.00155393	0.00834488	0.00983373	0.01333455	0.00622972	0.00991920	0.00677280	0.00200160	0.00340010	0.00182157	0.00238901
1.64000000	0.00457190	0.00464876	0.00321587	0.00391246	0.00340718	0.00651758	0.00092994	0.00234281	0.00231451	0.00064220	0.00048633	0.00452612	0.00193425	0.00510536	0.00490224	0.00110555	0.00153781	0.00863351	0.01001785	0.01308000	0.00629547	0.00986216	0.00656804	0.00201648	0.00361842	0.00173016	0.00232289
1.65000000	0.00428687	0.00454386	0.00331710	0.00405883	0.00355518	0.00648088	0.00083750	0.00225642	0.00226464	0.00072830	0.00037622	0.00449473	0.00163720	0.00506746	0.00483187	0.00119684	0.00148485	0.00858375	0.01045207	0.01289809	0.00645233	0.00970188	0.00630202	0.00152437	0.00382040	0.00206109	0.00222300
1.66000000	0.00391449	0.00443761	0.00335666	0.00403892	0.00357488	0.00639479	0.00086278	0.00216924	0.00215540	0.00081792	0.00042344	0.00433094	0.00142142	0.00499728	0.00482949	0.00116264	0.00145496	0.00863351	0.01087070	0.01271256	0.00658742	0.00952330	0.00614480	0.00135050	0.00392862	0.00180759	0.00224771
1.67000000	0.00359226	0.00432168	0.00343254	0.00393193	0.00355578	0.00622268	0.00087513	0.00201773	0.00208547	0.00078591	0.00053457	0.00419868	0.00168447	0.00459629	0.00490292	0.00103750	0.00137547	0.00947107	0.01075064	0.01242769	0.00638138	0.00934637	0.00606163	0.00122103	0.00393659	0.00072394	0.00228994
1.68000000	0.00312702	0.00410293	0.00338560	0.00379166	0.00346887	0.00617698	0.00087453	0.00193769	0.00196953	0.00084488	0.00046235	0.00386309	0.00147261	0.00442577	0.00501417	0.00090646	0.00134629	0.00940619	0.01127255	0.01225698	0.00652311	0.00905458	0.00604872	0.00101535	0.00392721	0.00036675	0.00226804
1.69000000	0.00280807	0.00367771	0.00339025	0.00373542	0.00345253	0.00612456	0.00086892	0.00182334	0.00188301	0.00081588	0.00044756	0.00354729	0.00151288	0.00418596	0.00512531	0.00078293	0.00130474	0.00964890	0.01158230	0.01203834	0.00649853	0.00874480	0.00604621	0.00082126	0.00385106	0.00030154	0.00231364
1.70000000	0.00247407	0.00334789	0.00343002	0.00372715	0.00347487	0.00613148	0.00086939	0.00175180	0.00174344	0.00101747	0.00020206	0.00303005	0.00135204	0.00397109	0.00533635	0.00075522	0.00119230	0.00935009	0.01219133	0.01194502	0.00660787	0.00836156	0.00603844	0.00138101	0.00362335	0.00041853	0.00242225
1.71000000	0.00212128	0.00274112	0.00327246	0.00356935	0.00331266	0.00614574	0.00086740	0.00158060	0.00165440	0.00092802	0.00036757	0.00256788	0.00140717	0.00384282	0.00539614	0.00079176	0.00118943	0.00967446	0.01253691	0.01167977	0.00662343	0.00810434	0.00615983	0.00111535	0.00369715	0.00101505	0.00223865
1.72000000	0.00191678	0.00222661	0.00320549	0.00358777	0.00328362	0.00611439	0.00081571	0.00147951	0.00165334	0.00089450	0.00032336	0.00209242	0.00140570	0.00363628	0.00550356	0.00090682	0.00117533	0.00977618	0.01285677	0.01158096	0.00668104	0.00778205	0.00629806	0.00138551	0.00351478	0.00125097	0.00227702
1.73000000	0.00176354	0.00182158	0.00316532	0.00361674	0.00326418	0.00601475	0.00070601	0.00146047	0.00170771	0.00083956	0.00023204	0.00174032	0.00143936	0.00341055	0.00558427	0.00095067	0.00112910	0.01016774	0.01291348	0.01151450	0.00670481	0.00753068	0.00646382	0.00169433	0.00319438	0.00137248	0.00244339
1.74000000	0.00163447	0.00131762	0.00300824	0.00379279	0.00326305	0.00588554	0.00130263	0.00127536	0.00160208	0.00111396	0.00066576	0.00149851	0.00132105	0.00334303	0.00562281	0.00132468	0.00129752	0.01001146	0.01346245	0.01151350	0.00683344	0.00726056	0.00657258	0.00236635	0.00296186	0.00120726	0.00253357
1.75000000	0.00153474	0.00084948	0.00280207	0.00390380	0.00321015	0.00579266	0.00181904	0.00112873	0.00162046	0.00127865	0.00103842	0.00153747	0.00146475	0.00346487	0.00547454	0.00144618	0.00157798	0.01018253	0.01392996	0.01141405	0.00689118	0.00708841	0.00666330	0.00246071	0.00283787	0.00151668	0.00254756
1.76000000	0.00170676	0.00092991	0.00282169	0.00385245	0.00314151	0.00562718	0.00150322	0.00143647	0.00179350	0.00133724	0.00020706	0.00201326	0.00146309	0.00353405	0.00547341	0.00125424	0.00094524	0.01100150	0.01375584	0.01133301	0.00685776	0.00702597	0.00681407	0.00256155	0.00266101	0.00157983	0.00258064
1.77000000	0.00181063	0.00071514	0.00269959	0.00405072	0.00318099	0.00546875	0.00216303	0.00172479	0.00182601	0.00163815	0.00018238	0.00266891	0.00163185	0.00379238	0.00528043	0.00126877	0.00098554	0.01144330	0.01399983	0.01124801	0.00685422	0.00692851	0.00686926	0.00272593	0.00270025	0.00172875	0.00249917
1.78000000	0.00195486	0.00071704	0.00257660	0.00428230	0.00325735	0.00528593	0.00291865	0.00216356	0.00197730	0.00183622	0.00049922	0.00326887	0.00197689	0.00421512	0.00497859	0.00117695	0.00118880	0.01192136	0.01426356	0.01113687	0.00684305	0.00679644	0.00692945	0.00295307	0.00266762	0.00172206	0.00257262
1.79000000	0.00228430	0.00104727	0.00251611	0.00436464	0.00325411	0.00506521	0.00344778	0.00294079	0.00212569	0.00216844	0.00029476	0.00391410	0.00220083	0.00463900	0.00478576	0.00118404	0.00099836	0.01248417	0.01429978	0.01111497	0.00686835	0.00675757	0.00705236	0.00299851	0.00270527	0.00170817	0.00263924
1.80000000	0.00281957	0.00154780	0.00236276	0.00432243	0.00312993	0.00485188	0.00417028	0.00364941	0.00220507	0.00215394	0.00049048	0.00416990	0.00239103	0.00516347	0.00464479	0.00141156	0.00097922	0.01294619	0.01429727	0.01118118	0.00700962	0.00670526	0.00729310	0.00304951	0.00269609	0.00156992	0.00283261
1.81000000	0.00271866	0.00185108	0.00237065	0.00450804	0.00327535	0.00468744	0.00523339	0.00446774	0.00249189	0.00266681	0.00094223	0.00466873	0.00330201	0.00566207	0.00418883	0.00112576	0.00111912	0.01353545	0.01433556	0.01109481	0.00692476	0.00663407	0.00732352	0.00317556	0.00282840	0.00154421	0.00296774
1.82000000	0.00363553	0.00262924	0.00222197	0.00429486	0.00304028	0.00445958	0.00578021	0.00545593	0.00259941	0.00262206	0.00080464	0.00467923	0.00328486	0.00615889	0.00417030	0.00159789	0.00085997	0.01413309	0.01421106	0.01104967	0.00709841	0.00654223	0.00762592	0.00300569	0.00300374	0.00144362	0.00307545
1.83000000	0.00391322	0.00320074	0.00219901	0.00422040	0.00299629	0.00435254	0.00671795	0.00629962	0.00282246	0.00282890	0.00095978	0.00474299	0.00378738	0.00665809	0.00391405	0.00163528	0.00082843	0.01478113	0.01408308	0.01090187	0.00712772	0.00642266	0.00780487	0.00285960	0.00319682	0.00135410	0.00320834
1.84000000	0.00442493	0.00368962	0.00205561	0.00394982	0.00277268	0.00428701	0.00765248	0.00700319	0.00297610	0.00291090	0.00102125	0.00460515	0.00400212	0.00734542	0.00360731	0.00190854	0.00107067	0.01538865	0.01399556	0.01069771	0.00718669	0.00631502	0.00803384	0.00262023	0.00345836	0.00142102	0.00326338
1.85000000	0.00441953	0.00423771	0.00218803	0.00388082	0.00281972	0.00427075	0.00857000	0.00762313	0.00326032	0.00301062	0.00124558	0.00467669	0.00479194	0.00765446	0.00342122	0.00193170	0.00082536	0.01606044	0.01369382	0.01048725	0.00713173	0.00617417	0.00817561	0.00232362	0.00381167	0.00118983	0.00328516
1.86000000	0.00473325	0.00472280	0.00221799	0.00370873	0.00275330	0.00444506	0.00937912	0.00803454	0.00346968	0.00290662	0.00128825	0.00458710	0.00529704	0.00806545	0.00334048	0.00214678	0.00082898	0.01669091	0.01339932	0.01022131	0.00711979	0.00599664	0.00838927	0.00196393	0.00411589	0.00100356	0.00333752
1.87000000	0.00586608	0.00513341	0.00220518	0.00366368	0.00271408	0.00440080	0.00961412	0.00876018	0.00360755	0.00275443	0.00100704	0.00456611	0.00592267	0.00817503	0.00333033	0.00224109	0.00100805	0.01724087	0.01302242	0.00999680	0.00719672	0.00572410	0.00873065	0.00143886	0.00436443	0.00080778	0.00347265
1.88000000	0.00617730	0.00539986	0.00220152	0.00350227	0.00264526	0.00499721	0.01044428	0.00872651	0.00366323	0.00249591	0.00088243	0.00447211	0.00665298	0.00866544	0.00321311	0.00258389	0.00134083	0.01779588	0.01257695	0.00974448	0.00717845	0.00553561	0.00900620	0.00095940	0.00464471	0.00057149	0.00360054
1.89000000	0.00594250	0.00568143	0.00231474	0.00336984	0.00268132	0.00598059	0.01146341	0.00832087	0.00362966	0.00233599	0.00104710	0.00455139	0.00746492	0.00920969	0.00323586	0.00301300	0.00151647	0.01828696	0.01220485	0.00941041	0.00702970	0.00543019	0.00921108	0.00043006	0.00518935	0.00038635	0.00354297
1.90000000	0.00440025	0.00580950	0.00245312	0.00389640	0.00304637	0.00743384	0.01321646	0.00747946	0.00330901	0.00168306	0.00271719	0.00479567	0.00900800	0.00977680	0.00353002	0.00329240	0.00261313	0.01870305	0.01163924	0.00912223	0.00690205	0.00568842	0.00946056	0.00056078	0.00520543	0.00025587	0.00402526
1.91000000	0.00687385	0.00597139	0.00224385	0.00314033	0.00255186	0.00838858	0.01254146	0.00772313	0.00349034	0.00271286	0.00139693	0.00475739	0.00900787	0.01012604	0.00334977	0.00369520	0.00211274	0.01911965	0.01124684	0.00888366	0.00697500	0.00538624	0.00993100	0.00129235	0.00601967	0.00021226	0.00373296
1.92000000	0.00702208	0.00607652	0.00216031	0.00298169	0.00243968	0.00956655	0.01304398	0.00749366	0.00326504	0.00284913	0.00176284	0.00502081	0.00964562	0.01066202	0.00349499	0.00406621	0.00232672	0.01939232	0.01079738	0.00863468	0.00695982	0.00570442	0.01032427	0.00197415	0.00650619	0.00049341	0.00368845
1.93000000	0.00744310	0.00608630	0.00201600	0.00277840	0.00225018	0.01066292	0.01327055	0.00753388	0.00307613	0.00315608	0.00188727	0.00526553	0.01009275	0.01120595	0.00359205	0.00439289	0.00235946	0.01959155	0.01034645	0.00843335	0.00697224	0.00622154	0.01068356	0.00273860	0.00690151	0.00061967	0.00378417
1.94000000	0.00673685	0.00637033	0.00196890	0.00286360	0.00226079	0.01156021	0.01384156	0.00746901	0.00276849	0.00309100	0.00211578	0.00576962	0.01041595	0.01168489	0.00370523	0.00456728	0.00272637	0.01966813	0.00999601	0.00813621	0.00688355	0.00716506	0.01095571	0.00324350	0.00728061	0.00091646	0.00383353
1.95000000	0.00610411	0.00671001	0.00197205	0.00312784	0.00237448	0.01221429	0.01403288	0.00788890	0.00259661	0.00335241	0.00218285	0.00637926	0.01072593	0.01203276	0.00378815	0.00455341	0.00266850	0.01979720	0.00955918	0.00780717	0.00674445	0.00824019	0.01111200	0.00362254	0.00755766	0.00088218	0.00392623
1.96000000	0.00685407	0.00654014	0.00182581	0.00271502	0.00203282	0.01257597	0.01375427	0.00862819	0.00262230	0.00382763	0.00202615	0.00643313	0.01071101	0.01246606	0.00366644	0.00495001	0.00276616	0.01969782	0.00913389	0.00772310	0.00683342	0.00919445	0.01128613	0.00422913	0.00788401	0.00079930	0.00378348
1.97000000	0.00643379	0.00703467	0.00187893	0.00285221	0.00210757	0.01270607	0.01376268	0.00954654	0.00232540	0.00392269	0.00200761	0.00684640	0.01065797	0.01258480	0.00379217	0.00470205	0.00281181	0.01954082	0.00876483	0.00748344	0.00674404	0.01049485	0.01129773	0.00444649	0.00798991	0.00089272	0.00401961
1.98000000	0.00628437	0.00725576	0.00192984	0.00298753	0.00218080	0.01265339	0.01333408	0.01085081	0.00230308	0.00457035	0.00205350	0.00711822	0.01054231	0.01276524	0.00376693	0.00458624	0.00286889	0.01927960	0.00835105	0.00729209	0.00664173	0.01181187	0.01116871	0.00450318	0.00814785	0.00066916	0.00399256
1.99000000	0.00626495	0.00738643	0.00196223	0.00297098	0.00216022	0.01258344	0.01301590	0.01233038	0.00204051	0.00476805	0.00192793	0.00730537	0.01040500	0.01273119	0.00370506	0.00448318	0.00303696	0.01898106	0.00792265	0.00708849	0.00653775	0.01316693	0.01095034	0.00456688	0.00823114	0.00040459	0.00387351
2.00000000	0.00620163	0.00735816	0.00197485	0.00304161	0.00218709	0.01247825	0.01230560	0.01399513	0.00197141	0.00534181	0.00205174	0.00730359	0.01021231	0.01270401	0.00363917	0.00444316	0.00302281	0.01857270	0.00750522	0.00689706	0.00642217	0.01455126	0.01069533	0.00442054	0.00813063	0.00024808	0.00399964
2.01000000	0.00622709	0.00732126	0.00205755	0.00303126	0.00221525	0.01237617	0.01154046	0.01556233	0.00175980	0.00559925	0.00211233	0.00728038	0.01009195	0.01257112	0.00358014	0.00436594	0.00292641	0.01811884	0.00709920	0.00673804	0.00629721	0.01584061	0.01036520	0.00429349	0.00809377	0.00012477	0.00392431
2.02000000	0.00615677	0.00728490	0.00207966	0.00300540	0.00222627	0.01238831	0.01064679	0.01684719	0.00155040	0.00572849	0.00220985	0.00719180	0.00984847	0.01241863	0.00350536	0.00426796	0.00284565	0.01764683	0.00669202	0.00660569	0.00616444	0.01706129	0.01001497	0.00411220	0.00797323	0.00039769	0.00392175
2.03000000	0.00605919	0.00717218	0.00219768	0.00305270	0.00232202	0.01231045	0.00969289	0.01765497	0.00126827	0.00561078	0.00236728	0.00713915	0.00976726	0.01220306	0.00345702	0.00422472	0.00269402	0.01702378	0.00640220	0.00651203	0.00606441	0.01815942	0.00969539	0.00396087	0.00791314	0.00069284	0.00390891
2.04000000	0.00591142	0.00700798	0.00225162	0.00306462	0.00237556	0.01227195	0.00864967	0.01792185	0.00107163	0.00526057	0.00242383	0.00707657	0.00962422	0.01207094	0.00347527	0.00413502	0.00262599	0.01648396	0.00609985	0.00643632	0.00594656	0.01906875	0.00935677	0.00377753	0.00783544	0.00092395	0.00385327
2.05000000	0.00566521	0.00685842	0.00234617	0.00315912	0.00249384	0.01212151	0.00764144	0.01744504	0.00093593	0.00475686	0.00248761	0.00704276	0.00957355	0.01192149	0.00351335	0.00407232	0.00243795	0.01589173	0.00587537	0.00639247	0.00587846	0.01978857	0.00910181	0.00361846	0.00773794	0.00103000	0.00393727
2.06000000	0.00531128	0.00688100	0.00259129	0.00371695	0.00292133	0.01228631	0.00669966	0.01556307	0.00119505	0.00373560	0.00207960	0.00703108	0.00964189	0.01196142	0.00370126	0.00399043	0.00265351	0.01544674	0.00577475	0.00620011	0.00563408	0.02029607	0.00874702	0.00322682	0.00790161	0.00124931	0.00372229
2.07000000	0.00507632	0.00651539	0.00250853	0.00339971	0.00275080	0.01181299	0.00560914	0.01457834	0.00141534	0.00322503	0.00214461	0.00698231	0.00952018	0.01179333	0.00369463	0.00409044	0.00262390	0.01496686	0.00560314	0.00624268	0.00564852	0.02043235	0.00859857	0.00324545	0.00792156	0.00120334	0.00381713
2.08000000	0.00463394	0.00640617	0.00249964	0.00352765	0.00283648	0.01127581	0.00485704	0.01264708	0.00166529	0.00231863	0.00182513	0.00706328	0.00956727	0.01178162	0.00393666	0.00399533	0.00268816	0.01456810	0.00558251	0.00614612	0.00553145	0.02044230	0.00840617	0.00314211	0.00810344	0.00117406	0.00380175
2.09000000	0.00479398	0.00603305	0.00229355	0.00305976	0.00253736	0.01107088	0.00379481	0.01125206	0.00205031	0.00196739	0.00172271	0.00713562	0.00949195	0.01159694	0.00403036	0.00399297	0.00286425	0.01423876	0.00557098	0.00613022	0.00556204	0.02010303	0.00837579	0.00312249	0.00827421	0.00134713	0.00382831
2.10000000	0.00408276	0.00590637	0.00220095	0.00325911	0.00259890	0.01048216	0.00329803	0.00915026	0.00231415	0.00149162	0.00136049	0.00731396	0.00957661	0.01163023	0.00428385	0.00402903	0.00278818	0.01389726	0.00563182	0.00607707	0.00549069	0.01978888	0.00828222	0.00313218	0.00851883	0.00109789	0.00387022
2.11000000	0.00455790	0.00551568	0.00189549	0.00273196	0.00221640	0.01052484	0.00237530	0.00806133	0.00255617	0.00146631	0.00126200	0.00750449	0.00947313	0.01145930	0.00443198	0.00394068	0.00286429	0.01365341	0.00569475	0.00609818	0.00556365	0.01916846	0.00834203	0.00318737	0.00871776	0.00121872	0.00390176
2.12000000	0.00441679	0.00523698	0.00162331	0.00248692	0.00196635	0.01041879	0.00203753	0.00689514	0.00270001	0.00148268	0.00106711	0.00781814	0.00945879	0.01127484	0.00459300	0.00392193	0.00254414	0.01341797	0.00575476	0.00615867	0.00558681	0.01860323	0.00832190	0.00337407	0.00890624	0.00099901	0.00394754
2.13000000	0.00366046	0.00504054	0.00157714	0.00259474	0.00198110	0.01026862	0.00170601	0.00559767	0.00290522	0.00164669	0.00083503	0.00786524	0.00937479	0.01128110	0.00472961	0.00387321	0.00271104	0.01321117	0.00592972	0.00611243	0.00553302	0.01807188	0.00832559	0.00335707	0.00909892	0.00099069	0.00405558
2.14000000	0.00387622	0.00471462	0.00155132	0.00225151	0.00180668	0.01031963	0.00175730	0.00533657	0.00297106	0.00164616	0.00085197	0.00801369	0.00904007	0.01103206	0.00472140	0.00370223	0.00275146	0.01302527	0.00605511	0.00616390	0.00557149	0.01748353	0.00834373	0.00344830	0.00921955	0.00107669	0.00407243
2.15000000	0.00378724	0.00437535	0.00173008	0.00218272	0.00185700	0.01019542	0.00210071	0.00505671	0.00306167	0.00172504	0.00087633	0.00810796	0.00870524	0.01076621	0.00470999	0.00353295	0.00262860	0.01283648	0.00617825	0.00621713	0.00559368	0.01700506	0.00833047	0.00350875	0.00924746	0.00100473	0.00412784
2.16000000	0.00356945	0.00404574	0.00188679	0.00224551	0.00194109	0.00985348	0.00242159	0.00457422	0.00315304	0.00193392	0.00086056	0.00814851	0.00847739	0.01055262	0.00460431	0.00336617	0.00259357	0.01265434	0.00636073	0.00620167	0.00551851	0.01659424	0.00821566	0.00338461	0.00927603	0.00106351	0.00415319
2.17000000	0.00387663	0.00395384	0.00208335	0.00203745	0.00198647	0.00948017	0.00342496	0.00472071	0.00316843	0.00183089	0.00123752	0.00802088	0.00776900	0.01043389	0.00436584	0.00298988	0.00273918	0.01259203	0.00651602	0.00617726	0.00543828	0.01609637	0.00805646	0.00303888	0.00926968	0.00187314	0.00404647
2.18000000	0.00409901	0.00338042	0.00223889	0.00224060	0.00217170	0.00916577	0.00340562	0.00450440	0.00312117	0.00223661	0.00096149	0.00798430	0.00743666	0.00987037	0.00421123	0.00280999	0.00252271	0.01219397	0.00674081	0.00624572	0.00544542	0.01593144	0.00793527	0.00318883	0.00909760	0.00097836	0.00428187
2.19000000	0.00446667	0.00291698	0.00231899	0.00229146	0.00224881	0.00870569	0.00379331	0.00427783	0.00301360	0.00225778	0.00105360	0.00788110	0.00707515	0.00948786	0.00399822	0.00255137	0.00240620	0.01196725	0.00698014	0.00619341	0.00534681	0.01571600	0.00774016	0.00295256	0.00899164	0.00092704	0.00426116
2.20000000	0.00480058	0.00222374	0.00247577	0.00240188	0.00238427	0.00820440	0.00374794	0.00407111	0.00275932	0.00228033	0.00114571	0.00776976	0.00687215	0.00908732	0.00373390	0.00233427	0.00228164	0.01169945	0.00731056	0.00605965	0.00523136	0.01562117	0.00755861	0.00264888	0.00885022	0.00095384	0.00420928
2.21000000	0.00507996	0.00194853	0.00248001	0.00240574	0.00240661	0.00784507	0.00414806	0.00380525	0.00259868	0.00234005	0.00110043	0.00753717	0.00636555	0.00866259	0.00353919	0.00201552	0.00225184	0.01138251	0.00751433	0.00601867	0.00515042	0.01551307	0.00738851	0.00235301	0.00870616	0.00083582	0.00428252
2.22000000	0.00527109	0.00154022	0.00251745	0.00242671	0.00244220	0.00749339	0.00427376	0.00343983	0.00247408	0.00240906	0.00109551	0.00730892	0.00615849	0.00815816	0.00339496	0.00167117	0.00213051	0.01104891	0.00780869	0.00586860	0.00503378	0.01549869	0.00722136	0.00208788	0.00860832	0.00076606	0.00427054
2.23000000	0.00533496	0.00120426	0.00261613	0.00249395	0.00252771	0.00709207	0.00434120	0.00316174	0.00232841	0.00243083	0.00104585	0.00700270	0.00593528	0.00767550	0.00325465	0.00143674	0.00202662	0.01074542	0.00793346	0.00578500	0.00496856	0.01556823	0.00711723	0.00176566	0.00848926	0.00063362	0.00424451
2.24000000	0.00537508	0.00130172	0.00267764	0.00247139	0.00254394	0.00664553	0.00434757	0.00284264	0.00229556	0.00237502	0.00109458	0.00679558	0.00578287	0.00717147	0.00306346	0.00125019	0.00175668	0.01039200	0.00816744	0.00562033	0.00488221	0.01567135	0.00700702	0.00144592	0.00845361	0.00071183	0.00412661
2.25000000	0.00524485	0.00164513	0.00282244	0.00251462	0.00263918	0.00637240	0.00451659	0.00260583	0.00233639	0.00247892	0.00096268	0.00642959	0.00530854	0.00665367	0.00312077	0.00107727	0.00170276	0.01010431	0.00825989	0.00547736	0.00477726	0.01580217	0.00690197	0.00115522	0.00835608	0.00048149	0.00425443
2.26000000	0.00520167	0.00204061	0.00291871	0.00251148	0.00268251	0.00605332	0.00461905	0.00238200	0.00244835	0.00260278	0.00090666	0.00611437	0.00504581	0.00606546	0.00316481	0.00092087	0.00152270	0.00983708	0.00833069	0.00534864	0.00470593	0.01594481	0.00682040	0.00083184	0.00834547	0.00040503	0.00418015
2.27000000	0.00520638	0.00240768	0.00304177	0.00253045	0.00274920	0.00578230	0.00472751	0.00218139	0.00259098	0.00271803	0.00086046	0.00576000	0.00472798	0.00547303	0.00323892	0.00084021	0.00131088	0.00961880	0.00842460	0.00518863	0.00460038	0.01608203	0.00671435	0.00057204	0.00834337	0.00032303	0.00418977
2.28000000	0.00531958	0.00277579	0.00317593	0.00255615	0.00282325	0.00555130	0.00484448	0.00199184	0.00278046	0.00285928	0.00084359	0.00544522	0.00448094	0.00481845	0.00333661	0.00077705	0.00108875	0.00943642	0.00851070	0.00505257	0.00452180	0.01616558	0.00662299	0.00028078	0.00832844	0.00024096	0.00418095
2.29000000	0.00570368	0.00325207	0.00326595	0.00254460	0.00284930	0.00525123	0.00489379	0.00175522	0.00289945	0.00292762	0.00088332	0.00519772	0.00435268	0.00429570	0.00319308	0.00051728	0.00064633	0.00934196	0.00849074	0.00501107	0.00451599	0.01622045	0.00654267	0.00010860	0.00823362	0.00015249	0.00415654
2.30000000	0.00591601	0.00329243	0.00344852	0.00266352	0.00300442	0.00515982	0.00527522	0.00176700	0.00316924	0.00307285	0.00088748	0.00494599	0.00374907	0.00367663	0.00353757	0.00080514	0.00050221	0.00925148	0.00857671	0.00489867	0.00443269	0.01614327	0.00643469	0.00029975	0.00823584	0.00007680	0.00423152
2.31000000	0.00638015	0.00350012	0.00359493	0.00275769	0.00311997	0.00492045	0.00553006	0.00179273	0.00335461	0.00323138	0.00077538	0.00478003	0.00359010	0.00316203	0.00368726	0.00079836	0.00027360	0.00924482	0.00866252	0.00479294	0.00436590	0.01596034	0.00631874	0.00056428	0.00824103	0.00007074	0.00413174
2.32000000	0.00692812	0.00367154	0.00373568	0.00285817	0.00323721	0.00465008	0.00572304	0.00180891	0.00354013	0.00331320	0.00075299	0.00465511	0.00337797	0.00284133	0.00374430	0.00076941	0.00005017	0.00919965	0.00870630	0.00479726	0.00440996	0.01572219	0.00628300	0.00081619	0.00808536	0.00009874	0.00419245
2.33000000	0.00759785	0.00377205	0.00385073	0.00293901	0.00333374	0.00435197	0.00565729	0.00182947	0.00358641	0.00338550	0.00098842	0.00428332	0.00316625	0.00301457	0.00351238	0.00086918	0.00031164	0.00924498	0.00875121	0.00479546	0.00444964	0.01549347	0.00624023	0.00089369	0.00784573	0.00021054	0.00424586
2.34000000	0.00797976	0.00363001	0.00392544	0.00309386	0.00345286	0.00409620	0.00620299	0.00187088	0.00377618	0.00336706	0.00085017	0.00424568	0.00286836	0.00269648	0.00373102	0.00081779	0.00040770	0.00925539	0.00888483	0.00474922	0.00444614	0.01504838	0.00618154	0.00108908	0.00779193	0.00016429	0.00413528
2.35000000	0.00819646	0.00342521	0.00395673	0.00325952	0.00355835	0.00384352	0.00680982	0.00184546	0.00396250	0.00325984	0.00128896	0.00415757	0.00256398	0.00261055	0.00386597	0.00076837	0.00115062	0.00921523	0.00893210	0.00484071	0.00457719	0.01461345	0.00622303	0.00121250	0.00764170	0.00049606	0.00400386
2.36000000	0.00866273	0.00353580	0.00400471	0.00329555	0.00359539	0.00348627	0.00679431	0.00196344	0.00402285	0.00351107	0.00066428	0.00397875	0.00253084	0.00246024	0.00384315	0.00085809	0.00058498	0.00935591	0.00903966	0.00478439	0.00454507	0.01401409	0.00612840	0.00127997	0.00742311	0.00021467	0.00404769
2.37000000	0.00857281	0.00323486	0.00401414	0.00346718	0.00369308	0.00330217	0.00733464	0.00191668	0.00414734	0.00341882	0.00123770	0.00373732	0.00223534	0.00238301	0.00390336	0.00085293	0.00124706	0.00932716	0.00920994	0.00481758	0.00462175	0.01347452	0.00617262	0.00136661	0.00725145	0.00039910	0.00395254
2.38000000	0.00889120	0.00335843	0.00403253	0.00342255	0.00367437	0.00294355	0.00700675	0.00216854	0.00415302	0.00359436	0.00059774	0.00331917	0.00221143	0.00237268	0.00377455	0.00098078	0.00068241	0.00967178	0.00914384	0.00478903	0.00461128	0.01290792	0.00611456	0.00128475	0.00687783	0.00022382	0.00401256
2.39000000	0.00853411	0.00302625	0.00399953	0.00355624	0.00373192	0.00290823	0.00748065	0.00214582	0.00428226	0.00351367	0.00125477	0.00296231	0.00193878	0.00229325	0.00385774	0.00086200	0.00106135	0.00964964	0.00938390	0.00480504	0.00465285	0.01230220	0.00615767	0.00135817	0.00675037	0.00031274	0.00385572
2.40000000	0.00866153	0.00314708	0.00398810	0.00346653	0.00367370	0.00271171	0.00712466	0.00251298	0.00421886	0.00364167	0.00076550	0.00249710	0.00192237	0.00222575	0.00368621	0.00112519	0.00074492	0.00997024	0.00932462	0.00482587	0.00466602	0.01174500	0.00614434	0.00115642	0.00631561	0.00014093	0.00398985
2.41000000	0.00820457	0.00284324	0.00395297	0.00356467	0.00371131	0.00282820	0.00751989	0.00253570	0.00431025	0.00361010	0.00134179	0.00221033	0.00172839	0.00210209	0.00372182	0.00106133	0.00101617	0.01001463	0.00949431	0.00485748	0.00470991	0.01117555	0.00619976	0.00123093	0.00618648	0.00039927	0.00379596
2.42000000	0.00824442	0.00292993	0.00391553	0.00346030	0.00363330	0.00285432	0.00733261	0.00301664	0.00427121	0.00368971	0.00091535	0.00197695	0.00172646	0.00195827	0.00361007	0.00119123	0.00069680	0.01026342	0.00945993	0.00490879	0.00475273	0.01064937	0.00621242	0.00107819	0.00575804	0.00016818	0.00390541
2.43000000	0.00825784	0.00292238	0.00388670	0.00338906	0.00357811	0.00305236	0.00712730	0.00344748	0.00426484	0.00375023	0.00116393	0.00167239	0.00168458	0.00192691	0.00351909	0.00126653	0.00077796	0.01050402	0.00944919	0.00491703	0.00476806	0.01019624	0.00622420	0.00102071	0.00551303	0.00003612	0.00380747
2.44000000	0.00805280	0.00263619	0.00386846	0.00344392	0.00360282	0.00345990	0.00741960	0.00355270	0.00431976	0.00369719	0.00166909	0.00157798	0.00154871	0.00180298	0.00358179	0.00112801	0.00102434	0.01062656	0.00955943	0.00487362	0.00476245	0.00980955	0.00624351	0.00113232	0.00551580	0.00032168	0.00353065
2.45000000	0.00811115	0.00254182	0.00384217	0.00342283	0.00358041	0.00376039	0.00764536	0.00377474	0.00431222	0.00370694	0.00178735	0.00170565	0.00150729	0.00160970	0.00352051	0.00115365	0.00114394	0.01067288	0.00964099	0.00488572	0.00482562	0.00947135	0.00628724	0.00126921	0.00529747	0.00058833	0.00351925
2.46000000	0.00838520	0.00265572	0.00392318	0.00338126	0.00359483	0.00394824	0.00752672	0.00422986	0.00420450	0.00382390	0.00112448	0.00175673	0.00154628	0.00148390	0.00345139	0.00126488	0.00089929	0.01092961	0.00948044	0.00489080	0.00489372	0.00925437	0.00631873	0.00106457	0.00475253	0.00020031	0.00374270
2.47000000	0.00850027	0.00251705	0.00391698	0.00338334	0.00359687	0.00422592	0.00767510	0.00438351	0.00421145	0.00380031	0.00162115	0.00195866	0.00145089	0.00142411	0.00344347	0.00114264	0.00122919	0.01102599	0.00956304	0.00479763	0.00490099	0.00910212	0.00633922	0.00127405	0.00478124	0.00049384	0.00346434
2.48000000	0.00866324	0.00248779	0.00386128	0.00331219	0.00353470	0.00446272	0.00782596	0.00453674	0.00417368	0.00374780	0.00188149	0.00217812	0.00142186	0.00137746	0.00347847	0.00104502	0.00139900	0.01109794	0.00959703	0.00475199	0.00493723	0.00899983	0.00636511	0.00149461	0.00470865	0.00075771	0.00339366
2.49000000	0.00867892	0.00251237	0.00377481	0.00322279	0.00344770	0.00463178	0.00797125	0.00464955	0.00413659	0.00371881	0.00221729	0.00247173	0.00145438	0.00134155	0.00348863	0.00100975	0.00161359	0.01121226	0.00960523	0.00468368	0.00498269	0.00892078	0.00639878	0.00192665	0.00479019	0.00095721	0.00314460
2.50000000	0.00865585	0.00264268	0.00374775	0.00308959	0.00336198	0.00461443	0.00778356	0.00502962	0.00389327	0.00375260	0.00097487	0.00247489	0.00139746	0.00140774	0.00347416	0.00122716	0.00133908	0.01146831	0.00939575	0.00466294	0.00505275	0.00897923	0.00645633	0.00118497	0.00413377	0.00027846	0.00360942
2.51000000	0.00822880	0.00285505	0.00357551	0.00291725	0.00319113	0.00461456	0.00793725	0.00505252	0.00379649	0.00363847	0.00147878	0.00272690	0.00146767	0.00131258	0.00357086	0.00111715	0.00132149	0.01148944	0.00947943	0.00465897	0.00515203	0.00893575	0.00655840	0.00147274	0.00418557	0.00082282	0.00337425
2.52000000	0.00757081	0.00281213	0.00340470	0.00274305	0.00301853	0.00465406	0.00783255	0.00516370	0.00355886	0.00354537	0.00103368	0.00245409	0.00126769	0.00161555	0.00364119	0.00126449	0.00166540	0.01188174	0.00924425	0.00457743	0.00516991	0.00899741	0.00661893	0.00115561	0.00400798	0.00048445	0.00355588
2.53000000	0.00692303	0.00307274	0.00301193	0.00234292	0.00261652	0.00457820	0.00749604	0.00545575	0.00338427	0.00352236	0.00087730	0.00242036	0.00122795	0.00172119	0.00368003	0.00145525	0.00145425	0.01205232	0.00922233	0.00460151	0.00527542	0.00896622	0.00675699	0.00059222	0.00398409	0.00036451	0.00345393
2.54000000	0.00569711	0.00329274	0.00281651	0.00217302	0.00243666	0.00452827	0.00761863	0.00541250	0.00319378	0.00330920	0.00114962	0.00209962	0.00131462	0.00174690	0.00383787	0.00140911	0.00144725	0.01243277	0.00909568	0.00455178	0.00530349	0.00892969	0.00686046	0.00097835	0.00403307	0.00076589	0.00343050
2.55000000	0.00444041	0.00397879	0.00267547	0.00207769	0.00231693	0.00435243	0.00791199	0.00537840	0.00304009	0.00304837	0.00149633	0.00202560	0.00224207	0.00131493	0.00379737	0.00165224	0.00103514	0.01239641	0.00909210	0.00477500	0.00561835	0.00885314	0.00719173	0.00204954	0.00411966	0.00146710	0.00318916
2.56000000	0.00376564	0.00372204	0.00212163	0.00150296	0.00172203	0.00432937	0.00718337	0.00583045	0.00281128	0.00311005	0.00081784	0.00164832	0.00119542	0.00168489	0.00395391	0.00162641	0.00130785	0.01275243	0.00891462	0.00476267	0.00571908	0.00898690	0.00744703	0.00087834	0.00414121	0.00039018	0.00340951
2.57000000	0.00250267	0.00452096	0.00226067	0.00167578	0.00190185	0.00418011	0.00752173	0.00571699	0.00264751	0.00283978	0.00116803	0.00126834	0.00246293	0.00125294	0.00379055	0.00186718	0.00083893	0.01291673	0.00890284	0.00489172	0.00594405	0.00887355	0.00775913	0.00210535	0.00430106	0.00128025	0.00321003
2.58000000	0.00228666	0.00490076	0.00219123	0.00121006	0.00157705	0.00434915	0.00614338	0.00604834	0.00248436	0.00278816	0.00121568	0.00100348	0.00118897	0.00165498	0.00388288	0.00157455	0.00084575	0.01364867	0.00840347	0.00490126	0.00598026	0.00902301	0.00793181	0.00150541	0.00427307	0.00037612	0.00347451
2.59000000	0.00196696	0.00505851	0.00219888	0.00129206	0.00163354	0.00435933	0.00623196	0.00593139	0.00244292	0.00276123	0.00103374	0.00062709	0.00135672	0.00154856	0.00395450	0.00149484	0.00065971	0.01391596	0.00830580	0.00492063	0.00614976	0.00908605	0.00828152	0.00187828	0.00456617	0.00044830	0.00344316
2.60000000	0.00225822	0.00535241	0.00232485	0.00129923	0.00170261	0.00428225	0.00590976	0.00603401	0.00242041	0.00282452	0.00101762	0.00057561	0.00151354	0.00147537	0.00394455	0.00142382	0.00057993	0.01419876	0.00807968	0.00501102	0.00635366	0.00916501	0.00863938	0.00212390	0.00482526	0.00010700	0.00339980
2.61000000	0.00245954	0.00575575	0.00252362	0.00143432	0.00188314	0.00429236	0.00572311	0.00604639	0.00238707	0.00275744	0.00104829	0.00072570	0.00165823	0.00147078	0.00396120	0.00129570	0.00040308	0.01452506	0.00783609	0.00504767	0.00647437	0.00919717	0.00889150	0.00241310	0.00509100	0.00026377	0.00342742
2.62000000	0.00268009	0.00608144	0.00271459	0.00158945	0.00206670	0.00432458	0.00558266	0.00600539	0.00233941	0.00273519	0.00111533	0.00103456	0.00179677	0.00149631	0.00400404	0.00125416	0.00045197	0.01480408	0.00762678	0.00503696	0.00657234	0.00923688	0.00912683	0.00265267	0.00540021	0.00037803	0.00343897
2.63000000	0.00239557	0.00641680	0.00298089	0.00214924	0.00250181	0.00440291	0.00587413	0.00590676	0.00232821	0.00245054	0.00131386	0.00162492	0.00235995	0.00158989	0.00397509	0.00132883	0.00102271	0.01497274	0.00733035	0.00507557	0.00673106	0.00921654	0.00933650	0.00330323	0.00573305	0.00092655	0.00334638
2.64000000	0.00318073	0.00654596	0.00310770	0.00202935	0.00250154	0.00432276	0.00545107	0.00602553	0.00234385	0.00274945	0.00110876	0.00178688	0.00220943	0.00182022	0.00409432	0.00121647	0.00084158	0.01508136	0.00730808	0.00495006	0.00674491	0.00923125	0.00950483	0.00286380	0.00593701	0.00080912	0.00349450
2.65000000	0.00279391	0.00683738	0.00334399	0.00251490	0.00287340	0.00434157	0.00570285	0.00591329	0.00238551	0.00253290	0.00117470	0.00231202	0.00255754	0.00203580	0.00412187	0.00111861	0.00141275	0.01515317	0.00712767	0.00486702	0.00679555	0.00912829	0.00956936	0.00339485	0.00624534	0.00107748	0.00344869
2.66000000	0.00341431	0.00689766	0.00340413	0.00240513	0.00285014	0.00433112	0.00527286	0.00613358	0.00239038	0.00276237	0.00106468	0.00254037	0.00242222	0.00217639	0.00430677	0.00111493	0.00106426	0.01515665	0.00696238	0.00484466	0.00679919	0.00900706	0.00957091	0.00282058	0.00648116	0.00106523	0.00351148
2.67000000	0.00298149	0.00731441	0.00377418	0.00290318	0.00328265	0.00417978	0.00555450	0.00602855	0.00223692	0.00239796	0.00132598	0.00267740	0.00269163	0.00257301	0.00423883	0.00095615	0.00170992	0.01483533	0.00698737	0.00477926	0.00692871	0.00880988	0.00971618	0.00298876	0.00655875	0.00163108	0.00352999
2.68000000	0.00346421	0.00719443	0.00376915	0.00284782	0.00325919	0.00431089	0.00521045	0.00610983	0.00237235	0.00255558	0.00124491	0.00275930	0.00249966	0.00245296	0.00461630	0.00109963	0.00117502	0.01499259	0.00663062	0.00480657	0.00677378	0.00838982	0.00935603	0.00230347	0.00684833	0.00106409	0.00350794
2.69000000	0.00335556	0.00753130	0.00406133	0.00314194	0.00354587	0.00418309	0.00532932	0.00599072	0.00234820	0.00231244	0.00149771	0.00276012	0.00235793	0.00268753	0.00463838	0.00088635	0.00132198	0.01467246	0.00657441	0.00482699	0.00681715	0.00793341	0.00927377	0.00216819	0.00695371	0.00126108	0.00346602
2.70000000	0.00360466	0.00772833	0.00427258	0.00329673	0.00372714	0.00403217	0.00517857	0.00600985	0.00230762	0.00228183	0.00155367	0.00270043	0.00223042	0.00274785	0.00468295	0.00078298	0.00125768	0.01447281	0.00645617	0.00489529	0.00674120	0.00731333	0.00899164	0.00230021	0.00709182	0.00132808	0.00346178
2.71000000	0.00410449	0.00712852	0.00426548	0.00348192	0.00382085	0.00406899	0.00492642	0.00591629	0.00239541	0.00241461	0.00123629	0.00279734	0.00252420	0.00261910	0.00493169	0.00103207	0.00101576	0.01426237	0.00627378	0.00507589	0.00670985	0.00666746	0.00875065	0.00151651	0.00721088	0.00142176	0.00348598
2.72000000	0.00424637	0.00734912	0.00452695	0.00372423	0.00407275	0.00387768	0.00494946	0.00564239	0.00240931	0.00202228	0.00173656	0.00278460	0.00208648	0.00238646	0.00501965	0.00116438	0.00111761	0.01373313	0.00636990	0.00519736	0.00674195	0.00613187	0.00863336	0.00164824	0.00734960	0.00175281	0.00339265
2.73000000	0.00452416	0.00752462	0.00468144	0.00391850	0.00425431	0.00370105	0.00482607	0.00542766	0.00240229	0.00173277	0.00215131	0.00265684	0.00189962	0.00220019	0.00502806	0.00137237	0.00172585	0.01331318	0.00637674	0.00534746	0.00672039	0.00568033	0.00840813	0.00208436	0.00745483	0.00216497	0.00332981
2.74000000	0.00472773	0.00642677	0.00441060	0.00424864	0.00428991	0.00367339	0.00432850	0.00529405	0.00237899	0.00205814	0.00127001	0.00273664	0.00296207	0.00226048	0.00502106	0.00096405	0.00070575	0.01332163	0.00598938	0.00558339	0.00658992	0.00525112	0.00796969	0.00194132	0.00741313	0.00238765	0.00349733
2.75000000	0.00483528	0.00651946	0.00437696	0.00439585	0.00435230	0.00333512	0.00403757	0.00523568	0.00225980	0.00186426	0.00110165	0.00250841	0.00289369	0.00198173	0.00497533	0.00109491	0.00088982	0.01298692	0.00590071	0.00569329	0.00649782	0.00530464	0.00761799	0.00240223	0.00745471	0.00280974	0.00338282
2.76000000	0.00439255	0.00582706	0.00412271	0.00461235	0.00432475	0.00336292	0.00364217	0.00476921	0.00225580	0.00168666	0.00121532	0.00292083	0.00351600	0.00156251	0.00496956	0.00131253	0.00039661	0.01265533	0.00582326	0.00572323	0.00647488	0.00547285	0.00745304	0.00283853	0.00747060	0.00320236	0.00350056
2.77000000	0.00367293	0.00570359	0.00408595	0.00479391	0.00434822	0.00317703	0.00350888	0.00433406	0.00229662	0.00125053	0.00171737	0.00304943	0.00339786	0.00108643	0.00505530	0.00195578	0.00150311	0.01224060	0.00582969	0.00560776	0.00642017	0.00590371	0.00722357	0.00332289	0.00758377	0.00373439	0.00327343
2.78000000	0.00305901	0.00526041	0.00424072	0.00486104	0.00436444	0.00299917	0.00282481	0.00423460	0.00220078	0.00123306	0.00112369	0.00318220	0.00416632	0.00088991	0.00505770	0.00203176	0.00080502	0.01205352	0.00558969	0.00552873	0.00629878	0.00613309	0.00686939	0.00364997	0.00736481	0.00407701	0.00345346
2.79000000	0.00201078	0.00504718	0.00462257	0.00488312	0.00443527	0.00289337	0.00277661	0.00381511	0.00217530	0.00080622	0.00153768	0.00351074	0.00429507	0.00066571	0.00524993	0.00270901	0.00141243	0.01164417	0.00564560	0.00529692	0.00623815	0.00646284	0.00664655	0.00411089	0.00746673	0.00443631	0.00339812
2.80000000	0.00174206	0.00482508	0.00542642	0.00493364	0.00478333	0.00261746	0.00229684	0.00380953	0.00201105	0.00083236	0.00110265	0.00371330	0.00480799	0.00049885	0.00535645	0.00299020	0.00142338	0.01147486	0.00543305	0.00513900	0.00613028	0.00672118	0.00629126	0.00443610	0.00720275	0.00474779	0.00354147
2.81000000	0.00198535	0.00448976	0.00608166	0.00506039	0.00514802	0.00262410	0.00239017	0.00337433	0.00200311	0.00039286	0.00147047	0.00417295	0.00519159	0.00056380	0.00563758	0.00363092	0.00199523	0.01127561	0.00544762	0.00485375	0.00602294	0.00696985	0.00604986	0.00473094	0.00739143	0.00502023	0.00323201
2.82000000	0.00283148	0.00428516	0.00672851	0.00531081	0.00564410	0.00266176	0.00238135	0.00312263	0.00192748	0.00033210	0.00159786	0.00459035	0.00575142	0.00053193	0.00587674	0.00393106	0.00229349	0.01097840	0.00544397	0.00483508	0.00598025	0.00728428	0.00578308	0.00490279	0.00738495	0.00528450	0.00332945
2.83000000	0.00369374	0.00408026	0.00728032	0.00568263	0.00620631	0.00257446	0.00149085	0.00316701	0.00200715	0.00043223	0.00130326	0.00498196	0.00643737	0.00042820	0.00615139	0.00416840	0.00170297	0.01081508	0.00526037	0.00489483	0.00591410	0.00759994	0.00547208	0.00527645	0.00689566	0.00528091	0.00358246
2.84000000	0.00440284	0.00395866	0.00728609	0.00618251	0.00653977	0.00272490	0.00177647	0.00292906	0.00189233	0.00038446	0.00140756	0.00535687	0.00698095	0.00043270	0.00646251	0.00436878	0.00204899	0.01065846	0.00532778	0.00497629	0.00582916	0.00807893	0.00514830	0.00533058	0.00694811	0.00539928	0.00342188
2.85000000	0.00486813	0.00394146	0.00701088	0.00672068	0.00674522	0.00289089	0.00183482	0.00283720	0.00178167	0.00051377	0.00127790	0.00566839	0.00755281	0.00034105	0.00676714	0.00437731	0.00220063	0.01051028	0.00539231	0.00518798	0.00574373	0.00865691	0.00475709	0.00533993	0.00686333	0.00546372	0.00344025
2.86000000	0.00512531	0.00397035	0.00638427	0.00714976	0.00670577	0.00308218	0.00212273	0.00273065	0.00167805	0.00066558	0.00132643	0.00594259	0.00804872	0.00033800	0.00704733	0.00438883	0.00234641	0.01041769	0.00549605	0.00546221	0.00566424	0.00925784	0.00434916	0.00527489	0.00683172	0.00556460	0.00341571
2.87000000	0.00517254	0.00403321	0.00557148	0.00746811	0.00650067	0.00327849	0.00232380	0.00270802	0.00159458	0.00081200	0.00130154	0.00617902	0.00846367	0.00044567	0.00736510	0.00429813	0.00239346	0.01041494	0.00562237	0.00571533	0.00553481	0.00979190	0.00389258	0.00520822	0.00672488	0.00564167	0.00344843
2.88000000	0.00476695	0.00370201	0.00492226	0.00753429	0.00622593	0.00312091	0.00114078	0.00276182	0.00171711	0.00058416	0.00105290	0.00614550	0.00837184	0.00024871	0.00775189	0.00468454	0.00170032	0.01023256	0.00576744	0.00600640	0.00544061	0.01029084	0.00332199	0.00614144	0.00645911	0.00457677	0.00347796
2.89000000	0.00455659	0.00383698	0.00410443	0.00762086	0.00583599	0.00335784	0.00150237	0.00272095	0.00155787	0.00067271	0.00088296	0.00628401	0.00873969	0.00040506	0.00789269	0.00442995	0.00165893	0.01029667	0.00595351	0.00628715	0.00529087	0.01039729	0.00289717	0.00582927	0.00627328	0.00476017	0.00355357
2.90000000	0.00428315	0.00340293	0.00336575	0.00754906	0.00537782	0.00341397	0.00073290	0.00286900	0.00158773	0.00059446	0.00096161	0.00616877	0.00869691	0.00046606	0.00811178	0.00438132	0.00175313	0.01019905	0.00635962	0.00644483	0.00510456	0.01040979	0.00232309	0.00635555	0.00636920	0.00404361	0.00341193
2.91000000	0.00401366	0.00358735	0.00315274	0.00760785	0.00516543	0.00356742	0.00093912	0.00287017	0.00144335	0.00081781	0.00094681	0.00615840	0.00895345	0.00065114	0.00820409	0.00425072	0.00158280	0.01027604	0.00650891	0.00670638	0.00497687	0.01003874	0.00225547	0.00606192	0.00603873	0.00430443	0.00345358
2.92000000	0.00372465	0.00377693	0.00311559	0.00764964	0.00501541	0.00373876	0.00098147	0.00288377	0.00137968	0.00096789	0.00108316	0.00612738	0.00908371	0.00084335	0.00833712	0.00424252	0.00149886	0.01030523	0.00672880	0.00695695	0.00488488	0.00957477	0.00249859	0.00602248	0.00574543	0.00460395	0.00360078
2.93000000	0.00360610	0.00357035	0.00265446	0.00744698	0.00464411	0.00396650	0.00046604	0.00282509	0.00137993	0.00073464	0.00062858	0.00587412	0.00877823	0.00067423	0.00853347	0.00435172	0.00192035	0.01057566	0.00707419	0.00700509	0.00457744	0.00928027	0.00216568	0.00692118	0.00588298	0.00349204	0.00330203
2.94000000	0.00339209	0.00379384	0.00282966	0.00764075	0.00474281	0.00407768	0.00049980	0.00286206	0.00121858	0.00103271	0.00088849	0.00588197	0.00915121	0.00085212	0.00858178	0.00429205	0.00172472	0.01052347	0.00728422	0.00725676	0.00453511	0.00888162	0.00298378	0.00657552	0.00551677	0.00410487	0.00342127
2.95000000	0.00339757	0.00364357	0.00244610	0.00752156	0.00450322	0.00425478	0.00011636	0.00280719	0.00126800	0.00080238	0.00061384	0.00585204	0.00903315	0.00117999	0.00861394	0.00435434	0.00195210	0.01073577	0.00761087	0.00744388	0.00433885	0.00886996	0.00295352	0.00733834	0.00551763	0.00357224	0.00324363
2.96000000	0.00328016	0.00364701	0.00240342	0.00767372	0.00459208	0.00441158	0.00013646	0.00284412	0.00118075	0.00096179	0.00058485	0.00607923	0.00926498	0.00154062	0.00862494	0.00434863	0.00200171	0.01055421	0.00787930	0.00779013	0.00435773	0.00894633	0.00332904	0.00743639	0.00520315	0.00381659	0.00337117
2.97000000	0.00328401	0.00381613	0.00248159	0.00793662	0.00478928	0.00454977	0.00002362	0.00287162	0.00120595	0.00119146	0.00080479	0.00626617	0.00961346	0.00180160	0.00851229	0.00420077	0.00194440	0.01051214	0.00799086	0.00814138	0.00441832	0.00928657	0.00413545	0.00725311	0.00485704	0.00463245	0.00331221
2.98000000	0.00346277	0.00355941	0.00224386	0.00777843	0.00465125	0.00477051	0.00042917	0.00283478	0.00119818	0.00107051	0.00070365	0.00653886	0.00968018	0.00242252	0.00830792	0.00395083	0.00212368	0.01066510	0.00825271	0.00846021	0.00427421	0.01006629	0.00406653	0.00800273	0.00479571	0.00401949	0.00310955
2.99000000	0.00353234	0.00385205	0.00235219	0.00796669	0.00481590	0.00501161	0.00031669	0.00283833	0.00121605	0.00141169	0.00071509	0.00685907	0.00993365	0.00274511	0.00819117	0.00378213	0.00217807	0.01048876	0.00839545	0.00889127	0.00436961	0.01098555	0.00484824	0.00761568	0.00448005	0.00485768	0.00312677
3.00000000	0.00372992	0.00371933	0.00224491	0.00769724	0.00464629	0.00523324	0.00059764	0.00286758	0.00136158	0.00128655	0.00068567	0.00724086	0.00999615	0.00335449	0.00800992	0.00346156	0.00231103	0.01036490	0.00864175	0.00939027	0.00440047	0.01215741	0.00456948	0.00825803	0.00414541	0.00443094	0.00322033
3.01000000	0.00378566	0.00418418	0.00234375	0.00774062	0.00472427	0.00552028	0.00052070	0.00288014	0.00131205	0.00165316	0.00069688	0.00740126	0.01007680	0.00364887	0.00790635	0.00320289	0.00240337	0.01026479	0.00866868	0.00988886	0.00450468	0.01334054	0.00548462	0.00772086	0.00400320	0.00526471	0.00304152
3.02000000	0.00399499	0.00416529	0.00226586	0.00731240	0.00443872	0.00573843	0.00086340	0.00286448	0.00143270	0.00146278	0.00061980	0.00762636	0.01003450	0.00415598	0.00778263	0.00281595	0.00240890	0.01014040	0.00887202	0.01041025	0.00455690	0.01448439	0.00501389	0.00833018	0.00358195	0.00464172	0.00308559
3.03000000	0.00413721	0.00429174	0.00228925	0.00696846	0.00424021	0.00596377	0.00116481	0.00281542	0.00152849	0.00140153	0.00066941	0.00765051	0.00993769	0.00458056	0.00762503	0.00250559	0.00244454	0.01018015	0.00902471	0.01076068	0.00446346	0.01547108	0.00520848	0.00825854	0.00335242	0.00442564	0.00291734
3.04000000	0.00417108	0.00449060	0.00233061	0.00664552	0.00405838	0.00619636	0.00128762	0.00284833	0.00157952	0.00146953	0.00063317	0.00759511	0.00973055	0.00492895	0.00753019	0.00235719	0.00250467	0.01005991	0.00913694	0.01122334	0.00450177	0.01616062	0.00539070	0.00807378	0.00307497	0.00416062	0.00285419
3.05000000	0.00418993	0.00463458	0.00239564	0.00631442	0.00386110	0.00644079	0.00142941	0.00287858	0.00158041	0.00153047	0.00056121	0.00754165	0.00950328	0.00519003	0.00747198	0.00223811	0.00246878	0.00994224	0.00928664	0.01158865	0.00449127	0.01656001	0.00557101	0.00777221	0.00285144	0.00388529	0.00277555
3.06000000	0.00420304	0.00471169	0.00245044	0.00599898	0.00364462	0.00668755	0.00151076	0.00295298	0.00154688	0.00166676	0.00053489	0.00738612	0.00917150	0.00547926	0.00744661	0.00219695	0.00243441	0.00988425	0.00936510	0.01191425	0.00448762	0.01665835	0.00576339	0.00747148	0.00262835	0.00356699	0.00269513
3.07000000	0.00418435	0.00474661	0.00245110	0.00568770	0.00340738	0.00681572	0.00173597	0.00306484	0.00154020	0.00162308	0.00057570	0.00727047	0.00894248	0.00556600	0.00734959	0.00222602	0.00239411	0.00980816	0.00949343	0.01218408	0.00447266	0.01651354	0.00577800	0.00723494	0.00243442	0.00297156	0.00264307
3.08000000	0.00424100	0.00484323	0.00235949	0.00543386	0.00312103	0.00689591	0.00196913	0.00315941	0.00158008	0.00154161	0.00051463	0.00693496	0.00861674	0.00577279	0.00728706	0.00221511	0.00241248	0.00975481	0.00965511	0.01237724	0.00438955	0.01617838	0.00591397	0.00689376	0.00240494	0.00232551	0.00248303
3.09000000	0.00425268	0.00465447	0.00245173	0.00532234	0.00298555	0.00706768	0.00209440	0.00328701	0.00154510	0.00164419	0.00047407	0.00690881	0.00834744	0.00572963	0.00721019	0.00235287	0.00232392	0.00954112	0.00982418	0.01251766	0.00441884	0.01567477	0.00602522	0.00657902	0.00219780	0.00193470	0.00252353
3.10000000	0.00431900	0.00481862	0.00226353	0.00524944	0.00272232	0.00707682	0.00234181	0.00329057	0.00147881	0.00163840	0.00051714	0.00662665	0.00815262	0.00571506	0.00713396	0.00233404	0.00227988	0.00939561	0.01002169	0.01260884	0.00434044	0.01506554	0.00601553	0.00628442	0.00223181	0.00137255	0.00240561
3.11000000	0.00433304	0.00446982	0.00234226	0.00527092	0.00262339	0.00721868	0.00240469	0.00346501	0.00149434	0.00161322	0.00048973	0.00665375	0.00793703	0.00560177	0.00708238	0.00251693	0.00225174	0.00918702	0.01011502	0.01263982	0.00436265	0.01437759	0.00618843	0.00600699	0.00215546	0.00104986	0.00241327
3.12000000	0.00439780	0.00413821	0.00239117	0.00536254	0.00254984	0.00736558	0.00250605	0.00352383	0.00146205	0.00164066	0.00056812	0.00668657	0.00777636	0.00547755	0.00700116	0.00258971	0.00216593	0.00889118	0.01025288	0.01263754	0.00444225	0.01365756	0.00620429	0.00585823	0.00211909	0.00087450	0.00244654
3.13000000	0.00450397	0.00376785	0.00237190	0.00546571	0.00246289	0.00749085	0.00249128	0.00355231	0.00147938	0.00170046	0.00082852	0.00653206	0.00728991	0.00559996	0.00708514	0.00294054	0.00231154	0.00883079	0.01010531	0.01260173	0.00436347	0.01295575	0.00683968	0.00558693	0.00209730	0.00162583	0.00252300
3.14000000	0.00470111	0.00379382	0.00221804	0.00550477	0.00227625	0.00746360	0.00258319	0.00355842	0.00152992	0.00150758	0.00063722	0.00644922	0.00748331	0.00546368	0.00686486	0.00259843	0.00213933	0.00859139	0.01033007	0.01246529	0.00428292	0.01228732	0.00650678	0.00527715	0.00226751	0.00028131	0.00228442
3.15000000	0.00488228	0.00381936	0.00206448	0.00563566	0.00222670	0.00751987	0.00267737	0.00334560	0.00156259	0.00141398	0.00058096	0.00622816	0.00734123	0.00547034	0.00679464	0.00251859	0.00213315	0.00825660	0.01041543	0.01241267	0.00426940	0.01170618	0.00656116	0.00501634	0.00239422	0.00049367	0.00217936
3.16000000	0.00506474	0.00350632	0.00206297	0.00565297	0.00219691	0.00762471	0.00251321	0.00333796	0.00167394	0.00142901	0.00082904	0.00635554	0.00710946	0.00535032	0.00683518	0.00270450	0.00208816	0.00778411	0.01053654	0.01228304	0.00444166	0.01121223	0.00662157	0.00476995	0.00240792	0.00061693	0.00227298
3.17000000	0.00523888	0.00343658	0.00195589	0.00571954	0.00222975	0.00772269	0.00251025	0.00322253	0.00171813	0.00135313	0.00063438	0.00610896	0.00696956	0.00548349	0.00667991	0.00252126	0.00214782	0.00752860	0.01048243	0.01217878	0.00438863	0.01087462	0.00679651	0.00433960	0.00249227	0.00087432	0.00219590
3.18000000	0.00541249	0.00330114	0.00195808	0.00560397	0.00220971	0.00777383	0.00235548	0.00320848	0.00179350	0.00140837	0.00068661	0.00623225	0.00683849	0.00544455	0.00671519	0.00258618	0.00206803	0.00710274	0.01062827	0.01195229	0.00444903	0.01062164	0.00679681	0.00400371	0.00256080	0.00089061	0.00224329
3.19000000	0.00556755	0.00318012	0.00189553	0.00558655	0.00227702	0.00787506	0.00230848	0.00305743	0.00182854	0.00140157	0.00073144	0.00606748	0.00662389	0.00560335	0.00661384	0.00246648	0.00206181	0.00672678	0.01059123	0.01188124	0.00454622	0.01048640	0.00690301	0.00366588	0.00269898	0.00106632	0.00220210
3.20000000	0.00575488	0.00298014	0.00188587	0.00544514	0.00225260	0.00797913	0.00200860	0.00312977	0.00201961	0.00142060	0.00105324	0.00608410	0.00651953	0.00561648	0.00660662	0.00253466	0.00215515	0.00620083	0.01057339	0.01175777	0.00469865	0.01036251	0.00728923	0.00336340	0.00271850	0.00153735	0.00233600
3.21000000	0.00591478	0.00330234	0.00199097	0.00549512	0.00249110	0.00788755	0.00234936	0.00283208	0.00204719	0.00119046	0.00038898	0.00569666	0.00630726	0.00581505	0.00645110	0.00247476	0.00217573	0.00585099	0.01075155	0.01164008	0.00474936	0.01031246	0.00690755	0.00311196	0.00287863	0.00116616	0.00233073
3.22000000	0.00593825	0.00314791	0.00208250	0.00537432	0.00254696	0.00803851	0.00203290	0.00290539	0.00205203	0.00131608	0.00073039	0.00572478	0.00621258	0.00592892	0.00647257	0.00238893	0.00210638	0.00536665	0.01076620	0.01153487	0.00496602	0.01022746	0.00704852	0.00298112	0.00315897	0.00116433	0.00220496
3.23000000	0.00594434	0.00312481	0.00219503	0.00535102	0.00267885	0.00810914	0.00183667	0.00294427	0.00207823	0.00129992	0.00071694	0.00561945	0.00600877	0.00605716	0.00639804	0.00240323	0.00210207	0.00521997	0.01087760	0.01128220	0.00499198	0.01019956	0.00710788	0.00254925	0.00333037	0.00143127	0.00223271
3.24000000	0.00597231	0.00314448	0.00234076	0.00534555	0.00278491	0.00818900	0.00172052	0.00295482	0.00211348	0.00126022	0.00071976	0.00546435	0.00584303	0.00613153	0.00634504	0.00243146	0.00212087	0.00495865	0.01099337	0.01111475	0.00509953	0.01003821	0.00720168	0.00238772	0.00348883	0.00147634	0.00225878
3.25000000	0.00597114	0.00320455	0.00249425	0.00541159	0.00290913	0.00825020	0.00170519	0.00289820	0.00211258	0.00120100	0.00069171	0.00521197	0.00564858	0.00620982	0.00628303	0.00240712	0.00209554	0.00485231	0.01110437	0.01092694	0.00515602	0.00983103	0.00735022	0.00225717	0.00366848	0.00156009	0.00223645
3.26000000	0.00587226	0.00331329	0.00264817	0.00548400	0.00301007	0.00833120	0.00163228	0.00288367	0.00209348	0.00116274	0.00071408	0.00502269	0.00547690	0.00621923	0.00625088	0.00240310	0.00205174	0.00470832	0.01131156	0.01072706	0.00524767	0.00956194	0.00745823	0.00221023	0.00382722	0.00151256	0.00223383
3.27000000	0.00563704	0.00341520	0.00276073	0.00557832	0.00308801	0.00845363	0.00147612	0.00293655	0.00205972	0.00113487	0.00078320	0.00488271	0.00529997	0.00617763	0.00621461	0.00244452	0.00203557	0.00451433	0.01161991	0.01053308	0.00542553	0.00927039	0.00748599	0.00220220	0.00399359	0.00143690	0.00226804
3.28000000	0.00553947	0.00357184	0.00293595	0.00573921	0.00317374	0.00851524	0.00147053	0.00287835	0.00202160	0.00106039	0.00075268	0.00462495	0.00510673	0.00610660	0.00615599	0.00240394	0.00199389	0.00458915	0.01184608	0.01029017	0.00538949	0.00894731	0.00775628	0.00227532	0.00405846	0.00136723	0.00230954
3.29000000	0.00525253	0.00367796	0.00305348	0.00592097	0.00325718	0.00864413	0.00139215	0.00287217	0.00195963	0.00107380	0.00080548	0.00444978	0.00490202	0.00601695	0.00612870	0.00235860	0.00195216	0.00449214	0.01217687	0.01009593	0.00549972	0.00865359	0.00794282	0.00240059	0.00415015	0.00120623	0.00231708
3.30000000	0.00513288	0.00382494	0.00324502	0.00612392	0.00335036	0.00871626	0.00137312	0.00283414	0.00193185	0.00098513	0.00077681	0.00429326	0.00474923	0.00580287	0.00606856	0.00235132	0.00193849	0.00458752	0.01248270	0.00985001	0.00549060	0.00835109	0.00820123	0.00271661	0.00421460	0.00105169	0.00233169
3.31000000	0.00477482	0.00390683	0.00326449	0.00633003	0.00343921	0.00881383	0.00128603	0.00285787	0.00186888	0.00113135	0.00080395	0.00425927	0.00450031	0.00567116	0.00602423	0.00229762	0.00183612	0.00443603	0.01299807	0.00965300	0.00568247	0.00814314	0.00830250	0.00303512	0.00434782	0.00101257	0.00235568
3.32000000	0.00458643	0.00399577	0.00330365	0.00648927	0.00353054	0.00890346	0.00129664	0.00281512	0.00182592	0.00116487	0.00085312	0.00424647	0.00422407	0.00553502	0.00594388	0.00229400	0.00179376	0.00433413	0.01351508	0.00947574	0.00583753	0.00791625	0.00842775	0.00354319	0.00448002	0.00089210	0.00236936
3.33000000	0.00465207	0.00402413	0.00335966	0.00665946	0.00367170	0.00882174	0.00131533	0.00274177	0.00181301	0.00115967	0.00088861	0.00401727	0.00402513	0.00536732	0.00587045	0.00219120	0.00176795	0.00461506	0.01382835	0.00923737	0.00579800	0.00768576	0.00886792	0.00410674	0.00446508	0.00100067	0.00253437
3.34000000	0.00460520	0.00405249	0.00335091	0.00668551	0.00384124	0.00881256	0.00135203	0.00265884	0.00180372	0.00121473	0.00085499	0.00402612	0.00386822	0.00511833	0.00583400	0.00213845	0.00168181	0.00469402	0.01434648	0.00900951	0.00589483	0.00747345	0.00904853	0.00465189	0.00457680	0.00113738	0.00249464
3.35000000	0.00461943	0.00397724	0.00329155	0.00665810	0.00405756	0.00870743	0.00138400	0.00261218	0.00180851	0.00119767	0.00083206	0.00388483	0.00365270	0.00491198	0.00575481	0.00207841	0.00164894	0.00485724	0.01477916	0.00886483	0.00600452	0.00721986	0.00934885	0.00524369	0.00461218	0.00143612	0.00261351
3.36000000	0.00466064	0.00384113	0.00345348	0.00653496	0.00438223	0.00855060	0.00141234	0.00247510	0.00185795	0.00113745	0.00076708	0.00385980	0.00380413	0.00433307	0.00578122	0.00192973	0.00147171	0.00503811	0.01513644	0.00877198	0.00617343	0.00688667	0.00957920	0.00579113	0.00460646	0.00182742	0.00266453
3.37000000	0.00470121	0.00373898	0.00368736	0.00618972	0.00462345	0.00842532	0.00145832	0.00238388	0.00187622	0.00113746	0.00065839	0.00383976	0.00368761	0.00394803	0.00578017	0.00186127	0.00133283	0.00524070	0.01562380	0.00866525	0.00631020	0.00648612	0.00975122	0.00637440	0.00460614	0.00240900	0.00275907
3.38000000	0.00479382	0.00354201	0.00408428	0.00573160	0.00481323	0.00829635	0.00148125	0.00233128	0.00193666	0.00108260	0.00063952	0.00361560	0.00334645	0.00377912	0.00574599	0.00186500	0.00127445	0.00551527	0.01610255	0.00858673	0.00647283	0.00602132	0.00990907	0.00701090	0.00471209	0.00310008	0.00272185
3.39000000	0.00490128	0.00349712	0.00468603	0.00522961	0.00497602	0.00823429	0.00165477	0.00226643	0.00199468	0.00127081	0.00013795	0.00352759	0.00284840	0.00362477	0.00570922	0.00201294	0.00116353	0.00554711	0.01677829	0.00856115	0.00663712	0.00543300	0.00974933	0.00772256	0.00480826	0.00374323	0.00265987
3.40000000	0.00496633	0.00333185	0.00553387	0.00471042	0.00512422	0.00801081	0.00168783	0.00236323	0.00212195	0.00111245	0.00038330	0.00318505	0.00268565	0.00334734	0.00573776	0.00198248	0.00108961	0.00614557	0.01700648	0.00852618	0.00674723	0.00493738	0.00998253	0.00819006	0.00473526	0.00477975	0.00276977
3.41000000	0.00507576	0.00338809	0.00630745	0.00436789	0.00522105	0.00784899	0.00211892	0.00242994	0.00221090	0.00145321	0.00025857	0.00298060	0.00227035	0.00311160	0.00581168	0.00207390	0.00099390	0.00640409	0.01743269	0.00855366	0.00683565	0.00435622	0.00982831	0.00892791	0.00472187	0.00535183	0.00270134
3.42000000	0.00514116	0.00327433	0.00709713	0.00408104	0.00529759	0.00765275	0.00233556	0.00274346	0.00239480	0.00155304	0.00022644	0.00258348	0.00210714	0.00286312	0.00590836	0.00209835	0.00096290	0.00710642	0.01744311	0.00857947	0.00690684	0.00398129	0.00994901	0.00930456	0.00463828	0.00620408	0.00267498
3.43000000	0.00520558	0.00347148	0.00755735	0.00402250	0.00524853	0.00738901	0.00311911	0.00312728	0.00255247	0.00187250	0.00064454	0.00232978	0.00177482	0.00260780	0.00597037	0.00222489	0.00088597	0.00733898	0.01766805	0.00870397	0.00696805	0.00354735	0.00973741	0.00996349	0.00443558	0.00657163	0.00280405
3.44000000	0.00540787	0.00337404	0.00797911	0.00381489	0.00515392	0.00714485	0.00340024	0.00393073	0.00267911	0.00192799	0.00036664	0.00193116	0.00189821	0.00222777	0.00618765	0.00236087	0.00086554	0.00795133	0.01742386	0.00888811	0.00712471	0.00343789	0.00982883	0.01005982	0.00414498	0.00703025	0.00289899
3.45000000	0.00532018	0.00360498	0.00804397	0.00400419	0.00504726	0.00680579	0.00456380	0.00447934	0.00284098	0.00237253	0.00076038	0.00160789	0.00130254	0.00239479	0.00609701	0.00247700	0.00090750	0.00834313	0.01744962	0.00896818	0.00702205	0.00325473	0.00956995	0.01037700	0.00397373	0.00731454	0.00289318
3.46000000	0.00556859	0.00372151	0.00795820	0.00388686	0.00475492	0.00642292	0.00508343	0.00544560	0.00309796	0.00261842	0.00072309	0.00128165	0.00138071	0.00240296	0.00614258	0.00253879	0.00090546	0.00884296	0.01716438	0.00913936	0.00709405	0.00322651	0.00952474	0.01042557	0.00362533	0.00744696	0.00312974
3.47000000	0.00572238	0.00380876	0.00772233	0.00381172	0.00445880	0.00602376	0.00587544	0.00633560	0.00337470	0.00290843	0.00092469	0.00154938	0.00107648	0.00262265	0.00603605	0.00258258	0.00081105	0.00927202	0.01694337	0.00928832	0.00707515	0.00317831	0.00936902	0.01040092	0.00346592	0.00755245	0.00318309
3.48000000	0.00548003	0.00416210	0.00735579	0.00396464	0.00418412	0.00565526	0.00721493	0.00697649	0.00354410	0.00307773	0.00125482	0.00202120	0.00111210	0.00332706	0.00562470	0.00234651	0.00099844	0.00983708	0.01678879	0.00928273	0.00687459	0.00308478	0.00910687	0.01045245	0.00334844	0.00737242	0.00326857
3.49000000	0.00580519	0.00421775	0.00708406	0.00369203	0.00379552	0.00516567	0.00788683	0.00785468	0.00383747	0.00317148	0.00118422	0.00279838	0.00136547	0.00381216	0.00537405	0.00226426	0.00089456	0.01035858	0.01650755	0.00939665	0.00683163	0.00306230	0.00894763	0.01031571	0.00330801	0.00723059	0.00333009
3.50000000	0.00607480	0.00438025	0.00681708	0.00350924	0.00341127	0.00477485	0.00870035	0.00855653	0.00403765	0.00304987	0.00112844	0.00341623	0.00188893	0.00450053	0.00502711	0.00212000	0.00090167	0.01098236	0.01624305	0.00946044	0.00676652	0.00314411	0.00880800	0.01006766	0.00328876	0.00697996	0.00349104
3.51000000	0.00575675	0.00460826	0.00663908	0.00348533	0.00318477	0.00467862	0.00997484	0.00883861	0.00411940	0.00291044	0.00125478	0.00441679	0.00292793	0.00534240	0.00433338	0.00147236	0.00099806	0.01171661	0.01614157	0.00935840	0.00655553	0.00336806	0.00855593	0.00979112	0.00369466	0.00675735	0.00336390
3.52000000	0.00623660	0.00457509	0.00666877	0.00313385	0.00283484	0.00498709	0.01064755	0.00901201	0.00427745	0.00258919	0.00084829	0.00483010	0.00343242	0.00626823	0.00390170	0.00128723	0.00118166	0.01236005	0.01591422	0.00949680	0.00667808	0.00389234	0.00860580	0.00936074	0.00386731	0.00638365	0.00351558
3.53000000	0.00623241	0.00479317	0.00671224	0.00311761	0.00259299	0.00552344	0.01165282	0.00893539	0.00423112	0.00238150	0.00094746	0.00528704	0.00435955	0.00715112	0.00334795	0.00102614	0.00130166	0.01324199	0.01579487	0.00938813	0.00661478	0.00459642	0.00858308	0.00894485	0.00421581	0.00605090	0.00360553
3.54000000	0.00705865	0.00499596	0.00680901	0.00321592	0.00225267	0.00618024	0.01206462	0.00906579	0.00414496	0.00225372	0.00122571	0.00541820	0.00524898	0.00780401	0.00311239	0.00139663	0.00123070	0.01406680	0.01563687	0.00940403	0.00670391	0.00538088	0.00873826	0.00848904	0.00460926	0.00563600	0.00369263
3.55000000	0.00710789	0.00523831	0.00709204	0.00336603	0.00219027	0.00739869	0.01289320	0.00858249	0.00398217	0.00249306	0.00143022	0.00560365	0.00596951	0.00868121	0.00279148	0.00179960	0.00147789	0.01488725	0.01555085	0.00937916	0.00681792	0.00611202	0.00898165	0.00797995	0.00506410	0.00528700	0.00373940
3.56000000	0.00677941	0.00546036	0.00729746	0.00344970	0.00217291	0.00863146	0.01383841	0.00797022	0.00376398	0.00280352	0.00171089	0.00583577	0.00662061	0.00965256	0.00261514	0.00247671	0.00169395	0.01568014	0.01550588	0.00935195	0.00694609	0.00669938	0.00933545	0.00743839	0.00558843	0.00491065	0.00370620
3.57000000	0.00559448	0.00591614	0.00753486	0.00363651	0.00212125	0.01005447	0.01477222	0.00751436	0.00343941	0.00290902	0.00214601	0.00604905	0.00834303	0.01016461	0.00303030	0.00255359	0.00191844	0.01665914	0.01530880	0.00909105	0.00691290	0.00712101	0.00967131	0.00721812	0.00580294	0.00452512	0.00403190
3.58000000	0.00661697	0.00623502	0.00770682	0.00390410	0.00214688	0.01102999	0.01491699	0.00736996	0.00320247	0.00329380	0.00175955	0.00605921	0.00811040	0.01075627	0.00306584	0.00311938	0.00208019	0.01731829	0.01523261	0.00914008	0.00721081	0.00743617	0.01019052	0.00635365	0.00622166	0.00426439	0.00405957
3.59000000	0.00620821	0.00633315	0.00780714	0.00382387	0.00222456	0.01189376	0.01534132	0.00729084	0.00298608	0.00325716	0.00183659	0.00639949	0.00890433	0.01137521	0.00356677	0.00358990	0.00239898	0.01784201	0.01511951	0.00910042	0.00738878	0.00740393	0.01068889	0.00582421	0.00677111	0.00393616	0.00374214
3.60000000	0.00596353	0.00652741	0.00788755	0.00385959	0.00230613	0.01269721	0.01544628	0.00758617	0.00283031	0.00337909	0.00167643	0.00646359	0.00988028	0.01173671	0.00398782	0.00370996	0.00249272	0.01840642	0.01489554	0.00896858	0.00752278	0.00731924	0.01116104	0.00518022	0.00696908	0.00372043	0.00389972
3.61000000	0.00519221	0.00666140	0.00786057	0.00366292	0.00239370	0.01325746	0.01566181	0.00796543	0.00261385	0.00336511	0.00151724	0.00676499	0.01044429	0.01213533	0.00436517	0.00385408	0.00280595	0.01881119	0.01458663	0.00884505	0.00764878	0.00712944	0.01164310	0.00470776	0.00720513	0.00333734	0.00389923
3.62000000	0.00442132	0.00680461	0.00790142	0.00337473	0.00253982	0.01369119	0.01559036	0.00872406	0.00249746	0.00362914	0.00108386	0.00720695	0.01091292	0.01235399	0.00473062	0.00368311	0.00277314	0.01903028	0.01420979	0.00871889	0.00776778	0.00685638	0.01208417	0.00413332	0.00729834	0.00322089	0.00406909
3.63000000	0.00380254	0.00684612	0.00791571	0.00326631	0.00268035	0.01389550	0.01541995	0.00960825	0.00245648	0.00388014	0.00084490	0.00747706	0.01099266	0.01257664	0.00486977	0.00366352	0.00314444	0.01910889	0.01385708	0.00854777	0.00784262	0.00660507	0.01245586	0.00363044	0.00741580	0.00297003	0.00414704
3.64000000	0.00329959	0.00681965	0.00804533	0.00323188	0.00288695	0.01396376	0.01507880	0.01058800	0.00246005	0.00426749	0.00067241	0.00777887	0.01089244	0.01270138	0.00497237	0.00362999	0.00330847	0.01907917	0.01346520	0.00830441	0.00786303	0.00637152	0.01270463	0.00319695	0.00747460	0.00273811	0.00418809
3.65000000	0.00279952	0.00673475	0.00830109	0.00334335	0.00309169	0.01397416	0.01461466	0.01160701	0.00245945	0.00452414	0.00074684	0.00800658	0.01072020	0.01275972	0.00495533	0.00371602	0.00331270	0.01884710	0.01298148	0.00806566	0.00790923	0.00618561	0.01289931	0.00294464	0.00746576	0.00249650	0.00422456
3.66000000	0.00241491	0.00673846	0.00867804	0.00348700	0.00332519	0.01390117	0.01400395	0.01258977	0.00243313	0.00475299	0.00061735	0.00822774	0.01047037	0.01275100	0.00494436	0.00358275	0.00332013	0.01847618	0.01256127	0.00776689	0.00787660	0.00604071	0.01296820	0.00268201	0.00749676	0.00237487	0.00423438
3.67000000	0.00206122	0.00676589	0.00911113	0.00378199	0.00353163	0.01379151	0.01331506	0.01338140	0.00237010	0.00487141	0.00071103	0.00837058	0.01017484	0.01266197	0.00489728	0.00350943	0.00333874	0.01803952	0.01216058	0.00742362	0.00778500	0.00596241	0.01293814	0.00257210	0.00746963	0.00217333	0.00428586
3.68000000	0.00193914	0.00676943	0.00964184	0.00412445	0.00377492	0.01363855	0.01246248	0.01401200	0.00226958	0.00478298	0.00082576	0.00849736	0.00988679	0.01259589	0.00489152	0.00335161	0.00342154	0.01748027	0.01173458	0.00714222	0.00771473	0.00587830	0.01283716	0.00242980	0.00746145	0.00204246	0.00429295
3.69000000	0.00074246	0.00692040	0.01030079	0.00398745	0.00410873	0.01331168	0.01186240	0.01365853	0.00209344	0.00417677	0.00102877	0.00858257	0.00994731	0.01258409	0.00491485	0.00339906	0.00313717	0.01698704	0.01136417	0.00674892	0.00753400	0.00586164	0.01272547	0.00225856	0.00741051	0.00201629	0.00431114
3.70000000	0.00081852	0.00693329	0.01073152	0.00445657	0.00427235	0.01312576	0.01068117	0.01372752	0.00212358	0.00387451	0.00125339	0.00857030	0.00968111	0.01250534	0.00486953	0.00333080	0.00321341	0.01637096	0.01093657	0.00660377	0.00751299	0.00575549	0.01260341	0.00221885	0.00743651	0.00180793	0.00424113
