Model Marker Errors from IK
version=1
nRows=279
nColumns=4
inDegrees=no
endheader
time	total_squared_error	marker_error_RMS	marker_error_max
      0.73000000	      0.00476858	      0.01328962	      0.03677005
      0.74000000	      0.00476503	      0.01328467	      0.03631998
      0.75000000	      0.00475530	      0.01327111	      0.03577675
      0.76000000	      0.00474630	      0.01325854	      0.03500782
      0.77000000	      0.00470802	      0.01320497	      0.03429100
      0.78000000	      0.00468055	      0.01316639	      0.03311646
      0.79000000	      0.00465375	      0.01312864	      0.03318208
      0.80000000	      0.00457398	      0.01301563	      0.03167322
      0.81000000	      0.00449446	      0.01290200	      0.02974569
      0.82000000	      0.00440435	      0.01277201	      0.03045578
      0.83000000	      0.00428434	      0.01259679	      0.02883783
      0.84000000	      0.00417064	      0.01242853	      0.02850254
      0.85000000	      0.00408109	      0.01229437	      0.02888902
      0.86000000	      0.00396444	      0.01211738	      0.02856751
      0.87000000	      0.00384848	      0.01193885	      0.02860394
      0.88000000	      0.00371863	      0.01173571	      0.02860781
      0.89000000	      0.00357455	      0.01150612	      0.02851245
      0.90000000	      0.00344046	      0.01128824	      0.02834255
      0.91000000	      0.00334899	      0.01113718	      0.02849197
      0.92000000	      0.00325197	      0.01097467	      0.02752389
      0.93000000	      0.00330993	      0.01107203	      0.02868843
      0.94000000	      0.00337683	      0.01118337	      0.02818189
      0.95000000	      0.00354104	      0.01145206	      0.02875790
      0.96000000	      0.00372907	      0.01175218	      0.02899655
      0.97000000	      0.00390901	      0.01203238	      0.02909032
      0.98000000	      0.00404198	      0.01223531	      0.02859271
      0.99000000	      0.00412095	      0.01235426	      0.02769273
      1.00000000	      0.00414072	      0.01238385	      0.02676361
      1.01000000	      0.00415220	      0.01240102	      0.02940100
      1.02000000	      0.00413115	      0.01236954	      0.03031567
      1.03000000	      0.00409970	      0.01232236	      0.03071887
      1.04000000	      0.00403816	      0.01222953	      0.03022311
      1.05000000	      0.00399763	      0.01216801	      0.02989080
      1.06000000	      0.00396824	      0.01212319	      0.02959061
      1.07000000	      0.00395867	      0.01210856	      0.02933069
      1.08000000	      0.00392779	      0.01206125	      0.02858151
      1.09000000	      0.00389931	      0.01201744	      0.02783607
      1.10000000	      0.00388990	      0.01200293	      0.02731724
      1.11000000	      0.00389456	      0.01201012	      0.02697607
      1.12000000	      0.00391217	      0.01203724	      0.02828484
      1.13000000	      0.00395475	      0.01210257	      0.02952435
      1.14000000	      0.00397397	      0.01213194	      0.03068935
      1.15000000	      0.00395434	      0.01210194	      0.03102472
      1.16000000	      0.00398611	      0.01215046	      0.03193458
      1.17000000	      0.00399758	      0.01216794	      0.03265286
      1.18000000	      0.00393403	      0.01207083	      0.03251326
      1.19000000	      0.00390670	      0.01202882	      0.03304428
      1.20000000	      0.00379736	      0.01185929	      0.03302920
      1.21000000	      0.00370501	      0.01171421	      0.03335777
      1.22000000	      0.00353061	      0.01143519	      0.03316954
      1.23000000	      0.00338748	      0.01120100	      0.03357828
      1.24000000	      0.00315944	      0.01081741	      0.03304509
      1.25000000	      0.00297464	      0.01049628	      0.03306004
      1.26000000	      0.00278004	      0.01014714	      0.03289219
      1.27000000	      0.00257932	      0.00977396	      0.03245875
      1.28000000	      0.00242246	      0.00947210	      0.03232729
      1.29000000	      0.00231141	      0.00925244	      0.03258150
      1.30000000	      0.00220244	      0.00903171	      0.03233785
      1.31000000	      0.00214118	      0.00890521	      0.03277288
      1.32000000	      0.00207479	      0.00876607	      0.03253744
      1.33000000	      0.00204461	      0.00870209	      0.03301761
      1.34000000	      0.00200565	      0.00861877	      0.03286131
      1.35000000	      0.00198564	      0.00857567	      0.03303119
      1.36000000	      0.00199417	      0.00859408	      0.03327844
      1.37000000	      0.00195722	      0.00851408	      0.03265373
      1.38000000	      0.00191587	      0.00842366	      0.03177954
      1.39000000	      0.00189828	      0.00838490	      0.03089291
      1.40000000	      0.00188062	      0.00834580	      0.02976051
      1.41000000	      0.00187078	      0.00832395	      0.02841139
      1.42000000	      0.00188097	      0.00834659	      0.02741130
      1.43000000	      0.00190309	      0.00839553	      0.02645663
      1.44000000	      0.00192489	      0.00844348	      0.02552519
      1.45000000	      0.00197530	      0.00855332	      0.02540144
      1.46000000	      0.00200664	      0.00862091	      0.02525445
      1.47000000	      0.00204940	      0.00871227	      0.02553951
      1.48000000	      0.00206403	      0.00874331	      0.02548489
      1.49000000	      0.00206076	      0.00873639	      0.02530140
      1.50000000	      0.00205004	      0.00871363	      0.02475911
      1.51000000	      0.00204491	      0.00870273	      0.02407072
      1.52000000	      0.00207896	      0.00877487	      0.02347377
      1.53000000	      0.00216347	      0.00895145	      0.02319078
      1.54000000	      0.00230099	      0.00923156	      0.02294507
      1.55000000	      0.00248621	      0.00959594	      0.02218131
      1.56000000	      0.00275079	      0.01009362	      0.02244507
      1.57000000	      0.00306143	      0.01064830	      0.02371902
      1.58000000	      0.00337313	      0.01117724	      0.02722544
      1.59000000	      0.00367590	      0.01166810	      0.02975892
      1.60000000	      0.00397538	      0.01213409	      0.03248753
      1.61000000	      0.00424316	      0.01253611	      0.03475210
      1.62000000	      0.00448841	      0.01289331	      0.03662438
      1.63000000	      0.00471935	      0.01322084	      0.03816187
      1.64000000	      0.00492599	      0.01350719	      0.03915060
      1.65000000	      0.00512474	      0.01377698	      0.04058725
      1.66000000	      0.00528986	      0.01399717	      0.04152446
      1.67000000	      0.00541697	      0.01416434	      0.04217451
      1.68000000	      0.00550297	      0.01427634	      0.04246369
      1.69000000	      0.00556733	      0.01435958	      0.04271516
      1.70000000	      0.00559979	      0.01440138	      0.04253284
      1.71000000	      0.00562338	      0.01443168	      0.04222942
      1.72000000	      0.00564161	      0.01445505	      0.04173606
      1.73000000	      0.00566029	      0.01447896	      0.04105894
      1.74000000	      0.00569966	      0.01452922	      0.04043770
      1.75000000	      0.00571375	      0.01454717	      0.03936804
      1.76000000	      0.00579494	      0.01465017	      0.03892731
      1.77000000	      0.00581109	      0.01467056	      0.03798553
      1.78000000	      0.00587612	      0.01475243	      0.03747886
      1.79000000	      0.00593236	      0.01482285	      0.03698153
      1.80000000	      0.00596593	      0.01486474	      0.03643377
      1.81000000	      0.00602202	      0.01493445	      0.03701958
      1.82000000	      0.00602068	      0.01493279	      0.03703218
      1.83000000	      0.00603256	      0.01494751	      0.03754525
      1.84000000	      0.00598295	      0.01488592	      0.03750465
      1.85000000	      0.00593683	      0.01482843	      0.03801257
      1.86000000	      0.00584979	      0.01471934	      0.03828347
      1.87000000	      0.00566781	      0.01448858	      0.03779172
      1.88000000	      0.00554148	      0.01432619	      0.03831272
      1.89000000	      0.00530952	      0.01402316	      0.03772173
      1.90000000	      0.00511330	      0.01376160	      0.03763176
      1.91000000	      0.00493561	      0.01352037	      0.03757372
      1.92000000	      0.00482623	      0.01336971	      0.03815650
      1.93000000	      0.00465890	      0.01313590	      0.03749816
      1.94000000	      0.00462496	      0.01308797	      0.03831829
      1.95000000	      0.00456407	      0.01300153	      0.03782781
      1.96000000	      0.00463303	      0.01309937	      0.03881674
      1.97000000	      0.00466617	      0.01314614	      0.03853159
      1.98000000	      0.00477345	      0.01329641	      0.03900929
      1.99000000	      0.00492979	      0.01351239	      0.03971033
      2.00000000	      0.00505519	      0.01368318	      0.04028224
      2.01000000	      0.00518487	      0.01385757	      0.04033965
      2.02000000	      0.00532142	      0.01403887	      0.04040909
      2.03000000	      0.00544662	      0.01420305	      0.04030923
      2.04000000	      0.00556036	      0.01435059	      0.04010408
      2.05000000	      0.00568107	      0.01450552	      0.03994720
      2.06000000	      0.00580063	      0.01465736	      0.03983324
      2.07000000	      0.00589509	      0.01477623	      0.03960725
      2.08000000	      0.00598982	      0.01489446	      0.03976721
      2.09000000	      0.00603580	      0.01495153	      0.03961941
      2.10000000	      0.00603741	      0.01495352	      0.03921182
      2.11000000	      0.00599411	      0.01489980	      0.03846843
      2.12000000	      0.00593302	      0.01482368	      0.03837538
      2.13000000	      0.00582434	      0.01468728	      0.03731294
      2.14000000	      0.00571085	      0.01454348	      0.03700457
      2.15000000	      0.00556286	      0.01435381	      0.03589397
      2.16000000	      0.00541667	      0.01416394	      0.03470979
      2.17000000	      0.00525509	      0.01395109	      0.03441820
      2.18000000	      0.00506728	      0.01369953	      0.03301923
      2.19000000	      0.00486201	      0.01341919	      0.03158949
      2.20000000	      0.00466067	      0.01313839	      0.03048635
      2.21000000	      0.00449224	      0.01289880	      0.03100617
      2.22000000	      0.00431160	      0.01263681	      0.03008242
      2.23000000	      0.00417885	      0.01244075	      0.03009831
      2.24000000	      0.00406048	      0.01226328	      0.03019996
      2.25000000	      0.00396787	      0.01212263	      0.03066536
      2.26000000	      0.00387795	      0.01198448	      0.03065080
      2.27000000	      0.00383079	      0.01191138	      0.03084921
      2.28000000	      0.00378520	      0.01184029	      0.03024902
      2.29000000	      0.00383353	      0.01191564	      0.03082503
      2.30000000	      0.00386257	      0.01196069	      0.03014615
      2.31000000	      0.00396952	      0.01212515	      0.03107121
      2.32000000	      0.00399342	      0.01216160	      0.02978313
      2.33000000	      0.00406224	      0.01226594	      0.02970762
      2.34000000	      0.00405601	      0.01225653	      0.02821364
      2.35000000	      0.00404069	      0.01223336	      0.02779913
      2.36000000	      0.00401905	      0.01220057	      0.02678611
      2.37000000	      0.00398011	      0.01214131	      0.02636515
      2.38000000	      0.00393401	      0.01207079	      0.02659883
      2.39000000	      0.00388699	      0.01199844	      0.02662703
      2.40000000	      0.00382092	      0.01189604	      0.02581101
      2.41000000	      0.00380786	      0.01187569	      0.02596674
      2.42000000	      0.00377823	      0.01182938	      0.02548056
      2.43000000	      0.00376353	      0.01180636	      0.02501544
      2.44000000	      0.00374666	      0.01177986	      0.02445191
      2.45000000	      0.00375922	      0.01179959	      0.02459664
      2.46000000	      0.00381518	      0.01188709	      0.02712268
      2.47000000	      0.00385789	      0.01195345	      0.02859540
      2.48000000	      0.00391801	      0.01204623	      0.03005568
      2.49000000	      0.00399105	      0.01215799	      0.03140436
      2.50000000	      0.00405568	      0.01225604	      0.03249723
      2.51000000	      0.00414149	      0.01238501	      0.03348488
      2.52000000	      0.00422683	      0.01251196	      0.03431166
      2.53000000	      0.00425958	      0.01256034	      0.03435420
      2.54000000	      0.00433984	      0.01267813	      0.03508978
      2.55000000	      0.00439658	      0.01276073	      0.03559718
      2.56000000	      0.00435736	      0.01270369	      0.03504973
      2.57000000	      0.00434300	      0.01268273	      0.03514472
      2.58000000	      0.00431533	      0.01264227	      0.03542609
      2.59000000	      0.00421706	      0.01249750	      0.03526449
      2.60000000	      0.00411937	      0.01235190	      0.03568966
      2.61000000	      0.00391335	      0.01203906	      0.03507482
      2.62000000	      0.00366719	      0.01165426	      0.03465291
      2.63000000	      0.00344697	      0.01129892	      0.03468516
      2.64000000	      0.00316248	      0.01082261	      0.03391851
      2.65000000	      0.00290519	      0.01037302	      0.03351897
      2.66000000	      0.00266735	      0.00993935	      0.03316689
      2.67000000	      0.00246299	      0.00955102	      0.03289415
      2.68000000	      0.00229896	      0.00922750	      0.03283838
      2.69000000	      0.00217715	      0.00897971	      0.03290399
      2.70000000	      0.00211193	      0.00884418	      0.03369708
      2.71000000	      0.00202835	      0.00866741	      0.03352601
      2.72000000	      0.00198762	      0.00857996	      0.03416731
      2.73000000	      0.00192535	      0.00844448	      0.03406525
      2.74000000	      0.00188419	      0.00835373	      0.03454885
      2.75000000	      0.00180547	      0.00817737	      0.03401071
      2.76000000	      0.00173425	      0.00801445	      0.03347211
      2.77000000	      0.00165858	      0.00783765	      0.03243178
      2.78000000	      0.00158158	      0.00765357	      0.03095642
      2.79000000	      0.00154015	      0.00755265	      0.02959917
      2.80000000	      0.00152012	      0.00750339	      0.02807318
      2.81000000	      0.00152722	      0.00752089	      0.02661387
      2.82000000	      0.00154292	      0.00755945	      0.02491331
      2.83000000	      0.00157788	      0.00764461	      0.02340090
      2.84000000	      0.00162866	      0.00776665	      0.02223100
      2.85000000	      0.00166898	      0.00786219	      0.02093856
      2.86000000	      0.00171100	      0.00796056	      0.02033522
      2.87000000	      0.00173053	      0.00800585	      0.01947316
      2.88000000	      0.00174754	      0.00804511	      0.01893271
      2.89000000	      0.00177434	      0.00810656	      0.01905169
      2.90000000	      0.00179103	      0.00814460	      0.01877504
      2.91000000	      0.00181974	      0.00820962	      0.01860172
      2.92000000	      0.00186262	      0.00830577	      0.01832750
      2.93000000	      0.00192175	      0.00843658	      0.01796357
      2.94000000	      0.00200651	      0.00862063	      0.01825624
      2.95000000	      0.00212942	      0.00888073	      0.02000139
      2.96000000	      0.00230493	      0.00923947	      0.02151775
      2.97000000	      0.00252667	      0.00967370	      0.02426655
      2.98000000	      0.00280839	      0.01019875	      0.02597885
      2.99000000	      0.00310827	      0.01072945	      0.02910911
      3.00000000	      0.00341573	      0.01124760	      0.03060919
      3.01000000	      0.00369357	      0.01169611	      0.03276632
      3.02000000	      0.00393024	      0.01206501	      0.03516380
      3.03000000	      0.00411654	      0.01234765	      0.03598890
      3.04000000	      0.00427200	      0.01257864	      0.03755828
      3.05000000	      0.00438918	      0.01274998	      0.03824375
      3.06000000	      0.00448859	      0.01289357	      0.03873652
      3.07000000	      0.00457813	      0.01302154	      0.03899313
      3.08000000	      0.00465977	      0.01313713	      0.03919250
      3.09000000	      0.00475876	      0.01327593	      0.03943020
      3.10000000	      0.00483663	      0.01338412	      0.03922600
      3.11000000	      0.00492773	      0.01350957	      0.03892408
      3.12000000	      0.00503002	      0.01364907	      0.03849851
      3.13000000	      0.00514745	      0.01380747	      0.03793285
      3.14000000	      0.00527945	      0.01398339	      0.03728760
      3.15000000	      0.00541315	      0.01415934	      0.03662235
      3.16000000	      0.00554426	      0.01432979	      0.03587934
      3.17000000	      0.00566554	      0.01448568	      0.03641811
      3.18000000	      0.00578067	      0.01463212	      0.03756215
      3.19000000	      0.00587369	      0.01474938	      0.03848338
      3.20000000	      0.00599654	      0.01490282	      0.03960077
      3.21000000	      0.00605939	      0.01498072	      0.04019498
      3.22000000	      0.00610629	      0.01503858	      0.04062015
      3.23000000	      0.00616932	      0.01511599	      0.04130354
      3.24000000	      0.00616957	      0.01511631	      0.04124411
      3.25000000	      0.00617643	      0.01512470	      0.04150751
      3.26000000	      0.00615352	      0.01509662	      0.04153364
      3.27000000	      0.00607947	      0.01500552	      0.04116601
      3.28000000	      0.00601188	      0.01492187	      0.04109542
      3.29000000	      0.00589065	      0.01477066	      0.04060602
      3.30000000	      0.00580349	      0.01466097	      0.04067921
      3.31000000	      0.00563808	      0.01445052	      0.03997721
      3.32000000	      0.00550361	      0.01427717	      0.03970464
      3.33000000	      0.00539352	      0.01413365	      0.03974382
      3.34000000	      0.00530303	      0.01401458	      0.03992042
      3.35000000	      0.00521483	      0.01389755	      0.04004179
      3.36000000	      0.00503247	      0.01365240	      0.03889453
      3.37000000	      0.00497088	      0.01356859	      0.03874367
      3.38000000	      0.00493597	      0.01352086	      0.03874176
      3.39000000	      0.00494794	      0.01353725	      0.03873962
      3.40000000	      0.00507154	      0.01370529	      0.03992252
      3.41000000	      0.00514639	      0.01380605	      0.03990840
      3.42000000	      0.00534123	      0.01406496	      0.04121718
      3.43000000	      0.00547416	      0.01423891	      0.04119193
      3.44000000	      0.00565088	      0.01446692	      0.04203638
      3.45000000	      0.00577759	      0.01462822	      0.04230022
      3.46000000	      0.00586108	      0.01473354	      0.04211382
      3.47000000	      0.00589782	      0.01477965	      0.04148823
      3.48000000	      0.00589438	      0.01477532	      0.04062615
      3.49000000	      0.00584973	      0.01471926	      0.03964401
      3.50000000	      0.00579151	      0.01464583	      0.03888223
      3.51000000	      0.00567764	      0.01450113	      0.03734758
