Model Marker Errors from IK
version=1
nRows=355
nColumns=4
inDegrees=no
endheader
time	total_squared_error	marker_error_RMS	marker_error_max
      0.60000000	      0.00623163	      0.01519214	      0.03492753
      0.61000000	      0.00639421	      0.01538904	      0.03423126
      0.62000000	      0.00656899	      0.01559795	      0.03354802
      0.63000000	      0.00677790	      0.01584403	      0.03354839
      0.64000000	      0.00690937	      0.01599696	      0.03286574
      0.65000000	      0.00701443	      0.01611812	      0.03254679
      0.66000000	      0.00706111	      0.01617166	      0.03199469
      0.67000000	      0.00708243	      0.01619605	      0.03162383
      0.68000000	      0.00709524	      0.01621070	      0.03120516
      0.69000000	      0.00711385	      0.01623194	      0.03084994
      0.70000000	      0.00714259	      0.01626469	      0.03049487
      0.71000000	      0.00718844	      0.01631682	      0.03020881
      0.72000000	      0.00724935	      0.01638580	      0.03001145
      0.73000000	      0.00732970	      0.01647636	      0.02984470
      0.74000000	      0.00740368	      0.01655930	      0.02960426
      0.75000000	      0.00754274	      0.01671409	      0.03000740
      0.76000000	      0.00771014	      0.01689855	      0.03157408
      0.77000000	      0.00783151	      0.01703103	      0.03238881
      0.78000000	      0.00797338	      0.01718460	      0.03342178
      0.79000000	      0.00804331	      0.01725979	      0.03374243
      0.80000000	      0.00804314	      0.01725961	      0.03344353
      0.81000000	      0.00801190	      0.01722606	      0.03318095
      0.82000000	      0.00797258	      0.01718373	      0.03307496
      0.83000000	      0.00779701	      0.01699347	      0.03169025
      0.84000000	      0.00764154	      0.01682320	      0.03078454
      0.85000000	      0.00748810	      0.01665344	      0.03066609
      0.86000000	      0.00730935	      0.01645347	      0.03047366
      0.87000000	      0.00714599	      0.01626857	      0.03016573
      0.88000000	      0.00696904	      0.01606588	      0.02964756
      0.89000000	      0.00681225	      0.01588412	      0.02917546
      0.90000000	      0.00671578	      0.01577126	      0.02848817
      0.91000000	      0.00657812	      0.01560878	      0.02774439
      0.92000000	      0.00649670	      0.01551188	      0.02695521
      0.93000000	      0.00638468	      0.01537757	      0.02602451
      0.94000000	      0.00632790	      0.01530903	      0.02508998
      0.95000000	      0.00625686	      0.01522287	      0.02501082
      0.96000000	      0.00616182	      0.01510681	      0.02533550
      0.97000000	      0.00609079	      0.01501948	      0.02571195
      0.98000000	      0.00604018	      0.01495695	      0.02605082
      0.99000000	      0.00600980	      0.01491929	      0.02642718
      1.00000000	      0.00599773	      0.01490430	      0.02682744
      1.01000000	      0.00599879	      0.01490562	      0.02729248
      1.02000000	      0.00604815	      0.01496681	      0.02766490
      1.03000000	      0.00609279	      0.01502195	      0.02807212
      1.04000000	      0.00618066	      0.01512988	      0.02884364
      1.05000000	      0.00622281	      0.01518139	      0.02907540
      1.06000000	      0.00632091	      0.01530058	      0.02976881
      1.07000000	      0.00634447	      0.01532906	      0.02984529
      1.08000000	      0.00638036	      0.01537236	      0.02995535
      1.09000000	      0.00640366	      0.01540041	      0.03005391
      1.10000000	      0.00643211	      0.01543458	      0.03033261
      1.11000000	      0.00646038	      0.01546846	      0.03063685
      1.12000000	      0.00647425	      0.01548506	      0.03089147
      1.13000000	      0.00647318	      0.01548378	      0.03117881
      1.14000000	      0.00651446	      0.01553307	      0.03157808
      1.15000000	      0.00658025	      0.01561131	      0.03213371
      1.16000000	      0.00665883	      0.01570425	      0.03271665
      1.17000000	      0.00675764	      0.01582033	      0.03340105
      1.18000000	      0.00687733	      0.01595983	      0.03416096
      1.19000000	      0.00698547	      0.01608481	      0.03499230
      1.20000000	      0.00709319	      0.01620836	      0.03579870
      1.21000000	      0.00723188	      0.01636605	      0.03632761
      1.22000000	      0.00733016	      0.01647688	      0.03681542
      1.23000000	      0.00739862	      0.01655364	      0.03679488
      1.24000000	      0.00739264	      0.01654694	      0.03678531
      1.25000000	      0.00745461	      0.01661616	      0.03598815
      1.26000000	      0.00740632	      0.01656225	      0.03668485
      1.27000000	      0.00731712	      0.01646221	      0.03739334
      1.28000000	      0.00718660	      0.01631473	      0.03740936
      1.29000000	      0.00698594	      0.01608535	      0.03612485
      1.30000000	      0.00691780	      0.01600671	      0.03550215
      1.31000000	      0.00681521	      0.01588758	      0.03455377
      1.32000000	      0.00675504	      0.01581729	      0.03391105
      1.33000000	      0.00680350	      0.01587392	      0.03379943
      1.34000000	      0.00682308	      0.01589675	      0.03354570
      1.35000000	      0.00690469	      0.01599154	      0.03335022
      1.36000000	      0.00699531	      0.01609614	      0.03348326
      1.37000000	      0.00704494	      0.01615313	      0.03342645
      1.38000000	      0.00712681	      0.01624672	      0.03360088
      1.39000000	      0.00721929	      0.01635179	      0.03373065
      1.40000000	      0.00718064	      0.01630796	      0.03308905
      1.41000000	      0.00723023	      0.01636418	      0.03272915
      1.42000000	      0.00722393	      0.01635705	      0.03221699
      1.43000000	      0.00713763	      0.01625905	      0.03217911
      1.44000000	      0.00705837	      0.01616852	      0.03218902
      1.45000000	      0.00702249	      0.01612738	      0.03210079
      1.46000000	      0.00691209	      0.01600011	      0.03214226
      1.47000000	      0.00676215	      0.01582562	      0.03256605
      1.48000000	      0.00666124	      0.01570708	      0.03299209
      1.49000000	      0.00655486	      0.01558117	      0.03342651
      1.50000000	      0.00642727	      0.01542877	      0.03379615
      1.51000000	      0.00632409	      0.01530443	      0.03432158
      1.52000000	      0.00618298	      0.01513272	      0.03467959
      1.53000000	      0.00611300	      0.01504684	      0.03514481
      1.54000000	      0.00606226	      0.01498427	      0.03559093
      1.55000000	      0.00609295	      0.01502215	      0.03646501
      1.56000000	      0.00604895	      0.01496781	      0.03660538
      1.57000000	      0.00610213	      0.01503346	      0.03731944
      1.58000000	      0.00612254	      0.01505858	      0.03771590
      1.59000000	      0.00617548	      0.01512354	      0.03820148
      1.60000000	      0.00619087	      0.01514238	      0.03853829
      1.61000000	      0.00626166	      0.01522870	      0.03900745
      1.62000000	      0.00632044	      0.01530002	      0.03908795
      1.63000000	      0.00643256	      0.01543512	      0.03945071
      1.64000000	      0.00654302	      0.01556709	      0.03936883
      1.65000000	      0.00668015	      0.01572937	      0.03931758
      1.66000000	      0.00680907	      0.01588042	      0.03883820
      1.67000000	      0.00695188	      0.01604609	      0.03829393
      1.68000000	      0.00713418	      0.01625512	      0.03806810
      1.69000000	      0.00723017	      0.01636410	      0.03717475
      1.70000000	      0.00733146	      0.01647834	      0.03703542
      1.71000000	      0.00737229	      0.01652415	      0.03654087
      1.72000000	      0.00734699	      0.01649578	      0.03599514
      1.73000000	      0.00727730	      0.01641736	      0.03562190
      1.74000000	      0.00717727	      0.01630413	      0.03518131
      1.75000000	      0.00707800	      0.01619099	      0.03479529
      1.76000000	      0.00700589	      0.01610831	      0.03442932
      1.77000000	      0.00697256	      0.01606994	      0.03396611
      1.78000000	      0.00700837	      0.01611116	      0.03370969
      1.79000000	      0.00711853	      0.01623729	      0.03343364
      1.80000000	      0.00725624	      0.01639359	      0.03315597
      1.81000000	      0.00747484	      0.01663868	      0.03301354
      1.82000000	      0.00772964	      0.01691990	      0.03283713
      1.83000000	      0.00795231	      0.01716188	      0.03258630
      1.84000000	      0.00811389	      0.01733535	      0.03279117
      1.85000000	      0.00824938	      0.01747949	      0.03344329
      1.86000000	      0.00836026	      0.01759656	      0.03393268
      1.87000000	      0.00833468	      0.01756963	      0.03360832
      1.88000000	      0.00827962	      0.01751149	      0.03321532
      1.89000000	      0.00819053	      0.01741703	      0.03262368
      1.90000000	      0.00808629	      0.01730584	      0.03227233
      1.91000000	      0.00799303	      0.01720575	      0.03206567
      1.92000000	      0.00786481	      0.01706720	      0.03143167
      1.93000000	      0.00778320	      0.01697841	      0.03141617
      1.94000000	      0.00772918	      0.01691940	      0.03151807
      1.95000000	      0.00761370	      0.01679252	      0.03153682
      1.96000000	      0.00754864	      0.01672062	      0.03127024
      1.97000000	      0.00747636	      0.01664038	      0.03093370
      1.98000000	      0.00738800	      0.01654175	      0.03028838
      1.99000000	      0.00729476	      0.01643704	      0.02958386
      2.00000000	      0.00717925	      0.01630638	      0.02873684
      2.01000000	      0.00702416	      0.01612929	      0.02770364
      2.02000000	      0.00685499	      0.01593388	      0.02667531
      2.03000000	      0.00666428	      0.01571067	      0.02552035
      2.04000000	      0.00648818	      0.01550171	      0.02509600
      2.05000000	      0.00633351	      0.01531582	      0.02555471
      2.06000000	      0.00621878	      0.01517647	      0.02603693
      2.07000000	      0.00615473	      0.01509812	      0.02650616
      2.08000000	      0.00603463	      0.01495007	      0.02704074
      2.09000000	      0.00603110	      0.01494571	      0.02762544
      2.10000000	      0.00597949	      0.01488163	      0.02800881
      2.11000000	      0.00590243	      0.01478542	      0.02847286
      2.12000000	      0.00585965	      0.01473174	      0.02890468
      2.13000000	      0.00581697	      0.01467799	      0.02937565
      2.14000000	      0.00575627	      0.01460120	      0.02980555
      2.15000000	      0.00571946	      0.01455445	      0.03036538
      2.16000000	      0.00571522	      0.01454905	      0.03089070
      2.17000000	      0.00577707	      0.01462757	      0.03158822
      2.18000000	      0.00586778	      0.01474195	      0.03234341
      2.19000000	      0.00602293	      0.01493558	      0.03305137
      2.20000000	      0.00622701	      0.01518651	      0.03403265
      2.21000000	      0.00643066	      0.01543284	      0.03501056
      2.22000000	      0.00668940	      0.01574026	      0.03600292
      2.23000000	      0.00689774	      0.01598349	      0.03673066
      2.24000000	      0.00709683	      0.01621251	      0.03681331
      2.25000000	      0.00723073	      0.01636474	      0.03708788
      2.26000000	      0.00740857	      0.01656476	      0.03663721
      2.27000000	      0.00748968	      0.01665520	      0.03869309
      2.28000000	      0.00752923	      0.01669912	      0.03997009
      2.29000000	      0.00745846	      0.01662044	      0.03981335
      2.30000000	      0.00748142	      0.01664601	      0.04032904
      2.31000000	      0.00737576	      0.01652804	      0.03933843
      2.32000000	      0.00735372	      0.01650333	      0.03844623
      2.33000000	      0.00740081	      0.01655609	      0.03812009
      2.34000000	      0.00741201	      0.01656861	      0.03743074
      2.35000000	      0.00746020	      0.01662238	      0.03695922
      2.36000000	      0.00752477	      0.01669417	      0.03667163
      2.37000000	      0.00757231	      0.01674681	      0.03650524
      2.38000000	      0.00762634	      0.01680646	      0.03636181
      2.39000000	      0.00764046	      0.01682201	      0.03614469
      2.40000000	      0.00762853	      0.01680887	      0.03583022
      2.41000000	      0.00767124	      0.01685586	      0.03549573
      2.42000000	      0.00760070	      0.01677818	      0.03481693
      2.43000000	      0.00761384	      0.01679268	      0.03410300
      2.44000000	      0.00755372	      0.01672624	      0.03297772
      2.45000000	      0.00751086	      0.01667873	      0.03322389
      2.46000000	      0.00738727	      0.01654094	      0.03315935
      2.47000000	      0.00732793	      0.01647437	      0.03300642
      2.48000000	      0.00721851	      0.01635091	      0.03271181
      2.49000000	      0.00703343	      0.01613993	      0.03274886
      2.50000000	      0.00693061	      0.01602153	      0.03323705
      2.51000000	      0.00677508	      0.01584074	      0.03344860
      2.52000000	      0.00657159	      0.01560103	      0.03363374
      2.53000000	      0.00645242	      0.01545893	      0.03408131
      2.54000000	      0.00632627	      0.01530706	      0.03430731
      2.55000000	      0.00623480	      0.01519600	      0.03473356
      2.56000000	      0.00618181	      0.01513129	      0.03505621
      2.57000000	      0.00618627	      0.01513675	      0.03570652
      2.58000000	      0.00620177	      0.01515570	      0.03629843
      2.59000000	      0.00618286	      0.01513258	      0.03667089
      2.60000000	      0.00620918	      0.01516475	      0.03717787
      2.61000000	      0.00623784	      0.01519970	      0.03765165
      2.62000000	      0.00626838	      0.01523687	      0.03806303
      2.63000000	      0.00630052	      0.01527588	      0.03841742
      2.64000000	      0.00636649	      0.01535564	      0.03858531
      2.65000000	      0.00645409	      0.01546093	      0.03879218
      2.66000000	      0.00654321	      0.01556731	      0.03842679
      2.67000000	      0.00666212	      0.01570813	      0.03833338
      2.68000000	      0.00675277	      0.01581463	      0.03753063
      2.69000000	      0.00686521	      0.01594576	      0.03736178
      2.70000000	      0.00693675	      0.01602862	      0.03663388
      2.71000000	      0.00696519	      0.01606145	      0.03587868
      2.72000000	      0.00695353	      0.01604799	      0.03515850
      2.73000000	      0.00690491	      0.01599179	      0.03451242
      2.74000000	      0.00683430	      0.01590981	      0.03392178
      2.75000000	      0.00677660	      0.01584251	      0.03350783
      2.76000000	      0.00674133	      0.01580123	      0.03316710
      2.77000000	      0.00674601	      0.01580672	      0.03295481
      2.78000000	      0.00675617	      0.01581861	      0.03271436
      2.79000000	      0.00691723	      0.01600605	      0.03283326
      2.80000000	      0.00705078	      0.01615983	      0.03283318
      2.81000000	      0.00724848	      0.01638482	      0.03289004
      2.82000000	      0.00744659	      0.01660721	      0.03283307
      2.83000000	      0.00764582	      0.01682791	      0.03259274
      2.84000000	      0.00782305	      0.01702183	      0.03266474
      2.85000000	      0.00797320	      0.01718440	      0.03311901
      2.86000000	      0.00812142	      0.01734340	      0.03335256
      2.87000000	      0.00809138	      0.01731129	      0.03261300
      2.88000000	      0.00817595	      0.01740152	      0.03304452
      2.89000000	      0.00809088	      0.01731076	      0.03275187
      2.90000000	      0.00808147	      0.01730068	      0.03324652
      2.91000000	      0.00802599	      0.01724120	      0.03307602
      2.92000000	      0.00799409	      0.01720690	      0.03327405
      2.93000000	      0.00798321	      0.01719519	      0.03341582
      2.94000000	      0.00791931	      0.01712623	      0.03267957
      2.95000000	      0.00789228	      0.01709697	      0.03244758
      2.96000000	      0.00783186	      0.01703141	      0.03151255
      2.97000000	      0.00777248	      0.01696672	      0.03079520
      2.98000000	      0.00765822	      0.01684155	      0.03006809
      2.99000000	      0.00751697	      0.01668551	      0.02919899
      3.00000000	      0.00734853	      0.01649751	      0.02814332
      3.01000000	      0.00714533	      0.01626782	      0.02687128
      3.02000000	      0.00692708	      0.01601744	      0.02577143
      3.03000000	      0.00670510	      0.01575872	      0.02579847
      3.04000000	      0.00647069	      0.01548079	      0.02631809
      3.05000000	      0.00626461	      0.01523229	      0.02679339
      3.06000000	      0.00609509	      0.01502478	      0.02730501
      3.07000000	      0.00598062	      0.01488302	      0.02780315
      3.08000000	      0.00589914	      0.01478129	      0.02830433
      3.09000000	      0.00587597	      0.01475224	      0.02874895
      3.10000000	      0.00586018	      0.01473240	      0.02915045
      3.11000000	      0.00585055	      0.01472029	      0.02960392
      3.12000000	      0.00582742	      0.01469117	      0.02999766
      3.13000000	      0.00582063	      0.01468261	      0.03032141
      3.14000000	      0.00578850	      0.01464202	      0.03055471
      3.15000000	      0.00575442	      0.01459886	      0.03083766
      3.16000000	      0.00573416	      0.01457314	      0.03117688
      3.17000000	      0.00569306	      0.01452081	      0.03147575
      3.18000000	      0.00569034	      0.01451735	      0.03200153
      3.19000000	      0.00568900	      0.01451563	      0.03248252
      3.20000000	      0.00577427	      0.01462401	      0.03318281
      3.21000000	      0.00588451	      0.01476295	      0.03392601
      3.22000000	      0.00603007	      0.01494443	      0.03474493
      3.23000000	      0.00622750	      0.01518710	      0.03547918
      3.24000000	      0.00644822	      0.01545389	      0.03632033
      3.25000000	      0.00665365	      0.01569814	      0.03697919
      3.26000000	      0.00684300	      0.01591993	      0.03703398
      3.27000000	      0.00697285	      0.01607027	      0.03703102
      3.28000000	      0.00697290	      0.01607033	      0.03680668
      3.29000000	      0.00701158	      0.01611484	      0.03618388
      3.30000000	      0.00694837	      0.01604204	      0.03831402
      3.31000000	      0.00682688	      0.01590118	      0.03807462
      3.32000000	      0.00668727	      0.01573775	      0.03774296
      3.33000000	      0.00654886	      0.01557403	      0.03685144
      3.34000000	      0.00644576	      0.01545095	      0.03559864
      3.35000000	      0.00635577	      0.01534271	      0.03443340
      3.36000000	      0.00639297	      0.01538755	      0.03379337
      3.37000000	      0.00645228	      0.01545876	      0.03330539
      3.38000000	      0.00652857	      0.01554988	      0.03305063
      3.39000000	      0.00663751	      0.01567909	      0.03295059
      3.40000000	      0.00677181	      0.01583691	      0.03312321
      3.41000000	      0.00684841	      0.01592623	      0.03307765
      3.42000000	      0.00695752	      0.01605260	      0.03338833
      3.43000000	      0.00700480	      0.01610705	      0.03340402
      3.44000000	      0.00711764	      0.01623626	      0.03367509
      3.45000000	      0.00708619	      0.01620036	      0.03300714
      3.46000000	      0.00717176	      0.01629787	      0.03278694
      3.47000000	      0.00709783	      0.01621366	      0.03159239
      3.48000000	      0.00706207	      0.01617276	      0.03143631
      3.49000000	      0.00703384	      0.01614041	      0.03182675
      3.50000000	      0.00695183	      0.01604603	      0.03242214
      3.51000000	      0.00691487	      0.01600332	      0.03313237
      3.52000000	      0.00677392	      0.01583938	      0.03333798
      3.53000000	      0.00655576	      0.01558223	      0.03378049
      3.54000000	      0.00638777	      0.01538128	      0.03429907
      3.55000000	      0.00621294	      0.01516934	      0.03491070
      3.56000000	      0.00608099	      0.01500739	      0.03546314
      3.57000000	      0.00596491	      0.01486346	      0.03594803
      3.58000000	      0.00593143	      0.01482169	      0.03653824
      3.59000000	      0.00591597	      0.01480237	      0.03704308
      3.60000000	      0.00597111	      0.01487118	      0.03760406
      3.61000000	      0.00598344	      0.01488653	      0.03779849
      3.62000000	      0.00600128	      0.01490870	      0.03809142
      3.63000000	      0.00604174	      0.01495888	      0.03843057
      3.64000000	      0.00604560	      0.01496365	      0.03842365
      3.65000000	      0.00606862	      0.01499212	      0.03856333
      3.66000000	      0.00606512	      0.01498779	      0.03843816
      3.67000000	      0.00610580	      0.01503798	      0.03831281
      3.68000000	      0.00613865	      0.01507838	      0.03817927
      3.69000000	      0.00618460	      0.01513470	      0.03773917
      3.70000000	      0.00626563	      0.01523353	      0.03759133
      3.71000000	      0.00635097	      0.01533692	      0.03691599
      3.72000000	      0.00646127	      0.01546953	      0.03644826
      3.73000000	      0.00656919	      0.01559818	      0.03585874
      3.74000000	      0.00665793	      0.01570318	      0.03518648
      3.75000000	      0.00670482	      0.01575838	      0.03436839
      3.76000000	      0.00675178	      0.01581347	      0.03380835
      3.77000000	      0.00678831	      0.01585619	      0.03332131
      3.78000000	      0.00680140	      0.01587148	      0.03277922
      3.79000000	      0.00680603	      0.01587687	      0.03233720
      3.80000000	      0.00681389	      0.01588605	      0.03191322
      3.81000000	      0.00683716	      0.01591314	      0.03151879
      3.82000000	      0.00689814	      0.01598395	      0.03136451
      3.83000000	      0.00697925	      0.01607764	      0.03116753
      3.84000000	      0.00710002	      0.01621616	      0.03082689
      3.85000000	      0.00725148	      0.01638821	      0.03070136
      3.86000000	      0.00737865	      0.01653128	      0.03076724
      3.87000000	      0.00751482	      0.01668312	      0.03185380
      3.88000000	      0.00754814	      0.01672007	      0.03184145
      3.89000000	      0.00758226	      0.01675782	      0.03223616
      3.90000000	      0.00756108	      0.01673440	      0.03193026
      3.91000000	      0.00750943	      0.01667714	      0.03188695
      3.92000000	      0.00741248	      0.01656914	      0.03131186
      3.93000000	      0.00728592	      0.01642708	      0.03099047
      3.94000000	      0.00710641	      0.01622345	      0.03100682
      3.95000000	      0.00695844	      0.01605366	      0.03069263
      3.96000000	      0.00684775	      0.01592546	      0.03011595
      3.97000000	      0.00660973	      0.01564624	      0.02962461
      3.98000000	      0.00643654	      0.01543990	      0.02872485
      3.99000000	      0.00627422	      0.01524396	      0.02769426
      4.00000000	      0.00613506	      0.01507396	      0.02635183
      4.01000000	      0.00592737	      0.01481662	      0.02522676
      4.02000000	      0.00580738	      0.01466589	      0.02377291
      4.03000000	      0.00568252	      0.01450736	      0.02394643
      4.04000000	      0.00556458	      0.01435603	      0.02439860
      4.05000000	      0.00551842	      0.01429636	      0.02477693
      4.06000000	      0.00550718	      0.01428180	      0.02519502
      4.07000000	      0.00551999	      0.01429839	      0.02565350
      4.08000000	      0.00554684	      0.01433312	      0.02621421
      4.09000000	      0.00559867	      0.01439994	      0.02666859
      4.10000000	      0.00567389	      0.01449634	      0.02710280
      4.11000000	      0.00569329	      0.01452111	      0.02762806
      4.12000000	      0.00575808	      0.01460351	      0.02811969
      4.13000000	      0.00576676	      0.01461450	      0.02834094
      4.14000000	      0.00580572	      0.01466379	      0.02868248
