SUBJ82_2_JMP_01_pelvis_thigh_marker_adjustment_task_1_finalErrors.sto
version=1
nRows=155
nColumns=26
inDegrees=no
endheader
time	R_Asis	L_Asis	Sacral	R_Thigh_Lateral	R_Knee_Lateral	R_Shank_Lateral	R_Ankle_Lateral	R_Heel	R_Toe	L_Thigh_Lateral	L_Knee_Lateral	L_Shank_Lateral	L_Ankle_Lateral	L_Heel	L_Toe	R_Shoulder	L_Shoulder	C7	J_Notch	Thoracic	Sternum	R_Elbow	L_Elbow	R_Wrist	L_Wrist
0.00000000	0.00187500	0.00681572	0.00839196	0.01156107	0.00617582	0.01878003	0.00303057	0.00437982	0.00201656	0.00348609	0.00129117	0.00489144	0.00238694	0.00542927	0.00219974	0.01397488	0.01591998	0.02019382	0.01396145	0.01316424	0.02134495	0.01970598	0.01781963	0.01224126	0.01261706
0.01000000	0.00213848	0.00694113	0.00843954	0.01144757	0.00632688	0.01958616	0.00280314	0.00442657	0.00221259	0.00328026	0.00205247	0.00507600	0.00291353	0.00510522	0.00214902	0.01395387	0.01574325	0.02009541	0.01395787	0.01294198	0.02132764	0.01976877	0.01761261	0.01244839	0.01229832
0.02000000	0.00222608	0.00637884	0.00804978	0.01185330	0.00655655	0.02020437	0.00295299	0.00491762	0.00180585	0.00345322	0.00155222	0.00476927	0.00247830	0.00544841	0.00220328	0.01404382	0.01585168	0.01978504	0.01364922	0.01256767	0.02100603	0.01988911	0.01778980	0.01251252	0.01229868
0.03000000	0.00258719	0.00610402	0.00796088	0.01205868	0.00667348	0.02102907	0.00289899	0.00524337	0.00186219	0.00343212	0.00158332	0.00478623	0.00245919	0.00550018	0.00217511	0.01403169	0.01578220	0.01956730	0.01347951	0.01223023	0.02079838	0.01995089	0.01776261	0.01262843	0.01199910
0.04000000	0.00294963	0.00577500	0.00792033	0.01225439	0.00656771	0.02191180	0.00299012	0.00574872	0.00206369	0.00345905	0.00185831	0.00490567	0.00261312	0.00553836	0.00207727	0.01404023	0.01567791	0.01935525	0.01329922	0.01187928	0.02057077	0.01995205	0.01772379	0.01275331	0.01164124
0.05000000	0.00399340	0.00595330	0.00854692	0.01333027	0.00673087	0.02186422	0.00274134	0.00539560	0.00191838	0.00336735	0.00169345	0.00519869	0.00250311	0.00538444	0.00213919	0.01382458	0.01533039	0.01942651	0.01335480	0.01180622	0.02054757	0.01986744	0.01731348	0.01268832	0.01094398
0.06000000	0.00370755	0.00503139	0.00833088	0.01390288	0.00667523	0.02259722	0.00277625	0.00576699	0.00195912	0.00365157	0.00186090	0.00534628	0.00250878	0.00534607	0.00218649	0.01388716	0.01520861	0.01905832	0.01311683	0.01126875	0.02024429	0.02009526	0.01728242	0.01292265	0.01057476
0.07000000	0.00447015	0.00475045	0.00875370	0.01477834	0.00643792	0.02251116	0.00271922	0.00569345	0.00197472	0.00388790	0.00192898	0.00563134	0.00246491	0.00532444	0.00219239	0.01378743	0.01495067	0.01902143	0.01305100	0.01112858	0.02006360	0.02004561	0.01704222	0.01291693	0.00999119
0.08000000	0.00387736	0.00385374	0.00854608	0.01542442	0.00612008	0.02284552	0.00277632	0.00595850	0.00210304	0.00435865	0.00212605	0.00569657	0.00252285	0.00526571	0.00207619	0.01388936	0.01483538	0.01864840	0.01281899	0.01063537	0.01971934	0.02028124	0.01707069	0.01309769	0.00958925
0.09000000	0.00446496	0.00355800	0.00895329	0.01602202	0.00561162	0.02254976	0.00258158	0.00582445	0.00218224	0.00458531	0.00233729	0.00608227	0.00265932	0.00507830	0.00191470	0.01375822	0.01459816	0.01860034	0.01285431	0.01050354	0.01960468	0.02018025	0.01687042	0.01303176	0.00896988
0.10000000	0.00371820	0.00297497	0.00877763	0.01675310	0.00517414	0.02226775	0.00272407	0.00595567	0.00235021	0.00509779	0.00249194	0.00599580	0.00267378	0.00508918	0.00188703	0.01384053	0.01451781	0.01826692	0.01266423	0.01013731	0.01923689	0.02042189	0.01683641	0.01320832	0.00858090
0.11000000	0.00413279	0.00272889	0.00908505	0.01722235	0.00451338	0.02157688	0.00259100	0.00574292	0.00238563	0.00540287	0.00274156	0.00626738	0.00284126	0.00489369	0.00180562	0.01379310	0.01423193	0.01821401	0.01275874	0.01007294	0.01914879	0.02041107	0.01651806	0.01318570	0.00789111
0.12000000	0.00413269	0.00258943	0.00912458	0.01771452	0.00382486	0.02071976	0.00257838	0.00555847	0.00239644	0.00585203	0.00300899	0.00634263	0.00297539	0.00482170	0.00173175	0.01379983	0.01409299	0.01803588	0.01277069	0.00990826	0.01896597	0.02050033	0.01631209	0.01324953	0.00731678
0.13000000	0.00281403	0.00295739	0.00870531	0.01835950	0.00352938	0.01977051	0.00267891	0.00550171	0.00229479	0.00661631	0.00392413	0.00609549	0.00342280	0.00492885	0.00200841	0.01399299	0.01411295	0.01767425	0.01256656	0.00963629	0.01854091	0.02081655	0.01630312	0.01366007	0.00666347
0.14000000	0.00391872	0.00243536	0.00899311	0.01809291	0.00245290	0.01857699	0.00244171	0.00499456	0.00237210	0.00672988	0.00398147	0.00663301	0.00326473	0.00480120	0.00176819	0.01386482	0.01395208	0.01766295	0.01276021	0.00972159	0.01851399	0.02077620	0.01587766	0.01348748	0.00619259
0.15000000	0.00348527	0.00256481	0.00891669	0.01779154	0.00203124	0.01740355	0.00221640	0.00465166	0.00241746	0.00711323	0.00466373	0.00692183	0.00348170	0.00481352	0.00167525	0.01398074	0.01380586	0.01750400	0.01283362	0.00967655	0.01839867	0.02097315	0.01554597	0.01354133	0.00550729
0.16000000	0.00330748	0.00254869	0.00880564	0.01723297	0.00188067	0.01592492	0.00196729	0.00416026	0.00230917	0.00738445	0.00545105	0.00738581	0.00365834	0.00492554	0.00179721	0.01404792	0.01380812	0.01732013	0.01284491	0.00967476	0.01819484	0.02114805	0.01532372	0.01368916	0.00491549
0.17000000	0.00291175	0.00242089	0.00868938	0.01613927	0.00227344	0.01432094	0.00161262	0.00369427	0.00213689	0.00779236	0.00625957	0.00780318	0.00387809	0.00495781	0.00190864	0.01423876	0.01376291	0.01715909	0.01278102	0.00974976	0.01796731	0.02147282	0.01497526	0.01389441	0.00429949
0.18000000	0.00192740	0.00237274	0.00835360	0.01465351	0.00367376	0.01265133	0.00159043	0.00380550	0.00216621	0.00828730	0.00680734	0.00797567	0.00393241	0.00528105	0.00274950	0.01458889	0.01394405	0.01678108	0.01247297	0.00971576	0.01745992	0.02195903	0.01492671	0.01443928	0.00384571
0.19000000	0.00237368	0.00231893	0.00867807	0.01257858	0.00305399	0.01026031	0.00114307	0.00273260	0.00158294	0.00847099	0.00741296	0.00852383	0.00395491	0.00538754	0.00230489	0.01451430	0.01382776	0.01680638	0.01269424	0.00995212	0.01760029	0.02207615	0.01443534	0.01428711	0.00316103
0.20000000	0.00230082	0.00251116	0.00866425	0.00996117	0.00338746	0.00826466	0.00129671	0.00245414	0.00153916	0.00892382	0.00766794	0.00858395	0.00389904	0.00554450	0.00230481	0.01487190	0.01395383	0.01639598	0.01240957	0.00990221	0.01722103	0.02265679	0.01434371	0.01475582	0.00275155
0.21000000	0.00247989	0.00225988	0.00911216	0.00696036	0.00321303	0.00543065	0.00186662	0.00193305	0.00083300	0.00887312	0.00784049	0.00915425	0.00392159	0.00585276	0.00255585	0.01478713	0.01401382	0.01645235	0.01245612	0.01033322	0.01720683	0.02279755	0.01396121	0.01474887	0.00218958
0.22000000	0.00293753	0.00224982	0.00953411	0.00411605	0.00280079	0.00324672	0.00238884	0.00167467	0.00043813	0.00897343	0.00772353	0.00936227	0.00381627	0.00608533	0.00262513	0.01503812	0.01405292	0.01628573	0.01232778	0.01058747	0.01708670	0.02313551	0.01370402	0.01498130	0.00165540
0.23000000	0.00434506	0.00254833	0.01010357	0.00322112	0.00257655	0.00278362	0.00307806	0.00153799	0.00061978	0.00914224	0.00719790	0.00943454	0.00361883	0.00632099	0.00247091	0.01529661	0.01424597	0.01598822	0.01203841	0.01078456	0.01677264	0.02351783	0.01368465	0.01537625	0.00132625
0.24000000	0.00545019	0.00259742	0.01076882	0.00547438	0.00212171	0.00453739	0.00370849	0.00204596	0.00084171	0.00929614	0.00688820	0.00943613	0.00356456	0.00643921	0.00251318	0.01542365	0.01432767	0.01586886	0.01190358	0.01114989	0.01667978	0.02385064	0.01343479	0.01558400	0.00087784
0.25000000	0.00624876	0.00254424	0.01154008	0.00859756	0.00200915	0.00663384	0.00442803	0.00279108	0.00137508	0.00938987	0.00643251	0.00945083	0.00349672	0.00654948	0.00263879	0.01548606	0.01439724	0.01582925	0.01180761	0.01157426	0.01666818	0.02403194	0.01315753	0.01572893	0.00045724
0.26000000	0.00694229	0.00277421	0.01227116	0.01086616	0.00294022	0.00904913	0.00534226	0.00387774	0.00181166	0.00965488	0.00587286	0.00927119	0.00329952	0.00682609	0.00287608	0.01551009	0.01453688	0.01572107	0.01163803	0.01193534	0.01654484	0.02428852	0.01302840	0.01585050	0.00019218
0.27000000	0.00839679	0.00294707	0.01318187	0.01275754	0.00351791	0.01025335	0.00583816	0.00422416	0.00218846	0.00985251	0.00536728	0.00912292	0.00329062	0.00683105	0.00282683	0.01566361	0.01467016	0.01549643	0.01142761	0.01210959	0.01642708	0.02449498	0.01303729	0.01608829	0.00010208
0.28000000	0.00929680	0.00335262	0.01392675	0.01367846	0.00395499	0.01078489	0.00619188	0.00410238	0.00263538	0.00999606	0.00483425	0.00895890	0.00318840	0.00699369	0.00307397	0.01580126	0.01493936	0.01519977	0.01111210	0.01216164	0.01616748	0.02480218	0.01323453	0.01632123	0.00035595
0.29000000	0.00947159	0.00403813	0.01422532	0.01314913	0.00342470	0.01107752	0.00606439	0.00438838	0.00220785	0.01035235	0.00533828	0.00866263	0.00332473	0.00705636	0.00305398	0.01617388	0.01505842	0.01483187	0.01075335	0.01218803	0.01588135	0.02523820	0.01342446	0.01668838	0.00033480
0.30000000	0.00966411	0.00494900	0.01463806	0.01205584	0.00275111	0.01023676	0.00574011	0.00405043	0.00219043	0.01068538	0.00566843	0.00833918	0.00344405	0.00714762	0.00328492	0.01651111	0.01533894	0.01440200	0.01033364	0.01207812	0.01547788	0.02561719	0.01390451	0.01698780	0.00028075
0.31000000	0.00975717	0.00598111	0.01470108	0.01037309	0.00223556	0.00872469	0.00555263	0.00358282	0.00212942	0.01098889	0.00615383	0.00788786	0.00361125	0.00713447	0.00370748	0.01695339	0.01554883	0.01396296	0.00994345	0.01184648	0.01518602	0.02615302	0.01426827	0.01747296	0.00028484
0.32000000	0.01017732	0.00695318	0.01474082	0.00807811	0.00151197	0.00705211	0.00527485	0.00385141	0.00199295	0.01149421	0.00661043	0.00699760	0.00389314	0.00687318	0.00368699	0.01740042	0.01578331	0.01355013	0.00961259	0.01153550	0.01498221	0.02664561	0.01467884	0.01801442	0.00029077
0.33000000	0.00929734	0.00838513	0.01484551	0.00592309	0.00156678	0.00541848	0.00532721	0.00389177	0.00225810	0.01122684	0.00766744	0.00708428	0.00466326	0.00656298	0.00391525	0.01748239	0.01610444	0.01338497	0.00940626	0.01147007	0.01477549	0.02665973	0.01525475	0.01812858	0.00004993
0.34000000	0.00953748	0.00933732	0.01477112	0.00385423	0.00171313	0.00423894	0.00518073	0.00475889	0.00233046	0.01133628	0.00774458	0.00613800	0.00495762	0.00614045	0.00411158	0.01777420	0.01640312	0.01313606	0.00920481	0.01118357	0.01471824	0.02699433	0.01574568	0.01844609	0.00023503
0.35000000	0.00903552	0.01044416	0.01466520	0.00210554	0.00272598	0.00401077	0.00544400	0.00494847	0.00252687	0.01079777	0.00777311	0.00577701	0.00539631	0.00567764	0.00486032	0.01779440	0.01672156	0.01311622	0.00914067	0.01119391	0.01469066	0.02686669	0.01631083	0.01846836	0.00049599
0.36000000	0.00866049	0.01107258	0.01438554	0.00154106	0.00341883	0.00440061	0.00546536	0.00532410	0.00244901	0.01006829	0.00754231	0.00521885	0.00584976	0.00499135	0.00539095	0.01777710	0.01696296	0.01320019	0.00918740	0.01120721	0.01488397	0.02672267	0.01669712	0.01842609	0.00074966
0.37000000	0.00809829	0.01139204	0.01401178	0.00215093	0.00393652	0.00498815	0.00538581	0.00555220	0.00219515	0.00896129	0.00702882	0.00484693	0.00626722	0.00418013	0.00554431	0.01760160	0.01708767	0.01344750	0.00943771	0.01133086	0.01529713	0.02629842	0.01691892	0.01828185	0.00089764
0.38000000	0.00751392	0.01128377	0.01360963	0.00286235	0.00425756	0.00553358	0.00511458	0.00568104	0.00198714	0.00750062	0.00620817	0.00464916	0.00656349	0.00342092	0.00529597	0.01732107	0.01707728	0.01380657	0.00979984	0.01151756	0.01586256	0.02574164	0.01693041	0.01798001	0.00101144
0.39000000	0.00633760	0.01102388	0.01301267	0.00342321	0.00465787	0.00571595	0.00488915	0.00547339	0.00160894	0.00563539	0.00512622	0.00472566	0.00656143	0.00255758	0.00548469	0.01689664	0.01706804	0.01423672	0.01025706	0.01181693	0.01641440	0.02501760	0.01689174	0.01750076	0.00126750
0.40000000	0.00494035	0.01049945	0.01234351	0.00361215	0.00428083	0.00579447	0.00435365	0.00540087	0.00169685	0.00390585	0.00397557	0.00479766	0.00615461	0.00231276	0.00498461	0.01649734	0.01701067	0.01460160	0.01072059	0.01201568	0.01695832	0.02423688	0.01678450	0.01698325	0.00151504
0.41000000	0.00432580	0.00930805	0.01188645	0.00380693	0.00450698	0.00577084	0.00394001	0.00529057	0.00149558	0.00151631	0.00297362	0.00552344	0.00584924	0.00159407	0.00431232	0.01596066	0.01670387	0.01512891	0.01135134	0.01234008	0.01766584	0.02328689	0.01630203	0.01628196	0.00162482
0.42000000	0.00394130	0.00821376	0.01135310	0.00395944	0.00434042	0.00571701	0.00345585	0.00521548	0.00149637	0.00133450	0.00292630	0.00647797	0.00536770	0.00117812	0.00340657	0.01551640	0.01641544	0.01554538	0.01187682	0.01261766	0.01815238	0.02237534	0.01587076	0.01555881	0.00180250
0.43000000	0.00426713	0.00694529	0.01061325	0.00385960	0.00369422	0.00543315	0.00283831	0.00515578	0.00167512	0.00225751	0.00339387	0.00824586	0.00410815	0.00209882	0.00190424	0.01524952	0.01630867	0.01566148	0.01213618	0.01259943	0.01833605	0.02177143	0.01560859	0.01503565	0.00217970
0.44000000	0.00455363	0.00594172	0.00998436	0.00410870	0.00355248	0.00530201	0.00250023	0.00513891	0.00148665	0.00456316	0.00452141	0.00991430	0.00361408	0.00191870	0.00090278	0.01502979	0.01603471	0.01586840	0.01239823	0.01274996	0.01845227	0.02117198	0.01515606	0.01443576	0.00250931
0.45000000	0.00501892	0.00516399	0.00940600	0.00423780	0.00326428	0.00519166	0.00221462	0.00504484	0.00150139	0.00649705	0.00569419	0.01190342	0.00321953	0.00224858	0.00089235	0.01476155	0.01589027	0.01600047	0.01261122	0.01278942	0.01847644	0.02063286	0.01485093	0.01382946	0.00296599
0.46000000	0.00554705	0.00456863	0.00874499	0.00437844	0.00311369	0.00500532	0.00195098	0.00465104	0.00149476	0.00771074	0.00647642	0.01435928	0.00291886	0.00306629	0.00178040	0.01462027	0.01572191	0.01605912	0.01275500	0.01278847	0.01840678	0.02032323	0.01456122	0.01336914	0.00347039
0.47000000	0.00588270	0.00326868	0.00834284	0.00457649	0.00291690	0.00483312	0.00184901	0.00470885	0.00141219	0.00944675	0.00765536	0.01637907	0.00319977	0.00358170	0.00268297	0.01457733	0.01551362	0.01611986	0.01292154	0.01271261	0.01842634	0.02002851	0.01426807	0.01291729	0.00399652
0.48000000	0.00645759	0.00287152	0.00788603	0.00457379	0.00259302	0.00464021	0.00169202	0.00434587	0.00138050	0.01023083	0.00840133	0.01880902	0.00336906	0.00441550	0.00332045	0.01451089	0.01538074	0.01610312	0.01300841	0.01259238	0.01835766	0.01996743	0.01409879	0.01258238	0.00453138
0.49000000	0.00666011	0.00215870	0.00764452	0.00466960	0.00236067	0.00447380	0.00167544	0.00426780	0.00126068	0.01130674	0.00937350	0.02079441	0.00378027	0.00501422	0.00382635	0.01452634	0.01524451	0.01604401	0.01309551	0.01238030	0.01834727	0.01996630	0.01401080	0.01223761	0.00514730
0.50000000	0.00678075	0.00230541	0.00751083	0.00474016	0.00210978	0.00431759	0.00162890	0.00413270	0.00117353	0.01205630	0.01016130	0.02270781	0.00414871	0.00563356	0.00419983	0.01451927	0.01515665	0.01595231	0.01315981	0.01212470	0.01836808	0.02000567	0.01396477	0.01195395	0.00578188
0.51000000	0.00676269	0.00276288	0.00731661	0.00492156	0.00221583	0.00413024	0.00173929	0.00373601	0.00121675	0.01257125	0.01076414	0.02447794	0.00444099	0.00625945	0.00465872	0.01450023	0.01490868	0.01587427	0.01338824	0.01175363	0.01863044	0.02013348	0.01383341	0.01167286	0.00632056
0.52000000	0.00649824	0.00353289	0.00722994	0.00500370	0.00188888	0.00404021	0.00180152	0.00361273	0.00112782	0.01295750	0.01135223	0.02602937	0.00469315	0.00672868	0.00488152	0.01456021	0.01489391	0.01561842	0.01335547	0.01130758	0.01863253	0.02030252	0.01402132	0.01144985	0.00693831
0.53000000	0.00678786	0.00494515	0.00777369	0.00508053	0.00120910	0.00397743	0.00173896	0.00352592	0.00088921	0.01396081	0.01202279	0.02664841	0.00492136	0.00666146	0.00475332	0.01427427	0.01506084	0.01548499	0.01338537	0.01099803	0.01868054	0.02006642	0.01430167	0.01097322	0.00760812
0.54000000	0.00613280	0.00526143	0.00762888	0.00534521	0.00125167	0.00388330	0.00192635	0.00334588	0.00089258	0.01426966	0.01221748	0.02771577	0.00509191	0.00700544	0.00498450	0.01434579	0.01502367	0.01515534	0.01337795	0.01038938	0.01878015	0.02019602	0.01453792	0.01073301	0.00817314
0.55000000	0.00576340	0.00627063	0.00796793	0.00556712	0.00117150	0.00399698	0.00205109	0.00319627	0.00065982	0.01472325	0.01219326	0.02811302	0.00517040	0.00716304	0.00513570	0.01410297	0.01513651	0.01495179	0.01344007	0.00993541	0.01891915	0.02002001	0.01484997	0.01020669	0.00867617
0.56000000	0.00504636	0.00627016	0.00792456	0.00594294	0.00133614	0.00404815	0.00234858	0.00310376	0.00086738	0.01518938	0.01198784	0.02844085	0.00534208	0.00726009	0.00518949	0.01409466	0.01517454	0.01462060	0.01339940	0.00939346	0.01894276	0.02010737	0.01504040	0.00987876	0.00930385
0.57000000	0.00434649	0.00640984	0.00801645	0.00626192	0.00127935	0.00411765	0.00237846	0.00297306	0.00048105	0.01573148	0.01157234	0.02832081	0.00544706	0.00739515	0.00528534	0.01393771	0.01528127	0.01436298	0.01345059	0.00884493	0.01906784	0.01985115	0.01551505	0.00936943	0.00969489
0.58000000	0.00379882	0.00643358	0.00819382	0.00661771	0.00132094	0.00428844	0.00248031	0.00292838	0.00033285	0.01618389	0.01091009	0.02794741	0.00560792	0.00737237	0.00524111	0.01376427	0.01534937	0.01417171	0.01353719	0.00843012	0.01917376	0.01960095	0.01583572	0.00885894	0.01014495
0.59000000	0.00344947	0.00680694	0.00865621	0.00701203	0.00138175	0.00452330	0.00262692	0.00287586	0.00022758	0.01635598	0.00996126	0.02732150	0.00565748	0.00736238	0.00519530	0.01357825	0.01536969	0.01410557	0.01372500	0.00819260	0.01937913	0.01919793	0.01599914	0.00825088	0.01051042
0.60000000	0.00295934	0.00623897	0.00869182	0.00741145	0.00135828	0.00467854	0.00261596	0.00283904	0.00018940	0.01678793	0.00903129	0.02658878	0.00580853	0.00737031	0.00516826	0.01349264	0.01556499	0.01389511	0.01372840	0.00785617	0.01936830	0.01897762	0.01639844	0.00777742	0.01097431
0.61000000	0.00260566	0.00640098	0.00923872	0.00800074	0.00147614	0.00480744	0.00280118	0.00263583	0.00019216	0.01689689	0.00788853	0.02562140	0.00568317	0.00750586	0.00510956	0.01339987	0.01549020	0.01394725	0.01399557	0.00777959	0.01959430	0.01852295	0.01658320	0.00719994	0.01118674
0.62000000	0.00249831	0.00552593	0.00917319	0.00827709	0.00147901	0.00507220	0.00275286	0.00273168	0.00039359	0.01727391	0.00679862	0.02473669	0.00584773	0.00742509	0.00510197	0.01337049	0.01582201	0.01376164	0.01395400	0.00753748	0.01953350	0.01829570	0.01700507	0.00664986	0.01181348
0.63000000	0.00233221	0.00507598	0.00935728	0.00873402	0.00151018	0.00530153	0.00273332	0.00268578	0.00040672	0.01746421	0.00570805	0.02380660	0.00577477	0.00738599	0.00507177	0.01335569	0.01604694	0.01371220	0.01401525	0.00747254	0.01957339	0.01798313	0.01735395	0.00613302	0.01219070
0.64000000	0.00206196	0.00533602	0.00971798	0.00914116	0.00169403	0.00567335	0.00279980	0.00268883	0.00056028	0.01759715	0.00455387	0.02269462	0.00561943	0.00734143	0.00492994	0.01339566	0.01609317	0.01382588	0.01422386	0.00757336	0.01977249	0.01754607	0.01749434	0.00553661	0.01250717
0.65000000	0.00189705	0.00513351	0.00988812	0.00958391	0.00193022	0.00598706	0.00280191	0.00265702	0.00066622	0.01764980	0.00350744	0.02170646	0.00540088	0.00732982	0.00484725	0.01347108	0.01629687	0.01385805	0.01430350	0.00764132	0.01988855	0.01720159	0.01776310	0.00500712	0.01282878
0.66000000	0.00177906	0.00490295	0.01005231	0.01006191	0.00224501	0.00628570	0.00280478	0.00261088	0.00073703	0.01755788	0.00252034	0.02072248	0.00513088	0.00722146	0.00461449	0.01359466	0.01645994	0.01391479	0.01436693	0.00774852	0.01999753	0.01685842	0.01804196	0.00450495	0.01313545
0.67000000	0.00160077	0.00480016	0.01011251	0.01047403	0.00257891	0.00669255	0.00275152	0.00261112	0.00081348	0.01724045	0.00177031	0.01953468	0.00467576	0.00707521	0.00457002	0.01374218	0.01672959	0.01391835	0.01432559	0.00788300	0.02006723	0.01655916	0.01828732	0.00408275	0.01353778
0.68000000	0.00147784	0.00267414	0.01032433	0.01101764	0.00309290	0.00690251	0.00289527	0.00256641	0.00156935	0.01618590	0.00218118	0.01883108	0.00406651	0.00769573	0.00464204	0.01390805	0.01722641	0.01369349	0.01401608	0.00785794	0.01993466	0.01653361	0.01860316	0.00378665	0.01418252
0.69000000	0.00139710	0.00429156	0.01036168	0.01137980	0.00333225	0.00731933	0.00266533	0.00243736	0.00098813	0.01530953	0.00141427	0.01663926	0.00352343	0.00697243	0.00409979	0.01404688	0.01715633	0.01393166	0.01422137	0.00813856	0.02033429	0.01600518	0.01883347	0.00328177	0.01407705
0.70000000	0.00143770	0.00399577	0.01050640	0.01172747	0.00371197	0.00777035	0.00255462	0.00241430	0.00093039	0.01381253	0.00198797	0.01455030	0.00300503	0.00653459	0.00380946	0.01420875	0.01738151	0.01390677	0.01406814	0.00832544	0.02042420	0.01576659	0.01907022	0.00296131	0.01443171
0.71000000	0.00142048	0.00339181	0.01075591	0.01213104	0.00398276	0.00804766	0.00242100	0.00231193	0.00091522	0.01174227	0.00238436	0.01223635	0.00255625	0.00630920	0.00347752	0.01428448	0.01764830	0.01384588	0.01389646	0.00846893	0.02058335	0.01553313	0.01937013	0.00263702	0.01470729
0.72000000	0.00148072	0.00292406	0.01112388	0.01244818	0.00415319	0.00839893	0.00229098	0.00219290	0.00091156	0.00927096	0.00259519	0.00962370	0.00234541	0.00599630	0.00309704	0.01443201	0.01784063	0.01376817	0.01365733	0.00863448	0.02067000	0.01535533	0.01968793	0.00241217	0.01497987
0.73000000	0.00149840	0.00216574	0.01160538	0.01276391	0.00418440	0.00866343	0.00211313	0.00207307	0.00084877	0.00659844	0.00259611	0.00694285	0.00236003	0.00563073	0.00274793	0.01450347	0.01804537	0.01369054	0.01342106	0.00878491	0.02081292	0.01514076	0.02010515	0.00215640	0.01518236
0.74000000	0.00173856	0.00136870	0.01246418	0.01317270	0.00412606	0.00890709	0.00197308	0.00201970	0.00079886	0.00408568	0.00254656	0.00443425	0.00258780	0.00546398	0.00242712	0.01456654	0.01836639	0.01343553	0.01294964	0.00897285	0.02074000	0.01526695	0.02034424	0.00214368	0.01556675
0.75000000	0.00156143	0.00152351	0.01304657	0.01342172	0.00422860	0.00911400	0.00188134	0.00177762	0.00071339	0.00319764	0.00246728	0.00161564	0.00322537	0.00459976	0.00204794	0.01466381	0.01831149	0.01359856	0.01286259	0.00938848	0.02101500	0.01484668	0.02060773	0.00191056	0.01547887
0.76000000	0.00163928	0.00238045	0.01427098	0.01369268	0.00410828	0.00940494	0.00180231	0.00171841	0.00065447	0.00464948	0.00305942	0.00139282	0.00395209	0.00423186	0.00197973	0.01474265	0.01838344	0.01349093	0.01246023	0.00968368	0.02090323	0.01489316	0.02087450	0.00193015	0.01557620
0.77000000	0.00156332	0.00375064	0.01534347	0.01399489	0.00407076	0.00939617	0.00192662	0.00151905	0.00028780	0.00672056	0.00390453	0.00259318	0.00460288	0.00366966	0.00250883	0.01467529	0.01843521	0.01348618	0.01229737	0.00985468	0.02116434	0.01477849	0.02104368	0.00188026	0.01565675
0.78000000	0.00161197	0.00406268	0.01578206	0.01425221	0.00386121	0.00942123	0.00201013	0.00140039	0.00058051	0.00701680	0.00495439	0.00485319	0.00535871	0.00398757	0.00180798	0.01476699	0.01872336	0.01340464	0.01187195	0.01007688	0.02115994	0.01469111	0.02158827	0.00186149	0.01564111
0.79000000	0.00156412	0.00475977	0.01663023	0.01436686	0.00375787	0.00962088	0.00215111	0.00136491	0.00064949	0.00788984	0.00515293	0.00542384	0.00547803	0.00412664	0.00197102	0.01465965	0.01898636	0.01330816	0.01149215	0.01025207	0.02115757	0.01470773	0.02191664	0.00190991	0.01566463
0.80000000	0.00197079	0.00450838	0.01706142	0.01462418	0.00381499	0.00963823	0.00221363	0.00126631	0.00055393	0.00783591	0.00476271	0.00569571	0.00535353	0.00449118	0.00194621	0.01464744	0.01911655	0.01329199	0.01116256	0.01039119	0.02111922	0.01481024	0.02223484	0.00205110	0.01565979
0.81000000	0.00259871	0.00419034	0.01739108	0.01466236	0.00419418	0.01000904	0.00229829	0.00131399	0.00079120	0.00736745	0.00397680	0.00510329	0.00494420	0.00488676	0.00195626	0.01455884	0.01939063	0.01323215	0.01077256	0.01048690	0.02103120	0.01495722	0.02261090	0.00230479	0.01558528
0.82000000	0.00356415	0.00384904	0.01748482	0.01466194	0.00469684	0.01034030	0.00236721	0.00138014	0.00101028	0.00632171	0.00283359	0.00406208	0.00438562	0.00545036	0.00211773	0.01448017	0.01977169	0.01314619	0.01032930	0.01050748	0.02088375	0.01518048	0.02304279	0.00260176	0.01561338
0.83000000	0.00463385	0.00389485	0.01756842	0.01485735	0.00500671	0.01015448	0.00238293	0.00139197	0.00146481	0.00472956	0.00233413	0.00286034	0.00410391	0.00607556	0.00226085	0.01440027	0.02023530	0.01300867	0.00984455	0.01043104	0.02066752	0.01555169	0.02355541	0.00296961	0.01568085
0.84000000	0.00616879	0.00351027	0.01751621	0.01460803	0.00594269	0.01068567	0.00252231	0.00146439	0.00169683	0.00334253	0.00186338	0.00177001	0.00386014	0.00647766	0.00252444	0.01428688	0.02053796	0.01306405	0.00952885	0.01046124	0.02052740	0.01585344	0.02381602	0.00336029	0.01563602
0.85000000	0.00724200	0.00386423	0.01753355	0.01468582	0.00614930	0.01012735	0.00266594	0.00125431	0.00215654	0.00194649	0.00175383	0.00201088	0.00390059	0.00682353	0.00274718	0.01419557	0.02096148	0.01307040	0.00920788	0.01033912	0.02040031	0.01622553	0.02418788	0.00379780	0.01575524
0.86000000	0.00833928	0.00413639	0.01746839	0.01452222	0.00628783	0.00961928	0.00288596	0.00108693	0.00275041	0.00134690	0.00177560	0.00324707	0.00401019	0.00695653	0.00283105	0.01422613	0.02126361	0.01318207	0.00892444	0.01025255	0.02018916	0.01662543	0.02450935	0.00429503	0.01586233
0.87000000	0.00935562	0.00416958	0.01739999	0.01408659	0.00612379	0.00930678	0.00321713	0.00099036	0.00369231	0.00176674	0.00209771	0.00442767	0.00429287	0.00673881	0.00280635	0.01417763	0.02143931	0.01342802	0.00876531	0.01035600	0.01999606	0.01708190	0.02451444	0.00481182	0.01595865
0.88000000	0.01008232	0.00425755	0.01731696	0.01339513	0.00584474	0.00883940	0.00371840	0.00089623	0.00439696	0.00262780	0.00233406	0.00527851	0.00440801	0.00645444	0.00262207	0.01416019	0.02143634	0.01383413	0.00876146	0.01047861	0.01988475	0.01740590	0.02438123	0.00527140	0.01607069
0.89000000	0.01040711	0.00434702	0.01703914	0.01249696	0.00530816	0.00805548	0.00430311	0.00103336	0.00480600	0.00333352	0.00241548	0.00585508	0.00436507	0.00616333	0.00232589	0.01409011	0.02138771	0.01432032	0.00891881	0.01057008	0.01996622	0.01756222	0.02423310	0.00563078	0.01625338
0.90000000	0.01054892	0.00406497	0.01683500	0.01126698	0.00443690	0.00748442	0.00485858	0.00120010	0.00548163	0.00388519	0.00276082	0.00606742	0.00430763	0.00563152	0.00198477	0.01403070	0.02109576	0.01492437	0.00915551	0.01083039	0.01998196	0.01772543	0.02373430	0.00601566	0.01638784
0.91000000	0.01022634	0.00375565	0.01661126	0.00977904	0.00339541	0.00673794	0.00535052	0.00147747	0.00579396	0.00420850	0.00293766	0.00609075	0.00411460	0.00518472	0.00175514	0.01394845	0.02068174	0.01554792	0.00950928	0.01106975	0.02010613	0.01778105	0.02314688	0.00635521	0.01649439
0.92000000	0.00975313	0.00334550	0.01628619	0.00825150	0.00219706	0.00571382	0.00572648	0.00161682	0.00575598	0.00399097	0.00251882	0.00600864	0.00354456	0.00515809	0.00183434	0.01384691	0.02026894	0.01609376	0.00986021	0.01121833	0.02025705	0.01778406	0.02254028	0.00664046	0.01658192
0.93000000	0.00875552	0.00324812	0.01600373	0.00639625	0.00101031	0.00501755	0.00597083	0.00179564	0.00549596	0.00410663	0.00276947	0.00579779	0.00325489	0.00497425	0.00171397	0.01368494	0.01971834	0.01673736	0.01032637	0.01150036	0.02052024	0.01760267	0.02177618	0.00683080	0.01650275
0.94000000	0.00775734	0.00338735	0.01565136	0.00461699	0.00048646	0.00432161	0.00606569	0.00179386	0.00498454	0.00412147	0.00280418	0.00556840	0.00290749	0.00489410	0.00172492	0.01353728	0.01920154	0.01726623	0.01072997	0.01173186	0.02072482	0.01743109	0.02104411	0.00705748	0.01637962
0.95000000	0.00696772	0.00361922	0.01515107	0.00319105	0.00099993	0.00374139	0.00600132	0.00166011	0.00421424	0.00409487	0.00275630	0.00536273	0.00258065	0.00483060	0.00178735	0.01344194	0.01880998	0.01762105	0.01101101	0.01185684	0.02083542	0.01733337	0.02048355	0.00734453	0.01622562
0.96000000	0.00613236	0.00402512	0.01461844	0.00217426	0.00172489	0.00375548	0.00580192	0.00157692	0.00332148	0.00398862	0.00274439	0.00514635	0.00226037	0.00500846	0.00195403	0.01333399	0.01845858	0.01794314	0.01129333	0.01196975	0.02097680	0.01720104	0.01992479	0.00763400	0.01598241
0.97000000	0.00595426	0.00428508	0.01387997	0.00228078	0.00194463	0.00450519	0.00549283	0.00115126	0.00233802	0.00398419	0.00265467	0.00497469	0.00206678	0.00485154	0.00201390	0.01337413	0.01820371	0.01809062	0.01138611	0.01203947	0.02086260	0.01725854	0.01965163	0.00805510	0.01575680
0.98000000	0.00536836	0.00470013	0.01329618	0.00322433	0.00251308	0.00566630	0.00507499	0.00081784	0.00144490	0.00392092	0.00256385	0.00477762	0.00194911	0.00499056	0.00201842	0.01338477	0.01795333	0.01826723	0.01153654	0.01213280	0.02082427	0.01728837	0.01935346	0.00845820	0.01544595
0.99000000	0.00480801	0.00513877	0.01268408	0.00441283	0.00316860	0.00703669	0.00464271	0.00037240	0.00065800	0.00383916	0.00252664	0.00454790	0.00187799	0.00508858	0.00210723	0.01336210	0.01779450	0.01844187	0.01169978	0.01220510	0.02084304	0.01725177	0.01916729	0.00879049	0.01513783
1.00000000	0.00413756	0.00556533	0.01219999	0.00557598	0.00380847	0.00856586	0.00418347	0.00024723	0.00022516	0.00375025	0.00241239	0.00431333	0.00186619	0.00523017	0.00210519	0.01337339	0.01763887	0.01859477	0.01183008	0.01229912	0.02079491	0.01726709	0.01907684	0.00915167	0.01481989
1.01000000	0.00307338	0.00588514	0.01184127	0.00686760	0.00463590	0.00999424	0.00378172	0.00071434	0.00093212	0.00363161	0.00242484	0.00402146	0.00186804	0.00549154	0.00222845	0.01339269	0.01752190	0.01873596	0.01194166	0.01236705	0.02076330	0.01727844	0.01902136	0.00947749	0.01452144
1.02000000	0.00267316	0.00636337	0.01154534	0.00755382	0.00505246	0.01191998	0.00339717	0.00152062	0.00108156	0.00342119	0.00221107	0.00394357	0.00190373	0.00530784	0.00214482	0.01342243	0.01737148	0.01882726	0.01203414	0.01238438	0.02069514	0.01734336	0.01904007	0.00978236	0.01420749
1.03000000	0.00167726	0.00641795	0.01130585	0.00858865	0.00569744	0.01361052	0.00309513	0.00214914	0.00160957	0.00327658	0.00228833	0.00373260	0.00194559	0.00540307	0.00219005	0.01343948	0.01730225	0.01883580	0.01205854	0.01231034	0.02060180	0.01740902	0.01913954	0.01007272	0.01397848
1.04000000	0.00121117	0.00672832	0.01127679	0.00923913	0.00606901	0.01546154	0.00281850	0.00295716	0.00172162	0.00302463	0.00194986	0.00368479	0.00195837	0.00535368	0.00210065	0.01347313	0.01714001	0.01886059	0.01207599	0.01224839	0.02048703	0.01748219	0.01917793	0.01028978	0.01364265
1.05000000	0.00087732	0.00678441	0.01128178	0.01002552	0.00642314	0.01719541	0.00260149	0.00360826	0.00195232	0.00282275	0.00178135	0.00362617	0.00195286	0.00537842	0.00211851	0.01347621	0.01700513	0.01880806	0.01205755	0.01208092	0.02036574	0.01755929	0.01922631	0.01047900	0.01333239
1.06000000	0.00090828	0.00626697	0.01102764	0.01089257	0.00679529	0.01892117	0.00246205	0.00423135	0.00226929	0.00290199	0.00195201	0.00367613	0.00208797	0.00530249	0.00206050	0.01355619	0.01691791	0.01860487	0.01192658	0.01176550	0.02015887	0.01774489	0.01933842	0.01071559	0.01307517
1.07000000	0.00190285	0.00635727	0.01129964	0.01186796	0.00689973	0.02006079	0.00233045	0.00465912	0.00240424	0.00281189	0.00176168	0.00381111	0.00207460	0.00527594	0.00205374	0.01348162	0.01670725	0.01855787	0.01191749	0.01158331	0.02005543	0.01777621	0.01923361	0.01078255	0.01260309
1.08000000	0.00178147	0.00562824	0.01088901	0.01270301	0.00703076	0.02143797	0.00228378	0.00514806	0.00267080	0.00307174	0.00197870	0.00400260	0.00226081	0.00517287	0.00188762	0.01365996	0.01663307	0.01820879	0.01166155	0.01111282	0.01972472	0.01802228	0.01934079	0.01104234	0.01229959
1.09000000	0.00288785	0.00548913	0.01117195	0.01351684	0.00685972	0.02205950	0.00219578	0.00535988	0.00286619	0.00321105	0.00200960	0.00428729	0.00230080	0.00508753	0.00179125	0.01356576	0.01633291	0.01814700	0.01168298	0.01089876	0.01966201	0.01807468	0.01910182	0.01105684	0.01162110
1.10000000	0.00260163	0.00475460	0.01075961	0.01438616	0.00674116	0.02266017	0.00228717	0.00569269	0.00310238	0.00358338	0.00220407	0.00441008	0.00238289	0.00504349	0.00178294	0.01371516	0.01619762	0.01779885	0.01145069	0.01042170	0.01936064	0.01834665	0.01901406	0.01130794	0.01120011
1.11000000	0.00353206	0.00449230	0.01091408	0.01521371	0.00638804	0.02249438	0.00225672	0.00569838	0.00317036	0.00385929	0.00235000	0.00478588	0.00247887	0.00497162	0.00179205	0.01366698	0.01584266	0.01771144	0.01150292	0.01020914	0.01931181	0.01838070	0.01864789	0.01136853	0.01053164
1.12000000	0.00284824	0.00387933	0.01037235	0.01588641	0.00604932	0.02242484	0.00240491	0.00592343	0.00338784	0.00435374	0.00245659	0.00491599	0.00250230	0.00501010	0.00174806	0.01376344	0.01574044	0.01734595	0.01126117	0.00974465	0.01900250	0.01874216	0.01847101	0.01165396	0.01005446
1.13000000	0.00355155	0.00368126	0.01043271	0.01632615	0.00544626	0.02172947	0.00239749	0.00580563	0.00338053	0.00469160	0.00268241	0.00542995	0.00260576	0.00495773	0.00171552	0.01376319	0.01539083	0.01726975	0.01131197	0.00958787	0.01895401	0.01881612	0.01804803	0.01174754	0.00929425
1.14000000	0.00264109	0.00336783	0.00986788	0.01679547	0.00497969	0.02105110	0.00252806	0.00581012	0.00346275	0.00521974	0.00280407	0.00569225	0.00261454	0.00508510	0.00170413	0.01389156	0.01528453	0.01694003	0.01110288	0.00924803	0.01862432	0.01917156	0.01782253	0.01209469	0.00879382
1.15000000	0.00332493	0.00320724	0.00996613	0.01691099	0.00424589	0.01987017	0.00242941	0.00551851	0.00336876	0.00561982	0.00311806	0.00630644	0.00269581	0.00506833	0.00174260	0.01385914	0.01494291	0.01693988	0.01121077	0.00923877	0.01860877	0.01927220	0.01727819	0.01221953	0.00800872
1.16000000	0.00228839	0.00311472	0.00942420	0.01706476	0.00372799	0.01882776	0.00243886	0.00526762	0.00331217	0.00628259	0.00332219	0.00659314	0.00268010	0.00522566	0.00179720	0.01405158	0.01482566	0.01664575	0.01103711	0.00902764	0.01827199	0.01967891	0.01700211	0.01264601	0.00747663
1.17000000	0.00306172	0.00291458	0.00952893	0.01673704	0.00301082	0.01731517	0.00221749	0.00480607	0.00311576	0.00659695	0.00367814	0.00734345	0.00275048	0.00530469	0.00191326	0.01400457	0.01453160	0.01671553	0.01116381	0.00922228	0.01822353	0.01983909	0.01640753	0.01287496	0.00666325
1.18000000	0.00242245	0.00298806	0.00920990	0.01618792	0.00265417	0.01610279	0.00195890	0.00435327	0.00301359	0.00717476	0.00394014	0.00769840	0.00268675	0.00555399	0.00178177	0.01418783	0.01445084	0.01655370	0.01106279	0.00925627	0.01792593	0.02017219	0.01611612	0.01319288	0.00610072
1.19000000	0.00260926	0.00293344	0.00919264	0.01538388	0.00234487	0.01444105	0.00165815	0.00380844	0.00269956	0.00760039	0.00430295	0.00824610	0.00275299	0.00566288	0.00189594	0.01422696	0.01429174	0.01658143	0.01111933	0.00952795	0.01779353	0.02040709	0.01564800	0.01348856	0.00538693
1.20000000	0.00200777	0.00300600	0.00878680	0.01432381	0.00291664	0.01300039	0.00145904	0.00348179	0.00235922	0.00812305	0.00454496	0.00851237	0.00282037	0.00577717	0.00225140	0.01455864	0.01425692	0.01633880	0.01092178	0.00962922	0.01740793	0.02091078	0.01542307	0.01416675	0.00478493
1.21000000	0.00271732	0.00285209	0.00914935	0.01253120	0.00248673	0.01079669	0.00120479	0.00289993	0.00193427	0.00847139	0.00483676	0.00903323	0.00280167	0.00595010	0.00215646	0.01438726	0.01415201	0.01658829	0.01109338	0.01024628	0.01740813	0.02102773	0.01489028	0.01419009	0.00413351
1.22000000	0.00286995	0.00283394	0.00917139	0.01037413	0.00258389	0.00875742	0.00122343	0.00258578	0.00161916	0.00875094	0.00494279	0.00937317	0.00275384	0.00617709	0.00227714	0.01455393	0.01413831	0.01655890	0.01100283	0.01067046	0.01719293	0.02140683	0.01458603	0.01462271	0.00355659
1.23000000	0.00323288	0.00281799	0.00938838	0.00777619	0.00254897	0.00645849	0.00151778	0.00229560	0.00118230	0.00907364	0.00503357	0.00964755	0.00278543	0.00629396	0.00241759	0.01462608	0.01418009	0.01658257	0.01093346	0.01120503	0.01702919	0.02173563	0.01431631	0.01497778	0.00303355
1.24000000	0.00366685	0.00278330	0.00970915	0.00486844	0.00231896	0.00409687	0.00194517	0.00205202	0.00077168	0.00934086	0.00499097	0.00985749	0.00278281	0.00645027	0.00250573	0.01478768	0.01421156	0.01659746	0.01082229	0.01178459	0.01689569	0.02210018	0.01406176	0.01534260	0.00251723
1.25000000	0.00428300	0.00284961	0.01017143	0.00230854	0.00197641	0.00215036	0.00244213	0.00185971	0.00049242	0.00956581	0.00484957	0.01001264	0.00277551	0.00660873	0.00256476	0.01494158	0.01427265	0.01661014	0.01068706	0.01240683	0.01678980	0.02247129	0.01384842	0.01570469	0.00202933
1.26000000	0.00551061	0.00293120	0.01072673	0.00314868	0.00168539	0.00253594	0.00298265	0.00184755	0.00054085	0.00990972	0.00463334	0.00995289	0.00273339	0.00674062	0.00254063	0.01515066	0.01442085	0.01652092	0.01045795	0.01295045	0.01663810	0.02294078	0.01374413	0.01617905	0.00167957
1.27000000	0.00668539	0.00308892	0.01163236	0.00616194	0.00176269	0.00458019	0.00367016	0.00210826	0.00080361	0.00994900	0.00409222	0.01021335	0.00271030	0.00698822	0.00249910	0.01525739	0.01456714	0.01655976	0.01028063	0.01365251	0.01654626	0.02315589	0.01368757	0.01639180	0.00133677
1.28000000	0.00761205	0.00298166	0.01240669	0.00913694	0.00183532	0.00660577	0.00425895	0.00283237	0.00126044	0.01030537	0.00404482	0.01001951	0.00266701	0.00700475	0.00285869	0.01537074	0.01465523	0.01658681	0.01016297	0.01427954	0.01659245	0.02346120	0.01350852	0.01673380	0.00095196
1.29000000	0.00809665	0.00293969	0.01309834	0.01115277	0.00288206	0.00901189	0.00502763	0.00400516	0.00156973	0.01042061	0.00423522	0.01003991	0.00267386	0.00723599	0.00290155	0.01544422	0.01478312	0.01660243	0.01007777	0.01487415	0.01665956	0.02378853	0.01340352	0.01692495	0.00068235
1.30000000	0.00944116	0.00307558	0.01402195	0.01287906	0.00356052	0.00993721	0.00535375	0.00425974	0.00183409	0.01067000	0.00415229	0.00980885	0.00271448	0.00729082	0.00286694	0.01570391	0.01496473	0.01639742	0.00983778	0.01516183	0.01659048	0.02413477	0.01351196	0.01728067	0.00053251
1.31000000	0.00978910	0.00336001	0.01457081	0.01296175	0.00413127	0.01118125	0.00550295	0.00473698	0.00190959	0.01073336	0.00459795	0.00976073	0.00275075	0.00738782	0.00302211	0.01599033	0.01517177	0.01617277	0.00957187	0.01543095	0.01645174	0.02454802	0.01368793	0.01760066	0.00045496
1.32000000	0.01053937	0.00369992	0.01523181	0.01253001	0.00398707	0.01100044	0.00533766	0.00453101	0.00185162	0.01104717	0.00458853	0.00935000	0.00265656	0.00747493	0.00346744	0.01632911	0.01554124	0.01575696	0.00913300	0.01543707	0.01605342	0.02500842	0.01413223	0.01808451	0.00052435
1.33000000	0.01122770	0.00442467	0.01566558	0.01129795	0.00327288	0.01009026	0.00487361	0.00443301	0.00138748	0.01162777	0.00512765	0.00857580	0.00268665	0.00740804	0.00359111	0.01683222	0.01578217	0.01525609	0.00883121	0.01523009	0.01586491	0.02550751	0.01454129	0.01857606	0.00060238
1.34000000	0.01016672	0.00523502	0.01582958	0.01016400	0.00214140	0.00831296	0.00453159	0.00358406	0.00145799	0.01116739	0.00712333	0.00917122	0.00343598	0.00726418	0.00312438	0.01707390	0.01594864	0.01501429	0.00863254	0.01521246	0.01571489	0.02583915	0.01478905	0.01870314	0.00059552
1.35000000	0.01024564	0.00627035	0.01604364	0.00814389	0.00155451	0.00658968	0.00425067	0.00325222	0.00144783	0.01142605	0.00804273	0.00872737	0.00382772	0.00709454	0.00322517	0.01748453	0.01623993	0.01454291	0.00831843	0.01491076	0.01539866	0.02627369	0.01529961	0.01909783	0.00077346
1.36000000	0.01048049	0.00743887	0.01615229	0.00596803	0.00150161	0.00498420	0.00416717	0.00329511	0.00159950	0.01175949	0.00857262	0.00800953	0.00403612	0.00693228	0.00377621	0.01793498	0.01662935	0.01402029	0.00793606	0.01451554	0.01496448	0.02677909	0.01594027	0.01949536	0.00107804
1.37000000	0.01077836	0.00848914	0.01620888	0.00392666	0.00164229	0.00377326	0.00424596	0.00364139	0.00188522	0.01201750	0.00916791	0.00718370	0.00445000	0.00649350	0.00409508	0.01837135	0.01696242	0.01357766	0.00767887	0.01411219	0.01469453	0.02715980	0.01653130	0.01982998	0.00135435
1.38000000	0.01062404	0.00969558	0.01628509	0.00235938	0.00224215	0.00326662	0.00445224	0.00401721	0.00206565	0.01184634	0.00987317	0.00679723	0.00514797	0.00588873	0.00434737	0.01850832	0.01727370	0.01335629	0.00757689	0.01382444	0.01454205	0.02723026	0.01704359	0.01996117	0.00165496
1.39000000	0.01092703	0.01066504	0.01623622	0.00175963	0.00238070	0.00362514	0.00446655	0.00484436	0.00213055	0.01188218	0.00992428	0.00560059	0.00534786	0.00544462	0.00413033	0.01875911	0.01755373	0.01305728	0.00756571	0.01332741	0.01455773	0.02744941	0.01754029	0.02018685	0.00196258
1.40000000	0.01067660	0.01142786	0.01613183	0.00195094	0.00358471	0.00380484	0.00485703	0.00465459	0.00244441	0.01119379	0.00978272	0.00514909	0.00593489	0.00453762	0.00530283	0.01884732	0.01795120	0.01293847	0.00744422	0.01315715	0.01436428	0.02733678	0.01812662	0.02016355	0.00239191
1.41000000	0.01053389	0.01187380	0.01596256	0.00246032	0.00420275	0.00424469	0.00502072	0.00482405	0.00237495	0.01040684	0.00941109	0.00441581	0.00639262	0.00372536	0.00542342	0.01880664	0.01813916	0.01294823	0.00761240	0.01291879	0.01456747	0.02714090	0.01843027	0.02003761	0.00270090
1.42000000	0.00989306	0.01215419	0.01570379	0.00292235	0.00480573	0.00460453	0.00507680	0.00470911	0.00225826	0.00923791	0.00877178	0.00389394	0.00671958	0.00282499	0.00567935	0.01859984	0.01827044	0.01308324	0.00789085	0.01278990	0.01485734	0.02668861	0.01861822	0.01976309	0.00302094
1.43000000	0.00850929	0.01250881	0.01527750	0.00314905	0.00462913	0.00488787	0.00483258	0.00457671	0.00225373	0.00780335	0.00809806	0.00365715	0.00696285	0.00204033	0.00571301	0.01824575	0.01829004	0.01330488	0.00833670	0.01268922	0.01530572	0.02606481	0.01863253	0.01931929	0.00329929
1.44000000	0.00776270	0.01189701	0.01495908	0.00363840	0.00512965	0.00520497	0.00481499	0.00429532	0.00197638	0.00602859	0.00678967	0.00372391	0.00693527	0.00136060	0.00539792	0.01780610	0.01819832	0.01361813	0.00885259	0.01272421	0.01578297	0.02529931	0.01843798	0.01873427	0.00360765
1.45000000	0.00667606	0.01122844	0.01444949	0.00392084	0.00468276	0.00536880	0.00459811	0.00417813	0.00196979	0.00431768	0.00552797	0.00423715	0.00656308	0.00136971	0.00476468	0.01738440	0.01807357	0.01385418	0.00939789	0.01266367	0.01626032	0.02450430	0.01818710	0.01811901	0.00387189
1.46000000	0.00600232	0.00999217	0.01400176	0.00436778	0.00451362	0.00554235	0.00454191	0.00398374	0.00180875	0.00242007	0.00429094	0.00541396	0.00605504	0.00131990	0.00389478	0.01688661	0.01780955	0.01416999	0.01001630	0.01270760	0.01676128	0.02361365	0.01770947	0.01737317	0.00409692
1.47000000	0.00556829	0.00878231	0.01359364	0.00492841	0.00467083	0.00588065	0.00446159	0.00374263	0.00156450	0.00203080	0.00392022	0.00656702	0.00565188	0.00111058	0.00301034	0.01631798	0.01741894	0.01460327	0.01068848	0.01295724	0.01722082	0.02260131	0.01705202	0.01646133	0.00425975
1.48000000	0.00558078	0.00753271	0.01300987	0.00532043	0.00439285	0.00618658	0.00433272	0.00354920	0.00154461	0.00323192	0.00422334	0.00821246	0.00510103	0.00121526	0.00190861	0.01591335	0.01710846	0.01487306	0.01119504	0.01309768	0.01745859	0.02180869	0.01647413	0.01570555	0.00448860
1.49000000	0.00611936	0.00601634	0.01236309	0.00570862	0.00373011	0.00597153	0.00422706	0.00346834	0.00172630	0.00427983	0.00481788	0.01049765	0.00419828	0.00183574	0.00075050	0.01566554	0.01686149	0.01498036	0.01159778	0.01301284	0.01760451	0.02121034	0.01599752	0.01509455	0.00484660
1.50000000	0.00630695	0.00490137	0.01172521	0.00605080	0.00349348	0.00609363	0.00411995	0.00346513	0.00159858	0.00638298	0.00597589	0.01224409	0.00392694	0.00192272	0.00050977	0.01546760	0.01657095	0.01514013	0.01196959	0.01304836	0.01767369	0.02067857	0.01553380	0.01445966	0.00515491
1.51000000	0.00674468	0.00400851	0.01106746	0.00640674	0.00312782	0.00587939	0.00373124	0.00325837	0.00166019	0.00738571	0.00664253	0.01470966	0.00352665	0.00269423	0.00136527	0.01534617	0.01650914	0.01518779	0.01216378	0.01301317	0.01759074	0.02030070	0.01521009	0.01396700	0.00568114
1.52000000	0.00704941	0.00311350	0.01063709	0.00661228	0.00277028	0.00593556	0.00336846	0.00314568	0.00159184	0.00891566	0.00768811	0.01667220	0.00343056	0.00310003	0.00204062	0.01514865	0.01640726	0.01528859	0.01241229	0.01300339	0.01753985	0.02002738	0.01498389	0.01345120	0.00615858
1.53000000	0.00729440	0.00135446	0.01044917	0.00705581	0.00316652	0.00607769	0.00297876	0.00248964	0.00217899	0.01036104	0.00852072	0.01857777	0.00340145	0.00342820	0.00309002	0.01499319	0.01598998	0.01553765	0.01291275	0.01297859	0.01789586	0.01992750	0.01437402	0.01301458	0.00651395
1.54000000	0.00751856	0.00155308	0.01015985	0.00709395	0.00215879	0.00608141	0.00250037	0.00292935	0.00138365	0.01120014	0.00944352	0.02061511	0.00356839	0.00423751	0.00297467	0.01492364	0.01632191	0.01536178	0.01280491	0.01280405	0.01753338	0.01978306	0.01480210	0.01267238	0.00726422
