Model Marker Errors from IK
version=1
nRows=256
nColumns=4
inDegrees=no
endheader
time	total_squared_error	marker_error_RMS	marker_error_max
      0.40000000	      0.00087200	      0.00568298	      0.01404447
      0.41000000	      0.00089755	      0.00576564	      0.01433475
      0.42000000	      0.00089426	      0.00575508	      0.01393590
      0.43000000	      0.00087200	      0.00568299	      0.01288796
      0.44000000	      0.00083661	      0.00556647	      0.01154745
      0.45000000	      0.00079052	      0.00541096	      0.00984540
      0.46000000	      0.00074168	      0.00524114	      0.00986470
      0.47000000	      0.00069656	      0.00507923	      0.00985052
      0.48000000	      0.00065386	      0.00492107	      0.00978236
      0.49000000	      0.00062648	      0.00481695	      0.00960736
      0.50000000	      0.00061039	      0.00475468	      0.00945355
      0.51000000	      0.00059619	      0.00469907	      0.00917751
      0.52000000	      0.00057900	      0.00463083	      0.00894366
      0.53000000	      0.00055515	      0.00453443	      0.00896038
      0.54000000	      0.00052810	      0.00442259	      0.00872636
      0.55000000	      0.00049727	      0.00429157	      0.00822880
      0.56000000	      0.00046522	      0.00415097	      0.00771167
      0.57000000	      0.00043546	      0.00401599	      0.00764245
      0.58000000	      0.00041412	      0.00391634	      0.00777647
      0.59000000	      0.00038227	      0.00376271	      0.00791960
      0.60000000	      0.00037313	      0.00371746	      0.00795639
      0.61000000	      0.00036963	      0.00369998	      0.00797507
      0.62000000	      0.00037160	      0.00370987	      0.00803034
      0.63000000	      0.00038105	      0.00375672	      0.00806539
      0.64000000	      0.00039973	      0.00384772	      0.00886413
      0.65000000	      0.00042947	      0.00398826	      0.00962965
      0.66000000	      0.00047542	      0.00419619	      0.00982929
      0.67000000	      0.00050884	      0.00434118	      0.01116946
      0.68000000	      0.00055526	      0.00453489	      0.01180747
      0.69000000	      0.00060328	      0.00472693	      0.01275115
      0.70000000	      0.00065714	      0.00493342	      0.01353072
      0.71000000	      0.00071814	      0.00515731	      0.01455992
      0.72000000	      0.00079597	      0.00542958	      0.01563967
      0.73000000	      0.00086755	      0.00566845	      0.01721957
      0.74000000	      0.00095091	      0.00593455	      0.01880248
      0.75000000	      0.00104455	      0.00621988	      0.02043918
      0.76000000	      0.00113960	      0.00649672	      0.02201413
      0.77000000	      0.00123508	      0.00676340	      0.02343579
      0.78000000	      0.00131694	      0.00698394	      0.02469070
      0.79000000	      0.00138646	      0.00716593	      0.02563630
      0.80000000	      0.00143443	      0.00728882	      0.02628259
      0.81000000	      0.00146292	      0.00736087	      0.02656447
      0.82000000	      0.00145846	      0.00734962	      0.02657647
      0.83000000	      0.00144291	      0.00731034	      0.02625631
      0.84000000	      0.00140358	      0.00721002	      0.02584683
      0.85000000	      0.00135643	      0.00708787	      0.02505253
      0.86000000	      0.00130963	      0.00696453	      0.02433347
      0.87000000	      0.00126324	      0.00684007	      0.02341010
      0.88000000	      0.00122813	      0.00674436	      0.02280881
      0.89000000	      0.00118799	      0.00663322	      0.02199043
      0.90000000	      0.00115311	      0.00653513	      0.02108299
      0.91000000	      0.00112205	      0.00644651	      0.02047192
      0.92000000	      0.00107983	      0.00632404	      0.01931496
      0.93000000	      0.00103498	      0.00619134	      0.01846316
      0.94000000	      0.00097710	      0.00601571	      0.01718562
      0.95000000	      0.00090380	      0.00578567	      0.01546151
      0.96000000	      0.00083347	      0.00555600	      0.01410952
      0.97000000	      0.00075024	      0.00527132	      0.01202166
      0.98000000	      0.00067471	      0.00499891	      0.01053242
      0.99000000	      0.00061662	      0.00477889	      0.01015572
      1.00000000	      0.00055681	      0.00454123	      0.01021035
      1.01000000	      0.00053828	      0.00446501	      0.01029800
      1.02000000	      0.00051775	      0.00437902	      0.01031349
      1.03000000	      0.00052534	      0.00441102	      0.01039610
      1.04000000	      0.00056093	      0.00455797	      0.01085559
      1.05000000	      0.00059658	      0.00470058	      0.01168183
      1.06000000	      0.00065597	      0.00492900	      0.01272671
      1.07000000	      0.00070717	      0.00511777	      0.01373317
      1.08000000	      0.00075852	      0.00530031	      0.01472274
      1.09000000	      0.00079974	      0.00544242	      0.01556506
      1.10000000	      0.00081745	      0.00550235	      0.01602845
      1.11000000	      0.00080640	      0.00546504	      0.01575455
      1.12000000	      0.00074877	      0.00526613	      0.01502636
      1.13000000	      0.00066841	      0.00497555	      0.01313641
      1.14000000	      0.00055995	      0.00455401	      0.01120918
      1.15000000	      0.00045289	      0.00409556	      0.00983361
      1.16000000	      0.00037180	      0.00371083	      0.00941974
      1.17000000	      0.00032831	      0.00348708	      0.00907666
      1.18000000	      0.00031887	      0.00343659	      0.00866245
      1.19000000	      0.00034170	      0.00355747	      0.00868466
      1.20000000	      0.00039203	      0.00381047	      0.00912437
      1.21000000	      0.00046531	      0.00415135	      0.01001175
      1.22000000	      0.00054277	      0.00448360	      0.01105340
      1.23000000	      0.00061711	      0.00478078	      0.01287963
      1.24000000	      0.00067930	      0.00501592	      0.01422820
      1.25000000	      0.00071656	      0.00515163	      0.01538414
      1.26000000	      0.00072907	      0.00519639	      0.01602170
      1.27000000	      0.00072336	      0.00517600	      0.01585465
      1.28000000	      0.00069802	      0.00508453	      0.01614527
      1.29000000	      0.00067111	      0.00498557	      0.01596750
      1.30000000	      0.00065396	      0.00492144	      0.01520880
      1.31000000	      0.00063882	      0.00486417	      0.01556713
      1.32000000	      0.00063857	      0.00486321	      0.01495200
      1.33000000	      0.00064355	      0.00488213	      0.01473822
      1.34000000	      0.00065282	      0.00491716	      0.01447078
      1.35000000	      0.00065862	      0.00493894	      0.01473338
      1.36000000	      0.00067989	      0.00501806	      0.01424696
      1.37000000	      0.00070239	      0.00510044	      0.01408365
      1.38000000	      0.00071031	      0.00512911	      0.01452965
      1.39000000	      0.00075658	      0.00529352	      0.01485534
      1.40000000	      0.00075542	      0.00528948	      0.01534341
      1.41000000	      0.00077705	      0.00536467	      0.01592613
      1.42000000	      0.00080434	      0.00545806	      0.01667587
      1.43000000	      0.00082155	      0.00551613	      0.01708809
      1.44000000	      0.00083948	      0.00557601	      0.01751349
      1.45000000	      0.00087079	      0.00567905	      0.01834755
      1.46000000	      0.00084407	      0.00559122	      0.01764313
      1.47000000	      0.00082104	      0.00551444	      0.01726437
      1.48000000	      0.00078750	      0.00540061	      0.01675772
      1.49000000	      0.00070433	      0.00510746	      0.01438534
      1.50000000	      0.00063076	      0.00483337	      0.01277448
      1.51000000	      0.00053133	      0.00443608	      0.01030440
      1.52000000	      0.00045859	      0.00412128	      0.01041562
      1.53000000	      0.00041511	      0.00392101	      0.01050526
      1.54000000	      0.00040862	      0.00389025	      0.01057769
      1.55000000	      0.00043639	      0.00402029	      0.01074093
      1.56000000	      0.00048904	      0.00425588	      0.01089829
      1.57000000	      0.00055284	      0.00452499	      0.01108140
      1.58000000	      0.00061438	      0.00477021	      0.01116857
      1.59000000	      0.00066538	      0.00496425	      0.01168795
      1.60000000	      0.00069811	      0.00508488	      0.01228077
      1.61000000	      0.00072273	      0.00517377	      0.01256037
      1.62000000	      0.00073203	      0.00520693	      0.01261789
      1.63000000	      0.00071898	      0.00516031	      0.01268353
      1.64000000	      0.00070118	      0.00509605	      0.01167417
      1.65000000	      0.00069428	      0.00507089	      0.01149198
      1.66000000	      0.00069550	      0.00507537	      0.01142154
      1.67000000	      0.00070675	      0.00511623	      0.01163640
      1.68000000	      0.00072455	      0.00518028	      0.01151201
      1.69000000	      0.00075218	      0.00527811	      0.01184555
      1.70000000	      0.00078125	      0.00537916	      0.01130642
      1.71000000	      0.00081632	      0.00549856	      0.01148027
      1.72000000	      0.00084767	      0.00560314	      0.01143998
      1.73000000	      0.00086011	      0.00564411	      0.01231710
      1.74000000	      0.00085003	      0.00561095	      0.01269089
      1.75000000	      0.00081415	      0.00549124	      0.01291171
      1.76000000	      0.00074468	      0.00525173	      0.01216339
      1.77000000	      0.00067337	      0.00499397	      0.01173042
      1.78000000	      0.00060110	      0.00471837	      0.01128250
      1.79000000	      0.00051504	      0.00436756	      0.01044626
      1.80000000	      0.00044859	      0.00407607	      0.00997331
      1.81000000	      0.00038919	      0.00379665	      0.00933674
      1.82000000	      0.00033928	      0.00354485	      0.00879481
      1.83000000	      0.00031926	      0.00343867	      0.00789783
      1.84000000	      0.00032699	      0.00348004	      0.00722830
      1.85000000	      0.00036110	      0.00365706	      0.00769345
      1.86000000	      0.00041360	      0.00391388	      0.00902462
      1.87000000	      0.00047491	      0.00419394	      0.01037633
      1.88000000	      0.00053343	      0.00444486	      0.01143529
      1.89000000	      0.00058125	      0.00463981	      0.01237088
      1.90000000	      0.00061360	      0.00476719	      0.01344094
      1.91000000	      0.00064573	      0.00489040	      0.01399847
      1.92000000	      0.00067774	      0.00501015	      0.01495868
      1.93000000	      0.00072101	      0.00516761	      0.01577121
      1.94000000	      0.00077785	      0.00536741	      0.01671243
      1.95000000	      0.00084202	      0.00558443	      0.01780788
      1.96000000	      0.00090522	      0.00579021	      0.01894459
      1.97000000	      0.00097441	      0.00600744	      0.01994486
      1.98000000	      0.00104228	      0.00621314	      0.02078654
      1.99000000	      0.00109468	      0.00636739	      0.02169206
      2.00000000	      0.00114424	      0.00650993	      0.02240656
      2.01000000	      0.00118466	      0.00662392	      0.02291124
      2.02000000	      0.00121872	      0.00671847	      0.02348972
      2.03000000	      0.00124782	      0.00679820	      0.02396517
      2.04000000	      0.00127910	      0.00688287	      0.02444126
      2.05000000	      0.00129873	      0.00693549	      0.02473032
      2.06000000	      0.00132861	      0.00701482	      0.02519355
      2.07000000	      0.00133064	      0.00702019	      0.02522405
      2.08000000	      0.00134630	      0.00706137	      0.02559125
      2.09000000	      0.00133882	      0.00704174	      0.02547631
      2.10000000	      0.00132882	      0.00701539	      0.02547290
      2.11000000	      0.00129647	      0.00692945	      0.02499457
      2.12000000	      0.00124085	      0.00677920	      0.02427312
      2.13000000	      0.00114642	      0.00651613	      0.02246905
      2.14000000	      0.00103658	      0.00619611	      0.02090752
      2.15000000	      0.00089196	      0.00574767	      0.01801831
      2.16000000	      0.00074201	      0.00524232	      0.01473627
      2.17000000	      0.00061350	      0.00476680	      0.01171359
      2.18000000	      0.00050928	      0.00434307	      0.01061682
      2.19000000	      0.00043809	      0.00402810	      0.01091776
      2.20000000	      0.00044468	      0.00405829	      0.01108873
      2.21000000	      0.00051932	      0.00438567	      0.01135521
      2.22000000	      0.00061638	      0.00477796	      0.01159380
      2.23000000	      0.00073880	      0.00523096	      0.01315123
      2.24000000	      0.00083815	      0.00557159	      0.01481337
      2.25000000	      0.00088505	      0.00572534	      0.01555035
      2.26000000	      0.00087100	      0.00567973	      0.01508875
      2.27000000	      0.00077702	      0.00536457	      0.01354203
      2.28000000	      0.00067196	      0.00498871	      0.01208356
      2.29000000	      0.00056011	      0.00455463	      0.01177986
      2.30000000	      0.00048822	      0.00425231	      0.01172623
      2.31000000	      0.00043445	      0.00401131	      0.01126356
      2.32000000	      0.00040089	      0.00385327	      0.01088135
      2.33000000	      0.00037333	      0.00371846	      0.01037680
      2.34000000	      0.00034223	      0.00356022	      0.00984425
      2.35000000	      0.00030847	      0.00338008	      0.00914380
      2.36000000	      0.00027638	      0.00319940	      0.00821222
      2.37000000	      0.00025350	      0.00306414	      0.00717080
      2.38000000	      0.00024377	      0.00300474	      0.00637280
      2.39000000	      0.00024848	      0.00303362	      0.00631124
      2.40000000	      0.00027025	      0.00316374	      0.00636193
      2.41000000	      0.00030679	      0.00337084	      0.00737254
      2.42000000	      0.00035951	      0.00364901	      0.00889415
      2.43000000	      0.00042498	      0.00396738	      0.01028509
      2.44000000	      0.00048814	      0.00425197	      0.01208213
      2.45000000	      0.00055979	      0.00455335	      0.01336992
      2.46000000	      0.00063708	      0.00485751	      0.01432079
      2.47000000	      0.00070982	      0.00512735	      0.01612298
      2.48000000	      0.00078640	      0.00539686	      0.01763897
      2.49000000	      0.00086239	      0.00565159	      0.01878968
      2.50000000	      0.00092842	      0.00586396	      0.02043545
      2.51000000	      0.00097565	      0.00601125	      0.02113379
      2.52000000	      0.00099425	      0.00606829	      0.02148528
      2.53000000	      0.00097950	      0.00602310	      0.02127925
      2.54000000	      0.00093030	      0.00586988	      0.02086638
      2.55000000	      0.00086543	      0.00566153	      0.01962473
      2.56000000	      0.00079682	      0.00543248	      0.01807420
      2.57000000	      0.00073424	      0.00521480	      0.01664715
      2.58000000	      0.00066636	      0.00496790	      0.01533908
      2.59000000	      0.00061069	      0.00475587	      0.01439414
      2.60000000	      0.00057077	      0.00459779	      0.01349948
      2.61000000	      0.00054834	      0.00450655	      0.01304074
      2.62000000	      0.00053635	      0.00445701	      0.01275017
      2.63000000	      0.00052813	      0.00442270	      0.01247177
      2.64000000	      0.00052658	      0.00441620	      0.01202997
      2.65000000	      0.00052841	      0.00442390	      0.01164779
      2.66000000	      0.00052742	      0.00441973	      0.01102540
      2.67000000	      0.00052196	      0.00439682	      0.01013252
      2.68000000	      0.00050867	      0.00434046	      0.01005911
      2.69000000	      0.00049617	      0.00428678	      0.01039158
      2.70000000	      0.00048535	      0.00423980	      0.01073109
      2.71000000	      0.00048896	      0.00425553	      0.01097722
      2.72000000	      0.00050340	      0.00431792	      0.01125163
      2.73000000	      0.00053594	      0.00445530	      0.01137187
      2.74000000	      0.00059297	      0.00468636	      0.01142630
      2.75000000	      0.00062446	      0.00480918	      0.01155313
      2.76000000	      0.00066485	      0.00496228	      0.01158326
      2.77000000	      0.00070092	      0.00509509	      0.01177372
      2.78000000	      0.00072501	      0.00518192	      0.01218347
      2.79000000	      0.00073276	      0.00520954	      0.01217372
      2.80000000	      0.00073486	      0.00521698	      0.01144838
      2.81000000	      0.00073670	      0.00522351	      0.01120465
      2.82000000	      0.00074731	      0.00526101	      0.01093944
      2.83000000	      0.00075536	      0.00528927	      0.01060801
      2.84000000	      0.00077994	      0.00537463	      0.01104641
      2.85000000	      0.00082160	      0.00551629	      0.01182960
      2.86000000	      0.00084805	      0.00560439	      0.01311630
      2.87000000	      0.00089213	      0.00574821	      0.01373043
      2.88000000	      0.00093245	      0.00587665	      0.01439366
      2.89000000	      0.00095024	      0.00593245	      0.01476460
      2.90000000	      0.00094550	      0.00591764	      0.01485223
      2.91000000	      0.00091311	      0.00581540	      0.01467773
      2.92000000	      0.00085059	      0.00561277	      0.01388945
      2.93000000	      0.00077501	      0.00535763	      0.01333719
      2.94000000	      0.00069329	      0.00506730	      0.01223054
      2.95000000	      0.00059832	      0.00470745	      0.01234431
