Model Marker Errors from IK
version=1
nRows=1001
nColumns=4
inDegrees=no
endheader
time	total_squared_error	marker_error_RMS	marker_error_max
      1.00000000	      0.00016707	      0.00248751	      0.00487343
      1.01000000	      0.00016642	      0.00248270	      0.00485185
      1.02000000	      0.00016216	      0.00245074	      0.00481663
      1.03000000	      0.00015727	      0.00241343	      0.00478107
      1.04000000	      0.00015203	      0.00237293	      0.00477211
      1.05000000	      0.00014849	      0.00234514	      0.00474080
      1.06000000	      0.00014461	      0.00231430	      0.00468618
      1.07000000	      0.00013477	      0.00223414	      0.00450440
      1.08000000	      0.00013239	      0.00221437	      0.00437759
      1.09000000	      0.00012224	      0.00212774	      0.00437198
      1.10000000	      0.00011939	      0.00210286	      0.00420886
      1.11000000	      0.00011469	      0.00206103	      0.00389278
      1.12000000	      0.00011764	      0.00208733	      0.00383080
      1.13000000	      0.00010629	      0.00198413	      0.00347651
      1.14000000	      0.00010495	      0.00197156	      0.00352202
      1.15000000	      0.00010610	      0.00198233	      0.00356562
      1.16000000	      0.00011131	      0.00203038	      0.00421363
      1.17000000	      0.00011875	      0.00209721	      0.00469288
      1.18000000	      0.00013255	      0.00221565	      0.00556875
      1.19000000	      0.00015225	      0.00237460	      0.00629785
      1.20000000	      0.00016894	      0.00250139	      0.00650574
      1.21000000	      0.00019457	      0.00268443	      0.00738103
      1.22000000	      0.00021667	      0.00283282	      0.00769763
      1.23000000	      0.00023963	      0.00297915	      0.00821709
      1.24000000	      0.00025542	      0.00307571	      0.00847474
      1.25000000	      0.00027989	      0.00321969	      0.00925511
      1.26000000	      0.00029743	      0.00331901	      0.00942999
      1.27000000	      0.00031899	      0.00343724	      0.01003193
      1.28000000	      0.00034770	      0.00358855	      0.01074775
      1.29000000	      0.00037985	      0.00375079	      0.01131142
      1.30000000	      0.00040505	      0.00387323	      0.01155602
      1.31000000	      0.00043564	      0.00401679	      0.01230288
      1.32000000	      0.00046204	      0.00413672	      0.01275559
      1.33000000	      0.00048813	      0.00425192	      0.01323808
      1.34000000	      0.00049684	      0.00428971	      0.01343988
      1.35000000	      0.00050110	      0.00430805	      0.01355873
      1.36000000	      0.00050982	      0.00434535	      0.01354437
      1.37000000	      0.00049452	      0.00427968	      0.01355262
      1.38000000	      0.00048115	      0.00422140	      0.01341978
      1.39000000	      0.00047268	      0.00418410	      0.01306044
      1.40000000	      0.00046540	      0.00415174	      0.01256188
      1.41000000	      0.00044462	      0.00405799	      0.01252270
      1.42000000	      0.00043303	      0.00400477	      0.01194141
      1.43000000	      0.00042844	      0.00398347	      0.01094865
      1.44000000	      0.00041237	      0.00390806	      0.01075375
      1.45000000	      0.00040909	      0.00389248	      0.01006638
      1.46000000	      0.00038226	      0.00376270	      0.00967940
      1.47000000	      0.00037437	      0.00372366	      0.00986724
      1.48000000	      0.00034979	      0.00359932	      0.00917985
      1.49000000	      0.00033799	      0.00353812	      0.00916083
      1.50000000	      0.00030271	      0.00334834	      0.00769236
      1.51000000	      0.00028552	      0.00325187	      0.00714838
      1.52000000	      0.00026528	      0.00313453	      0.00679324
      1.53000000	      0.00025518	      0.00307429	      0.00656944
      1.54000000	      0.00025434	      0.00306919	      0.00637189
      1.55000000	      0.00023616	      0.00295750	      0.00636415
      1.56000000	      0.00023546	      0.00295311	      0.00630284
      1.57000000	      0.00023334	      0.00293978	      0.00637685
      1.58000000	      0.00022639	      0.00289566	      0.00635189
      1.59000000	      0.00020968	      0.00278675	      0.00617750
      1.60000000	      0.00020117	      0.00272959	      0.00626535
      1.61000000	      0.00019177	      0.00266506	      0.00637454
      1.62000000	      0.00017695	      0.00256002	      0.00632432
      1.63000000	      0.00016990	      0.00250848	      0.00637587
      1.64000000	      0.00016029	      0.00243649	      0.00629111
      1.65000000	      0.00015970	      0.00243205	      0.00634287
      1.66000000	      0.00015118	      0.00236625	      0.00627012
      1.67000000	      0.00015196	      0.00237236	      0.00636732
      1.68000000	      0.00014468	      0.00231485	      0.00620270
      1.69000000	      0.00014497	      0.00231717	      0.00638212
      1.70000000	      0.00014780	      0.00233970	      0.00653505
      1.71000000	      0.00014027	      0.00227928	      0.00635182
      1.72000000	      0.00014647	      0.00232916	      0.00660044
      1.73000000	      0.00014617	      0.00232677	      0.00651097
      1.74000000	      0.00015313	      0.00238149	      0.00659935
      1.75000000	      0.00016971	      0.00250708	      0.00688490
      1.76000000	      0.00017213	      0.00252492	      0.00681550
      1.77000000	      0.00019064	      0.00265720	      0.00705136
      1.78000000	      0.00019778	      0.00270653	      0.00686405
      1.79000000	      0.00021372	      0.00281346	      0.00708071
      1.80000000	      0.00021229	      0.00280401	      0.00691235
      1.81000000	      0.00022351	      0.00287718	      0.00703495
      1.82000000	      0.00022514	      0.00288768	      0.00679530
      1.83000000	      0.00023283	      0.00293653	      0.00694428
      1.84000000	      0.00024064	      0.00298542	      0.00701592
      1.85000000	      0.00023505	      0.00295053	      0.00665499
      1.86000000	      0.00023693	      0.00296226	      0.00671652
      1.87000000	      0.00022015	      0.00285546	      0.00649701
      1.88000000	      0.00021484	      0.00282085	      0.00613928
      1.89000000	      0.00020384	      0.00274766	      0.00620695
      1.90000000	      0.00019635	      0.00269669	      0.00565516
      1.91000000	      0.00018321	      0.00260492	      0.00566166
      1.92000000	      0.00017374	      0.00253669	      0.00522294
      1.93000000	      0.00016274	      0.00245506	      0.00493519
      1.94000000	      0.00015367	      0.00238566	      0.00474825
      1.95000000	      0.00014617	      0.00232672	      0.00459677
      1.96000000	      0.00014225	      0.00229535	      0.00458768
      1.97000000	      0.00013755	      0.00225707	      0.00443364
      1.98000000	      0.00013611	      0.00224525	      0.00434726
      1.99000000	      0.00013604	      0.00224465	      0.00396189
      2.00000000	      0.00013929	      0.00227136	      0.00447411
      2.01000000	      0.00014479	      0.00231571	      0.00475057
      2.02000000	      0.00014823	      0.00234309	      0.00452167
      2.03000000	      0.00015624	      0.00240557	      0.00493325
      2.04000000	      0.00016847	      0.00249790	      0.00538544
      2.05000000	      0.00017667	      0.00255802	      0.00506378
      2.06000000	      0.00019125	      0.00266142	      0.00566358
      2.07000000	      0.00020520	      0.00275680	      0.00560353
      2.08000000	      0.00022400	      0.00288035	      0.00613985
      2.09000000	      0.00023934	      0.00297729	      0.00634770
      2.10000000	      0.00026311	      0.00312167	      0.00734726
      2.11000000	      0.00027779	      0.00320755	      0.00758855
      2.12000000	      0.00029909	      0.00332828	      0.00839470
      2.13000000	      0.00032100	      0.00344804	      0.00906512
      2.14000000	      0.00034716	      0.00358579	      0.01003030
      2.15000000	      0.00036562	      0.00367989	      0.01036028
      2.16000000	      0.00039080	      0.00380446	      0.01121584
      2.17000000	      0.00040766	      0.00388566	      0.01146041
      2.18000000	      0.00042977	      0.00398965	      0.01217295
      2.19000000	      0.00044631	      0.00406572	      0.01233782
      2.20000000	      0.00046372	      0.00414424	      0.01273742
      2.21000000	      0.00047797	      0.00420744	      0.01289260
      2.22000000	      0.00049278	      0.00427213	      0.01325401
      2.23000000	      0.00049816	      0.00429540	      0.01290520
      2.24000000	      0.00050048	      0.00430537	      0.01299977
      2.25000000	      0.00050230	      0.00431321	      0.01252596
      2.26000000	      0.00050115	      0.00430825	      0.01206434
      2.27000000	      0.00048858	      0.00425388	      0.01214750
      2.28000000	      0.00047983	      0.00421563	      0.01102884
      2.29000000	      0.00046095	      0.00413184	      0.01097777
      2.30000000	      0.00044572	      0.00406303	      0.00965629
      2.31000000	      0.00042041	      0.00394599	      0.00942155
      2.32000000	      0.00039500	      0.00382488	      0.00868422
      2.33000000	      0.00037332	      0.00371842	      0.00743294
      2.34000000	      0.00034713	      0.00358562	      0.00712583
      2.35000000	      0.00031866	      0.00343545	      0.00714386
      2.36000000	      0.00029686	      0.00331586	      0.00714335
      2.37000000	      0.00028046	      0.00322297	      0.00699212
      2.38000000	      0.00026655	      0.00314200	      0.00697352
      2.39000000	      0.00025246	      0.00305784	      0.00699834
      2.40000000	      0.00024841	      0.00303320	      0.00684327
      2.41000000	      0.00024905	      0.00303713	      0.00679865
      2.42000000	      0.00025842	      0.00309370	      0.00656590
      2.43000000	      0.00025785	      0.00309028	      0.00674685
      2.44000000	      0.00025843	      0.00309379	      0.00687494
      2.45000000	      0.00026691	      0.00314411	      0.00658811
      2.46000000	      0.00027199	      0.00317390	      0.00652304
      2.47000000	      0.00027852	      0.00321181	      0.00631688
      2.48000000	      0.00027853	      0.00321182	      0.00649768
      2.49000000	      0.00028120	      0.00322717	      0.00659030
      2.50000000	      0.00028207	      0.00323219	      0.00673874
      2.51000000	      0.00027816	      0.00320973	      0.00692934
      2.52000000	      0.00027654	      0.00320033	      0.00705436
      2.53000000	      0.00027255	      0.00317715	      0.00716463
      2.54000000	      0.00026748	      0.00314750	      0.00722323
      2.55000000	      0.00026203	      0.00311528	      0.00730140
      2.56000000	      0.00026178	      0.00311378	      0.00715795
      2.57000000	      0.00024841	      0.00303321	      0.00716488
      2.58000000	      0.00023860	      0.00297273	      0.00714917
      2.59000000	      0.00023567	      0.00295439	      0.00688188
      2.60000000	      0.00022288	      0.00287314	      0.00676836
      2.61000000	      0.00022300	      0.00287388	      0.00648161
      2.62000000	      0.00021104	      0.00279578	      0.00632831
      2.63000000	      0.00021105	      0.00279586	      0.00604124
      2.64000000	      0.00020327	      0.00274383	      0.00579726
      2.65000000	      0.00020924	      0.00278384	      0.00552553
      2.66000000	      0.00020395	      0.00274839	      0.00582689
      2.67000000	      0.00020912	      0.00278301	      0.00614593
      2.68000000	      0.00022014	      0.00285538	      0.00648017
      2.69000000	      0.00022710	      0.00290018	      0.00683586
      2.70000000	      0.00024431	      0.00300810	      0.00718457
      2.71000000	      0.00026039	      0.00310547	      0.00747398
      2.72000000	      0.00026782	      0.00314949	      0.00784949
      2.73000000	      0.00028806	      0.00326631	      0.00809036
      2.74000000	      0.00029865	      0.00332581	      0.00822226
      2.75000000	      0.00031142	      0.00339618	      0.00838037
      2.76000000	      0.00032429	      0.00346567	      0.00840365
      2.77000000	      0.00032140	      0.00345017	      0.00845985
      2.78000000	      0.00030900	      0.00338298	      0.00816345
      2.79000000	      0.00029793	      0.00332180	      0.00810649
      2.80000000	      0.00028033	      0.00322220	      0.00779373
      2.81000000	      0.00026342	      0.00312349	      0.00767358
      2.82000000	      0.00023573	      0.00295476	      0.00715512
      2.83000000	      0.00021653	      0.00283192	      0.00700800
      2.84000000	      0.00019928	      0.00271678	      0.00662362
      2.85000000	      0.00018512	      0.00261847	      0.00643407
      2.86000000	      0.00016205	      0.00244991	      0.00579597
      2.87000000	      0.00015198	      0.00237250	      0.00559084
      2.88000000	      0.00014154	      0.00228960	      0.00519239
      2.89000000	      0.00013562	      0.00224123	      0.00501173
      2.90000000	      0.00013073	      0.00220043	      0.00482976
      2.91000000	      0.00012702	      0.00216899	      0.00480546
      2.92000000	      0.00012480	      0.00214991	      0.00469793
      2.93000000	      0.00012117	      0.00211840	      0.00454361
      2.94000000	      0.00011858	      0.00209568	      0.00451493
      2.95000000	      0.00011884	      0.00209793	      0.00454616
      2.96000000	      0.00011473	      0.00206138	      0.00445439
      2.97000000	      0.00011485	      0.00206245	      0.00440422
      2.98000000	      0.00011661	      0.00207820	      0.00444956
      2.99000000	      0.00011195	      0.00203620	      0.00445558
      3.00000000	      0.00011286	      0.00204451	      0.00444849
      3.01000000	      0.00011348	      0.00205010	      0.00441463
      3.02000000	      0.00011995	      0.00210777	      0.00444170
      3.03000000	      0.00011819	      0.00209227	      0.00448121
      3.04000000	      0.00011900	      0.00209941	      0.00441825
      3.05000000	      0.00012573	      0.00215794	      0.00461871
      3.06000000	      0.00013545	      0.00223983	      0.00503974
      3.07000000	      0.00014664	      0.00233046	      0.00551596
      3.08000000	      0.00016066	      0.00243933	      0.00626168
      3.09000000	      0.00017651	      0.00255682	      0.00690119
      3.10000000	      0.00020143	      0.00273139	      0.00828308
      3.11000000	      0.00021934	      0.00285023	      0.00840199
      3.12000000	      0.00024131	      0.00298954	      0.00896125
      3.13000000	      0.00026310	      0.00312158	      0.00943435
      3.14000000	      0.00028448	      0.00324597	      0.00984459
      3.15000000	      0.00030797	      0.00337731	      0.01043810
      3.16000000	      0.00033194	      0.00350630	      0.01088873
      3.17000000	      0.00035526	      0.00362737	      0.01138741
      3.18000000	      0.00036897	      0.00369668	      0.01145881
      3.19000000	      0.00039639	      0.00383161	      0.01220603
      3.20000000	      0.00042068	      0.00394723	      0.01244842
      3.21000000	      0.00044947	      0.00408009	      0.01288453
      3.22000000	      0.00048620	      0.00424351	      0.01351357
      3.23000000	      0.00053265	      0.00444158	      0.01438583
      3.24000000	      0.00054920	      0.00451007	      0.01413230
      3.25000000	      0.00058115	      0.00463939	      0.01442373
      3.26000000	      0.00059996	      0.00471388	      0.01457458
      3.27000000	      0.00062124	      0.00479677	      0.01440839
      3.28000000	      0.00061170	      0.00475979	      0.01418150
      3.29000000	      0.00060794	      0.00474512	      0.01361445
      3.30000000	      0.00058721	      0.00466352	      0.01319286
      3.31000000	      0.00056949	      0.00459264	      0.01234111
      3.32000000	      0.00053917	      0.00446868	      0.01180863
      3.33000000	      0.00051907	      0.00438463	      0.01065707
      3.34000000	      0.00047551	      0.00419659	      0.01052363
      3.35000000	      0.00045114	      0.00408766	      0.00922509
      3.36000000	      0.00041514	      0.00392119	      0.00897492
      3.37000000	      0.00037950	      0.00374909	      0.00831424
      3.38000000	      0.00036259	      0.00366461	      0.00705741
      3.39000000	      0.00033260	      0.00350976	      0.00727498
      3.40000000	      0.00032148	      0.00345059	      0.00666070
      3.41000000	      0.00030583	      0.00336554	      0.00640846
      3.42000000	      0.00029942	      0.00333010	      0.00647965
      3.43000000	      0.00029396	      0.00329962	      0.00647292
      3.44000000	      0.00029069	      0.00328118	      0.00626326
      3.45000000	      0.00027301	      0.00317988	      0.00638720
      3.46000000	      0.00026768	      0.00314865	      0.00605805
      3.47000000	      0.00025145	      0.00305170	      0.00578965
      3.48000000	      0.00023476	      0.00294871	      0.00582127
      3.49000000	      0.00022579	      0.00289184	      0.00577212
      3.50000000	      0.00021034	      0.00279114	      0.00574040
      3.51000000	      0.00019215	      0.00266772	      0.00566105
      3.52000000	      0.00018453	      0.00261429	      0.00552096
      3.53000000	      0.00016784	      0.00249325	      0.00546625
      3.54000000	      0.00016145	      0.00244535	      0.00526493
      3.55000000	      0.00015141	      0.00236807	      0.00516369
      3.56000000	      0.00013645	      0.00224801	      0.00494360
      3.57000000	      0.00013155	      0.00220735	      0.00470019
      3.58000000	      0.00012112	      0.00211801	      0.00449443
      3.59000000	      0.00012215	      0.00212701	      0.00424375
      3.60000000	      0.00011566	      0.00206967	      0.00404648
      3.61000000	      0.00011337	      0.00204908	      0.00405685
      3.62000000	      0.00011782	      0.00208897	      0.00434058
      3.63000000	      0.00011595	      0.00207226	      0.00458215
      3.64000000	      0.00012007	      0.00210878	      0.00473177
      3.65000000	      0.00011794	      0.00208997	      0.00491153
      3.66000000	      0.00012126	      0.00211921	      0.00502868
      3.67000000	      0.00011664	      0.00207850	      0.00498416
      3.68000000	      0.00011600	      0.00207279	      0.00500279
      3.69000000	      0.00010957	      0.00201448	      0.00492113
      3.70000000	      0.00010880	      0.00200741	      0.00493340
      3.71000000	      0.00010855	      0.00200509	      0.00478831
      3.72000000	      0.00009395	      0.00186533	      0.00418148
      3.73000000	      0.00009147	      0.00184061	      0.00399119
      3.74000000	      0.00008356	      0.00175917	      0.00369718
      3.75000000	      0.00007962	      0.00171719	      0.00343172
      3.76000000	      0.00007923	      0.00171304	      0.00333495
      3.77000000	      0.00007888	      0.00170919	      0.00324682
      3.78000000	      0.00008194	      0.00174208	      0.00352717
      3.79000000	      0.00008874	      0.00181290	      0.00380224
      3.80000000	      0.00009786	      0.00190382	      0.00404213
      3.81000000	      0.00010629	      0.00198409	      0.00413631
      3.82000000	      0.00011981	      0.00210652	      0.00457309
      3.83000000	      0.00013303	      0.00221972	      0.00486478
      3.84000000	      0.00014537	      0.00232040	      0.00497950
      3.85000000	      0.00015952	      0.00243067	      0.00517966
      3.86000000	      0.00017906	      0.00257522	      0.00585168
      3.87000000	      0.00019131	      0.00266184	      0.00564989
      3.88000000	      0.00020985	      0.00278784	      0.00645952
      3.89000000	      0.00022609	      0.00289372	      0.00681248
      3.90000000	      0.00024627	      0.00302013	      0.00762204
      3.91000000	      0.00026387	      0.00312618	      0.00798486
      3.92000000	      0.00028515	      0.00324981	      0.00873910
      3.93000000	      0.00029869	      0.00332604	      0.00870860
      3.94000000	      0.00031869	      0.00343559	      0.00941587
      3.95000000	      0.00033888	      0.00354277	      0.00995932
      3.96000000	      0.00035510	      0.00362657	      0.01021989
      3.97000000	      0.00037483	      0.00372592	      0.01076999
      3.98000000	      0.00039546	      0.00382710	      0.01115536
      3.99000000	      0.00040119	      0.00385472	      0.01149554
      4.00000000	      0.00041827	      0.00393591	      0.01185021
      4.01000000	      0.00043748	      0.00402530	      0.01223930
      4.02000000	      0.00045081	      0.00408617	      0.01247730
      4.03000000	      0.00046878	      0.00416682	      0.01272981
      4.04000000	      0.00048430	      0.00423520	      0.01281358
      4.05000000	      0.00050304	      0.00431638	      0.01297957
      4.06000000	      0.00051831	      0.00438139	      0.01279118
      4.07000000	      0.00053038	      0.00443214	      0.01276564
      4.08000000	      0.00053898	      0.00446792	      0.01278944
      4.09000000	      0.00053934	      0.00446941	      0.01314861
      4.10000000	      0.00054350	      0.00448662	      0.01281691
      4.11000000	      0.00054304	      0.00448472	      0.01264150
      4.12000000	      0.00054233	      0.00448175	      0.01171243
      4.13000000	      0.00052880	      0.00442550	      0.01192084
      4.14000000	      0.00051473	      0.00436623	      0.01152072
      4.15000000	      0.00050137	      0.00430921	      0.01039294
      4.16000000	      0.00047773	      0.00420638	      0.01030721
      4.17000000	      0.00046209	      0.00413697	      0.00931512
      4.18000000	      0.00042353	      0.00396057	      0.00904867
      4.19000000	      0.00039643	      0.00383177	      0.00822802
      4.20000000	      0.00037138	      0.00370873	      0.00788180
      4.21000000	      0.00034717	      0.00358583	      0.00793042
      4.22000000	      0.00031988	      0.00344202	      0.00787338
      4.23000000	      0.00030154	      0.00334185	      0.00792732
      4.24000000	      0.00027363	      0.00318344	      0.00782824
      4.25000000	      0.00025750	      0.00308823	      0.00777718
      4.26000000	      0.00024267	      0.00299799	      0.00765510
      4.27000000	      0.00023754	      0.00296609	      0.00751902
      4.28000000	      0.00022249	      0.00287061	      0.00734872
      4.29000000	      0.00021807	      0.00284196	      0.00724602
      4.30000000	      0.00021694	      0.00283460	      0.00694634
      4.31000000	      0.00021922	      0.00284945	      0.00672752
      4.32000000	      0.00021650	      0.00283167	      0.00646233
      4.33000000	      0.00022102	      0.00286109	      0.00663210
      4.34000000	      0.00021828	      0.00284330	      0.00717873
      4.35000000	      0.00021685	      0.00283397	      0.00745588
      4.36000000	      0.00021674	      0.00283330	      0.00762480
      4.37000000	      0.00021068	      0.00279337	      0.00780672
      4.38000000	      0.00020915	      0.00278319	      0.00780626
      4.39000000	      0.00019804	      0.00270831	      0.00779749
      4.40000000	      0.00019083	      0.00265856	      0.00759815
      4.41000000	      0.00018781	      0.00263741	      0.00730061
      4.42000000	      0.00017105	      0.00251700	      0.00719784
      4.43000000	      0.00016180	      0.00244798	      0.00679236
      4.44000000	      0.00015622	      0.00240543	      0.00638845
      4.45000000	      0.00014344	      0.00230489	      0.00596949
      4.46000000	      0.00013988	      0.00227613	      0.00556516
      4.47000000	      0.00012535	      0.00215470	      0.00515779
      4.48000000	      0.00012449	      0.00214730	      0.00473471
      4.49000000	      0.00011876	      0.00209727	      0.00421230
      4.50000000	      0.00012268	      0.00213156	      0.00413168
      4.51000000	      0.00011748	      0.00208595	      0.00402120
      4.52000000	      0.00012415	      0.00214430	      0.00394919
      4.53000000	      0.00012272	      0.00213197	      0.00370314
      4.54000000	      0.00013315	      0.00222072	      0.00363243
      4.55000000	      0.00013432	      0.00223039	      0.00359504
      4.56000000	      0.00014095	      0.00228479	      0.00354803
      4.57000000	      0.00014817	      0.00234259	      0.00356165
      4.58000000	      0.00015273	      0.00237837	      0.00377044
      4.59000000	      0.00016265	      0.00245443	      0.00363976
      4.60000000	      0.00016171	      0.00244727	      0.00407901
      4.61000000	      0.00016094	      0.00244143	      0.00427255
      4.62000000	      0.00015792	      0.00241841	      0.00415168
      4.63000000	      0.00015740	      0.00241444	      0.00443433
      4.64000000	      0.00015435	      0.00239094	      0.00444079
      4.65000000	      0.00015002	      0.00235718	      0.00431078
      4.66000000	      0.00014720	      0.00233496	      0.00431369
      4.67000000	      0.00014209	      0.00229402	      0.00433462
      4.68000000	      0.00013852	      0.00226506	      0.00425158
      4.69000000	      0.00013287	      0.00221836	      0.00402368
      4.70000000	      0.00012909	      0.00218658	      0.00407493
      4.71000000	      0.00012402	      0.00214324	      0.00408650
      4.72000000	      0.00012247	      0.00212974	      0.00409591
      4.73000000	      0.00011212	      0.00203780	      0.00397971
      4.74000000	      0.00010798	      0.00199979	      0.00412971
      4.75000000	      0.00010568	      0.00197838	      0.00426810
      4.76000000	      0.00010117	      0.00193571	      0.00416160
      4.77000000	      0.00010182	      0.00194191	      0.00431915
      4.78000000	      0.00010288	      0.00195199	      0.00437423
      4.79000000	      0.00010827	      0.00200246	      0.00450391
      4.80000000	      0.00011686	      0.00208041	      0.00495637
      4.81000000	      0.00013072	      0.00220037	      0.00586324
      4.82000000	      0.00014977	      0.00235524	      0.00674711
      4.83000000	      0.00017330	      0.00253345	      0.00756463
      4.84000000	      0.00020112	      0.00272925	      0.00827475
      4.85000000	      0.00023222	      0.00293273	      0.00895465
      4.86000000	      0.00026614	      0.00313960	      0.00959989
      4.87000000	      0.00030189	      0.00334380	      0.01014702
      4.88000000	      0.00032899	      0.00349067	      0.01034521
      4.89000000	      0.00036500	      0.00367673	      0.01121659
      4.90000000	      0.00039447	      0.00382231	      0.01145648
      4.91000000	      0.00042895	      0.00398586	      0.01213128
      4.92000000	      0.00046421	      0.00414643	      0.01261299
      4.93000000	      0.00049201	      0.00426880	      0.01283270
      4.94000000	      0.00052716	      0.00441866	      0.01313456
      4.95000000	      0.00056618	      0.00457928	      0.01412182
      4.96000000	      0.00060082	      0.00471727	      0.01432748
      4.97000000	      0.00063461	      0.00484808	      0.01490489
      4.98000000	      0.00066622	      0.00496739	      0.01529241
      4.99000000	      0.00067883	      0.00501418	      0.01536378
      5.00000000	      0.00068709	      0.00504459	      0.01541468
      5.01000000	      0.00069695	      0.00508065	      0.01512037
      5.02000000	      0.00068017	      0.00501911	      0.01506245
      5.03000000	      0.00066879	      0.00497695	      0.01472025
      5.04000000	      0.00065758	      0.00493506	      0.01426797
      5.05000000	      0.00065112	      0.00491075	      0.01356316
      5.06000000	      0.00062711	      0.00481935	      0.01327774
      5.07000000	      0.00061965	      0.00479061	      0.01240902
      5.08000000	      0.00058748	      0.00466459	      0.01233751
      5.09000000	      0.00056958	      0.00459299	      0.01162010
      5.10000000	      0.00055894	      0.00454988	      0.01049664
      5.11000000	      0.00052676	      0.00441697	      0.01058405
      5.12000000	      0.00050624	      0.00433008	      0.00992108
      5.13000000	      0.00048658	      0.00424516	      0.00953709
      5.14000000	      0.00046719	      0.00415971	      0.00972814
      5.15000000	      0.00045498	      0.00410502	      0.00974172
      5.16000000	      0.00043401	      0.00400931	      0.00993443
      5.17000000	      0.00041044	      0.00389891	      0.00987249
      5.18000000	      0.00039335	      0.00381688	      0.00962202
      5.19000000	      0.00036956	      0.00369966	      0.00957278
      5.20000000	      0.00035214	      0.00361141	      0.00918404
      5.21000000	      0.00032738	      0.00348214	      0.00888996
      5.22000000	      0.00030905	      0.00338324	      0.00846108
      5.23000000	      0.00028444	      0.00324576	      0.00812658
      5.24000000	      0.00025971	      0.00310144	      0.00785411
      5.25000000	      0.00024018	      0.00298256	      0.00741799
      5.26000000	      0.00022263	      0.00287151	      0.00704532
      5.27000000	      0.00021044	      0.00279178	      0.00663114
      5.28000000	      0.00019077	      0.00265813	      0.00639600
      5.29000000	      0.00016744	      0.00249031	      0.00616922
      5.30000000	      0.00015823	      0.00242084	      0.00572643
      5.31000000	      0.00014478	      0.00231565	      0.00547781
      5.32000000	      0.00013867	      0.00226626	      0.00519074
      5.33000000	      0.00013335	      0.00222236	      0.00499757
      5.34000000	      0.00013076	      0.00220064	      0.00502249
      5.35000000	      0.00013261	      0.00221614	      0.00515512
      5.36000000	      0.00013591	      0.00224359	      0.00524930
      5.37000000	      0.00013839	      0.00226394	      0.00529590
      5.38000000	      0.00012726	      0.00217102	      0.00516006
      5.39000000	      0.00012964	      0.00219126	      0.00515160
      5.40000000	      0.00013293	      0.00221888	      0.00508240
      5.41000000	      0.00013477	      0.00223416	      0.00502163
      5.42000000	      0.00012141	      0.00212056	      0.00495308
      5.43000000	      0.00012169	      0.00212300	      0.00493091
      5.44000000	      0.00012176	      0.00212360	      0.00491641
      5.45000000	      0.00011055	      0.00202347	      0.00506937
      5.46000000	      0.00011068	      0.00202466	      0.00517691
      5.47000000	      0.00011327	      0.00204825	      0.00537304
      5.48000000	      0.00011023	      0.00202054	      0.00542994
      5.49000000	      0.00010350	      0.00195789	      0.00575925
      5.50000000	      0.00010688	      0.00198965	      0.00617406
      5.51000000	      0.00010079	      0.00193206	      0.00615281
      5.52000000	      0.00009955	      0.00192018	      0.00621903
      5.53000000	      0.00010041	      0.00192840	      0.00633992
      5.54000000	      0.00009546	      0.00188029	      0.00626491
      5.55000000	      0.00009114	      0.00183731	      0.00616324
      5.56000000	      0.00008822	      0.00180760	      0.00601993
      5.57000000	      0.00008369	      0.00176056	      0.00577148
      5.58000000	      0.00008106	      0.00173270	      0.00551233
      5.59000000	      0.00007620	      0.00167996	      0.00498469
      5.60000000	      0.00007450	      0.00166105	      0.00463657
      5.61000000	      0.00007474	      0.00166375	      0.00434027
      5.62000000	      0.00007654	      0.00168370	      0.00382378
      5.63000000	      0.00008106	      0.00173269	      0.00362379
      5.64000000	      0.00008735	      0.00179869	      0.00347470
      5.65000000	      0.00009714	      0.00189677	      0.00375170
      5.66000000	      0.00011014	      0.00201968	      0.00444970
      5.67000000	      0.00012107	      0.00211756	      0.00472078
      5.68000000	      0.00013819	      0.00226235	      0.00572781
      5.69000000	      0.00015525	      0.00239788	      0.00627063
      5.70000000	      0.00017376	      0.00253681	      0.00683055
      5.71000000	      0.00019753	      0.00270477	      0.00795851
      5.72000000	      0.00022167	      0.00286533	      0.00864676
      5.73000000	      0.00023887	      0.00297437	      0.00900039
      5.74000000	      0.00026215	      0.00311596	      0.00973050
      5.75000000	      0.00028723	      0.00326163	      0.01050740
      5.76000000	      0.00031102	      0.00339400	      0.01107246
      5.77000000	      0.00033264	      0.00350996	      0.01155775
      5.78000000	      0.00035719	      0.00363718	      0.01222748
      5.79000000	      0.00037457	      0.00372467	      0.01260750
      5.80000000	      0.00039891	      0.00384377	      0.01343073
      5.81000000	      0.00041429	      0.00391714	      0.01347853
      5.82000000	      0.00043513	      0.00401445	      0.01395833
      5.83000000	      0.00044774	      0.00407224	      0.01406633
      5.84000000	      0.00046420	      0.00414638	      0.01424490
      5.85000000	      0.00047987	      0.00421581	      0.01425818
      5.86000000	      0.00049917	      0.00429976	      0.01440475
      5.87000000	      0.00049990	      0.00430289	      0.01415873
      5.88000000	      0.00050890	      0.00434142	      0.01387985
      5.89000000	      0.00051561	      0.00436999	      0.01355744
      5.90000000	      0.00051810	      0.00438050	      0.01329906
      5.91000000	      0.00050795	      0.00433741	      0.01354270
      5.92000000	      0.00050381	      0.00431967	      0.01269725
      5.93000000	      0.00049628	      0.00428728	      0.01221923
      5.94000000	      0.00048740	      0.00424876	      0.01143358
      5.95000000	      0.00046014	      0.00412823	      0.01175549
      5.96000000	      0.00044422	      0.00405616	      0.01050160
      5.97000000	      0.00041819	      0.00393554	      0.01054293
      5.98000000	      0.00039318	      0.00381605	      0.00996237
      5.99000000	      0.00036915	      0.00369759	      0.00904386
      6.00000000	      0.00034465	      0.00357279	      0.00824949
      6.01000000	      0.00031853	      0.00343473	      0.00756922
      6.02000000	      0.00029298	      0.00329413	      0.00677343
      6.03000000	      0.00027100	      0.00316814	      0.00575316
      6.04000000	      0.00024995	      0.00304257	      0.00585415
      6.05000000	      0.00023207	      0.00293177	      0.00577968
      6.06000000	      0.00021406	      0.00281568	      0.00571903
      6.07000000	      0.00020798	      0.00277544	      0.00571892
      6.08000000	      0.00019986	      0.00272068	      0.00562712
      6.09000000	      0.00019812	      0.00270886	      0.00554957
      6.10000000	      0.00021275	      0.00280709	      0.00549088
      6.11000000	      0.00021287	      0.00280789	      0.00542765
      6.12000000	      0.00021752	      0.00283833	      0.00558045
      6.13000000	      0.00023306	      0.00293799	      0.00557712
      6.14000000	      0.00023236	      0.00293358	      0.00547679
      6.15000000	      0.00024647	      0.00302135	      0.00569476
      6.16000000	      0.00025577	      0.00307779	      0.00619926
      6.17000000	      0.00026656	      0.00314208	      0.00663795
      6.18000000	      0.00026759	      0.00314814	      0.00681201
      6.19000000	      0.00027217	      0.00317495	      0.00722742
      6.20000000	      0.00026662	      0.00314244	      0.00712211
      6.21000000	      0.00025931	      0.00309904	      0.00717522
      6.22000000	      0.00025028	      0.00304460	      0.00711715
      6.23000000	      0.00023914	      0.00297606	      0.00702527
      6.24000000	      0.00023133	      0.00292707	      0.00682146
      6.25000000	      0.00021571	      0.00282653	      0.00664791
      6.26000000	      0.00020089	      0.00272771	      0.00643965
      6.27000000	      0.00018836	      0.00264128	      0.00619142
      6.28000000	      0.00018151	      0.00259279	      0.00580643
      6.29000000	      0.00017220	      0.00252539	      0.00549205
      6.30000000	      0.00015663	      0.00240858	      0.00513626
      6.31000000	      0.00014588	      0.00232446	      0.00479340
      6.32000000	      0.00013709	      0.00225329	      0.00437098
      6.33000000	      0.00013120	      0.00220434	      0.00389884
      6.34000000	      0.00013047	      0.00219827	      0.00349748
      6.35000000	      0.00012884	      0.00218448	      0.00343810
      6.36000000	      0.00013044	      0.00219800	      0.00351126
      6.37000000	      0.00013188	      0.00221004	      0.00358594
      6.38000000	      0.00013179	      0.00220934	      0.00371489
      6.39000000	      0.00013743	      0.00225613	      0.00368905
      6.40000000	      0.00013748	      0.00225651	      0.00372089
      6.41000000	      0.00014327	      0.00230350	      0.00380697
      6.42000000	      0.00015441	      0.00239144	      0.00391329
      6.43000000	      0.00015496	      0.00239567	      0.00408203
      6.44000000	      0.00015446	      0.00239178	      0.00419360
      6.45000000	      0.00015691	      0.00241068	      0.00439311
      6.46000000	      0.00015629	      0.00240592	      0.00460917
      6.47000000	      0.00015672	      0.00240926	      0.00484806
      6.48000000	      0.00016031	      0.00243670	      0.00518628
      6.49000000	      0.00014829	      0.00234356	      0.00484340
      6.50000000	      0.00014482	      0.00231597	      0.00493335
      6.51000000	      0.00014627	      0.00232755	      0.00504015
      6.52000000	      0.00014352	      0.00230555	      0.00503232
      6.53000000	      0.00013716	      0.00225389	      0.00496653
      6.54000000	      0.00013385	      0.00222653	      0.00476831
      6.55000000	      0.00013270	      0.00221691	      0.00462059
      6.56000000	      0.00013237	      0.00221418	      0.00470856
      6.57000000	      0.00012888	      0.00218482	      0.00462557
      6.58000000	      0.00012880	      0.00218409	      0.00488548
      6.59000000	      0.00012566	      0.00215730	      0.00495470
      6.60000000	      0.00012254	      0.00213039	      0.00483474
      6.61000000	      0.00012309	      0.00213513	      0.00487186
      6.62000000	      0.00011733	      0.00208459	      0.00470132
      6.63000000	      0.00011607	      0.00207340	      0.00476594
      6.64000000	      0.00011655	      0.00207763	      0.00475986
      6.65000000	      0.00011738	      0.00208503	      0.00441219
      6.66000000	      0.00012230	      0.00212829	      0.00451707
      6.67000000	      0.00013338	      0.00222262	      0.00498085
      6.68000000	      0.00014593	      0.00232484	      0.00534076
      6.69000000	      0.00017002	      0.00250937	      0.00670095
      6.70000000	      0.00019000	      0.00265272	      0.00692721
      6.71000000	      0.00021539	      0.00282443	      0.00746416
      6.72000000	      0.00024523	      0.00301370	      0.00823459
      6.73000000	      0.00027216	      0.00317491	      0.00867301
      6.74000000	      0.00030423	      0.00335674	      0.00948356
      6.75000000	      0.00033317	      0.00351277	      0.00994905
      6.76000000	      0.00035803	      0.00364150	      0.01032448
      6.77000000	      0.00038344	      0.00376849	      0.01093864
      6.78000000	      0.00040533	      0.00387456	      0.01138649
      6.79000000	      0.00041541	      0.00392247	      0.01136037
      6.80000000	      0.00043272	      0.00400335	      0.01208133
      6.81000000	      0.00045020	      0.00408341	      0.01259691
      6.82000000	      0.00046164	      0.00413494	      0.01264057
      6.83000000	      0.00047982	      0.00421556	      0.01326795
      6.84000000	      0.00050506	      0.00432503	      0.01405138
      6.85000000	      0.00051558	      0.00436983	      0.01389635
      6.86000000	      0.00053057	      0.00443291	      0.01436690
      6.87000000	      0.00054035	      0.00447358	      0.01462764
      6.88000000	      0.00054782	      0.00450440	      0.01473416
      6.89000000	      0.00054450	      0.00449072	      0.01498726
      6.90000000	      0.00053966	      0.00447071	      0.01493555
      6.91000000	      0.00053415	      0.00444785	      0.01488581
      6.92000000	      0.00052856	      0.00442450	      0.01472215
      6.93000000	      0.00052408	      0.00440573	      0.01462934
      6.94000000	      0.00052332	      0.00440253	      0.01451795
      6.95000000	      0.00052510	      0.00441000	      0.01416532
      6.96000000	      0.00053291	      0.00444266	      0.01354424
      6.97000000	      0.00052174	      0.00439589	      0.01362088
      6.98000000	      0.00051642	      0.00437342	      0.01291039
      6.99000000	      0.00049809	      0.00429509	      0.01263474
      7.00000000	      0.00047712	      0.00420369	      0.01212623
      7.01000000	      0.00045778	      0.00411761	      0.01114289
      7.02000000	      0.00043479	      0.00401288	      0.01069424
      7.03000000	      0.00040477	      0.00387190	      0.01057186
      7.04000000	      0.00037830	      0.00374312	      0.01012331
      7.05000000	      0.00036331	      0.00366824	      0.00955200
      7.06000000	      0.00035564	      0.00362930	      0.00882302
      7.07000000	      0.00034788	      0.00358950	      0.00915439
      7.08000000	      0.00034960	      0.00359834	      0.00914387
      7.09000000	      0.00033858	      0.00354118	      0.00941829
      7.10000000	      0.00032484	      0.00346859	      0.00893783
      7.11000000	      0.00031991	      0.00344218	      0.00863501
      7.12000000	      0.00030896	      0.00338275	      0.00862333
      7.13000000	      0.00029368	      0.00329804	      0.00834888
      7.14000000	      0.00028298	      0.00323740	      0.00783546
      7.15000000	      0.00026587	      0.00313802	      0.00755127
      7.16000000	      0.00025430	      0.00306897	      0.00697668
      7.17000000	      0.00023226	      0.00293294	      0.00685272
      7.18000000	      0.00021964	      0.00285219	      0.00638527
      7.19000000	      0.00021174	      0.00280038	      0.00601772
      7.20000000	      0.00019128	      0.00266165	      0.00595376
      7.21000000	      0.00017838	      0.00257035	      0.00581702
      7.22000000	      0.00016483	      0.00247077	      0.00559022
      7.23000000	      0.00015941	      0.00242983	      0.00542041
      7.24000000	      0.00014264	      0.00229848	      0.00514248
      7.25000000	      0.00013674	      0.00225043	      0.00498636
      7.26000000	      0.00012869	      0.00218318	      0.00480151
      7.27000000	      0.00012539	      0.00215498	      0.00465263
      7.28000000	      0.00012315	      0.00213568	      0.00466602
      7.29000000	      0.00011664	      0.00207849	      0.00454124
      7.30000000	      0.00011492	      0.00206306	      0.00447375
      7.31000000	      0.00010767	      0.00199697	      0.00437900
      7.32000000	      0.00010723	      0.00199289	      0.00433265
      7.33000000	      0.00010361	      0.00195890	      0.00426353
      7.34000000	      0.00009991	      0.00192359	      0.00426657
      7.35000000	      0.00009924	      0.00191722	      0.00416499
      7.36000000	      0.00009848	      0.00190985	      0.00401194
      7.37000000	      0.00008999	      0.00182569	      0.00396667
      7.38000000	      0.00009156	      0.00184151	      0.00394314
      7.39000000	      0.00008062	      0.00172799	      0.00366891
      7.40000000	      0.00008164	      0.00173890	      0.00359990
      7.41000000	      0.00007749	      0.00169408	      0.00330264
      7.42000000	      0.00007308	      0.00164521	      0.00319198
      7.43000000	      0.00007232	      0.00163666	      0.00316639
      7.44000000	      0.00007496	      0.00166625	      0.00336846
      7.45000000	      0.00007116	      0.00162346	      0.00322064
      7.46000000	      0.00007372	      0.00165240	      0.00340805
      7.47000000	      0.00007394	      0.00165486	      0.00331962
      7.48000000	      0.00007782	      0.00169766	      0.00349463
      7.49000000	      0.00008077	      0.00172957	      0.00351394
      7.50000000	      0.00007987	      0.00171990	      0.00326911
      7.51000000	      0.00008429	      0.00176687	      0.00337832
      7.52000000	      0.00008542	      0.00177871	      0.00323559
      7.53000000	      0.00008994	      0.00182516	      0.00330505
      7.54000000	      0.00009413	      0.00186714	      0.00336931
      7.55000000	      0.00009671	      0.00189255	      0.00344655
      7.56000000	      0.00010078	      0.00193204	      0.00366935
      7.57000000	      0.00010210	      0.00194456	      0.00374653
      7.58000000	      0.00010555	      0.00197716	      0.00397386
      7.59000000	      0.00010880	      0.00200741	      0.00404271
      7.60000000	      0.00010682	      0.00198906	      0.00399951
      7.61000000	      0.00010896	      0.00200890	      0.00404372
      7.62000000	      0.00011088	      0.00202653	      0.00401973
      7.63000000	      0.00011305	      0.00204621	      0.00401313
      7.64000000	      0.00011140	      0.00203126	      0.00387540
      7.65000000	      0.00011278	      0.00204378	      0.00384462
      7.66000000	      0.00011387	      0.00205365	      0.00403944
      7.67000000	      0.00011281	      0.00204408	      0.00395854
      7.68000000	      0.00011405	      0.00205528	      0.00408238
      7.69000000	      0.00011624	      0.00207490	      0.00415398
      7.70000000	      0.00011575	      0.00207052	      0.00412573
      7.71000000	      0.00011873	      0.00209699	      0.00421586
      7.72000000	      0.00011920	      0.00210119	      0.00422192
      7.73000000	      0.00012332	      0.00213716	      0.00430932
      7.74000000	      0.00012722	      0.00217068	      0.00423186
      7.75000000	      0.00013440	      0.00223111	      0.00434310
      7.76000000	      0.00013467	      0.00223330	      0.00443906
      7.77000000	      0.00014225	      0.00229536	      0.00442700
      7.78000000	      0.00014376	      0.00230751	      0.00442464
      7.79000000	      0.00015099	      0.00236481	      0.00439286
      7.80000000	      0.00015814	      0.00242014	      0.00453516
      7.81000000	      0.00017288	      0.00253041	      0.00564362
      7.82000000	      0.00017495	      0.00254553	      0.00529909
      7.83000000	      0.00018269	      0.00260124	      0.00580493
      7.84000000	      0.00019488	      0.00268658	      0.00646812
      7.85000000	      0.00020735	      0.00277119	      0.00684963
      7.86000000	      0.00022044	      0.00285735	      0.00731193
      7.87000000	      0.00023266	      0.00293550	      0.00778872
      7.88000000	      0.00024864	      0.00303464	      0.00833596
      7.89000000	      0.00026543	      0.00313541	      0.00870157
      7.90000000	      0.00028437	      0.00324534	      0.00952071
      7.91000000	      0.00030131	      0.00334059	      0.00973027
      7.92000000	      0.00031945	      0.00343968	      0.01019949
      7.93000000	      0.00033878	      0.00354222	      0.01072046
      7.94000000	      0.00035779	      0.00364024	      0.01112477
      7.95000000	      0.00037820	      0.00374267	      0.01172234
      7.96000000	      0.00039495	      0.00382464	      0.01188745
      7.97000000	      0.00041290	      0.00391059	      0.01241971
      7.98000000	      0.00042637	      0.00397384	      0.01250914
      7.99000000	      0.00044000	      0.00403686	      0.01291654
      8.00000000	      0.00045470	      0.00410373	      0.01359140
      8.01000000	      0.00045550	      0.00410737	      0.01298660
      8.02000000	      0.00045894	      0.00412285	      0.01308355
      8.03000000	      0.00046084	      0.00413138	      0.01293871
      8.04000000	      0.00045454	      0.00410301	      0.01282015
      8.05000000	      0.00044787	      0.00407280	      0.01249115
      8.06000000	      0.00043955	      0.00403480	      0.01197518
      8.07000000	      0.00042749	      0.00397908	      0.01174055
      8.08000000	      0.00041064	      0.00389985	      0.01164871
      8.09000000	      0.00039676	      0.00383337	      0.01071063
      8.10000000	      0.00037714	      0.00373740	      0.01077157
      8.11000000	      0.00035976	      0.00365026	      0.01010994
      8.12000000	      0.00034275	      0.00356292	      0.00941977
      8.13000000	      0.00032509	      0.00346993	      0.00884564
      8.14000000	      0.00030293	      0.00334957	      0.00856756
      8.15000000	      0.00028684	      0.00325943	      0.00745543
      8.16000000	      0.00027034	      0.00316426	      0.00694462
      8.17000000	      0.00025238	      0.00305738	      0.00653152
      8.18000000	      0.00024250	      0.00299692	      0.00620368
      8.19000000	      0.00021530	      0.00282385	      0.00636866
      8.20000000	      0.00020273	      0.00274020	      0.00621884
      8.21000000	      0.00018636	      0.00262723	      0.00618854
      8.22000000	      0.00017857	      0.00257175	      0.00606688
      8.23000000	      0.00017150	      0.00252027	      0.00591790
      8.24000000	      0.00015419	      0.00238975	      0.00602448
      8.25000000	      0.00014798	      0.00234113	      0.00571480
      8.26000000	      0.00014703	      0.00233358	      0.00563083
      8.27000000	      0.00014929	      0.00235142	      0.00557422
      8.28000000	      0.00014746	      0.00233701	      0.00557289
      8.29000000	      0.00015370	      0.00238595	      0.00564600
      8.30000000	      0.00015448	      0.00239197	      0.00547855
      8.31000000	      0.00016091	      0.00244125	      0.00549406
      8.32000000	      0.00016429	      0.00246676	      0.00536066
      8.33000000	      0.00016230	      0.00245173	      0.00525926
      8.34000000	      0.00016831	      0.00249676	      0.00538111
      8.35000000	      0.00016554	      0.00247613	      0.00529552
      8.36000000	      0.00017099	      0.00251654	      0.00551251
      8.37000000	      0.00016861	      0.00249894	      0.00561700
      8.38000000	      0.00017230	      0.00252618	      0.00576836
      8.39000000	      0.00017062	      0.00251382	      0.00593822
      8.40000000	      0.00017053	      0.00251312	      0.00606836
      8.41000000	      0.00017219	      0.00252537	      0.00610391
      8.42000000	      0.00016790	      0.00249371	      0.00621749
      8.43000000	      0.00016496	      0.00247179	      0.00622885
      8.44000000	      0.00016349	      0.00246075	      0.00609785
      8.45000000	      0.00015627	      0.00240580	      0.00603477
      8.46000000	      0.00015263	      0.00237760	      0.00576178
      8.47000000	      0.00014444	      0.00231291	      0.00557694
      8.48000000	      0.00014090	      0.00228438	      0.00515918
      8.49000000	      0.00013653	      0.00224871	      0.00478149
      8.50000000	      0.00012882	      0.00218425	      0.00439367
      8.51000000	      0.00012484	      0.00215025	      0.00406222
      8.52000000	      0.00012278	      0.00213246	      0.00402856
      8.53000000	      0.00012656	      0.00216502	      0.00385580
      8.54000000	      0.00012422	      0.00214491	      0.00383932
      8.55000000	      0.00013019	      0.00219589	      0.00367848
      8.56000000	      0.00013001	      0.00219432	      0.00374935
      8.57000000	      0.00013862	      0.00226585	      0.00368451
      8.58000000	      0.00013883	      0.00226758	      0.00385524
      8.59000000	      0.00014938	      0.00235216	      0.00408047
      8.60000000	      0.00014773	      0.00233912	      0.00424959
      8.61000000	      0.00015228	      0.00237487	      0.00450282
      8.62000000	      0.00015515	      0.00239716	      0.00458117
      8.63000000	      0.00015883	      0.00242540	      0.00477446
      8.64000000	      0.00016231	      0.00245184	      0.00491988
      8.65000000	      0.00016549	      0.00247572	      0.00505054
      8.66000000	      0.00016402	      0.00246475	      0.00499849
      8.67000000	      0.00016608	      0.00248013	      0.00512224
      8.68000000	      0.00017233	      0.00252634	      0.00511009
      8.69000000	      0.00017273	      0.00252932	      0.00535634
      8.70000000	      0.00017999	      0.00258193	      0.00528726
      8.71000000	      0.00017474	      0.00254400	      0.00540503
      8.72000000	      0.00016556	      0.00247629	      0.00521030
      8.73000000	      0.00016379	      0.00246299	      0.00519277
      8.74000000	      0.00016069	      0.00243954	      0.00526106
      8.75000000	      0.00015881	      0.00242528	      0.00526350
      8.76000000	      0.00014611	      0.00232622	      0.00514321
      8.77000000	      0.00014214	      0.00229443	      0.00516647
      8.78000000	      0.00013561	      0.00224113	      0.00508086
      8.79000000	      0.00013471	      0.00223363	      0.00510506
      8.80000000	      0.00012902	      0.00218597	      0.00502004
      8.81000000	      0.00012664	      0.00216569	      0.00509816
      8.82000000	      0.00012669	      0.00216612	      0.00500179
      8.83000000	      0.00012734	      0.00217167	      0.00499180
      8.84000000	      0.00013393	      0.00222716	      0.00485146
      8.85000000	      0.00013853	      0.00226515	      0.00501323
      8.86000000	      0.00014884	      0.00234792	      0.00496194
      8.87000000	      0.00016870	      0.00249965	      0.00590118
      8.88000000	      0.00017989	      0.00258120	      0.00557048
      8.89000000	      0.00020128	      0.00273038	      0.00651962
      8.90000000	      0.00022331	      0.00287592	      0.00708526
      8.91000000	      0.00024835	      0.00303287	      0.00778718
      8.92000000	      0.00027499	      0.00319136	      0.00847865
      8.93000000	      0.00029756	      0.00331973	      0.00883092
      8.94000000	      0.00032551	      0.00347215	      0.00954116
      8.95000000	      0.00035216	      0.00361149	      0.01001883
      8.96000000	      0.00037783	      0.00374080	      0.01049424
      8.97000000	      0.00039895	      0.00384395	      0.01092044
      8.98000000	      0.00042103	      0.00394887	      0.01154464
      8.99000000	      0.00045299	      0.00409601	      0.01210969
      9.00000000	      0.00049732	      0.00429178	      0.01346299
      9.01000000	      0.00051344	      0.00436079	      0.01312496
      9.02000000	      0.00054650	      0.00449896	      0.01410116
      9.03000000	      0.00055957	      0.00455245	      0.01430296
      9.04000000	      0.00056372	      0.00456930	      0.01427333
      9.05000000	      0.00056638	      0.00458007	      0.01446233
      9.06000000	      0.00056202	      0.00456240	      0.01449748
      9.07000000	      0.00055240	      0.00452319	      0.01431642
      9.08000000	      0.00053910	      0.00446841	      0.01402419
      9.09000000	      0.00052508	      0.00440991	      0.01349836
      9.10000000	      0.00050447	      0.00432253	      0.01301830
      9.11000000	      0.00049001	      0.00426013	      0.01208122
      9.12000000	      0.00045952	      0.00412545	      0.01191184
      9.13000000	      0.00043411	      0.00400975	      0.01116256
      9.14000000	      0.00040891	      0.00389163	      0.01040053
      9.15000000	      0.00038194	      0.00376109	      0.00984610
      9.16000000	      0.00036388	      0.00367112	      0.00871503
      9.17000000	      0.00033234	      0.00350838	      0.00880572
      9.18000000	      0.00031451	      0.00341301	      0.00822824
      9.19000000	      0.00029713	      0.00331735	      0.00793923
      9.20000000	      0.00028278	      0.00323627	      0.00774012
      9.21000000	      0.00027518	      0.00319248	      0.00738992
      9.22000000	      0.00026302	      0.00312114	      0.00734833
      9.23000000	      0.00025639	      0.00308156	      0.00724586
      9.24000000	      0.00024680	      0.00302335	      0.00723626
      9.25000000	      0.00024412	      0.00300688	      0.00693527
      9.26000000	      0.00022125	      0.00286260	      0.00693431
      9.27000000	      0.00021299	      0.00280862	      0.00655852
      9.28000000	      0.00019920	      0.00271619	      0.00640251
      9.29000000	      0.00018160	      0.00259343	      0.00620035
      9.30000000	      0.00017616	      0.00255430	      0.00605185
      9.31000000	      0.00016865	      0.00249926	      0.00611633
      9.32000000	      0.00015026	      0.00235908	      0.00576221
      9.33000000	      0.00015123	      0.00236664	      0.00589419
      9.34000000	      0.00013894	      0.00226847	      0.00581453
      9.35000000	      0.00014511	      0.00231828	      0.00593494
      9.36000000	      0.00014611	      0.00232622	      0.00613032
      9.37000000	      0.00014650	      0.00232934	      0.00615239
      9.38000000	      0.00014097	      0.00228496	      0.00611320
      9.39000000	      0.00014680	      0.00233172	      0.00616771
      9.40000000	      0.00015872	      0.00242458	      0.00634342
      9.41000000	      0.00015907	      0.00242726	      0.00620982
      9.42000000	      0.00017128	      0.00251864	      0.00646459
      9.43000000	      0.00018578	      0.00262313	      0.00643358
      9.44000000	      0.00018338	      0.00260611	      0.00643521
      9.45000000	      0.00019519	      0.00268872	      0.00649693
      9.46000000	      0.00020584	      0.00276111	      0.00646934
      9.47000000	      0.00019925	      0.00271652	      0.00642134
      9.48000000	      0.00020355	      0.00274570	      0.00635698
      9.49000000	      0.00019955	      0.00271860	      0.00621589
      9.50000000	      0.00019961	      0.00271903	      0.00661068
      9.51000000	      0.00019442	      0.00268342	      0.00644299
      9.52000000	      0.00018975	      0.00265101	      0.00644520
      9.53000000	      0.00018508	      0.00261816	      0.00639948
      9.54000000	      0.00017887	      0.00257390	      0.00602044
      9.55000000	      0.00016080	      0.00244042	      0.00572038
      9.56000000	      0.00015267	      0.00237788	      0.00515005
      9.57000000	      0.00013849	      0.00226481	      0.00533474
      9.58000000	      0.00012576	      0.00215823	      0.00518001
      9.59000000	      0.00011484	      0.00206238	      0.00474040
      9.60000000	      0.00010450	      0.00196737	      0.00458041
      9.61000000	      0.00009562	      0.00188185	      0.00403892
      9.62000000	      0.00008994	      0.00182509	      0.00379217
      9.63000000	      0.00008483	      0.00177253	      0.00368901
      9.64000000	      0.00007810	      0.00170072	      0.00362302
      9.65000000	      0.00007488	      0.00166534	      0.00374091
      9.66000000	      0.00007616	      0.00167946	      0.00425053
      9.67000000	      0.00007512	      0.00166804	      0.00429425
      9.68000000	      0.00007649	      0.00168314	      0.00428031
      9.69000000	      0.00008539	      0.00177837	      0.00493769
      9.70000000	      0.00008510	      0.00177531	      0.00446214
      9.71000000	      0.00009188	      0.00184474	      0.00474203
      9.72000000	      0.00009951	      0.00191979	      0.00470849
      9.73000000	      0.00010933	      0.00201224	      0.00489850
      9.74000000	      0.00011995	      0.00210775	      0.00481755
      9.75000000	      0.00013585	      0.00224310	      0.00515427
      9.76000000	      0.00014625	      0.00232735	      0.00540627
      9.77000000	      0.00016286	      0.00245602	      0.00615484
      9.78000000	      0.00017858	      0.00257177	      0.00686464
      9.79000000	      0.00020061	      0.00272580	      0.00785965
      9.80000000	      0.00022081	      0.00285976	      0.00831816
      9.81000000	      0.00024759	      0.00302821	      0.00938362
      9.82000000	      0.00026690	      0.00314408	      0.00958753
      9.83000000	      0.00028806	      0.00326635	      0.01015735
      9.84000000	      0.00031264	      0.00340284	      0.01098231
      9.85000000	      0.00033761	      0.00353609	      0.01165611
      9.86000000	      0.00035544	      0.00362826	      0.01188033
      9.87000000	      0.00037675	      0.00373546	      0.01260727
      9.88000000	      0.00039379	      0.00381900	      0.01277199
      9.89000000	      0.00041186	      0.00390563	      0.01354236
      9.90000000	      0.00041804	      0.00393482	      0.01309837
      9.91000000	      0.00042336	      0.00395982	      0.01317678
      9.92000000	      0.00042512	      0.00396801	      0.01300952
      9.93000000	      0.00042349	      0.00396042	      0.01266114
      9.94000000	      0.00041819	      0.00393553	      0.01221177
      9.95000000	      0.00040117	      0.00385464	      0.01239856
      9.96000000	      0.00038807	      0.00379119	      0.01158003
      9.97000000	      0.00037413	      0.00372246	      0.01079456
      9.98000000	      0.00034596	      0.00357956	      0.01074221
      9.99000000	      0.00032538	      0.00347147	      0.00989413
     10.00000000	      0.00030324	      0.00335130	      0.00919790
     10.01000000	      0.00028143	      0.00322853	      0.00846375
     10.02000000	      0.00025925	      0.00309871	      0.00760648
     10.03000000	      0.00024199	      0.00299379	      0.00662085
     10.04000000	      0.00022674	      0.00289789	      0.00579162
     10.05000000	      0.00021543	      0.00282470	      0.00531676
     10.06000000	      0.00020617	      0.00276330	      0.00524792
     10.07000000	      0.00020750	      0.00277224	      0.00507902
     10.08000000	      0.00020727	      0.00277066	      0.00506659
     10.09000000	      0.00020747	      0.00277204	      0.00529136
     10.10000000	      0.00021500	      0.00282186	      0.00566390
     10.11000000	      0.00022885	      0.00291132	      0.00590974
     10.12000000	      0.00024265	      0.00299785	      0.00610515
     10.13000000	      0.00023556	      0.00295370	      0.00620799
     10.14000000	      0.00024476	      0.00301086	      0.00623528
     10.15000000	      0.00024765	      0.00302858	      0.00636512
     10.16000000	      0.00025035	      0.00304503	      0.00625406
     10.17000000	      0.00025418	      0.00306823	      0.00615876
     10.18000000	      0.00025694	      0.00308488	      0.00611332
     10.19000000	      0.00025680	      0.00308399	      0.00614671
     10.20000000	      0.00026077	      0.00310773	      0.00617238
     10.21000000	      0.00027145	      0.00317075	      0.00636651
     10.22000000	      0.00026977	      0.00316093	      0.00650389
     10.23000000	      0.00027365	      0.00318355	      0.00668042
     10.24000000	      0.00028087	      0.00322531	      0.00685304
     10.25000000	      0.00028083	      0.00322508	      0.00702239
     10.26000000	      0.00028472	      0.00324732	      0.00708881
     10.27000000	      0.00027815	      0.00320962	      0.00724458
     10.28000000	      0.00027393	      0.00318518	      0.00716669
     10.29000000	      0.00026680	      0.00314349	      0.00707185
     10.30000000	      0.00025733	      0.00308721	      0.00697488
     10.31000000	      0.00024887	      0.00303603	      0.00680314
     10.32000000	      0.00024131	      0.00298958	      0.00653273
     10.33000000	      0.00022358	      0.00287762	      0.00642664
     10.34000000	      0.00021110	      0.00279619	      0.00626439
     10.35000000	      0.00020095	      0.00272815	      0.00592028
     10.36000000	      0.00019643	      0.00269723	      0.00552541
     10.37000000	      0.00017902	      0.00257495	      0.00527844
     10.38000000	      0.00017413	      0.00253952	      0.00494288
     10.39000000	      0.00016145	      0.00244532	      0.00469283
     10.40000000	      0.00015363	      0.00238541	      0.00443931
     10.41000000	      0.00015135	      0.00236762	      0.00427042
     10.42000000	      0.00014645	      0.00232893	      0.00407355
     10.43000000	      0.00014167	      0.00229066	      0.00385695
     10.44000000	      0.00013561	      0.00224111	      0.00363240
     10.45000000	      0.00013494	      0.00223557	      0.00371320
     10.46000000	      0.00013867	      0.00226626	      0.00388273
     10.47000000	      0.00013443	      0.00223134	      0.00398506
     10.48000000	      0.00013681	      0.00225104	      0.00404829
     10.49000000	      0.00013695	      0.00225217	      0.00418899
     10.50000000	      0.00013575	      0.00224226	      0.00429809
     10.51000000	      0.00013663	      0.00224951	      0.00414606
     10.52000000	      0.00014067	      0.00228256	      0.00419425
     10.53000000	      0.00013968	      0.00227448	      0.00375013
     10.54000000	      0.00013390	      0.00222697	      0.00408199
     10.55000000	      0.00013233	      0.00221383	      0.00388462
     10.56000000	      0.00013074	      0.00220048	      0.00396994
     10.57000000	      0.00012635	      0.00216322	      0.00405369
     10.58000000	      0.00011997	      0.00210790	      0.00423903
     10.59000000	      0.00011688	      0.00208062	      0.00419177
     10.60000000	      0.00011240	      0.00204036	      0.00420666
     10.61000000	      0.00011370	      0.00205208	      0.00413525
     10.62000000	      0.00010671	      0.00198804	      0.00431185
     10.63000000	      0.00010770	      0.00199723	      0.00415213
     10.64000000	      0.00011040	      0.00202211	      0.00397218
     10.65000000	      0.00010565	      0.00197814	      0.00408405
     10.66000000	      0.00010665	      0.00198747	      0.00385594
     10.67000000	      0.00010546	      0.00197638	      0.00385239
     10.68000000	      0.00010420	      0.00196452	      0.00372053
     10.69000000	      0.00010254	      0.00194879	      0.00379443
     10.70000000	      0.00010035	      0.00192782	      0.00389052
     10.71000000	      0.00009536	      0.00187934	      0.00399077
     10.72000000	      0.00009310	      0.00185691	      0.00406240
     10.73000000	      0.00009033	      0.00182906	      0.00410681
     10.74000000	      0.00009204	      0.00184634	      0.00429684
     10.75000000	      0.00008672	      0.00179217	      0.00421497
     10.76000000	      0.00008819	      0.00180725	      0.00430061
     10.77000000	      0.00008880	      0.00181356	      0.00426565
     10.78000000	      0.00009343	      0.00186017	      0.00427473
     10.79000000	      0.00009719	      0.00189729	      0.00422106
     10.80000000	      0.00010399	      0.00196249	      0.00422160
     10.81000000	      0.00011159	      0.00203295	      0.00438810
     10.82000000	      0.00012139	      0.00212039	      0.00463010
     10.83000000	      0.00013267	      0.00221669	      0.00498793
     10.84000000	      0.00014719	      0.00233483	      0.00535106
     10.85000000	      0.00016670	      0.00248480	      0.00672857
     10.86000000	      0.00017967	      0.00257963	      0.00657067
     10.87000000	      0.00020159	      0.00273242	      0.00784452
     10.88000000	      0.00021878	      0.00284658	      0.00797370
     10.89000000	      0.00023877	      0.00297375	      0.00849606
     10.90000000	      0.00025975	      0.00310168	      0.00924755
     10.91000000	      0.00027897	      0.00321438	      0.00974031
     10.92000000	      0.00029632	      0.00331282	      0.01014666
     10.93000000	      0.00031411	      0.00341084	      0.01073545
     10.94000000	      0.00032740	      0.00348221	      0.01100554
     10.95000000	      0.00033692	      0.00353249	      0.01123224
     10.96000000	      0.00034614	      0.00358052	      0.01142304
     10.97000000	      0.00036063	      0.00365465	      0.01204940
     10.98000000	      0.00037587	      0.00373111	      0.01233973
     10.99000000	      0.00038686	      0.00378525	      0.01229709
     11.00000000	      0.00040897	      0.00389194	      0.01295390
