Model Marker Errors from IK
version=1
nRows=289
nColumns=4
inDegrees=no
endheader
time	total_squared_error	marker_error_RMS	marker_error_max
      0.00000000	      0.00037919	      0.00389456	      0.00726485
      0.01000000	      0.00034343	      0.00370635	      0.00806551
      0.02000000	      0.00032346	      0.00359699	      0.00886500
      0.03000000	      0.00033284	      0.00364877	      0.00975601
      0.04000000	      0.00036213	      0.00380596	      0.01034773
      0.05000000	      0.00041014	      0.00405036	      0.01117479
      0.06000000	      0.00046101	      0.00429422	      0.01143631
      0.07000000	      0.00052211	      0.00456993	      0.01220079
      0.08000000	      0.00057210	      0.00478372	      0.01258621
      0.09000000	      0.00063122	      0.00502481	      0.01351438
      0.10000000	      0.00067517	      0.00519680	      0.01533586
      0.11000000	      0.00071666	      0.00535411	      0.01569383
      0.12000000	      0.00072939	      0.00540145	      0.01643437
      0.13000000	      0.00072841	      0.00539780	      0.01634131
      0.14000000	      0.00072202	      0.00537409	      0.01571143
      0.15000000	      0.00070247	      0.00530084	      0.01541859
      0.16000000	      0.00068875	      0.00524880	      0.01466939
      0.17000000	      0.00066401	      0.00515367	      0.01408349
      0.18000000	      0.00063204	      0.00502809	      0.01337049
      0.19000000	      0.00061181	      0.00494698	      0.01283368
      0.20000000	      0.00058569	      0.00484019	      0.01263849
      0.21000000	      0.00059476	      0.00487755	      0.01244174
      0.22000000	      0.00060141	      0.00490472	      0.01218616
      0.23000000	      0.00062179	      0.00498715	      0.01180825
      0.24000000	      0.00065223	      0.00510778	      0.01120687
      0.25000000	      0.00067695	      0.00520364	      0.01119553
      0.26000000	      0.00069697	      0.00528006	      0.01132205
      0.27000000	      0.00070605	      0.00531432	      0.01142129
      0.28000000	      0.00070047	      0.00529328	      0.01141603
      0.29000000	      0.00067430	      0.00519344	      0.01147938
      0.30000000	      0.00063988	      0.00505916	      0.01150628
      0.31000000	      0.00056801	      0.00476659	      0.01149522
      0.32000000	      0.00050991	      0.00451623	      0.01146388
      0.33000000	      0.00047381	      0.00435343	      0.01143252
      0.34000000	      0.00048384	      0.00439926	      0.01142032
      0.35000000	      0.00049658	      0.00445683	      0.01138551
      0.36000000	      0.00054545	      0.00467099	      0.01148072
      0.37000000	      0.00058963	      0.00485646	      0.01153585
      0.38000000	      0.00065141	      0.00510455	      0.01147424
      0.39000000	      0.00073473	      0.00542118	      0.01297041
      0.40000000	      0.00081960	      0.00572572	      0.01683964
      0.41000000	      0.00086878	      0.00589500	      0.01892308
      0.42000000	      0.00084281	      0.00580624	      0.01885339
      0.43000000	      0.00072385	      0.00538088	      0.01696615
      0.44000000	      0.00057157	      0.00478150	      0.01343191
      0.45000000	      0.00043414	      0.00416720	      0.00943677
      0.46000000	      0.00034233	      0.00370046	      0.00865869
      0.47000000	      0.00027772	      0.00333300	      0.00720681
      0.48000000	      0.00024043	      0.00310115	      0.00597648
      0.49000000	      0.00020841	      0.00288726	      0.00520138
      0.50000000	      0.00018281	      0.00270414	      0.00486717
      0.51000000	      0.00016869	      0.00259761	      0.00488932
      0.52000000	      0.00017036	      0.00261048	      0.00512472
      0.53000000	      0.00018549	      0.00272387	      0.00513182
      0.54000000	      0.00022395	      0.00299296	      0.00658063
      0.55000000	      0.00028477	      0.00337504	      0.00818617
      0.56000000	      0.00034035	      0.00368972	      0.00988588
      0.57000000	      0.00043724	      0.00418208	      0.01206562
      0.58000000	      0.00053933	      0.00464471	      0.01438021
      0.59000000	      0.00062424	      0.00499697	      0.01688423
      0.60000000	      0.00070707	      0.00531814	      0.01827272
      0.61000000	      0.00074869	      0.00547242	      0.01967750
      0.62000000	      0.00076526	      0.00553268	      0.02007177
      0.63000000	      0.00076150	      0.00551905	      0.01953211
      0.64000000	      0.00073977	      0.00543975	      0.01871736
      0.65000000	      0.00070021	      0.00529228	      0.01814808
      0.66000000	      0.00067987	      0.00521486	      0.01707290
      0.67000000	      0.00067379	      0.00519149	      0.01606271
      0.68000000	      0.00070378	      0.00530576	      0.01511430
      0.69000000	      0.00073676	      0.00542865	      0.01469423
      0.70000000	      0.00078209	      0.00559316	      0.01410286
      0.71000000	      0.00084208	      0.00580371	      0.01421776
      0.72000000	      0.00090188	      0.00600626	      0.01492339
      0.73000000	      0.00094926	      0.00616201	      0.01538643
      0.74000000	      0.00098346	      0.00627203	      0.01584838
      0.75000000	      0.00099754	      0.00631677	      0.01594927
      0.76000000	      0.00098380	      0.00627313	      0.01573353
      0.77000000	      0.00094181	      0.00613777	      0.01508492
      0.78000000	      0.00087939	      0.00593092	      0.01394585
      0.79000000	      0.00081127	      0.00569657	      0.01276251
      0.80000000	      0.00073347	      0.00541654	      0.01100746
      0.81000000	      0.00065873	      0.00513314	      0.00955420
      0.82000000	      0.00062058	      0.00498229	      0.00947288
      0.83000000	      0.00061301	      0.00495182	      0.00926956
      0.84000000	      0.00061481	      0.00495905	      0.00951029
      0.85000000	      0.00063003	      0.00502008	      0.00961177
      0.86000000	      0.00062437	      0.00499747	      0.00924916
      0.87000000	      0.00060905	      0.00493581	      0.00988002
      0.88000000	      0.00057160	      0.00478165	      0.00946827
      0.89000000	      0.00053318	      0.00461815	      0.00963287
      0.90000000	      0.00050261	      0.00448380	      0.00989413
      0.91000000	      0.00047519	      0.00435978	      0.00991827
      0.92000000	      0.00046004	      0.00428969	      0.01003345
      0.93000000	      0.00043693	      0.00418056	      0.00956664
      0.94000000	      0.00042269	      0.00411187	      0.00927593
      0.95000000	      0.00040110	      0.00400548	      0.00832618
      0.96000000	      0.00039003	      0.00394983	      0.00737196
      0.97000000	      0.00037742	      0.00388545	      0.00758270
      0.98000000	      0.00036917	      0.00384277	      0.00836017
      0.99000000	      0.00036742	      0.00383366	      0.00908614
      1.00000000	      0.00037041	      0.00384919	      0.00948877
      1.01000000	      0.00038856	      0.00394240	      0.01003473
      1.02000000	      0.00042160	      0.00410659	      0.01064686
      1.03000000	      0.00046263	      0.00430179	      0.01088565
      1.04000000	      0.00051159	      0.00452366	      0.01125059
      1.05000000	      0.00058168	      0.00482359	      0.01202886
      1.06000000	      0.00063938	      0.00505721	      0.01249070
      1.07000000	      0.00067129	      0.00518185	      0.01426110
      1.08000000	      0.00072578	      0.00538807	      0.01489171
      1.09000000	      0.00075381	      0.00549112	      0.01616535
      1.10000000	      0.00077926	      0.00558304	      0.01645179
      1.11000000	      0.00078944	      0.00561941	      0.01650035
      1.12000000	      0.00076866	      0.00554495	      0.01682383
      1.13000000	      0.00075603	      0.00549918	      0.01653479
      1.14000000	      0.00073272	      0.00541376	      0.01623355
      1.15000000	      0.00071349	      0.00534224	      0.01571290
      1.16000000	      0.00069269	      0.00526381	      0.01510942
      1.17000000	      0.00066722	      0.00516612	      0.01413641
      1.18000000	      0.00065954	      0.00513631	      0.01349518
      1.19000000	      0.00065789	      0.00512987	      0.01274712
      1.20000000	      0.00066302	      0.00514983	      0.01191537
      1.21000000	      0.00067501	      0.00519621	      0.01154046
      1.22000000	      0.00068126	      0.00522020	      0.01124455
      1.23000000	      0.00068767	      0.00524468	      0.01159941
      1.24000000	      0.00070598	      0.00531404	      0.01169975
      1.25000000	      0.00067663	      0.00520243	      0.01199679
      1.26000000	      0.00065484	      0.00511796	      0.01210716
      1.27000000	      0.00065349	      0.00511270	      0.01194274
      1.28000000	      0.00063781	      0.00505098	      0.01237100
      1.29000000	      0.00061903	      0.00497608	      0.01251143
      1.30000000	      0.00060301	      0.00491127	      0.01219936
      1.31000000	      0.00064768	      0.00508991	      0.01234548
      1.32000000	      0.00068949	      0.00525164	      0.01226258
      1.33000000	      0.00074605	      0.00546278	      0.01241037
      1.34000000	      0.00079412	      0.00563601	      0.01227741
      1.35000000	      0.00079006	      0.00562159	      0.01239981
      1.36000000	      0.00077953	      0.00558402	      0.01247072
      1.37000000	      0.00075438	      0.00549318	      0.01238868
      1.38000000	      0.00072478	      0.00538433	      0.01218731
      1.39000000	      0.00069090	      0.00525700	      0.01190059
      1.40000000	      0.00065662	      0.00512493	      0.01158313
      1.41000000	      0.00062714	      0.00500856	      0.01114510
      1.42000000	      0.00057800	      0.00480833	      0.01011247
      1.43000000	      0.00053363	      0.00462007	      0.00932200
      1.44000000	      0.00049009	      0.00442760	      0.00827319
      1.45000000	      0.00043953	      0.00419299	      0.00731659
      1.46000000	      0.00040442	      0.00402206	      0.00682344
      1.47000000	      0.00034702	      0.00372571	      0.00630253
      1.48000000	      0.00030460	      0.00349054	      0.00612350
      1.49000000	      0.00028286	      0.00336367	      0.00575629
      1.50000000	      0.00027821	      0.00333591	      0.00572242
      1.51000000	      0.00028390	      0.00336984	      0.00564111
      1.52000000	      0.00031429	      0.00354566	      0.00594530
      1.53000000	      0.00036579	      0.00382514	      0.00827462
      1.54000000	      0.00044746	      0.00423067	      0.01025166
      1.55000000	      0.00053358	      0.00461987	      0.01300264
      1.56000000	      0.00064105	      0.00506377	      0.01517912
      1.57000000	      0.00073183	      0.00541046	      0.01748824
      1.58000000	      0.00080517	      0.00567512	      0.01929121
      1.59000000	      0.00084789	      0.00582371	      0.02046029
      1.60000000	      0.00086584	      0.00588502	      0.02053735
      1.61000000	      0.00082715	      0.00575205	      0.02090014
      1.62000000	      0.00078747	      0.00561239	      0.01983133
      1.63000000	      0.00072930	      0.00540110	      0.01906649
      1.64000000	      0.00068212	      0.00522349	      0.01782193
      1.65000000	      0.00067453	      0.00519434	      0.01625849
      1.66000000	      0.00065543	      0.00512026	      0.01531273
      1.67000000	      0.00067906	      0.00521175	      0.01447012
      1.68000000	      0.00070121	      0.00529609	      0.01396388
      1.69000000	      0.00073414	      0.00541899	      0.01364598
      1.70000000	      0.00076795	      0.00554237	      0.01410793
      1.71000000	      0.00079289	      0.00563165	      0.01450491
      1.72000000	      0.00080288	      0.00566704	      0.01457886
      1.73000000	      0.00080411	      0.00567136	      0.01472589
      1.74000000	      0.00075828	      0.00550739	      0.01351399
      1.75000000	      0.00070760	      0.00532015	      0.01234360
      1.76000000	      0.00064916	      0.00509570	      0.01080495
      1.77000000	      0.00059648	      0.00488460	      0.01010713
      1.78000000	      0.00056486	      0.00475334	      0.01014051
      1.79000000	      0.00056521	      0.00475482	      0.01001294
      1.80000000	      0.00058086	      0.00482019	      0.00991962
      1.81000000	      0.00059821	      0.00489168	      0.01027899
      1.82000000	      0.00061636	      0.00496530	      0.01091784
      1.83000000	      0.00060162	      0.00490560	      0.01006182
      1.84000000	      0.00057011	      0.00477539	      0.01004240
      1.85000000	      0.00052823	      0.00459665	      0.01022105
      1.86000000	      0.00048471	      0.00440321	      0.01011021
      1.87000000	      0.00044503	      0.00421915	      0.01009966
      1.88000000	      0.00041272	      0.00406311	      0.00990294
      1.89000000	      0.00038549	      0.00392676	      0.00951876
      1.90000000	      0.00035938	      0.00379145	      0.00892721
      1.91000000	      0.00033030	      0.00363485	      0.00823456
      1.92000000	      0.00030953	      0.00351869	      0.00702493
      1.93000000	      0.00028025	      0.00334812	      0.00764285
      1.94000000	      0.00026731	      0.00326991	      0.00852903
      1.95000000	      0.00027024	      0.00328781	      0.00939497
      1.96000000	      0.00028125	      0.00335411	      0.00997064
      1.97000000	      0.00031779	      0.00356534	      0.01060421
      1.98000000	      0.00037734	      0.00388503	      0.01137657
      1.99000000	      0.00044175	      0.00420357	      0.01165089
      2.00000000	      0.00051956	      0.00455879	      0.01234578
      2.01000000	      0.00059167	      0.00486484	      0.01378632
      2.02000000	      0.00066794	      0.00516893	      0.01496092
      2.03000000	      0.00074228	      0.00544898	      0.01593490
      2.04000000	      0.00078830	      0.00561533	      0.01729647
      2.05000000	      0.00080944	      0.00569013	      0.01820409
      2.06000000	      0.00082312	      0.00573801	      0.01799636
      2.07000000	      0.00080971	      0.00569107	      0.01808663
      2.08000000	      0.00079108	      0.00562521	      0.01747877
      2.09000000	      0.00075874	      0.00550906	      0.01710260
      2.10000000	      0.00073191	      0.00541078	      0.01624235
      2.11000000	      0.00070299	      0.00530279	      0.01551860
      2.12000000	      0.00068400	      0.00523068	      0.01463192
      2.13000000	      0.00067269	      0.00518727	      0.01365966
      2.14000000	      0.00067022	      0.00517774	      0.01291005
      2.15000000	      0.00067495	      0.00519598	      0.01230379
      2.16000000	      0.00068440	      0.00523220	      0.01180572
      2.17000000	      0.00069460	      0.00527106	      0.01132717
      2.18000000	      0.00072351	      0.00537963	      0.01166328
      2.19000000	      0.00071595	      0.00535146	      0.01116004
      2.20000000	      0.00072033	      0.00536780	      0.01137007
      2.21000000	      0.00071544	      0.00534954	      0.01132047
      2.22000000	      0.00070345	      0.00530454	      0.01162215
      2.23000000	      0.00066947	      0.00517482	      0.01155312
      2.24000000	      0.00064090	      0.00506320	      0.01162397
      2.25000000	      0.00062585	      0.00500341	      0.01172345
      2.26000000	      0.00063209	      0.00502828	      0.01180157
      2.27000000	      0.00066282	      0.00514904	      0.01188990
      2.28000000	      0.00073159	      0.00540958	      0.01186044
      2.29000000	      0.00076396	      0.00552796	      0.01208363
      2.30000000	      0.00080870	      0.00568753	      0.01196194
      2.31000000	      0.00080476	      0.00567367	      0.01198800
      2.32000000	      0.00078531	      0.00560469	      0.01192536
      2.33000000	      0.00074583	      0.00546199	      0.01171326
      2.34000000	      0.00070042	      0.00529308	      0.01127289
      2.35000000	      0.00066282	      0.00514904	      0.01080898
      2.36000000	      0.00060183	      0.00490646	      0.00984949
      2.37000000	      0.00055075	      0.00469361	      0.00903806
      2.38000000	      0.00049849	      0.00446538	      0.00803469
      2.39000000	      0.00045824	      0.00428132	      0.00755040
      2.40000000	      0.00040026	      0.00400130	      0.00757841
      2.41000000	      0.00035952	      0.00379218	      0.00714410
      2.42000000	      0.00032118	      0.00358430	      0.00656945
      2.43000000	      0.00028928	      0.00340165	      0.00602220
      2.44000000	      0.00026493	      0.00325535	      0.00578526
      2.45000000	      0.00026825	      0.00327569	      0.00548436
      2.46000000	      0.00028129	      0.00335432	      0.00534480
      2.47000000	      0.00031108	      0.00352749	      0.00687790
      2.48000000	      0.00035556	      0.00377126	      0.00876038
      2.49000000	      0.00041978	      0.00409768	      0.01063811
      2.50000000	      0.00049541	      0.00445156	      0.01281859
      2.51000000	      0.00058071	      0.00481957	      0.01465582
      2.52000000	      0.00064824	      0.00509212	      0.01655775
      2.53000000	      0.00069584	      0.00527575	      0.01794359
      2.54000000	      0.00071912	      0.00536327	      0.01849491
      2.55000000	      0.00070859	      0.00532387	      0.01873953
      2.56000000	      0.00067923	      0.00521240	      0.01833510
      2.57000000	      0.00063786	      0.00505120	      0.01757083
      2.58000000	      0.00060064	      0.00490160	      0.01655633
      2.59000000	      0.00057438	      0.00479325	      0.01550033
      2.60000000	      0.00055796	      0.00472424	      0.01449442
      2.61000000	      0.00058503	      0.00483747	      0.01378630
      2.62000000	      0.00059000	      0.00485798	      0.01321246
      2.63000000	      0.00062740	      0.00500958	      0.01299526
      2.64000000	      0.00066932	      0.00517423	      0.01321883
      2.65000000	      0.00071370	      0.00534302	      0.01400273
      2.66000000	      0.00074114	      0.00544479	      0.01432877
      2.67000000	      0.00074693	      0.00546602	      0.01450140
      2.68000000	      0.00074245	      0.00544957	      0.01444926
      2.69000000	      0.00069397	      0.00526867	      0.01321457
      2.70000000	      0.00063907	      0.00505598	      0.01196572
      2.71000000	      0.00058051	      0.00481878	      0.01032099
      2.72000000	      0.00053607	      0.00463063	      0.01028425
      2.73000000	      0.00052460	      0.00458085	      0.01021846
      2.74000000	      0.00052903	      0.00460013	      0.01039712
      2.75000000	      0.00056215	      0.00474192	      0.01019675
      2.76000000	      0.00059438	      0.00487596	      0.01032200
      2.77000000	      0.00061881	      0.00497517	      0.01035883
      2.78000000	      0.00061755	      0.00497013	      0.01031781
      2.79000000	      0.00060405	      0.00491548	      0.01021875
      2.80000000	      0.00058384	      0.00483256	      0.01026500
      2.81000000	      0.00056103	      0.00473720	      0.01043752
      2.82000000	      0.00054239	      0.00465784	      0.01055477
      2.83000000	      0.00052521	      0.00458350	      0.01049892
      2.84000000	      0.00050705	      0.00450356	      0.01026623
      2.85000000	      0.00048540	      0.00440635	      0.00993951
      2.86000000	      0.00047127	      0.00434175	      0.00953328
      2.87000000	      0.00043622	      0.00417718	      0.00836548
      2.88000000	      0.00040613	      0.00403055	      0.00721214
