Model Marker Errors from IK
version=1
nRows=289
nColumns=4
inDegrees=no
endheader
time	total_squared_error	marker_error_RMS	marker_error_max
      0.44000000	      0.00502307	      0.01417472	      0.03104496
      0.45000000	      0.00501201	      0.01415911	      0.03111253
      0.46000000	      0.00508471	      0.01426143	      0.03126514
      0.47000000	      0.00521083	      0.01443722	      0.03155390
      0.48000000	      0.00535794	      0.01463959	      0.03189635
      0.49000000	      0.00546273	      0.01478205	      0.03207207
      0.50000000	      0.00558079	      0.01494094	      0.03230725
      0.51000000	      0.00565240	      0.01503649	      0.03217178
      0.52000000	      0.00573885	      0.01515104	      0.03184430
      0.53000000	      0.00583035	      0.01527135	      0.03125455
      0.54000000	      0.00596092	      0.01544140	      0.03044654
      0.55000000	      0.00612327	      0.01565027	      0.03023256
      0.56000000	      0.00632228	      0.01590255	      0.03299909
      0.57000000	      0.00653125	      0.01616323	      0.03561565
      0.58000000	      0.00670618	      0.01637825	      0.03746131
      0.59000000	      0.00684662	      0.01654887	      0.03965281
      0.60000000	      0.00686046	      0.01656558	      0.04031582
      0.61000000	      0.00681129	      0.01650611	      0.04087070
      0.62000000	      0.00667383	      0.01633870	      0.04001848
      0.63000000	      0.00653342	      0.01616592	      0.03910522
      0.64000000	      0.00635915	      0.01594885	      0.03737970
      0.65000000	      0.00624099	      0.01579998	      0.03577865
      0.66000000	      0.00614896	      0.01568306	      0.03635496
      0.67000000	      0.00611220	      0.01563612	      0.03726695
      0.68000000	      0.00613736	      0.01566826	      0.03798400
      0.69000000	      0.00619039	      0.01573580	      0.03879629
      0.70000000	      0.00627921	      0.01584830	      0.03915732
      0.71000000	      0.00639535	      0.01599419	      0.03945282
      0.72000000	      0.00646272	      0.01607820	      0.03956285
      0.73000000	      0.00654373	      0.01617866	      0.03939871
      0.74000000	      0.00656854	      0.01620930	      0.03907915
      0.75000000	      0.00659748	      0.01624498	      0.03867508
      0.76000000	      0.00654597	      0.01618143	      0.03794495
      0.77000000	      0.00643893	      0.01604859	      0.03699652
      0.78000000	      0.00633747	      0.01592165	      0.03603854
      0.79000000	      0.00617293	      0.01571360	      0.03485040
      0.80000000	      0.00602348	      0.01552221	      0.03375413
      0.81000000	      0.00589282	      0.01535293	      0.03260325
      0.82000000	      0.00582510	      0.01526446	      0.03184266
      0.83000000	      0.00577680	      0.01520105	      0.03239657
      0.84000000	      0.00566885	      0.01505835	      0.03134274
      0.85000000	      0.00564798	      0.01503061	      0.03186934
      0.86000000	      0.00561457	      0.01498609	      0.03195138
      0.87000000	      0.00556696	      0.01492241	      0.03164114
      0.88000000	      0.00550808	      0.01484329	      0.03073804
      0.89000000	      0.00544630	      0.01475982	      0.02987543
      0.90000000	      0.00541424	      0.01471630	      0.02918798
      0.91000000	      0.00538870	      0.01468156	      0.02926667
      0.92000000	      0.00535963	      0.01464190	      0.02911394
      0.93000000	      0.00535168	      0.01463104	      0.02890860
      0.94000000	      0.00538732	      0.01467968	      0.02891829
      0.95000000	      0.00544370	      0.01475629	      0.02876454
      0.96000000	      0.00555552	      0.01490707	      0.02894427
      0.97000000	      0.00571166	      0.01511510	      0.02930351
      0.98000000	      0.00585997	      0.01531009	      0.02958181
      0.99000000	      0.00604015	      0.01554368	      0.02964004
      1.00000000	      0.00615737	      0.01569379	      0.03201947
      1.01000000	      0.00629458	      0.01586768	      0.03404037
      1.02000000	      0.00640875	      0.01601094	      0.03606870
      1.03000000	      0.00654268	      0.01617736	      0.03775898
      1.04000000	      0.00668317	      0.01635013	      0.03917975
      1.05000000	      0.00681295	      0.01650811	      0.04040935
      1.06000000	      0.00693059	      0.01665004	      0.04132984
      1.07000000	      0.00701770	      0.01675434	      0.04211421
      1.08000000	      0.00705345	      0.01679697	      0.04303683
      1.09000000	      0.00706665	      0.01681268	      0.04361874
      1.10000000	      0.00701628	      0.01675264	      0.04458118
      1.11000000	      0.00695951	      0.01668473	      0.04528896
      1.12000000	      0.00688881	      0.01659978	      0.04555385
      1.13000000	      0.00679642	      0.01648808	      0.04616024
      1.14000000	      0.00670823	      0.01638075	      0.04638613
      1.15000000	      0.00657615	      0.01621869	      0.04660215
      1.16000000	      0.00646816	      0.01608497	      0.04664064
      1.17000000	      0.00637432	      0.01596787	      0.04647927
      1.18000000	      0.00627038	      0.01583715	      0.04609240
      1.19000000	      0.00618037	      0.01572307	      0.04545240
      1.20000000	      0.00612193	      0.01564856	      0.04471408
      1.21000000	      0.00601381	      0.01550976	      0.04358520
      1.22000000	      0.00595658	      0.01543577	      0.04244865
      1.23000000	      0.00583265	      0.01527436	      0.04097772
      1.24000000	      0.00572435	      0.01513189	      0.03949860
      1.25000000	      0.00565053	      0.01503400	      0.03814441
      1.26000000	      0.00545873	      0.01477664	      0.03636516
      1.27000000	      0.00532774	      0.01459827	      0.03471379
      1.28000000	      0.00521409	      0.01444173	      0.03330646
      1.29000000	      0.00520698	      0.01443189	      0.03240342
      1.30000000	      0.00520708	      0.01443202	      0.03151210
      1.31000000	      0.00534768	      0.01462557	      0.03163480
      1.32000000	      0.00548595	      0.01481345	      0.03398668
      1.33000000	      0.00567000	      0.01505988	      0.03597619
      1.34000000	      0.00575730	      0.01517538	      0.03662966
      1.35000000	      0.00584872	      0.01529538	      0.03660084
      1.36000000	      0.00588525	      0.01534308	      0.03568617
      1.37000000	      0.00586324	      0.01531435	      0.03407167
      1.38000000	      0.00585185	      0.01529948	      0.03232416
      1.39000000	      0.00582828	      0.01526864	      0.03098883
      1.40000000	      0.00580711	      0.01524089	      0.03099513
      1.41000000	      0.00582488	      0.01526418	      0.03125957
      1.42000000	      0.00582353	      0.01526242	      0.03131313
      1.43000000	      0.00586533	      0.01531708	      0.03155066
      1.44000000	      0.00590923	      0.01537431	      0.03175123
      1.45000000	      0.00595902	      0.01543894	      0.03221936
      1.46000000	      0.00597621	      0.01546119	      0.03243407
      1.47000000	      0.00598441	      0.01547179	      0.03253227
      1.48000000	      0.00598279	      0.01546970	      0.03235836
      1.49000000	      0.00598558	      0.01547330	      0.03195250
      1.50000000	      0.00598691	      0.01547502	      0.03138546
      1.51000000	      0.00604824	      0.01555408	      0.03029419
      1.52000000	      0.00615107	      0.01568576	      0.02933708
      1.53000000	      0.00626143	      0.01582583	      0.03096094
      1.54000000	      0.00640456	      0.01600571	      0.03346384
      1.55000000	      0.00655804	      0.01619635	      0.03580320
      1.56000000	      0.00667894	      0.01634496	      0.03755933
      1.57000000	      0.00678255	      0.01647125	      0.03955395
      1.58000000	      0.00676674	      0.01645204	      0.04026011
      1.59000000	      0.00671514	      0.01638919	      0.04085426
      1.60000000	      0.00657625	      0.01621882	      0.04032825
      1.61000000	      0.00641974	      0.01602466	      0.03893101
      1.62000000	      0.00624503	      0.01580511	      0.03741488
      1.63000000	      0.00611179	      0.01563559	      0.03643419
      1.64000000	      0.00602028	      0.01551810	      0.03744766
      1.65000000	      0.00597719	      0.01546246	      0.03844786
      1.66000000	      0.00598357	      0.01547071	      0.03914225
      1.67000000	      0.00599310	      0.01548303	      0.03985924
      1.68000000	      0.00601790	      0.01551502	      0.04020426
      1.69000000	      0.00605262	      0.01555972	      0.04023019
      1.70000000	      0.00606982	      0.01558181	      0.03997481
      1.71000000	      0.00606669	      0.01557779	      0.03949944
      1.72000000	      0.00607109	      0.01558344	      0.03890342
      1.73000000	      0.00597623	      0.01546121	      0.03783216
      1.74000000	      0.00593278	      0.01540491	      0.03687164
      1.75000000	      0.00579990	      0.01523141	      0.03574550
      1.76000000	      0.00569307	      0.01509049	      0.03460746
      1.77000000	      0.00563131	      0.01500841	      0.03367288
      1.78000000	      0.00551706	      0.01485538	      0.03233539
      1.79000000	      0.00547168	      0.01479417	      0.03159668
      1.80000000	      0.00547387	      0.01479713	      0.03239701
      1.81000000	      0.00541965	      0.01472366	      0.03202642
      1.82000000	      0.00539045	      0.01468394	      0.03240819
      1.83000000	      0.00534826	      0.01462636	      0.03225493
      1.84000000	      0.00525799	      0.01450239	      0.03157339
      1.85000000	      0.00520066	      0.01442312	      0.03073840
      1.86000000	      0.00512426	      0.01431679	      0.02957508
      1.87000000	      0.00506347	      0.01423162	      0.02928719
      1.88000000	      0.00502724	      0.01418060	      0.02926325
      1.89000000	      0.00502028	      0.01417079	      0.02928270
      1.90000000	      0.00502347	      0.01417529	      0.02901428
      1.91000000	      0.00511342	      0.01430163	      0.02910748
      1.92000000	      0.00522984	      0.01446352	      0.02914430
      1.93000000	      0.00539961	      0.01469640	      0.02929085
      1.94000000	      0.00557686	      0.01493568	      0.02966608
      1.95000000	      0.00581656	      0.01525327	      0.03065864
      1.96000000	      0.00601554	      0.01551198	      0.03307598
      1.97000000	      0.00620436	      0.01575356	      0.03539340
      1.98000000	      0.00641155	      0.01601444	      0.03729482
      1.99000000	      0.00657825	      0.01622128	      0.03944546
      2.00000000	      0.00680764	      0.01650169	      0.04036166
      2.01000000	      0.00698367	      0.01671367	      0.04162481
      2.02000000	      0.00713001	      0.01688788	      0.04256642
      2.03000000	      0.00723637	      0.01701337	      0.04346216
      2.04000000	      0.00725910	      0.01704007	      0.04458803
      2.05000000	      0.00730682	      0.01709599	      0.04496837
      2.06000000	      0.00724297	      0.01702112	      0.04583943
      2.07000000	      0.00717285	      0.01693853	      0.04650151
      2.08000000	      0.00713449	      0.01689318	      0.04654825
      2.09000000	      0.00702375	      0.01676157	      0.04733603
      2.10000000	      0.00692706	      0.01664580	      0.04764384
      2.11000000	      0.00684817	      0.01655073	      0.04801367
      2.12000000	      0.00678471	      0.01647387	      0.04814544
      2.13000000	      0.00674126	      0.01642104	      0.04822794
      2.14000000	      0.00662887	      0.01628358	      0.04784316
      2.15000000	      0.00656802	      0.01620866	      0.04730252
      2.16000000	      0.00650302	      0.01612826	      0.04653832
      2.17000000	      0.00642852	      0.01603561	      0.04556735
      2.18000000	      0.00638443	      0.01598053	      0.04436659
      2.19000000	      0.00626435	      0.01582953	      0.04294257
      2.20000000	      0.00615307	      0.01568830	      0.04143877
      2.21000000	      0.00604502	      0.01554994	      0.03978054
      2.22000000	      0.00588157	      0.01533827	      0.03811497
      2.23000000	      0.00574199	      0.01515518	      0.03645084
      2.24000000	      0.00562942	      0.01500589	      0.03490484
      2.25000000	      0.00557759	      0.01493665	      0.03371610
      2.26000000	      0.00560298	      0.01497061	      0.03281879
      2.27000000	      0.00571156	      0.01511498	      0.03223055
      2.28000000	      0.00585254	      0.01530038	      0.03394845
      2.29000000	      0.00600110	      0.01549335	      0.03577649
      2.30000000	      0.00611352	      0.01563780	      0.03665143
      2.31000000	      0.00615409	      0.01568960	      0.03639196
      2.32000000	      0.00613602	      0.01566655	      0.03516373
      2.33000000	      0.00606414	      0.01557451	      0.03315081
      2.34000000	      0.00596649	      0.01544861	      0.03086527
      2.35000000	      0.00585343	      0.01530154	      0.03017134
      2.36000000	      0.00574477	      0.01515885	      0.02987160
      2.37000000	      0.00563979	      0.01501971	      0.02950129
      2.38000000	      0.00556569	      0.01492071	      0.02887712
      2.39000000	      0.00550710	      0.01484196	      0.02830712
      2.40000000	      0.00555840	      0.01491093	      0.02843752
      2.41000000	      0.00560503	      0.01497335	      0.02852893
      2.42000000	      0.00566668	      0.01505547	      0.02859654
      2.43000000	      0.00572225	      0.01512911	      0.02856341
      2.44000000	      0.00579932	      0.01523065	      0.02840861
      2.45000000	      0.00588104	      0.01533759	      0.02811424
      2.46000000	      0.00598845	      0.01547701	      0.02760905
      2.47000000	      0.00610855	      0.01563144	      0.02950767
      2.48000000	      0.00625421	      0.01581672	      0.03138580
      2.49000000	      0.00641760	      0.01602199	      0.03315280
      2.50000000	      0.00656473	      0.01620460	      0.03450615
      2.51000000	      0.00668044	      0.01634679	      0.03580195
      2.52000000	      0.00673441	      0.01641270	      0.03715403
      2.53000000	      0.00670371	      0.01637524	      0.03740108
      2.54000000	      0.00661912	      0.01627160	      0.03739506
      2.55000000	      0.00648947	      0.01611145	      0.03651102
      2.56000000	      0.00632552	      0.01590663	      0.03544778
      2.57000000	      0.00619716	      0.01574440	      0.03633747
      2.58000000	      0.00604324	      0.01554765	      0.03710998
      2.59000000	      0.00598658	      0.01547460	      0.03800825
      2.60000000	      0.00594139	      0.01541609	      0.03862431
      2.61000000	      0.00585435	      0.01530275	      0.03913544
      2.62000000	      0.00588078	      0.01533725	      0.03948470
      2.63000000	      0.00582129	      0.01525948	      0.03953664
      2.64000000	      0.00585097	      0.01529833	      0.03940702
      2.65000000	      0.00576453	      0.01518490	      0.03896018
      2.66000000	      0.00571990	      0.01512601	      0.03826929
      2.67000000	      0.00561816	      0.01499088	      0.03741582
      2.68000000	      0.00550997	      0.01484584	      0.03634992
      2.69000000	      0.00535054	      0.01462948	      0.03521030
      2.70000000	      0.00518375	      0.01439965	      0.03395933
      2.71000000	      0.00503150	      0.01418661	      0.03271431
      2.72000000	      0.00494196	      0.01405982	      0.03177713
      2.73000000	      0.00489902	      0.01399860	      0.03103480
      2.74000000	      0.00482063	      0.01388616	      0.03010836
      2.75000000	      0.00485888	      0.01394114	      0.03095683
      2.76000000	      0.00487087	      0.01395833	      0.03071550
      2.77000000	      0.00490215	      0.01400307	      0.03097462
      2.78000000	      0.00491459	      0.01402083	      0.03074794
      2.79000000	      0.00490055	      0.01400079	      0.03007131
      2.80000000	      0.00487774	      0.01396817	      0.02908717
      2.81000000	      0.00485459	      0.01393498	      0.02841126
      2.82000000	      0.00481005	      0.01387091	      0.02791145
      2.83000000	      0.00476503	      0.01380584	      0.02767550
      2.84000000	      0.00473331	      0.01375982	      0.02754314
      2.85000000	      0.00467962	      0.01368156	      0.02694403
      2.86000000	      0.00468768	      0.01369333	      0.02672252
      2.87000000	      0.00471413	      0.01373190	      0.02636126
      2.88000000	      0.00479460	      0.01384861	      0.02609898
      2.89000000	      0.00494747	      0.01406765	      0.02644188
      2.90000000	      0.00507998	      0.01425479	      0.02829788
      2.91000000	      0.00523682	      0.01447318	      0.03078967
      2.92000000	      0.00539145	      0.01468529	      0.03315924
      2.93000000	      0.00553659	      0.01488166	      0.03540930
      2.94000000	      0.00571478	      0.01511924	      0.03722638
      2.95000000	      0.00586337	      0.01531453	      0.03937263
      2.96000000	      0.00608501	      0.01560130	      0.04015247
      2.97000000	      0.00624549	      0.01580568	      0.04180342
      2.98000000	      0.00646718	      0.01608375	      0.04235589
      2.99000000	      0.00665059	      0.01631023	      0.04330326
      3.00000000	      0.00681016	      0.01650474	      0.04424396
      3.01000000	      0.00694020	      0.01666157	      0.04500450
      3.02000000	      0.00701234	      0.01674794	      0.04573235
      3.03000000	      0.00701168	      0.01674715	      0.04645192
      3.04000000	      0.00699415	      0.01672621	      0.04681145
      3.05000000	      0.00692708	      0.01664582	      0.04737860
      3.06000000	      0.00681214	      0.01650713	      0.04772165
      3.07000000	      0.00673494	      0.01641334	      0.04784305
      3.08000000	      0.00663859	      0.01629551	      0.04792269
      3.09000000	      0.00656882	      0.01620965	      0.04783416
      3.10000000	      0.00647644	      0.01609526	      0.04740261
      3.11000000	      0.00639779	      0.01599723	      0.04680207
      3.12000000	      0.00633646	      0.01592038	      0.04580886
      3.13000000	      0.00625186	      0.01581373	      0.04471142
      3.14000000	      0.00611688	      0.01564209	      0.04328176
      3.15000000	      0.00598006	      0.01546617	      0.04163707
      3.16000000	      0.00587449	      0.01532904	      0.03978053
      3.17000000	      0.00563003	      0.01500670	      0.03782253
      3.18000000	      0.00542345	      0.01472881	      0.03581129
      3.19000000	      0.00522685	      0.01445940	      0.03391093
      3.20000000	      0.00511559	      0.01430468	      0.03239621
      3.21000000	      0.00499018	      0.01412824	      0.03097518
      3.22000000	      0.00500170	      0.01414454	      0.03008185
      3.23000000	      0.00509813	      0.01428024	      0.03110983
      3.24000000	      0.00523213	      0.01446669	      0.03358316
      3.25000000	      0.00535475	      0.01463523	      0.03511861
      3.26000000	      0.00544693	      0.01476067	      0.03568300
      3.27000000	      0.00546773	      0.01478882	      0.03484213
      3.28000000	      0.00542826	      0.01473535	      0.03292403
      3.29000000	      0.00536825	      0.01465366	      0.03043817
      3.30000000	      0.00530350	      0.01456502	      0.02897254
      3.31000000	      0.00522089	      0.01445115	      0.02865818
      3.32000000	      0.00519673	      0.01441767	      0.02872583
