Model Marker Errors from IK
version=1
nRows=265
nColumns=4
inDegrees=no
endheader
time	total_squared_error	marker_error_RMS	marker_error_max
      0.00000000	      0.00044525	      0.00422019	      0.00901587
      0.01000000	      0.00045993	      0.00428918	      0.00898295
      0.02000000	      0.00050775	      0.00450668	      0.00902830
      0.03000000	      0.00057434	      0.00479309	      0.00903888
      0.04000000	      0.00065309	      0.00511114	      0.00992937
      0.05000000	      0.00072379	      0.00538069	      0.01049705
      0.06000000	      0.00078165	      0.00559161	      0.01112965
      0.07000000	      0.00081204	      0.00569925	      0.01034744
      0.08000000	      0.00083238	      0.00577021	      0.01004503
      0.09000000	      0.00082728	      0.00575251	      0.01054661
      0.10000000	      0.00080605	      0.00567822	      0.01166822
      0.11000000	      0.00077414	      0.00556466	      0.01184025
      0.12000000	      0.00072999	      0.00540366	      0.01181114
      0.13000000	      0.00068087	      0.00521869	      0.01152215
      0.14000000	      0.00063118	      0.00502465	      0.01092470
      0.15000000	      0.00057447	      0.00479361	      0.01086063
      0.16000000	      0.00049201	      0.00443626	      0.00942849
      0.17000000	      0.00044347	      0.00421174	      0.00842100
      0.18000000	      0.00034216	      0.00369949	      0.00688337
      0.19000000	      0.00028617	      0.00338331	      0.00702744
      0.20000000	      0.00023619	      0.00307368	      0.00731937
      0.21000000	      0.00017770	      0.00266609	      0.00661319
      0.22000000	      0.00018721	      0.00273652	      0.00672593
      0.23000000	      0.00022584	      0.00300559	      0.00663431
      0.24000000	      0.00029091	      0.00341120	      0.00847676
      0.25000000	      0.00036429	      0.00381728	      0.01018737
      0.26000000	      0.00043022	      0.00414834	      0.01147011
      0.27000000	      0.00047378	      0.00435328	      0.01213123
      0.28000000	      0.00049374	      0.00444405	      0.01251431
      0.29000000	      0.00051361	      0.00453260	      0.01337024
      0.30000000	      0.00052252	      0.00457173	      0.01445351
      0.31000000	      0.00053459	      0.00462424	      0.01542524
      0.32000000	      0.00055337	      0.00470478	      0.01622354
      0.33000000	      0.00056486	      0.00475334	      0.01648783
      0.34000000	      0.00056333	      0.00474693	      0.01644233
      0.35000000	      0.00053778	      0.00463803	      0.01578298
      0.36000000	      0.00049322	      0.00444173	      0.01485975
      0.37000000	      0.00045895	      0.00428460	      0.01329582
      0.38000000	      0.00041928	      0.00409526	      0.01182783
      0.39000000	      0.00035943	      0.00379175	      0.01106813
      0.40000000	      0.00033232	      0.00364591	      0.00960142
      0.41000000	      0.00030581	      0.00349747	      0.00853274
      0.42000000	      0.00030325	      0.00348281	      0.00837355
      0.43000000	      0.00029892	      0.00345785	      0.00804833
      0.44000000	      0.00029160	      0.00341526	      0.00789206
      0.45000000	      0.00030505	      0.00349313	      0.00802133
      0.46000000	      0.00033915	      0.00368323	      0.00866668
      0.47000000	      0.00032402	      0.00360013	      0.00815428
      0.48000000	      0.00033801	      0.00367702	      0.00811063
      0.49000000	      0.00037523	      0.00387416	      0.00830322
      0.50000000	      0.00036423	      0.00381698	      0.00789826
      0.51000000	      0.00036635	      0.00382808	      0.00749276
      0.52000000	      0.00036160	      0.00380317	      0.00687317
      0.53000000	      0.00035697	      0.00377874	      0.00630595
      0.54000000	      0.00034950	      0.00373898	      0.00611690
      0.55000000	      0.00034897	      0.00373615	      0.00611071
      0.56000000	      0.00037174	      0.00385609	      0.00613537
      0.57000000	      0.00035432	      0.00376470	      0.00650342
      0.58000000	      0.00037565	      0.00387636	      0.00643214
      0.59000000	      0.00039533	      0.00397657	      0.00686583
      0.60000000	      0.00041341	      0.00406652	      0.00688339
      0.61000000	      0.00042845	      0.00413980	      0.00687137
      0.62000000	      0.00043753	      0.00418346	      0.00687536
      0.63000000	      0.00043942	      0.00419245	      0.00677626
      0.64000000	      0.00043109	      0.00415254	      0.00661524
      0.65000000	      0.00041383	      0.00406857	      0.00658113
      0.66000000	      0.00039505	      0.00397519	      0.00649170
      0.67000000	      0.00037221	      0.00385855	      0.00646181
      0.68000000	      0.00035325	      0.00375901	      0.00649999
      0.69000000	      0.00033432	      0.00365688	      0.00619786
      0.70000000	      0.00031697	      0.00356072	      0.00581375
      0.71000000	      0.00030117	      0.00347085	      0.00564107
      0.72000000	      0.00028469	      0.00337456	      0.00550112
      0.73000000	      0.00027216	      0.00329943	      0.00540112
      0.74000000	      0.00026971	      0.00328458	      0.00534665
      0.75000000	      0.00025199	      0.00317485	      0.00531552
      0.76000000	      0.00028885	      0.00339909	      0.00616667
      0.77000000	      0.00031822	      0.00356773	      0.00739104
      0.78000000	      0.00032392	      0.00359957	      0.00745850
      0.79000000	      0.00036636	      0.00382811	      0.00768181
      0.80000000	      0.00039843	      0.00399215	      0.00876205
      0.81000000	      0.00043379	      0.00416551	      0.00976431
      0.82000000	      0.00046404	      0.00430831	      0.01095920
      0.83000000	      0.00049472	      0.00444844	      0.01182533
      0.84000000	      0.00052308	      0.00457420	      0.01269530
      0.85000000	      0.00055242	      0.00470074	      0.01351428
      0.86000000	      0.00056849	      0.00476861	      0.01430794
      0.87000000	      0.00058466	      0.00483595	      0.01491812
      0.88000000	      0.00060021	      0.00489984	      0.01520126
      0.89000000	      0.00061761	      0.00497034	      0.01567606
      0.90000000	      0.00061795	      0.00497171	      0.01594252
      0.91000000	      0.00061196	      0.00494756	      0.01550418
      0.92000000	      0.00063226	      0.00502897	      0.01573743
      0.93000000	      0.00060206	      0.00490737	      0.01551170
      0.94000000	      0.00058319	      0.00482985	      0.01500022
      0.95000000	      0.00056653	      0.00476037	      0.01464875
      0.96000000	      0.00056256	      0.00474366	      0.01428439
      0.97000000	      0.00053001	      0.00460437	      0.01369489
      0.98000000	      0.00050863	      0.00451058	      0.01313885
      0.99000000	      0.00047191	      0.00434469	      0.01222625
      1.00000000	      0.00046634	      0.00431899	      0.01138513
      1.01000000	      0.00040349	      0.00401739	      0.01016323
      1.02000000	      0.00035680	      0.00377785	      0.00884583
      1.03000000	      0.00032239	      0.00359102	      0.00764986
      1.04000000	      0.00029012	      0.00340655	      0.00692412
      1.05000000	      0.00030097	      0.00346968	      0.00698284
      1.06000000	      0.00024789	      0.00314891	      0.00752209
      1.07000000	      0.00024414	      0.00312501	      0.00778692
      1.08000000	      0.00025509	      0.00319431	      0.00813464
      1.09000000	      0.00028042	      0.00334915	      0.00851998
      1.10000000	      0.00032209	      0.00358936	      0.00873550
      1.11000000	      0.00036734	      0.00383323	      0.00900356
      1.12000000	      0.00041562	      0.00407734	      0.00921196
      1.13000000	      0.00046445	      0.00431022	      0.00946713
      1.14000000	      0.00049416	      0.00444593	      0.00934048
      1.15000000	      0.00052423	      0.00457919	      0.00941179
      1.16000000	      0.00055057	      0.00469285	      0.00997856
      1.17000000	      0.00057347	      0.00478945	      0.01002807
      1.18000000	      0.00058967	      0.00485663	      0.00987518
      1.19000000	      0.00059901	      0.00489493	      0.00993582
      1.20000000	      0.00059239	      0.00486781	      0.01029377
      1.21000000	      0.00056484	      0.00475327	      0.01024040
      1.22000000	      0.00051680	      0.00454663	      0.01009727
      1.23000000	      0.00045830	      0.00428160	      0.00991678
      1.24000000	      0.00038441	      0.00392127	      0.00883611
      1.25000000	      0.00033176	      0.00364288	      0.00833571
      1.26000000	      0.00029657	      0.00344425	      0.00755535
      1.27000000	      0.00023690	      0.00307829	      0.00623145
      1.28000000	      0.00021783	      0.00295178	      0.00640181
      1.29000000	      0.00021039	      0.00290095	      0.00650460
      1.30000000	      0.00022697	      0.00301311	      0.00673354
      1.31000000	      0.00020120	      0.00283690	      0.00678724
      1.32000000	      0.00021423	      0.00292732	      0.00667312
      1.33000000	      0.00020476	      0.00286187	      0.00655636
      1.34000000	      0.00021482	      0.00293134	      0.00628154
      1.35000000	      0.00024021	      0.00309974	      0.00724784
      1.36000000	      0.00027336	      0.00330673	      0.00805869
      1.37000000	      0.00032552	      0.00360845	      0.00959633
      1.38000000	      0.00038518	      0.00392520	      0.01191286
      1.39000000	      0.00046242	      0.00430078	      0.01392107
      1.40000000	      0.00054237	      0.00465778	      0.01563047
      1.41000000	      0.00061629	      0.00496506	      0.01750029
      1.42000000	      0.00068020	      0.00521614	      0.01886028
      1.43000000	      0.00072291	      0.00537739	      0.01959027
      1.44000000	      0.00073148	      0.00540916	      0.01980778
      1.45000000	      0.00070184	      0.00529845	      0.01928306
      1.46000000	      0.00064175	      0.00506656	      0.01833088
      1.47000000	      0.00058703	      0.00484573	      0.01697356
      1.48000000	      0.00051903	      0.00455646	      0.01567724
      1.49000000	      0.00045809	      0.00428061	      0.01407501
      1.50000000	      0.00041757	      0.00408690	      0.01230735
      1.51000000	      0.00038081	      0.00390285	      0.01078022
      1.52000000	      0.00036568	      0.00382455	      0.00937926
      1.53000000	      0.00036423	      0.00381694	      0.00848587
      1.54000000	      0.00037305	      0.00386289	      0.00833679
      1.55000000	      0.00039106	      0.00395506	      0.00839910
      1.56000000	      0.00040614	      0.00403056	      0.00836745
      1.57000000	      0.00043397	      0.00416640	      0.00844071
      1.58000000	      0.00043809	      0.00418611	      0.00879327
      1.59000000	      0.00044111	      0.00420051	      0.00879329
      1.60000000	      0.00048373	      0.00439879	      0.00869427
      1.61000000	      0.00044764	      0.00423148	      0.00866520
      1.62000000	      0.00047965	      0.00438019	      0.00864975
      1.63000000	      0.00046349	      0.00430574	      0.00835601
      1.64000000	      0.00049311	      0.00444121	      0.00845662
      1.65000000	      0.00053001	      0.00460440	      0.00866478
      1.66000000	      0.00056907	      0.00477105	      0.00925220
      1.67000000	      0.00060233	      0.00490849	      0.00940222
      1.68000000	      0.00061935	      0.00497735	      0.00960119
      1.69000000	      0.00062089	      0.00498351	      0.00925850
      1.70000000	      0.00060599	      0.00492336	      0.00971229
      1.71000000	      0.00058183	      0.00482423	      0.01038373
      1.72000000	      0.00054988	      0.00468990	      0.01001551
      1.73000000	      0.00051990	      0.00456027	      0.00945524
      1.74000000	      0.00048604	      0.00440925	      0.00904153
      1.75000000	      0.00045500	      0.00426614	      0.00792382
      1.76000000	      0.00041711	      0.00408463	      0.00713580
      1.77000000	      0.00037533	      0.00387470	      0.00687304
      1.78000000	      0.00034146	      0.00369574	      0.00657198
      1.79000000	      0.00030185	      0.00347478	      0.00712247
      1.80000000	      0.00024780	      0.00314832	      0.00626420
      1.81000000	      0.00022932	      0.00302866	      0.00561621
      1.82000000	      0.00023847	      0.00308847	      0.00593339
      1.83000000	      0.00029175	      0.00341614	      0.00697691
      1.84000000	      0.00032875	      0.00362631	      0.00883879
      1.85000000	      0.00036515	      0.00382178	      0.01029649
      1.86000000	      0.00041940	      0.00409584	      0.01146120
      1.87000000	      0.00046020	      0.00429047	      0.01262829
      1.88000000	      0.00048683	      0.00441286	      0.01362205
      1.89000000	      0.00050101	      0.00447666	      0.01449915
      1.90000000	      0.00051770	      0.00455061	      0.01512761
      1.91000000	      0.00052015	      0.00456134	      0.01531162
      1.92000000	      0.00052583	      0.00458620	      0.01538472
      1.93000000	      0.00053161	      0.00461132	      0.01545420
      1.94000000	      0.00053648	      0.00463242	      0.01553695
      1.95000000	      0.00054040	      0.00464930	      0.01546683
      1.96000000	      0.00053642	      0.00463217	      0.01509531
      1.97000000	      0.00055043	      0.00469227	      0.01494366
      1.98000000	      0.00054303	      0.00466061	      0.01499558
      1.99000000	      0.00055577	      0.00471497	      0.01505071
      2.00000000	      0.00057867	      0.00481112	      0.01514484
      2.01000000	      0.00061139	      0.00494527	      0.01525795
      2.02000000	      0.00063753	      0.00504987	      0.01523611
      2.03000000	      0.00066587	      0.00516089	      0.01520473
      2.04000000	      0.00068313	      0.00522736	      0.01487092
      2.05000000	      0.00069232	      0.00526240	      0.01455029
      2.06000000	      0.00067801	      0.00520774	      0.01383988
      2.07000000	      0.00064643	      0.00508500	      0.01294640
      2.08000000	      0.00060312	      0.00491169	      0.01182171
      2.09000000	      0.00054338	      0.00466208	      0.01029335
      2.10000000	      0.00048335	      0.00439706	      0.00860982
      2.11000000	      0.00043706	      0.00418119	      0.00844949
      2.12000000	      0.00040803	      0.00403994	      0.00888070
      2.13000000	      0.00040592	      0.00402948	      0.00935197
      2.14000000	      0.00044331	      0.00421099	      0.00968207
      2.15000000	      0.00051364	      0.00453272	      0.01007505
      2.16000000	      0.00060402	      0.00491538	      0.01056279
      2.17000000	      0.00069907	      0.00528797	      0.01150847
      2.18000000	      0.00077975	      0.00558480	      0.01187783
      2.19000000	      0.00084435	      0.00581155	      0.01193142
      2.20000000	      0.00089353	      0.00597841	      0.01222314
      2.21000000	      0.00092227	      0.00607378	      0.01384987
      2.22000000	      0.00094879	      0.00616048	      0.01312112
      2.23000000	      0.00095847	      0.00619185	      0.01410148
      2.24000000	      0.00096117	      0.00620055	      0.01404043
      2.25000000	      0.00094820	      0.00615857	      0.01367549
      2.26000000	      0.00091711	      0.00605675	      0.01342528
      2.27000000	      0.00087359	      0.00591131	      0.01283060
      2.28000000	      0.00082116	      0.00573116	      0.01174926
      2.29000000	      0.00075435	      0.00549307	      0.01075703
      2.30000000	      0.00068446	      0.00523242	      0.00921769
      2.31000000	      0.00059320	      0.00487114	      0.00938276
      2.32000000	      0.00052010	      0.00456112	      0.00958465
      2.33000000	      0.00043803	      0.00418582	      0.00959622
      2.34000000	      0.00034932	      0.00373804	      0.00876642
      2.35000000	      0.00030657	      0.00350180	      0.00842500
      2.36000000	      0.00028698	      0.00338810	      0.00819373
      2.37000000	      0.00027837	      0.00333686	      0.00793250
      2.38000000	      0.00026385	      0.00324870	      0.00737911
      2.39000000	      0.00026884	      0.00327925	      0.00686191
      2.40000000	      0.00028547	      0.00337918	      0.00639495
      2.41000000	      0.00030932	      0.00351749	      0.00727976
      2.42000000	      0.00035218	      0.00375327	      0.00909303
      2.43000000	      0.00040784	      0.00403902	      0.01096079
      2.44000000	      0.00047879	      0.00437627	      0.01337775
      2.45000000	      0.00055541	      0.00471343	      0.01507091
      2.46000000	      0.00062659	      0.00500637	      0.01694372
      2.47000000	      0.00068639	      0.00523981	      0.01786082
      2.48000000	      0.00072123	      0.00537114	      0.01882569
      2.49000000	      0.00073259	      0.00541329	      0.01898643
      2.50000000	      0.00069567	      0.00527512	      0.01861266
      2.51000000	      0.00065537	      0.00512005	      0.01781156
      2.52000000	      0.00058779	      0.00484889	      0.01687359
      2.53000000	      0.00051967	      0.00455924	      0.01548400
      2.54000000	      0.00045175	      0.00425089	      0.01391113
      2.55000000	      0.00039699	      0.00398491	      0.01221406
      2.56000000	      0.00035289	      0.00375707	      0.01059948
      2.57000000	      0.00031982	      0.00357669	      0.00913450
      2.58000000	      0.00030744	      0.00350679	      0.00835563
      2.59000000	      0.00031446	      0.00354662	      0.00825433
      2.60000000	      0.00031882	      0.00357113	      0.00790953
      2.61000000	      0.00033611	      0.00366669	      0.00782172
      2.62000000	      0.00035552	      0.00377105	      0.00776229
      2.63000000	      0.00036927	      0.00384327	      0.00769233
      2.64000000	      0.00038371	      0.00391769	      0.00786250
