Model Marker Errors from IK
version=1
nRows=387
nColumns=4
inDegrees=no
endheader
time	total_squared_error	marker_error_RMS	marker_error_max
      0.26000000	      0.04208989	      0.04103164	      0.09260244
      0.27000000	      0.04149237	      0.04073935	      0.09210422
      0.28000000	      0.04085723	      0.04042634	      0.09152698
      0.29000000	      0.04025549	      0.04012754	      0.09086455
      0.30000000	      0.03970626	      0.03985286	      0.09025266
      0.31000000	      0.03924426	      0.03962033	      0.08987358
      0.32000000	      0.03872247	      0.03935605	      0.08918821
      0.33000000	      0.03825263	      0.03911656	      0.08885561
      0.34000000	      0.03777847	      0.03887337	      0.08865263
      0.35000000	      0.03727178	      0.03861180	      0.08847894
      0.36000000	      0.03677462	      0.03835342	      0.08850309
      0.37000000	      0.03645008	      0.03818381	      0.08880075
      0.38000000	      0.03587328	      0.03788049	      0.08841594
      0.39000000	      0.03547262	      0.03766835	      0.08836685
      0.40000000	      0.03512633	      0.03748404	      0.08813822
      0.41000000	      0.03478406	      0.03730097	      0.08791151
      0.42000000	      0.03446699	      0.03713058	      0.08755191
      0.43000000	      0.03417490	      0.03697291	      0.08719005
      0.44000000	      0.03391919	      0.03683433	      0.08682025
      0.45000000	      0.03372043	      0.03672625	      0.08653079
      0.46000000	      0.03355240	      0.03663463	      0.08609795
      0.47000000	      0.03347936	      0.03659473	      0.08587502
      0.48000000	      0.03347565	      0.03659270	      0.08570462
      0.49000000	      0.03353912	      0.03662738	      0.08564458
      0.50000000	      0.03362906	      0.03667646	      0.08543449
      0.51000000	      0.03377367	      0.03675523	      0.08532727
      0.52000000	      0.03394943	      0.03685074	      0.08516244
      0.53000000	      0.03414119	      0.03695467	      0.08487564
      0.54000000	      0.03435531	      0.03707037	      0.08449958
      0.55000000	      0.03462077	      0.03721331	      0.08413182
      0.56000000	      0.03490271	      0.03736453	      0.08367366
      0.57000000	      0.03514594	      0.03749450	      0.08331467
      0.58000000	      0.03530064	      0.03757693	      0.08304443
      0.59000000	      0.03535323	      0.03760491	      0.08299413
      0.60000000	      0.03536136	      0.03760923	      0.08309432
      0.61000000	      0.03542758	      0.03764443	      0.08347464
      0.62000000	      0.03570814	      0.03779320	      0.08401384
      0.63000000	      0.03618550	      0.03804497	      0.08462176
      0.64000000	      0.03684241	      0.03838875	      0.08526578
      0.65000000	      0.03756629	      0.03876405	      0.08578639
      0.66000000	      0.03823535	      0.03910773	      0.08626874
      0.67000000	      0.03875349	      0.03937181	      0.08642311
      0.68000000	      0.03927131	      0.03963398	      0.08670061
      0.69000000	      0.03972082	      0.03986016	      0.08678664
      0.70000000	      0.04027213	      0.04013583	      0.08676750
      0.71000000	      0.04088830	      0.04044171	      0.08677170
      0.72000000	      0.04153927	      0.04076237	      0.08670594
      0.73000000	      0.04211446	      0.04104362	      0.08669377
      0.74000000	      0.04252652	      0.04124392	      0.08671250
      0.75000000	      0.04273378	      0.04134430	      0.08672851
      0.76000000	      0.04276867	      0.04136118	      0.08660220
      0.77000000	      0.04259857	      0.04127884	      0.08650183
      0.78000000	      0.04227952	      0.04112397	      0.08630665
      0.79000000	      0.04185223	      0.04091563	      0.08601031
      0.80000000	      0.04126341	      0.04062679	      0.08553233
      0.81000000	      0.04060209	      0.04029992	      0.08482375
      0.82000000	      0.03991622	      0.03995809	      0.08438804
      0.83000000	      0.03918163	      0.03958870	      0.08344691
      0.84000000	      0.03855619	      0.03927146	      0.08275946
      0.85000000	      0.03803567	      0.03900547	      0.08222665
      0.86000000	      0.03767668	      0.03882097	      0.08188368
      0.87000000	      0.03745218	      0.03870513	      0.08173643
      0.88000000	      0.03727914	      0.03861561	      0.08152689
      0.89000000	      0.03710951	      0.03852766	      0.08136041
      0.90000000	      0.03696743	      0.03845383	      0.08116475
      0.91000000	      0.03670771	      0.03831851	      0.08091799
      0.92000000	      0.03641714	      0.03816655	      0.08077136
      0.93000000	      0.03615416	      0.03802849	      0.08057315
      0.94000000	      0.03593999	      0.03791569	      0.08037550
      0.95000000	      0.03567119	      0.03777364	      0.08039743
      0.96000000	      0.03547792	      0.03767117	      0.08035375
      0.97000000	      0.03533303	      0.03759417	      0.08024677
      0.98000000	      0.03521056	      0.03752896	      0.08042155
      0.99000000	      0.03519996	      0.03752330	      0.08051674
      1.00000000	      0.03514195	      0.03749237	      0.08075519
      1.01000000	      0.03517926	      0.03751227	      0.08100455
      1.02000000	      0.03528734	      0.03756985	      0.08135281
      1.03000000	      0.03531251	      0.03758325	      0.08167865
      1.04000000	      0.03547145	      0.03766773	      0.08223638
      1.05000000	      0.03561367	      0.03774317	      0.08289460
      1.06000000	      0.03579185	      0.03783747	      0.08345380
      1.07000000	      0.03601352	      0.03795446	      0.08421278
      1.08000000	      0.03623199	      0.03806941	      0.08473231
      1.09000000	      0.03644341	      0.03818031	      0.08526519
      1.10000000	      0.03671292	      0.03832123	      0.08592158
      1.11000000	      0.03695118	      0.03844538	      0.08647486
      1.12000000	      0.03717399	      0.03856112	      0.08684410
      1.13000000	      0.03745958	      0.03870895	      0.08746151
      1.14000000	      0.03767809	      0.03882169	      0.08756176
      1.15000000	      0.03797030	      0.03897194	      0.08815237
      1.16000000	      0.03825459	      0.03911756	      0.08855877
      1.17000000	      0.03861538	      0.03930159	      0.08895556
      1.18000000	      0.03900156	      0.03949763	      0.08941252
      1.19000000	      0.03943301	      0.03971550	      0.08993961
      1.20000000	      0.03990786	      0.03995390	      0.09054250
      1.21000000	      0.04039286	      0.04019595	      0.09117264
      1.22000000	      0.04094163	      0.04046808	      0.09200748
      1.23000000	      0.04148003	      0.04073330	      0.09279355
      1.24000000	      0.04202707	      0.04100101	      0.09358828
      1.25000000	      0.04257926	      0.04126949	      0.09428443
      1.26000000	      0.04315343	      0.04154681	      0.09497080
      1.27000000	      0.04371752	      0.04181747	      0.09546506
      1.28000000	      0.04425957	      0.04207592	      0.09581081
      1.29000000	      0.04472750	      0.04229775	      0.09602440
      1.30000000	      0.04504558	      0.04244789	      0.09589044
      1.31000000	      0.04519513	      0.04251829	      0.09582890
      1.32000000	      0.04511928	      0.04248260	      0.09561021
      1.33000000	      0.04476932	      0.04231752	      0.09498739
      1.34000000	      0.04425044	      0.04207158	      0.09454077
      1.35000000	      0.04360383	      0.04176306	      0.09381333
      1.36000000	      0.04289676	      0.04142306	      0.09311939
      1.37000000	      0.04185748	      0.04091820	      0.09189301
      1.38000000	      0.04101087	      0.04050228	      0.09090575
      1.39000000	      0.04021539	      0.04010755	      0.08996084
      1.40000000	      0.03958924	      0.03979409	      0.08931010
      1.41000000	      0.03896536	      0.03947929	      0.08864208
      1.42000000	      0.03849599	      0.03924079	      0.08841458
      1.43000000	      0.03807880	      0.03902758	      0.08839373
      1.44000000	      0.03769051	      0.03882809	      0.08858509
      1.45000000	      0.03732282	      0.03863823	      0.08893613
      1.46000000	      0.03696877	      0.03845453	      0.08928739
      1.47000000	      0.03673431	      0.03833239	      0.08991976
      1.48000000	      0.03633004	      0.03812088	      0.08996534
      1.49000000	      0.03604195	      0.03796944	      0.09017582
      1.50000000	      0.03582067	      0.03785270	      0.09030200
      1.51000000	      0.03562555	      0.03774946	      0.09028543
      1.52000000	      0.03536017	      0.03760860	      0.08959190
      1.53000000	      0.03521773	      0.03753278	      0.08954419
      1.54000000	      0.03496439	      0.03739754	      0.08903679
      1.55000000	      0.03483718	      0.03732944	      0.08868503
      1.56000000	      0.03461748	      0.03721155	      0.08781936
      1.57000000	      0.03454347	      0.03717175	      0.08752004
      1.58000000	      0.03444609	      0.03711931	      0.08678767
      1.59000000	      0.03445624	      0.03712478	      0.08649999
      1.60000000	      0.03452053	      0.03715940	      0.08621884
      1.61000000	      0.03461654	      0.03721104	      0.08597538
      1.62000000	      0.03477197	      0.03729449	      0.08566362
      1.63000000	      0.03495140	      0.03739059	      0.08558560
      1.64000000	      0.03514640	      0.03749475	      0.08527948
      1.65000000	      0.03532361	      0.03758915	      0.08521904
      1.66000000	      0.03550861	      0.03768746	      0.08493575
      1.67000000	      0.03567212	      0.03777413	      0.08456823
      1.68000000	      0.03586994	      0.03787872	      0.08419281
      1.69000000	      0.03611100	      0.03800579	      0.08438907
      1.70000000	      0.03634100	      0.03812663	      0.08416481
      1.71000000	      0.03661516	      0.03827018	      0.08418887
      1.72000000	      0.03687915	      0.03840789	      0.08398588
      1.73000000	      0.03729912	      0.03862596	      0.08427005
      1.74000000	      0.03773328	      0.03885011	      0.08440900
      1.75000000	      0.03823416	      0.03910711	      0.08458064
      1.76000000	      0.03883515	      0.03941327	      0.08501060
      1.77000000	      0.03946816	      0.03973319	      0.08528242
      1.78000000	      0.04018950	      0.04009464	      0.08568231
      1.79000000	      0.04097856	      0.04048633	      0.08596906
      1.80000000	      0.04172902	      0.04085537	      0.08625977
      1.81000000	      0.04247767	      0.04122022	      0.08657025
      1.82000000	      0.04315260	      0.04154641	      0.08662097
      1.83000000	      0.04358172	      0.04175247	      0.08669662
      1.84000000	      0.04381314	      0.04186318	      0.08661734
      1.85000000	      0.04385790	      0.04188456	      0.08656193
      1.86000000	      0.04363355	      0.04177729	      0.08609499
      1.87000000	      0.04327889	      0.04160716	      0.08581113
      1.88000000	      0.04272360	      0.04133938	      0.08542519
      1.89000000	      0.04210188	      0.04103748	      0.08455785
      1.90000000	      0.04136887	      0.04067868	      0.08386724
      1.91000000	      0.04061964	      0.04030863	      0.08308235
      1.92000000	      0.03987490	      0.03993740	      0.08220303
      1.93000000	      0.03918159	      0.03958868	      0.08141548
      1.94000000	      0.03858249	      0.03928485	      0.08062382
      1.95000000	      0.03818216	      0.03908051	      0.08026955
      1.96000000	      0.03776405	      0.03886595	      0.07949881
      1.97000000	      0.03753350	      0.03874713	      0.07919759
      1.98000000	      0.03726631	      0.03860897	      0.07875962
      1.99000000	      0.03705449	      0.03849908	      0.07856145
      2.00000000	      0.03680819	      0.03837092	      0.07840800
      2.01000000	      0.03652774	      0.03822446	      0.07820133
      2.02000000	      0.03626143	      0.03808487	      0.07811974
      2.03000000	      0.03599702	      0.03794576	      0.07813491
      2.04000000	      0.03574590	      0.03781317	      0.07815852
      2.05000000	      0.03551774	      0.03769230	      0.07828990
      2.06000000	      0.03530286	      0.03757811	      0.07845160
      2.07000000	      0.03512064	      0.03748100	      0.07871644
      2.08000000	      0.03494101	      0.03738503	      0.07889860
      2.09000000	      0.03477852	      0.03729800	      0.07924520
      2.10000000	      0.03462053	      0.03721319	      0.07953110
      2.11000000	      0.03450505	      0.03715107	      0.07986361
      2.12000000	      0.03441525	      0.03710270	      0.08018494
      2.13000000	      0.03442896	      0.03711009	      0.08059450
      2.14000000	      0.03449651	      0.03714647	      0.08114801
      2.15000000	      0.03463992	      0.03722360	      0.08159607
      2.16000000	      0.03487600	      0.03735023	      0.08216109
      2.17000000	      0.03519123	      0.03751865	      0.08286553
      2.18000000	      0.03549925	      0.03768249	      0.08337392
      2.19000000	      0.03590843	      0.03789904	      0.08419779
      2.20000000	      0.03619937	      0.03805226	      0.08466866
      2.21000000	      0.03647681	      0.03819781	      0.08513808
      2.22000000	      0.03676751	      0.03834971	      0.08578921
      2.23000000	      0.03699611	      0.03846875	      0.08626183
      2.24000000	      0.03723255	      0.03859148	      0.08677040
      2.25000000	      0.03743487	      0.03869619	      0.08719697
      2.26000000	      0.03766493	      0.03881491	      0.08773928
      2.27000000	      0.03793359	      0.03895310	      0.08827375
      2.28000000	      0.03824316	      0.03911172	      0.08888953
      2.29000000	      0.03861175	      0.03929975	      0.08954256
      2.30000000	      0.03907284	      0.03953370	      0.09045519
      2.31000000	      0.03955919	      0.03977899	      0.09123005
      2.32000000	      0.04007513	      0.04003755	      0.09203615
      2.33000000	      0.04063376	      0.04031564	      0.09282430
      2.34000000	      0.04118542	      0.04058838	      0.09362242
      2.35000000	      0.04170535	      0.04084378	      0.09425462
      2.36000000	      0.04228944	      0.04112879	      0.09492274
      2.37000000	      0.04284157	      0.04139641	      0.09543676
      2.38000000	      0.04334570	      0.04163926	      0.09572004
      2.39000000	      0.04387262	      0.04189158	      0.09604692
      2.40000000	      0.04430585	      0.04209791	      0.09617121
      2.41000000	      0.04460844	      0.04224142	      0.09615901
      2.42000000	      0.04473751	      0.04230249	      0.09609031
      2.43000000	      0.04464363	      0.04225808	      0.09567248
      2.44000000	      0.04438688	      0.04213639	      0.09567118
      2.45000000	      0.04392264	      0.04191546	      0.09517291
      2.46000000	      0.04315012	      0.04154521	      0.09469113
      2.47000000	      0.04235686	      0.04116156	      0.09395916
      2.48000000	      0.04156154	      0.04077330	      0.09324903
      2.49000000	      0.04082308	      0.04040944	      0.09254943
      2.50000000	      0.04014849	      0.04007418	      0.09183801
      2.51000000	      0.03963031	      0.03981472	      0.09142325
      2.52000000	      0.03914968	      0.03957255	      0.09103526
      2.53000000	      0.03875829	      0.03937425	      0.09095558
      2.54000000	      0.03839528	      0.03918943	      0.09106075
      2.55000000	      0.03803335	      0.03900428	      0.09128068
      2.56000000	      0.03768502	      0.03882526	      0.09159341
      2.57000000	      0.03736088	      0.03865792	      0.09196487
      2.58000000	      0.03703784	      0.03849044	      0.09219949
      2.59000000	      0.03675058	      0.03834088	      0.09239010
      2.60000000	      0.03648814	      0.03820374	      0.09250453
      2.61000000	      0.03622805	      0.03806734	      0.09237083
      2.62000000	      0.03599271	      0.03794349	      0.09207940
      2.63000000	      0.03575968	      0.03782046	      0.09174158
      2.64000000	      0.03554796	      0.03770833	      0.09140557
      2.65000000	      0.03534103	      0.03759842	      0.09083094
      2.66000000	      0.03517695	      0.03751104	      0.09031204
      2.67000000	      0.03504582	      0.03744106	      0.08984707
      2.68000000	      0.03502042	      0.03742749	      0.08952798
      2.69000000	      0.03498367	      0.03740784	      0.08900893
      2.70000000	      0.03502826	      0.03743168	      0.08874803
      2.71000000	      0.03511343	      0.03747715	      0.08835520
      2.72000000	      0.03524943	      0.03754966	      0.08807932
      2.73000000	      0.03540297	      0.03763136	      0.08784259
      2.74000000	      0.03556680	      0.03771833	      0.08764561
      2.75000000	      0.03569219	      0.03778475	      0.08728833
      2.76000000	      0.03586097	      0.03787398	      0.08706307
      2.77000000	      0.03598166	      0.03793766	      0.08676326
      2.78000000	      0.03617166	      0.03803770	      0.08655440
      2.79000000	      0.03636084	      0.03813704	      0.08630546
      2.80000000	      0.03653447	      0.03822799	      0.08597357
      2.81000000	      0.03683982	      0.03838740	      0.08601781
      2.82000000	      0.03715514	      0.03855134	      0.08596943
      2.83000000	      0.03756224	      0.03876196	      0.08601639
      2.84000000	      0.03804743	      0.03901150	      0.08615144
      2.85000000	      0.03862509	      0.03930653	      0.08629309
      2.86000000	      0.03930768	      0.03965233	      0.08656281
      2.87000000	      0.04009084	      0.04004539	      0.08683213
      2.88000000	      0.04094919	      0.04047181	      0.08706299
      2.89000000	      0.04189633	      0.04093719	      0.08732399
      2.90000000	      0.04287267	      0.04141143	      0.08757502
      2.91000000	      0.04378452	      0.04184950	      0.08759095
      2.92000000	      0.04452143	      0.04220020	      0.08768482
      2.93000000	      0.04503180	      0.04244139	      0.08748861
      2.94000000	      0.04532078	      0.04257735	      0.08737664
      2.95000000	      0.04534347	      0.04258801	      0.08706014
      2.96000000	      0.04513612	      0.04249053	      0.08668662
      2.97000000	      0.04474542	      0.04230623	      0.08634457
      2.98000000	      0.04421795	      0.04205613	      0.08590282
      2.99000000	      0.04358087	      0.04175206	      0.08531036
      3.00000000	      0.04291783	      0.04143324	      0.08491355
      3.01000000	      0.04213221	      0.04105226	      0.08422680
      3.02000000	      0.04140978	      0.04069878	      0.08367902
      3.03000000	      0.04083908	      0.04041736	      0.08318773
      3.04000000	      0.04014509	      0.04007248	      0.08255601
      3.05000000	      0.03973262	      0.03986608	      0.08215437
      3.06000000	      0.03924860	      0.03962252	      0.08172151
      3.07000000	      0.03894400	      0.03946847	      0.08145423
      3.08000000	      0.03865423	      0.03932136	      0.08127933
      3.09000000	      0.03842736	      0.03920579	      0.08108735
      3.10000000	      0.03824209	      0.03911117	      0.08100737
      3.11000000	      0.03815272	      0.03906544	      0.08090604
      3.12000000	      0.03801902	      0.03899693	      0.08096307
      3.13000000	      0.03794785	      0.03896042	      0.08101082
      3.14000000	      0.03786355	      0.03891712	      0.08105458
      3.15000000	      0.03777073	      0.03886939	      0.08099420
      3.16000000	      0.03757146	      0.03876672	      0.08122247
      3.17000000	      0.03741975	      0.03868837	      0.08139466
      3.18000000	      0.03709305	      0.03851911	      0.08182380
      3.19000000	      0.03685735	      0.03839653	      0.08196472
      3.20000000	      0.03661263	      0.03826886	      0.08247983
      3.21000000	      0.03651228	      0.03821638	      0.08290532
      3.22000000	      0.03642369	      0.03816998	      0.08341318
      3.23000000	      0.03643326	      0.03817500	      0.08383800
      3.24000000	      0.03653203	      0.03822671	      0.08436348
      3.25000000	      0.03669140	      0.03831000	      0.08489988
      3.26000000	      0.03688178	      0.03840926	      0.08559880
      3.27000000	      0.03709279	      0.03851898	      0.08624121
      3.28000000	      0.03723077	      0.03859055	      0.08658932
      3.29000000	      0.03734015	      0.03864720	      0.08691036
      3.30000000	      0.03747304	      0.03871591	      0.08737600
      3.31000000	      0.03756732	      0.03876458	      0.08770460
      3.32000000	      0.03764864	      0.03880652	      0.08791295
      3.33000000	      0.03779144	      0.03888004	      0.08821447
      3.34000000	      0.03794551	      0.03895921	      0.08843203
      3.35000000	      0.03816431	      0.03907137	      0.08868838
      3.36000000	      0.03842704	      0.03920563	      0.08892030
      3.37000000	      0.03878282	      0.03938671	      0.08943347
      3.38000000	      0.03918587	      0.03959084	      0.08994730
      3.39000000	      0.03962355	      0.03981133	      0.09049476
      3.40000000	      0.04010582	      0.04005287	      0.09112179
      3.41000000	      0.04062560	      0.04031159	      0.09180875
      3.42000000	      0.04114602	      0.04056896	      0.09257625
      3.43000000	      0.04166877	      0.04082586	      0.09318093
      3.44000000	      0.04216614	      0.04106879	      0.09390197
      3.45000000	      0.04266189	      0.04130951	      0.09446804
      3.46000000	      0.04313705	      0.04153892	      0.09497814
      3.47000000	      0.04358567	      0.04175436	      0.09530925
      3.48000000	      0.04398480	      0.04194511	      0.09545749
      3.49000000	      0.04433774	      0.04211306	      0.09573541
      3.50000000	      0.04455277	      0.04221505	      0.09580102
      3.51000000	      0.04462801	      0.04225068	      0.09575271
      3.52000000	      0.04456559	      0.04222113	      0.09576550
      3.53000000	      0.04432658	      0.04210776	      0.09568615
      3.54000000	      0.04397603	      0.04194093	      0.09556570
      3.55000000	      0.04352227	      0.04172398	      0.09529870
      3.56000000	      0.04303497	      0.04148974	      0.09496134
      3.57000000	      0.04253192	      0.04124654	      0.09459229
      3.58000000	      0.04192648	      0.04095191	      0.09408925
      3.59000000	      0.04127541	      0.04063270	      0.09333633
      3.60000000	      0.04064152	      0.04031948	      0.09257767
      3.61000000	      0.04004341	      0.04002170	      0.09188480
      3.62000000	      0.03945134	      0.03972472	      0.09110164
      3.63000000	      0.03892950	      0.03946112	      0.09070698
      3.64000000	      0.03843632	      0.03921037	      0.09042412
      3.65000000	      0.03788046	      0.03892581	      0.09012206
      3.66000000	      0.03742675	      0.03869199	      0.09027679
      3.67000000	      0.03702318	      0.03848282	      0.09038981
      3.68000000	      0.03667957	      0.03830382	      0.09064937
      3.69000000	      0.03637381	      0.03814384	      0.09078005
      3.70000000	      0.03610977	      0.03800514	      0.09094799
      3.71000000	      0.03590669	      0.03789812	      0.09099445
      3.72000000	      0.03579594	      0.03783963	      0.09119435
      3.73000000	      0.03551094	      0.03768869	      0.09074440
      3.74000000	      0.03530810	      0.03758090	      0.09057246
      3.75000000	      0.03509332	      0.03746642	      0.09030700
      3.76000000	      0.03495576	      0.03739292	      0.09006149
      3.77000000	      0.03464632	      0.03722704	      0.08936407
      3.78000000	      0.03444274	      0.03711751	      0.08894451
      3.79000000	      0.03432592	      0.03705451	      0.08858976
      3.80000000	      0.03421298	      0.03699350	      0.08808921
      3.81000000	      0.03416939	      0.03696993	      0.08774212
      3.82000000	      0.03417291	      0.03697183	      0.08744404
      3.83000000	      0.03422167	      0.03699820	      0.08704240
      3.84000000	      0.03430218	      0.03704170	      0.08684732
      3.85000000	      0.03437548	      0.03708125	      0.08667563
      3.86000000	      0.03451536	      0.03715662	      0.08644920
      3.87000000	      0.03464705	      0.03722744	      0.08631607
      3.88000000	      0.03479492	      0.03730679	      0.08613726
      3.89000000	      0.03497223	      0.03740172	      0.08597635
      3.90000000	      0.03518799	      0.03751692	      0.08595178
      3.91000000	      0.03543769	      0.03764980	      0.08586725
      3.92000000	      0.03573640	      0.03780815	      0.08586980
      3.93000000	      0.03607951	      0.03798921	      0.08584909
      3.94000000	      0.03649130	      0.03820539	      0.08600661
      3.95000000	      0.03695703	      0.03844842	      0.08614874
      3.96000000	      0.03750186	      0.03873079	      0.08642240
      3.97000000	      0.03809552	      0.03903615	      0.08665606
      3.98000000	      0.03875813	      0.03937417	      0.08703377
      3.99000000	      0.03946914	      0.03973369	      0.08738122
      4.00000000	      0.04020177	      0.04010076	      0.08779959
      4.01000000	      0.04099374	      0.04049382	      0.08815438
      4.02000000	      0.04171404	      0.04084803	      0.08852596
      4.03000000	      0.04248050	      0.04122160	      0.08885627
      4.04000000	      0.04308589	      0.04151428	      0.08909272
      4.05000000	      0.04354868	      0.04173664	      0.08920098
      4.06000000	      0.04381382	      0.04186350	      0.08924637
      4.07000000	      0.04394075	      0.04192410	      0.08917619
      4.08000000	      0.04390504	      0.04190706	      0.08901055
      4.09000000	      0.04376366	      0.04183953	      0.08882927
      4.10000000	      0.04351201	      0.04171907	      0.08856467
      4.11000000	      0.04318376	      0.04156141	      0.08830416
      4.12000000	      0.04277374	      0.04136362	      0.08813389
