Model Marker Errors from IK
version=1
nRows=541
nColumns=4
inDegrees=no
endheader
time	total_squared_error	marker_error_RMS	marker_error_max
      0.26000000	      0.00333391	      0.01111208	      0.02072484
      0.27000000	      0.00337098	      0.01117367	      0.02096063
      0.28000000	      0.00341621	      0.01124839	      0.02126009
      0.29000000	      0.00347224	      0.01134027	      0.02159679
      0.30000000	      0.00352069	      0.01141910	      0.02217511
      0.31000000	      0.00359067	      0.01153203	      0.02265249
      0.32000000	      0.00364261	      0.01161514	      0.02321005
      0.33000000	      0.00370226	      0.01170985	      0.02402366
      0.34000000	      0.00375006	      0.01178520	      0.02486090
      0.35000000	      0.00379616	      0.01185742	      0.02572153
      0.36000000	      0.00385693	      0.01195195	      0.02673868
      0.37000000	      0.00391434	      0.01204058	      0.02771547
      0.38000000	      0.00398880	      0.01215456	      0.02914049
      0.39000000	      0.00407339	      0.01228276	      0.02997514
      0.40000000	      0.00416194	      0.01241555	      0.03110376
      0.41000000	      0.00425406	      0.01255220	      0.03231258
      0.42000000	      0.00435870	      0.01270563	      0.03325466
      0.43000000	      0.00444291	      0.01282779	      0.03433287
      0.44000000	      0.00453618	      0.01296174	      0.03537429
      0.45000000	      0.00463027	      0.01309547	      0.03597586
      0.46000000	      0.00471514	      0.01321495	      0.03670039
      0.47000000	      0.00478918	      0.01331830	      0.03750041
      0.48000000	      0.00487327	      0.01343471	      0.03836087
      0.49000000	      0.00496703	      0.01356334	      0.03855839
      0.50000000	      0.00505154	      0.01367823	      0.03920217
      0.51000000	      0.00514397	      0.01380280	      0.03996929
      0.52000000	      0.00524665	      0.01393989	      0.04061509
      0.53000000	      0.00535670	      0.01408533	      0.04106782
      0.54000000	      0.00548751	      0.01425626	      0.04147780
      0.55000000	      0.00563314	      0.01444420	      0.04200145
      0.56000000	      0.00578241	      0.01463433	      0.04271136
      0.57000000	      0.00595711	      0.01485374	      0.04336752
      0.58000000	      0.00610665	      0.01503902	      0.04428664
      0.59000000	      0.00628023	      0.01525126	      0.04509166
      0.60000000	      0.00644351	      0.01544826	      0.04599701
      0.61000000	      0.00663038	      0.01567067	      0.04663986
      0.62000000	      0.00679071	      0.01585900	      0.04733941
      0.63000000	      0.00684540	      0.01592273	      0.04853794
      0.64000000	      0.00694573	      0.01603900	      0.04915675
      0.65000000	      0.00707151	      0.01618357	      0.04942452
      0.66000000	      0.00713029	      0.01625069	      0.04966174
      0.67000000	      0.00702552	      0.01613086	      0.05036904
      0.68000000	      0.00705578	      0.01616555	      0.05008078
      0.69000000	      0.00705431	      0.01616387	      0.04968822
      0.70000000	      0.00690944	      0.01599703	      0.04951346
      0.71000000	      0.00678720	      0.01585490	      0.04898012
      0.72000000	      0.00666471	      0.01571118	      0.04821487
      0.73000000	      0.00658860	      0.01562121	      0.04691783
      0.74000000	      0.00642672	      0.01542811	      0.04587318
      0.75000000	      0.00635610	      0.01534311	      0.04419430
      0.76000000	      0.00629113	      0.01526450	      0.04256233
      0.77000000	      0.00611641	      0.01505103	      0.04119622
      0.78000000	      0.00608447	      0.01501169	      0.03937503
      0.79000000	      0.00600667	      0.01491540	      0.03765205
      0.80000000	      0.00600926	      0.01491861	      0.03580838
      0.81000000	      0.00603404	      0.01494935	      0.03401467
      0.82000000	      0.00595800	      0.01485486	      0.03250180
      0.83000000	      0.00596278	      0.01486081	      0.03306471
      0.84000000	      0.00589456	      0.01477556	      0.03276270
      0.85000000	      0.00584371	      0.01471168	      0.03318520
      0.86000000	      0.00573835	      0.01457846	      0.03224173
      0.87000000	      0.00563907	      0.01445180	      0.03218682
      0.88000000	      0.00550362	      0.01427717	      0.03120783
      0.89000000	      0.00537608	      0.01411077	      0.03031829
      0.90000000	      0.00526848	      0.01396885	      0.02955397
      0.91000000	      0.00517515	      0.01384458	      0.02873680
      0.92000000	      0.00507716	      0.01371287	      0.02767916
      0.93000000	      0.00503079	      0.01365012	      0.02705039
      0.94000000	      0.00497524	      0.01357454	      0.02626841
      0.95000000	      0.00496031	      0.01355416	      0.02599953
      0.96000000	      0.00495650	      0.01354895	      0.02609332
      0.97000000	      0.00492245	      0.01350233	      0.02572046
      0.98000000	      0.00491362	      0.01349022	      0.02604958
      0.99000000	      0.00490423	      0.01347732	      0.02642372
      1.00000000	      0.00488989	      0.01345761	      0.02669059
      1.01000000	      0.00489009	      0.01345787	      0.02709543
      1.02000000	      0.00488734	      0.01345409	      0.02732565
      1.03000000	      0.00488770	      0.01345459	      0.02743526
      1.04000000	      0.00488344	      0.01344873	      0.02727701
      1.05000000	      0.00486080	      0.01341752	      0.02675314
      1.06000000	      0.00482019	      0.01336134	      0.02662224
      1.07000000	      0.00478584	      0.01331365	      0.02591714
      1.08000000	      0.00473553	      0.01324349	      0.02430701
      1.09000000	      0.00468809	      0.01317699	      0.02375957
      1.10000000	      0.00465780	      0.01313435	      0.02378182
      1.11000000	      0.00463939	      0.01310837	      0.02390396
      1.12000000	      0.00463350	      0.01310004	      0.02414888
      1.13000000	      0.00465780	      0.01313435	      0.02436317
      1.14000000	      0.00470009	      0.01319384	      0.02463377
      1.15000000	      0.00474357	      0.01325473	      0.02472846
      1.16000000	      0.00482234	      0.01336432	      0.02499455
      1.17000000	      0.00489299	      0.01346187	      0.02508535
      1.18000000	      0.00499688	      0.01360403	      0.02534017
      1.19000000	      0.00510143	      0.01374562	      0.02557462
      1.20000000	      0.00514083	      0.01379859	      0.02519341
      1.21000000	      0.00522593	      0.01391233	      0.02556318
      1.22000000	      0.00526035	      0.01395808	      0.02546950
      1.23000000	      0.00528300	      0.01398810	      0.02563491
      1.24000000	      0.00526283	      0.01396137	      0.02552390
      1.25000000	      0.00522553	      0.01391180	      0.02561308
      1.26000000	      0.00515734	      0.01382074	      0.02560801
      1.27000000	      0.00507370	      0.01370820	      0.02560602
      1.28000000	      0.00497833	      0.01357875	      0.02553870
      1.29000000	      0.00489137	      0.01345964	      0.02547058
      1.30000000	      0.00481958	      0.01336050	      0.02541185
      1.31000000	      0.00474516	      0.01325695	      0.02544095
      1.32000000	      0.00470062	      0.01319459	      0.02534446
      1.33000000	      0.00466546	      0.01314515	      0.02539829
      1.34000000	      0.00465926	      0.01313641	      0.02537049
      1.35000000	      0.00465175	      0.01312582	      0.02529689
      1.36000000	      0.00466998	      0.01315151	      0.02529572
      1.37000000	      0.00468771	      0.01317645	      0.02535512
      1.38000000	      0.00470604	      0.01320219	      0.02530289
      1.39000000	      0.00474185	      0.01325233	      0.02524894
      1.40000000	      0.00477079	      0.01329271	      0.02530437
      1.41000000	      0.00481360	      0.01335221	      0.02521478
      1.42000000	      0.00483897	      0.01338735	      0.02527520
      1.43000000	      0.00485810	      0.01341378	      0.02523350
      1.44000000	      0.00488356	      0.01344888	      0.02519632
      1.45000000	      0.00490391	      0.01347688	      0.02519280
      1.46000000	      0.00489735	      0.01346786	      0.02505137
      1.47000000	      0.00489639	      0.01346654	      0.02498935
      1.48000000	      0.00488070	      0.01344496	      0.02486602
      1.49000000	      0.00482544	      0.01336862	      0.02487439
      1.50000000	      0.00477199	      0.01329437	      0.02474559
      1.51000000	      0.00469388	      0.01318512	      0.02440927
      1.52000000	      0.00455638	      0.01299056	      0.02445963
      1.53000000	      0.00444576	      0.01283190	      0.02430973
      1.54000000	      0.00433398	      0.01266956	      0.02417352
      1.55000000	      0.00420886	      0.01248533	      0.02403202
      1.56000000	      0.00406691	      0.01227299	      0.02389928
      1.57000000	      0.00395269	      0.01209941	      0.02366269
      1.58000000	      0.00385222	      0.01194465	      0.02343266
      1.59000000	      0.00375145	      0.01178739	      0.02330269
      1.60000000	      0.00367710	      0.01167000	      0.02306760
      1.61000000	      0.00361479	      0.01157070	      0.02280387
      1.62000000	      0.00355650	      0.01147703	      0.02264646
      1.63000000	      0.00352130	      0.01142009	      0.02244355
      1.64000000	      0.00351977	      0.01141761	      0.02244353
      1.65000000	      0.00349143	      0.01137155	      0.02200996
      1.66000000	      0.00347638	      0.01134702	      0.02193119
      1.67000000	      0.00350243	      0.01138945	      0.02165572
      1.68000000	      0.00354510	      0.01145862	      0.02163288
      1.69000000	      0.00362432	      0.01158595	      0.02144213
      1.70000000	      0.00368192	      0.01167765	      0.02136752
      1.71000000	      0.00376745	      0.01181250	      0.02136255
      1.72000000	      0.00387122	      0.01197407	      0.02132991
      1.73000000	      0.00396798	      0.01212280	      0.02133030
      1.74000000	      0.00404056	      0.01223317	      0.02129226
      1.75000000	      0.00407709	      0.01228834	      0.02139539
      1.76000000	      0.00409794	      0.01231973	      0.02147654
      1.77000000	      0.00411472	      0.01234492	      0.02168086
      1.78000000	      0.00409787	      0.01231961	      0.02182118
      1.79000000	      0.00410550	      0.01233108	      0.02194290
      1.80000000	      0.00408104	      0.01229430	      0.02211900
      1.81000000	      0.00409697	      0.01231826	      0.02231028
      1.82000000	      0.00412831	      0.01236528	      0.02255049
      1.83000000	      0.00417802	      0.01243952	      0.02309941
      1.84000000	      0.00428166	      0.01259285	      0.02426581
      1.85000000	      0.00440663	      0.01277531	      0.02570186
      1.86000000	      0.00457255	      0.01301360	      0.02748044
      1.87000000	      0.00474289	      0.01325378	      0.02884614
      1.88000000	      0.00492420	      0.01350473	      0.03035613
      1.89000000	      0.00511199	      0.01375983	      0.03180557
      1.90000000	      0.00529850	      0.01400859	      0.03322308
      1.91000000	      0.00547004	      0.01423355	      0.03456470
      1.92000000	      0.00563689	      0.01444900	      0.03572450
      1.93000000	      0.00580495	      0.01466281	      0.03665333
      1.94000000	      0.00595922	      0.01485638	      0.03753499
      1.95000000	      0.00610994	      0.01504308	      0.03826769
      1.96000000	      0.00624747	      0.01521143	      0.03891558
      1.97000000	      0.00637775	      0.01536922	      0.03959751
      1.98000000	      0.00650193	      0.01551812	      0.04014001
      1.99000000	      0.00660497	      0.01564061	      0.04045742
      2.00000000	      0.00669928	      0.01575188	      0.04105902
      2.01000000	      0.00678568	      0.01585312	      0.04172818
      2.02000000	      0.00689278	      0.01597774	      0.04216776
      2.03000000	      0.00700857	      0.01611138	      0.04262580
      2.04000000	      0.00713006	      0.01625043	      0.04323089
      2.05000000	      0.00720228	      0.01633251	      0.04424464
      2.06000000	      0.00730211	      0.01644532	      0.04517985
      2.07000000	      0.00741291	      0.01656962	      0.04597691
      2.08000000	      0.00752955	      0.01669947	      0.04666834
      2.09000000	      0.00762711	      0.01680731	      0.04729924
      2.10000000	      0.00772415	      0.01691389	      0.04776163
      2.11000000	      0.00787722	      0.01708066	      0.04763787
      2.12000000	      0.00789834	      0.01710354	      0.04800159
      2.13000000	      0.00803043	      0.01724597	      0.04743802
      2.14000000	      0.00813618	      0.01735915	      0.04682188
      2.15000000	      0.00805244	      0.01726959	      0.04659555
      2.16000000	      0.00809374	      0.01731381	      0.04553150
      2.17000000	      0.00813841	      0.01736152	      0.04410421
      2.18000000	      0.00800218	      0.01721560	      0.04317609
      2.19000000	      0.00798140	      0.01719324	      0.04143696
      2.20000000	      0.00785563	      0.01705724	      0.04017774
      2.21000000	      0.00777364	      0.01696799	      0.03827852
      2.22000000	      0.00759374	      0.01677050	      0.03676297
      2.23000000	      0.00748000	      0.01664443	      0.03494710
      2.24000000	      0.00729626	      0.01643873	      0.03338592
      2.25000000	      0.00716330	      0.01628826	      0.03361408
      2.26000000	      0.00699639	      0.01609738	      0.03288754
      2.27000000	      0.00685248	      0.01593096	      0.03302506
      2.28000000	      0.00672373	      0.01578059	      0.03291788
      2.29000000	      0.00657545	      0.01560562	      0.03236681
      2.30000000	      0.00645097	      0.01545720	      0.03193562
      2.31000000	      0.00634589	      0.01533078	      0.03150805
      2.32000000	      0.00624559	      0.01520915	      0.03114297
      2.33000000	      0.00613328	      0.01507177	      0.03005972
      2.34000000	      0.00605531	      0.01497568	      0.02966382
      2.35000000	      0.00599100	      0.01489594	      0.02934249
      2.36000000	      0.00593476	      0.01482585	      0.02928557
      2.37000000	      0.00588579	      0.01476456	      0.02916169
      2.38000000	      0.00585404	      0.01472469	      0.02900667
      2.39000000	      0.00582317	      0.01468581	      0.02902916
      2.40000000	      0.00579323	      0.01464801	      0.02885671
      2.41000000	      0.00576677	      0.01461451	      0.02868121
      2.42000000	      0.00574245	      0.01458367	      0.02863260
      2.43000000	      0.00571523	      0.01454906	      0.02844914
      2.44000000	      0.00569764	      0.01452665	      0.02826308
      2.45000000	      0.00568420	      0.01450951	      0.02828064
      2.46000000	      0.00566245	      0.01448173	      0.02802837
      2.47000000	      0.00562763	      0.01443713	      0.02781220
      2.48000000	      0.00561691	      0.01442337	      0.02773091
      2.49000000	      0.00558757	      0.01438565	      0.02758436
      2.50000000	      0.00554742	      0.01433387	      0.02748407
      2.51000000	      0.00550334	      0.01427681	      0.02735670
      2.52000000	      0.00545167	      0.01420963	      0.02719153
      2.53000000	      0.00539496	      0.01413554	      0.02713980
      2.54000000	      0.00533067	      0.01405106	      0.02703596
      2.55000000	      0.00526686	      0.01396671	      0.02696734
      2.56000000	      0.00519853	      0.01387581	      0.02680168
      2.57000000	      0.00513439	      0.01378994	      0.02665172
      2.58000000	      0.00507724	      0.01371299	      0.02651464
      2.59000000	      0.00501619	      0.01363029	      0.02643285
      2.60000000	      0.00496235	      0.01355695	      0.02629849
      2.61000000	      0.00490851	      0.01348320	      0.02616952
      2.62000000	      0.00487006	      0.01343029	      0.02616833
      2.63000000	      0.00479317	      0.01332385	      0.02574760
      2.64000000	      0.00473165	      0.01323807	      0.02547039
      2.65000000	      0.00468642	      0.01317463	      0.02536173
      2.66000000	      0.00460031	      0.01305304	      0.02498766
      2.67000000	      0.00454144	      0.01296925	      0.02473163
      2.68000000	      0.00448443	      0.01288759	      0.02461635
      2.69000000	      0.00441996	      0.01279462	      0.02437638
      2.70000000	      0.00436983	      0.01272186	      0.02415917
      2.71000000	      0.00431386	      0.01264012	      0.02383740
      2.72000000	      0.00426964	      0.01257517	      0.02362625
      2.73000000	      0.00423380	      0.01252228	      0.02337049
      2.74000000	      0.00421365	      0.01249245	      0.02336651
      2.75000000	      0.00416230	      0.01241609	      0.02291624
      2.76000000	      0.00411693	      0.01234823	      0.02264151
      2.77000000	      0.00409108	      0.01230941	      0.02251614
      2.78000000	      0.00405940	      0.01226165	      0.02225561
      2.79000000	      0.00402597	      0.01221105	      0.02213717
      2.80000000	      0.00399930	      0.01217054	      0.02189044
      2.81000000	      0.00397593	      0.01213494	      0.02182239
      2.82000000	      0.00394110	      0.01208167	      0.02163265
      2.83000000	      0.00394163	      0.01208248	      0.02148130
      2.84000000	      0.00392465	      0.01205642	      0.02131565
      2.85000000	      0.00394240	      0.01208366	      0.02146877
      2.86000000	      0.00395029	      0.01209574	      0.02108348
      2.87000000	      0.00398169	      0.01214373	      0.02129380
      2.88000000	      0.00403315	      0.01222194	      0.02204895
      2.89000000	      0.00407296	      0.01228211	      0.02309071
      2.90000000	      0.00412233	      0.01235634	      0.02426143
      2.91000000	      0.00417598	      0.01243648	      0.02528169
      2.92000000	      0.00422783	      0.01251345	      0.02627121
      2.93000000	      0.00425064	      0.01254716	      0.02676034
      2.94000000	      0.00426244	      0.01256456	      0.02708307
      2.95000000	      0.00427384	      0.01258135	      0.02729084
      2.96000000	      0.00427608	      0.01258465	      0.02733363
      2.97000000	      0.00424807	      0.01254337	      0.02673415
      2.98000000	      0.00422622	      0.01251106	      0.02629362
      2.99000000	      0.00416031	      0.01241313	      0.02499319
      3.00000000	      0.00413013	      0.01236801	      0.02410581
      3.01000000	      0.00407075	      0.01227878	      0.02364842
      3.02000000	      0.00403483	      0.01222449	      0.02349653
      3.03000000	      0.00399893	      0.01216999	      0.02342206
      3.04000000	      0.00395310	      0.01210005	      0.02332287
      3.05000000	      0.00391552	      0.01204240	      0.02306545
      3.06000000	      0.00387874	      0.01198571	      0.02288037
      3.07000000	      0.00384485	      0.01193322	      0.02251881
      3.08000000	      0.00379843	      0.01186096	      0.02214192
      3.09000000	      0.00376832	      0.01181386	      0.02179235
      3.10000000	      0.00374115	      0.01177120	      0.02139390
      3.11000000	      0.00372262	      0.01174201	      0.02099121
      3.12000000	      0.00370477	      0.01171383	      0.02057615
      3.13000000	      0.00369839	      0.01170374	      0.02071218
      3.14000000	      0.00371621	      0.01173190	      0.02129370
      3.15000000	      0.00370744	      0.01171804	      0.02126410
      3.16000000	      0.00364999	      0.01162690	      0.02072655
      3.17000000	      0.00362909	      0.01159357	      0.02036132
      3.18000000	      0.00361767	      0.01157532	      0.01980049
      3.19000000	      0.00357932	      0.01151380	      0.01893866
      3.20000000	      0.00356740	      0.01149461	      0.01906087
      3.21000000	      0.00353876	      0.01144838	      0.01911252
      3.22000000	      0.00354001	      0.01145039	      0.01920751
      3.23000000	      0.00356565	      0.01149178	      0.01909656
      3.24000000	      0.00351745	      0.01141385	      0.01923587
      3.25000000	      0.00352144	      0.01142032	      0.01928234
      3.26000000	      0.00352692	      0.01142920	      0.01917689
      3.27000000	      0.00353562	      0.01144329	      0.01887026
      3.28000000	      0.00349488	      0.01137717	      0.01913197
      3.29000000	      0.00347606	      0.01134650	      0.01885083
      3.30000000	      0.00347384	      0.01134287	      0.01884122
      3.31000000	      0.00342040	      0.01125529	      0.01883068
      3.32000000	      0.00338837	      0.01120246	      0.01869643
      3.33000000	      0.00333309	      0.01111071	      0.01878928
      3.34000000	      0.00329106	      0.01104043	      0.01886995
      3.35000000	      0.00325061	      0.01097237	      0.01884187
      3.36000000	      0.00321001	      0.01090364	      0.01893716
      3.37000000	      0.00319586	      0.01087957	      0.01894623
      3.38000000	      0.00313640	      0.01077790	      0.01897706
      3.39000000	      0.00311486	      0.01074083	      0.01891789
      3.40000000	      0.00309289	      0.01070287	      0.01892410
      3.41000000	      0.00307092	      0.01066479	      0.01898541
      3.42000000	      0.00304906	      0.01062677	      0.01904231
      3.43000000	      0.00306473	      0.01065404	      0.01893018
      3.44000000	      0.00306773	      0.01065925	      0.01902729
      3.45000000	      0.00310301	      0.01072037	      0.01902048
      3.46000000	      0.00314001	      0.01078409	      0.01929260
      3.47000000	      0.00319840	      0.01088389	      0.01932268
      3.48000000	      0.00326315	      0.01099352	      0.01946790
      3.49000000	      0.00330430	      0.01106262	      0.01979818
      3.50000000	      0.00337705	      0.01118373	      0.01993062
      3.51000000	      0.00342568	      0.01126398	      0.02015639
      3.52000000	      0.00348729	      0.01136481	      0.02047420
      3.53000000	      0.00353874	      0.01144835	      0.02096686
      3.54000000	      0.00359693	      0.01154208	      0.02149001
      3.55000000	      0.00365864	      0.01164066	      0.02204686
      3.56000000	      0.00371971	      0.01173742	      0.02289517
      3.57000000	      0.00378867	      0.01184572	      0.02365799
      3.58000000	      0.00386028	      0.01195715	      0.02471763
      3.59000000	      0.00394800	      0.01209225	      0.02574102
      3.60000000	      0.00402896	      0.01221560	      0.02688237
      3.61000000	      0.00412042	      0.01235346	      0.02818019
      3.62000000	      0.00423236	      0.01252015	      0.02943718
      3.63000000	      0.00437061	      0.01272300	      0.03071330
      3.64000000	      0.00450939	      0.01292340	      0.03197807
      3.65000000	      0.00464917	      0.01312218	      0.03325006
      3.66000000	      0.00478829	      0.01331706	      0.03438098
      3.67000000	      0.00492468	      0.01350539	      0.03554863
      3.68000000	      0.00504972	      0.01367577	      0.03624237
      3.69000000	      0.00516957	      0.01383711	      0.03682240
      3.70000000	      0.00526332	      0.01396201	      0.03738214
      3.71000000	      0.00533343	      0.01405470	      0.03816030
      3.72000000	      0.00542160	      0.01417039	      0.03814926
      3.73000000	      0.00549388	      0.01426453	      0.03844842
      3.74000000	      0.00556546	      0.01435716	      0.03870827
      3.75000000	      0.00563751	      0.01444979	      0.03915026
      3.76000000	      0.00573277	      0.01457137	      0.03932829
      3.77000000	      0.00581914	      0.01468072	      0.03982122
      3.78000000	      0.00592276	      0.01481086	      0.04030462
      3.79000000	      0.00604077	      0.01495768	      0.04086472
      3.80000000	      0.00617706	      0.01512547	      0.04147520
      3.81000000	      0.00632951	      0.01531099	      0.04218495
      3.82000000	      0.00649355	      0.01550813	      0.04303889
      3.83000000	      0.00667445	      0.01572266	      0.04390359
      3.84000000	      0.00685774	      0.01593707	      0.04486290
      3.85000000	      0.00700402	      0.01610615	      0.04618225
      3.86000000	      0.00716589	      0.01629120	      0.04727969
      3.87000000	      0.00738843	      0.01654224	      0.04786847
      3.88000000	      0.00750093	      0.01666770	      0.04873686
      3.89000000	      0.00769173	      0.01687836	      0.04901737
      3.90000000	      0.00770519	      0.01689312	      0.04971399
      3.91000000	      0.00771933	      0.01690862	      0.05011123
      3.92000000	      0.00774915	      0.01694124	      0.04990821
      3.93000000	      0.00777822	      0.01697299	      0.04932293
      3.94000000	      0.00777715	      0.01697181	      0.04850781
      3.95000000	      0.00766781	      0.01685209	      0.04782487
      3.96000000	      0.00751145	      0.01667938	      0.04704063
      3.97000000	      0.00741330	      0.01657005	      0.04565054
      3.98000000	      0.00730678	      0.01645058	      0.04403658
      3.99000000	      0.00708950	      0.01620413	      0.04283752
      4.00000000	      0.00695618	      0.01605105	      0.04102042
      4.01000000	      0.00674602	      0.01580672	      0.03948745
      4.02000000	      0.00659513	      0.01562895	      0.03766883
      4.03000000	      0.00645547	      0.01546258	      0.03587444
      4.04000000	      0.00635340	      0.01533986	      0.03399878
      4.05000000	      0.00622209	      0.01518051	      0.03251638
      4.06000000	      0.00610875	      0.01504160	      0.03071700
      4.07000000	      0.00606425	      0.01498672	      0.02920164
      4.08000000	      0.00597528	      0.01487638	      0.02871633
      4.09000000	      0.00595723	      0.01485389	      0.02958641
      4.10000000	      0.00595298	      0.01484859	      0.03035725
      4.11000000	      0.00589621	      0.01477762	      0.02979629
      4.12000000	      0.00589783	      0.01477966	      0.03068121
      4.13000000	      0.00588408	      0.01476241	      0.03079311
      4.14000000	      0.00588285	      0.01476087	      0.03107191
      4.15000000	      0.00586560	      0.01473922	      0.03071271
      4.16000000	      0.00585727	      0.01472874	      0.03123133
      4.17000000	      0.00583755	      0.01470393	      0.03062634
      4.18000000	      0.00581827	      0.01467962	      0.03076037
      4.19000000	      0.00579174	      0.01464612	      0.03027781
      4.20000000	      0.00576070	      0.01460682	      0.03014993
      4.21000000	      0.00570409	      0.01453488	      0.02915374
      4.22000000	      0.00563743	      0.01444969	      0.02871180
      4.23000000	      0.00557221	      0.01436587	      0.02820411
      4.24000000	      0.00549904	      0.01427124	      0.02751654
      4.25000000	      0.00542479	      0.01417455	      0.02670605
      4.26000000	      0.00535539	      0.01408360	      0.02623731
      4.27000000	      0.00529454	      0.01400337	      0.02525348
      4.28000000	      0.00522783	      0.01391486	      0.02471803
      4.29000000	      0.00518070	      0.01385199	      0.02473280
      4.30000000	      0.00512279	      0.01377436	      0.02458215
      4.31000000	      0.00508727	      0.01372653	      0.02459345
      4.32000000	      0.00504647	      0.01367137	      0.02448023
      4.33000000	      0.00501673	      0.01363102	      0.02459935
      4.34000000	      0.00498803	      0.01359198	      0.02456553
      4.35000000	      0.00495366	      0.01354507	      0.02460466
      4.36000000	      0.00495639	      0.01354880	      0.02467290
      4.37000000	      0.00495901	      0.01355238	      0.02458684
      4.38000000	      0.00496504	      0.01356062	      0.02469440
      4.39000000	      0.00498116	      0.01358262	      0.02460742
      4.40000000	      0.00501671	      0.01363100	      0.02470565
      4.41000000	      0.00506143	      0.01369161	      0.02477012
      4.42000000	      0.00509424	      0.01373592	      0.02471676
      4.43000000	      0.00509587	      0.01373812	      0.02463625
      4.44000000	      0.00512694	      0.01377994	      0.02461631
      4.45000000	      0.00512776	      0.01378104	      0.02447991
      4.46000000	      0.00513131	      0.01378581	      0.02434274
      4.47000000	      0.00513019	      0.01378430	      0.02434972
      4.48000000	      0.00509589	      0.01373814	      0.02434110
      4.49000000	      0.00507892	      0.01371525	      0.02435863
      4.50000000	      0.00500513	      0.01361526	      0.02399934
      4.51000000	      0.00494463	      0.01353271	      0.02387340
      4.52000000	      0.00489252	      0.01346121	      0.02376803
      4.53000000	      0.00483292	      0.01337897	      0.02376168
      4.54000000	      0.00477201	      0.01329441	      0.02358965
      4.55000000	      0.00472525	      0.01322911	      0.02340558
      4.56000000	      0.00468853	      0.01317761	      0.02326389
      4.57000000	      0.00466406	      0.01314318	      0.02332118
      4.58000000	      0.00466575	      0.01314556	      0.02339686
      4.59000000	      0.00462296	      0.01308513	      0.02315408
      4.60000000	      0.00463060	      0.01309594	      0.02284946
      4.61000000	      0.00464103	      0.01311068	      0.02284624
      4.62000000	      0.00466700	      0.01314732	      0.02277339
      4.63000000	      0.00470010	      0.01319385	      0.02271353
      4.64000000	      0.00476518	      0.01328489	      0.02274090
      4.65000000	      0.00478260	      0.01330915	      0.02261775
      4.66000000	      0.00481852	      0.01335903	      0.02294821
      4.67000000	      0.00485487	      0.01340932	      0.02343187
      4.68000000	      0.00487787	      0.01344106	      0.02392277
      4.69000000	      0.00490718	      0.01348138	      0.02426636
      4.70000000	      0.00492673	      0.01350821	      0.02461463
      4.71000000	      0.00488354	      0.01344885	      0.02521533
      4.72000000	      0.00487589	      0.01343832	      0.02542212
      4.73000000	      0.00485354	      0.01340749	      0.02554095
      4.74000000	      0.00479860	      0.01333139	      0.02575555
      4.75000000	      0.00474801	      0.01326093	      0.02571859
      4.76000000	      0.00468657	      0.01317485	      0.02561264
      4.77000000	      0.00459682	      0.01304808	      0.02546172
      4.78000000	      0.00451832	      0.01293619	      0.02507086
      4.79000000	      0.00443638	      0.01281836	      0.02459760
      4.80000000	      0.00434695	      0.01268851	      0.02396299
      4.81000000	      0.00425440	      0.01255271	      0.02333049
      4.82000000	      0.00415367	      0.01240321	      0.02257704
      4.83000000	      0.00403389	      0.01222306	      0.02175571
      4.84000000	      0.00392982	      0.01206437	      0.02075260
      4.85000000	      0.00383338	      0.01191542	      0.02052492
      4.86000000	      0.00374014	      0.01176961	      0.02033076
      4.87000000	      0.00363972	      0.01161053	      0.02023560
      4.88000000	      0.00352449	      0.01142526	      0.01994663
      4.89000000	      0.00343966	      0.01128693	      0.01955851
      4.90000000	      0.00335204	      0.01114225	      0.01939134
      4.91000000	      0.00328673	      0.01103317	      0.01883105
      4.92000000	      0.00322102	      0.01092231	      0.01890044
      4.93000000	      0.00319523	      0.01087851	      0.01858549
      4.94000000	      0.00315659	      0.01081253	      0.01848757
      4.95000000	      0.00315570	      0.01081101	      0.01830266
      4.96000000	      0.00319126	      0.01087175	      0.01829530
      4.97000000	      0.00321298	      0.01090867	      0.01809499
      4.98000000	      0.00327430	      0.01101229	      0.01812998
      4.99000000	      0.00332710	      0.01110072	      0.01802318
      5.00000000	      0.00340138	      0.01122395	      0.01805542
      5.01000000	      0.00346398	      0.01132677	      0.01793979
      5.02000000	      0.00352813	      0.01143116	      0.01844379
      5.03000000	      0.00358266	      0.01151916	      0.01896498
      5.04000000	      0.00362249	      0.01158302	      0.01887339
      5.05000000	      0.00366213	      0.01164621	      0.01911396
      5.06000000	      0.00370799	      0.01171892	      0.01935197
      5.07000000	      0.00377393	      0.01182266	      0.01910090
      5.08000000	      0.00382109	      0.01189629	      0.01976738
      5.09000000	      0.00390463	      0.01202564	      0.02072127
      5.10000000	      0.00398927	      0.01215527	      0.02197034
      5.11000000	      0.00410699	      0.01233331	      0.02318185
      5.12000000	      0.00423492	      0.01252394	      0.02474148
      5.13000000	      0.00438277	      0.01274068	      0.02593645
      5.14000000	      0.00456182	      0.01299832	      0.02747002
      5.15000000	      0.00474698	      0.01325949	      0.02898348
      5.16000000	      0.00493457	      0.01351894	      0.03061172
      5.17000000	      0.00512294	      0.01377456	      0.03200173
      5.18000000	      0.00530483	      0.01401696	      0.03346176
      5.19000000	      0.00547809	      0.01424403	      0.03469321
      5.20000000	      0.00563420	      0.01444556	      0.03589642
      5.21000000	      0.00575366	      0.01459790	      0.03668198
      5.22000000	      0.00586393	      0.01473712	      0.03763012
      5.23000000	      0.00596822	      0.01486759	      0.03817212
      5.24000000	      0.00605835	      0.01497943	      0.03876104
      5.25000000	      0.00613397	      0.01507262	      0.03939996
      5.26000000	      0.00622749	      0.01518709	      0.03977704
      5.27000000	      0.00630879	      0.01528590	      0.04041725
      5.28000000	      0.00640173	      0.01539809	      0.04112136
      5.29000000	      0.00650444	      0.01552112	      0.04160882
      5.30000000	      0.00662289	      0.01566180	      0.04225010
      5.31000000	      0.00676449	      0.01582835	      0.04286198
      5.32000000	      0.00688878	      0.01597310	      0.04361417
      5.33000000	      0.00706662	      0.01617797	      0.04413606
      5.34000000	      0.00715185	      0.01627523	      0.04534455
      5.35000000	      0.00729062	      0.01643237	      0.04622250
      5.36000000	      0.00750444	      0.01667160	      0.04657549
      5.37000000	      0.00757084	      0.01674520	      0.04754556
      5.38000000	      0.00777173	      0.01696590	      0.04745688
      5.39000000	      0.00779252	      0.01698858	      0.04808488
      5.40000000	      0.00792558	      0.01713301	      0.04751076
      5.41000000	      0.00787940	      0.01708302	      0.04747064
      5.42000000	      0.00790408	      0.01710975	      0.04636010
      5.43000000	      0.00776558	      0.01695919	      0.04561216
      5.44000000	      0.00766480	      0.01684878	      0.04407228
      5.45000000	      0.00744313	      0.01660336	      0.04267977
      5.46000000	      0.00724924	      0.01638568	      0.04075940
      5.47000000	      0.00698781	      0.01608751	      0.03899811
      5.48000000	      0.00676345	      0.01582714	      0.03702655
      5.49000000	      0.00651578	      0.01553464	      0.03508542
      5.50000000	      0.00631993	      0.01529940	      0.03320618
      5.51000000	      0.00614413	      0.01508510	      0.03144856
      5.52000000	      0.00603421	      0.01494956	      0.02941662
      5.53000000	      0.00588353	      0.01476173	      0.02829822
      5.54000000	      0.00578598	      0.01463883	      0.02687104
      5.55000000	      0.00574426	      0.01458597	      0.02684569
      5.56000000	      0.00569484	      0.01452308	      0.02728604
      5.57000000	      0.00568072	      0.01450506	      0.02765286
      5.58000000	      0.00563375	      0.01444498	      0.02741500
      5.59000000	      0.00563920	      0.01445197	      0.02776623
      5.60000000	      0.00562161	      0.01442941	      0.02781953
      5.61000000	      0.00556136	      0.01435188	      0.02678491
      5.62000000	      0.00552900	      0.01431005	      0.02643987
      5.63000000	      0.00548518	      0.01425324	      0.02604521
      5.64000000	      0.00544048	      0.01419504	      0.02590118
      5.65000000	      0.00540195	      0.01414469	      0.02597734
      5.66000000	      0.00535459	      0.01408255	      0.02594313
