Model Marker Errors from IK
version=1
nRows=211
nColumns=4
inDegrees=no
endheader
time	total_squared_error	marker_error_RMS	marker_error_max
      0.20000000	      0.00288812	      0.01074825	      0.01926183
      0.21000000	      0.00309267	      0.01112235	      0.01936217
      0.22000000	      0.00328427	      0.01146171	      0.02059307
      0.23000000	      0.00348435	      0.01180568	      0.02256578
      0.24000000	      0.00358849	      0.01198080	      0.02348578
      0.25000000	      0.00369348	      0.01215480	      0.02454890
      0.26000000	      0.00375696	      0.01225881	      0.02538966
      0.27000000	      0.00378816	      0.01230961	      0.02611263
      0.28000000	      0.00379398	      0.01231906	      0.02673563
      0.29000000	      0.00378194	      0.01229949	      0.02733908
      0.30000000	      0.00376853	      0.01227767	      0.02821621
      0.31000000	      0.00372971	      0.01221427	      0.02847606
      0.32000000	      0.00370748	      0.01217782	      0.02913575
      0.33000000	      0.00367930	      0.01213144	      0.02944251
      0.34000000	      0.00366320	      0.01210488	      0.03001134
      0.35000000	      0.00361294	      0.01202155	      0.03035705
      0.36000000	      0.00359044	      0.01198406	      0.03063516
      0.37000000	      0.00351992	      0.01186579	      0.03093381
      0.38000000	      0.00345407	      0.01175426	      0.03091832
      0.39000000	      0.00339915	      0.01166044	      0.03070293
      0.40000000	      0.00331999	      0.01152386	      0.03023831
      0.41000000	      0.00320395	      0.01132069	      0.02950646
      0.42000000	      0.00311050	      0.01115437	      0.02853879
      0.43000000	      0.00300390	      0.01096158	      0.02733209
      0.44000000	      0.00290111	      0.01077239	      0.02583144
      0.45000000	      0.00276995	      0.01052606	      0.02422823
      0.46000000	      0.00264396	      0.01028388	      0.02255121
      0.47000000	      0.00254058	      0.01008084	      0.02084450
      0.48000000	      0.00248189	      0.00996372	      0.01926447
      0.49000000	      0.00249938	      0.00999876	      0.01963860
      0.50000000	      0.00254862	      0.01009677	      0.02051046
      0.51000000	      0.00264770	      0.01029117	      0.02120629
      0.52000000	      0.00277942	      0.01054405	      0.02172684
      0.53000000	      0.00284220	      0.01066245	      0.02231175
      0.54000000	      0.00290597	      0.01078140	      0.02258138
      0.55000000	      0.00292718	      0.01082068	      0.02288395
      0.56000000	      0.00294850	      0.01086003	      0.02296828
      0.57000000	      0.00295250	      0.01086739	      0.02299704
      0.58000000	      0.00297398	      0.01090685	      0.02288936
      0.59000000	      0.00299114	      0.01093827	      0.02287055
      0.60000000	      0.00301439	      0.01098068	      0.02271117
      0.61000000	      0.00304371	      0.01103396	      0.02255045
      0.62000000	      0.00309245	      0.01112197	      0.02251094
      0.63000000	      0.00315699	      0.01123742	      0.02247901
      0.64000000	      0.00324265	      0.01138886	      0.02245180
      0.65000000	      0.00334016	      0.01155881	      0.02244133
      0.66000000	      0.00343394	      0.01171996	      0.02241612
      0.67000000	      0.00350871	      0.01184686	      0.02229095
      0.68000000	      0.00354126	      0.01190171	      0.02219260
      0.69000000	      0.00360253	      0.01200421	      0.02214349
      0.70000000	      0.00362691	      0.01204476	      0.02250230
      0.71000000	      0.00363515	      0.01205844	      0.02334319
      0.72000000	      0.00367579	      0.01212565	      0.02331557
      0.73000000	      0.00370646	      0.01217613	      0.02405183
      0.74000000	      0.00373442	      0.01222198	      0.02474943
      0.75000000	      0.00378899	      0.01231095	      0.02663593
      0.76000000	      0.00380073	      0.01233002	      0.02818923
      0.77000000	      0.00381407	      0.01235163	      0.02979090
      0.78000000	      0.00380916	      0.01234368	      0.03109133
      0.79000000	      0.00380617	      0.01233884	      0.03255434
      0.80000000	      0.00369486	      0.01215707	      0.03231981
      0.81000000	      0.00359255	      0.01198757	      0.03221282
      0.82000000	      0.00349258	      0.01181961	      0.03213538
      0.83000000	      0.00331977	      0.01152349	      0.03077635
      0.84000000	      0.00317707	      0.01127310	      0.03004618
      0.85000000	      0.00296897	      0.01089766	      0.02824049
      0.86000000	      0.00276160	      0.01051018	      0.02656617
      0.87000000	      0.00252881	      0.01005746	      0.02436891
      0.88000000	      0.00229275	      0.00957653	      0.02183058
      0.89000000	      0.00207692	      0.00911464	      0.01984443
      0.90000000	      0.00189603	      0.00870869	      0.01858644
      0.91000000	      0.00178366	      0.00844667	      0.01755516
      0.92000000	      0.00174571	      0.00835634	      0.01716172
      0.93000000	      0.00177192	      0.00841884	      0.01920059
      0.94000000	      0.00181826	      0.00852822	      0.02037994
      0.95000000	      0.00185396	      0.00861153	      0.02034311
      0.96000000	      0.00189008	      0.00869502	      0.01941965
      0.97000000	      0.00194910	      0.00882971	      0.01810444
      0.98000000	      0.00204885	      0.00905285	      0.01846446
      0.99000000	      0.00221948	      0.00942228	      0.01917285
      1.00000000	      0.00242766	      0.00985426	      0.01931180
      1.01000000	      0.00264640	      0.01028863	      0.01969318
      1.02000000	      0.00283967	      0.01065771	      0.02003922
      1.03000000	      0.00300331	      0.01096050	      0.01978971
      1.04000000	      0.00309955	      0.01113472	      0.01961329
      1.05000000	      0.00320997	      0.01133132	      0.01932885
      1.06000000	      0.00335120	      0.01157790	      0.02038789
      1.07000000	      0.00350188	      0.01183534	      0.02202386
      1.08000000	      0.00366784	      0.01211255	      0.02309730
      1.09000000	      0.00381156	      0.01234757	      0.02454227
      1.10000000	      0.00393701	      0.01254912	      0.02514474
      1.11000000	      0.00403362	      0.01270216	      0.02593881
      1.12000000	      0.00409331	      0.01279580	      0.02673423
      1.13000000	      0.00413349	      0.01285844	      0.02765947
      1.14000000	      0.00412644	      0.01284747	      0.02825103
      1.15000000	      0.00409525	      0.01279882	      0.02897821
      1.16000000	      0.00405669	      0.01273844	      0.02958524
      1.17000000	      0.00398591	      0.01262681	      0.03006078
      1.18000000	      0.00393821	      0.01255103	      0.03048970
      1.19000000	      0.00384585	      0.01240299	      0.03084202
      1.20000000	      0.00377491	      0.01228805	      0.03106192
      1.21000000	      0.00366426	      0.01210663	      0.03120231
      1.22000000	      0.00355053	      0.01191727	      0.03112916
      1.23000000	      0.00345518	      0.01175616	      0.03086917
      1.24000000	      0.00332090	      0.01152545	      0.03045688
      1.25000000	      0.00323992	      0.01138405	      0.02978093
      1.26000000	      0.00317156	      0.01126332	      0.02893458
      1.27000000	      0.00302792	      0.01100531	      0.02790761
      1.28000000	      0.00294326	      0.01085037	      0.02655505
      1.29000000	      0.00280206	      0.01058690	      0.02508951
      1.30000000	      0.00267080	      0.01033596	      0.02342148
      1.31000000	      0.00253904	      0.01007779	      0.02168272
      1.32000000	      0.00243205	      0.00986317	      0.01997276
      1.33000000	      0.00237580	      0.00974843	      0.01847360
      1.34000000	      0.00239765	      0.00979316	      0.01853777
      1.35000000	      0.00241909	      0.00983685	      0.01942290
      1.36000000	      0.00249601	      0.00999201	      0.02000232
      1.37000000	      0.00251179	      0.01002356	      0.02074828
      1.38000000	      0.00255427	      0.01010795	      0.02116124
      1.39000000	      0.00259059	      0.01017957	      0.02150489
      1.40000000	      0.00259910	      0.01019627	      0.02190737
      1.41000000	      0.00264622	      0.01028829	      0.02194937
      1.42000000	      0.00270563	      0.01040313	      0.02223448
      1.43000000	      0.00276945	      0.01052511	      0.02198537
      1.44000000	      0.00282918	      0.01063802	      0.02199744
      1.45000000	      0.00288070	      0.01073444	      0.02177027
      1.46000000	      0.00293178	      0.01082918	      0.02182972
      1.47000000	      0.00299262	      0.01094096	      0.02177927
      1.48000000	      0.00307189	      0.01108492	      0.02186562
      1.49000000	      0.00319183	      0.01129926	      0.02204033
      1.50000000	      0.00330917	      0.01150507	      0.02216528
      1.51000000	      0.00339734	      0.01165735	      0.02230737
      1.52000000	      0.00351081	      0.01185042	      0.02229551
      1.53000000	      0.00358556	      0.01197591	      0.02224983
      1.54000000	      0.00363743	      0.01206223	      0.02247100
      1.55000000	      0.00368968	      0.01214855	      0.02362481
      1.56000000	      0.00371186	      0.01218502	      0.02327006
      1.57000000	      0.00375284	      0.01225208	      0.02416009
      1.58000000	      0.00382356	      0.01236698	      0.02481515
      1.59000000	      0.00384031	      0.01239405	      0.02514945
      1.60000000	      0.00389025	      0.01247438	      0.02696724
      1.61000000	      0.00394235	      0.01255762	      0.02906655
      1.62000000	      0.00398172	      0.01262017	      0.03106549
      1.63000000	      0.00403270	      0.01270071	      0.03299304
      1.64000000	      0.00392046	      0.01252271	      0.03321303
      1.65000000	      0.00383584	      0.01238683	      0.03354529
      1.66000000	      0.00368632	      0.01214301	      0.03297255
      1.67000000	      0.00351984	      0.01186564	      0.03222082
      1.68000000	      0.00335742	      0.01158865	      0.03152440
      1.69000000	      0.00314898	      0.01122315	      0.02995875
      1.70000000	      0.00295222	      0.01086686	      0.02875404
      1.71000000	      0.00277668	      0.01053884	      0.02782841
      1.72000000	      0.00255311	      0.01010566	      0.02620393
      1.73000000	      0.00233755	      0.00966964	      0.02446637
      1.74000000	      0.00213211	      0.00923495	      0.02262073
      1.75000000	      0.00193499	      0.00879769	      0.02032520
      1.76000000	      0.00176661	      0.00840622	      0.01880200
      1.77000000	      0.00164193	      0.00810415	      0.01792487
      1.78000000	      0.00159246	      0.00798112	      0.01743814
      1.79000000	      0.00153895	      0.00784589	      0.01662611
      1.80000000	      0.00153969	      0.00784777	      0.01793264
      1.81000000	      0.00153841	      0.00784453	      0.01830062
      1.82000000	      0.00153587	      0.00783804	      0.01776548
      1.83000000	      0.00153421	      0.00783380	      0.01641131
      1.84000000	      0.00157019	      0.00792513	      0.01591398
      1.85000000	      0.00165054	      0.00812538	      0.01623087
      1.86000000	      0.00177939	      0.00843657	      0.01662772
      1.87000000	      0.00194432	      0.00881890	      0.01705458
      1.88000000	      0.00211439	      0.00919650	      0.01738841
      1.89000000	      0.00225492	      0.00949720	      0.01740380
      1.90000000	      0.00239520	      0.00978815	      0.01733934
      1.91000000	      0.00255517	      0.01010973	      0.01772015
      1.92000000	      0.00268610	      0.01036553	      0.01927850
      1.93000000	      0.00286487	      0.01070491	      0.02088984
      1.94000000	      0.00305141	      0.01104791	      0.02221471
      1.95000000	      0.00323324	      0.01137232	      0.02337899
      1.96000000	      0.00338489	      0.01163597	      0.02452122
      1.97000000	      0.00351716	      0.01186113	      0.02491002
      1.98000000	      0.00361515	      0.01202522	      0.02544389
      1.99000000	      0.00366607	      0.01210962	      0.02597727
      2.00000000	      0.00367603	      0.01212605	      0.02651447
      2.01000000	      0.00368064	      0.01213366	      0.02739044
      2.02000000	      0.00363340	      0.01205554	      0.02770842
      2.03000000	      0.00360635	      0.01201058	      0.02832026
      2.04000000	      0.00357872	      0.01196448	      0.02888522
      2.05000000	      0.00354137	      0.01190189	      0.02935260
      2.06000000	      0.00351843	      0.01186326	      0.02974066
      2.07000000	      0.00349519	      0.01182402	      0.03001229
      2.08000000	      0.00344964	      0.01174673	      0.03011772
      2.09000000	      0.00332831	      0.01153831	      0.03004519
      2.10000000	      0.00324638	      0.01139541	      0.02969196
      2.11000000	      0.00311489	      0.01116224	      0.02919817
      2.12000000	      0.00302274	      0.01099588	      0.02839910
      2.13000000	      0.00287954	      0.01073226	      0.02735684
      2.14000000	      0.00276183	      0.01051062	      0.02614606
      2.15000000	      0.00264863	      0.01029297	      0.02468183
      2.16000000	      0.00253826	      0.01007622	      0.02310452
      2.17000000	      0.00243638	      0.00987193	      0.02142685
      2.18000000	      0.00235597	      0.00970767	      0.01974720
      2.19000000	      0.00231553	      0.00962398	      0.01817384
      2.20000000	      0.00233341	      0.00966108	      0.01744253
      2.21000000	      0.00239879	      0.00979550	      0.01814034
      2.22000000	      0.00249843	      0.00999686	      0.01876438
      2.23000000	      0.00261768	      0.01023265	      0.01938161
      2.24000000	      0.00263729	      0.01027091	      0.01978336
      2.25000000	      0.00263214	      0.01026088	      0.02009613
      2.26000000	      0.00257231	      0.01014359	      0.02019107
      2.27000000	      0.00255326	      0.01010596	      0.02022316
      2.28000000	      0.00262982	      0.01025635	      0.01987286
      2.29000000	      0.00285511	      0.01068664	      0.01936015
      2.30000000	      0.00323549	      0.01137628	      0.02507247
