Model Marker Errors from IK
version=1
nRows=368
nColumns=4
inDegrees=no
endheader
time	total_squared_error	marker_error_RMS	marker_error_max
      0.23000000	      0.00513835	      0.01379526	      0.03743491
      0.24000000	      0.00511097	      0.01375846	      0.03690019
      0.25000000	      0.00508076	      0.01371773	      0.03660095
      0.26000000	      0.00501854	      0.01363348	      0.03594792
      0.27000000	      0.00495121	      0.01354172	      0.03544851
      0.28000000	      0.00488266	      0.01344765	      0.03479863
      0.29000000	      0.00478993	      0.01331934	      0.03411750
      0.30000000	      0.00470340	      0.01319849	      0.03339468
      0.31000000	      0.00461374	      0.01307208	      0.03256531
      0.32000000	      0.00451100	      0.01292572	      0.03176343
      0.33000000	      0.00441945	      0.01279388	      0.03101652
      0.34000000	      0.00433621	      0.01267282	      0.03006828
      0.35000000	      0.00423599	      0.01252551	      0.02933937
      0.36000000	      0.00416587	      0.01242142	      0.02860880
      0.37000000	      0.00408731	      0.01230373	      0.02779102
      0.38000000	      0.00403977	      0.01223197	      0.02686358
      0.39000000	      0.00397586	      0.01213483	      0.02700009
      0.40000000	      0.00392490	      0.01205681	      0.02711940
      0.41000000	      0.00388991	      0.01200294	      0.02721727
      0.42000000	      0.00386162	      0.01195922	      0.02731225
      0.43000000	      0.00383011	      0.01191033	      0.02736639
      0.44000000	      0.00381073	      0.01188016	      0.02748269
      0.45000000	      0.00379984	      0.01186317	      0.02753535
      0.46000000	      0.00379695	      0.01185865	      0.02750124
      0.47000000	      0.00379392	      0.01185392	      0.02757271
      0.48000000	      0.00379353	      0.01185332	      0.02753221
      0.49000000	      0.00377325	      0.01182158	      0.02751192
      0.50000000	      0.00377619	      0.01182619	      0.02741738
      0.51000000	      0.00377884	      0.01183034	      0.02743381
      0.52000000	      0.00379077	      0.01184900	      0.02738442
      0.53000000	      0.00380952	      0.01187828	      0.02738005
      0.54000000	      0.00383448	      0.01191712	      0.02737332
      0.55000000	      0.00384257	      0.01192968	      0.02722526
      0.56000000	      0.00386971	      0.01197173	      0.02724041
      0.57000000	      0.00390322	      0.01202346	      0.02719604
      0.58000000	      0.00393010	      0.01206479	      0.02713129
      0.59000000	      0.00397482	      0.01213324	      0.02712123
      0.60000000	      0.00401994	      0.01220191	      0.02711065
      0.61000000	      0.00406107	      0.01226418	      0.02707059
      0.62000000	      0.00411454	      0.01234466	      0.02710988
      0.63000000	      0.00417315	      0.01243227	      0.02715383
      0.64000000	      0.00421332	      0.01249196	      0.02715994
      0.65000000	      0.00427080	      0.01257688	      0.02714474
      0.66000000	      0.00433229	      0.01266709	      0.02727100
      0.67000000	      0.00438048	      0.01273734	      0.02735237
      0.68000000	      0.00443420	      0.01281521	      0.02746318
      0.69000000	      0.00448671	      0.01289087	      0.02744326
      0.70000000	      0.00452840	      0.01295062	      0.02752043
      0.71000000	      0.00456512	      0.01300302	      0.02756797
      0.72000000	      0.00460984	      0.01306655	      0.02767885
      0.73000000	      0.00463652	      0.01310431	      0.02775325
      0.74000000	      0.00465507	      0.01313050	      0.02774345
      0.75000000	      0.00464923	      0.01312225	      0.02808199
      0.76000000	      0.00467324	      0.01315611	      0.02816524
      0.77000000	      0.00468682	      0.01317520	      0.02812258
      0.78000000	      0.00468608	      0.01317415	      0.02838984
      0.79000000	      0.00469597	      0.01318806	      0.02831630
      0.80000000	      0.00468708	      0.01317556	      0.02858182
      0.81000000	      0.00468670	      0.01317504	      0.02850281
      0.82000000	      0.00466312	      0.01314184	      0.02867510
      0.83000000	      0.00466268	      0.01314123	      0.02889595
      0.84000000	      0.00464526	      0.01311665	      0.02900652
      0.85000000	      0.00463904	      0.01310787	      0.02897433
      0.86000000	      0.00462366	      0.01308612	      0.02912267
      0.87000000	      0.00461188	      0.01306944	      0.02915715
      0.88000000	      0.00461152	      0.01306893	      0.02927737
      0.89000000	      0.00461267	      0.01307057	      0.02918488
      0.90000000	      0.00458994	      0.01303832	      0.02927682
      0.91000000	      0.00459031	      0.01303884	      0.02923190
      0.92000000	      0.00457422	      0.01301597	      0.02947167
      0.93000000	      0.00457943	      0.01302338	      0.02932909
      0.94000000	      0.00456384	      0.01300119	      0.02944832
      0.95000000	      0.00455631	      0.01299046	      0.02949724
      0.96000000	      0.00456113	      0.01299734	      0.02947797
      0.97000000	      0.00456060	      0.01299658	      0.02950422
      0.98000000	      0.00455455	      0.01298796	      0.02948093
      0.99000000	      0.00455333	      0.01298622	      0.02945725
      1.00000000	      0.00454519	      0.01297460	      0.02940304
      1.01000000	      0.00454564	      0.01297525	      0.02938434
      1.02000000	      0.00454087	      0.01296844	      0.02936011
      1.03000000	      0.00453365	      0.01295813	      0.02933489
      1.04000000	      0.00453229	      0.01295618	      0.02924488
      1.05000000	      0.00452313	      0.01294309	      0.02921883
      1.06000000	      0.00450762	      0.01292086	      0.02917230
      1.07000000	      0.00449484	      0.01290255	      0.02908435
      1.08000000	      0.00447964	      0.01288071	      0.02900096
      1.09000000	      0.00445906	      0.01285109	      0.02894503
      1.10000000	      0.00444181	      0.01282620	      0.02881272
      1.11000000	      0.00442038	      0.01279522	      0.02876126
      1.12000000	      0.00439157	      0.01275346	      0.02866004
      1.13000000	      0.00434376	      0.01268384	      0.02858661
      1.14000000	      0.00430806	      0.01263162	      0.02847841
      1.15000000	      0.00427034	      0.01257620	      0.02837939
      1.16000000	      0.00423197	      0.01251956	      0.02829628
      1.17000000	      0.00416949	      0.01242680	      0.02818775
      1.18000000	      0.00412159	      0.01235522	      0.02808110
      1.19000000	      0.00406964	      0.01227711	      0.02798023
      1.20000000	      0.00401993	      0.01220190	      0.02788593
      1.21000000	      0.00397451	      0.01213277	      0.02779561
      1.22000000	      0.00392674	      0.01205963	      0.02772673
      1.23000000	      0.00388528	      0.01199580	      0.02759748
      1.24000000	      0.00384775	      0.01193772	      0.02752176
      1.25000000	      0.00380965	      0.01187848	      0.02742560
      1.26000000	      0.00377786	      0.01182881	      0.02737936
      1.27000000	      0.00374801	      0.01178199	      0.02728647
      1.28000000	      0.00372496	      0.01174569	      0.02719193
      1.29000000	      0.00370072	      0.01170742	      0.02718446
      1.30000000	      0.00367980	      0.01167428	      0.02708148
      1.31000000	      0.00366437	      0.01164978	      0.02702811
      1.32000000	      0.00364600	      0.01162054	      0.02698182
      1.33000000	      0.00362006	      0.01157914	      0.02690397
      1.34000000	      0.00358514	      0.01152314	      0.02689728
      1.35000000	      0.00356547	      0.01149150	      0.02683636
      1.36000000	      0.00354524	      0.01145885	      0.02679756
      1.37000000	      0.00350616	      0.01139551	      0.02674895
      1.38000000	      0.00348327	      0.01135826	      0.02669820
      1.39000000	      0.00345889	      0.01131844	      0.02667516
      1.40000000	      0.00343165	      0.01127378	      0.02662550
      1.41000000	      0.00340717	      0.01123349	      0.02650394
      1.42000000	      0.00338212	      0.01119213	      0.02648652
      1.43000000	      0.00336359	      0.01116142	      0.02637084
      1.44000000	      0.00334590	      0.01113204	      0.02630946
      1.45000000	      0.00332848	      0.01110301	      0.02627005
      1.46000000	      0.00332267	      0.01109333	      0.02609255
      1.47000000	      0.00331448	      0.01107965	      0.02608097
      1.48000000	      0.00331839	      0.01108618	      0.02587437
      1.49000000	      0.00332229	      0.01109269	      0.02588378
      1.50000000	      0.00333150	      0.01110806	      0.02576535
      1.51000000	      0.00334484	      0.01113028	      0.02565358
      1.52000000	      0.00336357	      0.01116140	      0.02557809
      1.53000000	      0.00339650	      0.01121590	      0.02538884
      1.54000000	      0.00341190	      0.01124129	      0.02532820
      1.55000000	      0.00344042	      0.01128818	      0.02525108
      1.56000000	      0.00349357	      0.01137504	      0.02503336
      1.57000000	      0.00351470	      0.01140938	      0.02499958
      1.58000000	      0.00356762	      0.01149495	      0.02489802
      1.59000000	      0.00362819	      0.01159212	      0.02477940
      1.60000000	      0.00364817	      0.01162401	      0.02489585
      1.61000000	      0.00370408	      0.01171273	      0.02485574
      1.62000000	      0.00374942	      0.01178420	      0.02480642
      1.63000000	      0.00380654	      0.01187362	      0.02480693
      1.64000000	      0.00386359	      0.01196227	      0.02533720
      1.65000000	      0.00392625	      0.01205888	      0.02587214
      1.66000000	      0.00398715	      0.01215205	      0.02657085
      1.67000000	      0.00404986	      0.01224724	      0.02709671
      1.68000000	      0.00409972	      0.01232239	      0.02763818
      1.69000000	      0.00416523	      0.01242046	      0.02828771
      1.70000000	      0.00423285	      0.01252087	      0.02894974
      1.71000000	      0.00427421	      0.01258189	      0.02942034
      1.72000000	      0.00434320	      0.01268304	      0.03016509
      1.73000000	      0.00438046	      0.01273732	      0.03059585
      1.74000000	      0.00443407	      0.01281503	      0.03118154
      1.75000000	      0.00447972	      0.01288082	      0.03174815
      1.76000000	      0.00454156	      0.01296943	      0.03242552
      1.77000000	      0.00456602	      0.01300430	      0.03272124
      1.78000000	      0.00461915	      0.01307975	      0.03359594
      1.79000000	      0.00463638	      0.01310411	      0.03367792
      1.80000000	      0.00465688	      0.01313306	      0.03411067
      1.81000000	      0.00468199	      0.01316842	      0.03457605
      1.82000000	      0.00469847	      0.01319156	      0.03486780
      1.83000000	      0.00474221	      0.01325283	      0.03556290
      1.84000000	      0.00478001	      0.01330554	      0.03593187
      1.85000000	      0.00478108	      0.01330703	      0.03572290
      1.86000000	      0.00479960	      0.01333277	      0.03604678
      1.87000000	      0.00481938	      0.01336023	      0.03630095
      1.88000000	      0.00483722	      0.01338493	      0.03647622
      1.89000000	      0.00485959	      0.01341585	      0.03658045
      1.90000000	      0.00488770	      0.01345459	      0.03661259
      1.91000000	      0.00491523	      0.01349243	      0.03678141
      1.92000000	      0.00493060	      0.01351351	      0.03667960
      1.93000000	      0.00493574	      0.01352055	      0.03660905
      1.94000000	      0.00494938	      0.01353921	      0.03652353
      1.95000000	      0.00496437	      0.01355971	      0.03638850
      1.96000000	      0.00498436	      0.01358698	      0.03622846
      1.97000000	      0.00501460	      0.01362814	      0.03603069
      1.98000000	      0.00505299	      0.01368020	      0.03596911
      1.99000000	      0.00506021	      0.01368997	      0.03584615
      2.00000000	      0.00511776	      0.01376760	      0.03586866
      2.01000000	      0.00511297	      0.01376115	      0.03591011
      2.02000000	      0.00515625	      0.01381927	      0.03591377
      2.03000000	      0.00520681	      0.01388686	      0.03604811
      2.04000000	      0.00525155	      0.01394640	      0.03622337
      2.05000000	      0.00532001	      0.01403700	      0.03637972
      2.06000000	      0.00537925	      0.01411494	      0.03658961
      2.07000000	      0.00545967	      0.01422005	      0.03669968
      2.08000000	      0.00551773	      0.01429546	      0.03706984
      2.09000000	      0.00559531	      0.01439562	      0.03715512
      2.10000000	      0.00566731	      0.01448794	      0.03727328
      2.11000000	      0.00572177	      0.01455738	      0.03730297
      2.12000000	      0.00575420	      0.01459858	      0.03714469
      2.13000000	      0.00576565	      0.01461310	      0.03674433
      2.14000000	      0.00575251	      0.01459644	      0.03661744
      2.15000000	      0.00571270	      0.01454584	      0.03617410
      2.16000000	      0.00564327	      0.01445717	      0.03554244
      2.17000000	      0.00556196	      0.01435265	      0.03497531
      2.18000000	      0.00545292	      0.01421126	      0.03425487
      2.19000000	      0.00533635	      0.01405854	      0.03353796
      2.20000000	      0.00520598	      0.01388576	      0.03312673
      2.21000000	      0.00507255	      0.01370665	      0.03279960
      2.22000000	      0.00493697	      0.01352223	      0.03250510
      2.23000000	      0.00480040	      0.01333389	      0.03218188
      2.24000000	      0.00467315	      0.01315597	      0.03186833
      2.25000000	      0.00455238	      0.01298487	      0.03159377
      2.26000000	      0.00443906	      0.01282223	      0.03128308
      2.27000000	      0.00434003	      0.01267841	      0.03088952
      2.28000000	      0.00424240	      0.01253498	      0.03062165
      2.29000000	      0.00415734	      0.01240868	      0.03029595
      2.30000000	      0.00409125	      0.01230966	      0.02989110
      2.31000000	      0.00402389	      0.01220790	      0.02963250
      2.32000000	      0.00396289	      0.01211502	      0.02925069
      2.33000000	      0.00391601	      0.01204315	      0.02898917
      2.34000000	      0.00386877	      0.01197029	      0.02866515
      2.35000000	      0.00382399	      0.01190081	      0.02832493
      2.36000000	      0.00378724	      0.01184349	      0.02813233
      2.37000000	      0.00377024	      0.01181688	      0.02790729
      2.38000000	      0.00375144	      0.01178738	      0.02773109
      2.39000000	      0.00373875	      0.01176742	      0.02760320
      2.40000000	      0.00371717	      0.01173341	      0.02731857
      2.41000000	      0.00371436	      0.01172898	      0.02723816
      2.42000000	      0.00372237	      0.01174162	      0.02704912
      2.43000000	      0.00371919	      0.01173661	      0.02689362
      2.44000000	      0.00373403	      0.01176000	      0.02688062
      2.45000000	      0.00376017	      0.01180108	      0.02678212
      2.46000000	      0.00376945	      0.01181564	      0.02667169
      2.47000000	      0.00379648	      0.01185792	      0.02663129
      2.48000000	      0.00382467	      0.01190187	      0.02664270
      2.49000000	      0.00386214	      0.01196003	      0.02669971
      2.50000000	      0.00390621	      0.01202808	      0.02674134
      2.51000000	      0.00394475	      0.01208727	      0.02678039
      2.52000000	      0.00398638	      0.01215087	      0.02687623
      2.53000000	      0.00402971	      0.01221673	      0.02693841
      2.54000000	      0.00404879	      0.01224563	      0.02696459
      2.55000000	      0.00408472	      0.01229983	      0.02707931
      2.56000000	      0.00412598	      0.01236180	      0.02718064
      2.57000000	      0.00415675	      0.01240780	      0.02734156
      2.58000000	      0.00418615	      0.01245161	      0.02743934
      2.59000000	      0.00421809	      0.01249902	      0.02755603
      2.60000000	      0.00423449	      0.01252329	      0.02766065
      2.61000000	      0.00424651	      0.01254106	      0.02782781
      2.62000000	      0.00426176	      0.01256356	      0.02791079
      2.63000000	      0.00426493	      0.01256822	      0.02805689
      2.64000000	      0.00427946	      0.01258962	      0.02816719
      2.65000000	      0.00428759	      0.01260157	      0.02815295
      2.66000000	      0.00427783	      0.01258722	      0.02839636
      2.67000000	      0.00427185	      0.01257842	      0.02847595
      2.68000000	      0.00426593	      0.01256970	      0.02855795
      2.69000000	      0.00426355	      0.01256620	      0.02867717
      2.70000000	      0.00426414	      0.01256707	      0.02862900
      2.71000000	      0.00424979	      0.01254590	      0.02883746
      2.72000000	      0.00425730	      0.01255698	      0.02876414
      2.73000000	      0.00425085	      0.01254746	      0.02879621
      2.74000000	      0.00425533	      0.01255408	      0.02881393
      2.75000000	      0.00424533	      0.01253932	      0.02904698
      2.76000000	      0.00424860	      0.01254415	      0.02906636
      2.77000000	      0.00426392	      0.01256674	      0.02893742
      2.78000000	      0.00427038	      0.01257626	      0.02892594
      2.79000000	      0.00427444	      0.01258224	      0.02906506
      2.80000000	      0.00429469	      0.01261200	      0.02890571
      2.81000000	      0.00430018	      0.01262006	      0.02889325
      2.82000000	      0.00429790	      0.01261671	      0.02907603
      2.83000000	      0.00431207	      0.01263750	      0.02891577
      2.84000000	      0.00430401	      0.01262567	      0.02901760
      2.85000000	      0.00431926	      0.01264803	      0.02878100
      2.86000000	      0.00430901	      0.01263301	      0.02893524
      2.87000000	      0.00430277	      0.01262387	      0.02890470
      2.88000000	      0.00429678	      0.01261506	      0.02887228
      2.89000000	      0.00428981	      0.01260484	      0.02883983
      2.90000000	      0.00429407	      0.01261110	      0.02864822
      2.91000000	      0.00428853	      0.01260295	      0.02854172
      2.92000000	      0.00427055	      0.01257651	      0.02864438
      2.93000000	      0.00426377	      0.01256652	      0.02857038
      2.94000000	      0.00425107	      0.01254779	      0.02848195
      2.95000000	      0.00425842	      0.01255863	      0.02830420
      2.96000000	      0.00425757	      0.01255737	      0.02826349
      2.97000000	      0.00425415	      0.01255234	      0.02813171
      2.98000000	      0.00425333	      0.01255112	      0.02796476
      2.99000000	      0.00424774	      0.01254287	      0.02786006
      3.00000000	      0.00424385	      0.01253713	      0.02775250
      3.01000000	      0.00424897	      0.01254469	      0.02759505
      3.02000000	      0.00423977	      0.01253110	      0.02746562
      3.03000000	      0.00423493	      0.01252394	      0.02729805
      3.04000000	      0.00422746	      0.01251290	      0.02724057
      3.05000000	      0.00421407	      0.01249307	      0.02705813
      3.06000000	      0.00419815	      0.01246944	      0.02690965
      3.07000000	      0.00418499	      0.01244989	      0.02674580
      3.08000000	      0.00416418	      0.01241889	      0.02670646
      3.09000000	      0.00413932	      0.01238177	      0.02656694
      3.10000000	      0.00411715	      0.01234856	      0.02645714
      3.11000000	      0.00409613	      0.01231700	      0.02641925
      3.12000000	      0.00406854	      0.01227545	      0.02631555
      3.13000000	      0.00403618	      0.01222653	      0.02631649
      3.14000000	      0.00400731	      0.01218273	      0.02625336
      3.15000000	      0.00398228	      0.01214462	      0.02621713
      3.16000000	      0.00395140	      0.01209744	      0.02629623
      3.17000000	      0.00392364	      0.01205488	      0.02628559
      3.18000000	      0.00389913	      0.01201717	      0.02638425
      3.19000000	      0.00388162	      0.01199015	      0.02643463
      3.20000000	      0.00385120	      0.01194308	      0.02658384
      3.21000000	      0.00383149	      0.01191248	      0.02670069
      3.22000000	      0.00382604	      0.01190399	      0.02678182
      3.23000000	      0.00381285	      0.01188346	      0.02694009
      3.24000000	      0.00381520	      0.01188712	      0.02711735
      3.25000000	      0.00379453	      0.01185488	      0.02735809
      3.26000000	      0.00379334	      0.01185302	      0.02750559
      3.27000000	      0.00379755	      0.01185959	      0.02769886
      3.28000000	      0.00381870	      0.01189257	      0.02788340
      3.29000000	      0.00382065	      0.01189562	      0.02809614
      3.30000000	      0.00385717	      0.01195233	      0.02830107
      3.31000000	      0.00386948	      0.01197139	      0.02848807
      3.32000000	      0.00389949	      0.01201772	      0.02865215
      3.33000000	      0.00392600	      0.01205850	      0.02885034
      3.34000000	      0.00396836	      0.01212338	      0.02897342
      3.35000000	      0.00403053	      0.01221797	      0.02914198
      3.36000000	      0.00405066	      0.01224845	      0.02929551
      3.37000000	      0.00409882	      0.01232104	      0.02943117
      3.38000000	      0.00415495	      0.01240512	      0.02954740
      3.39000000	      0.00422024	      0.01250221	      0.02961746
      3.40000000	      0.00427542	      0.01258368	      0.02974052
      3.41000000	      0.00434675	      0.01268821	      0.02980545
      3.42000000	      0.00439353	      0.01275631	      0.02977897
      3.43000000	      0.00447148	      0.01286897	      0.02974776
      3.44000000	      0.00451497	      0.01293141	      0.02975977
      3.45000000	      0.00457352	      0.01301498	      0.02981027
      3.46000000	      0.00463729	      0.01310540	      0.02977093
      3.47000000	      0.00470495	      0.01320066	      0.03043520
      3.48000000	      0.00476022	      0.01327796	      0.03126753
      3.49000000	      0.00481676	      0.01335658	      0.03210908
      3.50000000	      0.00486863	      0.01342832	      0.03287277
      3.51000000	      0.00495781	      0.01355074	      0.03396047
      3.52000000	      0.00498429	      0.01358688	      0.03440156
      3.53000000	      0.00502991	      0.01364892	      0.03499474
      3.54000000	      0.00507696	      0.01371261	      0.03557835
      3.55000000	      0.00512094	      0.01377187	      0.03615664
      3.56000000	      0.00517079	      0.01383875	      0.03665042
      3.57000000	      0.00522566	      0.01391198	      0.03714869
      3.58000000	      0.00527607	      0.01397891	      0.03754976
      3.59000000	      0.00533698	      0.01405937	      0.03788958
      3.60000000	      0.00539366	      0.01413384	      0.03819292
      3.61000000	      0.00545470	      0.01421358	      0.03842319
      3.62000000	      0.00551339	      0.01428985	      0.03836457
      3.63000000	      0.00555757	      0.01434698	      0.03851174
      3.64000000	      0.00561091	      0.01441567	      0.03864630
      3.65000000	      0.00564467	      0.01445898	      0.03852979
      3.66000000	      0.00569009	      0.01451703	      0.03842547
      3.67000000	      0.00573195	      0.01457032	      0.03829008
      3.68000000	      0.00576816	      0.01461628	      0.03803376
      3.69000000	      0.00581432	      0.01467465	      0.03788755
      3.70000000	      0.00584394	      0.01471197	      0.03759820
      3.71000000	      0.00587452	      0.01475042	      0.03749643
      3.72000000	      0.00591838	      0.01480537	      0.03724614
      3.73000000	      0.00594671	      0.01484078	      0.03724642
      3.74000000	      0.00600591	      0.01491446	      0.03711236
      3.75000000	      0.00603008	      0.01494443	      0.03714335
      3.76000000	      0.00609735	      0.01502757	      0.03704374
      3.77000000	      0.00613875	      0.01507850	      0.03717316
      3.78000000	      0.00621392	      0.01517054	      0.03716128
      3.79000000	      0.00629746	      0.01527218	      0.03725398
      3.80000000	      0.00634640	      0.01533141	      0.03755045
      3.81000000	      0.00642910	      0.01543097	      0.03758212
      3.82000000	      0.00649984	      0.01551563	      0.03768497
      3.83000000	      0.00655493	      0.01558124	      0.03778303
      3.84000000	      0.00661281	      0.01564989	      0.03772031
      3.85000000	      0.00665603	      0.01570094	      0.03728330
      3.86000000	      0.00665941	      0.01570493	      0.03717285
      3.87000000	      0.00663667	      0.01567810	      0.03701905
      3.88000000	      0.00659194	      0.01562517	      0.03656172
      3.89000000	      0.00652444	      0.01554496	      0.03603289
      3.90000000	      0.00641676	      0.01541616	      0.03546038
