Model Marker Errors from IK
version=1
nRows=220
nColumns=4
inDegrees=no
endheader
time	total_squared_error	marker_error_RMS	marker_error_max
      0.37000000	      0.00157811	      0.00794508	      0.01947966
      0.38000000	      0.00154540	      0.00786231	      0.01901887
      0.39000000	      0.00152257	      0.00780403	      0.01921132
      0.40000000	      0.00151814	      0.00779267	      0.01933860
      0.41000000	      0.00152260	      0.00780410	      0.01945744
      0.42000000	      0.00156963	      0.00792371	      0.01930779
      0.43000000	      0.00160137	      0.00800344	      0.01954727
      0.44000000	      0.00162033	      0.00805065	      0.01991447
      0.45000000	      0.00167223	      0.00817859	      0.01961382
      0.46000000	      0.00172442	      0.00830523	      0.01959163
      0.47000000	      0.00175849	      0.00838688	      0.01949975
      0.48000000	      0.00177330	      0.00842212	      0.01948935
      0.49000000	      0.00177347	      0.00842252	      0.01949639
      0.50000000	      0.00174484	      0.00835426	      0.01879864
      0.51000000	      0.00171678	      0.00828681	      0.01844305
      0.52000000	      0.00168594	      0.00821203	      0.01797489
      0.53000000	      0.00166496	      0.00816079	      0.01806767
      0.54000000	      0.00163812	      0.00809475	      0.01733057
      0.55000000	      0.00162467	      0.00806143	      0.01703950
      0.56000000	      0.00161293	      0.00803227	      0.01624655
      0.57000000	      0.00160742	      0.00801854	      0.01614934
      0.58000000	      0.00160399	      0.00800997	      0.01654678
      0.59000000	      0.00160000	      0.00799999	      0.01678058
      0.60000000	      0.00160163	      0.00800406	      0.01699872
      0.61000000	      0.00159511	      0.00798777	      0.01701036
      0.62000000	      0.00159799	      0.00799497	      0.01714291
      0.63000000	      0.00159352	      0.00798379	      0.01727324
      0.64000000	      0.00158702	      0.00796749	      0.01730888
      0.65000000	      0.00158324	      0.00795798	      0.01743256
      0.66000000	      0.00158605	      0.00796505	      0.01758084
      0.67000000	      0.00158795	      0.00796981	      0.01776330
      0.68000000	      0.00159296	      0.00798238	      0.01790046
      0.69000000	      0.00159049	      0.00797619	      0.01834418
      0.70000000	      0.00160753	      0.00801879	      0.01846534
      0.71000000	      0.00162891	      0.00807196	      0.01859738
      0.72000000	      0.00165196	      0.00812885	      0.01871300
      0.73000000	      0.00166776	      0.00816764	      0.01870307
      0.74000000	      0.00168589	      0.00821193	      0.01852395
      0.75000000	      0.00170120	      0.00824913	      0.01820910
      0.76000000	      0.00170556	      0.00825968	      0.01696714
      0.77000000	      0.00170264	      0.00825261	      0.01601494
      0.78000000	      0.00170031	      0.00824696	      0.01463966
      0.79000000	      0.00170587	      0.00826043	      0.01345819
      0.80000000	      0.00172525	      0.00830721	      0.01430958
      0.81000000	      0.00176767	      0.00840873	      0.01575648
      0.82000000	      0.00181027	      0.00850945	      0.01651042
      0.83000000	      0.00188602	      0.00868566	      0.01816508
      0.84000000	      0.00196636	      0.00886872	      0.01993514
      0.85000000	      0.00202870	      0.00900821	      0.02068361
      0.86000000	      0.00206349	      0.00908513	      0.02140723
      0.87000000	      0.00206377	      0.00908575	      0.02137245
      0.88000000	      0.00203010	      0.00901132	      0.02078688
      0.89000000	      0.00198127	      0.00890228	      0.01896072
      0.90000000	      0.00193512	      0.00879801	      0.01749393
      0.91000000	      0.00189406	      0.00870417	      0.01740242
      0.92000000	      0.00185420	      0.00861208	      0.01737487
      0.93000000	      0.00181869	      0.00852922	      0.01736258
      0.94000000	      0.00178442	      0.00844849	      0.01730477
      0.95000000	      0.00172062	      0.00829608	      0.01725222
      0.96000000	      0.00164127	      0.00810252	      0.01710823
      0.97000000	      0.00158199	      0.00795484	      0.01686324
      0.98000000	      0.00152543	      0.00781135	      0.01640465
      0.99000000	      0.00150471	      0.00775812	      0.01643737
      1.00000000	      0.00148043	      0.00769527	      0.01622392
      1.01000000	      0.00149661	      0.00773722	      0.01624063
      1.02000000	      0.00151980	      0.00779693	      0.01626399
      1.03000000	      0.00154915	      0.00787184	      0.01637675
      1.04000000	      0.00157224	      0.00793030	      0.01638875
      1.05000000	      0.00158529	      0.00796314	      0.01657878
      1.06000000	      0.00162772	      0.00806900	      0.01710794
      1.07000000	      0.00158570	      0.00796418	      0.01623336
      1.08000000	      0.00157926	      0.00794799	      0.01640499
      1.09000000	      0.00160314	      0.00800784	      0.01662621
      1.10000000	      0.00154617	      0.00786428	      0.01604468
      1.11000000	      0.00151026	      0.00777242	      0.01552637
      1.12000000	      0.00146161	      0.00764620	      0.01457266
      1.13000000	      0.00140969	      0.00750917	      0.01423426
      1.14000000	      0.00137277	      0.00741018	      0.01385391
      1.15000000	      0.00133402	      0.00730486	      0.01330034
      1.16000000	      0.00129134	      0.00718704	      0.01225591
      1.17000000	      0.00127335	      0.00713681	      0.01189653
      1.18000000	      0.00126209	      0.00710519	      0.01205336
      1.19000000	      0.00124039	      0.00704383	      0.01229034
      1.20000000	      0.00123552	      0.00702998	      0.01248519
      1.21000000	      0.00122907	      0.00701162	      0.01271389
      1.22000000	      0.00122486	      0.00699959	      0.01276605
      1.23000000	      0.00119700	      0.00691955	      0.01271668
      1.24000000	      0.00119070	      0.00690131	      0.01274970
      1.25000000	      0.00119085	      0.00690173	      0.01260189
      1.26000000	      0.00118144	      0.00687442	      0.01237126
      1.27000000	      0.00118134	      0.00687412	      0.01232427
      1.28000000	      0.00118693	      0.00689038	      0.01234120
      1.29000000	      0.00119318	      0.00690850	      0.01237944
      1.30000000	      0.00120907	      0.00695433	      0.01237652
      1.31000000	      0.00123016	      0.00701474	      0.01230257
      1.32000000	      0.00125845	      0.00709492	      0.01272066
      1.33000000	      0.00128579	      0.00717159	      0.01316369
      1.34000000	      0.00129785	      0.00720514	      0.01415187
      1.35000000	      0.00131051	      0.00724018	      0.01430436
      1.36000000	      0.00129264	      0.00719067	      0.01464388
      1.37000000	      0.00126709	      0.00711924	      0.01487469
      1.38000000	      0.00123649	      0.00703276	      0.01587311
      1.39000000	      0.00122129	      0.00698939	      0.01563452
      1.40000000	      0.00123530	      0.00702936	      0.01577725
      1.41000000	      0.00127939	      0.00715372	      0.01656230
      1.42000000	      0.00133694	      0.00731283	      0.01632796
      1.43000000	      0.00139700	      0.00747529	      0.01706223
      1.44000000	      0.00143613	      0.00757926	      0.01735847
      1.45000000	      0.00142758	      0.00755667	      0.01661956
      1.46000000	      0.00140353	      0.00749275	      0.01678179
      1.47000000	      0.00136516	      0.00738962	      0.01682713
      1.48000000	      0.00133184	      0.00729888	      0.01715259
      1.49000000	      0.00130966	      0.00723783	      0.01810801
      1.50000000	      0.00131426	      0.00725054	      0.01777061
      1.51000000	      0.00133986	      0.00732082	      0.01788119
      1.52000000	      0.00137305	      0.00741095	      0.01822354
      1.53000000	      0.00144141	      0.00759319	      0.01804941
      1.54000000	      0.00153232	      0.00782896	      0.01820625
      1.55000000	      0.00163008	      0.00807484	      0.01845708
      1.56000000	      0.00174444	      0.00835329	      0.01855433
      1.57000000	      0.00183880	      0.00857624	      0.01879597
      1.58000000	      0.00190121	      0.00872056	      0.01913548
      1.59000000	      0.00192197	      0.00876805	      0.01932417
      1.60000000	      0.00190167	      0.00872162	      0.01946050
      1.61000000	      0.00185149	      0.00860579	      0.01940243
      1.62000000	      0.00179186	      0.00846607	      0.01932684
      1.63000000	      0.00173020	      0.00831913	      0.01918467
      1.64000000	      0.00170153	      0.00824993	      0.01920388
      1.65000000	      0.00162220	      0.00805532	      0.01857354
      1.66000000	      0.00158949	      0.00797368	      0.01838714
      1.67000000	      0.00155027	      0.00787470	      0.01793989
      1.68000000	      0.00152936	      0.00782141	      0.01773311
      1.69000000	      0.00149548	      0.00773428	      0.01718499
      1.70000000	      0.00147866	      0.00769067	      0.01689161
      1.71000000	      0.00146185	      0.00764684	      0.01641810
      1.72000000	      0.00145440	      0.00762732	      0.01608782
      1.73000000	      0.00144543	      0.00760376	      0.01553741
      1.74000000	      0.00144068	      0.00759125	      0.01524654
      1.75000000	      0.00143408	      0.00757386	      0.01592607
      1.76000000	      0.00143136	      0.00756668	      0.01654127
      1.77000000	      0.00142705	      0.00755527	      0.01707941
      1.78000000	      0.00143004	      0.00756318	      0.01754930
      1.79000000	      0.00143083	      0.00756526	      0.01810949
      1.80000000	      0.00144927	      0.00761386	      0.01843285
      1.81000000	      0.00147668	      0.00768551	      0.01870785
      1.82000000	      0.00150929	      0.00776992	      0.01889372
      1.83000000	      0.00153588	      0.00783806	      0.01895288
      1.84000000	      0.00155843	      0.00789540	      0.01859341
      1.85000000	      0.00157408	      0.00793495	      0.01810945
      1.86000000	      0.00156065	      0.00790101	      0.01653565
      1.87000000	      0.00155295	      0.00788150	      0.01537576
      1.88000000	      0.00155152	      0.00787787	      0.01366615
      1.89000000	      0.00154532	      0.00786211	      0.01328173
      1.90000000	      0.00156752	      0.00791839	      0.01350765
      1.91000000	      0.00162184	      0.00805442	      0.01500995
      1.92000000	      0.00169545	      0.00823518	      0.01649981
      1.93000000	      0.00178392	      0.00844730	      0.01858449
      1.94000000	      0.00185921	      0.00862370	      0.01946100
      1.95000000	      0.00190170	      0.00872169	      0.02019947
      1.96000000	      0.00189549	      0.00870744	      0.01971114
      1.97000000	      0.00184837	      0.00859854	      0.01860031
      1.98000000	      0.00178085	      0.00844003	      0.01663267
      1.99000000	      0.00171361	      0.00827915	      0.01495049
      2.00000000	      0.00167529	      0.00818607	      0.01518876
      2.01000000	      0.00162329	      0.00805801	      0.01486140
      2.02000000	      0.00159011	      0.00797523	      0.01491562
      2.03000000	      0.00154497	      0.00786122	      0.01497499
      2.04000000	      0.00148659	      0.00771125	      0.01514135
      2.05000000	      0.00139192	      0.00746168	      0.01510452
      2.06000000	      0.00132646	      0.00728413	      0.01508399
      2.07000000	      0.00126058	      0.00710094	      0.01507848
      2.08000000	      0.00125300	      0.00707954	      0.01500650
      2.09000000	      0.00127973	      0.00715467	      0.01499781
      2.10000000	      0.00128592	      0.00717193	      0.01468887
      2.11000000	      0.00131337	      0.00724810	      0.01451190
      2.12000000	      0.00134610	      0.00733784	      0.01455117
      2.13000000	      0.00138241	      0.00743615	      0.01455149
      2.14000000	      0.00141905	      0.00753406	      0.01466071
      2.15000000	      0.00145333	      0.00762451	      0.01502927
      2.16000000	      0.00147865	      0.00769063	      0.01539999
      2.17000000	      0.00152193	      0.00780238	      0.01589163
      2.18000000	      0.00149844	      0.00774195	      0.01553246
      2.19000000	      0.00151372	      0.00778130	      0.01558412
      2.20000000	      0.00146336	      0.00765078	      0.01500965
      2.21000000	      0.00144512	      0.00760295	      0.01476328
      2.22000000	      0.00139035	      0.00745748	      0.01417734
      2.23000000	      0.00130837	      0.00723428	      0.01285945
      2.24000000	      0.00125633	      0.00708896	      0.01276908
      2.25000000	      0.00118832	      0.00689439	      0.01248947
      2.26000000	      0.00113874	      0.00674903	      0.01249105
      2.27000000	      0.00109695	      0.00662404	      0.01234921
      2.28000000	      0.00107017	      0.00654268	      0.01213092
      2.29000000	      0.00103689	      0.00644015	      0.01191050
      2.30000000	      0.00103117	      0.00642238	      0.01198931
      2.31000000	      0.00103541	      0.00643555	      0.01217680
      2.32000000	      0.00103409	      0.00643147	      0.01231072
      2.33000000	      0.00104307	      0.00645932	      0.01249166
      2.34000000	      0.00105811	      0.00650571	      0.01253214
      2.35000000	      0.00107083	      0.00654471	      0.01265072
      2.36000000	      0.00108725	      0.00659469	      0.01269992
      2.37000000	      0.00110482	      0.00664776	      0.01271334
      2.38000000	      0.00112674	      0.00671340	      0.01273111
      2.39000000	      0.00115196	      0.00678810	      0.01291152
      2.40000000	      0.00118304	      0.00687906	      0.01368385
      2.41000000	      0.00121806	      0.00698014	      0.01369548
      2.42000000	      0.00125376	      0.00708170	      0.01397039
      2.43000000	      0.00127580	      0.00714367	      0.01415966
      2.44000000	      0.00128132	      0.00715911	      0.01519746
      2.45000000	      0.00126610	      0.00711646	      0.01568589
      2.46000000	      0.00124044	      0.00704398	      0.01566923
      2.47000000	      0.00121521	      0.00697199	      0.01635074
      2.48000000	      0.00120771	      0.00695043	      0.01641991
      2.49000000	      0.00122655	      0.00700443	      0.01640130
      2.50000000	      0.00127153	      0.00713170	      0.01709103
      2.51000000	      0.00132744	      0.00728682	      0.01719775
      2.52000000	      0.00137679	      0.00742102	      0.01738637
      2.53000000	      0.00140285	      0.00749091	      0.01771431
      2.54000000	      0.00139367	      0.00746639	      0.01706449
      2.55000000	      0.00135168	      0.00735305	      0.01761539
      2.56000000	      0.00130013	      0.00721147	      0.01716758
