SUBJ89_3_JMP_06_shoulder_elbow_joint_personalization_task_1_initialErrors.sto
version=1
nRows=148
nColumns=26
inDegrees=no
endheader
time	R_Asis	L_Asis	Sacral	R_Thigh_Lateral	R_Knee_Lateral	R_Shank_Lateral	R_Ankle_Lateral	R_Heel	R_Toe	L_Thigh_Lateral	L_Knee_Lateral	L_Shank_Lateral	L_Ankle_Lateral	L_Heel	L_Toe	R_Shoulder	L_Shoulder	C7	J_Notch	Thoracic	Sternum	R_Elbow	L_Elbow	R_Wrist	L_Wrist
0.00000000	0.00231034	0.00373830	0.00271997	0.00415593	0.00178076	0.00159319	0.00497794	0.00195164	0.00394853	0.00692238	0.00281855	0.00380891	0.00324883	0.00150460	0.00246177	0.00239817	0.00183356	0.00224233	0.00295146	0.00159695	0.00300317	0.00191830	0.00423491	0.00185580	0.00642583
0.01000000	0.00182798	0.00340987	0.00266124	0.00294731	0.00221886	0.00212912	0.00425522	0.00185884	0.00296901	0.00585692	0.00248415	0.00255800	0.00264610	0.00225684	0.00305586	0.00230999	0.00192376	0.00220915	0.00263163	0.00165280	0.00277854	0.00178850	0.00418576	0.00178596	0.00644002
0.02000000	0.00171951	0.00302490	0.00263014	0.00241432	0.00224151	0.00246020	0.00329522	0.00160995	0.00167928	0.00470915	0.00240056	0.00144559	0.00218372	0.00286099	0.00351914	0.00228701	0.00200636	0.00211591	0.00244893	0.00163557	0.00259862	0.00163016	0.00411905	0.00178506	0.00646000
0.03000000	0.00138866	0.00261030	0.00249639	0.00175652	0.00231457	0.00320963	0.00228915	0.00207866	0.00073186	0.00378820	0.00259785	0.00153597	0.00177753	0.00335353	0.00355017	0.00217639	0.00196270	0.00207406	0.00226354	0.00178457	0.00240313	0.00146067	0.00417761	0.00187202	0.00647726
0.04000000	0.00120486	0.00211418	0.00240677	0.00143272	0.00224399	0.00376826	0.00144413	0.00257870	0.00104247	0.00352503	0.00294419	0.00276654	0.00152193	0.00360112	0.00320598	0.00201170	0.00186182	0.00206519	0.00215013	0.00194180	0.00230486	0.00137007	0.00421459	0.00194529	0.00653130
0.05000000	0.00108954	0.00190437	0.00234500	0.00154334	0.00202333	0.00399189	0.00114182	0.00280911	0.00194938	0.00418431	0.00331930	0.00415791	0.00127378	0.00367221	0.00251680	0.00182005	0.00174958	0.00204116	0.00206620	0.00205959	0.00223545	0.00123577	0.00421938	0.00210452	0.00659167
0.06000000	0.00097642	0.00162031	0.00234017	0.00167213	0.00181874	0.00433211	0.00124658	0.00320558	0.00264800	0.00531420	0.00368993	0.00541880	0.00103676	0.00360072	0.00174470	0.00164020	0.00154033	0.00201353	0.00191018	0.00227327	0.00212289	0.00117722	0.00441528	0.00230813	0.00661313
0.07000000	0.00084238	0.00159388	0.00235745	0.00194378	0.00166602	0.00451121	0.00154360	0.00341426	0.00318609	0.00661965	0.00395297	0.00652215	0.00086070	0.00349334	0.00149303	0.00142889	0.00136362	0.00199152	0.00180129	0.00243960	0.00210574	0.00118716	0.00450598	0.00252387	0.00668117
0.08000000	0.00048295	0.00146771	0.00211224	0.00246347	0.00158428	0.00472252	0.00170320	0.00337574	0.00364494	0.00808451	0.00425056	0.00719090	0.00103410	0.00349651	0.00227269	0.00127810	0.00105410	0.00197579	0.00158846	0.00267440	0.00200338	0.00119810	0.00476773	0.00280546	0.00676856
0.09000000	0.00046135	0.00153275	0.00229813	0.00258925	0.00140188	0.00497209	0.00188815	0.00359153	0.00358099	0.00907973	0.00421058	0.00794818	0.00134229	0.00338336	0.00276256	0.00126195	0.00099132	0.00199548	0.00158535	0.00283501	0.00214709	0.00132941	0.00487906	0.00292465	0.00674263
0.10000000	0.00053887	0.00160626	0.00235922	0.00304160	0.00136910	0.00505518	0.00185246	0.00358005	0.00355291	0.00973950	0.00410026	0.00858644	0.00182903	0.00350508	0.00360067	0.00124213	0.00086071	0.00199728	0.00154078	0.00291259	0.00223852	0.00139797	0.00488584	0.00312211	0.00683400
0.11000000	0.00074445	0.00184892	0.00255140	0.00332487	0.00124183	0.00521729	0.00177479	0.00368581	0.00337971	0.01021550	0.00378912	0.00908461	0.00234247	0.00368521	0.00417422	0.00135900	0.00077648	0.00198467	0.00156505	0.00291107	0.00239972	0.00143275	0.00486699	0.00326074	0.00688804
0.12000000	0.00063586	0.00184360	0.00253873	0.00377214	0.00116116	0.00547010	0.00168136	0.00366911	0.00322266	0.01053027	0.00355266	0.00932926	0.00280148	0.00393375	0.00464783	0.00150753	0.00063892	0.00198645	0.00157134	0.00292594	0.00254053	0.00153562	0.00491279	0.00340039	0.00693504
0.13000000	0.00047538	0.00163993	0.00245319	0.00415495	0.00102613	0.00580610	0.00159110	0.00371683	0.00296989	0.01048633	0.00332196	0.00954372	0.00312428	0.00412495	0.00494400	0.00166640	0.00063955	0.00200597	0.00154635	0.00290555	0.00259114	0.00162033	0.00490666	0.00355621	0.00697564
0.14000000	0.00061404	0.00173884	0.00263089	0.00436969	0.00092439	0.00609129	0.00147173	0.00367899	0.00289054	0.01041458	0.00303626	0.00950781	0.00331459	0.00432417	0.00493507	0.00169457	0.00050872	0.00201480	0.00153454	0.00276118	0.00268479	0.00174172	0.00494019	0.00378399	0.00698262
0.15000000	0.00056101	0.00165561	0.00260190	0.00447488	0.00072589	0.00640248	0.00140972	0.00379320	0.00267434	0.01002103	0.00287403	0.00945662	0.00335177	0.00438972	0.00457306	0.00180432	0.00056964	0.00197070	0.00155212	0.00263889	0.00275098	0.00187254	0.00487451	0.00398058	0.00699387
0.16000000	0.00089899	0.00161719	0.00270754	0.00452119	0.00071834	0.00650554	0.00134032	0.00373895	0.00263279	0.00976316	0.00281263	0.00910871	0.00326464	0.00439114	0.00421297	0.00178291	0.00058333	0.00193785	0.00149183	0.00238594	0.00274420	0.00198496	0.00485683	0.00424066	0.00704846
0.17000000	0.00110122	0.00167518	0.00269275	0.00429410	0.00067872	0.00663078	0.00134847	0.00379375	0.00258548	0.00920188	0.00287102	0.00884151	0.00308943	0.00438149	0.00350081	0.00175565	0.00075442	0.00186752	0.00149144	0.00220392	0.00275756	0.00215383	0.00479200	0.00452728	0.00700770
0.18000000	0.00144975	0.00174593	0.00267601	0.00407053	0.00081266	0.00655826	0.00132832	0.00369556	0.00266707	0.00869849	0.00306703	0.00846230	0.00289836	0.00434930	0.00306089	0.00168754	0.00094061	0.00177621	0.00146755	0.00198075	0.00275026	0.00225840	0.00479881	0.00485685	0.00695355
0.19000000	0.00161654	0.00186480	0.00259925	0.00386370	0.00097838	0.00635700	0.00140742	0.00362087	0.00267993	0.00843825	0.00328824	0.00796030	0.00262333	0.00423355	0.00271520	0.00147278	0.00118658	0.00170728	0.00138809	0.00176601	0.00266377	0.00246480	0.00473995	0.00523478	0.00691611
0.20000000	0.00199319	0.00211320	0.00265369	0.00326527	0.00108025	0.00619561	0.00154590	0.00364346	0.00268972	0.00835275	0.00360611	0.00753178	0.00239090	0.00412888	0.00214502	0.00129058	0.00139233	0.00160614	0.00139488	0.00169793	0.00264269	0.00271380	0.00460183	0.00561414	0.00680356
0.21000000	0.00225008	0.00246346	0.00268249	0.00288189	0.00138709	0.00592866	0.00163327	0.00351763	0.00278243	0.00823650	0.00392139	0.00725852	0.00220853	0.00412003	0.00201303	0.00107779	0.00160426	0.00161551	0.00138400	0.00160607	0.00264124	0.00299970	0.00453527	0.00596333	0.00664671
0.22000000	0.00162495	0.00265265	0.00228339	0.00315348	0.00102614	0.00531124	0.00194256	0.00329572	0.00277621	0.00838490	0.00419769	0.00695340	0.00209178	0.00398863	0.00179254	0.00065281	0.00182125	0.00145835	0.00120004	0.00148021	0.00239111	0.00320022	0.00437558	0.00647255	0.00663464
0.23000000	0.00177865	0.00301331	0.00249716	0.00253679	0.00170834	0.00526268	0.00208898	0.00340166	0.00266635	0.00912044	0.00438833	0.00675428	0.00204704	0.00375174	0.00161789	0.00039327	0.00196082	0.00151465	0.00120586	0.00153375	0.00238191	0.00325224	0.00413813	0.00701355	0.00645380
0.24000000	0.00171637	0.00299964	0.00199329	0.00245346	0.00165862	0.00497408	0.00212364	0.00310711	0.00281531	0.00896731	0.00466971	0.00713166	0.00200925	0.00409348	0.00184119	0.00028831	0.00205561	0.00141118	0.00108436	0.00142636	0.00224593	0.00376851	0.00407489	0.00724484	0.00635311
0.25000000	0.00180554	0.00311130	0.00206297	0.00232919	0.00191555	0.00470743	0.00221449	0.00297078	0.00287214	0.00946441	0.00477088	0.00737738	0.00198859	0.00420951	0.00200794	0.00043107	0.00205179	0.00140035	0.00109844	0.00145462	0.00224204	0.00408021	0.00393803	0.00755594	0.00611308
0.26000000	0.00179361	0.00320338	0.00211426	0.00231598	0.00213326	0.00454714	0.00229192	0.00285697	0.00285312	0.00985030	0.00481265	0.00768449	0.00195962	0.00429043	0.00227531	0.00073894	0.00192296	0.00140000	0.00113767	0.00142318	0.00230453	0.00443144	0.00376094	0.00781010	0.00591002
0.27000000	0.00142651	0.00317256	0.00169930	0.00237427	0.00219031	0.00450234	0.00234029	0.00271961	0.00282355	0.01001086	0.00477628	0.00785061	0.00193223	0.00420840	0.00192741	0.00118570	0.00181357	0.00137009	0.00107622	0.00134142	0.00224809	0.00464273	0.00365954	0.00818182	0.00572033
0.28000000	0.00149320	0.00291756	0.00194111	0.00266334	0.00254568	0.00422461	0.00239086	0.00261212	0.00277962	0.01022575	0.00470679	0.00786727	0.00184096	0.00398454	0.00204315	0.00136082	0.00160784	0.00134610	0.00121193	0.00131910	0.00246027	0.00485434	0.00370168	0.00839877	0.00536849
0.29000000	0.00120818	0.00291558	0.00145252	0.00277084	0.00249438	0.00420588	0.00237798	0.00248436	0.00270797	0.00966503	0.00443424	0.00753670	0.00168467	0.00371732	0.00151815	0.00180972	0.00147375	0.00136643	0.00120938	0.00115892	0.00254178	0.00505040	0.00365090	0.00870980	0.00513850
0.30000000	0.00121245	0.00245763	0.00162418	0.00310071	0.00277026	0.00387933	0.00235457	0.00229965	0.00277257	0.00913772	0.00403080	0.00687282	0.00142718	0.00339964	0.00127424	0.00202219	0.00118189	0.00134490	0.00137483	0.00103573	0.00288500	0.00538608	0.00350640	0.00885462	0.00489228
0.31000000	0.00119520	0.00228496	0.00148177	0.00331355	0.00277540	0.00388670	0.00235233	0.00223948	0.00263024	0.00812560	0.00367164	0.00576796	0.00137497	0.00278858	0.00081778	0.00239121	0.00108018	0.00140356	0.00146384	0.00090627	0.00308565	0.00548574	0.00358770	0.00912998	0.00452040
0.32000000	0.00126406	0.00193619	0.00155321	0.00362447	0.00292466	0.00368558	0.00234193	0.00210892	0.00264307	0.00735812	0.00313312	0.00424916	0.00138104	0.00215980	0.00052321	0.00266859	0.00096614	0.00141539	0.00161112	0.00076231	0.00340816	0.00574796	0.00353477	0.00930721	0.00419568
0.33000000	0.00137200	0.00166730	0.00165454	0.00393831	0.00306468	0.00352641	0.00234486	0.00202067	0.00262312	0.00706044	0.00265198	0.00262670	0.00166872	0.00170454	0.00073524	0.00292624	0.00093437	0.00143075	0.00176284	0.00065159	0.00373371	0.00597548	0.00342746	0.00950239	0.00389129
0.34000000	0.00148494	0.00162443	0.00176173	0.00427638	0.00316638	0.00336332	0.00234834	0.00192789	0.00264549	0.00762963	0.00234031	0.00185449	0.00221153	0.00187536	0.00120250	0.00318077	0.00101472	0.00145616	0.00189426	0.00068329	0.00402185	0.00620211	0.00332410	0.00969923	0.00355710
0.35000000	0.00159296	0.00201286	0.00196667	0.00462316	0.00334007	0.00321569	0.00238819	0.00186052	0.00264902	0.00899888	0.00228976	0.00310506	0.00284070	0.00251957	0.00171627	0.00336041	0.00100517	0.00148202	0.00206056	0.00082328	0.00436637	0.00638659	0.00311458	0.00989087	0.00328160
0.36000000	0.00170313	0.00226380	0.00203255	0.00491202	0.00335304	0.00309242	0.00245437	0.00180618	0.00270203	0.01062192	0.00240675	0.00504892	0.00356983	0.00355225	0.00213931	0.00353524	0.00119765	0.00150332	0.00212165	0.00109706	0.00452686	0.00662872	0.00292002	0.01003761	0.00298337
0.37000000	0.00171272	0.00256239	0.00208141	0.00518890	0.00327788	0.00298647	0.00250768	0.00178758	0.00272308	0.01200775	0.00248317	0.00692073	0.00423269	0.00453395	0.00255171	0.00361776	0.00129818	0.00150285	0.00222654	0.00137290	0.00472909	0.00679565	0.00273277	0.01018465	0.00265447
0.38000000	0.00176541	0.00319513	0.00238439	0.00555347	0.00318749	0.00287937	0.00257454	0.00178109	0.00275474	0.01321481	0.00274657	0.00812352	0.00465124	0.00506267	0.00264063	0.00344524	0.00133042	0.00155426	0.00234346	0.00155083	0.00489035	0.00674333	0.00267201	0.01028056	0.00224482
0.39000000	0.00152178	0.00291286	0.00216880	0.00562893	0.00317425	0.00275281	0.00267945	0.00179092	0.00272128	0.01357785	0.00255126	0.00916721	0.00496589	0.00550458	0.00298674	0.00342083	0.00148732	0.00141854	0.00235641	0.00172498	0.00495981	0.00690998	0.00236620	0.01034378	0.00195533
0.40000000	0.00143721	0.00304637	0.00235526	0.00588955	0.00291538	0.00271262	0.00278693	0.00177521	0.00268266	0.01354768	0.00251651	0.00940567	0.00496602	0.00540891	0.00316630	0.00317256	0.00168741	0.00138953	0.00234157	0.00180136	0.00486204	0.00685009	0.00236030	0.01034191	0.00155351
0.41000000	0.00113047	0.00273901	0.00228712	0.00589615	0.00282145	0.00270169	0.00284334	0.00171281	0.00249503	0.01297134	0.00227702	0.00924012	0.00479514	0.00511194	0.00315999	0.00286100	0.00155251	0.00127045	0.00242695	0.00174091	0.00500074	0.00673322	0.00218843	0.01037386	0.00123325
0.42000000	0.00085540	0.00251520	0.00248418	0.00600360	0.00244557	0.00266645	0.00295287	0.00161968	0.00228893	0.01196063	0.00202814	0.00871230	0.00442520	0.00476829	0.00318439	0.00251987	0.00184008	0.00122734	0.00240554	0.00171810	0.00483419	0.00683467	0.00244925	0.01012938	0.00107198
0.43000000	0.00068195	0.00157681	0.00249384	0.00595727	0.00249425	0.00265937	0.00279150	0.00150327	0.00176948	0.01074448	0.00194623	0.00795284	0.00409942	0.00400516	0.00323425	0.00208533	0.00197621	0.00117118	0.00245382	0.00154229	0.00490458	0.00655737	0.00195513	0.01005119	0.00028565
0.44000000	0.00064813	0.00130597	0.00271450	0.00575256	0.00222205	0.00270309	0.00288581	0.00112987	0.00119974	0.00919087	0.00166946	0.00732814	0.00397195	0.00348901	0.00326792	0.00183476	0.00208026	0.00112607	0.00238718	0.00143793	0.00472698	0.00634969	0.00195978	0.00997638	0.00051486
0.45000000	0.00112201	0.00119320	0.00304684	0.00569511	0.00220834	0.00233012	0.00263867	0.00098310	0.00076743	0.00790555	0.00169697	0.00639109	0.00347728	0.00288628	0.00312431	0.00153771	0.00229725	0.00120989	0.00239404	0.00121221	0.00464669	0.00626076	0.00191926	0.00963598	0.00068381
0.46000000	0.00106641	0.00139896	0.00328990	0.00534605	0.00165896	0.00226229	0.00265570	0.00099738	0.00110897	0.00630161	0.00195869	0.00611044	0.00342785	0.00277731	0.00294995	0.00147383	0.00223180	0.00117640	0.00229726	0.00111014	0.00440314	0.00609688	0.00181957	0.00948765	0.00102584
0.47000000	0.00130894	0.00163532	0.00357909	0.00508703	0.00129649	0.00190776	0.00251805	0.00163863	0.00195509	0.00481007	0.00246785	0.00606774	0.00321858	0.00279885	0.00260723	0.00152088	0.00216614	0.00118960	0.00222520	0.00091083	0.00418545	0.00578976	0.00182765	0.00929359	0.00141362
0.48000000	0.00113749	0.00195205	0.00363716	0.00462344	0.00126388	0.00187281	0.00258382	0.00242549	0.00304980	0.00375247	0.00322220	0.00616069	0.00293016	0.00295490	0.00213619	0.00160985	0.00212261	0.00117597	0.00206516	0.00081515	0.00392307	0.00563979	0.00188535	0.00911840	0.00162178
0.49000000	0.00181847	0.00209009	0.00385678	0.00456669	0.00104734	0.00236480	0.00232164	0.00361861	0.00371416	0.00367854	0.00297798	0.00584044	0.00230535	0.00280434	0.00118253	0.00208436	0.00221988	0.00143505	0.00206475	0.00071913	0.00373051	0.00543783	0.00161516	0.00874244	0.00178046
0.50000000	0.00189154	0.00235937	0.00384353	0.00464569	0.00094548	0.00339237	0.00243430	0.00428731	0.00443284	0.00357292	0.00330203	0.00612277	0.00193207	0.00310770	0.00072551	0.00224460	0.00203817	0.00147528	0.00190095	0.00077242	0.00346619	0.00526676	0.00146289	0.00855968	0.00180579
0.51000000	0.00187592	0.00254624	0.00383906	0.00520271	0.00096546	0.00465959	0.00252339	0.00484672	0.00472269	0.00397766	0.00341232	0.00614792	0.00179844	0.00328752	0.00088548	0.00239703	0.00182771	0.00157552	0.00176308	0.00090773	0.00329152	0.00510351	0.00126764	0.00836485	0.00173553
0.52000000	0.00218694	0.00281997	0.00376511	0.00614422	0.00109977	0.00579861	0.00256777	0.00511245	0.00470902	0.00425405	0.00357313	0.00643426	0.00166090	0.00360970	0.00161967	0.00241277	0.00155391	0.00157862	0.00154279	0.00103860	0.00309670	0.00497523	0.00107948	0.00823803	0.00160346
0.53000000	0.00255279	0.00285718	0.00369093	0.00724375	0.00118497	0.00694505	0.00252649	0.00520343	0.00436375	0.00468053	0.00363558	0.00644254	0.00179818	0.00377220	0.00223791	0.00242864	0.00129446	0.00166768	0.00139802	0.00125234	0.00301075	0.00477868	0.00088653	0.00813883	0.00139820
0.54000000	0.00285397	0.00300976	0.00365483	0.00844079	0.00135423	0.00775591	0.00248800	0.00511434	0.00399470	0.00506797	0.00355487	0.00642587	0.00198614	0.00384884	0.00271724	0.00240912	0.00110781	0.00171622	0.00121798	0.00142810	0.00295874	0.00465620	0.00070899	0.00802384	0.00116288
0.55000000	0.00284505	0.00333089	0.00351313	0.00978121	0.00174929	0.00805491	0.00258098	0.00496536	0.00394539	0.00552997	0.00348315	0.00636187	0.00224929	0.00388326	0.00310423	0.00229988	0.00097070	0.00173652	0.00102865	0.00153404	0.00294240	0.00456767	0.00049991	0.00794359	0.00085021
0.56000000	0.00354557	0.00333891	0.00369242	0.01050776	0.00162921	0.00860102	0.00264605	0.00487014	0.00418223	0.00574122	0.00330045	0.00621155	0.00223202	0.00390551	0.00320279	0.00234046	0.00098091	0.00176293	0.00088102	0.00170034	0.00285689	0.00439533	0.00047834	0.00780588	0.00069002
0.57000000	0.00246348	0.00364811	0.00312334	0.01097891	0.00256473	0.00873714	0.00307799	0.00532325	0.00618730	0.00617021	0.00355469	0.00608362	0.00233107	0.00414440	0.00292851	0.00195729	0.00093434	0.00184748	0.00079901	0.00184525	0.00313858	0.00451791	0.00035369	0.00780788	0.00039469
0.58000000	0.00411101	0.00346600	0.00378720	0.01177136	0.00187626	0.00885608	0.00334566	0.00499433	0.00544787	0.00627940	0.00316372	0.00584259	0.00220887	0.00377865	0.00324380	0.00225592	0.00111393	0.00163290	0.00069385	0.00179123	0.00272339	0.00414065	0.00046085	0.00750975	0.00036264
0.59000000	0.00395804	0.00378365	0.00368402	0.01201931	0.00224555	0.00893776	0.00369312	0.00509482	0.00598957	0.00647235	0.00303622	0.00571755	0.00221282	0.00372018	0.00316047	0.00216933	0.00116248	0.00152996	0.00064040	0.00181251	0.00264000	0.00399626	0.00057864	0.00736463	0.00026387
0.60000000	0.00409595	0.00389510	0.00369743	0.01210362	0.00243825	0.00910419	0.00396435	0.00518307	0.00630775	0.00651931	0.00297595	0.00564147	0.00203289	0.00361331	0.00309463	0.00211165	0.00115572	0.00140738	0.00060002	0.00183749	0.00252158	0.00384139	0.00070181	0.00720174	0.00026137
0.61000000	0.00369330	0.00403112	0.00347320	0.01189852	0.00277994	0.00937777	0.00411199	0.00521762	0.00652872	0.00653201	0.00294665	0.00559449	0.00196280	0.00361629	0.00289712	0.00202433	0.00119616	0.00127409	0.00056817	0.00190393	0.00240067	0.00376239	0.00108805	0.00700017	0.00032256
0.62000000	0.00332615	0.00410987	0.00286682	0.01148610	0.00284411	0.00980888	0.00423531	0.00536548	0.00640537	0.00655302	0.00292712	0.00560054	0.00175764	0.00358786	0.00277571	0.00169634	0.00116958	0.00119533	0.00057673	0.00210527	0.00246580	0.00365411	0.00160112	0.00703463	0.00064023
0.63000000	0.00352630	0.00367124	0.00341441	0.01144929	0.00316557	0.00987234	0.00411377	0.00531966	0.00598907	0.00645913	0.00287957	0.00555630	0.00174784	0.00347342	0.00271279	0.00186585	0.00119012	0.00091160	0.00046319	0.00196826	0.00210314	0.00353199	0.00105092	0.00669147	0.00020840
0.64000000	0.00341962	0.00341970	0.00317906	0.01102534	0.00316447	0.01014968	0.00391896	0.00537573	0.00552843	0.00635108	0.00277198	0.00565557	0.00171354	0.00346171	0.00261011	0.00182167	0.00117769	0.00079272	0.00041900	0.00212843	0.00190891	0.00344817	0.00132405	0.00653453	0.00047767
0.65000000	0.00320182	0.00308949	0.00306488	0.01070967	0.00325772	0.01013416	0.00367035	0.00546155	0.00506172	0.00636403	0.00266545	0.00565177	0.00172511	0.00340770	0.00255440	0.00174126	0.00108197	0.00066398	0.00041221	0.00219903	0.00182573	0.00336982	0.00114766	0.00645625	0.00057764
0.66000000	0.00325113	0.00270649	0.00293251	0.01038370	0.00314404	0.01003865	0.00332348	0.00557152	0.00458988	0.00637027	0.00260288	0.00573412	0.00178929	0.00342956	0.00246055	0.00166554	0.00102072	0.00052115	0.00035692	0.00227311	0.00162346	0.00329574	0.00116948	0.00639340	0.00077373
0.67000000	0.00332997	0.00229457	0.00279685	0.01017495	0.00309198	0.00974359	0.00294680	0.00562302	0.00416105	0.00646190	0.00252641	0.00585816	0.00187300	0.00342727	0.00242485	0.00164895	0.00092884	0.00043301	0.00033933	0.00233625	0.00142642	0.00326825	0.00113334	0.00633601	0.00107565
0.68000000	0.00353661	0.00157758	0.00280054	0.01001984	0.00282033	0.00940887	0.00264689	0.00581063	0.00387821	0.00655582	0.00266137	0.00600653	0.00198007	0.00348732	0.00241814	0.00164489	0.00074119	0.00049836	0.00028879	0.00249878	0.00114704	0.00323619	0.00124795	0.00625103	0.00149129
0.69000000	0.00351111	0.00126728	0.00261220	0.00988831	0.00284068	0.00890102	0.00224736	0.00584257	0.00372051	0.00681557	0.00261844	0.00622973	0.00212603	0.00350011	0.00239005	0.00166456	0.00074851	0.00043646	0.00024442	0.00251740	0.00108170	0.00317147	0.00108365	0.00633977	0.00175648
0.70000000	0.00409391	0.00084520	0.00300781	0.01007129	0.00269572	0.00832519	0.00191356	0.00577353	0.00351677	0.00697819	0.00270597	0.00667424	0.00251389	0.00387231	0.00217323	0.00163613	0.00084726	0.00060528	0.00036125	0.00258730	0.00082583	0.00318268	0.00144476	0.00618725	0.00236824
0.71000000	0.00419325	0.00016873	0.00325879	0.00997097	0.00263173	0.00803736	0.00184233	0.00612421	0.00362069	0.00722137	0.00286690	0.00674748	0.00248032	0.00379963	0.00218123	0.00160695	0.00089139	0.00066278	0.00039297	0.00271813	0.00104742	0.00316748	0.00184679	0.00614552	0.00265885
0.72000000	0.00399821	0.00011266	0.00297999	0.00978305	0.00290273	0.00772654	0.00141286	0.00607443	0.00362263	0.00743464	0.00313428	0.00699611	0.00270845	0.00381658	0.00222263	0.00180248	0.00164628	0.00053815	0.00033435	0.00246996	0.00132072	0.00313494	0.00148369	0.00623242	0.00288158
0.73000000	0.00423708	0.00041189	0.00334909	0.01004773	0.00292769	0.00746148	0.00129868	0.00610811	0.00359674	0.00776445	0.00327339	0.00719135	0.00282879	0.00387906	0.00207989	0.00179866	0.00188452	0.00066600	0.00047660	0.00245413	0.00149344	0.00322939	0.00174222	0.00606159	0.00314132
0.74000000	0.00410012	0.00039107	0.00321880	0.01014928	0.00318871	0.00733034	0.00104424	0.00604263	0.00361178	0.00803034	0.00342969	0.00737011	0.00296989	0.00380086	0.00209791	0.00187716	0.00225175	0.00062470	0.00051668	0.00237815	0.00180501	0.00309903	0.00185242	0.00610404	0.00346051
0.75000000	0.00399953	0.00025925	0.00307721	0.01031263	0.00350502	0.00719517	0.00086425	0.00585778	0.00350420	0.00823187	0.00355052	0.00754903	0.00312747	0.00377269	0.00192388	0.00197399	0.00263195	0.00064799	0.00056212	0.00221482	0.00200838	0.00307565	0.00202877	0.00605724	0.00374150
0.76000000	0.00399791	0.00021775	0.00315400	0.01032540	0.00367240	0.00724688	0.00082397	0.00575700	0.00346207	0.00842397	0.00361232	0.00764280	0.00324069	0.00370208	0.00175843	0.00197160	0.00295574	0.00067958	0.00059208	0.00205532	0.00218557	0.00306088	0.00217673	0.00586949	0.00401148
0.77000000	0.00379164	0.00025663	0.00327385	0.01036477	0.00384804	0.00734224	0.00094668	0.00566632	0.00346247	0.00865875	0.00393240	0.00754577	0.00326976	0.00343669	0.00184725	0.00175140	0.00282392	0.00076542	0.00080195	0.00206582	0.00248234	0.00292425	0.00228931	0.00571350	0.00412618
0.78000000	0.00356614	0.00017276	0.00303019	0.01021839	0.00411082	0.00705706	0.00128127	0.00531790	0.00353512	0.00875884	0.00391608	0.00757009	0.00336439	0.00329278	0.00171037	0.00180198	0.00299357	0.00080335	0.00079741	0.00185949	0.00256388	0.00291403	0.00239040	0.00553184	0.00432163
0.79000000	0.00319054	0.00033910	0.00311290	0.01001652	0.00426430	0.00688185	0.00187780	0.00498286	0.00356889	0.00894187	0.00386966	0.00762533	0.00354490	0.00320575	0.00154915	0.00145511	0.00265850	0.00086450	0.00103828	0.00188036	0.00289921	0.00319553	0.00235826	0.00509492	0.00457724
0.80000000	0.00277344	0.00053771	0.00270207	0.00933377	0.00436491	0.00617420	0.00232924	0.00472241	0.00389013	0.00902661	0.00419443	0.00723689	0.00345401	0.00285949	0.00162307	0.00163430	0.00271690	0.00094496	0.00099145	0.00166581	0.00282630	0.00274316	0.00258501	0.00508555	0.00450154
0.81000000	0.00236993	0.00076717	0.00249416	0.00864056	0.00427105	0.00525687	0.00295427	0.00434923	0.00418695	0.00916878	0.00431425	0.00700577	0.00350987	0.00263616	0.00158706	0.00161866	0.00249063	0.00101812	0.00109006	0.00154022	0.00294812	0.00276372	0.00264539	0.00479671	0.00459368
0.82000000	0.00194296	0.00104244	0.00229678	0.00789416	0.00401485	0.00415839	0.00350951	0.00392172	0.00449799	0.00934575	0.00441228	0.00675154	0.00356163	0.00243644	0.00155793	0.00168090	0.00224068	0.00108587	0.00119023	0.00140479	0.00307799	0.00275569	0.00273435	0.00451102	0.00467438
0.83000000	0.00124742	0.00121797	0.00228486	0.00742218	0.00352985	0.00320053	0.00397691	0.00355009	0.00472523	0.00968053	0.00471841	0.00633354	0.00361162	0.00218694	0.00164700	0.00169236	0.00183037	0.00121739	0.00142153	0.00138901	0.00329022	0.00287091	0.00285407	0.00410735	0.00467243
0.84000000	0.00128979	0.00151847	0.00189260	0.00717297	0.00301107	0.00195868	0.00439558	0.00306440	0.00493294	0.00977856	0.00467218	0.00626931	0.00369822	0.00214583	0.00149817	0.00199786	0.00173592	0.00122508	0.00137116	0.00114529	0.00329515	0.00280168	0.00295534	0.00391514	0.00481500
0.85000000	0.00141492	0.00169384	0.00184049	0.00755677	0.00241709	0.00189877	0.00461633	0.00283969	0.00503119	0.01020127	0.00489644	0.00586164	0.00376467	0.00190992	0.00168114	0.00220488	0.00134151	0.00128129	0.00153905	0.00110343	0.00347340	0.00291212	0.00307481	0.00356683	0.00484347
0.86000000	0.00143516	0.00181032	0.00151778	0.00801032	0.00179462	0.00258281	0.00503058	0.00253388	0.00518914	0.01025104	0.00489115	0.00595072	0.00394872	0.00202491	0.00139045	0.00234139	0.00125537	0.00136861	0.00154287	0.00097363	0.00351188	0.00285701	0.00317800	0.00336521	0.00496491
0.87000000	0.00210040	0.00183139	0.00155925	0.00860515	0.00138357	0.00343789	0.00545380	0.00206713	0.00537063	0.01055611	0.00490295	0.00592126	0.00407904	0.00209781	0.00125492	0.00251488	0.00111162	0.00150494	0.00167485	0.00099788	0.00358036	0.00307163	0.00325073	0.00296141	0.00501236
0.88000000	0.00234979	0.00217773	0.00138093	0.00902016	0.00096154	0.00405544	0.00543067	0.00274013	0.00524747	0.01062594	0.00500917	0.00580953	0.00425371	0.00200139	0.00130381	0.00277108	0.00096805	0.00141504	0.00171511	0.00100479	0.00373081	0.00300278	0.00332487	0.00274969	0.00513644
0.89000000	0.00219262	0.00228921	0.00108953	0.00899241	0.00081564	0.00447266	0.00576366	0.00284495	0.00538982	0.01062935	0.00504249	0.00597130	0.00434465	0.00208883	0.00117684	0.00287090	0.00099079	0.00147443	0.00172390	0.00105091	0.00372056	0.00297554	0.00343019	0.00253980	0.00519245
0.90000000	0.00256734	0.00251248	0.00114567	0.00872971	0.00074425	0.00446465	0.00589744	0.00283407	0.00549075	0.01060078	0.00497235	0.00610695	0.00454313	0.00212156	0.00100047	0.00297411	0.00109090	0.00149197	0.00180297	0.00114203	0.00376094	0.00299806	0.00340222	0.00229131	0.00527889
0.91000000	0.00276786	0.00285616	0.00124770	0.00814489	0.00074592	0.00418234	0.00603237	0.00280686	0.00562733	0.01046910	0.00491363	0.00620584	0.00466090	0.00208159	0.00082615	0.00309540	0.00126000	0.00147052	0.00183251	0.00119054	0.00379309	0.00304554	0.00345199	0.00203350	0.00533717
0.92000000	0.00277068	0.00317391	0.00147444	0.00727564	0.00092203	0.00374816	0.00614623	0.00288407	0.00575893	0.01023617	0.00480193	0.00623545	0.00473976	0.00195705	0.00061880	0.00319620	0.00154036	0.00148326	0.00185473	0.00121909	0.00377515	0.00304348	0.00347560	0.00183737	0.00537663
0.93000000	0.00261388	0.00348887	0.00178893	0.00624467	0.00125261	0.00318065	0.00620082	0.00293393	0.00584459	0.00993101	0.00454040	0.00617268	0.00472423	0.00168936	0.00043519	0.00323826	0.00189139	0.00152381	0.00186062	0.00127501	0.00371706	0.00300050	0.00353231	0.00167401	0.00537189
0.94000000	0.00251297	0.00377674	0.00199489	0.00512150	0.00174633	0.00251938	0.00611390	0.00301874	0.00575774	0.00939713	0.00432454	0.00588471	0.00468747	0.00130940	0.00080796	0.00331420	0.00214713	0.00151935	0.00180503	0.00127845	0.00368635	0.00297038	0.00354023	0.00152858	0.00544392
0.95000000	0.00214759	0.00414686	0.00227134	0.00405580	0.00205273	0.00185904	0.00581216	0.00286744	0.00544933	0.00895107	0.00401604	0.00507227	0.00436127	0.00075005	0.00132511	0.00337159	0.00251479	0.00156489	0.00187002	0.00125910	0.00369882	0.00295450	0.00352930	0.00134780	0.00544315
0.96000000	0.00196654	0.00390115	0.00232866	0.00291468	0.00272997	0.00143618	0.00544979	0.00276105	0.00491312	0.00780990	0.00394538	0.00450544	0.00434112	0.00083920	0.00218734	0.00343128	0.00256344	0.00153436	0.00167807	0.00125298	0.00364060	0.00289027	0.00355269	0.00127287	0.00560656
0.97000000	0.00171415	0.00368844	0.00247378	0.00197132	0.00323471	0.00132343	0.00485747	0.00259432	0.00422986	0.00674818	0.00373180	0.00350944	0.00406174	0.00156368	0.00306935	0.00346141	0.00259318	0.00149808	0.00152698	0.00126101	0.00360950	0.00281271	0.00361579	0.00129767	0.00577763
0.98000000	0.00134733	0.00341021	0.00267034	0.00126095	0.00348954	0.00183403	0.00418812	0.00217709	0.00338074	0.00574939	0.00307927	0.00239373	0.00387119	0.00240041	0.00339322	0.00337362	0.00267499	0.00152411	0.00146695	0.00130538	0.00355695	0.00269218	0.00377871	0.00119178	0.00582232
0.99000000	0.00084181	0.00327899	0.00299440	0.00082067	0.00337620	0.00227327	0.00324361	0.00223161	0.00240779	0.00504355	0.00246326	0.00086398	0.00335997	0.00297568	0.00370620	0.00329556	0.00292902	0.00156737	0.00150885	0.00119939	0.00344680	0.00254349	0.00378945	0.00118898	0.00581705
1.00000000	0.00102082	0.00298800	0.00327882	0.00072547	0.00243778	0.00172867	0.00216003	0.00142982	0.00079739	0.00391993	0.00264830	0.00139916	0.00276021	0.00349495	0.00370986	0.00341079	0.00309395	0.00144193	0.00156468	0.00090382	0.00349371	0.00256371	0.00370495	0.00106492	0.00589462
1.01000000	0.00055388	0.00242930	0.00329571	0.00048003	0.00249140	0.00252213	0.00157354	0.00196282	0.00084488	0.00342903	0.00295326	0.00255538	0.00258419	0.00389311	0.00359140	0.00326499	0.00283967	0.00139598	0.00145188	0.00102708	0.00343317	0.00232623	0.00394337	0.00124438	0.00608670
1.02000000	0.00034211	0.00234093	0.00339505	0.00062977	0.00232475	0.00304140	0.00099396	0.00250875	0.00147405	0.00369051	0.00317276	0.00389242	0.00224734	0.00400823	0.00304778	0.00314102	0.00266341	0.00132725	0.00144897	0.00112684	0.00341235	0.00217662	0.00413740	0.00134437	0.00623550
1.03000000	0.00035925	0.00256427	0.00352060	0.00093751	0.00211209	0.00319522	0.00075597	0.00283128	0.00202381	0.00434810	0.00332934	0.00524473	0.00188163	0.00396919	0.00226386	0.00311407	0.00257182	0.00125898	0.00146115	0.00127614	0.00337474	0.00208131	0.00420684	0.00141346	0.00636522
1.04000000	0.00040944	0.00259302	0.00364700	0.00129259	0.00190552	0.00345319	0.00090155	0.00309556	0.00251074	0.00547120	0.00363632	0.00615045	0.00151009	0.00381487	0.00174585	0.00299011	0.00239644	0.00117948	0.00143908	0.00149483	0.00334057	0.00193222	0.00440698	0.00158092	0.00648755
1.05000000	0.00059685	0.00234989	0.00355201	0.00171639	0.00181322	0.00373808	0.00122598	0.00322940	0.00289349	0.00689376	0.00404031	0.00665015	0.00136036	0.00375847	0.00201233	0.00285560	0.00220017	0.00107853	0.00135830	0.00171668	0.00331522	0.00179275	0.00466747	0.00179232	0.00663969
1.06000000	0.00061536	0.00263328	0.00372443	0.00195117	0.00158073	0.00396903	0.00131620	0.00341096	0.00307562	0.00787669	0.00400255	0.00729446	0.00141709	0.00364488	0.00236134	0.00277093	0.00213396	0.00103838	0.00134245	0.00188256	0.00327074	0.00172709	0.00477650	0.00194023	0.00668546
1.07000000	0.00075357	0.00261704	0.00375224	0.00230694	0.00153368	0.00413953	0.00144424	0.00347836	0.00312610	0.00877213	0.00394509	0.00779886	0.00183397	0.00369718	0.00325633	0.00269170	0.00205086	0.00099528	0.00132230	0.00200044	0.00325773	0.00168338	0.00484421	0.00209942	0.00673895
1.08000000	0.00087090	0.00240925	0.00365694	0.00271262	0.00159794	0.00427428	0.00144970	0.00347578	0.00314632	0.00947093	0.00382089	0.00825420	0.00243303	0.00391203	0.00422974	0.00265945	0.00189885	0.00092407	0.00130862	0.00207867	0.00328032	0.00162485	0.00487157	0.00229522	0.00682227
1.09000000	0.00085375	0.00265624	0.00372300	0.00274598	0.00139304	0.00454441	0.00151505	0.00357965	0.00305932	0.01009048	0.00339586	0.00868580	0.00290673	0.00403981	0.00484142	0.00269808	0.00185717	0.00082078	0.00123811	0.00207297	0.00322605	0.00172111	0.00486381	0.00233918	0.00677354
1.10000000	0.00076838	0.00286180	0.00367315	0.00286351	0.00137456	0.00465286	0.00139572	0.00357416	0.00305796	0.01049761	0.00288088	0.00908572	0.00327354	0.00430308	0.00537834	0.00271842	0.00169111	0.00069999	0.00123071	0.00205003	0.00324652	0.00171663	0.00483390	0.00249743	0.00676486
1.11000000	0.00083859	0.00263622	0.00351762	0.00295254	0.00153554	0.00482192	0.00141030	0.00363301	0.00286324	0.01060491	0.00258010	0.00942802	0.00352664	0.00438035	0.00558117	0.00278852	0.00158639	0.00051537	0.00115084	0.00201711	0.00317842	0.00182930	0.00476256	0.00258304	0.00676021
1.12000000	0.00081132	0.00253459	0.00338244	0.00293590	0.00164548	0.00500064	0.00128439	0.00358059	0.00281799	0.01040483	0.00230348	0.00965556	0.00360000	0.00450403	0.00539757	0.00275650	0.00141305	0.00039061	0.00116684	0.00199566	0.00316385	0.00185942	0.00468453	0.00278879	0.00674590
1.13000000	0.00068278	0.00252487	0.00326646	0.00284897	0.00176916	0.00508401	0.00123028	0.00359885	0.00272073	0.01004103	0.00210381	0.00972448	0.00349626	0.00448998	0.00492667	0.00273830	0.00128011	0.00032666	0.00114637	0.00200220	0.00309555	0.00194101	0.00460240	0.00297759	0.00670399
1.14000000	0.00045651	0.00244286	0.00308982	0.00271361	0.00195142	0.00513595	0.00109724	0.00357724	0.00265173	0.00959625	0.00206611	0.00954860	0.00324523	0.00438640	0.00404051	0.00265805	0.00119088	0.00050518	0.00113797	0.00210909	0.00298873	0.00200224	0.00450544	0.00325674	0.00668602
1.15000000	0.00025467	0.00250957	0.00296754	0.00271914	0.00191702	0.00494198	0.00117359	0.00345862	0.00262525	0.00895775	0.00207275	0.00920464	0.00291220	0.00435203	0.00361530	0.00252089	0.00104472	0.00076339	0.00112652	0.00217121	0.00291097	0.00202950	0.00447615	0.00350434	0.00660744
1.16000000	0.00008468	0.00257305	0.00286748	0.00266840	0.00198184	0.00481506	0.00115880	0.00335688	0.00258328	0.00832428	0.00224011	0.00865236	0.00254490	0.00415828	0.00286158	0.00233983	0.00106423	0.00109718	0.00109543	0.00233720	0.00272824	0.00210926	0.00436498	0.00382146	0.00650008
1.17000000	0.00036109	0.00282415	0.00280360	0.00225765	0.00219333	0.00497886	0.00099641	0.00339346	0.00239912	0.00782915	0.00248243	0.00794442	0.00208249	0.00376955	0.00177815	0.00222459	0.00135265	0.00139976	0.00103256	0.00255059	0.00247221	0.00224607	0.00424876	0.00413518	0.00633164
1.18000000	0.00079031	0.00273258	0.00277863	0.00207016	0.00235679	0.00471396	0.00102764	0.00330177	0.00243454	0.00721968	0.00290826	0.00729255	0.00185414	0.00363534	0.00143696	0.00194498	0.00137906	0.00181635	0.00093440	0.00275142	0.00217633	0.00246457	0.00400422	0.00448454	0.00619743
1.19000000	0.00082118	0.00274794	0.00252449	0.00200204	0.00267360	0.00456301	0.00094386	0.00313595	0.00244260	0.00679415	0.00319057	0.00658273	0.00156989	0.00344500	0.00136492	0.00159907	0.00148267	0.00205056	0.00087638	0.00279536	0.00190443	0.00251059	0.00384329	0.00492042	0.00608057
1.20000000	0.00094967	0.00283302	0.00244284	0.00182175	0.00279502	0.00444765	0.00092363	0.00305039	0.00242398	0.00661988	0.00348544	0.00595367	0.00136181	0.00323096	0.00124354	0.00135095	0.00162220	0.00230052	0.00077284	0.00284533	0.00155660	0.00270188	0.00362743	0.00531297	0.00584737
1.21000000	0.00075008	0.00297084	0.00232960	0.00155393	0.00368081	0.00449205	0.00067720	0.00310633	0.00225075	0.00733965	0.00378534	0.00503684	0.00127280	0.00277419	0.00074059	0.00113995	0.00177138	0.00251246	0.00065662	0.00281968	0.00112350	0.00248698	0.00358516	0.00603336	0.00559373
1.22000000	0.00083473	0.00279924	0.00186062	0.00176507	0.00272042	0.00409071	0.00104005	0.00276706	0.00238889	0.00661894	0.00409231	0.00519894	0.00111158	0.00297817	0.00107363	0.00134506	0.00185470	0.00270139	0.00055609	0.00278502	0.00097086	0.00306238	0.00329045	0.00602961	0.00534800
1.23000000	0.00090080	0.00281989	0.00192201	0.00173198	0.00308958	0.00411746	0.00089680	0.00272007	0.00231984	0.00721652	0.00436120	0.00501178	0.00112483	0.00287372	0.00125277	0.00141408	0.00201581	0.00281649	0.00044603	0.00268620	0.00098663	0.00316756	0.00323991	0.00637117	0.00492797
1.24000000	0.00093750	0.00271551	0.00175314	0.00195530	0.00321959	0.00379437	0.00096706	0.00260278	0.00244071	0.00729184	0.00454061	0.00537696	0.00102800	0.00327081	0.00159177	0.00170260	0.00197259	0.00289969	0.00042722	0.00255584	0.00120931	0.00355076	0.00273585	0.00653018	0.00476938
1.25000000	0.00073215	0.00259269	0.00128566	0.00208002	0.00321827	0.00366055	0.00101806	0.00244652	0.00246362	0.00758591	0.00465091	0.00564865	0.00097390	0.00331277	0.00126586	0.00208683	0.00185901	0.00291986	0.00048992	0.00236165	0.00142981	0.00369041	0.00253904	0.00682667	0.00451073
1.26000000	0.00070504	0.00242051	0.00136850	0.00249244	0.00333507	0.00348334	0.00110034	0.00236538	0.00246568	0.00795877	0.00476154	0.00598307	0.00101142	0.00340413	0.00158435	0.00222553	0.00181540	0.00289479	0.00062053	0.00218110	0.00192755	0.00385514	0.00248442	0.00700200	0.00410927
1.27000000	0.00057581	0.00248432	0.00092412	0.00265836	0.00315770	0.00329084	0.00124112	0.00219357	0.00247798	0.00798421	0.00467497	0.00611146	0.00097340	0.00329502	0.00125494	0.00247105	0.00158766	0.00288289	0.00072539	0.00193671	0.00220767	0.00401738	0.00243865	0.00722887	0.00380341
1.28000000	0.00053681	0.00235803	0.00093872	0.00299778	0.00310119	0.00307371	0.00137955	0.00205177	0.00250537	0.00779416	0.00449775	0.00605856	0.00103618	0.00323083	0.00121652	0.00258764	0.00136634	0.00279001	0.00088865	0.00169895	0.00264851	0.00418498	0.00235611	0.00740254	0.00346024
1.29000000	0.00055360	0.00215926	0.00100927	0.00337101	0.00304638	0.00290951	0.00149004	0.00191642	0.00253410	0.00733338	0.00413031	0.00563052	0.00117191	0.00297943	0.00110977	0.00266102	0.00112290	0.00265783	0.00104754	0.00142771	0.00304820	0.00434641	0.00233131	0.00758113	0.00310237
1.30000000	0.00055912	0.00159680	0.00125252	0.00391299	0.00314111	0.00268953	0.00161883	0.00185227	0.00250479	0.00663726	0.00357796	0.00493313	0.00137473	0.00265051	0.00107628	0.00262970	0.00091020	0.00247855	0.00125436	0.00114826	0.00352197	0.00446444	0.00233611	0.00776325	0.00272471
1.31000000	0.00074374	0.00169457	0.00124206	0.00411002	0.00295238	0.00268174	0.00175844	0.00179381	0.00249908	0.00574702	0.00280118	0.00372422	0.00162564	0.00193566	0.00111540	0.00272707	0.00066441	0.00230056	0.00135100	0.00077012	0.00379439	0.00468319	0.00231515	0.00794856	0.00237701
1.32000000	0.00083485	0.00160135	0.00175914	0.00479898	0.00275197	0.00280961	0.00192209	0.00184043	0.00235355	0.00546914	0.00210969	0.00272562	0.00201974	0.00117837	0.00143731	0.00244582	0.00062102	0.00209029	0.00160742	0.00045352	0.00435001	0.00482212	0.00268385	0.00806383	0.00174079
1.33000000	0.00095449	0.00134813	0.00157739	0.00483522	0.00285452	0.00260614	0.00207253	0.00173492	0.00242498	0.00595101	0.00131833	0.00233204	0.00249593	0.00145777	0.00143382	0.00270189	0.00066519	0.00186108	0.00160434	0.00020779	0.00446937	0.00504816	0.00228625	0.00833534	0.00163842
1.34000000	0.00100332	0.00195441	0.00189493	0.00534353	0.00293390	0.00250886	0.00223887	0.00168337	0.00243852	0.00752279	0.00141591	0.00330779	0.00305519	0.00227047	0.00159418	0.00264172	0.00086961	0.00171008	0.00171486	0.00051283	0.00479173	0.00515913	0.00243633	0.00850199	0.00114770
1.35000000	0.00106320	0.00185476	0.00195728	0.00548709	0.00273495	0.00264477	0.00244276	0.00169443	0.00231622	0.00913143	0.00183954	0.00510173	0.00389186	0.00339534	0.00199705	0.00266459	0.00107948	0.00156413	0.00178977	0.00098738	0.00498666	0.00538437	0.00218879	0.00870815	0.00091941
1.36000000	0.00109353	0.00230748	0.00215726	0.00576089	0.00265683	0.00264918	0.00264420	0.00164457	0.00222944	0.01057305	0.00208680	0.00682345	0.00466307	0.00450604	0.00239822	0.00262034	0.00131683	0.00152733	0.00185619	0.00136447	0.00518068	0.00548036	0.00212801	0.00888392	0.00056583
1.37000000	0.00116743	0.00298419	0.00255781	0.00608209	0.00256366	0.00272291	0.00283108	0.00160322	0.00208008	0.01192475	0.00270157	0.00781653	0.00502263	0.00504050	0.00256317	0.00244677	0.00149041	0.00152599	0.00189413	0.00156663	0.00530278	0.00554973	0.00218719	0.00897218	0.00033105
1.38000000	0.00124298	0.00255475	0.00261709	0.00609836	0.00257134	0.00270748	0.00298886	0.00151757	0.00188354	0.01235893	0.00281645	0.00884065	0.00549309	0.00549868	0.00297393	0.00235601	0.00176788	0.00157742	0.00192376	0.00171643	0.00538338	0.00565559	0.00205687	0.00902325	0.00023245
1.39000000	0.00144811	0.00240423	0.00292045	0.00616381	0.00253959	0.00264493	0.00307580	0.00136051	0.00162497	0.01237510	0.00301068	0.00915654	0.00560821	0.00547323	0.00320400	0.00216048	0.00196589	0.00160030	0.00192662	0.00169401	0.00538594	0.00570705	0.00204970	0.00900620	0.00060160
1.40000000	0.00153451	0.00273373	0.00347959	0.00613938	0.00213335	0.00264228	0.00326950	0.00122566	0.00151831	0.01188199	0.00322035	0.00895948	0.00541930	0.00519486	0.00338988	0.00225084	0.00230348	0.00170754	0.00177979	0.00164460	0.00508715	0.00572774	0.00230536	0.00895690	0.00142407
1.41000000	0.00220858	0.00159142	0.00363440	0.00594531	0.00220429	0.00235749	0.00309089	0.00104010	0.00072631	0.01099703	0.00315777	0.00858223	0.00537790	0.00476137	0.00356318	0.00207529	0.00239466	0.00171183	0.00186734	0.00137870	0.00513443	0.00565776	0.00207844	0.00888812	0.00135927
1.42000000	0.00243762	0.00170814	0.00406293	0.00554674	0.00211697	0.00212074	0.00314243	0.00078061	0.00096194	0.00956456	0.00315415	0.00815442	0.00526755	0.00451836	0.00382384	0.00223473	0.00251891	0.00170109	0.00178410	0.00119994	0.00489937	0.00564444	0.00211309	0.00881588	0.00179568
1.43000000	0.00305536	0.00172909	0.00436792	0.00533841	0.00188509	0.00147662	0.00285581	0.00134772	0.00143888	0.00828478	0.00312855	0.00748500	0.00493568	0.00422979	0.00369772	0.00264004	0.00263849	0.00181835	0.00184278	0.00092485	0.00474877	0.00568376	0.00216590	0.00855845	0.00206341
1.44000000	0.00304743	0.00211312	0.00469991	0.00483484	0.00157964	0.00141092	0.00290298	0.00172957	0.00252726	0.00679014	0.00348326	0.00720687	0.00481876	0.00425604	0.00347581	0.00305187	0.00261936	0.00185477	0.00169149	0.00085714	0.00438162	0.00568553	0.00210123	0.00845167	0.00227428
1.45000000	0.00355402	0.00258789	0.00483303	0.00453015	0.00146766	0.00167613	0.00274472	0.00258744	0.00337643	0.00590511	0.00347941	0.00669201	0.00418418	0.00409756	0.00286146	0.00365296	0.00271312	0.00191306	0.00175854	0.00069054	0.00424114	0.00577249	0.00218969	0.00817391	0.00254646
1.46000000	0.00302327	0.00290757	0.00479155	0.00394817	0.00197451	0.00251383	0.00301516	0.00333487	0.00454192	0.00513919	0.00437508	0.00684151	0.00389352	0.00448109	0.00217278	0.00376354	0.00267997	0.00189672	0.00145360	0.00063363	0.00401146	0.00559555	0.00202226	0.00828287	0.00269195
1.47000000	0.00362338	0.00298331	0.00480373	0.00452542	0.00121876	0.00361482	0.00297621	0.00385875	0.00482107	0.00479445	0.00458104	0.00687849	0.00302741	0.00447193	0.00127340	0.00439911	0.00256124	0.00189463	0.00148571	0.00074631	0.00377069	0.00574128	0.00209696	0.00793334	0.00275805
