TVC09_2_JMP_05_torso_marker_adjustment_task_1_finalErrors.sto
version=1
nRows=256
nColumns=28
inDegrees=no
endheader
time	R_Asis	L_Asis	R_Psis	L_Psis	Sacral	R_Thigh_Lateral	R_Knee_Lateral	R_Shank_Lateral	R_Ankle_Lateral	R_Heel	R_Toe	L_Thigh_Lateral	L_Knee_Lateral	L_Shank_Lateral	L_Ankle_Lateral	L_Heel	L_Toe	R_Shoulder	L_Shoulder	C7	J_Notch	Thoracic	Sternum	R_Elbow	L_Elbow	R_Wrist	L_Wrist
0.40000000	0.00375750	0.00567101	0.00178528	0.00281589	0.00103757	0.00750482	0.00713424	0.00549676	0.00409143	0.00700170	0.00341164	0.01429691	0.00448291	0.01253442	0.00112937	0.00419503	0.00198647	0.00532363	0.00653802	0.00217955	0.00195007	0.00193169	0.00939673	0.00387001	0.00171521	0.00484551	0.00044714
0.41000000	0.00373621	0.00597553	0.00176419	0.00321977	0.00142027	0.00755439	0.00726189	0.00539880	0.00419565	0.00686452	0.00356364	0.01451884	0.00427451	0.01296541	0.00115726	0.00420351	0.00181415	0.00528604	0.00675308	0.00212946	0.00194276	0.00192209	0.00938933	0.00378952	0.00175381	0.00489860	0.00071633
0.42000000	0.00352997	0.00596988	0.00186361	0.00362249	0.00180765	0.00766699	0.00752005	0.00512258	0.00433500	0.00673236	0.00368249	0.01418880	0.00422579	0.01281381	0.00128997	0.00407985	0.00179888	0.00522838	0.00704754	0.00207686	0.00191736	0.00189325	0.00931855	0.00380593	0.00184072	0.00485464	0.00136932
0.43000000	0.00310888	0.00627545	0.00185018	0.00400413	0.00214324	0.00791193	0.00791536	0.00491276	0.00424916	0.00694103	0.00357023	0.01309689	0.00474984	0.01210677	0.00097303	0.00365531	0.00167619	0.00496247	0.00695722	0.00203136	0.00213781	0.00199085	0.00964417	0.00369649	0.00220198	0.00486072	0.00203845
0.44000000	0.00294617	0.00652399	0.00200513	0.00437620	0.00252635	0.00804393	0.00828459	0.00456428	0.00436751	0.00676445	0.00356946	0.01165839	0.00457919	0.01120970	0.00111305	0.00337991	0.00161526	0.00483889	0.00722079	0.00199731	0.00219667	0.00194939	0.00960894	0.00366279	0.00243669	0.00477030	0.00293788
0.45000000	0.00279816	0.00717341	0.00211963	0.00464152	0.00282845	0.00814640	0.00859364	0.00439290	0.00445768	0.00671421	0.00343778	0.01002985	0.00485205	0.00965968	0.00091847	0.00286437	0.00148393	0.00454905	0.00714278	0.00189306	0.00237170	0.00209452	0.00983796	0.00368733	0.00257979	0.00465651	0.00346702
0.46000000	0.00293752	0.00758404	0.00233200	0.00498779	0.00317498	0.00806308	0.00899468	0.00408766	0.00471057	0.00625293	0.00324079	0.00867677	0.00436982	0.00786033	0.00095794	0.00236130	0.00146671	0.00425907	0.00709526	0.00170875	0.00249501	0.00226124	0.00992841	0.00371230	0.00245398	0.00451239	0.00363004
0.47000000	0.00333042	0.00780456	0.00247088	0.00523073	0.00341720	0.00813238	0.00926157	0.00355649	0.00479759	0.00605146	0.00337631	0.00731046	0.00397449	0.00609017	0.00091904	0.00194329	0.00152329	0.00417982	0.00718512	0.00156961	0.00255515	0.00232890	0.00992535	0.00354491	0.00253471	0.00446768	0.00329692
0.48000000	0.00389318	0.00813971	0.00265500	0.00545066	0.00366803	0.00807445	0.00924886	0.00308760	0.00497058	0.00587558	0.00337246	0.00630108	0.00360450	0.00422486	0.00082662	0.00156409	0.00156107	0.00402215	0.00720900	0.00133205	0.00261672	0.00247483	0.00991003	0.00345385	0.00269756	0.00436352	0.00278040
0.49000000	0.00454884	0.00852958	0.00283000	0.00560146	0.00387269	0.00792250	0.00912421	0.00267785	0.00522483	0.00567491	0.00331724	0.00557912	0.00337382	0.00243154	0.00066811	0.00121054	0.00143019	0.00397565	0.00720691	0.00112940	0.00265922	0.00263212	0.00982898	0.00337576	0.00291674	0.00421376	0.00226568
0.50000000	0.00522243	0.00874733	0.00295288	0.00568507	0.00399798	0.00771135	0.00884683	0.00230608	0.00549903	0.00542991	0.00323866	0.00496276	0.00315893	0.00113565	0.00055834	0.00107102	0.00139089	0.00402077	0.00718005	0.00102005	0.00272372	0.00279742	0.00966043	0.00332396	0.00305679	0.00398956	0.00177523
0.51000000	0.00592617	0.00882969	0.00304932	0.00572512	0.00408298	0.00743516	0.00837387	0.00211038	0.00580376	0.00517082	0.00313935	0.00436326	0.00301994	0.00066022	0.00051437	0.00118227	0.00139236	0.00418053	0.00713206	0.00095026	0.00273816	0.00293734	0.00939160	0.00320743	0.00320655	0.00379709	0.00141192
0.52000000	0.00652959	0.00887563	0.00313865	0.00570262	0.00412527	0.00715441	0.00762294	0.00213787	0.00609201	0.00489540	0.00289959	0.00372272	0.00290009	0.00083097	0.00057397	0.00149076	0.00150511	0.00432651	0.00706107	0.00085893	0.00269089	0.00307514	0.00899663	0.00314587	0.00329081	0.00355149	0.00112412
0.53000000	0.00712652	0.00864045	0.00303563	0.00549213	0.00396132	0.00682072	0.00685587	0.00252853	0.00643184	0.00470338	0.00290174	0.00308529	0.00299082	0.00084127	0.00052287	0.00163832	0.00139518	0.00460316	0.00683939	0.00087366	0.00266435	0.00319550	0.00862809	0.00299541	0.00324156	0.00334956	0.00089187
0.54000000	0.00746436	0.00853339	0.00295309	0.00524769	0.00380015	0.00648059	0.00551180	0.00310349	0.00661180	0.00456287	0.00224520	0.00235595	0.00317192	0.00095378	0.00082425	0.00206396	0.00186439	0.00485753	0.00665425	0.00084541	0.00254109	0.00328209	0.00812584	0.00297138	0.00320799	0.00305204	0.00094161
0.55000000	0.00781665	0.00786457	0.00261513	0.00467077	0.00329188	0.00602628	0.00468123	0.00373430	0.00707443	0.00425458	0.00261173	0.00272514	0.00345947	0.00057139	0.00090911	0.00198691	0.00149615	0.00514638	0.00621120	0.00079910	0.00243390	0.00336457	0.00766660	0.00284941	0.00301909	0.00279941	0.00065105
0.56000000	0.00783251	0.00746172	0.00234314	0.00406442	0.00281947	0.00548846	0.00323894	0.00425763	0.00728905	0.00413867	0.00177139	0.00323744	0.00399861	0.00070810	0.00110786	0.00220409	0.00190398	0.00540503	0.00580213	0.00071313	0.00216905	0.00335257	0.00705053	0.00268062	0.00286021	0.00259787	0.00070816
0.57000000	0.00767545	0.00680635	0.00207032	0.00331073	0.00222899	0.00475997	0.00189321	0.00497070	0.00751200	0.00409769	0.00124736	0.00398522	0.00466271	0.00115415	0.00130117	0.00240789	0.00220946	0.00558233	0.00525600	0.00060145	0.00193344	0.00333150	0.00641903	0.00261170	0.00254059	0.00228884	0.00065862
0.58000000	0.00755525	0.00549581	0.00176517	0.00249838	0.00145692	0.00397488	0.00140453	0.00546724	0.00785937	0.00388208	0.00196555	0.00512691	0.00483431	0.00126296	0.00115326	0.00257016	0.00191165	0.00582454	0.00449899	0.00054326	0.00172679	0.00343392	0.00584259	0.00259281	0.00221037	0.00191739	0.00033555
0.59000000	0.00717283	0.00427068	0.00169827	0.00183472	0.00082593	0.00302032	0.00204704	0.00598842	0.00792366	0.00395633	0.00200899	0.00581037	0.00479766	0.00158605	0.00104407	0.00280137	0.00187532	0.00595848	0.00365380	0.00057534	0.00157371	0.00353811	0.00524379	0.00259380	0.00179250	0.00156740	0.00020746
0.60000000	0.00668575	0.00331212	0.00183876	0.00128944	0.00063926	0.00274944	0.00339591	0.00641798	0.00799827	0.00401296	0.00179406	0.00596436	0.00470812	0.00192911	0.00083086	0.00305974	0.00185773	0.00604530	0.00298053	0.00080554	0.00146525	0.00354923	0.00454098	0.00254107	0.00145663	0.00125246	0.00018052
0.61000000	0.00613372	0.00257858	0.00205906	0.00092629	0.00089335	0.00307229	0.00460192	0.00691066	0.00801695	0.00413954	0.00179644	0.00569055	0.00442396	0.00203340	0.00058781	0.00316207	0.00174356	0.00609838	0.00221371	0.00106251	0.00144604	0.00353188	0.00384422	0.00250088	0.00113052	0.00098155	0.00041572
0.62000000	0.00464692	0.00259030	0.00225233	0.00065677	0.00138942	0.00409546	0.00640111	0.00720814	0.00794782	0.00478004	0.00201869	0.00488032	0.00447660	0.00218815	0.00051754	0.00301975	0.00154328	0.00601829	0.00160987	0.00135601	0.00163036	0.00337762	0.00294386	0.00235016	0.00096219	0.00085699	0.00069844
0.63000000	0.00524320	0.00246078	0.00206710	0.00070030	0.00117322	0.00483728	0.00613794	0.00802891	0.00800569	0.00473480	0.00154330	0.00442475	0.00371700	0.00176468	0.00048237	0.00286168	0.00133203	0.00620911	0.00097982	0.00159524	0.00176999	0.00344089	0.00241392	0.00275468	0.00063052	0.00024438	0.00069747
0.64000000	0.00474734	0.00242013	0.00193115	0.00063139	0.00122012	0.00574535	0.00665304	0.00885839	0.00817244	0.00492113	0.00162005	0.00388218	0.00343130	0.00131875	0.00051596	0.00263840	0.00112582	0.00620370	0.00085938	0.00189613	0.00199119	0.00327229	0.00175634	0.00288913	0.00059831	0.00013048	0.00069640
0.65000000	0.00404512	0.00205380	0.00177000	0.00071036	0.00126973	0.00682655	0.00727454	0.00960441	0.00843537	0.00482570	0.00211999	0.00344899	0.00312767	0.00084054	0.00062451	0.00269619	0.00104717	0.00617020	0.00124127	0.00215797	0.00222878	0.00311242	0.00116097	0.00306269	0.00086625	0.00052089	0.00067158
0.66000000	0.00351379	0.00223575	0.00159346	0.00062731	0.00121134	0.00718627	0.00782858	0.01045807	0.00852383	0.00557711	0.00222834	0.00374373	0.00316320	0.00044823	0.00062004	0.00200150	0.00092824	0.00611836	0.00172008	0.00238174	0.00247480	0.00285782	0.00067810	0.00329220	0.00082558	0.00086246	0.00069945
0.67000000	0.00260332	0.00227752	0.00148246	0.00083428	0.00124940	0.00810163	0.00844974	0.01106356	0.00886441	0.00546644	0.00250209	0.00388963	0.00300331	0.00013547	0.00071009	0.00195793	0.00092915	0.00603253	0.00225878	0.00260699	0.00275122	0.00266625	0.00061270	0.00344774	0.00107929	0.00124288	0.00073490
0.68000000	0.00029679	0.00255295	0.00148191	0.00176218	0.00162219	0.00934593	0.00966737	0.01119847	0.00916437	0.00512985	0.00345925	0.00427794	0.00357797	0.00023129	0.00078185	0.00128280	0.00095484	0.00565048	0.00260796	0.00294826	0.00331383	0.00228520	0.00118970	0.00328095	0.00171953	0.00140002	0.00088866
0.69000000	0.00081717	0.00269588	0.00125942	0.00127569	0.00124234	0.00901075	0.00987038	0.01250680	0.00934283	0.00558913	0.00265208	0.00445811	0.00291968	0.00062479	0.00089758	0.00183235	0.00122681	0.00575978	0.00324963	0.00304246	0.00324903	0.00228708	0.00141325	0.00374704	0.00147427	0.00191611	0.00073648
0.70000000	0.00039603	0.00312840	0.00126587	0.00145748	0.00124746	0.00889604	0.01064798	0.01344186	0.00940868	0.00589213	0.00267230	0.00482753	0.00303837	0.00070654	0.00086120	0.00144276	0.00112172	0.00560843	0.00366272	0.00312535	0.00340848	0.00202284	0.00179553	0.00388663	0.00150623	0.00219489	0.00078782
0.71000000	0.00071861	0.00360798	0.00128170	0.00140533	0.00113496	0.00846656	0.01155996	0.01470001	0.00930933	0.00623907	0.00277501	0.00480417	0.00298925	0.00075419	0.00087927	0.00129962	0.00080226	0.00553829	0.00390753	0.00324118	0.00350514	0.00179601	0.00215249	0.00415652	0.00139623	0.00249190	0.00077250
0.72000000	0.00169661	0.00380055	0.00130510	0.00183275	0.00120979	0.00862170	0.01244174	0.01580324	0.00932602	0.00642444	0.00267919	0.00489500	0.00291071	0.00107795	0.00096265	0.00134915	0.00085987	0.00536707	0.00415494	0.00329614	0.00362170	0.00159281	0.00247311	0.00424366	0.00143278	0.00274688	0.00074372
0.73000000	0.00258156	0.00400515	0.00137001	0.00212683	0.00126091	0.00866749	0.01326423	0.01717336	0.00928426	0.00659478	0.00268753	0.00499953	0.00280256	0.00138012	0.00101540	0.00118368	0.00091449	0.00516562	0.00429898	0.00331873	0.00373739	0.00142717	0.00273357	0.00432787	0.00145292	0.00301952	0.00069504
0.74000000	0.00336815	0.00407816	0.00146648	0.00234571	0.00125582	0.00865940	0.01393949	0.01878707	0.00921681	0.00676779	0.00283310	0.00509775	0.00258339	0.00177217	0.00112265	0.00109362	0.00087543	0.00498857	0.00436816	0.00337126	0.00380554	0.00134902	0.00295305	0.00442548	0.00134564	0.00326148	0.00072412
0.75000000	0.00398311	0.00421271	0.00160339	0.00257615	0.00134619	0.00875875	0.01444405	0.02041412	0.00926668	0.00682596	0.00309923	0.00537718	0.00231024	0.00232199	0.00109583	0.00091455	0.00079986	0.00479735	0.00446514	0.00330464	0.00379747	0.00132914	0.00314764	0.00440357	0.00111580	0.00352330	0.00095045
0.76000000	0.00474526	0.00395035	0.00166650	0.00280657	0.00122855	0.00912365	0.01507735	0.02193792	0.00911066	0.00666638	0.00345035	0.00568499	0.00233194	0.00268689	0.00128843	0.00068398	0.00038337	0.00460028	0.00438785	0.00336382	0.00387843	0.00141776	0.00332157	0.00451170	0.00127239	0.00373367	0.00083235
0.77000000	0.00551032	0.00386865	0.00194956	0.00310737	0.00136267	0.00957753	0.01543995	0.02329414	0.00913798	0.00647319	0.00397604	0.00631460	0.00242359	0.00317924	0.00120849	0.00085447	0.00057712	0.00432307	0.00452734	0.00330707	0.00379390	0.00152900	0.00337323	0.00430949	0.00121943	0.00392513	0.00095561
0.78000000	0.00526857	0.00380610	0.00202226	0.00297835	0.00121370	0.00975235	0.01565844	0.02464217	0.00897137	0.00678981	0.00402102	0.00666799	0.00187292	0.00378984	0.00124196	0.00066313	0.00062435	0.00431384	0.00441922	0.00325887	0.00366974	0.00164998	0.00362506	0.00453321	0.00101723	0.00412704	0.00102400
0.79000000	0.00520216	0.00384034	0.00209009	0.00303636	0.00122298	0.01004338	0.01580465	0.02561551	0.00887633	0.00679254	0.00437278	0.00715608	0.00183578	0.00424464	0.00124781	0.00059084	0.00079410	0.00415380	0.00446297	0.00310414	0.00352498	0.00175960	0.00378485	0.00451109	0.00098554	0.00430836	0.00116106
0.80000000	0.00499110	0.00379258	0.00212193	0.00305510	0.00117652	0.01039478	0.01584528	0.02626056	0.00887223	0.00669267	0.00458264	0.00747760	0.00182896	0.00467426	0.00126242	0.00054721	0.00093687	0.00400835	0.00440798	0.00300169	0.00344227	0.00187687	0.00401302	0.00451269	0.00099470	0.00447187	0.00138647
0.81000000	0.00520102	0.00365198	0.00198084	0.00342606	0.00106875	0.01063871	0.01557819	0.02667411	0.00911124	0.00624386	0.00510528	0.00790490	0.00320761	0.00432821	0.00169594	0.00139956	0.00087497	0.00373588	0.00423518	0.00286992	0.00358438	0.00204524	0.00445959	0.00410557	0.00112820	0.00480147	0.00187116
0.82000000	0.00451242	0.00349390	0.00232324	0.00307865	0.00106011	0.01098877	0.01560386	0.02655636	0.00896756	0.00643354	0.00491735	0.00800675	0.00225878	0.00510679	0.00124874	0.00054688	0.00110691	0.00367858	0.00437016	0.00278990	0.00320730	0.00204806	0.00441764	0.00433994	0.00111592	0.00479983	0.00186784
0.83000000	0.00429105	0.00347921	0.00227126	0.00321609	0.00087478	0.01117604	0.01519500	0.02633271	0.00930340	0.00603918	0.00508287	0.00825030	0.00340239	0.00478114	0.00146723	0.00126338	0.00105704	0.00349893	0.00440162	0.00282223	0.00326279	0.00207594	0.00471040	0.00400632	0.00107255	0.00499711	0.00226701
0.84000000	0.00359849	0.00383613	0.00209858	0.00304837	0.00104649	0.01102832	0.01507784	0.02569090	0.00898181	0.00638598	0.00490949	0.00810824	0.00239185	0.00576026	0.00125937	0.00084627	0.00133788	0.00334042	0.00452361	0.00254863	0.00294434	0.00203965	0.00483849	0.00420064	0.00135047	0.00490906	0.00244076
0.85000000	0.00314819	0.00379550	0.00209963	0.00302815	0.00103539	0.01103257	0.01469905	0.02502109	0.00905063	0.00636624	0.00488882	0.00831555	0.00249547	0.00586205	0.00121824	0.00074776	0.00130492	0.00315709	0.00464676	0.00247762	0.00279542	0.00205417	0.00502478	0.00401377	0.00151760	0.00498546	0.00271572
0.86000000	0.00243222	0.00356596	0.00223606	0.00283239	0.00080755	0.01136246	0.01434073	0.02422345	0.00923042	0.00618982	0.00476103	0.00868053	0.00310507	0.00556604	0.00124565	0.00088697	0.00117097	0.00307637	0.00481476	0.00249372	0.00267319	0.00201229	0.00513649	0.00363995	0.00154744	0.00528973	0.00304121
0.87000000	0.00164281	0.00332531	0.00233206	0.00262555	0.00058297	0.01158383	0.01383359	0.02347988	0.00945974	0.00608736	0.00471068	0.00899250	0.00347256	0.00549357	0.00130247	0.00101974	0.00124735	0.00301601	0.00503244	0.00249394	0.00255174	0.00195768	0.00526447	0.00340015	0.00163090	0.00548032	0.00335078
0.88000000	0.00173463	0.00346494	0.00206345	0.00283259	0.00082081	0.01142733	0.01347645	0.02257143	0.00932686	0.00631830	0.00465732	0.00897944	0.00278415	0.00629130	0.00143706	0.00075153	0.00142632	0.00270978	0.00509534	0.00228614	0.00240152	0.00206581	0.00556677	0.00373107	0.00190330	0.00507103	0.00368353
0.89000000	0.00134647	0.00326293	0.00208055	0.00274527	0.00072560	0.01156538	0.01299089	0.02185264	0.00943944	0.00633711	0.00455333	0.00924602	0.00281002	0.00646002	0.00161316	0.00083556	0.00140803	0.00260457	0.00519514	0.00228651	0.00237776	0.00210548	0.00572865	0.00343244	0.00206136	0.00517984	0.00393510
0.90000000	0.00097350	0.00273333	0.00218022	0.00239651	0.00045289	0.01171349	0.01237646	0.02126761	0.00972002	0.00629475	0.00467513	0.00962327	0.00325016	0.00631871	0.00154727	0.00105755	0.00143317	0.00271268	0.00549887	0.00233987	0.00233637	0.00196711	0.00574182	0.00307227	0.00214946	0.00549244	0.00413315
0.91000000	0.00141226	0.00280314	0.00207458	0.00281549	0.00074900	0.01181906	0.01223042	0.02021026	0.00944157	0.00643608	0.00438818	0.00966407	0.00290398	0.00684126	0.00179634	0.00102246	0.00152800	0.00244525	0.00542796	0.00225594	0.00228678	0.00224258	0.00603903	0.00312402	0.00239208	0.00521258	0.00431588
0.92000000	0.00150863	0.00255348	0.00211227	0.00271193	0.00069870	0.01189782	0.01183341	0.01936422	0.00941964	0.00636247	0.00430571	0.00983461	0.00296959	0.00691799	0.00194446	0.00109003	0.00142189	0.00239552	0.00554504	0.00220677	0.00221632	0.00235378	0.00615204	0.00304982	0.00247349	0.00523835	0.00447506
0.93000000	0.00180415	0.00232765	0.00215339	0.00265308	0.00069738	0.01187541	0.01148227	0.01835130	0.00930845	0.00627065	0.00424322	0.00998405	0.00298294	0.00692848	0.00203391	0.00113829	0.00135163	0.00243387	0.00566848	0.00226901	0.00213258	0.00246778	0.00625962	0.00300339	0.00250908	0.00518556	0.00455808
0.94000000	0.00207049	0.00214911	0.00222409	0.00255835	0.00064215	0.01181407	0.01118554	0.01711819	0.00910896	0.00616583	0.00407962	0.01006090	0.00301756	0.00681329	0.00211838	0.00116305	0.00129312	0.00250736	0.00573295	0.00229169	0.00205429	0.00258071	0.00637510	0.00289828	0.00265606	0.00522309	0.00455875
0.95000000	0.00235452	0.00208950	0.00230005	0.00258606	0.00069479	0.01159654	0.01075503	0.01572426	0.00888308	0.00591153	0.00381420	0.01008134	0.00304804	0.00668263	0.00208051	0.00112173	0.00119985	0.00262868	0.00574756	0.00235524	0.00197554	0.00270356	0.00653624	0.00281567	0.00268447	0.00521165	0.00462523
0.96000000	0.00364106	0.00240307	0.00238868	0.00192523	0.00046526	0.01084775	0.00968785	0.01479973	0.00880754	0.00621254	0.00408399	0.01013473	0.00312838	0.00640420	0.00184266	0.00127056	0.00138741	0.00289226	0.00589707	0.00241994	0.00188199	0.00262064	0.00660486	0.00263184	0.00303674	0.00546995	0.00441818
0.97000000	0.00310976	0.00254437	0.00239375	0.00260895	0.00088936	0.01127525	0.00929893	0.01194100	0.00851450	0.00464459	0.00274669	0.01014479	0.00276347	0.00619922	0.00189754	0.00099269	0.00113763	0.00305866	0.00579385	0.00248761	0.00183605	0.00290056	0.00676508	0.00265065	0.00295314	0.00527760	0.00463583
0.98000000	0.00386411	0.00273979	0.00249041	0.00214243	0.00061637	0.01058044	0.00874429	0.01028124	0.00799587	0.00468462	0.00269079	0.01023252	0.00274934	0.00580226	0.00205803	0.00087242	0.00099182	0.00316599	0.00570685	0.00248529	0.00168692	0.00295999	0.00693370	0.00271106	0.00290559	0.00530458	0.00461680
0.99000000	0.00415460	0.00300121	0.00265266	0.00196715	0.00058466	0.01027911	0.00826970	0.00821968	0.00752614	0.00445474	0.00254734	0.01028130	0.00280073	0.00543112	0.00211259	0.00074533	0.00097623	0.00337734	0.00563761	0.00249728	0.00159048	0.00300196	0.00702047	0.00278819	0.00285380	0.00531362	0.00458964
1.00000000	0.00375392	0.00372159	0.00265578	0.00230536	0.00068735	0.00991820	0.00723772	0.00625289	0.00737653	0.00365068	0.00190031	0.01021812	0.00266944	0.00531465	0.00185748	0.00068942	0.00110241	0.00374513	0.00559245	0.00262250	0.00152675	0.00311012	0.00708564	0.00266061	0.00301063	0.00531993	0.00450782
1.01000000	0.00468143	0.00387801	0.00277781	0.00188260	0.00067701	0.00988016	0.00643777	0.00463370	0.00691912	0.00346916	0.00191023	0.01038202	0.00279731	0.00485454	0.00196240	0.00045774	0.00105158	0.00379869	0.00548449	0.00262053	0.00137721	0.00310830	0.00729216	0.00279332	0.00292195	0.00533320	0.00447269
1.02000000	0.00466901	0.00427842	0.00285628	0.00192443	0.00072424	0.00987048	0.00547199	0.00440738	0.00675269	0.00303919	0.00160083	0.01040279	0.00261345	0.00469101	0.00185848	0.00049719	0.00114183	0.00410501	0.00536240	0.00264535	0.00134389	0.00312580	0.00736313	0.00272737	0.00299657	0.00537822	0.00435046
1.03000000	0.00573005	0.00418257	0.00298894	0.00159017	0.00094621	0.01044527	0.00467007	0.00464068	0.00634801	0.00320387	0.00154301	0.01059638	0.00260722	0.00431642	0.00201129	0.00043078	0.00114314	0.00423031	0.00521519	0.00261193	0.00128975	0.00306588	0.00750672	0.00282974	0.00278654	0.00541189	0.00431655
1.04000000	0.00551184	0.00460951	0.00301551	0.00171493	0.00095128	0.01095940	0.00385951	0.00631427	0.00627328	0.00309967	0.00166815	0.01059687	0.00259696	0.00413307	0.00192062	0.00047959	0.00118838	0.00446392	0.00506711	0.00263143	0.00125219	0.00309626	0.00756215	0.00280051	0.00278785	0.00541631	0.00414019
1.05000000	0.00602670	0.00465132	0.00314695	0.00166699	0.00121568	0.01179304	0.00314850	0.00775928	0.00606819	0.00335578	0.00168828	0.01062311	0.00263634	0.00391788	0.00194563	0.00045211	0.00120236	0.00450856	0.00492377	0.00258153	0.00123156	0.00304358	0.00770298	0.00282746	0.00268315	0.00548429	0.00406233
1.06000000	0.00619277	0.00475823	0.00326419	0.00173502	0.00140396	0.01276423	0.00255737	0.00924284	0.00594141	0.00373618	0.00178908	0.01064817	0.00257458	0.00378240	0.00194476	0.00057344	0.00122752	0.00464000	0.00477050	0.00253253	0.00124106	0.00297745	0.00776084	0.00282429	0.00261142	0.00555137	0.00389528
1.07000000	0.00698087	0.00457827	0.00337491	0.00178831	0.00169556	0.01385063	0.00188758	0.01029153	0.00571091	0.00434250	0.00154933	0.01075763	0.00237635	0.00375679	0.00204520	0.00071369	0.00126321	0.00452568	0.00458675	0.00245738	0.00123714	0.00292113	0.00791734	0.00280945	0.00245048	0.00566305	0.00381483
1.08000000	0.00820024	0.00506038	0.00347054	0.00196886	0.00207255	0.01505622	0.00069103	0.01062040	0.00562339	0.00540612	0.00169006	0.01087878	0.00255733	0.00358480	0.00207337	0.00059821	0.00117597	0.00452886	0.00435788	0.00235619	0.00123297	0.00286234	0.00798641	0.00264838	0.00272563	0.00583151	0.00351188
1.09000000	0.00667033	0.00453479	0.00360250	0.00210104	0.00202134	0.01561489	0.00120713	0.01220472	0.00541653	0.00495434	0.00226180	0.01066379	0.00267803	0.00341565	0.00207017	0.00058065	0.00115161	0.00461720	0.00441077	0.00236673	0.00123361	0.00276148	0.00781830	0.00291235	0.00223417	0.00576830	0.00348245
1.10000000	0.00644111	0.00424923	0.00374373	0.00226741	0.00220187	0.01608295	0.00098788	0.01264534	0.00515508	0.00528795	0.00230633	0.01064465	0.00263805	0.00323124	0.00218556	0.00063212	0.00104154	0.00454487	0.00428008	0.00224260	0.00124059	0.00269359	0.00771396	0.00297975	0.00213129	0.00585060	0.00338928
1.11000000	0.00740489	0.00393818	0.00396085	0.00249659	0.00262957	0.01620432	0.00033160	0.01191298	0.00486256	0.00550829	0.00205941	0.01081831	0.00257145	0.00292304	0.00236426	0.00076274	0.00094353	0.00436571	0.00410785	0.00213619	0.00116479	0.00257262	0.00768547	0.00247749	0.00222174	0.00627794	0.00321000
1.12000000	0.00565618	0.00366752	0.00389554	0.00234449	0.00231359	0.01506439	0.00043859	0.01226790	0.00461274	0.00542253	0.00259516	0.01056154	0.00262842	0.00268678	0.00241654	0.00050857	0.00083759	0.00423364	0.00414837	0.00214591	0.00113884	0.00246199	0.00744180	0.00299325	0.00201347	0.00608904	0.00309179
1.13000000	0.00611712	0.00315254	0.00386130	0.00229239	0.00241057	0.01311380	0.00103251	0.01133442	0.00417037	0.00547305	0.00264974	0.01065557	0.00241912	0.00238832	0.00268627	0.00083379	0.00111443	0.00387398	0.00414102	0.00218528	0.00108851	0.00228903	0.00732670	0.00223509	0.00188785	0.00663186	0.00292400
1.14000000	0.00403570	0.00285317	0.00380896	0.00227925	0.00214768	0.01130419	0.00158540	0.01048240	0.00405256	0.00522760	0.00278304	0.01017323	0.00268035	0.00192038	0.00280502	0.00054158	0.00064681	0.00377008	0.00405571	0.00208047	0.00094191	0.00220715	0.00695071	0.00299303	0.00190931	0.00632893	0.00294303
1.15000000	0.00329739	0.00231208	0.00351935	0.00212691	0.00188101	0.00842340	0.00285447	0.00909752	0.00385878	0.00510718	0.00271374	0.00988365	0.00257412	0.00143886	0.00308847	0.00076500	0.00075230	0.00345908	0.00412074	0.00209058	0.00085537	0.00202772	0.00662392	0.00301860	0.00186930	0.00644748	0.00294530
1.16000000	0.00220863	0.00192097	0.00343209	0.00203374	0.00177122	0.00616977	0.00338707	0.00749457	0.00350762	0.00560623	0.00301107	0.00950399	0.00250693	0.00070371	0.00316064	0.00132677	0.00070197	0.00309558	0.00410466	0.00210502	0.00082593	0.00187871	0.00625441	0.00307515	0.00181911	0.00657235	0.00293128
1.17000000	0.00123874	0.00169919	0.00279169	0.00182771	0.00121934	0.00329491	0.00465567	0.00630495	0.00344617	0.00549649	0.00297619	0.00902877	0.00264096	0.00131713	0.00337816	0.00188815	0.00109978	0.00268866	0.00428493	0.00216765	0.00077409	0.00160657	0.00590072	0.00289557	0.00187851	0.00676563	0.00306640
1.18000000	0.00063404	0.00184629	0.00273907	0.00176476	0.00126901	0.00218003	0.00507184	0.00509214	0.00337296	0.00629892	0.00298924	0.00884570	0.00255915	0.00319091	0.00339230	0.00264481	0.00140793	0.00226728	0.00416248	0.00220866	0.00095194	0.00145463	0.00555165	0.00303275	0.00210957	0.00684813	0.00306707
1.19000000	0.00076695	0.00271738	0.00166914	0.00191252	0.00089805	0.00284031	0.00627516	0.00450222	0.00357467	0.00569212	0.00359026	0.00846019	0.00340674	0.00487270	0.00320854	0.00398760	0.00195475	0.00214089	0.00464639	0.00236570	0.00084955	0.00106104	0.00497244	0.00290630	0.00184117	0.00691265	0.00369307
1.20000000	0.00232779	0.00288252	0.00195387	0.00205066	0.00118124	0.00258350	0.00521321	0.00373869	0.00351449	0.00785312	0.00350372	0.00931788	0.00280458	0.00710429	0.00332394	0.00452234	0.00182899	0.00151015	0.00440470	0.00246018	0.00125794	0.00105448	0.00474312	0.00307431	0.00201500	0.00690147	0.00373139
1.21000000	0.00303262	0.00381138	0.00143487	0.00236102	0.00142903	0.00309817	0.00535898	0.00396086	0.00375294	0.00765173	0.00343738	0.01008053	0.00302019	0.00914349	0.00328359	0.00528124	0.00199589	0.00121632	0.00450916	0.00256753	0.00146214	0.00078735	0.00442955	0.00296212	0.00225009	0.00691637	0.00408853
1.22000000	0.00360225	0.00466305	0.00122315	0.00268640	0.00177691	0.00331166	0.00519164	0.00425187	0.00389115	0.00748254	0.00341038	0.01102954	0.00318883	0.01110075	0.00323723	0.00585699	0.00203510	0.00107092	0.00461609	0.00263993	0.00165761	0.00051645	0.00415832	0.00286646	0.00244819	0.00693770	0.00445018
1.23000000	0.00427330	0.00470786	0.00154255	0.00284958	0.00194723	0.00271051	0.00494171	0.00440666	0.00402023	0.00741743	0.00355162	0.01214107	0.00276686	0.01301946	0.00324439	0.00627164	0.00115041	0.00120274	0.00458673	0.00271935	0.00186752	0.00042781	0.00385436	0.00321185	0.00265530	0.00672424	0.00463505
1.24000000	0.00464617	0.00498178	0.00170813	0.00300006	0.00213607	0.00220490	0.00436012	0.00471215	0.00399952	0.00737836	0.00350888	0.01300766	0.00278525	0.01434433	0.00331862	0.00636613	0.00059448	0.00142191	0.00457805	0.00277267	0.00203702	0.00031148	0.00364774	0.00321145	0.00278745	0.00661251	0.00483197
1.25000000	0.00490992	0.00675563	0.00259034	0.00338668	0.00272805	0.00199456	0.00421140	0.00506674	0.00398344	0.00706371	0.00358677	0.01381503	0.00339204	0.01419440	0.00337932	0.00629258	0.00184760	0.00160005	0.00484990	0.00277259	0.00189405	0.00011790	0.00348129	0.00339473	0.00265347	0.00629140	0.00536835
1.26000000	0.00508615	0.00459896	0.00199488	0.00287672	0.00212898	0.00240305	0.00343933	0.00535311	0.00389090	0.00702887	0.00340838	0.01331550	0.00309431	0.01599064	0.00333104	0.00607539	0.00133663	0.00207586	0.00447981	0.00284963	0.00226232	0.00027531	0.00324985	0.00351113	0.00280522	0.00623505	0.00493981
1.27000000	0.00467933	0.00487738	0.00229136	0.00276747	0.00225991	0.00287587	0.00290764	0.00565915	0.00360652	0.00718108	0.00327618	0.01350419	0.00292430	0.01579962	0.00359778	0.00539804	0.00189167	0.00230305	0.00440196	0.00284651	0.00229946	0.00020642	0.00313233	0.00342193	0.00282750	0.00606379	0.00490882
1.28000000	0.00456295	0.00409468	0.00233267	0.00237462	0.00202291	0.00310787	0.00326807	0.00591612	0.00362853	0.00651090	0.00310996	0.01210916	0.00345177	0.01631103	0.00339548	0.00529864	0.00227272	0.00262036	0.00428932	0.00286419	0.00230740	0.00026249	0.00293939	0.00384002	0.00255132	0.00568240	0.00479341
1.29000000	0.00424146	0.00444100	0.00259103	0.00233508	0.00216840	0.00341369	0.00302044	0.00613464	0.00335511	0.00666303	0.00314469	0.01215100	0.00330259	0.01566052	0.00366076	0.00445629	0.00223011	0.00286370	0.00414568	0.00275953	0.00225676	0.00021703	0.00281154	0.00380988	0.00264274	0.00549150	0.00452615
1.30000000	0.00419696	0.00430009	0.00270597	0.00206056	0.00209345	0.00360030	0.00313405	0.00629089	0.00325842	0.00668107	0.00308962	0.01187266	0.00357698	0.01529203	0.00374482	0.00397484	0.00226564	0.00305284	0.00400455	0.00269073	0.00219338	0.00018768	0.00274737	0.00392462	0.00250211	0.00518639	0.00436490
1.31000000	0.00417288	0.00448772	0.00296347	0.00205765	0.00225321	0.00369196	0.00341749	0.00640990	0.00318489	0.00662369	0.00309989	0.01157721	0.00406373	0.01497830	0.00381792	0.00366216	0.00230355	0.00316889	0.00394753	0.00271168	0.00210840	0.00027797	0.00254726	0.00406812	0.00244074	0.00471213	0.00396704
1.32000000	0.00418144	0.00430008	0.00297096	0.00180999	0.00213693	0.00382380	0.00366205	0.00644582	0.00311373	0.00667170	0.00308354	0.01131378	0.00473806	0.01485689	0.00379595	0.00349630	0.00236477	0.00335593	0.00384152	0.00269686	0.00206520	0.00031096	0.00247524	0.00410428	0.00239503	0.00440166	0.00358739
1.33000000	0.00456807	0.00331676	0.00277642	0.00149423	0.00191794	0.00407768	0.00403175	0.00635490	0.00320136	0.00649638	0.00321889	0.01059180	0.00555309	0.01520425	0.00352202	0.00355253	0.00253602	0.00355036	0.00368283	0.00256499	0.00189997	0.00044835	0.00235270	0.00427034	0.00205822	0.00403506	0.00336767
1.34000000	0.00449349	0.00444908	0.00320385	0.00153994	0.00208924	0.00430853	0.00470331	0.00641390	0.00325698	0.00642250	0.00317920	0.01100498	0.00596241	0.01448397	0.00384165	0.00362370	0.00257847	0.00368478	0.00360921	0.00243526	0.00176047	0.00045382	0.00241766	0.00460735	0.00187423	0.00328660	0.00332687
1.35000000	0.00423064	0.00411668	0.00305626	0.00156593	0.00203190	0.00454862	0.00448032	0.00675022	0.00301223	0.00672360	0.00296590	0.01153613	0.00645323	0.01426287	0.00383418	0.00342426	0.00277970	0.00378478	0.00355936	0.00244993	0.00165810	0.00063994	0.00215940	0.00435219	0.00197547	0.00307899	0.00291398
1.36000000	0.00456814	0.00330505	0.00282360	0.00142119	0.00187610	0.00485659	0.00451295	0.00699121	0.00310668	0.00645086	0.00321693	0.01125505	0.00665989	0.01460431	0.00366089	0.00367002	0.00300165	0.00383716	0.00345681	0.00237639	0.00157192	0.00080816	0.00212795	0.00424746	0.00175093	0.00264707	0.00282324
1.37000000	0.00447016	0.00335003	0.00287437	0.00152592	0.00189747	0.00519567	0.00459411	0.00734126	0.00310291	0.00642055	0.00313276	0.01159940	0.00684878	0.01450165	0.00380377	0.00379668	0.00314996	0.00388558	0.00340503	0.00233959	0.00149596	0.00090683	0.00202160	0.00411546	0.00181757	0.00222447	0.00273104
1.38000000	0.00459027	0.00364737	0.00323958	0.00187625	0.00219932	0.00572488	0.00578825	0.00711912	0.00356407	0.00607253	0.00344569	0.01198789	0.00694245	0.01453575	0.00404189	0.00437638	0.00337755	0.00390824	0.00331667	0.00217926	0.00130557	0.00114911	0.00203070	0.00455912	0.00178680	0.00126617	0.00292588
1.39000000	0.00402388	0.00297477	0.00266377	0.00173511	0.00170451	0.00608078	0.00502391	0.00767701	0.00308242	0.00665506	0.00293257	0.01233009	0.00711089	0.01472950	0.00390614	0.00424104	0.00396953	0.00405053	0.00333632	0.00223089	0.00131934	0.00109553	0.00174170	0.00399547	0.00206099	0.00107266	0.00278406
1.40000000	0.00404076	0.00274846	0.00255304	0.00175453	0.00159336	0.00627710	0.00497558	0.00801949	0.00316958	0.00653713	0.00283205	0.01232519	0.00710982	0.01528937	0.00389922	0.00440578	0.00419162	0.00406440	0.00322027	0.00217511	0.00132951	0.00120250	0.00162877	0.00377434	0.00205288	0.00081422	0.00294476
1.41000000	0.00414230	0.00332032	0.00279372	0.00178011	0.00165133	0.00613785	0.00503623	0.00855540	0.00347708	0.00587220	0.00307212	0.01212359	0.00693358	0.01588341	0.00412759	0.00444979	0.00378683	0.00400558	0.00308681	0.00207587	0.00128248	0.00130646	0.00161860	0.00354689	0.00198306	0.00020440	0.00310643
1.42000000	0.00414128	0.00314720	0.00272613	0.00183204	0.00155806	0.00626354	0.00519868	0.00879640	0.00363695	0.00574598	0.00285547	0.01203200	0.00689013	0.01657835	0.00412416	0.00456182	0.00393532	0.00396256	0.00299709	0.00204621	0.00127724	0.00138541	0.00149139	0.00337641	0.00206675	0.00021360	0.00321277
1.43000000	0.00415684	0.00300041	0.00261836	0.00188595	0.00143045	0.00636311	0.00545695	0.00896438	0.00379811	0.00567064	0.00267690	0.01193840	0.00675866	0.01721879	0.00398858	0.00469631	0.00422181	0.00393352	0.00287120	0.00200613	0.00130187	0.00148142	0.00135327	0.00322346	0.00209786	0.00074023	0.00330416
1.44000000	0.00398204	0.00370277	0.00281121	0.00204768	0.00138640	0.00637835	0.00560604	0.00919992	0.00393298	0.00547568	0.00295350	0.01206006	0.00651384	0.01746466	0.00410491	0.00465829	0.00393883	0.00398375	0.00261100	0.00185965	0.00135012	0.00158452	0.00129815	0.00314630	0.00208788	0.00119781	0.00342668
1.45000000	0.00417287	0.00332024	0.00267334	0.00203898	0.00129314	0.00647092	0.00590170	0.00936056	0.00412398	0.00550872	0.00255399	0.01190018	0.00627402	0.01790607	0.00383964	0.00459134	0.00421644	0.00381308	0.00253522	0.00186944	0.00134889	0.00163923	0.00122098	0.00302696	0.00210601	0.00158400	0.00340612
1.46000000	0.00395825	0.00385796	0.00288169	0.00225376	0.00133951	0.00646701	0.00608069	0.00958727	0.00423226	0.00540461	0.00286895	0.01216392	0.00582131	0.01758312	0.00380601	0.00437419	0.00392563	0.00380875	0.00229225	0.00172911	0.00138381	0.00174606	0.00117813	0.00292445	0.00208353	0.00211273	0.00341162
1.47000000	0.00420845	0.00335887	0.00243475	0.00227542	0.00106805	0.00663540	0.00649005	0.00954961	0.00433912	0.00561922	0.00261332	0.01191010	0.00522951	0.01740824	0.00348194	0.00414340	0.00398946	0.00374607	0.00207413	0.00163845	0.00142981	0.00185678	0.00127509	0.00302441	0.00198332	0.00240333	0.00341299
1.48000000	0.00411373	0.00362969	0.00283571	0.00237847	0.00136239	0.00647003	0.00655698	0.00993804	0.00446744	0.00559213	0.00254360	0.01155005	0.00461839	0.01629960	0.00328024	0.00369011	0.00367600	0.00343496	0.00194748	0.00158849	0.00138776	0.00186366	0.00156300	0.00298632	0.00197532	0.00285172	0.00332008
1.49000000	0.00397861	0.00353609	0.00281868	0.00248118	0.00140374	0.00648951	0.00672678	0.01009299	0.00448843	0.00575340	0.00258756	0.01100646	0.00382352	0.01472992	0.00304517	0.00318867	0.00337123	0.00327321	0.00173109	0.00144181	0.00138807	0.00194037	0.00183573	0.00305439	0.00190889	0.00325393	0.00324388
1.50000000	0.00363367	0.00340537	0.00290986	0.00266964	0.00158108	0.00667921	0.00678016	0.01016909	0.00438454	0.00596764	0.00301132	0.01057891	0.00302721	0.01216649	0.00278768	0.00265758	0.00297122	0.00315059	0.00153031	0.00123973	0.00141844	0.00204325	0.00208493	0.00313418	0.00189984	0.00365522	0.00311057
1.51000000	0.00367548	0.00307147	0.00258788	0.00265887	0.00151249	0.00682966	0.00687191	0.01022093	0.00436955	0.00624303	0.00284313	0.00920494	0.00213985	0.00982239	0.00243417	0.00210843	0.00277123	0.00290192	0.00146827	0.00116434	0.00139560	0.00210006	0.00246960	0.00337140	0.00178013	0.00398764	0.00299260
1.52000000	0.00341677	0.00291726	0.00251459	0.00275097	0.00161986	0.00705182	0.00692567	0.01032973	0.00429225	0.00635139	0.00299773	0.00778815	0.00129256	0.00703178	0.00225112	0.00145056	0.00241201	0.00274953	0.00139223	0.00097567	0.00138964	0.00217722	0.00283107	0.00366091	0.00173860	0.00426971	0.00285878
1.53000000	0.00293685	0.00280809	0.00258839	0.00290902	0.00178338	0.00728096	0.00685007	0.01052709	0.00413906	0.00640791	0.00336274	0.00686204	0.00073839	0.00376784	0.00212933	0.00091054	0.00204697	0.00263714	0.00146466	0.00077227	0.00138518	0.00227965	0.00311172	0.00384702	0.00169699	0.00464699	0.00275510
1.54000000	0.00278449	0.00293320	0.00240691	0.00296365	0.00183574	0.00771639	0.00681918	0.01059146	0.00406401	0.00649700	0.00343971	0.00652388	0.00093974	0.00167302	0.00197542	0.00068692	0.00179591	0.00252925	0.00156789	0.00065392	0.00138315	0.00235652	0.00343595	0.00418177	0.00162865	0.00491741	0.00267344
1.55000000	0.00280781	0.00362154	0.00199711	0.00296394	0.00178837	0.00829130	0.00665339	0.01064880	0.00401599	0.00668615	0.00330555	0.00719540	0.00155757	0.00275459	0.00186309	0.00091525	0.00164401	0.00237930	0.00169162	0.00065430	0.00142173	0.00241093	0.00377142	0.00458070	0.00155211	0.00514902	0.00258507
1.56000000	0.00234803	0.00350366	0.00208509	0.00318406	0.00194982	0.00862406	0.00663590	0.01091938	0.00394128	0.00651765	0.00360396	0.00827869	0.00193824	0.00502727	0.00185717	0.00148556	0.00144405	0.00237422	0.00193590	0.00063833	0.00149168	0.00251259	0.00394258	0.00481596	0.00154146	0.00545543	0.00250355
1.57000000	0.00230064	0.00412478	0.00173059	0.00324603	0.00191992	0.00915819	0.00651458	0.01099712	0.00393468	0.00652491	0.00358755	0.00971732	0.00247270	0.00665681	0.00178016	0.00189507	0.00141483	0.00225942	0.00210254	0.00071432	0.00156085	0.00252674	0.00417392	0.00515659	0.00144676	0.00567703	0.00244776
1.58000000	0.00200251	0.00421447	0.00167330	0.00346834	0.00203616	0.00947721	0.00651610	0.01118587	0.00389461	0.00644706	0.00369877	0.01071910	0.00273810	0.00810700	0.00180072	0.00238549	0.00127309	0.00222895	0.00232348	0.00084452	0.00169249	0.00259083	0.00430244	0.00541656	0.00135075	0.00594957	0.00236526
1.59000000	0.00196443	0.00480950	0.00128979	0.00353207	0.00201411	0.00981900	0.00641977	0.01123063	0.00395255	0.00639496	0.00366847	0.01175429	0.00322420	0.00869246	0.00162811	0.00256772	0.00136687	0.00215407	0.00251021	0.00097985	0.00183935	0.00256472	0.00436246	0.00580342	0.00130322	0.00608412	0.00221390
1.60000000	0.00165153	0.00469710	0.00114661	0.00376780	0.00206961	0.00997658	0.00659878	0.01122607	0.00398221	0.00632261	0.00367782	0.01218154	0.00339917	0.00933142	0.00161161	0.00283200	0.00129710	0.00209495	0.00269210	0.00118159	0.00204903	0.00255544	0.00437250	0.00600536	0.00122391	0.00629018	0.00211733
1.61000000	0.00179610	0.00575963	0.00072349	0.00395838	0.00215630	0.00989205	0.00647203	0.01129478	0.00389180	0.00639166	0.00386698	0.01249967	0.00398835	0.00907600	0.00140146	0.00281980	0.00145704	0.00201195	0.00299447	0.00135944	0.00226924	0.00256330	0.00426118	0.00594176	0.00125965	0.00672270	0.00193731
1.62000000	0.00149485	0.00554873	0.00055471	0.00417874	0.00228636	0.00981737	0.00676058	0.01090920	0.00413846	0.00616296	0.00380352	0.01266355	0.00370491	0.00929622	0.00112399	0.00289801	0.00129206	0.00181510	0.00300594	0.00142218	0.00236477	0.00241416	0.00431463	0.00656807	0.00110896	0.00659323	0.00186376
1.63000000	0.00174848	0.00636151	0.00077672	0.00460057	0.00262948	0.00938482	0.00658352	0.01088892	0.00402073	0.00635406	0.00409536	0.01269957	0.00380369	0.00875521	0.00099186	0.00275410	0.00139974	0.00162691	0.00298489	0.00187041	0.00282926	0.00243499	0.00439740	0.00632982	0.00142391	0.00698803	0.00162059
1.64000000	0.00169456	0.00591729	0.00073160	0.00478853	0.00271803	0.00933469	0.00741241	0.01018784	0.00426859	0.00631974	0.00355450	0.01158531	0.00370269	0.00965613	0.00106640	0.00300970	0.00064554	0.00154307	0.00317023	0.00177170	0.00282633	0.00242701	0.00426187	0.00685849	0.00094243	0.00694264	0.00172448
1.65000000	0.00200195	0.00655665	0.00116185	0.00517221	0.00307859	0.00890295	0.00746423	0.00985655	0.00439478	0.00622755	0.00370790	0.01161511	0.00305351	0.00937863	0.00117880	0.00286916	0.00081241	0.00148861	0.00333180	0.00216334	0.00318382	0.00245207	0.00406179	0.00660945	0.00092182	0.00727203	0.00172462
1.66000000	0.00256299	0.00697861	0.00151901	0.00549649	0.00337404	0.00881983	0.00787969	0.00915594	0.00463927	0.00593541	0.00374779	0.01182024	0.00270191	0.00895760	0.00116639	0.00261556	0.00081244	0.00144082	0.00356948	0.00216606	0.00322554	0.00244487	0.00375296	0.00677417	0.00096862	0.00743373	0.00164738
1.67000000	0.00327814	0.00758165	0.00186033	0.00583855	0.00372503	0.00865246	0.00821159	0.00864673	0.00474094	0.00611780	0.00351204	0.01170619	0.00279486	0.00865116	0.00132800	0.00249721	0.00082269	0.00135390	0.00332837	0.00222056	0.00336855	0.00251948	0.00402131	0.00731401	0.00106945	0.00720269	0.00150601
1.68000000	0.00392993	0.00837259	0.00227146	0.00618200	0.00409726	0.00860186	0.00848434	0.00803596	0.00495994	0.00598734	0.00336955	0.01186013	0.00257211	0.00842001	0.00155903	0.00230688	0.00111426	0.00138460	0.00340290	0.00238498	0.00351989	0.00265826	0.00391651	0.00741601	0.00098782	0.00723661	0.00153024
1.69000000	0.00461674	0.00922098	0.00262623	0.00651310	0.00445174	0.00869231	0.00859888	0.00740663	0.00518578	0.00585753	0.00336079	0.01187773	0.00272340	0.00834334	0.00162656	0.00237211	0.00132323	0.00144294	0.00326264	0.00251123	0.00369809	0.00278864	0.00400040	0.00746009	0.00103281	0.00735562	0.00152311
1.70000000	0.00513506	0.01032128	0.00290598	0.00649505	0.00459169	0.00870483	0.00877589	0.00685427	0.00552017	0.00556631	0.00316390	0.01124448	0.00330862	0.00887831	0.00184940	0.00255074	0.00152310	0.00163133	0.00323041	0.00257345	0.00377716	0.00297545	0.00396064	0.00752983	0.00102001	0.00742891	0.00152671
1.71000000	0.00601387	0.01096658	0.00321581	0.00684906	0.00492939	0.00891768	0.00873626	0.00610570	0.00570789	0.00545993	0.00301752	0.01145105	0.00341292	0.00901642	0.00169990	0.00255543	0.00165755	0.00163589	0.00331795	0.00270901	0.00388284	0.00316949	0.00378549	0.00749312	0.00115307	0.00751623	0.00145290
1.72000000	0.00688865	0.01122148	0.00356114	0.00718260	0.00527217	0.00927645	0.00843847	0.00519805	0.00600286	0.00526167	0.00273032	0.01136417	0.00371641	0.00954383	0.00142903	0.00251307	0.00188478	0.00154883	0.00345280	0.00301337	0.00410606	0.00343878	0.00358802	0.00716764	0.00135396	0.00778636	0.00132410
1.73000000	0.00752365	0.01229303	0.00367538	0.00726080	0.00537913	0.00920696	0.00828897	0.00454822	0.00616031	0.00519475	0.00298888	0.01076201	0.00398863	0.00931165	0.00137666	0.00262001	0.00154609	0.00170920	0.00324346	0.00288983	0.00400166	0.00352352	0.00364242	0.00759918	0.00142183	0.00749210	0.00129367
1.74000000	0.00819577	0.01268061	0.00379200	0.00733779	0.00547873	0.00904579	0.00783590	0.00389369	0.00644242	0.00490737	0.00317769	0.00987325	0.00419621	0.00914399	0.00133740	0.00252142	0.00135291	0.00180070	0.00314171	0.00287198	0.00392506	0.00362813	0.00359442	0.00764210	0.00153420	0.00752778	0.00119148
1.75000000	0.00890894	0.01277205	0.00386333	0.00731674	0.00551000	0.00907023	0.00708236	0.00305048	0.00664892	0.00465122	0.00245913	0.00852524	0.00403489	0.00879981	0.00122385	0.00252276	0.00168947	0.00173060	0.00325495	0.00298841	0.00395967	0.00383406	0.00327781	0.00750473	0.00160121	0.00764057	0.00112055
1.76000000	0.00968167	0.01205595	0.00366185	0.00748453	0.00548576	0.00837779	0.00642194	0.00272038	0.00692529	0.00422655	0.00296752	0.00778018	0.00371929	0.00731618	0.00086026	0.00176778	0.00094504	0.00163728	0.00289067	0.00302381	0.00394894	0.00371472	0.00331024	0.00772859	0.00165105	0.00739461	0.00097121
1.77000000	0.00992804	0.01187815	0.00356470	0.00712518	0.00525694	0.00810376	0.00521587	0.00234903	0.00712837	0.00404470	0.00238832	0.00607590	0.00375662	0.00615591	0.00109300	0.00153467	0.00115352	0.00162687	0.00295273	0.00302382	0.00381516	0.00382224	0.00301723	0.00753980	0.00168843	0.00755207	0.00084258
1.78000000	0.01021483	0.01084375	0.00325513	0.00691169	0.00498640	0.00729519	0.00397007	0.00255627	0.00730665	0.00392179	0.00302746	0.00499557	0.00350336	0.00472531	0.00106767	0.00125137	0.00107523	0.00155593	0.00272022	0.00297583	0.00362897	0.00371284	0.00300353	0.00762125	0.00161257	0.00742831	0.00100092
1.79000000	0.01054511	0.00918046	0.00277294	0.00670848	0.00462876	0.00623830	0.00248439	0.00287703	0.00729210	0.00373061	0.00285022	0.00445779	0.00303300	0.00297035	0.00086385	0.00115103	0.00080603	0.00144574	0.00257458	0.00299452	0.00352181	0.00363996	0.00290499	0.00761531	0.00160354	0.00730094	0.00080057
1.80000000	0.01002214	0.00819282	0.00248166	0.00602430	0.00412538	0.00529967	0.00082526	0.00353878	0.00729122	0.00381057	0.00294811	0.00371974	0.00306778	0.00189584	0.00095785	0.00128906	0.00066674	0.00147302	0.00236260	0.00289212	0.00330071	0.00352194	0.00298025	0.00757764	0.00151513	0.00725702	0.00084981
1.81000000	0.00938301	0.00685576	0.00215039	0.00534836	0.00359098	0.00429867	0.00147828	0.00412967	0.00724310	0.00387268	0.00290420	0.00292304	0.00283840	0.00140326	0.00107557	0.00150160	0.00064569	0.00152946	0.00213920	0.00278975	0.00304352	0.00338277	0.00317866	0.00752840	0.00138197	0.00715926	0.00099954
1.82000000	0.00856028	0.00553639	0.00190269	0.00463767	0.00306353	0.00347480	0.00308981	0.00473994	0.00715281	0.00393471	0.00266728	0.00208146	0.00248279	0.00145062	0.00116930	0.00186927	0.00044608	0.00162818	0.00184246	0.00264873	0.00279326	0.00318289	0.00347695	0.00746872	0.00129387	0.00705065	0.00115630
1.83000000	0.00788286	0.00409714	0.00178568	0.00409207	0.00263489	0.00286115	0.00429953	0.00550880	0.00703377	0.00407838	0.00258137	0.00192756	0.00197407	0.00194187	0.00130786	0.00182285	0.00069366	0.00166249	0.00152779	0.00249223	0.00250052	0.00296195	0.00379364	0.00741508	0.00117184	0.00684461	0.00139375
1.84000000	0.00719046	0.00322452	0.00193429	0.00368588	0.00245360	0.00327619	0.00518977	0.00637738	0.00701728	0.00429367	0.00216155	0.00278609	0.00162203	0.00276473	0.00140975	0.00185261	0.00087340	0.00171979	0.00128189	0.00241490	0.00229141	0.00281886	0.00404942	0.00722642	0.00115404	0.00664731	0.00154682
1.85000000	0.00646164	0.00293489	0.00219918	0.00329816	0.00240801	0.00407597	0.00579836	0.00766130	0.00704376	0.00489541	0.00170209	0.00354083	0.00176464	0.00392866	0.00164894	0.00163575	0.00109149	0.00177332	0.00113111	0.00232542	0.00205696	0.00274183	0.00423697	0.00704898	0.00119034	0.00637929	0.00164030
1.86000000	0.00577059	0.00274407	0.00242368	0.00311337	0.00244353	0.00532658	0.00637436	0.00899071	0.00728887	0.00520758	0.00173636	0.00475418	0.00162031	0.00465820	0.00167580	0.00177001	0.00118160	0.00175113	0.00107804	0.00231658	0.00183639	0.00264833	0.00437096	0.00674510	0.00119685	0.00607686	0.00171764
1.87000000	0.00489024	0.00227123	0.00256618	0.00285990	0.00242775	0.00679211	0.00706123	0.01027028	0.00777267	0.00514168	0.00235610	0.00574378	0.00143136	0.00522687	0.00164873	0.00188121	0.00129362	0.00176252	0.00112569	0.00230795	0.00164270	0.00251802	0.00449157	0.00632309	0.00133122	0.00581787	0.00172411
1.88000000	0.00441683	0.00260816	0.00282478	0.00282035	0.00252113	0.00739127	0.00768267	0.01147319	0.00803665	0.00594190	0.00238573	0.00599189	0.00154144	0.00545457	0.00169000	0.00178149	0.00129128	0.00172271	0.00127436	0.00227540	0.00145694	0.00241247	0.00447169	0.00600959	0.00122403	0.00536997	0.00176838
1.89000000	0.00357275	0.00257211	0.00291167	0.00259644	0.00245040	0.00747187	0.00856037	0.01260261	0.00835412	0.00650586	0.00289585	0.00599642	0.00142959	0.00538295	0.00161975	0.00175826	0.00124453	0.00168679	0.00153528	0.00231448	0.00124450	0.00231269	0.00453253	0.00554817	0.00119808	0.00501103	0.00173642
1.90000000	0.00267960	0.00245898	0.00302873	0.00251315	0.00244404	0.00806606	0.00957061	0.01325086	0.00874135	0.00644935	0.00298656	0.00552197	0.00123104	0.00531657	0.00147013	0.00163717	0.00144563	0.00167464	0.00176540	0.00227219	0.00109113	0.00212154	0.00454631	0.00506775	0.00121173	0.00464430	0.00171282
1.91000000	0.00208738	0.00275203	0.00310535	0.00240114	0.00237361	0.00782895	0.01065218	0.01410446	0.00892489	0.00664902	0.00288410	0.00489895	0.00121640	0.00482906	0.00141258	0.00145785	0.00129801	0.00160065	0.00204277	0.00223295	0.00094760	0.00196163	0.00454291	0.00465038	0.00116226	0.00420380	0.00160058
1.92000000	0.00147973	0.00298446	0.00309830	0.00224100	0.00223299	0.00747349	0.01185413	0.01498337	0.00900641	0.00660205	0.00298776	0.00447064	0.00098136	0.00407228	0.00116318	0.00140501	0.00095126	0.00155607	0.00231921	0.00231389	0.00081760	0.00183025	0.00456973	0.00413122	0.00114296	0.00374596	0.00144661
1.93000000	0.00156775	0.00303658	0.00312670	0.00230321	0.00215673	0.00748224	0.01304941	0.01570892	0.00908440	0.00647862	0.00282405	0.00380454	0.00073019	0.00392495	0.00102280	0.00133460	0.00124847	0.00155914	0.00248485	0.00233880	0.00073087	0.00166006	0.00462632	0.00370790	0.00119951	0.00328165	0.00129903
1.94000000	0.00242129	0.00315605	0.00316881	0.00237000	0.00204170	0.00733471	0.01411836	0.01666254	0.00913480	0.00624934	0.00298664	0.00350086	0.00085239	0.00371108	0.00106170	0.00116565	0.00134435	0.00155871	0.00277674	0.00223144	0.00080477	0.00147124	0.00466216	0.00323531	0.00128383	0.00297399	0.00112851
1.95000000	0.00176538	0.00352551	0.00315554	0.00217550	0.00189612	0.00690296	0.01523976	0.01787096	0.00900291	0.00626368	0.00285304	0.00355380	0.00082367	0.00328721	0.00096089	0.00109232	0.00107005	0.00157771	0.00303059	0.00228413	0.00081025	0.00131830	0.00465178	0.00269851	0.00112423	0.00247201	0.00096581
1.96000000	0.00272927	0.00359030	0.00311614	0.00228167	0.00174791	0.00681169	0.01605565	0.01891459	0.00901151	0.00606934	0.00300337	0.00367541	0.00074637	0.00315933	0.00087918	0.00115561	0.00117446	0.00163565	0.00322086	0.00225066	0.00092134	0.00114942	0.00472810	0.00217883	0.00124029	0.00216706	0.00078602
1.97000000	0.00402117	0.00365315	0.00311217	0.00252437	0.00148837	0.00697130	0.01656201	0.01985170	0.00916968	0.00547673	0.00365108	0.00411100	0.00100741	0.00321297	0.00107962	0.00115773	0.00069181	0.00167047	0.00336502	0.00220670	0.00113195	0.00101526	0.00499146	0.00239144	0.00156881	0.00158443	0.00080449
1.98000000	0.00381843	0.00370866	0.00312708	0.00247547	0.00148081	0.00660682	0.01711332	0.02089617	0.00905944	0.00575781	0.00344954	0.00436988	0.00088287	0.00325225	0.00096492	0.00121032	0.00106528	0.00179245	0.00364091	0.00219245	0.00109446	0.00088669	0.00483442	0.00129484	0.00144764	0.00145792	0.00071225
1.99000000	0.00368816	0.00394456	0.00315751	0.00241465	0.00136638	0.00646054	0.01743194	0.02179009	0.00902597	0.00567177	0.00363901	0.00485848	0.00099289	0.00337128	0.00100813	0.00126139	0.00088210	0.00191418	0.00390904	0.00215963	0.00112692	0.00081954	0.00479839	0.00089728	0.00150366	0.00103351	0.00060225
2.00000000	0.00407469	0.00372096	0.00317905	0.00258362	0.00118759	0.00683664	0.01755485	0.02243118	0.00919757	0.00540371	0.00374381	0.00542486	0.00106088	0.00347180	0.00107384	0.00139141	0.00054570	0.00204340	0.00403134	0.00216401	0.00120828	0.00075183	0.00490332	0.00086446	0.00169497	0.00047173	0.00055055
2.01000000	0.00372209	0.00401872	0.00310288	0.00250453	0.00104833	0.00665748	0.01754459	0.02306924	0.00916974	0.00571217	0.00401012	0.00588252	0.00126582	0.00377698	0.00103477	0.00142091	0.00080576	0.00211019	0.00427729	0.00205975	0.00126980	0.00071078	0.00487230	0.00033854	0.00167376	0.00027189	0.00051365
2.02000000	0.00371246	0.00387956	0.00324127	0.00259279	0.00096567	0.00715075	0.01738474	0.02353328	0.00938421	0.00562803	0.00411830	0.00639701	0.00123612	0.00399941	0.00113179	0.00150166	0.00053977	0.00220729	0.00450835	0.00200399	0.00129787	0.00071365	0.00481593	0.00029024	0.00190534	0.00026425	0.00055102
2.03000000	0.00348995	0.00395652	0.00315964	0.00274965	0.00092487	0.00747616	0.01713017	0.02393857	0.00952697	0.00586252	0.00426560	0.00670203	0.00144327	0.00436353	0.00112269	0.00151278	0.00083639	0.00229914	0.00460830	0.00188451	0.00136446	0.00063127	0.00480042	0.00025602	0.00187424	0.00028910	0.00073475
2.04000000	0.00320571	0.00389687	0.00326969	0.00275725	0.00083370	0.00796170	0.01675996	0.02434216	0.00974276	0.00592812	0.00437477	0.00700413	0.00146569	0.00468565	0.00122632	0.00152602	0.00067505	0.00238188	0.00483677	0.00180815	0.00138900	0.00066501	0.00470920	0.00032716	0.00206666	0.00064617	0.00079962
2.05000000	0.00288909	0.00394280	0.00327182	0.00284006	0.00080091	0.00837503	0.01633829	0.02469411	0.00985274	0.00615645	0.00453243	0.00719787	0.00161706	0.00502455	0.00129410	0.00151879	0.00077877	0.00249300	0.00496890	0.00172666	0.00140066	0.00065281	0.00462329	0.00062103	0.00207382	0.00083882	0.00097934
2.06000000	0.00196464	0.00396631	0.00329134	0.00272771	0.00069322	0.00905092	0.01587459	0.02512592	0.01002632	0.00604887	0.00464981	0.00761537	0.00220100	0.00493038	0.00146767	0.00165124	0.00074346	0.00262494	0.00509857	0.00166505	0.00139986	0.00060683	0.00452587	0.00020677	0.00244953	0.00164048	0.00095631
2.07000000	0.00286676	0.00408776	0.00322624	0.00319001	0.00081878	0.00917609	0.01527686	0.02518494	0.00977672	0.00668074	0.00480829	0.00758202	0.00190433	0.00568035	0.00135128	0.00149202	0.00119680	0.00277178	0.00522809	0.00155788	0.00140378	0.00066847	0.00441535	0.00077074	0.00198157	0.00138131	0.00118221
2.08000000	0.00200663	0.00400139	0.00332750	0.00300184	0.00071848	0.00982657	0.01455773	0.02548804	0.00976562	0.00685360	0.00494566	0.00786952	0.00208221	0.00572609	0.00152205	0.00155117	0.00095749	0.00284759	0.00535828	0.00150583	0.00142258	0.00073475	0.00428782	0.00089373	0.00207514	0.00164917	0.00129156
2.09000000	0.00233822	0.00403517	0.00324330	0.00326853	0.00065239	0.01054857	0.01384702	0.02533637	0.00955809	0.00707208	0.00490448	0.00807936	0.00220232	0.00601510	0.00152713	0.00146293	0.00139716	0.00303053	0.00535550	0.00147151	0.00146111	0.00086167	0.00433354	0.00124507	0.00186705	0.00173751	0.00151363
2.10000000	0.00165245	0.00389026	0.00336156	0.00317695	0.00078868	0.01101844	0.01285964	0.02533236	0.00931845	0.00723885	0.00507852	0.00843926	0.00223783	0.00619511	0.00167693	0.00163568	0.00103682	0.00318812	0.00547379	0.00138191	0.00141906	0.00082351	0.00401135	0.00142976	0.00198057	0.00190476	0.00154937
2.11000000	0.00154329	0.00369556	0.00341061	0.00322953	0.00085746	0.01153818	0.01190307	0.02484967	0.00894204	0.00738030	0.00505773	0.00875872	0.00232484	0.00643033	0.00175652	0.00168377	0.00110500	0.00336445	0.00548174	0.00133105	0.00143204	0.00086842	0.00387770	0.00166503	0.00192653	0.00204195	0.00174038
2.12000000	0.00169944	0.00336431	0.00339171	0.00340348	0.00089285	0.01199284	0.01084337	0.02386664	0.00855351	0.00744712	0.00472342	0.00907698	0.00245390	0.00673889	0.00183255	0.00160485	0.00128602	0.00359078	0.00541319	0.00129894	0.00146701	0.00097801	0.00383690	0.00190385	0.00181098	0.00217583	0.00197659
2.13000000	0.00163763	0.00278375	0.00358297	0.00308603	0.00101347	0.01187691	0.00932528	0.02284389	0.00815286	0.00767749	0.00463070	0.00944176	0.00243264	0.00681549	0.00195544	0.00163703	0.00105242	0.00370017	0.00534375	0.00131159	0.00147865	0.00097643	0.00371703	0.00194184	0.00189059	0.00244285	0.00217466
2.14000000	0.00192186	0.00241255	0.00355956	0.00357324	0.00121261	0.01190024	0.00814848	0.02044674	0.00770736	0.00742331	0.00413161	0.00969750	0.00242296	0.00726292	0.00176959	0.00178920	0.00133764	0.00410102	0.00524820	0.00118698	0.00150258	0.00101566	0.00356533	0.00221214	0.00177886	0.00246002	0.00242799
2.15000000	0.00229873	0.00184506	0.00377505	0.00301405	0.00125204	0.01093344	0.00672135	0.01832851	0.00728982	0.00731238	0.00383696	0.01003144	0.00246041	0.00718025	0.00193720	0.00164655	0.00113860	0.00424345	0.00517795	0.00124710	0.00153248	0.00109091	0.00350252	0.00240644	0.00183948	0.00256823	0.00266922
2.16000000	0.00223335	0.00147240	0.00381007	0.00344923	0.00147375	0.01007921	0.00573803	0.01471346	0.00686755	0.00673543	0.00330572	0.01018927	0.00246905	0.00751624	0.00179963	0.00173706	0.00143534	0.00464752	0.00500450	0.00120352	0.00158560	0.00113128	0.00336934	0.00270806	0.00187415	0.00251030	0.00291665
2.17000000	0.00328996	0.00108972	0.00403394	0.00290916	0.00160981	0.00837718	0.00469966	0.01152600	0.00651063	0.00618429	0.00316929	0.01049141	0.00259135	0.00726277	0.00188929	0.00165240	0.00130286	0.00487716	0.00492056	0.00130387	0.00161741	0.00120408	0.00326319	0.00288270	0.00190640	0.00252210	0.00315619
2.18000000	0.00321180	0.00152999	0.00406688	0.00321046	0.00179903	0.00733361	0.00349429	0.00721044	0.00638009	0.00495607	0.00239628	0.01067210	0.00242988	0.00740559	0.00175507	0.00161399	0.00146749	0.00525415	0.00466522	0.00127405	0.00166585	0.00121816	0.00327922	0.00310925	0.00194757	0.00248683	0.00343559
2.19000000	0.00472024	0.00173371	0.00422550	0.00264695	0.00193544	0.00647971	0.00298116	0.00364776	0.00602294	0.00435605	0.00236096	0.01096444	0.00266877	0.00703073	0.00187445	0.00148658	0.00143146	0.00546847	0.00458623	0.00139647	0.00173499	0.00130854	0.00324741	0.00324458	0.00198365	0.00243039	0.00359810
2.20000000	0.00466620	0.00243990	0.00431111	0.00279295	0.00205481	0.00694782	0.00235740	0.00274345	0.00604808	0.00303505	0.00184046	0.01112453	0.00245034	0.00711437	0.00170977	0.00149922	0.00164368	0.00584091	0.00438048	0.00142218	0.00177264	0.00134168	0.00326358	0.00342775	0.00214276	0.00234332	0.00374868
2.21000000	0.00650992	0.00263890	0.00441700	0.00228853	0.00224471	0.00919980	0.00216361	0.00500729	0.00573445	0.00308769	0.00167902	0.01140240	0.00258508	0.00682539	0.00197385	0.00125009	0.00147579	0.00600832	0.00427141	0.00147065	0.00185000	0.00143497	0.00340264	0.00354844	0.00206449	0.00223569	0.00390146
2.22000000	0.00652839	0.00310695	0.00448723	0.00234624	0.00230746	0.01094250	0.00202075	0.00852301	0.00588818	0.00276735	0.00129602	0.01163564	0.00247206	0.00682591	0.00178906	0.00129253	0.00160904	0.00638359	0.00411878	0.00152389	0.00185057	0.00144149	0.00334715	0.00362391	0.00225413	0.00217081	0.00400891
2.23000000	0.00738039	0.00328966	0.00458831	0.00214493	0.00243675	0.01315831	0.00198954	0.01073150	0.00576938	0.00348199	0.00148821	0.01187488	0.00250687	0.00674873	0.00180637	0.00124643	0.00168857	0.00656123	0.00405120	0.00160590	0.00190987	0.00148450	0.00338817	0.00365192	0.00235067	0.00210664	0.00410113
2.24000000	0.00792847	0.00330389	0.00470378	0.00200665	0.00255060	0.01484037	0.00202110	0.01210172	0.00557790	0.00418998	0.00170850	0.01210835	0.00263829	0.00671374	0.00186165	0.00107540	0.00175642	0.00670128	0.00401137	0.00164841	0.00195737	0.00153615	0.00345267	0.00367844	0.00249812	0.00205225	0.00417034
2.25000000	0.00915610	0.00397701	0.00481591	0.00161615	0.00267552	0.01572245	0.00153948	0.01195871	0.00543653	0.00476631	0.00221485	0.01221854	0.00276768	0.00682511	0.00189868	0.00116235	0.00179783	0.00684040	0.00417542	0.00170368	0.00207604	0.00159140	0.00325564	0.00352957	0.00212223	0.00216519	0.00446500
2.26000000	0.00997156	0.00417646	0.00492982	0.00149529	0.00282790	0.01528303	0.00111640	0.01112644	0.00516916	0.00464041	0.00223727	0.01232354	0.00297857	0.00690999	0.00206240	0.00118322	0.00180465	0.00692597	0.00434646	0.00163174	0.00220209	0.00159365	0.00315463	0.00342773	0.00187999	0.00237934	0.00479239
2.27000000	0.00796800	0.00292468	0.00491617	0.00190897	0.00269618	0.01364955	0.00107952	0.01058517	0.00499088	0.00423800	0.00153583	0.01217152	0.00283609	0.00733214	0.00232352	0.00125345	0.00175517	0.00690539	0.00388450	0.00173657	0.00201659	0.00160912	0.00348040	0.00368023	0.00271166	0.00191811	0.00478442
2.28000000	0.00843647	0.00303434	0.00508146	0.00172692	0.00285969	0.01074806	0.00062370	0.00875791	0.00463543	0.00348795	0.00190935	0.01216068	0.00297748	0.00728910	0.00253165	0.00140928	0.00168896	0.00677329	0.00423200	0.00163142	0.00225298	0.00148846	0.00327378	0.00333925	0.00219189	0.00248069	0.00521897
2.29000000	0.00651472	0.00316860	0.00500126	0.00183799	0.00256728	0.00829558	0.00107485	0.00681418	0.00474073	0.00350531	0.00157028	0.01183442	0.00274154	0.00756009	0.00255466	0.00158840	0.00166197	0.00687907	0.00384069	0.00160818	0.00196817	0.00141366	0.00317345	0.00352150	0.00323358	0.00209824	0.00504135
2.30000000	0.00575856	0.00317175	0.00486424	0.00175260	0.00237045	0.00568233	0.00177872	0.00502839	0.00456721	0.00348683	0.00188284	0.01158844	0.00290325	0.00737850	0.00285197	0.00176159	0.00152707	0.00677668	0.00381236	0.00155442	0.00197609	0.00131160	0.00291989	0.00340568	0.00336995	0.00228231	0.00526355
2.31000000	0.00463460	0.00304094	0.00484971	0.00176319	0.00230496	0.00465600	0.00178878	0.00345344	0.00404220	0.00486162	0.00247934	0.01136733	0.00287326	0.00675787	0.00287770	0.00163944	0.00126530	0.00648929	0.00382606	0.00147056	0.00190248	0.00133096	0.00278396	0.00328036	0.00371023	0.00249722	0.00537921
2.32000000	0.00400382	0.00304329	0.00459416	0.00170168	0.00207611	0.00359590	0.00257988	0.00285339	0.00402269	0.00515197	0.00268856	0.01095934	0.00315838	0.00625568	0.00314913	0.00168008	0.00120079	0.00624705	0.00375145	0.00128971	0.00189180	0.00118027	0.00249727	0.00316713	0.00379361	0.00275999	0.00569963
2.33000000	0.00353684	0.00302809	0.00430392	0.00175740	0.00193172	0.00316727	0.00309299	0.00264452	0.00395660	0.00528158	0.00350812	0.01054806	0.00326094	0.00546688	0.00319272	0.00128123	0.00152204	0.00601485	0.00376569	0.00099789	0.00195093	0.00116161	0.00200631	0.00286818	0.00322515	0.00335101	0.00654691
2.34000000	0.00298424	0.00300271	0.00412544	0.00153926	0.00177983	0.00275328	0.00346881	0.00274339	0.00390392	0.00594289	0.00288523	0.00992315	0.00354881	0.00454199	0.00334719	0.00109461	0.00130961	0.00534558	0.00351318	0.00107103	0.00185225	0.00101922	0.00203153	0.00281154	0.00443370	0.00346957	0.00627499
2.35000000	0.00267659	0.00254891	0.00360530	0.00143206	0.00148633	0.00214880	0.00362293	0.00284244	0.00386521	0.00605132	0.00314243	0.00920146	0.00410876	0.00333362	0.00328721	0.00027020	0.00166395	0.00500846	0.00345311	0.00071509	0.00185538	0.00113355	0.00153196	0.00258248	0.00436077	0.00391568	0.00687501
2.36000000	0.00226617	0.00205107	0.00295503	0.00144729	0.00113547	0.00121012	0.00400316	0.00313382	0.00410258	0.00567870	0.00360171	0.00821138	0.00479623	0.00218238	0.00296755	0.00136699	0.00251068	0.00468564	0.00335416	0.00046630	0.00192410	0.00146957	0.00112671	0.00232264	0.00397429	0.00441574	0.00782185
2.37000000	0.00229229	0.00216398	0.00304231	0.00099621	0.00117109	0.00110487	0.00340327	0.00354041	0.00397406	0.00628063	0.00309565	0.00738118	0.00406160	0.00165347	0.00313494	0.00158739	0.00237427	0.00367679	0.00321419	0.00053858	0.00198572	0.00137964	0.00121451	0.00254707	0.00553846	0.00461500	0.00736584
2.38000000	0.00197639	0.00144125	0.00212157	0.00110503	0.00058498	0.00157514	0.00325036	0.00402627	0.00396730	0.00620295	0.00315247	0.00607061	0.00483863	0.00236291	0.00289098	0.00267458	0.00299428	0.00327829	0.00300883	0.00049006	0.00212816	0.00178545	0.00100578	0.00223971	0.00539988	0.00510617	0.00810891
2.39000000	0.00207662	0.00177147	0.00196954	0.00099790	0.00043662	0.00187263	0.00275682	0.00423879	0.00400459	0.00628012	0.00305905	0.00548962	0.00416296	0.00398524	0.00293672	0.00351508	0.00314383	0.00258981	0.00301928	0.00038153	0.00223377	0.00177078	0.00098507	0.00243974	0.00628034	0.00540627	0.00811654
2.40000000	0.00196211	0.00203416	0.00141773	0.00123496	0.00026619	0.00222054	0.00229018	0.00445571	0.00399510	0.00619835	0.00311169	0.00530312	0.00410113	0.00567532	0.00267848	0.00416460	0.00341117	0.00203051	0.00294806	0.00059834	0.00240261	0.00205146	0.00114716	0.00232407	0.00653392	0.00584727	0.00850103
2.41000000	0.00242778	0.00238852	0.00115711	0.00147047	0.00054338	0.00255586	0.00188950	0.00446113	0.00399000	0.00630123	0.00310171	0.00613727	0.00363055	0.00733335	0.00268888	0.00473399	0.00292158	0.00149066	0.00291821	0.00084475	0.00257226	0.00222437	0.00137035	0.00254113	0.00688388	0.00611050	0.00875198
2.42000000	0.00269929	0.00275596	0.00094707	0.00173154	0.00086597	0.00276505	0.00144950	0.00459795	0.00402621	0.00632935	0.00309219	0.00741123	0.00336362	0.00892342	0.00263805	0.00504403	0.00249378	0.00099888	0.00297238	0.00110749	0.00270979	0.00247289	0.00163909	0.00264002	0.00714981	0.00640660	0.00898022
2.43000000	0.00317314	0.00302916	0.00093906	0.00201487	0.00116030	0.00285598	0.00106607	0.00485791	0.00411458	0.00631600	0.00307136	0.00876035	0.00306526	0.01036943	0.00275094	0.00523813	0.00169008	0.00047371	0.00294603	0.00134531	0.00282675	0.00268145	0.00186188	0.00297831	0.00733965	0.00662646	0.00921381
2.44000000	0.00329288	0.00324858	0.00123031	0.00207494	0.00142685	0.00287028	0.00106541	0.00520057	0.00434556	0.00614561	0.00307846	0.00905422	0.00303263	0.01211910	0.00295893	0.00568592	0.00093404	0.00010181	0.00306881	0.00160751	0.00298530	0.00288318	0.00207173	0.00326847	0.00748339	0.00676832	0.00938192
2.45000000	0.00327430	0.00347585	0.00157871	0.00232979	0.00183140	0.00295307	0.00085604	0.00550268	0.00438266	0.00621704	0.00312817	0.01063699	0.00318199	0.01306166	0.00331019	0.00540365	0.00188377	0.00043746	0.00311776	0.00192974	0.00306824	0.00316521	0.00223017	0.00347727	0.00755810	0.00689176	0.00959218
2.46000000	0.00383664	0.00342212	0.00172779	0.00228168	0.00182864	0.00321640	0.00111000	0.00579175	0.00477537	0.00609474	0.00309628	0.01075284	0.00332555	0.01468277	0.00342216	0.00560995	0.00228160	0.00092571	0.00327877	0.00206232	0.00311169	0.00323916	0.00227379	0.00407194	0.00770566	0.00687870	0.00963177
2.47000000	0.00386146	0.00328457	0.00198037	0.00212519	0.00189385	0.00335804	0.00119435	0.00599746	0.00495556	0.00622239	0.00306710	0.01102005	0.00378717	0.01617669	0.00364243	0.00556469	0.00274762	0.00137792	0.00340365	0.00222112	0.00314352	0.00341550	0.00227774	0.00441142	0.00773516	0.00692373	0.00974020
2.48000000	0.00365608	0.00351401	0.00256997	0.00221572	0.00227652	0.00357682	0.00134223	0.00621372	0.00509633	0.00614366	0.00309944	0.01178683	0.00455984	0.01726038	0.00384385	0.00532650	0.00302129	0.00170065	0.00340869	0.00246669	0.00311553	0.00360945	0.00229619	0.00474658	0.00782381	0.00679293	0.00974799
2.49000000	0.00365910	0.00344757	0.00281512	0.00200982	0.00229070	0.00380383	0.00150901	0.00633452	0.00529030	0.00612222	0.00306984	0.01186066	0.00546468	0.01873713	0.00381661	0.00529172	0.00312276	0.00208601	0.00352939	0.00259051	0.00308453	0.00369437	0.00218363	0.00504096	0.00778551	0.00667877	0.00974131
2.50000000	0.00392121	0.00301151	0.00279760	0.00155855	0.00204059	0.00383275	0.00170063	0.00631714	0.00552953	0.00619055	0.00302133	0.01093732	0.00627031	0.02050712	0.00364657	0.00535701	0.00341585	0.00247384	0.00360671	0.00259599	0.00299231	0.00367072	0.00205877	0.00537924	0.00767670	0.00650283	0.00968381
2.51000000	0.00368409	0.00350716	0.00326405	0.00139277	0.00219364	0.00389585	0.00184390	0.00636544	0.00568270	0.00605655	0.00290420	0.01116921	0.00711324	0.02113979	0.00383778	0.00501432	0.00327228	0.00274178	0.00357403	0.00267940	0.00289848	0.00369884	0.00189985	0.00571682	0.00752386	0.00605291	0.00960561
2.52000000	0.00354693	0.00333601	0.00333747	0.00099919	0.00204972	0.00375653	0.00188990	0.00635601	0.00574372	0.00604610	0.00291036	0.01064863	0.00782641	0.02167170	0.00382994	0.00484766	0.00342245	0.00293625	0.00356823	0.00268801	0.00272220	0.00359105	0.00183883	0.00575597	0.00737511	0.00572264	0.00942047
2.53000000	0.00323890	0.00347568	0.00344203	0.00087838	0.00196007	0.00386312	0.00193833	0.00623449	0.00573918	0.00609528	0.00277366	0.01039264	0.00834392	0.02140906	0.00388217	0.00457859	0.00344945	0.00314599	0.00351101	0.00263292	0.00256273	0.00342656	0.00163091	0.00593470	0.00725510	0.00518265	0.00914563
2.54000000	0.00298483	0.00344353	0.00349759	0.00088110	0.00183850	0.00396005	0.00213824	0.00613810	0.00574730	0.00606753	0.00269352	0.01011041	0.00872945	0.02056889	0.00398497	0.00432166	0.00342824	0.00325546	0.00334755	0.00249903	0.00234295	0.00320997	0.00148517	0.00602525	0.00705661	0.00455838	0.00894610
2.55000000	0.00260960	0.00295814	0.00341159	0.00112139	0.00173085	0.00405614	0.00216320	0.00602907	0.00563122	0.00619860	0.00257782	0.00972446	0.00888461	0.01941748	0.00403803	0.00424214	0.00366670	0.00318674	0.00328468	0.00248713	0.00215569	0.00291166	0.00149155	0.00568756	0.00677482	0.00394394	0.00875129
2.56000000	0.00270260	0.00241124	0.00331611	0.00122937	0.00167960	0.00401429	0.00231969	0.00615739	0.00569647	0.00592636	0.00276191	0.00890098	0.00875006	0.01825272	0.00389926	0.00420282	0.00372464	0.00302235	0.00308301	0.00243139	0.00194370	0.00260868	0.00151077	0.00519815	0.00642354	0.00337042	0.00865713
2.57000000	0.00227370	0.00180587	0.00308462	0.00158378	0.00148710	0.00435008	0.00258122	0.00601233	0.00554206	0.00615866	0.00259746	0.00878478	0.00857940	0.01677213	0.00411221	0.00410791	0.00378588	0.00294083	0.00289054	0.00222523	0.00175090	0.00224120	0.00146621	0.00501283	0.00630414	0.00253674	0.00841007
2.58000000	0.00215664	0.00137505	0.00298921	0.00180367	0.00147174	0.00437456	0.00292145	0.00620119	0.00556962	0.00601980	0.00252067	0.00846621	0.00839920	0.01545528	0.00404624	0.00401983	0.00382425	0.00267660	0.00269461	0.00219517	0.00155659	0.00191859	0.00164111	0.00441676	0.00587986	0.00184762	0.00835747
2.59000000	0.00203377	0.00145847	0.00296817	0.00196186	0.00139977	0.00454627	0.00309331	0.00641480	0.00555043	0.00584311	0.00275056	0.00820979	0.00798376	0.01435429	0.00408652	0.00380421	0.00363833	0.00245557	0.00242290	0.00202098	0.00137874	0.00164980	0.00169143	0.00393144	0.00563783	0.00120360	0.00824604
2.60000000	0.00172787	0.00101014	0.00258585	0.00223580	0.00116793	0.00496136	0.00349481	0.00642843	0.00543236	0.00613152	0.00247162	0.00818925	0.00749503	0.01356466	0.00399302	0.00369058	0.00392510	0.00227443	0.00218079	0.00183125	0.00129802	0.00142053	0.00181710	0.00354871	0.00546615	0.00039216	0.00802395
2.61000000	0.00164916	0.00194417	0.00189668	0.00271317	0.00111885	0.00547434	0.00468271	0.00624304	0.00550671	0.00618334	0.00262549	0.00835035	0.00708755	0.01323279	0.00389224	0.00347520	0.00365786	0.00230114	0.00201360	0.00136708	0.00141589	0.00125665	0.00189604	0.00354863	0.00606604	0.00096509	0.00730348
2.62000000	0.00168294	0.00164802	0.00266726	0.00251567	0.00120194	0.00509744	0.00404587	0.00743674	0.00556492	0.00560898	0.00281151	0.00812570	0.00625489	0.01264851	0.00378980	0.00320945	0.00367116	0.00177862	0.00174352	0.00161740	0.00123178	0.00121160	0.00211355	0.00261205	0.00483041	0.00096347	0.00767672
2.63000000	0.00147741	0.00187292	0.00269210	0.00267585	0.00113943	0.00533405	0.00439522	0.00789811	0.00558116	0.00555053	0.00279445	0.00845309	0.00552360	0.01230723	0.00364719	0.00293542	0.00367145	0.00166320	0.00153822	0.00142926	0.00126583	0.00123842	0.00229425	0.00236655	0.00464023	0.00166549	0.00734372
2.64000000	0.00156891	0.00214964	0.00246982	0.00278315	0.00108530	0.00572965	0.00478761	0.00825734	0.00561575	0.00572160	0.00234256	0.00873987	0.00469270	0.01219381	0.00335601	0.00274415	0.00385398	0.00168368	0.00142892	0.00134672	0.00134628	0.00130981	0.00252395	0.00237753	0.00408800	0.00224912	0.00709320
2.65000000	0.00163300	0.00242523	0.00244862	0.00294758	0.00111477	0.00598181	0.00502831	0.00877796	0.00565956	0.00561962	0.00235752	0.00907415	0.00390689	0.01180093	0.00318544	0.00248561	0.00379704	0.00178087	0.00132582	0.00118556	0.00139012	0.00143197	0.00279528	0.00262120	0.00367057	0.00281119	0.00672895
2.66000000	0.00153379	0.00260403	0.00246617	0.00310913	0.00114268	0.00633700	0.00528821	0.00923123	0.00564351	0.00551700	0.00250118	0.00934959	0.00325115	0.01109782	0.00303710	0.00218996	0.00370995	0.00199619	0.00132262	0.00102413	0.00146069	0.00153585	0.00310671	0.00294088	0.00343549	0.00338435	0.00622862
2.67000000	0.00137130	0.00267843	0.00249762	0.00331983	0.00124822	0.00668837	0.00549307	0.00966803	0.00559131	0.00544474	0.00267881	0.00941804	0.00275116	0.01004899	0.00291062	0.00193600	0.00362525	0.00228142	0.00142020	0.00088189	0.00153760	0.00164932	0.00345459	0.00330166	0.00318937	0.00395482	0.00572508
2.68000000	0.00127405	0.00340061	0.00189058	0.00356283	0.00134413	0.00748060	0.00581183	0.00960131	0.00544135	0.00582278	0.00254395	0.00935902	0.00217354	0.00898665	0.00280617	0.00180531	0.00352434	0.00254811	0.00155522	0.00088853	0.00165751	0.00187329	0.00389166	0.00373056	0.00297510	0.00443682	0.00519026
2.69000000	0.00117028	0.00325433	0.00221612	0.00352070	0.00133423	0.00759168	0.00578759	0.01032977	0.00545986	0.00565595	0.00253198	0.00869351	0.00229740	0.00731363	0.00269436	0.00140742	0.00337463	0.00304882	0.00181297	0.00072833	0.00159572	0.00176372	0.00411648	0.00440975	0.00248956	0.00484191	0.00499766
2.70000000	0.00083114	0.00373121	0.00190370	0.00371881	0.00149319	0.00812488	0.00587066	0.01049183	0.00532977	0.00583435	0.00257964	0.00832640	0.00223073	0.00561662	0.00269805	0.00122586	0.00312579	0.00334722	0.00193454	0.00080299	0.00166612	0.00186406	0.00460305	0.00482012	0.00239217	0.00532060	0.00457122
2.71000000	0.00063556	0.00392295	0.00191967	0.00377839	0.00154241	0.00839696	0.00586669	0.01089051	0.00522267	0.00582011	0.00271404	0.00798321	0.00235810	0.00385954	0.00260577	0.00112475	0.00292177	0.00373983	0.00223432	0.00081233	0.00164696	0.00180074	0.00489103	0.00540156	0.00221207	0.00563409	0.00437755
2.72000000	0.00065735	0.00435747	0.00177726	0.00390215	0.00166301	0.00872392	0.00588845	0.01109194	0.00506691	0.00595449	0.00287174	0.00814219	0.00235546	0.00252133	0.00256376	0.00117717	0.00269517	0.00397611	0.00244125	0.00090322	0.00163680	0.00176498	0.00530514	0.00580269	0.00210695	0.00602263	0.00418252
2.73000000	0.00119494	0.00419718	0.00197101	0.00403616	0.00173719	0.00871111	0.00608930	0.01140631	0.00491497	0.00583645	0.00322782	0.00870467	0.00239314	0.00220486	0.00260859	0.00166937	0.00227807	0.00417581	0.00272112	0.00099843	0.00158628	0.00160802	0.00562780	0.00614436	0.00222067	0.00639601	0.00398329
2.74000000	0.00151690	0.00486233	0.00167703	0.00413300	0.00181495	0.00893703	0.00612960	0.01149513	0.00487033	0.00593639	0.00322468	0.00966391	0.00230774	0.00314212	0.00246395	0.00178592	0.00207585	0.00428093	0.00294275	0.00113577	0.00157069	0.00149186	0.00591747	0.00647713	0.00202355	0.00666887	0.00389754
2.75000000	0.00205621	0.00538865	0.00145624	0.00428029	0.00193542	0.00903824	0.00613527	0.01158347	0.00481404	0.00605569	0.00328289	0.01065669	0.00217873	0.00417868	0.00231636	0.00194591	0.00188166	0.00438282	0.00320241	0.00123152	0.00156776	0.00135496	0.00609487	0.00681036	0.00192112	0.00687647	0.00376073
2.76000000	0.00280724	0.00617997	0.00099285	0.00447627	0.00201779	0.00901175	0.00624466	0.01161888	0.00468045	0.00630395	0.00348681	0.01159721	0.00214482	0.00480466	0.00216701	0.00204464	0.00203514	0.00433433	0.00362217	0.00153803	0.00165547	0.00124945	0.00619377	0.00658443	0.00181148	0.00737696	0.00371083
2.77000000	0.00288649	0.00628979	0.00123562	0.00450199	0.00212585	0.00902619	0.00647517	0.01155710	0.00485689	0.00613911	0.00332251	0.01165274	0.00181235	0.00609591	0.00214971	0.00279940	0.00127053	0.00412908	0.00356929	0.00136420	0.00158181	0.00095230	0.00653012	0.00721927	0.00201405	0.00731170	0.00349823
2.78000000	0.00363116	0.00692141	0.00082601	0.00477080	0.00229072	0.00891819	0.00663341	0.01139902	0.00487422	0.00618092	0.00351849	0.01201153	0.00171876	0.00637966	0.00187070	0.00265541	0.00121918	0.00401653	0.00394688	0.00162046	0.00177610	0.00087586	0.00646335	0.00704188	0.00181379	0.00761165	0.00343026
2.79000000	0.00414416	0.00743063	0.00063560	0.00505971	0.00252527	0.00873066	0.00681820	0.01113502	0.00496548	0.00620331	0.00360123	0.01219654	0.00163977	0.00642367	0.00167629	0.00263194	0.00101858	0.00377855	0.00433100	0.00176351	0.00190911	0.00091464	0.00632163	0.00706395	0.00171778	0.00771145	0.00333927
2.80000000	0.00439432	0.00784780	0.00097869	0.00532630	0.00283595	0.00874120	0.00716437	0.01061002	0.00513532	0.00616215	0.00339554	0.01193051	0.00146695	0.00659164	0.00134621	0.00266031	0.00098236	0.00314154	0.00427210	0.00168300	0.00189133	0.00115465	0.00651368	0.00738163	0.00176921	0.00762935	0.00324253
2.81000000	0.00491463	0.00851765	0.00125734	0.00563547	0.00318601	0.00866529	0.00755242	0.01006069	0.00530533	0.00611309	0.00335076	0.01151960	0.00121981	0.00624975	0.00109090	0.00258705	0.00097586	0.00271181	0.00436444	0.00178946	0.00206742	0.00139583	0.00660092	0.00758561	0.00172242	0.00749809	0.00310962
2.82000000	0.00562897	0.00925971	0.00150718	0.00610508	0.00362547	0.00853279	0.00756306	0.00958724	0.00536769	0.00623429	0.00355764	0.01123088	0.00131637	0.00581911	0.00081584	0.00224756	0.00066509	0.00225688	0.00444962	0.00213243	0.00242878	0.00178199	0.00661662	0.00720602	0.00181817	0.00779172	0.00291609
2.83000000	0.00607985	0.01049282	0.00188527	0.00617053	0.00386010	0.00855769	0.00817393	0.00890433	0.00566673	0.00599560	0.00311375	0.01032477	0.00089083	0.00544253	0.00077761	0.00258447	0.00036366	0.00179587	0.00451532	0.00210019	0.00246108	0.00199072	0.00667841	0.00756795	0.00159963	0.00750471	0.00297739
2.84000000	0.00681280	0.01120583	0.00235348	0.00660625	0.00432725	0.00868706	0.00814739	0.00832393	0.00582548	0.00594961	0.00322259	0.01025722	0.00157448	0.00496545	0.00054627	0.00216296	0.00023733	0.00154795	0.00484927	0.00238352	0.00276424	0.00228935	0.00644944	0.00722992	0.00180983	0.00770507	0.00273863
2.85000000	0.00767753	0.01219664	0.00270410	0.00678694	0.00460587	0.00882587	0.00853243	0.00774532	0.00603908	0.00585820	0.00326897	0.00996435	0.00161301	0.00446591	0.00066539	0.00227660	0.00027362	0.00110917	0.00484473	0.00249122	0.00283469	0.00246617	0.00652695	0.00744217	0.00167676	0.00747294	0.00281363
2.86000000	0.00855048	0.01295788	0.00312258	0.00707954	0.00497137	0.00911630	0.00848271	0.00724378	0.00620460	0.00581088	0.00334142	0.01016515	0.00190395	0.00414266	0.00069849	0.00203151	0.00029375	0.00096653	0.00499635	0.00271755	0.00302061	0.00264626	0.00640891	0.00721658	0.00180332	0.00757566	0.00271117
2.87000000	0.00934777	0.01368616	0.00346277	0.00727344	0.00525289	0.00943276	0.00828162	0.00683052	0.00641977	0.00575753	0.00340173	0.01025844	0.00225205	0.00411927	0.00078370	0.00200983	0.00049646	0.00086513	0.00504432	0.00288636	0.00313645	0.00278973	0.00635781	0.00721978	0.00182348	0.00748689	0.00268656
2.88000000	0.01003143	0.01431013	0.00362688	0.00726577	0.00534868	0.00968245	0.00805309	0.00650882	0.00675112	0.00547588	0.00336097	0.00986631	0.00260904	0.00466649	0.00089766	0.00218895	0.00053676	0.00081663	0.00500424	0.00293175	0.00317798	0.00284670	0.00632733	0.00741043	0.00175107	0.00729148	0.00271682
2.89000000	0.01071731	0.01454397	0.00391197	0.00738870	0.00555461	0.01022936	0.00713831	0.00608395	0.00683214	0.00528422	0.00303796	0.00984234	0.00303714	0.00498894	0.00075692	0.00180562	0.00099389	0.00109574	0.00518175	0.00313803	0.00324732	0.00295503	0.00609089	0.00724237	0.00201968	0.00730621	0.00255417
2.90000000	0.01139620	0.01472144	0.00403033	0.00729162	0.00557230	0.01035322	0.00644728	0.00577892	0.00702061	0.00528046	0.00318707	0.00948010	0.00232723	0.00506069	0.00095722	0.00173552	0.00093203	0.00122806	0.00513056	0.00312287	0.00316282	0.00287890	0.00587046	0.00709658	0.00192965	0.00744233	0.00261561
2.91000000	0.01183602	0.01464737	0.00403555	0.00708151	0.00547835	0.01030406	0.00544750	0.00554182	0.00721986	0.00501229	0.00319243	0.00858447	0.00213405	0.00506518	0.00115066	0.00174454	0.00102673	0.00132454	0.00495513	0.00309512	0.00306088	0.00284193	0.00572310	0.00715110	0.00190719	0.00738379	0.00262011
2.92000000	0.01209962	0.01428112	0.00393534	0.00674461	0.00526638	0.01000641	0.00420686	0.00536057	0.00741080	0.00468071	0.00304911	0.00755470	0.00192716	0.00475154	0.00141515	0.00163304	0.00124441	0.00144289	0.00477643	0.00302521	0.00287705	0.00274723	0.00548944	0.00719050	0.00177754	0.00734414	0.00276197
2.93000000	0.01217135	0.01355775	0.00370533	0.00628745	0.00492842	0.00939045	0.00296101	0.00521495	0.00763029	0.00440073	0.00305356	0.00658889	0.00180621	0.00417374	0.00155056	0.00144450	0.00137982	0.00155464	0.00451642	0.00288403	0.00263975	0.00265730	0.00518983	0.00728753	0.00173399	0.00729320	0.00290494
2.94000000	0.01263988	0.01151141	0.00314037	0.00614456	0.00457323	0.00808545	0.00184111	0.00520255	0.00778842	0.00408154	0.00332331	0.00615679	0.00136071	0.00304391	0.00127546	0.00078961	0.00079983	0.00168574	0.00413877	0.00285069	0.00246967	0.00281015	0.00488945	0.00751107	0.00155885	0.00697285	0.00317369
2.95000000	0.01203604	0.01074104	0.00292449	0.00540345	0.00410299	0.00712804	0.00144911	0.00506835	0.00788126	0.00383936	0.00296364	0.00558999	0.00153119	0.00215727	0.00115123	0.00054619	0.00082418	0.00193760	0.00393695	0.00266917	0.00217720	0.00256957	0.00440618	0.00752719	0.00179648	0.00698939	0.00337774
