Model Marker Errors from IK
version=1
nRows=352
nColumns=4
inDegrees=no
endheader
time	total_squared_error	marker_error_RMS	marker_error_max
      0.17000000	      0.00329044	      0.01103939	      0.02142000
      0.18000000	      0.00331294	      0.01107706	      0.02165464
      0.19000000	      0.00331404	      0.01107890	      0.02116096
      0.20000000	      0.00332179	      0.01109186	      0.02040664
      0.21000000	      0.00334878	      0.01113683	      0.01934014
      0.22000000	      0.00337978	      0.01118825	      0.01950123
      0.23000000	      0.00344440	      0.01129470	      0.01944248
      0.24000000	      0.00352030	      0.01141848	      0.01948061
      0.25000000	      0.00363796	      0.01160773	      0.02006017
      0.26000000	      0.00374970	      0.01178464	      0.02197699
      0.27000000	      0.00390751	      0.01203007	      0.02413592
      0.28000000	      0.00404757	      0.01224377	      0.02634991
      0.29000000	      0.00419846	      0.01246991	      0.02863057
      0.30000000	      0.00438903	      0.01274977	      0.03053644
      0.31000000	      0.00449785	      0.01290686	      0.03256231
      0.32000000	      0.00464844	      0.01312114	      0.03388182
      0.33000000	      0.00473050	      0.01323646	      0.03515922
      0.34000000	      0.00478965	      0.01331894	      0.03610509
      0.35000000	      0.00482198	      0.01336383	      0.03683368
      0.36000000	      0.00483872	      0.01338700	      0.03728890
      0.37000000	      0.00484934	      0.01340168	      0.03761250
      0.38000000	      0.00484663	      0.01339794	      0.03811843
      0.39000000	      0.00485636	      0.01341138	      0.03830207
      0.40000000	      0.00489033	      0.01345821	      0.03852363
      0.41000000	      0.00491880	      0.01349733	      0.03795770
      0.42000000	      0.00494050	      0.01352707	      0.03802513
      0.43000000	      0.00497031	      0.01356782	      0.03777417
      0.44000000	      0.00498824	      0.01359226	      0.03776921
      0.45000000	      0.00500188	      0.01361084	      0.03773657
      0.46000000	      0.00499011	      0.01359481	      0.03754122
      0.47000000	      0.00497111	      0.01356890	      0.03765183
      0.48000000	      0.00496573	      0.01356156	      0.03781601
      0.49000000	      0.00498977	      0.01359435	      0.03806418
      0.50000000	      0.00495575	      0.01354792	      0.03832788
      0.51000000	      0.00498306	      0.01358521	      0.03847254
      0.52000000	      0.00499521	      0.01360176	      0.03870493
      0.53000000	      0.00501330	      0.01362637	      0.03878656
      0.54000000	      0.00495976	      0.01355340	      0.03897581
      0.55000000	      0.00494612	      0.01353475	      0.03880436
      0.56000000	      0.00494067	      0.01352729	      0.03827235
      0.57000000	      0.00489451	      0.01346396	      0.03813496
      0.58000000	      0.00483111	      0.01337647	      0.03760006
      0.59000000	      0.00477617	      0.01330019	      0.03679171
      0.60000000	      0.00468456	      0.01317202	      0.03590278
      0.61000000	      0.00459818	      0.01305002	      0.03468188
      0.62000000	      0.00449506	      0.01290285	      0.03339691
      0.63000000	      0.00430666	      0.01262956	      0.03158273
      0.64000000	      0.00414968	      0.01239725	      0.02995296
      0.65000000	      0.00394642	      0.01208982	      0.02777165
      0.66000000	      0.00375241	      0.01178889	      0.02558878
      0.67000000	      0.00360145	      0.01154932	      0.02357480
      0.68000000	      0.00352580	      0.01142739	      0.02276148
      0.69000000	      0.00347773	      0.01134922	      0.02328256
      0.70000000	      0.00348449	      0.01136025	      0.02502272
      0.71000000	      0.00351029	      0.01140223	      0.02662173
      0.72000000	      0.00351715	      0.01141336	      0.02768088
      0.73000000	      0.00346407	      0.01132691	      0.02715337
      0.74000000	      0.00336870	      0.01116989	      0.02598120
      0.75000000	      0.00325269	      0.01097588	      0.02355124
      0.76000000	      0.00313364	      0.01077315	      0.02117857
      0.77000000	      0.00303788	      0.01060726	      0.02123912
      0.78000000	      0.00295192	      0.01045611	      0.02130845
      0.79000000	      0.00289248	      0.01035031	      0.02138583
      0.80000000	      0.00286269	      0.01029687	      0.02149729
      0.81000000	      0.00287185	      0.01031333	      0.02163076
      0.82000000	      0.00291965	      0.01039881	      0.02175299
      0.83000000	      0.00299130	      0.01052563	      0.02174826
      0.84000000	      0.00306703	      0.01065803	      0.02178271
      0.85000000	      0.00317942	      0.01085156	      0.02201469
      0.86000000	      0.00330458	      0.01106309	      0.02212622
      0.87000000	      0.00340088	      0.01122312	      0.02215176
      0.88000000	      0.00353575	      0.01144350	      0.02238919
      0.89000000	      0.00365619	      0.01163677	      0.02246149
      0.90000000	      0.00378430	      0.01183889	      0.02262134
      0.91000000	      0.00383775	      0.01192220	      0.02252346
      0.92000000	      0.00395572	      0.01210405	      0.02267354
      0.93000000	      0.00400128	      0.01217355	      0.02251975
      0.94000000	      0.00408698	      0.01230323	      0.02265107
      0.95000000	      0.00411390	      0.01234368	      0.02345439
      0.96000000	      0.00411166	      0.01234033	      0.02561297
      0.97000000	      0.00411237	      0.01234140	      0.02617220
      0.98000000	      0.00409274	      0.01231190	      0.02667600
      0.99000000	      0.00407142	      0.01227979	      0.02775676
      1.00000000	      0.00403231	      0.01222067	      0.02762303
      1.01000000	      0.00398833	      0.01215384	      0.02764071
      1.02000000	      0.00394303	      0.01208462	      0.02793454
      1.03000000	      0.00391277	      0.01203816	      0.02766582
      1.04000000	      0.00387823	      0.01198492	      0.02773581
      1.05000000	      0.00383354	      0.01191566	      0.02830975
      1.06000000	      0.00382759	      0.01190642	      0.02865116
      1.07000000	      0.00385020	      0.01194152	      0.02908896
      1.08000000	      0.00378985	      0.01184756	      0.02975697
      1.09000000	      0.00380541	      0.01187186	      0.03025008
      1.10000000	      0.00384269	      0.01192987	      0.03080188
      1.11000000	      0.00388466	      0.01199484	      0.03109881
      1.12000000	      0.00377676	      0.01182709	      0.03065488
      1.13000000	      0.00379020	      0.01184812	      0.03055141
      1.14000000	      0.00377220	      0.01181995	      0.03032335
      1.15000000	      0.00378537	      0.01184056	      0.03004006
      1.16000000	      0.00380706	      0.01187444	      0.02994602
      1.17000000	      0.00378387	      0.01183822	      0.02963513
      1.18000000	      0.00380448	      0.01187042	      0.02959726
      1.19000000	      0.00379945	      0.01186256	      0.02937784
      1.20000000	      0.00380668	      0.01187384	      0.02926686
      1.21000000	      0.00379574	      0.01185677	      0.02906471
      1.22000000	      0.00376920	      0.01181524	      0.02881864
      1.23000000	      0.00373229	      0.01175725	      0.02846094
      1.24000000	      0.00367831	      0.01167192	      0.02796350
      1.25000000	      0.00361608	      0.01157277	      0.02737343
      1.26000000	      0.00354724	      0.01146208	      0.02671117
      1.27000000	      0.00348549	      0.01136188	      0.02624069
      1.28000000	      0.00343181	      0.01127404	      0.02545499
      1.29000000	      0.00339541	      0.01121410	      0.02534126
      1.30000000	      0.00331712	      0.01108405	      0.02353625
      1.31000000	      0.00328621	      0.01103230	      0.02318114
      1.32000000	      0.00326026	      0.01098865	      0.02218994
      1.33000000	      0.00324107	      0.01095627	      0.02188617
      1.34000000	      0.00322751	      0.01093332	      0.02105232
      1.35000000	      0.00321710	      0.01091567	      0.02124489
      1.36000000	      0.00320803	      0.01090027	      0.02057369
      1.37000000	      0.00319529	      0.01087861	      0.02004917
      1.38000000	      0.00317636	      0.01084633	      0.01999655
      1.39000000	      0.00315361	      0.01080742	      0.01985194
      1.40000000	      0.00313211	      0.01077052	      0.01844778
      1.41000000	      0.00310600	      0.01072554	      0.01825687
      1.42000000	      0.00311213	      0.01073611	      0.01814363
      1.43000000	      0.00312963	      0.01076625	      0.01818793
      1.44000000	      0.00315719	      0.01081355	      0.01821767
      1.45000000	      0.00319164	      0.01087239	      0.01817377
      1.46000000	      0.00323440	      0.01094499	      0.01821935
      1.47000000	      0.00329105	      0.01104041	      0.01849690
      1.48000000	      0.00332305	      0.01109395	      0.01850092
      1.49000000	      0.00335944	      0.01115454	      0.01860709
      1.50000000	      0.00338657	      0.01119948	      0.01910888
      1.51000000	      0.00339315	      0.01121036	      0.01914603
      1.52000000	      0.00338449	      0.01119604	      0.01939361
      1.53000000	      0.00336195	      0.01115871	      0.01962104
      1.54000000	      0.00332820	      0.01110256	      0.01965817
      1.55000000	      0.00327763	      0.01101788	      0.01982123
      1.56000000	      0.00322391	      0.01092721	      0.01984775
      1.57000000	      0.00317628	      0.01084619	      0.01984432
      1.58000000	      0.00313822	      0.01078102	      0.02004325
      1.59000000	      0.00312448	      0.01075740	      0.02012105
      1.60000000	      0.00313258	      0.01077132	      0.02018917
      1.61000000	      0.00316256	      0.01082274	      0.02015343
      1.62000000	      0.00320536	      0.01089574	      0.02000393
      1.63000000	      0.00328545	      0.01103101	      0.01979398
      1.64000000	      0.00338151	      0.01119111	      0.02123913
      1.65000000	      0.00354216	      0.01145387	      0.02345935
      1.66000000	      0.00369315	      0.01169545	      0.02565776
      1.67000000	      0.00387148	      0.01197447	      0.02794354
      1.68000000	      0.00410793	      0.01233473	      0.03004653
      1.69000000	      0.00431042	      0.01263507	      0.03200391
      1.70000000	      0.00449332	      0.01290036	      0.03378482
      1.71000000	      0.00465841	      0.01313521	      0.03511951
      1.72000000	      0.00478823	      0.01331698	      0.03616360
      1.73000000	      0.00487212	      0.01343313	      0.03697456
      1.74000000	      0.00491877	      0.01349729	      0.03745856
      1.75000000	      0.00496177	      0.01355615	      0.03766438
      1.76000000	      0.00497901	      0.01357968	      0.03825145
      1.77000000	      0.00498604	      0.01358927	      0.03794300
      1.78000000	      0.00500929	      0.01362092	      0.03807284
      1.79000000	      0.00504341	      0.01366722	      0.03840073
      1.80000000	      0.00509670	      0.01373924	      0.03836279
      1.81000000	      0.00514909	      0.01380967	      0.03862584
      1.82000000	      0.00521785	      0.01390157	      0.03861388
      1.83000000	      0.00525306	      0.01394840	      0.03886989
      1.84000000	      0.00528722	      0.01399368	      0.03906021
      1.85000000	      0.00533470	      0.01405637	      0.03939595
      1.86000000	      0.00534746	      0.01407317	      0.03941235
      1.87000000	      0.00540182	      0.01414452	      0.03953759
      1.88000000	      0.00535911	      0.01408848	      0.03963485
      1.89000000	      0.00539924	      0.01414114	      0.03961941
      1.90000000	      0.00540125	      0.01414378	      0.03963864
      1.91000000	      0.00538952	      0.01412840	      0.03971851
      1.92000000	      0.00539460	      0.01413506	      0.03940420
      1.93000000	      0.00531735	      0.01403350	      0.03953658
      1.94000000	      0.00527884	      0.01398258	      0.03904367
      1.95000000	      0.00520926	      0.01389013	      0.03877155
      1.96000000	      0.00511823	      0.01376823	      0.03839757
      1.97000000	      0.00503056	      0.01364980	      0.03770675
      1.98000000	      0.00493394	      0.01351808	      0.03690563
      1.99000000	      0.00480765	      0.01334396	      0.03590082
      2.00000000	      0.00467041	      0.01315212	      0.03466346
      2.01000000	      0.00453968	      0.01296673	      0.03313579
      2.02000000	      0.00434788	      0.01268986	      0.03135559
      2.03000000	      0.00417035	      0.01242808	      0.02936219
      2.04000000	      0.00397781	      0.01213781	      0.02722738
      2.05000000	      0.00379989	      0.01186325	      0.02504173
      2.06000000	      0.00365133	      0.01162904	      0.02298699
      2.07000000	      0.00354694	      0.01146159	      0.02268572
      2.08000000	      0.00350840	      0.01139916	      0.02493814
      2.09000000	      0.00348418	      0.01135973	      0.02569385
      2.10000000	      0.00348469	      0.01136057	      0.02705454
      2.11000000	      0.00345290	      0.01130863	      0.02709122
      2.12000000	      0.00338940	      0.01120417	      0.02655050
      2.13000000	      0.00329649	      0.01104954	      0.02473010
      2.14000000	      0.00319412	      0.01087662	      0.02232094
      2.15000000	      0.00309977	      0.01071478	      0.02018785
      2.16000000	      0.00302576	      0.01058609	      0.02025906
      2.17000000	      0.00297267	      0.01049280	      0.02037496
      2.18000000	      0.00294589	      0.01044543	      0.02054545
      2.19000000	      0.00295428	      0.01046029	      0.02072180
      2.20000000	      0.00297311	      0.01049358	      0.02089281
      2.21000000	      0.00302385	      0.01058275	      0.02110576
      2.22000000	      0.00309593	      0.01070813	      0.02131194
      2.23000000	      0.00317189	      0.01083870	      0.02157420
      2.24000000	      0.00325234	      0.01097529	      0.02219810
      2.25000000	      0.00333967	      0.01112167	      0.02301275
      2.26000000	      0.00343685	      0.01128232	      0.02331907
      2.27000000	      0.00353310	      0.01143922	      0.02368461
      2.28000000	      0.00363346	      0.01160054	      0.02393810
      2.29000000	      0.00375417	      0.01179167	      0.02377366
      2.30000000	      0.00378739	      0.01184372	      0.02377690
      2.31000000	      0.00387802	      0.01198459	      0.02354761
      2.32000000	      0.00392630	      0.01205897	      0.02303939
      2.33000000	      0.00401327	      0.01219178	      0.02246795
      2.34000000	      0.00405648	      0.01225724	      0.02226295
      2.35000000	      0.00411121	      0.01233966	      0.02287537
      2.36000000	      0.00419437	      0.01246383	      0.02375609
      2.37000000	      0.00420706	      0.01248267	      0.02463411
      2.38000000	      0.00423788	      0.01252831	      0.02633822
      2.39000000	      0.00424744	      0.01254243	      0.02645252
      2.40000000	      0.00425276	      0.01255029	      0.02711943
      2.41000000	      0.00424106	      0.01253300	      0.02661231
      2.42000000	      0.00421921	      0.01250068	      0.02676098
      2.43000000	      0.00420420	      0.01247843	      0.02672061
      2.44000000	      0.00418400	      0.01244841	      0.02653557
      2.45000000	      0.00418614	      0.01245159	      0.02651490
      2.46000000	      0.00419098	      0.01245879	      0.02680801
      2.47000000	      0.00423153	      0.01251892	      0.02750785
      2.48000000	      0.00426721	      0.01257158	      0.02849848
      2.49000000	      0.00432815	      0.01266104	      0.02954615
      2.50000000	      0.00440677	      0.01277552	      0.03072303
      2.51000000	      0.00439582	      0.01275962	      0.03129982
      2.52000000	      0.00444922	      0.01283689	      0.03203616
      2.53000000	      0.00448398	      0.01288694	      0.03212106
      2.54000000	      0.00452407	      0.01294443	      0.03232393
      2.55000000	      0.00456292	      0.01299988	      0.03203614
      2.56000000	      0.00458701	      0.01303416	      0.03176631
      2.57000000	      0.00463028	      0.01309549	      0.03150670
      2.58000000	      0.00468246	      0.01316907	      0.03124286
      2.59000000	      0.00473841	      0.01324751	      0.03107844
      2.60000000	      0.00477782	      0.01330249	      0.03099549
      2.61000000	      0.00481790	      0.01335817	      0.03079599
      2.62000000	      0.00483467	      0.01338140	      0.03060240
      2.63000000	      0.00483739	      0.01338517	      0.03058797
      2.64000000	      0.00480376	      0.01333855	      0.02997211
      2.65000000	      0.00475995	      0.01327759	      0.02947271
      2.66000000	      0.00470953	      0.01320708	      0.02882133
      2.67000000	      0.00465304	      0.01312764	      0.02800309
      2.68000000	      0.00458499	      0.01303129	      0.02687070
      2.69000000	      0.00453031	      0.01295334	      0.02586456
      2.70000000	      0.00448573	      0.01288946	      0.02519499
      2.71000000	      0.00444983	      0.01283778	      0.02408586
      2.72000000	      0.00441894	      0.01279314	      0.02370741
      2.73000000	      0.00439465	      0.01275794	      0.02354544
      2.74000000	      0.00435767	      0.01270414	      0.02184415
      2.75000000	      0.00433626	      0.01267289	      0.02145870
      2.76000000	      0.00430765	      0.01263102	      0.02156505
      2.77000000	      0.00430335	      0.01262472	      0.02081470
      2.78000000	      0.00428104	      0.01259194	      0.02098573
      2.79000000	      0.00427975	      0.01259004	      0.02046709
      2.80000000	      0.00425937	      0.01256004	      0.02030013
      2.81000000	      0.00422122	      0.01250366	      0.02042916
      2.82000000	      0.00421438	      0.01249352	      0.02023705
      2.83000000	      0.00418445	      0.01244908	      0.02034435
      2.84000000	      0.00418657	      0.01245224	      0.02032439
      2.85000000	      0.00416514	      0.01242032	      0.02039229
      2.86000000	      0.00414056	      0.01238363	      0.02048457
      2.87000000	      0.00413222	      0.01237114	      0.02031655
      2.88000000	      0.00410210	      0.01232598	      0.02045781
      2.89000000	      0.00407091	      0.01227902	      0.02031197
      2.90000000	      0.00404152	      0.01223461	      0.02054480
      2.91000000	      0.00400385	      0.01217747	      0.02055023
      2.92000000	      0.00395593	      0.01210437	      0.01975340
      2.93000000	      0.00390516	      0.01202645	      0.01981039
      2.94000000	      0.00382587	      0.01190374	      0.01885179
      2.95000000	      0.00375863	      0.01179866	      0.01854736
      2.96000000	      0.00368803	      0.01168733	      0.01870923
      2.97000000	      0.00359301	      0.01153579	      0.01806498
      2.98000000	      0.00350298	      0.01139035	      0.01841371
      2.99000000	      0.00341074	      0.01123938	      0.01865037
      3.00000000	      0.00331731	      0.01108438	      0.01883067
      3.01000000	      0.00323084	      0.01093896	      0.01896865
      3.02000000	      0.00315255	      0.01080560	      0.01918212
      3.03000000	      0.00309954	      0.01071437	      0.01892868
      3.04000000	      0.00308336	      0.01068636	      0.01886499
      3.05000000	      0.00309503	      0.01070658	      0.01877136
      3.06000000	      0.00312698	      0.01076169	      0.01841475
      3.07000000	      0.00321058	      0.01090461	      0.01845337
      3.08000000	      0.00330934	      0.01107104	      0.01910651
      3.09000000	      0.00343494	      0.01127918	      0.01991739
      3.10000000	      0.00357814	      0.01151189	      0.02097907
      3.11000000	      0.00374739	      0.01178101	      0.02203997
      3.12000000	      0.00394040	      0.01208060	      0.02335609
      3.13000000	      0.00412260	      0.01235673	      0.02501075
      3.14000000	      0.00431074	      0.01263555	      0.02655080
      3.15000000	      0.00451232	      0.01292761	      0.02829503
      3.16000000	      0.00467124	      0.01315328	      0.02998289
      3.17000000	      0.00481325	      0.01335172	      0.03165368
      3.18000000	      0.00493966	      0.01352591	      0.03305045
      3.19000000	      0.00501954	      0.01363483	      0.03450328
      3.20000000	      0.00505975	      0.01368934	      0.03548234
      3.21000000	      0.00507672	      0.01371229	      0.03643311
      3.22000000	      0.00507899	      0.01371535	      0.03706459
      3.23000000	      0.00506795	      0.01370043	      0.03754266
      3.24000000	      0.00505212	      0.01367902	      0.03788257
      3.25000000	      0.00504365	      0.01366754	      0.03815461
      3.26000000	      0.00505890	      0.01368820	      0.03839708
      3.27000000	      0.00512273	      0.01377428	      0.03857687
      3.28000000	      0.00524065	      0.01393191	      0.03898016
      3.29000000	      0.00537660	      0.01411147	      0.03906314
      3.30000000	      0.00556918	      0.01436196	      0.03933678
      3.31000000	      0.00575121	      0.01459478	      0.03949749
      3.32000000	      0.00586356	      0.01473665	      0.03962246
      3.33000000	      0.00594384	      0.01483720	      0.03978611
      3.34000000	      0.00596953	      0.01486922	      0.04073881
      3.35000000	      0.00596200	      0.01485984	      0.04132379
      3.36000000	      0.00593566	      0.01482698	      0.04169785
      3.37000000	      0.00589494	      0.01477603	      0.04151322
      3.38000000	      0.00585441	      0.01472515	      0.04109778
      3.39000000	      0.00580426	      0.01466195	      0.04048357
      3.40000000	      0.00574709	      0.01458955	      0.03966011
      3.41000000	      0.00567519	      0.01449801	      0.03927909
      3.42000000	      0.00562864	      0.01443842	      0.03914323
      3.43000000	      0.00558677	      0.01438462	      0.03912563
      3.44000000	      0.00555317	      0.01434130	      0.03897235
      3.45000000	      0.00554034	      0.01432472	      0.03880136
      3.46000000	      0.00556126	      0.01435175	      0.03830453
      3.47000000	      0.00555337	      0.01434156	      0.03824695
      3.48000000	      0.00556236	      0.01435317	      0.03783307
      3.49000000	      0.00553692	      0.01432031	      0.03740380
      3.50000000	      0.00550950	      0.01428480	      0.03666541
      3.51000000	      0.00545500	      0.01421397	      0.03573917
      3.52000000	      0.00529178	      0.01399972	      0.03480406
      3.53000000	      0.00511045	      0.01375776	      0.03349120
      3.54000000	      0.00492407	      0.01350455	      0.03201206
      3.55000000	      0.00464216	      0.01311228	      0.03021141
      3.56000000	      0.00440475	      0.01277259	      0.02834731
      3.57000000	      0.00419702	      0.01246777	      0.02644496
      3.58000000	      0.00404353	      0.01223766	      0.02451998
      3.59000000	      0.00401556	      0.01219526	      0.02625739
      3.60000000	      0.00396684	      0.01212105	      0.02763446
      3.61000000	      0.00401772	      0.01219854	      0.03053869
      3.62000000	      0.00404484	      0.01223965	      0.03235468
      3.63000000	      0.00401698	      0.01219742	      0.03294720
      3.64000000	      0.00392428	      0.01205586	      0.03213267
      3.65000000	      0.00375132	      0.01178718	      0.02976264
      3.66000000	      0.00357627	      0.01150889	      0.02667978
      3.67000000	      0.00341088	      0.01123962	      0.02313669
      3.68000000	      0.00328642	      0.01103264	      0.02135385
