Model Marker Errors from IK
version=1
nRows=221
nColumns=4
inDegrees=no
endheader
time	total_squared_error	marker_error_RMS	marker_error_max
      0.13000000	      0.00322168	      0.01135198	      0.02529891
      0.14000000	      0.00319439	      0.01130378	      0.02585193
      0.15000000	      0.00316763	      0.01125633	      0.02629919
      0.16000000	      0.00311418	      0.01116097	      0.02647675
      0.17000000	      0.00311451	      0.01116156	      0.02669129
      0.18000000	      0.00309544	      0.01112733	      0.02655633
      0.19000000	      0.00311683	      0.01116572	      0.02639290
      0.20000000	      0.00311128	      0.01115577	      0.02602808
      0.21000000	      0.00312367	      0.01117796	      0.02566565
      0.22000000	      0.00311126	      0.01115574	      0.02528533
      0.23000000	      0.00310423	      0.01114313	      0.02502181
      0.24000000	      0.00301987	      0.01099067	      0.02459563
      0.25000000	      0.00293013	      0.01082614	      0.02421014
      0.26000000	      0.00283005	      0.01063964	      0.02388261
      0.27000000	      0.00270860	      0.01040884	      0.02341193
      0.28000000	      0.00258740	      0.01017330	      0.02294812
      0.29000000	      0.00246728	      0.00993434	      0.02245848
      0.30000000	      0.00235736	      0.00971053	      0.02180695
      0.31000000	      0.00220989	      0.00940189	      0.02099857
      0.32000000	      0.00208425	      0.00913072	      0.01999829
      0.33000000	      0.00198728	      0.00891578	      0.01891007
      0.34000000	      0.00192269	      0.00876970	      0.01776271
      0.35000000	      0.00185074	      0.00860405	      0.01604693
      0.36000000	      0.00182166	      0.00853618	      0.01493499
      0.37000000	      0.00178362	      0.00844659	      0.01551561
      0.38000000	      0.00176632	      0.00840552	      0.01640540
      0.39000000	      0.00175676	      0.00838274	      0.01730298
      0.40000000	      0.00175891	      0.00838787	      0.01822666
      0.41000000	      0.00174591	      0.00835681	      0.01927782
      0.42000000	      0.00177211	      0.00841928	      0.02007718
      0.43000000	      0.00179142	      0.00846504	      0.02086634
      0.44000000	      0.00184344	      0.00858706	      0.02163908
      0.45000000	      0.00191124	      0.00874355	      0.02238351
      0.46000000	      0.00197838	      0.00889579	      0.02266876
      0.47000000	      0.00201950	      0.00898776	      0.02273354
      0.48000000	      0.00207698	      0.00911477	      0.02236251
      0.49000000	      0.00210644	      0.00917919	      0.02151801
      0.50000000	      0.00215929	      0.00929363	      0.02257127
      0.51000000	      0.00213030	      0.00923104	      0.02336226
      0.52000000	      0.00212147	      0.00921189	      0.02416148
      0.53000000	      0.00208376	      0.00912965	      0.02429069
      0.54000000	      0.00206134	      0.00908041	      0.02402662
      0.55000000	      0.00201106	      0.00896897	      0.02269916
      0.56000000	      0.00198722	      0.00891564	      0.02096690
      0.57000000	      0.00199759	      0.00893887	      0.01910172
      0.58000000	      0.00204656	      0.00904778	      0.01728534
      0.59000000	      0.00208827	      0.00913952	      0.01623626
      0.60000000	      0.00214706	      0.00926729	      0.01659342
      0.61000000	      0.00221053	      0.00940325	      0.01702440
      0.62000000	      0.00225575	      0.00949895	      0.01727363
      0.63000000	      0.00230263	      0.00959715	      0.01803024
      0.64000000	      0.00235572	      0.00970714	      0.01854027
      0.65000000	      0.00242734	      0.00985362	      0.01999722
      0.66000000	      0.00251026	      0.01002051	      0.02246154
      0.67000000	      0.00258640	      0.01017134	      0.02495506
      0.68000000	      0.00267173	      0.01033776	      0.02719870
      0.69000000	      0.00273297	      0.01045556	      0.02910130
      0.70000000	      0.00277751	      0.01054042	      0.03043918
      0.71000000	      0.00277418	      0.01053409	      0.03129646
      0.72000000	      0.00275300	      0.01049381	      0.03157273
      0.73000000	      0.00269965	      0.01039162	      0.03146790
      0.74000000	      0.00262667	      0.01025020	      0.03106504
      0.75000000	      0.00254451	      0.01008864	      0.03048797
      0.76000000	      0.00247633	      0.00995255	      0.02985326
      0.77000000	      0.00237895	      0.00975489	      0.02896187
      0.78000000	      0.00230270	      0.00959730	      0.02812564
      0.79000000	      0.00225171	      0.00949045	      0.02745736
      0.80000000	      0.00219427	      0.00936861	      0.02683003
      0.81000000	      0.00215100	      0.00927578	      0.02633121
      0.82000000	      0.00210318	      0.00917209	      0.02586093
      0.83000000	      0.00205335	      0.00906278	      0.02545481
      0.84000000	      0.00202102	      0.00899116	      0.02507236
      0.85000000	      0.00197944	      0.00889819	      0.02460145
      0.86000000	      0.00194588	      0.00882244	      0.02408607
      0.87000000	      0.00190036	      0.00871862	      0.02335353
      0.88000000	      0.00184902	      0.00860006	      0.02245554
      0.89000000	      0.00180898	      0.00850642	      0.02152641
      0.90000000	      0.00172346	      0.00830291	      0.02008247
      0.91000000	      0.00168096	      0.00819991	      0.01871933
      0.92000000	      0.00159551	      0.00798876	      0.01706089
      0.93000000	      0.00156301	      0.00790699	      0.01644804
      0.94000000	      0.00150135	      0.00774944	      0.01681602
      0.95000000	      0.00148677	      0.00771174	      0.01741157
      0.96000000	      0.00149327	      0.00772856	      0.01792203
      0.97000000	      0.00153768	      0.00784265	      0.01846970
      0.98000000	      0.00158230	      0.00795562	      0.01874756
      0.99000000	      0.00167041	      0.00817413	      0.01921138
      1.00000000	      0.00175693	      0.00838314	      0.01935033
      1.01000000	      0.00187253	      0.00865454	      0.01971140
      1.02000000	      0.00199452	      0.00893201	      0.02002241
      1.03000000	      0.00213825	      0.00924824	      0.02028112
      1.04000000	      0.00226262	      0.00951340	      0.02068940
      1.05000000	      0.00235648	      0.00970872	      0.02131084
      1.06000000	      0.00245405	      0.00990767	      0.02197148
      1.07000000	      0.00251070	      0.01002138	      0.02244010
      1.08000000	      0.00256313	      0.01012547	      0.02297200
      1.09000000	      0.00259522	      0.01018866	      0.02343053
      1.10000000	      0.00264726	      0.01029031	      0.02400119
      1.11000000	      0.00269491	      0.01038251	      0.02445227
      1.12000000	      0.00277133	      0.01052868	      0.02489089
      1.13000000	      0.00287424	      0.01072238	      0.02526446
      1.14000000	      0.00302087	      0.01099248	      0.02570857
      1.15000000	      0.00317481	      0.01126910	      0.02619670
      1.16000000	      0.00332928	      0.01153999	      0.02680089
      1.17000000	      0.00342246	      0.01170036	      0.02714289
      1.18000000	      0.00349275	      0.01181990	      0.02775008
      1.19000000	      0.00353840	      0.01189690	      0.02843088
      1.20000000	      0.00353428	      0.01188996	      0.02883221
      1.21000000	      0.00353701	      0.01189455	      0.02942209
      1.22000000	      0.00354518	      0.01190829	      0.02999224
      1.23000000	      0.00354401	      0.01190632	      0.03046210
      1.24000000	      0.00355310	      0.01192157	      0.03096139
      1.25000000	      0.00357081	      0.01195126	      0.03143264
      1.26000000	      0.00353995	      0.01189950	      0.03156962
      1.27000000	      0.00356688	      0.01194468	      0.03181863
      1.28000000	      0.00357838	      0.01196391	      0.03188316
      1.29000000	      0.00359186	      0.01198642	      0.03173739
      1.30000000	      0.00359512	      0.01199186	      0.03144278
      1.31000000	      0.00358615	      0.01197689	      0.03099594
      1.32000000	      0.00354563	      0.01190905	      0.03049620
      1.33000000	      0.00349735	      0.01182768	      0.02987202
      1.34000000	      0.00343193	      0.01171653	      0.02926707
      1.35000000	      0.00335986	      0.01159286	      0.02874708
      1.36000000	      0.00326022	      0.01141966	      0.02832044
      1.37000000	      0.00313636	      0.01120065	      0.02775811
      1.38000000	      0.00302039	      0.01099162	      0.02728897
      1.39000000	      0.00289257	      0.01075653	      0.02673788
      1.40000000	      0.00276540	      0.01051742	      0.02610171
      1.41000000	      0.00264862	      0.01029295	      0.02539243
      1.42000000	      0.00254104	      0.01008174	      0.02451881
      1.43000000	      0.00241043	      0.00981923	      0.02329490
      1.44000000	      0.00232839	      0.00965069	      0.02211639
      1.45000000	      0.00224674	      0.00947997	      0.02051138
      1.46000000	      0.00220616	      0.00939395	      0.01910813
      1.47000000	      0.00215551	      0.00928549	      0.01827574
      1.48000000	      0.00212305	      0.00921532	      0.01750646
      1.49000000	      0.00210372	      0.00917327	      0.01687054
      1.50000000	      0.00203258	      0.00901683	      0.01748725
      1.51000000	      0.00199066	      0.00892337	      0.01834835
      1.52000000	      0.00193989	      0.00880883	      0.01896875
      1.53000000	      0.00191099	      0.00874298	      0.01953924
      1.54000000	      0.00188570	      0.00868494	      0.01985850
      1.55000000	      0.00189490	      0.00870609	      0.02037788
      1.56000000	      0.00191915	      0.00876161	      0.02048363
      1.57000000	      0.00198606	      0.00891305	      0.02106332
      1.58000000	      0.00199160	      0.00892547	      0.02097068
      1.59000000	      0.00205334	      0.00906275	      0.02197649
      1.60000000	      0.00211388	      0.00919539	      0.02288766
      1.61000000	      0.00216716	      0.00931056	      0.02371017
      1.62000000	      0.00220050	      0.00938189	      0.02447666
      1.63000000	      0.00223934	      0.00946434	      0.02519894
      1.64000000	      0.00227955	      0.00954893	      0.02589589
      1.65000000	      0.00231825	      0.00962963	      0.02645808
      1.66000000	      0.00239162	      0.00978084	      0.02716020
      1.67000000	      0.00244578	      0.00989096	      0.02739158
      1.68000000	      0.00253864	      0.01007699	      0.02775947
      1.69000000	      0.00263817	      0.01027263	      0.02801605
      1.70000000	      0.00273984	      0.01046870	      0.02830432
      1.71000000	      0.00282377	      0.01062783	      0.02867741
      1.72000000	      0.00288240	      0.01073759	      0.02896497
      1.73000000	      0.00289524	      0.01076148	      0.02924661
      1.74000000	      0.00291010	      0.01078908	      0.02966274
      1.75000000	      0.00290136	      0.01077286	      0.02999015
      1.76000000	      0.00286790	      0.01071056	      0.03020412
      1.77000000	      0.00282637	      0.01063272	      0.03041961
      1.78000000	      0.00278532	      0.01055523	      0.03061645
      1.79000000	      0.00273941	      0.01046788	      0.03077969
      1.80000000	      0.00266223	      0.01031936	      0.03085430
      1.81000000	      0.00260313	      0.01020418	      0.03082597
      1.82000000	      0.00252557	      0.01005100	      0.03069405
      1.83000000	      0.00245454	      0.00990866	      0.03037811
      1.84000000	      0.00238615	      0.00976964	      0.02989167
      1.85000000	      0.00232428	      0.00964215	      0.02924861
      1.86000000	      0.00225266	      0.00949244	      0.02845460
      1.87000000	      0.00219816	      0.00937690	      0.02762803
      1.88000000	      0.00215481	      0.00928398	      0.02678426
      1.89000000	      0.00213500	      0.00924120	      0.02609014
      1.90000000	      0.00208617	      0.00913493	      0.02532763
      1.91000000	      0.00205072	      0.00905697	      0.02481789
      1.92000000	      0.00200884	      0.00896401	      0.02442207
      1.93000000	      0.00197938	      0.00889805	      0.02414431
      1.94000000	      0.00191796	      0.00875891	      0.02381960
      1.95000000	      0.00184316	      0.00858641	      0.02336999
      1.96000000	      0.00178103	      0.00844046	      0.02281673
      1.97000000	      0.00173015	      0.00831902	      0.02210686
      1.98000000	      0.00165451	      0.00813514	      0.02090602
      1.99000000	      0.00158786	      0.00796959	      0.01954992
      2.00000000	      0.00153135	      0.00782648	      0.01788280
      2.01000000	      0.00147965	      0.00769324	      0.01635893
      2.02000000	      0.00142884	      0.00756001	      0.01711646
      2.03000000	      0.00134076	      0.00732328	      0.01753494
      2.04000000	      0.00125763	      0.00709262	      0.01794112
      2.05000000	      0.00119615	      0.00691708	      0.01828145
      2.06000000	      0.00116719	      0.00683285	      0.01865549
      2.07000000	      0.00118835	      0.00689448	      0.01923202
      2.08000000	      0.00124336	      0.00705227	      0.01981099
      2.09000000	      0.00132913	      0.00729143	      0.02051652
      2.10000000	      0.00143356	      0.00757247	      0.02141482
      2.11000000	      0.00148633	      0.00771058	      0.02134586
      2.12000000	      0.00155830	      0.00789507	      0.02153471
      2.13000000	      0.00160192	      0.00800481	      0.02129697
      2.14000000	      0.00167296	      0.00818037	      0.02108444
      2.15000000	      0.00174512	      0.00835492	      0.02062346
      2.16000000	      0.00181184	      0.00851314	      0.01998824
      2.17000000	      0.00182589	      0.00854608	      0.01842154
      2.18000000	      0.00185405	      0.00861173	      0.01753607
      2.19000000	      0.00186147	      0.00862895	      0.01793834
      2.20000000	      0.00188517	      0.00868370	      0.01840343
      2.21000000	      0.00192803	      0.00878186	      0.01880370
      2.22000000	      0.00200866	      0.00896361	      0.01923431
      2.23000000	      0.00213185	      0.00923439	      0.01975092
      2.24000000	      0.00226853	      0.00952581	      0.02019828
      2.25000000	      0.00241125	      0.00982091	      0.02068052
      2.26000000	      0.00252756	      0.01005496	      0.02132413
      2.27000000	      0.00260578	      0.01020938	      0.02193867
      2.28000000	      0.00264124	      0.01027859	      0.02253235
      2.29000000	      0.00265525	      0.01030583	      0.02326306
      2.30000000	      0.00264910	      0.01029389	      0.02387741
      2.31000000	      0.00264123	      0.01027858	      0.02454716
      2.32000000	      0.00262201	      0.01024112	      0.02506522
      2.33000000	      0.00263231	      0.01026121	      0.02572981
