global_scaled_errors.sto
version=1
nRows=155
nColumns=26
inDegrees=no
endheader
time	R_Asis	L_Asis	Sacral	R_Thigh_Lateral	R_Knee_Lateral	R_Shank_Lateral	R_Ankle_Lateral	R_Heel	R_Toe	L_Thigh_Lateral	L_Knee_Lateral	L_Shank_Lateral	L_Ankle_Lateral	L_Heel	L_Toe	R_Shoulder	L_Shoulder	C7	J_Notch	Thoracic	Sternum	R_Elbow	L_Elbow	R_Wrist	L_Wrist
0.00000000	0.00394719	0.00428327	0.00763167	0.01642560	0.01496661	0.03127882	0.00594270	0.00873693	0.00523104	0.00210552	0.00671121	0.00997095	0.00588900	0.00509290	0.00265356	0.01337451	0.01526178	0.02155300	0.01471694	0.01477500	0.02191677	0.01866564	0.01671626	0.01140163	0.01177314
0.01000000	0.00405456	0.00425000	0.00760589	0.01646812	0.01497336	0.03199015	0.00586670	0.00886225	0.00514959	0.00168423	0.00612218	0.00999429	0.00601416	0.00578267	0.00228510	0.01335003	0.01510534	0.02143818	0.01470437	0.01452902	0.02189355	0.01871417	0.01652087	0.01160507	0.01151002
0.02000000	0.00404024	0.00417619	0.00741184	0.01675565	0.01492780	0.03263325	0.00603093	0.00937161	0.00510331	0.00176866	0.00633425	0.00947945	0.00581190	0.00543400	0.00222366	0.01340205	0.01516107	0.02117911	0.01444910	0.01419639	0.02161315	0.01875102	0.01667234	0.01165814	0.01148225
0.03000000	0.00406842	0.00396828	0.00733890	0.01708781	0.01494511	0.03345251	0.00587291	0.00964490	0.00500239	0.00150209	0.00616565	0.00915781	0.00573722	0.00536160	0.00223144	0.01349903	0.01500477	0.02090262	0.01423876	0.01378042	0.02137819	0.01899897	0.01654925	0.01192698	0.01109580
0.04000000	0.00414205	0.00381786	0.00736363	0.01750148	0.01483997	0.03423436	0.00575627	0.00998120	0.00496792	0.00134224	0.00589900	0.00881081	0.00568753	0.00533017	0.00217122	0.01349382	0.01489546	0.02063996	0.01404139	0.01337521	0.02111775	0.01915247	0.01647734	0.01211329	0.01073237
0.05000000	0.00486458	0.00382228	0.00787071	0.01805081	0.01471518	0.03472419	0.00560013	0.01008694	0.00507922	0.00107496	0.00571971	0.00842509	0.00563757	0.00491748	0.00241997	0.01339441	0.01465907	0.02059050	0.01398429	0.01314384	0.02100879	0.01919069	0.01617981	0.01213155	0.01008359
0.06000000	0.00527684	0.00381572	0.00829587	0.01894340	0.01460497	0.03495014	0.00565111	0.01020710	0.00502989	0.00122175	0.00535834	0.00803906	0.00556606	0.00484730	0.00224461	0.01325526	0.01450612	0.02048725	0.01387600	0.01290236	0.02083162	0.01918457	0.01597870	0.01216601	0.00962177
0.07000000	0.00537344	0.00356489	0.00857537	0.01979332	0.01434882	0.03514436	0.00569083	0.01033951	0.00502284	0.00149760	0.00499644	0.00771543	0.00551106	0.00469949	0.00215075	0.01329734	0.01422979	0.02030333	0.01375717	0.01262047	0.02059302	0.01932933	0.01577397	0.01232033	0.00907233
0.08000000	0.00474862	0.00344491	0.00851081	0.02071147	0.01396353	0.03529196	0.00579260	0.01051381	0.00489320	0.00196167	0.00443858	0.00744750	0.00546001	0.00516996	0.00154548	0.01348414	0.01404647	0.01994908	0.01349811	0.01220575	0.02019457	0.01957260	0.01576187	0.01266910	0.00862021
0.09000000	0.00560149	0.00328744	0.00921014	0.02141563	0.01354086	0.03489148	0.00589460	0.01046707	0.00506485	0.00215747	0.00443399	0.00697495	0.00530465	0.00457926	0.00184168	0.01329685	0.01378967	0.02001605	0.01358593	0.01221125	0.02014765	0.01954413	0.01535271	0.01254495	0.00794553
0.10000000	0.00527107	0.00328176	0.00929822	0.02236254	0.01302372	0.03444393	0.00609629	0.01048448	0.00508329	0.00268579	0.00414904	0.00651635	0.00513689	0.00451408	0.00177978	0.01333744	0.01367397	0.01977101	0.01345806	0.01197671	0.01983697	0.01973987	0.01523541	0.01268698	0.00751616
0.11000000	0.00599549	0.00318105	0.00984739	0.02305964	0.01250236	0.03355764	0.00616902	0.01031596	0.00505095	0.00295362	0.00387721	0.00618284	0.00509252	0.00432751	0.00158965	0.01324163	0.01341459	0.01980167	0.01360741	0.01203061	0.01981266	0.01970177	0.01483133	0.01262771	0.00680430
0.12000000	0.00561589	0.00327084	0.00974520	0.02387432	0.01179354	0.03274065	0.00639976	0.01019050	0.00503813	0.00351709	0.00350102	0.00566202	0.00490386	0.00446526	0.00138590	0.01335710	0.01334119	0.01952104	0.01349611	0.01185630	0.01947931	0.01996250	0.01471305	0.01282420	0.00633381
0.13000000	0.00645555	0.00303434	0.01031066	0.02422919	0.01111393	0.03143425	0.00637158	0.00982405	0.00490217	0.00379088	0.00339935	0.00532212	0.00480377	0.00418371	0.00140669	0.01324616	0.01316635	0.01962461	0.01370185	0.01206396	0.01949494	0.01987185	0.01423797	0.01273789	0.00558455
0.14000000	0.00613219	0.00307156	0.01001428	0.02457233	0.01016365	0.03041158	0.00642330	0.00947148	0.00479589	0.00436298	0.00289111	0.00491713	0.00467412	0.00445215	0.00136212	0.01345770	0.01312220	0.01933358	0.01359258	0.01196394	0.01916076	0.02021276	0.01404870	0.01304683	0.00504510
0.15000000	0.00677098	0.00285483	0.01053347	0.02440206	0.00932653	0.02870324	0.00617285	0.00896110	0.00460331	0.00465426	0.00297756	0.00462907	0.00449016	0.00426547	0.00140710	0.01333248	0.01302683	0.01947288	0.01381214	0.01230268	0.01917839	0.02019560	0.01351187	0.01291958	0.00430946
0.16000000	0.00687369	0.00287752	0.01060773	0.02409845	0.00839013	0.02693221	0.00595168	0.00832851	0.00430294	0.00509544	0.00275892	0.00437984	0.00430007	0.00443225	0.00159900	0.01337720	0.01302874	0.01940981	0.01385869	0.01248718	0.01901895	0.02035267	0.01315674	0.01304173	0.00369172
0.17000000	0.00664949	0.00289077	0.01054254	0.02311601	0.00731672	0.02529150	0.00550426	0.00767001	0.00405115	0.00549409	0.00268085	0.00426591	0.00419272	0.00466943	0.00156630	0.01357435	0.01303271	0.01926119	0.01381545	0.01262885	0.01878937	0.02066326	0.01285349	0.01321580	0.00310926
0.18000000	0.00647149	0.00302641	0.01066973	0.02177281	0.00640398	0.02313887	0.00501243	0.00680750	0.00355098	0.00596169	0.00251031	0.00427703	0.00409277	0.00493688	0.00185050	0.01355814	0.01313739	0.01921926	0.01384929	0.01288678	0.01865834	0.02085482	0.01251656	0.01330717	0.00254205
0.19000000	0.00607590	0.00305829	0.01071923	0.02014607	0.00573230	0.02045825	0.00457107	0.00577292	0.00292041	0.00633079	0.00226614	0.00438262	0.00406477	0.00513208	0.00218500	0.01361354	0.01315183	0.01915791	0.01393508	0.01314498	0.01863394	0.02109214	0.01209586	0.01349020	0.00189461
0.20000000	0.00593509	0.00324541	0.01079314	0.01803262	0.00482770	0.01734289	0.00417528	0.00476140	0.00228294	0.00661280	0.00224580	0.00449209	0.00401590	0.00543837	0.00247093	0.01373405	0.01331912	0.01910583	0.01385379	0.01348669	0.01847249	0.02138253	0.01177347	0.01370111	0.00136999
0.21000000	0.00558933	0.00325855	0.01053955	0.01526143	0.00447121	0.01503069	0.00353673	0.00400354	0.00190321	0.00686863	0.00209550	0.00464831	0.00422474	0.00559024	0.00268031	0.01418415	0.01343676	0.01870932	0.01357061	0.01347339	0.01818892	0.02195556	0.01166557	0.01418270	0.00095723
0.22000000	0.00557733	0.00332359	0.01069958	0.01269720	0.00456536	0.01215460	0.00315718	0.00309277	0.00158749	0.00700695	0.00218166	0.00483075	0.00436911	0.00589681	0.00275868	0.01445626	0.01355759	0.01844197	0.01340157	0.01361222	0.01804106	0.02236451	0.01151876	0.01449165	0.00053577
0.23000000	0.00449828	0.00337460	0.01145948	0.01068395	0.00465109	0.00820281	0.00356439	0.00232140	0.00083773	0.00712312	0.00245322	0.00489185	0.00418519	0.00642649	0.00305228	0.01422335	0.01374141	0.01860136	0.01349729	0.01417757	0.01816351	0.02240775	0.01108998	0.01439997	0.00007242
0.24000000	0.00516233	0.00336903	0.01176029	0.00968560	0.00460286	0.00545820	0.00370926	0.00223751	0.00100372	0.00733317	0.00263202	0.00500580	0.00444470	0.00646554	0.00306638	0.01449713	0.01390894	0.01833412	0.01325559	0.01435240	0.01802729	0.02284296	0.01095061	0.01474970	0.00035632
0.25000000	0.00494316	0.00338958	0.01240283	0.00991031	0.00470225	0.00254791	0.00421748	0.00295528	0.00116429	0.00735363	0.00292762	0.00514583	0.00440750	0.00688264	0.00328835	0.01451322	0.01404056	0.01826032	0.01318537	0.01472132	0.01804125	0.02301935	0.01075748	0.01482057	0.00073208
0.26000000	0.00533108	0.00336476	0.01298753	0.01073811	0.00451696	0.00115155	0.00461124	0.00367203	0.00154737	0.00755382	0.00317622	0.00529227	0.00458374	0.00690154	0.00330877	0.01458332	0.01421144	0.01814172	0.01305171	0.01503321	0.01802005	0.02320750	0.01063607	0.01499207	0.00101986
0.27000000	0.00615507	0.00334598	0.01357080	0.01170953	0.00435398	0.00185284	0.00487439	0.00383189	0.00206540	0.00756920	0.00371103	0.00549741	0.00479303	0.00693313	0.00320885	0.01466995	0.01440148	0.01794264	0.01282694	0.01521927	0.01790993	0.02347132	0.01059205	0.01521589	0.00136298
0.28000000	0.00623978	0.00316872	0.01406632	0.01218037	0.00441573	0.00242484	0.00487854	0.00396611	0.00188381	0.00792934	0.00401250	0.00558260	0.00499960	0.00678124	0.00307289	0.01480293	0.01447560	0.01780290	0.01271058	0.01540805	0.01795749	0.02362753	0.01052273	0.01536096	0.00153932
0.29000000	0.00578017	0.00331381	0.01444474	0.01193730	0.00436873	0.00264503	0.00498877	0.00387323	0.00196724	0.00823681	0.00429291	0.00558627	0.00498101	0.00687562	0.00321532	0.01488316	0.01455908	0.01764030	0.01253414	0.01557844	0.01786904	0.02378513	0.01061193	0.01550347	0.00165401
0.30000000	0.00582952	0.00355121	0.01476722	0.01114912	0.00422980	0.00204321	0.00490527	0.00328421	0.00186247	0.00847172	0.00472730	0.00563865	0.00507648	0.00678800	0.00313445	0.01502776	0.01470665	0.01743008	0.01226238	0.01561566	0.01769541	0.02398816	0.01080263	0.01571172	0.00171974
0.31000000	0.00585108	0.00406421	0.01488792	0.00991697	0.00403625	0.00152643	0.00478068	0.00255162	0.00162613	0.00871206	0.00501226	0.00569193	0.00515168	0.00664395	0.00287272	0.01521653	0.01478808	0.01723310	0.01202767	0.01563386	0.01755784	0.02419253	0.01102456	0.01594034	0.00176708
0.32000000	0.00592439	0.00483282	0.01491605	0.00873785	0.00381325	0.00244560	0.00473433	0.00168268	0.00141402	0.00897828	0.00545213	0.00562801	0.00517267	0.00648019	0.00299854	0.01542104	0.01486993	0.01702631	0.01176658	0.01561361	0.01736221	0.02443049	0.01135155	0.01618267	0.00171382
0.33000000	0.00617983	0.00572809	0.01482861	0.00793214	0.00351048	0.00428538	0.00470604	0.00085243	0.00123800	0.00901938	0.00586454	0.00567282	0.00522204	0.00621267	0.00281489	0.01561567	0.01494265	0.01689099	0.01159017	0.01560463	0.01726333	0.02458373	0.01169430	0.01640909	0.00162734
0.34000000	0.00639794	0.00656467	0.01467042	0.00783181	0.00332213	0.00633155	0.00470776	0.00038554	0.00105557	0.00905789	0.00636527	0.00566046	0.00519310	0.00602490	0.00296458	0.01578255	0.01507324	0.01678885	0.01142976	0.01560584	0.01715547	0.02474826	0.01211196	0.01659601	0.00146959
0.35000000	0.00668982	0.00738488	0.01453166	0.00828372	0.00302250	0.00818083	0.00484497	0.00045169	0.00098448	0.00870419	0.00688633	0.00585792	0.00520825	0.00568310	0.00323448	0.01589340	0.01516890	0.01678339	0.01136349	0.01565123	0.01714392	0.02474975	0.01251342	0.01670542	0.00127076
0.36000000	0.00676458	0.00793819	0.01443564	0.00903748	0.00297407	0.00971615	0.00488387	0.00060337	0.00121600	0.00808070	0.00745967	0.00618073	0.00520258	0.00527787	0.00318875	0.01587181	0.01522674	0.01687632	0.01147026	0.01571298	0.01731112	0.02458001	0.01284176	0.01671716	0.00111116
0.37000000	0.00674937	0.00828264	0.01417039	0.00943946	0.00280054	0.01094963	0.00497062	0.00069224	0.00180379	0.00700991	0.00809146	0.00665972	0.00513632	0.00484113	0.00351712	0.01576835	0.01532577	0.01710007	0.01167095	0.01588598	0.01760098	0.02430688	0.01302336	0.01663001	0.00096079
0.38000000	0.00589598	0.00859817	0.01404028	0.00937564	0.00374292	0.01211042	0.00467837	0.00192924	0.00103663	0.00557046	0.00881225	0.00722360	0.00497954	0.00462988	0.00395839	0.01570067	0.01535543	0.01718568	0.01190645	0.01581921	0.01789626	0.02386203	0.01337801	0.01643121	0.00061849
0.39000000	0.00564619	0.00834436	0.01390102	0.00935605	0.00381582	0.01226808	0.00469236	0.00200503	0.00153923	0.00385398	0.00963547	0.00798417	0.00487409	0.00455229	0.00399028	0.01540616	0.01536309	0.01750570	0.01229823	0.01603092	0.01832740	0.02323955	0.01339584	0.01607749	0.00039760
0.40000000	0.00485337	0.00766528	0.01358656	0.00883781	0.00441654	0.01245659	0.00436522	0.00239449	0.00189778	0.00263486	0.01056931	0.00892391	0.00434162	0.00502410	0.00343154	0.01525075	0.01537266	0.01761428	0.01258901	0.01600046	0.01865858	0.02274545	0.01343845	0.01575508	0.00011524
0.41000000	0.00436624	0.00679233	0.01326640	0.00818532	0.00472050	0.01225300	0.00405255	0.00277360	0.00214918	0.00147315	0.01156190	0.01023123	0.00406042	0.00539924	0.00263822	0.01499946	0.01531699	0.01774207	0.01293839	0.01597687	0.01900950	0.02213986	0.01333001	0.01533279	0.00015119
0.42000000	0.00398849	0.00626277	0.01287541	0.00768824	0.00490269	0.01165946	0.00395458	0.00274493	0.00251067	0.00187581	0.01260437	0.01162660	0.00411851	0.00549404	0.00216166	0.01468874	0.01519889	0.01792482	0.01329366	0.01606858	0.01928723	0.02145702	0.01307705	0.01481076	0.00043720
0.43000000	0.00349145	0.00531505	0.01230191	0.00690194	0.00504742	0.01123550	0.00367885	0.00302388	0.00254326	0.00333981	0.01351128	0.01369214	0.00415027	0.00621661	0.00126933	0.01462002	0.01512922	0.01786501	0.01343029	0.01592060	0.01934409	0.02103985	0.01289290	0.01440581	0.00077572
0.44000000	0.00309806	0.00482732	0.01174039	0.00638815	0.00514608	0.01061760	0.00354463	0.00305261	0.00259474	0.00502238	0.01451661	0.01576881	0.00469003	0.00669240	0.00185480	0.01448316	0.01503234	0.01786798	0.01358588	0.01585517	0.01936605	0.02056672	0.01261759	0.01394834	0.00115883
0.45000000	0.00284911	0.00458542	0.01134068	0.00586461	0.00523786	0.01001594	0.00329972	0.00294832	0.00272797	0.00706708	0.01573633	0.01773274	0.00556232	0.00696015	0.00299061	0.01429708	0.01492686	0.01790007	0.01373052	0.01583067	0.01933146	0.02013652	0.01232325	0.01343440	0.00157673
0.46000000	0.00240655	0.00419050	0.01080752	0.00554056	0.00504150	0.00956368	0.00334587	0.00304467	0.00247598	0.00824229	0.01652822	0.02037729	0.00628453	0.00785555	0.00398127	0.01429390	0.01482806	0.01780303	0.01380649	0.01562949	0.01926782	0.01990295	0.01209634	0.01307226	0.00208750
0.47000000	0.00244991	0.00423726	0.01064060	0.00513162	0.00506704	0.00907272	0.00298161	0.00295056	0.00240219	0.01006053	0.01777598	0.02241144	0.00726856	0.00819104	0.00484515	0.01422600	0.01472701	0.01779299	0.01391509	0.01548851	0.01923344	0.01963048	0.01189837	0.01260010	0.00257021
0.48000000	0.00232247	0.00440885	0.01027650	0.00500855	0.00480017	0.00873022	0.00314294	0.00280618	0.00222306	0.01087024	0.01847013	0.02498609	0.00794685	0.00910137	0.00551757	0.01418292	0.01467879	0.01767471	0.01397172	0.01523976	0.01916323	0.01957695	0.01180658	0.01229215	0.00321516
0.49000000	0.00217142	0.00502983	0.01013572	0.00455669	0.00407834	0.00838128	0.00318518	0.00372515	0.00214263	0.01225209	0.01937910	0.02697525	0.00874332	0.00920860	0.00661356	0.01413304	0.01434641	0.01772641	0.01432735	0.01500378	0.01951605	0.01959216	0.01134190	0.01182276	0.00387763
0.50000000	0.00267479	0.00545101	0.00991220	0.00468065	0.00441549	0.00801492	0.00306344	0.00263789	0.00197315	0.01273162	0.02014227	0.02904228	0.00917678	0.01028566	0.00640800	0.01413157	0.01451758	0.01742930	0.01413892	0.01459915	0.01921398	0.01957356	0.01178043	0.01166296	0.00445264
0.51000000	0.00286263	0.00612113	0.00964808	0.00434900	0.00425008	0.00778770	0.00293833	0.00262504	0.00184791	0.01349133	0.02084136	0.03074772	0.00969049	0.01067492	0.00664187	0.01424042	0.01441093	0.01717013	0.01415753	0.01407361	0.01926119	0.01971576	0.01192525	0.01142001	0.00508573
0.52000000	0.00293718	0.00692193	0.00968904	0.00434348	0.00398428	0.00728653	0.00313463	0.00232189	0.00175694	0.01409684	0.02136465	0.03208862	0.01004121	0.01105988	0.00678433	0.01404705	0.01444573	0.01701281	0.01422688	0.01367883	0.01934146	0.01965919	0.01206940	0.01108144	0.00572094
0.53000000	0.00282651	0.00734063	0.00928280	0.00397565	0.00383361	0.00706756	0.00310020	0.00238466	0.00163308	0.01449884	0.02163661	0.03333966	0.01038194	0.01135319	0.00696907	0.01413021	0.01432580	0.01665812	0.01423421	0.01299861	0.01942593	0.01983187	0.01235373	0.01082302	0.00635157
0.54000000	0.00287863	0.00804408	0.00939093	0.00383795	0.00359940	0.00650447	0.00323080	0.00212429	0.00156245	0.01510799	0.02185160	0.03390807	0.01059932	0.01148436	0.00702101	0.01390354	0.01437167	0.01646111	0.01430110	0.01252509	0.01954214	0.01967737	0.01259932	0.01038885	0.00690617
0.55000000	0.00260279	0.00807965	0.00897632	0.00342634	0.00344054	0.00626045	0.00322423	0.00219720	0.00146512	0.01541798	0.02168549	0.03450229	0.01085569	0.01165336	0.00715485	0.01389663	0.01435324	0.01607514	0.01427272	0.01181242	0.01959188	0.01973899	0.01297862	0.01003545	0.00750804
0.56000000	0.00252795	0.00809655	0.00874765	0.00307806	0.00318557	0.00587581	0.00329314	0.00252857	0.00163992	0.01573385	0.02125670	0.03468539	0.01108685	0.01175579	0.00727418	0.01379583	0.01441991	0.01574240	0.01424452	0.01120935	0.01961275	0.01970643	0.01333061	0.00954940	0.00812635
0.57000000	0.00227721	0.00781778	0.00847248	0.00260949	0.00323926	0.00567697	0.00309506	0.00195843	0.00145428	0.01609111	0.02068481	0.03455331	0.01129877	0.01186608	0.00730610	0.01364008	0.01445458	0.01544404	0.01428859	0.01056272	0.01970511	0.01948650	0.01380398	0.00909809	0.00853830
0.58000000	0.00253763	0.00800669	0.00874105	0.00231713	0.00301697	0.00506834	0.00317199	0.00175222	0.00127391	0.01619978	0.01980351	0.03406944	0.01133941	0.01195365	0.00736406	0.01334004	0.01452268	0.01534757	0.01445248	0.01023492	0.01987888	0.01902588	0.01406349	0.00846271	0.00891397
0.59000000	0.00246074	0.00750315	0.00861528	0.00188539	0.00274005	0.00473123	0.00303604	0.00165670	0.00130612	0.01669872	0.01892894	0.03331009	0.01156147	0.01194383	0.00729147	0.01323453	0.01462017	0.01511411	0.01447124	0.00980686	0.01987540	0.01876706	0.01443530	0.00796130	0.00944691
0.60000000	0.00259144	0.00704291	0.00858616	0.00156889	0.00238715	0.00434390	0.00302832	0.00181514	0.00151425	0.01713262	0.01791970	0.03239340	0.01171862	0.01187967	0.00717597	0.01309741	0.01475844	0.01493789	0.01451192	0.00948101	0.01986586	0.01849834	0.01480880	0.00733864	0.00997445
0.61000000	0.00268653	0.00675354	0.00872227	0.00137144	0.00236715	0.00397005	0.00273402	0.00130349	0.00127071	0.01723223	0.01664879	0.03150647	0.01178170	0.01193691	0.00723270	0.01305654	0.01478698	0.01486552	0.01463330	0.00927915	0.01992922	0.01808845	0.01519922	0.00684276	0.01027070
0.62000000	0.00285684	0.00628751	0.00885400	0.00130388	0.00166767	0.00363446	0.00299331	0.00196877	0.00185996	0.01780411	0.01557809	0.03036323	0.01186140	0.01181937	0.00693007	0.01302102	0.01496351	0.01479384	0.01469310	0.00916728	0.01993583	0.01779870	0.01548598	0.00612260	0.01080194
0.63000000	0.00295352	0.00611127	0.00899290	0.00153707	0.00189774	0.00327932	0.00246799	0.00097181	0.00143431	0.01778856	0.01425329	0.02952695	0.01176243	0.01187592	0.00711231	0.01297838	0.01516436	0.01475282	0.01477046	0.00909269	0.01995952	0.01735961	0.01591788	0.00572029	0.01112743
0.64000000	0.00308522	0.00582212	0.00911657	0.00192244	0.00137142	0.00294026	0.00270273	0.00165312	0.00202336	0.01803911	0.01299047	0.02867210	0.01165526	0.01191114	0.00682974	0.01302024	0.01537336	0.01475315	0.01483355	0.00911211	0.02001249	0.01704740	0.01615320	0.00503721	0.01167859
0.65000000	0.00352484	0.00658306	0.00991399	0.00205457	0.00150702	0.00205060	0.00230163	0.00082001	0.00144860	0.01788413	0.01193584	0.02749091	0.01137854	0.01167944	0.00680394	0.01322712	0.01521542	0.01505259	0.01513035	0.00948836	0.02024265	0.01634000	0.01631735	0.00454046	0.01166937
0.66000000	0.00366762	0.00644580	0.00995974	0.00249698	0.00149465	0.00162173	0.00211469	0.00073213	0.00141015	0.01798895	0.01094861	0.02654422	0.01104421	0.01138549	0.00657862	0.01322561	0.01547007	0.01510901	0.01520036	0.00959683	0.02038738	0.01597999	0.01659113	0.00396126	0.01204280
0.67000000	0.00391508	0.00612744	0.00993723	0.00309966	0.00161926	0.00142586	0.00191610	0.00060843	0.00145094	0.01758919	0.00993037	0.02578833	0.01057193	0.01107279	0.00650161	0.01339070	0.01578677	0.01505470	0.01508849	0.00968993	0.02037886	0.01575160	0.01692387	0.00359759	0.01241292
0.68000000	0.00435696	0.00630197	0.01027947	0.00344781	0.00166584	0.00095159	0.00180555	0.00068000	0.00148849	0.01722896	0.00894863	0.02433686	0.01007411	0.01034736	0.00587065	0.01361546	0.01578396	0.01529095	0.01522318	0.01007434	0.02062095	0.01525006	0.01704746	0.00302156	0.01257552
0.69000000	0.00468771	0.00603363	0.01035380	0.00397001	0.00187343	0.00081217	0.00168432	0.00061842	0.00154595	0.01640237	0.00803772	0.02281811	0.00939928	0.00952389	0.00540063	0.01379039	0.01599187	0.01533234	0.01513695	0.01030851	0.02071202	0.01493075	0.01730683	0.00259710	0.01287706
0.70000000	0.00517521	0.00618590	0.01054732	0.00443229	0.00204273	0.00076940	0.00169514	0.00060892	0.00149109	0.01543796	0.00676804	0.02059584	0.00863354	0.00808844	0.00460919	0.01398888	0.01612014	0.01547432	0.01506691	0.01072067	0.02084601	0.01452629	0.01747389	0.00218788	0.01319624
0.71000000	0.00531563	0.00570732	0.01059086	0.00485143	0.00232560	0.00086718	0.00158911	0.00067365	0.00156302	0.01352476	0.00604902	0.01842662	0.00779553	0.00717443	0.00402369	0.01415142	0.01628992	0.01547818	0.01492849	0.01091958	0.02100299	0.01426042	0.01769600	0.00185455	0.01348307
0.72000000	0.00541519	0.00509686	0.01069134	0.00527813	0.00258702	0.00097975	0.00154118	0.00072297	0.00163472	0.01141685	0.00546781	0.01594956	0.00705416	0.00604773	0.00338491	0.01435155	0.01644997	0.01542122	0.01468810	0.01108772	0.02107112	0.01406987	0.01806433	0.00163767	0.01368392
0.73000000	0.00542840	0.00494701	0.01075043	0.00582491	0.00292133	0.00103399	0.00173948	0.00053456	0.00163120	0.00895076	0.00510446	0.01375130	0.00616221	0.00571163	0.00299065	0.01438797	0.01685629	0.01513585	0.01426932	0.01106115	0.02109443	0.01411798	0.01843806	0.00147438	0.01410533
0.74000000	0.00551718	0.00435733	0.01121162	0.00598336	0.00308422	0.00128995	0.00174060	0.00076773	0.00142602	0.00744513	0.00468386	0.01036742	0.00566665	0.00383476	0.00215521	0.01461237	0.01673569	0.01533259	0.01418943	0.01149643	0.02130883	0.01370700	0.01866661	0.00123818	0.01411142
0.75000000	0.00535371	0.00446472	0.01154792	0.00644582	0.00342022	0.00124833	0.00192208	0.00084922	0.00140250	0.00651495	0.00474428	0.00799210	0.00517345	0.00322084	0.00189848	0.01465328	0.01701291	0.01514547	0.01380284	0.01156461	0.02135417	0.01364545	0.01911460	0.00115707	0.01437795
0.76000000	0.00518889	0.00428264	0.01201705	0.00673319	0.00364544	0.00139744	0.00203855	0.00104089	0.00143211	0.00685868	0.00492089	0.00567567	0.00491089	0.00246234	0.00156583	0.01461891	0.01724989	0.01508483	0.01350165	0.01179603	0.02149607	0.01346890	0.01947312	0.00100302	0.01448206
0.77000000	0.00507419	0.00423837	0.01272203	0.00698767	0.00388136	0.00174302	0.00226888	0.00123537	0.00138434	0.00784904	0.00495366	0.00376342	0.00463542	0.00224400	0.00134633	0.01471603	0.01723629	0.01510172	0.01322567	0.01207247	0.02154644	0.01343721	0.01969368	0.00104418	0.01444235
0.78000000	0.00489162	0.00444480	0.01339812	0.00724895	0.00406148	0.00196445	0.00253629	0.00125985	0.00131169	0.00880434	0.00493773	0.00252760	0.00436771	0.00219710	0.00131067	0.01471595	0.01734528	0.01507214	0.01290881	0.01226671	0.02157698	0.01340938	0.01998412	0.00104340	0.01447062
0.79000000	0.00454044	0.00401537	0.01395469	0.00741771	0.00424377	0.00225919	0.00269346	0.00142468	0.00133046	0.00939168	0.00491726	0.00189537	0.00418996	0.00215099	0.00123304	0.01469119	0.01745424	0.01509730	0.01260440	0.01249540	0.02159196	0.01338013	0.02027555	0.00113950	0.01438806
0.80000000	0.00444890	0.00460092	0.01475036	0.00753415	0.00434709	0.00262471	0.00296237	0.00132301	0.00153014	0.00918618	0.00512874	0.00179344	0.00372534	0.00229777	0.00119864	0.01461497	0.01769451	0.01502170	0.01214372	0.01267133	0.02141668	0.01353635	0.02065207	0.00154627	0.01430604
0.81000000	0.00364519	0.00363950	0.01485845	0.00770418	0.00452147	0.00258861	0.00299667	0.00154761	0.00121444	0.00893049	0.00487982	0.00234238	0.00365240	0.00237938	0.00132335	0.01456760	0.01782601	0.01514413	0.01193796	0.01277952	0.02152128	0.01347787	0.02087070	0.00134328	0.01430543
0.82000000	0.00330522	0.00405451	0.01535409	0.00786222	0.00460436	0.00266849	0.00316302	0.00146118	0.00102720	0.00783123	0.00551610	0.00310975	0.00312774	0.00205454	0.00110229	0.01431570	0.01814258	0.01513933	0.01156878	0.01290547	0.02143888	0.01368194	0.02111492	0.00175770	0.01418216
0.83000000	0.00235234	0.00266808	0.01536009	0.00768447	0.00471722	0.00307898	0.00308374	0.00139284	0.00092403	0.00692550	0.00491158	0.00417623	0.00329863	0.00242479	0.00102249	0.01428214	0.01810953	0.01550569	0.01147583	0.01316533	0.02147234	0.01360970	0.02125098	0.00180453	0.01390004
0.84000000	0.00168175	0.00264521	0.01546790	0.00764709	0.00477187	0.00294916	0.00305475	0.00144871	0.00060163	0.00573392	0.00496301	0.00556763	0.00322852	0.00255305	0.00117096	0.01415093	0.01834915	0.01568891	0.01125441	0.01321498	0.02145411	0.01373079	0.02153768	0.00209323	0.01382885
0.85000000	0.00141102	0.00268773	0.01562554	0.00750878	0.00492216	0.00289396	0.00302156	0.00154335	0.00100125	0.00483621	0.00475042	0.00696335	0.00330662	0.00290280	0.00124299	0.01396946	0.01855135	0.01595475	0.01102889	0.01338569	0.02131420	0.01395197	0.02164721	0.00242472	0.01372224
0.86000000	0.00175751	0.00296560	0.01560679	0.00729494	0.00510381	0.00278892	0.00298969	0.00168018	0.00161217	0.00424523	0.00469957	0.00821150	0.00343690	0.00310494	0.00122643	0.01377266	0.01871846	0.01625847	0.01088986	0.01354040	0.02123805	0.01426528	0.02169753	0.00280562	0.01370602
0.87000000	0.00220955	0.00319608	0.01553014	0.00688815	0.00527479	0.00272815	0.00310653	0.00194170	0.00205201	0.00400424	0.00486363	0.00924400	0.00353662	0.00303018	0.00140416	0.01364341	0.01884507	0.01665121	0.01084084	0.01366926	0.02120473	0.01447422	0.02176740	0.00318662	0.01378386
0.88000000	0.00290054	0.00344924	0.01542781	0.00623367	0.00551860	0.00290188	0.00330464	0.00220793	0.00274934	0.00408423	0.00507162	0.00990648	0.00372756	0.00290595	0.00166736	0.01349022	0.01885637	0.01711160	0.01089797	0.01385581	0.02120840	0.01474553	0.02165410	0.00357353	0.01389251
0.89000000	0.00386434	0.00349305	0.01529495	0.00547644	0.00585757	0.00316311	0.00370954	0.00248153	0.00354825	0.00387290	0.00562964	0.01074976	0.00377489	0.00347733	0.00159552	0.01324016	0.01895662	0.01743396	0.01091579	0.01389806	0.02115830	0.01515586	0.02147642	0.00402783	0.01412359
0.90000000	0.00388672	0.00344122	0.01525290	0.00425320	0.00634197	0.00385586	0.00393412	0.00266507	0.00417500	0.00372482	0.00586454	0.01092749	0.00389295	0.00292352	0.00259700	0.01321185	0.01862385	0.01810311	0.01128202	0.01411382	0.02138517	0.01516947	0.02107817	0.00433515	0.01421687
0.91000000	0.00429140	0.00327306	0.01494634	0.00315363	0.00679580	0.00481054	0.00443269	0.00310187	0.00422335	0.00336101	0.00651213	0.01113351	0.00394542	0.00383977	0.00216003	0.01306454	0.01866599	0.01831579	0.01127866	0.01403845	0.02125018	0.01557593	0.02084291	0.00483439	0.01463862
0.92000000	0.00426178	0.00332043	0.01473118	0.00161595	0.00745778	0.00593401	0.00481962	0.00326753	0.00422876	0.00323663	0.00678929	0.01085241	0.00414086	0.00372783	0.00253125	0.01297561	0.01832207	0.01884765	0.01159276	0.01423858	0.02138441	0.01560119	0.02029482	0.00516297	0.01480047
0.93000000	0.00416701	0.00295049	0.01429340	0.00065140	0.00814692	0.00759543	0.00497403	0.00335113	0.00369253	0.00274801	0.00709515	0.01083762	0.00441023	0.00404091	0.00275541	0.01290567	0.01814009	0.01908057	0.01173845	0.01417426	0.02139504	0.01576786	0.01993225	0.00556810	0.01501294
0.94000000	0.00388133	0.00294277	0.01397990	0.00220928	0.00905233	0.00892640	0.00518033	0.00341909	0.00312593	0.00244106	0.00735551	0.01044712	0.00452328	0.00401659	0.00312855	0.01280577	0.01770668	0.01951355	0.01209404	0.01433721	0.02158371	0.01566824	0.01930047	0.00583354	0.01499188
0.95000000	0.00395560	0.00261113	0.01342791	0.00365789	0.00980320	0.01084726	0.00514470	0.00342445	0.00222018	0.00221497	0.00739849	0.01041840	0.00492010	0.00421805	0.00312937	0.01293885	0.01747945	0.01964047	0.01208167	0.01430707	0.02140156	0.01590205	0.01892293	0.00635204	0.01494417
0.96000000	0.00355944	0.00215601	0.01276414	0.00522080	0.01057112	0.01289104	0.00499525	0.00355356	0.00119298	0.00183575	0.00753379	0.01028810	0.00502344	0.00453659	0.00321945	0.01277987	0.01735035	0.01974874	0.01226392	0.01421278	0.02149936	0.01583466	0.01862915	0.00664593	0.01489402
0.97000000	0.00333293	0.00186315	0.01222079	0.00683992	0.01134746	0.01478242	0.00488769	0.00380192	0.00084874	0.00165438	0.00753847	0.01020393	0.00516340	0.00465696	0.00322662	0.01276316	0.01715748	0.01987933	0.01239358	0.01421185	0.02149549	0.01585238	0.01830687	0.00702974	0.01469081
0.98000000	0.00310268	0.00197331	0.01186711	0.00875586	0.01233672	0.01626472	0.00494628	0.00406394	0.00184020	0.00148399	0.00770383	0.00992600	0.00504546	0.00477213	0.00333788	0.01274013	0.01694397	0.02006067	0.01257022	0.01427420	0.02152761	0.01585056	0.01795752	0.00737014	0.01438134
0.99000000	0.00273607	0.00175872	0.01112738	0.00941312	0.01269656	0.01883063	0.00461135	0.00456562	0.00234012	0.00162425	0.00742372	0.00998366	0.00519792	0.00478048	0.00311649	0.01278700	0.01692622	0.02003192	0.01260822	0.01414141	0.02147008	0.01593479	0.01798205	0.00781435	0.01423428
1.00000000	0.00271129	0.00186208	0.01081589	0.01051929	0.01326372	0.02069862	0.00464304	0.00511716	0.00307337	0.00168040	0.00730777	0.00988928	0.00519912	0.00472847	0.00308448	0.01282283	0.01678218	0.02014170	0.01272218	0.01416792	0.02142755	0.01598677	0.01787788	0.00820448	0.01392872
1.01000000	0.00277768	0.00214838	0.01063804	0.01194722	0.01409390	0.02219255	0.00475708	0.00547995	0.00378066	0.00158804	0.00728444	0.00967334	0.00509015	0.00476882	0.00300255	0.01285058	0.01664908	0.02022456	0.01282718	0.01416027	0.02138763	0.01609183	0.01783617	0.00855459	0.01360133
1.02000000	0.00291579	0.00241882	0.01042964	0.01300479	0.01462073	0.02392423	0.00491902	0.00608139	0.00433040	0.00147031	0.00715313	0.00953310	0.00510106	0.00468181	0.00291590	0.01290860	0.01655949	0.02023739	0.01285623	0.01408838	0.02127926	0.01621013	0.01788811	0.00892244	0.01337344
1.03000000	0.00285534	0.00243293	0.01015812	0.01309375	0.01451106	0.02639532	0.00482556	0.00708040	0.00451963	0.00158011	0.00676407	0.00937390	0.00517230	0.00449862	0.00281044	0.01293732	0.01648484	0.02018189	0.01287701	0.01390073	0.02120252	0.01633930	0.01800344	0.00922709	0.01315188
1.04000000	0.00308993	0.00245577	0.01011422	0.01413435	0.01494369	0.02805928	0.00497324	0.00758495	0.00493901	0.00127295	0.00650449	0.00908622	0.00510926	0.00461115	0.00264486	0.01297727	0.01637897	0.02011642	0.01284631	0.01372082	0.02106395	0.01648780	0.01810957	0.00951847	0.01284740
1.05000000	0.00315359	0.00252258	0.01001397	0.01503091	0.01507297	0.02974551	0.00518675	0.00826392	0.00531525	0.00102064	0.00617076	0.00886473	0.00515863	0.00478181	0.00240790	0.01304217	0.01618139	0.02001463	0.01285745	0.01346092	0.02098445	0.01656744	0.01821556	0.00972376	0.01254126
1.06000000	0.00368570	0.00279670	0.01017389	0.01560343	0.01505329	0.03142195	0.00511255	0.00889072	0.00532648	0.00085117	0.00610145	0.00850812	0.00523352	0.00427989	0.00245470	0.01307073	0.01602874	0.01988869	0.01272229	0.01324032	0.02072441	0.01682274	0.01817961	0.00997752	0.01214161
1.07000000	0.00347757	0.00272826	0.00998809	0.01646905	0.01493722	0.03287874	0.00533946	0.00948572	0.00562251	0.00078009	0.00575801	0.00815694	0.00517418	0.00474355	0.00204750	0.01318075	0.01593884	0.01966711	0.01255071	0.01287696	0.02048461	0.01691784	0.01825755	0.01017505	0.01188992
1.08000000	0.00410335	0.00280548	0.01025579	0.01736633	0.01486478	0.03388694	0.00533294	0.00985753	0.00576717	0.00061886	0.00567523	0.00773160	0.00517486	0.00418766	0.00219278	0.01312734	0.01560168	0.01953322	0.01254581	0.01259361	0.02037968	0.01718177	0.01800864	0.01035062	0.01127107
1.09000000	0.00370888	0.00286344	0.00994013	0.01829442	0.01462941	0.03481451	0.00551092	0.01013206	0.00586790	0.00093110	0.00522840	0.00751178	0.00519550	0.00454812	0.00176489	0.01326053	0.01550765	0.01920409	0.01227975	0.01215953	0.02002918	0.01743220	0.01799739	0.01061504	0.01093230
1.10000000	0.00454224	0.00301448	0.01034684	0.01921003	0.01437247	0.03502481	0.00565178	0.01033571	0.00602063	0.00105498	0.00508232	0.00710131	0.00513825	0.00411546	0.00190857	0.01319700	0.01511052	0.01916695	0.01233261	0.01198915	0.01999669	0.01755604	0.01756125	0.01067809	0.01018795
1.11000000	0.00464463	0.00323208	0.01031911	0.02010143	0.01400805	0.03502787	0.00581306	0.01049788	0.00612896	0.00143816	0.00475898	0.00685147	0.00514447	0.00399932	0.00178329	0.01320891	0.01489225	0.01898256	0.01222460	0.01171457	0.01980888	0.01775552	0.01728147	0.01082670	0.00959273
1.12000000	0.00490978	0.00344614	0.01035993	0.02091884	0.01356334	0.03463786	0.00600382	0.01055573	0.00615869	0.00172236	0.00446584	0.00658540	0.00509978	0.00404206	0.00156086	0.01319062	0.01461374	0.01883623	0.01218924	0.01151129	0.01968077	0.01795870	0.01690621	0.01098649	0.00893305
1.13000000	0.00473301	0.00349422	0.01017875	0.02162446	0.01302653	0.03406519	0.00619047	0.01057031	0.00623017	0.00216750	0.00421634	0.00626750	0.00496166	0.00411466	0.00159446	0.01335542	0.01432601	0.01864400	0.01204879	0.01132354	0.01943700	0.01828526	0.01647447	0.01132389	0.00830269
1.14000000	0.00504012	0.00365580	0.01029257	0.02223544	0.01247270	0.03305818	0.00628825	0.01039450	0.00609378	0.00257890	0.00391822	0.00608251	0.00490857	0.00407342	0.00157698	0.01334284	0.01406077	0.01859365	0.01208093	0.01129397	0.01935973	0.01842997	0.01599671	0.01147524	0.00759769
1.15000000	0.00515477	0.00380909	0.01026118	0.02267690	0.01177485	0.03190075	0.00637440	0.01019755	0.00599229	0.00303585	0.00362659	0.00591825	0.00481523	0.00414318	0.00155242	0.01337054	0.01385623	0.01850658	0.01205742	0.01129456	0.01920452	0.01867526	0.01553412	0.01172944	0.00694389
1.16000000	0.00540311	0.00390050	0.01037369	0.02299229	0.01110723	0.03046638	0.00633397	0.00980765	0.00572118	0.00351299	0.00326220	0.00588439	0.00474553	0.00425111	0.00156793	0.01339810	0.01361707	0.01852740	0.01212057	0.01144229	0.01912706	0.01886187	0.01497633	0.01196975	0.00619276
1.17000000	0.00499716	0.00401439	0.00998832	0.02310698	0.01003055	0.02917056	0.00623142	0.00974044	0.00547732	0.00420291	0.00283312	0.00595543	0.00468742	0.00510871	0.00188537	0.01350273	0.01356945	0.01840577	0.01195787	0.01156214	0.01879427	0.01926675	0.01460513	0.01254447	0.00544743
1.18000000	0.00546811	0.00414054	0.01036625	0.02265598	0.00938501	0.02752647	0.00600194	0.00875932	0.00516557	0.00446012	0.00293741	0.00591976	0.00456039	0.00455741	0.00164258	0.01356227	0.01332583	0.01854522	0.01215368	0.01191434	0.01881721	0.01940070	0.01397835	0.01256724	0.00482765
1.19000000	0.00546380	0.00430723	0.01045300	0.02216139	0.00855749	0.02566876	0.00576068	0.00808355	0.00472538	0.00498991	0.00270938	0.00600966	0.00448347	0.00471865	0.00182888	0.01354422	0.01326597	0.01862629	0.01220840	0.01229627	0.01869078	0.01964540	0.01349166	0.01286734	0.00414856
1.20000000	0.00545224	0.00444813	0.01056367	0.02126483	0.00769840	0.02361298	0.00549184	0.00720503	0.00410425	0.00541746	0.00259259	0.00617281	0.00442103	0.00489946	0.00203753	0.01356287	0.01322183	0.01875372	0.01226765	0.01280438	0.01857645	0.01989666	0.01299480	0.01319621	0.00347160
1.21000000	0.00532680	0.00461861	0.01059814	0.02005001	0.00680695	0.02123941	0.00522223	0.00626426	0.00347803	0.00581253	0.00261023	0.00632088	0.00437306	0.00506190	0.00229362	0.01359266	0.01328571	0.01886190	0.01226964	0.01334236	0.01843255	0.02016995	0.01259355	0.01355814	0.00286901
1.22000000	0.00484848	0.00469111	0.01033800	0.01793397	0.00599939	0.01946351	0.00463765	0.00558884	0.00312628	0.00638837	0.00261634	0.00635139	0.00444506	0.00529222	0.00235199	0.01377794	0.01340546	0.01872946	0.01208226	0.01367098	0.01814160	0.02073047	0.01239073	0.01401944	0.00251886
1.23000000	0.00437423	0.00462272	0.01077239	0.01577739	0.00557349	0.01638992	0.00449469	0.00443568	0.00223310	0.00650596	0.00277319	0.00658305	0.00435516	0.00569848	0.00243297	0.01377860	0.01339404	0.01902032	0.01222921	0.01443608	0.01827384	0.02085152	0.01187522	0.01421186	0.00172907
1.24000000	0.00456171	0.00452839	0.01052177	0.01320635	0.00493397	0.01414618	0.00409604	0.00393910	0.00202085	0.00684352	0.00281227	0.00679626	0.00463356	0.00580035	0.00268257	0.01421994	0.01347345	0.01882148	0.01199043	0.01479614	0.01809613	0.02131751	0.01178259	0.01493966	0.00131550
1.25000000	0.00351939	0.00441047	0.01119699	0.01107907	0.00516059	0.01058373	0.00406389	0.00264879	0.00117809	0.00716025	0.00313069	0.00675946	0.00446043	0.00624042	0.00269726	0.01408981	0.01362561	0.01908313	0.01200935	0.01559540	0.01817181	0.02159571	0.01140573	0.01491506	0.00080020
1.26000000	0.00373006	0.00432159	0.01156950	0.00955786	0.00477684	0.00724068	0.00419547	0.00225099	0.00075465	0.00737098	0.00333663	0.00690472	0.00456120	0.00633334	0.00293950	0.01415240	0.01379996	0.01914868	0.01191274	0.01624402	0.01820303	0.02188236	0.01119435	0.01530581	0.00039717
1.27000000	0.00508267	0.00427389	0.01196352	0.00911748	0.00453080	0.00483154	0.00416952	0.00232857	0.00137720	0.00748517	0.00360517	0.00714496	0.00484072	0.00651425	0.00294530	0.01447625	0.01399590	0.01897907	0.01162859	0.01665506	0.01810379	0.02226870	0.01126600	0.01577094	0.00016750
1.28000000	0.00438883	0.00390097	0.01267207	0.00974413	0.00471241	0.00191239	0.00448224	0.00302750	0.00113849	0.00780811	0.00384203	0.00706221	0.00478009	0.00674634	0.00312985	0.01441613	0.01415434	0.01910699	0.01161671	0.01732760	0.01827475	0.02254114	0.01102717	0.01588314	0.00024988
1.29000000	0.00486891	0.00363569	0.01327108	0.01076197	0.00432041	0.00057917	0.00464898	0.00370750	0.00143184	0.00792004	0.00410716	0.00716759	0.00490797	0.00684156	0.00310817	0.01455559	0.01434873	0.01907905	0.01148983	0.01781864	0.01836480	0.02281141	0.01098115	0.01616183	0.00054020
1.30000000	0.00572989	0.00336277	0.01408645	0.01176649	0.00384187	0.00144844	0.00495987	0.00397044	0.00287759	0.00811195	0.00447590	0.00709677	0.00493363	0.00704987	0.00353951	0.01472580	0.01459953	0.01891017	0.01111609	0.01814281	0.01812133	0.02323262	0.01110530	0.01651989	0.00063652
1.31000000	0.00535385	0.00320460	0.01455940	0.01214020	0.00437821	0.00224900	0.00456309	0.00401098	0.00163938	0.00839207	0.00459195	0.00709691	0.00511452	0.00686717	0.00325403	0.01495846	0.01461939	0.01879978	0.01106957	0.01845681	0.01830272	0.02344749	0.01111393	0.01670604	0.00074236
1.32000000	0.00513435	0.00307971	0.01514281	0.01184039	0.00405009	0.00243264	0.00453569	0.00390335	0.00159167	0.00849683	0.00478706	0.00707419	0.00512015	0.00684261	0.00313587	0.01504534	0.01479825	0.01870173	0.01094611	0.01868872	0.01830211	0.02363640	0.01121427	0.01686527	0.00088092
1.33000000	0.00574896	0.00313394	0.01550217	0.01065820	0.00482099	0.00218569	0.00385312	0.00335503	0.00096048	0.00856630	0.00493717	0.00714531	0.00535289	0.00687087	0.00280292	0.01543633	0.01510205	0.01836480	0.01039431	0.01872278	0.01780888	0.02412922	0.01158312	0.01737383	0.00080032
1.34000000	0.00509711	0.00343784	0.01594194	0.01001391	0.00365257	0.00047731	0.00425676	0.00265370	0.00126278	0.00882254	0.00521605	0.00676915	0.00511874	0.00661170	0.00280224	0.01548604	0.01504108	0.01825768	0.01051856	0.01875289	0.01803413	0.02417864	0.01165696	0.01729725	0.00086920
1.35000000	0.00520356	0.00397379	0.01615214	0.00893432	0.00344800	0.00146605	0.00422825	0.00192867	0.00099955	0.00907897	0.00550826	0.00641793	0.00501866	0.00647847	0.00278600	0.01575458	0.01516540	0.01796552	0.01026699	0.01863940	0.01780563	0.02448382	0.01200340	0.01754459	0.00075811
1.36000000	0.00557733	0.00475278	0.01623235	0.00820038	0.00316041	0.00330294	0.00431010	0.00126158	0.00080484	0.00932929	0.00583967	0.00603628	0.00488938	0.00628791	0.00271384	0.01607574	0.01527479	0.01765577	0.01000982	0.01845709	0.01756143	0.02480645	0.01239234	0.01780023	0.00060296
1.37000000	0.00601978	0.00555393	0.01614050	0.00809802	0.00318662	0.00519111	0.00429760	0.00097950	0.00078628	0.00961093	0.00619351	0.00563785	0.00480119	0.00601317	0.00220594	0.01643130	0.01540094	0.01731948	0.00982056	0.01814679	0.01740911	0.02512639	0.01280243	0.01812177	0.00046216
1.38000000	0.00662334	0.00658764	0.01622159	0.00833525	0.00255294	0.00669934	0.00470163	0.00078613	0.00084155	0.00947312	0.00665755	0.00541458	0.00467464	0.00575957	0.00275416	0.01661833	0.01560279	0.01709000	0.00961895	0.01796951	0.01711793	0.02528904	0.01334374	0.01824690	0.00015564
1.39000000	0.00706299	0.00752213	0.01617867	0.00866214	0.00221963	0.00804701	0.00492795	0.00102409	0.00093015	0.00914580	0.00710138	0.00532415	0.00466234	0.00528581	0.00306440	0.01682721	0.01569156	0.01690572	0.00956286	0.01773858	0.01703365	0.02537280	0.01374929	0.01840192	0.00018284
1.40000000	0.00721807	0.00831618	0.01623266	0.00892717	0.00220233	0.00897841	0.00499624	0.00117857	0.00105539	0.00861952	0.00753256	0.00538347	0.00471887	0.00484276	0.00334115	0.01687591	0.01586312	0.01680415	0.00963531	0.01751178	0.01704102	0.02523240	0.01420362	0.01838125	0.00050813
1.41000000	0.00653986	0.00891946	0.01622831	0.00857713	0.00296656	0.01012610	0.00463598	0.00165394	0.00079440	0.00773359	0.00801604	0.00552002	0.00468941	0.00453355	0.00363409	0.01691595	0.01596783	0.01667505	0.00977025	0.01715672	0.01713604	0.02509715	0.01455286	0.01833756	0.00084878
1.42000000	0.00641584	0.00907790	0.01618278	0.00832466	0.00274436	0.01017529	0.00460921	0.00162538	0.00102757	0.00669672	0.00854839	0.00593132	0.00470908	0.00453750	0.00366516	0.01677686	0.01600587	0.01676423	0.01009918	0.01703992	0.01741440	0.02476546	0.01465717	0.01811654	0.00111794
1.43000000	0.00546462	0.00909547	0.01610338	0.00759932	0.00334572	0.01033955	0.00417868	0.00191191	0.00061310	0.00531546	0.00919909	0.00655391	0.00460455	0.00468986	0.00380493	0.01663024	0.01612632	0.01672362	0.01041256	0.01676678	0.01762850	0.02430096	0.01490528	0.01781990	0.00148958
1.44000000	0.00496311	0.00864670	0.01599189	0.00700830	0.00318338	0.00982424	0.00407819	0.00192116	0.00081115	0.00359345	0.00999154	0.00741611	0.00463621	0.00489902	0.00361246	0.01631899	0.01601380	0.01696365	0.01095696	0.01679412	0.01809309	0.02363557	0.01465521	0.01733869	0.00167265
1.45000000	0.00404534	0.00813918	0.01579824	0.00639629	0.00339795	0.00929177	0.00393407	0.00212264	0.00084461	0.00188364	0.01092248	0.00853111	0.00447916	0.00521246	0.00312165	0.01599643	0.01600704	0.01705788	0.01137668	0.01674661	0.01831473	0.02295340	0.01453643	0.01681732	0.00202326
1.46000000	0.00343745	0.00743819	0.01550975	0.00579761	0.00356901	0.00869640	0.00384251	0.00236907	0.00106800	0.00081147	0.01195856	0.00990747	0.00447242	0.00553591	0.00242343	0.01569635	0.01589777	0.01714153	0.01185441	0.01666165	0.01860233	0.02220157	0.01426993	0.01619981	0.00228245
1.47000000	0.00239447	0.00611241	0.01502099	0.00487105	0.00392086	0.00843960	0.00364888	0.00284725	0.00042667	0.00151939	0.01293237	0.01201845	0.00409946	0.00588035	0.00119525	0.01550573	0.01584473	0.01699785	0.01219125	0.01630957	0.01874137	0.02168661	0.01403526	0.01572164	0.00264348
1.48000000	0.00219845	0.00545206	0.01449896	0.00436833	0.00393710	0.00782670	0.00370917	0.00303480	0.00060245	0.00367966	0.01409060	0.01367109	0.00451685	0.00597965	0.00137978	0.01527218	0.01563510	0.01706809	0.01259342	0.01629678	0.01886439	0.02101759	0.01359203	0.01510727	0.00290703
1.49000000	0.00164720	0.00464871	0.01380351	0.00393191	0.00409374	0.00747403	0.00369365	0.00331394	0.00032445	0.00495625	0.01491925	0.01607464	0.00474175	0.00655757	0.00172125	0.01514445	0.01563679	0.01692699	0.01277017	0.01606444	0.01874876	0.02060773	0.01334334	0.01462483	0.00334976
1.50000000	0.00134707	0.00414672	0.01322445	0.00356861	0.00413648	0.00710439	0.00368893	0.00344256	0.00039103	0.00668551	0.01591643	0.01816239	0.00531361	0.00695863	0.00272693	0.01497086	0.01560551	0.01690074	0.01300082	0.01595569	0.01867207	0.02015340	0.01304462	0.01405606	0.00379121
1.51000000	0.00152445	0.00377461	0.01277481	0.00321118	0.00432221	0.00671356	0.00341847	0.00333835	0.00037431	0.00846707	0.01703440	0.02018264	0.00602791	0.00721083	0.00360594	0.01484317	0.01551510	0.01688737	0.01321424	0.01584492	0.01857311	0.01981335	0.01280088	0.01352446	0.00423368
1.52000000	0.00157300	0.00357941	0.01235587	0.00288927	0.00431964	0.00648123	0.00323483	0.00321740	0.00036009	0.00983288	0.01794676	0.02239882	0.00661179	0.00771516	0.00430064	0.01477216	0.01547900	0.01683614	0.01338103	0.01567160	0.01846992	0.01958787	0.01267429	0.01309068	0.00474755
1.53000000	0.00175509	0.00350570	0.01200052	0.00253678	0.00413610	0.00625877	0.00300316	0.00300386	0.00038359	0.01085156	0.01865957	0.02472221	0.00715264	0.00844288	0.00483683	0.01469729	0.01548575	0.01677439	0.01353378	0.01544983	0.01840893	0.01947606	0.01257682	0.01276507	0.00531103
1.54000000	0.00206674	0.00385141	0.01181018	0.00224565	0.00409013	0.00593419	0.00271778	0.00273727	0.00050297	0.01195408	0.01941918	0.02672680	0.00765863	0.00897389	0.00522856	0.01461911	0.01547383	0.01670629	0.01368534	0.01519707	0.01838070	0.01946661	0.01260450	0.01241545	0.00588158
