TVC09_2_JMP_03_lower_limb_body_marker_personalization_task_1_initialErrors.sto
version=1
nRows=256
nColumns=28
inDegrees=no
endheader
time	R_Asis	L_Asis	R_Psis	L_Psis	Sacral	R_Thigh_Lateral	R_Knee_Lateral	R_Shank_Lateral	R_Ankle_Lateral	R_Heel	R_Toe	L_Thigh_Lateral	L_Knee_Lateral	L_Shank_Lateral	L_Ankle_Lateral	L_Heel	L_Toe	R_Shoulder	L_Shoulder	C7	J_Notch	Thoracic	Sternum	R_Elbow	L_Elbow	R_Wrist	L_Wrist
0.40000000	0.00407095	0.00671898	0.00401760	0.00205803	0.00256035	0.00864027	0.00937754	0.01195099	0.01478801	0.02153617	0.01167366	0.01497289	0.00746172	0.01404750	0.00192906	0.00426156	0.00188997	0.00501956	0.00387418	0.00395685	0.00475833	0.00727672	0.00417905	0.00484184	0.01285338	0.00419452	0.00788275
0.41000000	0.00402733	0.00694302	0.00390782	0.00236322	0.00255055	0.00862738	0.00940606	0.01187197	0.01489295	0.02142601	0.01176753	0.01521006	0.00726016	0.01443161	0.00198586	0.00436227	0.00199589	0.00507704	0.00391232	0.00405080	0.00476251	0.00709229	0.00404211	0.00481089	0.01290934	0.00427619	0.00824060
0.42000000	0.00384359	0.00688670	0.00408992	0.00280162	0.00283447	0.00871033	0.00959973	0.01170797	0.01504903	0.02121747	0.01174637	0.01481666	0.00715929	0.01429838	0.00212865	0.00417382	0.00210398	0.00503164	0.00429762	0.00397300	0.00493144	0.00699443	0.00388815	0.00469850	0.01280208	0.00437300	0.00882933
0.43000000	0.00343727	0.00666963	0.00418105	0.00298047	0.00293147	0.00881360	0.00976368	0.01153223	0.01513182	0.02114119	0.01168708	0.01379565	0.00703555	0.01373802	0.00215232	0.00387941	0.00227441	0.00517865	0.00450879	0.00397309	0.00502088	0.00685155	0.00377660	0.00471590	0.01283117	0.00434875	0.00972070
0.44000000	0.00294782	0.00674758	0.00407963	0.00301410	0.00287093	0.00893545	0.01002033	0.01132330	0.01511445	0.02119706	0.01151439	0.01220094	0.00707711	0.01265495	0.00200853	0.00358220	0.00186962	0.00535355	0.00448652	0.00407592	0.00505820	0.00674437	0.00377080	0.00478279	0.01305884	0.00425839	0.01053353
0.45000000	0.00245323	0.00723293	0.00393495	0.00308012	0.00283370	0.00909987	0.01029129	0.01106980	0.01515490	0.02114432	0.01134730	0.01045068	0.00687556	0.01114706	0.00200962	0.00322272	0.00165512	0.00566933	0.00450224	0.00406655	0.00506948	0.00656706	0.00377376	0.00497368	0.01305615	0.00402819	0.01119380
0.46000000	0.00230081	0.00731059	0.00373226	0.00315506	0.00271832	0.00913553	0.01003403	0.01095635	0.01540118	0.02081314	0.01139883	0.00855406	0.00547280	0.01017507	0.00255254	0.00319357	0.00303620	0.00611332	0.00438485	0.00410245	0.00493163	0.00630651	0.00372638	0.00513454	0.01318980	0.00388672	0.01134421
0.47000000	0.00259519	0.00782721	0.00368655	0.00361578	0.00294863	0.00907411	0.01041506	0.01067196	0.01548046	0.02078570	0.01091740	0.00801879	0.00531238	0.00688158	0.00178448	0.00286137	0.00173915	0.00651550	0.00419327	0.00392115	0.00490644	0.00593503	0.00387985	0.00505084	0.01323133	0.00383709	0.01088976
0.48000000	0.00304358	0.00797870	0.00356461	0.00362517	0.00289431	0.00910747	0.01045339	0.01038163	0.01559854	0.02050873	0.01090361	0.00675476	0.00461989	0.00516645	0.00173637	0.00253791	0.00186084	0.00689909	0.00408641	0.00386323	0.00475923	0.00572210	0.00387009	0.00507566	0.01331310	0.00373736	0.01024735
0.49000000	0.00364180	0.00828435	0.00342236	0.00361092	0.00283679	0.00898990	0.01026861	0.01021071	0.01578718	0.02031419	0.01066467	0.00578202	0.00413673	0.00359397	0.00164181	0.00251085	0.00169059	0.00734684	0.00403969	0.00377520	0.00459646	0.00552332	0.00384882	0.00524298	0.01339528	0.00345675	0.00956365
0.50000000	0.00434656	0.00845333	0.00332953	0.00361000	0.00280915	0.00884858	0.00994245	0.01004926	0.01599320	0.01998921	0.01054169	0.00510703	0.00369815	0.00238051	0.00158598	0.00259698	0.00178921	0.00780377	0.00396136	0.00372061	0.00444499	0.00530507	0.00385793	0.00535606	0.01349664	0.00325487	0.00894538
0.51000000	0.00512632	0.00847460	0.00328666	0.00358403	0.00279015	0.00855170	0.00940348	0.00998085	0.01623462	0.01976139	0.01025021	0.00437933	0.00344703	0.00197302	0.00154338	0.00284227	0.00167636	0.00825773	0.00395780	0.00362962	0.00429687	0.00511859	0.00385938	0.00547679	0.01355263	0.00304830	0.00845077
0.52000000	0.00581648	0.00844337	0.00324580	0.00350366	0.00274624	0.00828907	0.00868659	0.00992437	0.01646710	0.01943151	0.01007029	0.00368043	0.00328944	0.00182268	0.00159573	0.00307239	0.00176972	0.00871816	0.00399310	0.00353112	0.00415341	0.00496252	0.00387287	0.00567097	0.01357929	0.00275168	0.00809521
0.53000000	0.00643041	0.00822096	0.00321326	0.00327609	0.00261401	0.00797422	0.00782598	0.00996129	0.01671808	0.01908135	0.00987101	0.00297852	0.00329405	0.00180496	0.00164549	0.00325836	0.00180436	0.00915899	0.00398636	0.00347608	0.00405764	0.00483841	0.00395640	0.00589933	0.01351810	0.00243885	0.00782396
0.54000000	0.00700081	0.00775999	0.00319479	0.00288319	0.00238527	0.00756014	0.00685673	0.01009829	0.01699785	0.01868598	0.00963906	0.00248079	0.00341419	0.00179132	0.00180933	0.00337702	0.00183794	0.00953808	0.00401203	0.00337359	0.00396198	0.00478075	0.00405164	0.00609851	0.01343273	0.00211787	0.00762385
0.55000000	0.00726414	0.00745110	0.00321688	0.00243960	0.00221855	0.00722288	0.00570266	0.01025920	0.01721271	0.01829178	0.00937005	0.00255678	0.00365888	0.00156986	0.00199454	0.00349195	0.00205585	0.00989732	0.00411394	0.00322050	0.00393363	0.00474841	0.00420927	0.00632886	0.01317345	0.00178326	0.00753870
0.56000000	0.00778407	0.00636623	0.00343864	0.00192945	0.00207074	0.00657876	0.00469161	0.01051088	0.01741992	0.01775866	0.00937652	0.00281196	0.00371524	0.00163373	0.00219280	0.00371629	0.00211543	0.01027571	0.00423807	0.00302615	0.00396013	0.00470609	0.00442411	0.00660794	0.01288687	0.00132524	0.00732728
0.57000000	0.00762840	0.00596734	0.00363377	0.00133478	0.00215312	0.00609918	0.00357174	0.01088784	0.01766111	0.01737407	0.00899519	0.00366821	0.00437616	0.00157001	0.00228152	0.00379359	0.00245727	0.01041544	0.00447522	0.00276208	0.00409287	0.00483474	0.00474564	0.00674229	0.01243478	0.00103267	0.00724172
0.58000000	0.00742967	0.00522882	0.00394816	0.00097908	0.00242125	0.00541553	0.00290477	0.01138227	0.01787023	0.01694504	0.00897229	0.00455334	0.00490527	0.00190461	0.00237475	0.00388250	0.00253023	0.01052894	0.00474793	0.00248937	0.00428291	0.00496940	0.00511338	0.00689037	0.01195976	0.00064422	0.00704860
0.59000000	0.00756696	0.00397252	0.00424399	0.00086100	0.00261098	0.00450673	0.00287923	0.01179583	0.01793115	0.01655002	0.00946847	0.00528386	0.00480250	0.00211677	0.00223868	0.00423684	0.00237087	0.01090922	0.00497464	0.00238386	0.00433769	0.00497471	0.00525720	0.00733161	0.01151443	0.00014268	0.00678498
0.60000000	0.00738841	0.00330871	0.00456909	0.00129007	0.00298801	0.00389004	0.00362507	0.01223527	0.01803471	0.01620479	0.00957092	0.00555551	0.00465670	0.00246069	0.00213079	0.00447733	0.00229502	0.01104888	0.00534577	0.00213422	0.00456998	0.00509254	0.00563031	0.00759064	0.01098089	0.00033387	0.00645954
0.61000000	0.00724602	0.00299857	0.00472500	0.00162897	0.00323262	0.00363132	0.00452428	0.01268594	0.01814455	0.01597428	0.00960830	0.00539270	0.00443858	0.00270372	0.00200250	0.00460558	0.00219422	0.01120385	0.00570587	0.00196654	0.00478567	0.00518411	0.00599951	0.00791837	0.01047463	0.00080427	0.00616014
0.62000000	0.00712304	0.00266305	0.00475468	0.00191142	0.00338516	0.00363295	0.00530362	0.01321713	0.01828187	0.01571168	0.00991490	0.00476150	0.00423923	0.00274927	0.00192046	0.00465385	0.00213383	0.01136699	0.00609536	0.00184442	0.00503165	0.00524762	0.00639661	0.00830051	0.00993322	0.00129949	0.00589706
0.63000000	0.00680095	0.00262305	0.00464529	0.00213197	0.00345306	0.00434066	0.00613238	0.01375116	0.01847279	0.01555870	0.00999727	0.00425936	0.00390967	0.00249325	0.00186735	0.00464307	0.00197614	0.01147257	0.00645188	0.00177250	0.00529111	0.00537130	0.00679733	0.00867924	0.00944363	0.00181135	0.00568522
0.64000000	0.00628023	0.00238486	0.00436064	0.00232744	0.00341678	0.00524343	0.00687907	0.01435473	0.01872353	0.01544247	0.01022573	0.00375628	0.00373161	0.00212222	0.00185006	0.00472178	0.00189865	0.01158260	0.00679494	0.00179623	0.00554893	0.00546349	0.00720099	0.00910353	0.00893562	0.00236670	0.00561235
0.65000000	0.00568769	0.00255127	0.00413027	0.00249884	0.00340368	0.00562942	0.00749160	0.01476225	0.01859758	0.01678229	0.00960946	0.00402167	0.00367208	0.00204365	0.00197085	0.00403509	0.00173264	0.01157365	0.00710917	0.00185118	0.00585527	0.00564445	0.00768027	0.00948398	0.00851778	0.00279317	0.00534672
0.66000000	0.00502774	0.00227283	0.00392056	0.00270207	0.00340004	0.00666740	0.00809106	0.01544114	0.01896673	0.01640015	0.01007309	0.00404519	0.00354190	0.00163718	0.00203528	0.00409973	0.00168843	0.01162086	0.00749016	0.00201570	0.00616681	0.00570331	0.00816637	0.00986312	0.00800658	0.00332073	0.00522888
0.67000000	0.00454605	0.00245371	0.00373930	0.00282310	0.00336828	0.00741921	0.00868658	0.01601392	0.01916581	0.01675099	0.00979026	0.00442595	0.00347924	0.00149500	0.00211474	0.00385354	0.00169480	0.01160251	0.00781185	0.00215136	0.00644359	0.00583881	0.00863986	0.01028718	0.00755551	0.00381299	0.00499789
0.68000000	0.00398484	0.00287283	0.00350718	0.00296092	0.00330521	0.00753017	0.00937477	0.01645855	0.01904946	0.01778568	0.00940885	0.00489049	0.00357601	0.00162018	0.00212254	0.00339860	0.00160196	0.01152837	0.00802517	0.00241440	0.00676284	0.00598439	0.00916507	0.01058541	0.00720881	0.00425397	0.00480376
0.69000000	0.00180484	0.00280776	0.00338375	0.00385820	0.00366660	0.00866798	0.01044840	0.01687377	0.01939282	0.01689187	0.01103610	0.00518165	0.00428393	0.00153474	0.00226272	0.00310444	0.00162932	0.01123152	0.00820262	0.00254846	0.00725128	0.00632715	0.00977830	0.01068369	0.00658502	0.00469277	0.00470816
0.70000000	0.00262343	0.00318745	0.00312877	0.00339495	0.00329396	0.00790451	0.01098647	0.01771433	0.01908472	0.01868781	0.00933671	0.00536359	0.00380368	0.00145748	0.00229187	0.00319057	0.00164863	0.01147259	0.00843562	0.00278694	0.00717097	0.00626352	0.00995723	0.01138160	0.00645869	0.00523459	0.00444883
0.71000000	0.00155903	0.00336941	0.00299033	0.00379537	0.00341092	0.00817342	0.01176941	0.01860814	0.01923276	0.01889682	0.00933374	0.00543139	0.00390388	0.00118389	0.00235848	0.00338448	0.00165346	0.01133335	0.00851275	0.00301315	0.00738536	0.00647810	0.01038829	0.01161892	0.00623146	0.00569476	0.00428559
0.72000000	0.00170794	0.00371846	0.00286477	0.00403766	0.00343904	0.00822392	0.01261609	0.01958158	0.01916861	0.01943992	0.00904449	0.00556368	0.00394032	0.00143593	0.00239222	0.00325453	0.00169007	0.01124760	0.00857038	0.00319170	0.00755125	0.00667170	0.01074969	0.01194843	0.00600570	0.00608161	0.00408562
0.73000000	0.00211407	0.00392707	0.00272188	0.00428258	0.00346061	0.00827157	0.01341876	0.02073799	0.01908834	0.01986692	0.00899712	0.00569095	0.00392585	0.00173131	0.00240340	0.00329414	0.00164531	0.01115613	0.00856635	0.00338074	0.00766232	0.00688834	0.01106730	0.01219852	0.00585086	0.00653956	0.00394477
0.74000000	0.00272389	0.00411890	0.00259096	0.00449080	0.00346546	0.00840056	0.01413381	0.02204063	0.01902588	0.02023215	0.00886607	0.00585377	0.00383973	0.00221265	0.00240441	0.00324838	0.00159872	0.01106640	0.00849612	0.00353623	0.00774190	0.00713216	0.01137255	0.01244506	0.00573209	0.00699787	0.00374966
0.75000000	0.00328194	0.00424352	0.00246034	0.00466587	0.00345359	0.00859376	0.01476089	0.02338493	0.01889927	0.02055791	0.00887630	0.00612653	0.00372584	0.00278261	0.00244994	0.00316679	0.00150364	0.01099646	0.00843339	0.00371198	0.00777554	0.00734582	0.01164798	0.01267473	0.00566092	0.00741714	0.00354583
0.76000000	0.00380304	0.00433556	0.00236428	0.00485835	0.00346706	0.00893821	0.01532178	0.02467333	0.01880739	0.02070727	0.00900950	0.00657045	0.00370468	0.00334612	0.00241698	0.00305353	0.00145586	0.01089443	0.00832482	0.00381529	0.00780265	0.00761574	0.01191971	0.01288452	0.00556266	0.00781805	0.00325812
0.77000000	0.00413486	0.00445274	0.00228794	0.00497992	0.00346126	0.00924718	0.01568834	0.02589342	0.01868244	0.02091311	0.00905743	0.00708323	0.00356460	0.00406229	0.00244735	0.00290125	0.00145202	0.01083062	0.00825220	0.00392774	0.00776478	0.00783541	0.01215162	0.01308998	0.00551693	0.00822035	0.00291577
0.78000000	0.00479868	0.00437780	0.00216579	0.00518645	0.00341096	0.00987494	0.01599667	0.02686778	0.01865764	0.02051885	0.00992245	0.00777093	0.00388960	0.00449416	0.00233250	0.00308377	0.00125604	0.01075634	0.00811491	0.00418480	0.00770509	0.00813914	0.01225042	0.01312650	0.00561272	0.00860142	0.00281086
0.79000000	0.00457908	0.00428421	0.00207687	0.00520489	0.00336643	0.01008330	0.01603890	0.02770550	0.01858613	0.02089665	0.00953875	0.00825674	0.00372797	0.00510828	0.00234568	0.00298188	0.00131410	0.01068051	0.00806027	0.00420288	0.00758549	0.00833028	0.01256425	0.01336284	0.00552861	0.00897211	0.00232673
0.80000000	0.00450116	0.00444852	0.00208355	0.00523937	0.00337007	0.01036553	0.01604450	0.02818690	0.01850256	0.02096866	0.00956307	0.00863559	0.00378258	0.00575051	0.00232286	0.00275576	0.00140009	0.01060309	0.00803759	0.00430876	0.00746174	0.00852879	0.01276937	0.01347326	0.00550270	0.00930753	0.00193737
0.81000000	0.00441262	0.00442694	0.00201138	0.00527741	0.00330427	0.01074327	0.01606415	0.02829567	0.01840133	0.02087759	0.00988936	0.00902906	0.00423172	0.00601179	0.00229482	0.00264855	0.00140242	0.01051308	0.00806543	0.00438682	0.00726706	0.00874276	0.01289947	0.01355396	0.00547002	0.00971893	0.00159937
0.82000000	0.00442832	0.00454713	0.00166439	0.00549863	0.00324748	0.01080848	0.01562925	0.02845768	0.01870015	0.02013992	0.01073553	0.00940320	0.00550065	0.00566221	0.00229656	0.00253720	0.00156422	0.01039146	0.00813654	0.00447053	0.00742037	0.00881580	0.01340621	0.01322478	0.00520694	0.01021062	0.00098061
0.83000000	0.00366721	0.00434654	0.00200001	0.00520984	0.00319782	0.01097183	0.01547797	0.02795977	0.01852138	0.02080790	0.00985100	0.00944721	0.00467692	0.00664976	0.00226227	0.00264561	0.00132058	0.01033459	0.00806172	0.00462230	0.00695391	0.00911230	0.01334230	0.01363616	0.00537186	0.01025790	0.00080131
0.84000000	0.00325603	0.00457069	0.00199789	0.00522375	0.00327857	0.01073195	0.01507243	0.02746222	0.01855235	0.02084068	0.00979367	0.00948899	0.00466717	0.00718356	0.00220984	0.00245072	0.00157042	0.01018429	0.00817430	0.00468723	0.00682805	0.00924878	0.01357323	0.01361487	0.00519867	0.01045401	0.00035500
0.85000000	0.00290081	0.00467934	0.00195687	0.00524697	0.00332224	0.01064410	0.01472510	0.02673510	0.01854592	0.02083224	0.00988059	0.00962134	0.00486606	0.00748210	0.00222095	0.00228110	0.00179796	0.01003266	0.00833357	0.00475347	0.00668567	0.00937878	0.01375558	0.01354214	0.00501721	0.01070535	0.00019934
0.86000000	0.00246002	0.00457318	0.00186734	0.00512561	0.00318971	0.01064145	0.01422507	0.02605755	0.01866035	0.02079697	0.00984367	0.00986819	0.00514510	0.00758798	0.00231154	0.00243565	0.00169804	0.00992317	0.00844737	0.00489041	0.00647810	0.00952764	0.01386969	0.01345101	0.00495315	0.01099715	0.00051026
0.87000000	0.00216232	0.00453810	0.00177691	0.00508092	0.00316602	0.01056834	0.01373578	0.02527870	0.01868181	0.02083768	0.00988868	0.01007387	0.00520684	0.00791874	0.00241655	0.00250665	0.00176009	0.00977381	0.00859181	0.00497509	0.00630255	0.00965749	0.01400800	0.01343428	0.00479054	0.01113425	0.00094965
0.88000000	0.00200760	0.00444377	0.00162746	0.00507511	0.00313817	0.01057677	0.01325233	0.02446265	0.01869733	0.02088148	0.00993682	0.01029039	0.00533316	0.00820906	0.00255903	0.00242482	0.00198789	0.00959567	0.00873795	0.00503862	0.00616474	0.00978446	0.01418597	0.01328044	0.00459183	0.01137834	0.00136314
0.89000000	0.00182649	0.00410306	0.00135888	0.00474728	0.00283334	0.01061926	0.01263121	0.02393886	0.01885519	0.02092111	0.00963372	0.01071171	0.00586516	0.00799215	0.00259270	0.00261977	0.00217704	0.00963895	0.00904379	0.00522658	0.00596180	0.00973421	0.01412872	0.01307520	0.00446903	0.01183412	0.00173964
0.90000000	0.00232899	0.00393393	0.00141520	0.00446830	0.00270187	0.01048974	0.01204110	0.02328214	0.01877239	0.02122682	0.00939620	0.01110190	0.00608389	0.00807514	0.00282302	0.00268497	0.00197251	0.00937788	0.00904754	0.00536986	0.00573883	0.00998477	0.01425295	0.01281460	0.00441544	0.01209995	0.00194688
0.91000000	0.00210448	0.00380035	0.00123629	0.00503300	0.00302550	0.01078313	0.01168378	0.02214915	0.01879677	0.02084751	0.00972470	0.01101266	0.00558101	0.00899891	0.00300093	0.00265697	0.00221902	0.00905152	0.00915422	0.00530223	0.00575319	0.01022682	0.01441056	0.01278113	0.00408024	0.01188722	0.00225113
0.92000000	0.00255316	0.00351072	0.00108902	0.00474785	0.00282338	0.01063290	0.01116331	0.02141129	0.01869886	0.02086510	0.00964958	0.01122920	0.00575575	0.00901744	0.00311992	0.00276262	0.00193959	0.00888295	0.00925226	0.00541725	0.00556694	0.01035431	0.01444841	0.01271825	0.00389948	0.01199508	0.00247589
0.93000000	0.00281147	0.00323517	0.00093775	0.00492454	0.00291092	0.01106900	0.01066466	0.02027488	0.01891899	0.02010819	0.00952465	0.01136223	0.00578637	0.00911069	0.00311967	0.00280283	0.00212158	0.00870500	0.00939741	0.00548181	0.00548968	0.01046831	0.01447836	0.01248266	0.00366264	0.01214515	0.00264827
0.94000000	0.00298989	0.00292839	0.00078970	0.00491599	0.00286655	0.01079856	0.01015630	0.01917364	0.01876445	0.01996465	0.00935771	0.01141619	0.00577342	0.00908845	0.00308832	0.00290229	0.00216258	0.00854030	0.00950617	0.00561588	0.00536054	0.01057490	0.01448512	0.01230339	0.00353430	0.01226727	0.00270014
0.95000000	0.00367645	0.00269393	0.00058073	0.00460188	0.00263789	0.01031167	0.00966384	0.01805055	0.01839246	0.01995197	0.00933367	0.01144756	0.00581503	0.00889676	0.00315190	0.00289203	0.00185128	0.00841138	0.00946957	0.00565905	0.00522163	0.01069041	0.01452002	0.01229512	0.00329354	0.01232122	0.00284718
0.96000000	0.00411825	0.00267900	0.00062684	0.00468433	0.00272295	0.01031131	0.00890744	0.01671374	0.01857389	0.01881062	0.00908989	0.01148723	0.00562770	0.00875727	0.00301736	0.00302056	0.00194662	0.00827389	0.00953369	0.00574632	0.00513085	0.01076834	0.01454114	0.01208714	0.00304309	0.01246589	0.00297592
0.97000000	0.00420726	0.00273759	0.00052017	0.00470213	0.00269879	0.00979099	0.00822071	0.01544785	0.01833236	0.01844880	0.00895720	0.01147726	0.00557665	0.00848764	0.00297585	0.00306114	0.00194625	0.00816114	0.00954955	0.00588722	0.00504342	0.01083869	0.01455298	0.01191412	0.00292770	0.01253302	0.00296214
0.98000000	0.00507538	0.00265030	0.00027663	0.00428134	0.00238441	0.00938685	0.00765060	0.01409187	0.01771897	0.01858165	0.00902144	0.01151479	0.00559785	0.00804418	0.00301776	0.00298329	0.00177390	0.00803946	0.00945214	0.00593051	0.00485746	0.01090131	0.01457144	0.01197173	0.00271431	0.01262581	0.00303038
0.99000000	0.00516933	0.00309100	0.00048391	0.00448465	0.00255703	0.00899022	0.00642823	0.01345312	0.01790343	0.01728445	0.00886579	0.01155240	0.00543365	0.00780075	0.00287663	0.00308540	0.00197140	0.00799493	0.00952952	0.00608644	0.00483577	0.01091270	0.01456290	0.01173648	0.00265254	0.01268253	0.00297846
1.00000000	0.00553353	0.00337199	0.00049274	0.00429665	0.00240679	0.00895780	0.00556213	0.01285100	0.01759729	0.01687544	0.00903525	0.01156974	0.00539677	0.00744261	0.00282226	0.00314343	0.00192544	0.00795285	0.00942291	0.00615208	0.00470316	0.01091162	0.01459124	0.01174436	0.00249425	0.01276716	0.00298341
1.01000000	0.00603604	0.00358109	0.00061476	0.00417650	0.00233503	0.00916514	0.00452963	0.01274842	0.01736632	0.01642603	0.00906608	0.01163992	0.00526066	0.00715698	0.00277902	0.00322265	0.00196604	0.00790474	0.00932394	0.00622971	0.00461879	0.01091585	0.01463820	0.01168380	0.00240442	0.01282784	0.00293546
1.02000000	0.00661165	0.00372448	0.00085202	0.00397565	0.00223657	0.00995395	0.00365744	0.01283986	0.01700278	0.01635490	0.00923066	0.01168087	0.00525665	0.00681069	0.00279634	0.00317464	0.00189719	0.00783616	0.00921957	0.00630191	0.00450742	0.01088147	0.01470673	0.01172965	0.00223940	0.01288739	0.00292212
1.03000000	0.00759506	0.00366929	0.00114543	0.00370587	0.00215323	0.01112575	0.00265447	0.01314916	0.01666642	0.01687043	0.00873263	0.01175576	0.00508953	0.00663838	0.00291341	0.00306610	0.00187508	0.00774080	0.00901970	0.00633601	0.00440175	0.01086327	0.01484056	0.01175158	0.00221720	0.01298373	0.00280140
1.04000000	0.00726621	0.00402968	0.00140687	0.00385392	0.00228378	0.01235259	0.00211672	0.01421519	0.01651927	0.01637069	0.00935843	0.01172866	0.00511568	0.00624173	0.00277050	0.00321493	0.00196048	0.00778451	0.00894240	0.00637157	0.00436355	0.01080936	0.01484259	0.01174096	0.00211104	0.01302837	0.00272582
1.05000000	0.00821254	0.00396856	0.00173967	0.00365811	0.00231856	0.01396207	0.00142234	0.01479850	0.01631792	0.01707348	0.00872735	0.01180993	0.00500063	0.00598020	0.00292981	0.00308691	0.00198401	0.00766471	0.00874628	0.00638429	0.00426195	0.01075800	0.01500917	0.01173914	0.00218582	0.01322558	0.00252000
1.06000000	0.00759299	0.00423257	0.00211595	0.00392730	0.00259235	0.01577825	0.00159969	0.01585101	0.01608965	0.01697027	0.00960403	0.01168337	0.00500757	0.00566431	0.00280187	0.00319701	0.00197587	0.00772042	0.00862809	0.00636680	0.00423415	0.01072437	0.01497955	0.01180380	0.00214340	0.01323345	0.00237990
1.07000000	0.00799893	0.00406933	0.00250064	0.00397379	0.00281556	0.01751883	0.00165734	0.01647373	0.01583411	0.01761233	0.00943614	0.01167513	0.00486182	0.00549931	0.00285814	0.00312639	0.00201782	0.00770431	0.00846003	0.00632806	0.00416867	0.01065743	0.01505542	0.01189397	0.00214707	0.01336030	0.00223439
1.08000000	0.00744612	0.00434196	0.00282469	0.00423413	0.00309232	0.01924478	0.00179834	0.01721595	0.01561031	0.01793473	0.00997044	0.01148774	0.00480720	0.00538313	0.00279024	0.00321083	0.00192987	0.00766772	0.00836515	0.00629492	0.00416674	0.01065307	0.01504586	0.01186412	0.00226180	0.01344948	0.00199579
1.09000000	0.00778010	0.00407588	0.00311330	0.00428502	0.00328629	0.02047408	0.00198009	0.01750827	0.01539997	0.01841469	0.00991653	0.01150413	0.00473578	0.00527878	0.00281090	0.00308662	0.00201864	0.00754068	0.00821081	0.00626298	0.00412962	0.01061841	0.01515034	0.01196599	0.00230403	0.01354430	0.00185933
1.10000000	0.00884024	0.00413386	0.00364129	0.00443566	0.00371675	0.02132589	0.00255809	0.01709724	0.01524915	0.01913866	0.00935109	0.01161756	0.00493041	0.00496466	0.00289897	0.00297576	0.00170165	0.00745523	0.00809251	0.00614507	0.00413363	0.01059618	0.01520008	0.01176633	0.00251189	0.01389574	0.00155003
1.11000000	0.00704077	0.00387517	0.00355445	0.00458307	0.00364761	0.02133607	0.00239384	0.01775327	0.01510337	0.01871109	0.01054207	0.01128055	0.00489292	0.00497627	0.00278601	0.00287134	0.00193722	0.00741364	0.00813827	0.00613304	0.00415599	0.01055094	0.01506386	0.01215221	0.00247774	0.01366845	0.00154617
1.12000000	0.00630718	0.00362384	0.00358602	0.00467184	0.00367769	0.02045601	0.00238464	0.01766057	0.01491570	0.01886169	0.01087967	0.01115995	0.00487195	0.00484551	0.00264850	0.00301195	0.00176269	0.00735590	0.00815272	0.00606754	0.00420854	0.01050122	0.01498444	0.01192827	0.00265981	0.01395061	0.00128734
1.13000000	0.00606040	0.00318201	0.00352831	0.00468282	0.00368761	0.01870794	0.00307789	0.01696479	0.01471878	0.01894278	0.01096478	0.01108528	0.00485573	0.00468647	0.00269272	0.00284510	0.00165945	0.00726673	0.00823601	0.00600083	0.00428126	0.01042500	0.01488029	0.01188575	0.00274881	0.01410265	0.00117022
1.14000000	0.00538987	0.00270131	0.00333218	0.00461831	0.00356349	0.01613508	0.00385354	0.01623126	0.01463117	0.01873453	0.01113972	0.01092738	0.00470565	0.00427018	0.00271745	0.00270323	0.00182233	0.00719922	0.00834834	0.00596466	0.00434044	0.01030830	0.01473541	0.01187083	0.00291519	0.01429341	0.00099094
1.15000000	0.00403297	0.00241461	0.00300582	0.00458364	0.00333994	0.01296282	0.00446421	0.01568777	0.01458444	0.01853040	0.01120966	0.01060645	0.00434707	0.00365678	0.00271614	0.00278952	0.00169767	0.00704569	0.00840287	0.00586758	0.00441992	0.01025671	0.01462841	0.01195591	0.00302072	0.01438310	0.00090796
1.16000000	0.00327661	0.00211127	0.00265163	0.00455626	0.00325861	0.00950775	0.00571202	0.01490385	0.01451712	0.01806073	0.01147590	0.01020767	0.00381761	0.00259554	0.00280243	0.00279881	0.00189594	0.00711486	0.00867370	0.00585177	0.00455832	0.01002446	0.01439797	0.01190140	0.00315048	0.01456249	0.00087590
1.17000000	0.00213327	0.00218491	0.00232553	0.00458087	0.00319823	0.00634135	0.00674150	0.01435463	0.01446446	0.01781706	0.01149650	0.00979927	0.00326000	0.00126600	0.00286476	0.00292087	0.00210706	0.00691340	0.00879668	0.00578253	0.00468635	0.00995792	0.01429664	0.01194926	0.00323819	0.01465840	0.00097390
1.18000000	0.00111796	0.00245598	0.00238225	0.00468240	0.00329993	0.00415287	0.00714715	0.01385850	0.01442036	0.01808770	0.01154828	0.00952524	0.00264904	0.00156581	0.00279113	0.00371398	0.00190410	0.00691284	0.00886752	0.00574895	0.00480108	0.00986052	0.01410830	0.01209737	0.00352132	0.01470177	0.00087958
1.19000000	0.00077572	0.00284394	0.00240721	0.00486650	0.00351349	0.00305087	0.00786730	0.01346346	0.01446940	0.01813674	0.01172868	0.00953037	0.00221745	0.00364400	0.00275802	0.00430638	0.00223549	0.00693390	0.00908892	0.00576364	0.00490285	0.00971479	0.01382568	0.01221032	0.00375438	0.01475542	0.00106854
1.20000000	0.00147213	0.00338801	0.00271161	0.00507805	0.00384046	0.00288779	0.00804243	0.01356688	0.01438970	0.01830478	0.01156627	0.00977065	0.00184398	0.00614642	0.00289874	0.00490861	0.00250172	0.00698711	0.00923640	0.00569092	0.00515061	0.00954225	0.01378978	0.01230461	0.00389938	0.01469960	0.00128469
1.21000000	0.00236790	0.00389836	0.00304961	0.00525386	0.00412165	0.00289244	0.00791163	0.01355085	0.01432632	0.01878220	0.01152321	0.01039976	0.00200835	0.00876782	0.00286329	0.00566734	0.00247501	0.00712104	0.00940066	0.00573325	0.00529598	0.00935833	0.01360451	0.01245641	0.00419173	0.01465866	0.00151841
1.22000000	0.00301304	0.00450792	0.00354838	0.00556024	0.00454293	0.00290884	0.00773903	0.01386911	0.01443609	0.01866763	0.01145035	0.01152699	0.00228763	0.01104088	0.00302579	0.00603884	0.00235414	0.00723334	0.00953481	0.00567962	0.00549759	0.00924477	0.01347468	0.01255214	0.00443487	0.01449778	0.00171649
1.23000000	0.00364530	0.00482682	0.00393868	0.00568683	0.00477313	0.00276121	0.00739878	0.01414899	0.01448888	0.01870612	0.01137508	0.01242136	0.00267024	0.01338241	0.00309769	0.00649392	0.00183109	0.00744815	0.00965027	0.00565721	0.00563112	0.00908625	0.01331692	0.01277788	0.00471266	0.01429120	0.00187927
1.24000000	0.00374681	0.00540231	0.00450134	0.00581388	0.00512494	0.00290628	0.00684863	0.01432800	0.01429197	0.01901226	0.01131700	0.01364004	0.00328094	0.01483663	0.00346575	0.00626032	0.00240060	0.00762958	0.00975460	0.00563649	0.00583447	0.00896383	0.01322181	0.01280750	0.00498029	0.01406227	0.00200063
1.25000000	0.00425713	0.00501466	0.00447569	0.00560293	0.00494557	0.00308105	0.00638579	0.01479099	0.01455717	0.01865851	0.01120359	0.01342290	0.00361170	0.01681196	0.00346424	0.00672176	0.00124179	0.00799274	0.00979083	0.00555665	0.00585211	0.00877246	0.01305090	0.01322953	0.00526581	0.01378673	0.00198243
1.26000000	0.00422532	0.00485322	0.00479257	0.00531132	0.00492754	0.00343502	0.00607957	0.01514460	0.01463149	0.01840760	0.01111473	0.01309611	0.00402517	0.01803158	0.00364964	0.00671637	0.00162989	0.00826408	0.00975001	0.00545618	0.00597466	0.00868533	0.01299236	0.01346460	0.00552944	0.01332640	0.00199734
1.27000000	0.00411009	0.00477140	0.00501336	0.00513770	0.00495703	0.00411532	0.00551021	0.01520639	0.01441043	0.01875983	0.01114618	0.01326115	0.00434132	0.01822359	0.00405561	0.00616243	0.00222093	0.00852579	0.00971833	0.00529778	0.00599078	0.00865344	0.01282654	0.01361241	0.00578812	0.01301104	0.00180092
1.28000000	0.00413159	0.00432137	0.00509884	0.00483025	0.00484261	0.00455882	0.00531120	0.01536619	0.01437079	0.01876763	0.01114472	0.01272719	0.00481472	0.01852452	0.00424102	0.00582954	0.00254612	0.00879594	0.00960764	0.00517926	0.00602597	0.00865170	0.01268289	0.01372854	0.00613608	0.01257593	0.00146996
1.29000000	0.00398864	0.00435912	0.00537074	0.00459930	0.00488313	0.00488471	0.00535123	0.01539382	0.01419174	0.01889980	0.01123521	0.01245967	0.00527647	0.01834942	0.00449120	0.00534158	0.00265904	0.00905295	0.00950933	0.00500797	0.00600859	0.00867385	0.01252371	0.01387673	0.00638450	0.01207357	0.00123988
1.30000000	0.00377605	0.00341245	0.00517184	0.00394009	0.00446989	0.00478081	0.00607625	0.01546869	0.01439247	0.01846398	0.01105080	0.01090422	0.00601360	0.01908454	0.00427501	0.00553734	0.00290483	0.00941196	0.00940977	0.00491694	0.00593370	0.00859039	0.01236959	0.01419595	0.00674159	0.01142340	0.00082761
1.31000000	0.00365839	0.00411863	0.00561732	0.00387568	0.00469360	0.00486190	0.00619964	0.01537696	0.01411698	0.01877509	0.01121920	0.01122753	0.00640878	0.01853921	0.00464357	0.00501846	0.00277841	0.00961507	0.00933078	0.00475046	0.00590827	0.00864315	0.01223719	0.01423395	0.00698033	0.01080013	0.00049232
1.32000000	0.00369965	0.00428824	0.00580890	0.00371557	0.00473876	0.00490932	0.00639744	0.01532036	0.01402030	0.01896297	0.01125722	0.01128095	0.00708724	0.01832343	0.00479562	0.00483494	0.00282515	0.00982031	0.00921052	0.00459911	0.00583587	0.00872160	0.01208612	0.01425955	0.00726700	0.01014140	0.00057776
1.33000000	0.00403865	0.00314083	0.00544414	0.00332584	0.00439528	0.00500773	0.00662030	0.01531934	0.01410246	0.01890239	0.01129783	0.01076619	0.00772102	0.01869990	0.00462757	0.00490315	0.00307924	0.01010256	0.00904015	0.00445183	0.00570349	0.00877484	0.01191090	0.01421806	0.00761605	0.00961774	0.00054335
1.34000000	0.00397581	0.00341849	0.00555049	0.00309970	0.00436071	0.00522011	0.00690592	0.01527584	0.01398924	0.01913963	0.01125439	0.01113701	0.00817686	0.01837635	0.00479053	0.00471161	0.00321148	0.01033226	0.00892845	0.00430334	0.00560068	0.00880602	0.01181137	0.01425661	0.00789226	0.00879774	0.00086994
1.35000000	0.00422575	0.00244290	0.00525055	0.00284407	0.00411325	0.00544805	0.00707810	0.01538139	0.01409226	0.01896407	0.01137233	0.01098295	0.00849381	0.01860885	0.00460133	0.00484439	0.00345751	0.01049620	0.00879633	0.00418290	0.00545022	0.00890021	0.01166949	0.01408184	0.00819475	0.00816734	0.00114703
1.36000000	0.00396210	0.00281668	0.00529453	0.00260502	0.00402193	0.00594211	0.00727864	0.01533092	0.01394598	0.01940222	0.01121185	0.01165097	0.00872029	0.01816685	0.00482808	0.00465912	0.00368614	0.01070960	0.00867318	0.00403740	0.00523943	0.00893849	0.01152615	0.01410092	0.00845751	0.00731465	0.00143136
1.37000000	0.00390064	0.00271938	0.00527464	0.00249210	0.00396028	0.00646545	0.00737544	0.01535746	0.01390776	0.01962269	0.01113406	0.01210996	0.00894721	0.01798911	0.00487940	0.00464576	0.00397145	0.01082508	0.00857985	0.00397230	0.00509960	0.00900700	0.01137274	0.01380124	0.00875887	0.00655851	0.00167961
1.38000000	0.00405221	0.00240051	0.00519778	0.00241938	0.00389089	0.00686815	0.00747876	0.01557422	0.01402121	0.01944445	0.01117764	0.01235963	0.00893469	0.01813437	0.00491291	0.00468187	0.00413459	0.01090059	0.00850080	0.00386053	0.00495427	0.00908392	0.01122277	0.01344669	0.00895106	0.00586168	0.00176949
1.39000000	0.00406929	0.00216790	0.00510276	0.00229047	0.00377828	0.00713658	0.00753828	0.01575540	0.01407275	0.01937234	0.01121118	0.01251521	0.00890688	0.01842807	0.00489408	0.00478781	0.00430597	0.01096031	0.00841054	0.00379207	0.00479352	0.00913367	0.01107543	0.01308754	0.00919782	0.00508698	0.00180715
1.40000000	0.00401676	0.00200335	0.00494331	0.00207326	0.00358533	0.00739925	0.00764723	0.01589546	0.01416659	0.01933795	0.01112954	0.01263289	0.00894690	0.01881598	0.00486770	0.00485419	0.00446630	0.01103606	0.00831552	0.00375374	0.00459473	0.00913331	0.01091300	0.01272388	0.00946549	0.00436738	0.00187988
1.41000000	0.00387926	0.00188020	0.00472285	0.00178037	0.00332001	0.00768970	0.00777049	0.01587394	0.01418542	0.01949591	0.01103670	0.01268985	0.00883757	0.01934102	0.00482663	0.00501033	0.00478876	0.01114064	0.00822169	0.00368271	0.00436245	0.00909344	0.01072120	0.01242760	0.00967814	0.00362168	0.00187890
1.42000000	0.00400536	0.00252052	0.00500849	0.00172221	0.00342101	0.00761733	0.00788304	0.01623447	0.01432928	0.01905964	0.01126160	0.01260163	0.00875803	0.01970213	0.00497479	0.00496123	0.00445146	0.01110888	0.00815925	0.00357956	0.00426932	0.00905941	0.01066284	0.01197299	0.00979818	0.00283952	0.00176270
1.43000000	0.00389233	0.00215252	0.00451519	0.00132433	0.00296918	0.00793911	0.00819463	0.01609728	0.01438123	0.01931179	0.01103540	0.01249748	0.00862224	0.02041637	0.00474215	0.00514760	0.00488010	0.01117862	0.00801958	0.00361967	0.00393952	0.00901570	0.01032703	0.01164857	0.01012506	0.00213559	0.00196298
1.44000000	0.00397945	0.00296597	0.00508725	0.00138597	0.00326925	0.00778265	0.00827339	0.01651260	0.01446832	0.01898448	0.01124866	0.01245528	0.00851472	0.02043135	0.00486823	0.00496124	0.00448573	0.01103146	0.00797763	0.00350877	0.00388037	0.00898227	0.01022596	0.01108857	0.01019619	0.00145499	0.00192262
1.45000000	0.00402428	0.00320077	0.00515319	0.00127266	0.00322812	0.00781362	0.00845100	0.01667789	0.01453692	0.01904029	0.01120081	0.01247382	0.00830488	0.02044965	0.00471378	0.00485949	0.00446096	0.01093877	0.00787779	0.00346628	0.00371751	0.00893845	0.00999691	0.01060155	0.01037521	0.00081836	0.00204838
1.46000000	0.00404348	0.00276061	0.00409765	0.00068835	0.00241696	0.00814197	0.00933770	0.01640007	0.01435721	0.01934819	0.01138947	0.01227841	0.00791214	0.02087891	0.00437166	0.00489991	0.00463372	0.01096773	0.00756740	0.00352139	0.00327825	0.00900530	0.00952348	0.01042039	0.01073338	0.00048885	0.00245679
1.47000000	0.00396692	0.00349067	0.00526137	0.00116326	0.00317205	0.00783387	0.00894186	0.01695450	0.01464917	0.01914795	0.01132642	0.01226082	0.00737539	0.01949538	0.00425744	0.00437860	0.00417223	0.01064237	0.00763596	0.00336243	0.00342738	0.00889401	0.00946634	0.00957938	0.01072136	0.00042610	0.00238529
1.48000000	0.00409282	0.00327058	0.00514610	0.00114272	0.00311632	0.00782301	0.00919913	0.01712901	0.01475482	0.01937684	0.01105356	0.01184536	0.00669665	0.01838339	0.00383640	0.00412149	0.00404474	0.01038146	0.00752751	0.00331260	0.00334520	0.00891226	0.00919480	0.00900278	0.01087909	0.00093589	0.00255470
1.49000000	0.00377493	0.00345795	0.00532737	0.00126001	0.00319035	0.00776424	0.00930854	0.01728294	0.01469676	0.01948483	0.01144692	0.01148653	0.00588344	0.01623969	0.00364004	0.00349815	0.00360544	0.01012831	0.00736126	0.00325572	0.00321574	0.00896573	0.00890273	0.00849479	0.01103131	0.00156579	0.00281813
1.50000000	0.00374952	0.00318436	0.00523573	0.00136637	0.00319059	0.00786089	0.00946888	0.01738433	0.01472925	0.01972156	0.01141584	0.01076691	0.00490090	0.01368720	0.00337694	0.00285960	0.00320838	0.00980052	0.00723353	0.00322057	0.00314858	0.00904758	0.00859126	0.00794143	0.01117178	0.00206137	0.00307475
1.51000000	0.00345410	0.00303232	0.00511411	0.00135693	0.00311057	0.00800225	0.00956004	0.01741330	0.01469218	0.01991216	0.01160344	0.00944187	0.00373167	0.01083465	0.00306455	0.00240535	0.00284235	0.00947008	0.00707832	0.00317608	0.00310696	0.00914800	0.00834831	0.00742950	0.01129704	0.00257386	0.00332839
1.52000000	0.00321024	0.00293911	0.00493411	0.00138049	0.00302876	0.00827807	0.00964401	0.01740969	0.01466097	0.02012218	0.01167791	0.00809907	0.00250168	0.00762391	0.00283023	0.00194776	0.00246721	0.00911061	0.00694359	0.00317219	0.00309487	0.00926441	0.00810622	0.00693378	0.01141426	0.00304454	0.00358927
1.53000000	0.00316452	0.00378559	0.00402976	0.00118647	0.00247655	0.00893519	0.00973403	0.01708394	0.01462126	0.02053165	0.01164620	0.00725540	0.00090386	0.00473640	0.00257675	0.00194933	0.00240469	0.00888146	0.00664406	0.00327900	0.00298322	0.00942338	0.00778395	0.00653844	0.01168189	0.00351191	0.00408782
1.54000000	0.00306400	0.00425412	0.00385578	0.00106213	0.00234916	0.00924881	0.00949785	0.01729062	0.01469650	0.02065961	0.01141785	0.00705558	0.00090990	0.00168045	0.00238132	0.00198822	0.00213014	0.00849192	0.00663732	0.00333786	0.00309124	0.00944878	0.00771049	0.00623623	0.01169070	0.00377370	0.00414395
1.55000000	0.00258617	0.00395509	0.00413177	0.00140596	0.00262565	0.00964222	0.00943278	0.01744044	0.01457106	0.02069117	0.01166731	0.00743281	0.00146997	0.00234175	0.00250485	0.00158002	0.00162126	0.00810637	0.00662429	0.00333688	0.00319848	0.00965562	0.00750972	0.00585629	0.01162834	0.00425541	0.00423337
1.56000000	0.00247195	0.00498728	0.00354184	0.00124822	0.00222205	0.01031370	0.00918232	0.01737819	0.01457767	0.02087644	0.01161159	0.00884096	0.00279961	0.00435728	0.00231900	0.00213100	0.00161524	0.00788187	0.00648946	0.00343688	0.00321707	0.00974391	0.00735090	0.00573364	0.01172517	0.00451908	0.00457351
1.57000000	0.00208296	0.00480740	0.00358411	0.00128254	0.00218027	0.01086072	0.00917584	0.01745906	0.01453622	0.02084411	0.01175067	0.01006026	0.00334090	0.00690627	0.00235126	0.00251259	0.00145408	0.00765346	0.00652228	0.00362643	0.00333597	0.00974927	0.00723694	0.00553368	0.01169956	0.00494823	0.00463145
1.58000000	0.00204196	0.00567044	0.00304775	0.00116133	0.00177895	0.01131717	0.00894032	0.01753192	0.01454450	0.02094304	0.01159067	0.01146787	0.00430061	0.00805374	0.00219603	0.00298251	0.00154555	0.00754445	0.00647239	0.00375235	0.00341823	0.00976274	0.00714615	0.00557340	0.01172686	0.00517152	0.00486022
1.59000000	0.00163870	0.00542800	0.00304493	0.00125492	0.00168521	0.01175818	0.00894412	0.01753398	0.01450135	0.02100287	0.01162395	0.01210793	0.00486562	0.00947859	0.00236066	0.00313367	0.00144921	0.00746745	0.00652696	0.00391512	0.00352531	0.00976839	0.00700650	0.00553720	0.01165574	0.00552111	0.00501978
1.60000000	0.00150286	0.00602076	0.00259142	0.00125047	0.00127773	0.01192196	0.00885956	0.01754074	0.01457300	0.02093977	0.01159019	0.01282383	0.00546861	0.00983737	0.00227967	0.00342060	0.00150334	0.00743742	0.00651820	0.00409600	0.00363189	0.00972314	0.00692486	0.00565910	0.01166360	0.00573417	0.00527286
1.61000000	0.00117481	0.00599856	0.00250358	0.00135491	0.00113977	0.01199125	0.00888899	0.01749287	0.01459894	0.02096898	0.01154359	0.01264329	0.00599983	0.01048053	0.00247316	0.00339770	0.00141872	0.00746033	0.00659725	0.00424385	0.00374149	0.00974713	0.00676039	0.00571129	0.01157059	0.00602615	0.00543575
1.62000000	0.00109337	0.00643525	0.00215878	0.00150692	0.00073886	0.01182407	0.00896577	0.01736299	0.01472507	0.02079830	0.01161077	0.01281905	0.00623733	0.01031366	0.00243190	0.00353320	0.00133037	0.00752114	0.00660312	0.00441104	0.00384937	0.00970329	0.00668863	0.00584843	0.01155769	0.00623562	0.00564985
1.63000000	0.00097926	0.00641730	0.00203918	0.00176582	0.00047749	0.01153267	0.00914533	0.01716355	0.01479647	0.02082834	0.01150617	0.01267961	0.00615688	0.01036156	0.00242506	0.00365275	0.00123735	0.00769887	0.00665742	0.00458141	0.00395398	0.00959694	0.00656345	0.00603186	0.01150956	0.00639599	0.00575143
1.64000000	0.00135165	0.00711105	0.00162878	0.00221344	0.00028757	0.01090057	0.00895153	0.01709667	0.01484432	0.02092935	0.01159034	0.01260075	0.00573495	0.01000480	0.00252741	0.00358673	0.00172629	0.00799449	0.00657409	0.00499859	0.00405229	0.00957108	0.00623175	0.00587316	0.01145499	0.00693573	0.00606414
1.65000000	0.00169505	0.00696798	0.00178226	0.00233015	0.00047930	0.01075380	0.00950860	0.01666289	0.01510146	0.02062471	0.01144752	0.01243640	0.00560239	0.00987299	0.00254979	0.00360865	0.00112442	0.00799478	0.00670970	0.00482747	0.00413666	0.00956803	0.00637592	0.00635334	0.01145146	0.00669259	0.00591099
1.66000000	0.00221531	0.00740313	0.00168392	0.00269872	0.00082351	0.01056654	0.00969454	0.01622879	0.01536848	0.02041532	0.01143579	0.01246619	0.00489868	0.00961633	0.00264926	0.00340581	0.00140215	0.00801760	0.00670971	0.00503152	0.00425493	0.00964150	0.00632732	0.00616014	0.01146855	0.00709090	0.00592062
1.67000000	0.00286280	0.00775971	0.00153994	0.00294898	0.00098555	0.01032030	0.00987725	0.01583023	0.01542232	0.02046640	0.01132208	0.01240271	0.00446156	0.00937545	0.00272498	0.00330613	0.00146215	0.00821666	0.00665822	0.00510322	0.00428046	0.00968496	0.00614475	0.00651559	0.01150988	0.00698449	0.00602413
1.68000000	0.00331782	0.00889972	0.00123122	0.00291662	0.00106893	0.01029561	0.00999948	0.01538272	0.01570325	0.02036906	0.01103322	0.01130722	0.00456555	0.00974714	0.00296475	0.00280555	0.00164790	0.00832207	0.00660700	0.00523850	0.00441721	0.00989460	0.00596574	0.00654927	0.01155050	0.00714095	0.00587386
1.69000000	0.00403232	0.00916494	0.00125401	0.00329029	0.00143521	0.01038094	0.00992095	0.01489600	0.01607422	0.02009805	0.01083759	0.01180161	0.00370468	0.00977694	0.00294553	0.00267006	0.00198312	0.00831450	0.00651069	0.00541821	0.00450455	0.00999774	0.00605738	0.00624654	0.01167213	0.00754926	0.00581601
1.70000000	0.00481842	0.01014508	0.00096703	0.00355995	0.00166625	0.01041969	0.01005568	0.01429775	0.01604461	0.02015192	0.01077642	0.01180969	0.00381193	0.00955659	0.00284451	0.00267795	0.00193090	0.00852793	0.00630864	0.00536075	0.00442714	0.01016706	0.00594030	0.00667357	0.01183486	0.00726651	0.00594669
1.71000000	0.00558099	0.01090987	0.00090097	0.00380861	0.00192568	0.01054385	0.00999636	0.01372636	0.01622412	0.01998311	0.01058063	0.01188414	0.00383344	0.00960335	0.00269396	0.00261164	0.00201691	0.00864621	0.00614922	0.00541411	0.00443423	0.01029991	0.00599446	0.00670687	0.01194783	0.00730649	0.00593817
1.72000000	0.00639837	0.01144684	0.00084653	0.00399629	0.00210839	0.01072836	0.00981983	0.01311460	0.01641096	0.01979132	0.01029586	0.01174351	0.00386013	0.00978054	0.00248619	0.00251786	0.00213547	0.00861607	0.00598461	0.00546243	0.00444091	0.01048365	0.00613757	0.00662390	0.01208970	0.00742277	0.00592831
1.73000000	0.00705699	0.01168771	0.00080902	0.00412044	0.00228017	0.01083914	0.00916369	0.01272546	0.01680750	0.01959359	0.00952463	0.01089502	0.00425348	0.01036992	0.00234963	0.00246852	0.00230858	0.00841248	0.00571140	0.00566802	0.00443095	0.01079328	0.00621399	0.00658125	0.01235184	0.00753048	0.00610693
1.74000000	0.00784082	0.01239088	0.00080392	0.00432382	0.00240369	0.01054859	0.00902122	0.01223504	0.01681998	0.01907504	0.01003090	0.01061704	0.00403686	0.00926864	0.00211584	0.00232742	0.00167902	0.00881889	0.00559280	0.00544003	0.00436700	0.01058681	0.00651418	0.00677054	0.01237344	0.00729229	0.00604337
1.75000000	0.00823890	0.01255092	0.00083074	0.00423526	0.00242960	0.01056715	0.00772030	0.01198540	0.01708174	0.01907473	0.00889777	0.00855137	0.00430295	0.00942315	0.00216278	0.00226669	0.00200234	0.00855117	0.00535436	0.00558259	0.00430169	0.01088517	0.00664049	0.00679773	0.01257367	0.00727868	0.00629694
1.76000000	0.00911590	0.01250068	0.00062665	0.00408781	0.00226463	0.01046491	0.00743167	0.01153410	0.01704579	0.01858081	0.00940194	0.00718215	0.00408486	0.00816184	0.00237368	0.00195157	0.00219187	0.00856458	0.00534692	0.00540745	0.00429974	0.01081914	0.00709514	0.00666148	0.01249797	0.00726648	0.00622130
1.77000000	0.00940096	0.01239201	0.00060612	0.00382668	0.00210910	0.01042080	0.00561446	0.01134065	0.01714029	0.01852840	0.00873716	0.00545360	0.00433948	0.00692569	0.00281487	0.00144236	0.00276474	0.00845782	0.00526043	0.00532458	0.00423035	0.01088006	0.00748491	0.00669751	0.01245904	0.00716428	0.00636466
1.78000000	0.01040152	0.01002302	0.00028521	0.00410793	0.00188515	0.00920280	0.00509057	0.01155615	0.01724771	0.01740073	0.00976926	0.00539493	0.00319478	0.00474759	0.00222392	0.00199570	0.00164539	0.00870510	0.00525396	0.00521144	0.00418753	0.01039799	0.00812377	0.00666912	0.01242225	0.00701544	0.00624725
1.79000000	0.01010473	0.00964760	0.00046209	0.00347111	0.00148604	0.00895961	0.00341694	0.01171949	0.01736100	0.01718160	0.00918814	0.00433865	0.00355887	0.00333587	0.00243336	0.00195112	0.00172494	0.00833571	0.00526346	0.00504606	0.00420634	0.01044384	0.00877895	0.00635948	0.01226789	0.00709545	0.00622378
1.80000000	0.01031280	0.00778441	0.00115665	0.00312059	0.00106050	0.00781993	0.00229210	0.01208658	0.01736050	0.01648419	0.00991435	0.00358324	0.00304731	0.00274917	0.00239468	0.00252488	0.00153080	0.00830831	0.00539960	0.00490380	0.00417311	0.01017246	0.00925004	0.00645516	0.01204055	0.00675099	0.00603588
1.81000000	0.00996826	0.00659425	0.00154402	0.00259985	0.00078765	0.00697066	0.00209647	0.01241660	0.01738513	0.01610626	0.00996274	0.00278446	0.00293374	0.00235237	0.00236219	0.00298294	0.00143105	0.00812033	0.00552676	0.00473859	0.00421943	0.01000189	0.00988101	0.00621449	0.01174893	0.00665649	0.00579653
1.82000000	0.00973553	0.00521082	0.00214289	0.00226466	0.00089741	0.00577077	0.00306960	0.01272282	0.01737509	0.01564345	0.01011914	0.00185408	0.00250410	0.00261742	0.00246836	0.00303202	0.00153628	0.00791598	0.00564716	0.00452320	0.00424467	0.00981311	0.01044641	0.00608923	0.01149168	0.00638115	0.00554011
1.83000000	0.00921508	0.00423125	0.00227761	0.00198573	0.00110622	0.00459915	0.00420573	0.01315677	0.01746489	0.01522994	0.01034747	0.00199454	0.00229807	0.00280206	0.00244094	0.00344111	0.00143567	0.00777391	0.00567594	0.00437604	0.00425984	0.00964761	0.01096566	0.00579450	0.01127269	0.00620151	0.00531739
1.84000000	0.00896338	0.00374516	0.00252553	0.00196050	0.00146450	0.00388854	0.00511844	0.01360655	0.01756222	0.01525404	0.01002357	0.00256851	0.00222398	0.00368604	0.00261408	0.00309174	0.00165502	0.00767139	0.00572510	0.00420860	0.00425048	0.00953685	0.01130113	0.00563877	0.01102569	0.00582646	0.00507070
1.85000000	0.00824781	0.00339613	0.00256108	0.00199758	0.00170191	0.00397261	0.00604964	0.01427861	0.01773018	0.01527374	0.01023875	0.00412580	0.00215441	0.00427607	0.00264025	0.00323265	0.00158351	0.00758486	0.00568885	0.00406316	0.00423691	0.00941060	0.01164565	0.00537972	0.01086580	0.00549398	0.00488586
1.86000000	0.00770318	0.00324185	0.00265209	0.00214338	0.00193162	0.00491265	0.00684252	0.01503334	0.01791808	0.01572393	0.01011305	0.00527415	0.00208446	0.00504529	0.00267467	0.00315054	0.00162359	0.00755048	0.00569176	0.00391065	0.00424811	0.00928409	0.01192969	0.00516460	0.01066280	0.00508746	0.00463412
1.87000000	0.00689022	0.00293156	0.00272578	0.00236094	0.00219741	0.00621188	0.00768547	0.01585495	0.01819963	0.01604550	0.01033897	0.00618806	0.00204989	0.00557078	0.00264381	0.00317471	0.00173106	0.00754781	0.00569103	0.00381842	0.00425916	0.00917253	0.01210046	0.00509700	0.01044678	0.00452661	0.00449503
1.88000000	0.00594967	0.00248694	0.00268658	0.00253424	0.00235336	0.00759939	0.00849895	0.01678592	0.01873650	0.01599172	0.01065310	0.00668639	0.00196010	0.00588488	0.00263509	0.00320778	0.00184160	0.00758745	0.00564480	0.00365600	0.00428397	0.00908174	0.01227329	0.00484949	0.01025508	0.00418921	0.00439508
1.89000000	0.00487588	0.00289057	0.00248696	0.00253647	0.00223053	0.00684462	0.00919052	0.01736621	0.01839265	0.01839789	0.00988979	0.00646289	0.00203569	0.00598138	0.00260524	0.00294206	0.00182094	0.00755015	0.00545087	0.00350567	0.00434864	0.00907806	0.01251260	0.00485904	0.01020973	0.00354781	0.00428897
1.90000000	0.00410466	0.00285576	0.00258432	0.00281391	0.00242853	0.00744223	0.01013514	0.01802670	0.01874810	0.01857034	0.00978192	0.00605154	0.00190928	0.00592209	0.00254705	0.00280751	0.00191884	0.00757605	0.00546716	0.00332695	0.00446214	0.00895520	0.01265596	0.00485580	0.00999125	0.00304426	0.00416467
1.91000000	0.00338333	0.00289657	0.00231733	0.00283644	0.00227275	0.00721107	0.01115284	0.01869666	0.01882654	0.01912187	0.00970735	0.00550746	0.00175630	0.00551349	0.00243299	0.00282812	0.00181201	0.00771504	0.00534920	0.00321737	0.00455898	0.00883852	0.01284067	0.00506290	0.00984788	0.00243043	0.00411224
1.92000000	0.00193594	0.00278224	0.00242824	0.00332299	0.00257614	0.00761412	0.01225297	0.01924042	0.01911988	0.01888711	0.01005144	0.00495738	0.00178518	0.00523483	0.00235968	0.00292830	0.00198082	0.00770611	0.00525780	0.00306034	0.00468647	0.00886637	0.01288036	0.00523470	0.00970187	0.00193995	0.00420033
1.93000000	0.00134290	0.00304111	0.00237587	0.00349768	0.00261200	0.00740165	0.01336058	0.01994319	0.01911459	0.01944564	0.00933170	0.00445667	0.00162962	0.00498438	0.00223522	0.00289164	0.00220113	0.00774021	0.00513814	0.00293834	0.00483553	0.00880397	0.01303339	0.00556332	0.00956618	0.00136256	0.00413190
1.94000000	0.00090433	0.00322369	0.00226248	0.00368051	0.00260246	0.00724554	0.01446231	0.02074637	0.01912606	0.01961797	0.00911660	0.00423920	0.00163439	0.00473516	0.00221676	0.00287987	0.00215140	0.00781172	0.00498187	0.00282708	0.00498121	0.00874907	0.01317361	0.00596419	0.00944785	0.00070900	0.00418293
1.95000000	0.00101358	0.00343121	0.00213398	0.00383026	0.00256741	0.00709803	0.01546006	0.02161182	0.01907335	0.01980358	0.00890321	0.00426011	0.00168721	0.00452155	0.00218016	0.00290082	0.00208574	0.00789498	0.00480104	0.00274863	0.00512397	0.00869986	0.01332267	0.00642862	0.00932821	0.00007878	0.00419352
1.96000000	0.00095865	0.00379890	0.00190275	0.00365838	0.00229218	0.00677540	0.01630366	0.02259069	0.01895886	0.01992675	0.00894687	0.00445384	0.00160623	0.00420118	0.00211460	0.00317124	0.00173623	0.00809688	0.00454585	0.00274675	0.00518692	0.00860836	0.01343578	0.00698829	0.00929217	0.00064390	0.00422652
1.97000000	0.00195733	0.00376367	0.00180817	0.00400208	0.00235586	0.00670059	0.01685324	0.02342215	0.01898292	0.01987595	0.00914674	0.00475065	0.00155062	0.00412443	0.00201557	0.00351904	0.00165309	0.00818327	0.00438154	0.00268834	0.00531423	0.00855282	0.01355084	0.00745820	0.00920127	0.00121722	0.00425211
1.98000000	0.00307500	0.00399859	0.00179313	0.00444722	0.00249494	0.00713329	0.01722992	0.02414426	0.01917796	0.01914906	0.01000584	0.00542176	0.00192101	0.00415292	0.00220329	0.00341982	0.00147406	0.00810179	0.00419305	0.00247002	0.00560600	0.00869261	0.01374428	0.00754976	0.00905970	0.00197165	0.00439658
1.99000000	0.00311414	0.00382523	0.00164189	0.00442620	0.00235106	0.00702671	0.01760159	0.02475130	0.01908143	0.01969332	0.00935831	0.00580776	0.00172592	0.00433063	0.00234453	0.00352201	0.00137360	0.00822231	0.00400830	0.00263360	0.00554117	0.00855005	0.01375936	0.00830514	0.00901363	0.00243242	0.00420132
2.00000000	0.00321362	0.00397786	0.00157378	0.00452846	0.00231358	0.00711065	0.01767389	0.02531028	0.01916931	0.01974059	0.00935201	0.00637168	0.00187032	0.00454915	0.00238195	0.00353199	0.00135149	0.00828469	0.00383764	0.00263376	0.00561289	0.00851988	0.01382944	0.00874142	0.00886680	0.00303825	0.00403641
2.01000000	0.00302045	0.00413924	0.00148349	0.00458900	0.00229373	0.00719266	0.01761144	0.02575486	0.01921866	0.01997970	0.00927197	0.00687617	0.00203011	0.00485237	0.00236361	0.00351476	0.00148539	0.00821759	0.00372321	0.00266373	0.00570292	0.00846953	0.01393534	0.00914946	0.00874892	0.00350755	0.00371593
2.02000000	0.00291358	0.00421190	0.00150805	0.00463143	0.00221685	0.00758420	0.01751449	0.02604225	0.01927928	0.02002207	0.00956763	0.00737718	0.00231611	0.00515763	0.00244553	0.00355097	0.00138604	0.00831122	0.00360752	0.00269755	0.00570261	0.00846364	0.01388129	0.00944592	0.00863320	0.00423520	0.00356752
2.03000000	0.00257707	0.00445734	0.00144526	0.00473247	0.00232233	0.00734684	0.01721677	0.02627898	0.01911431	0.02067874	0.00960004	0.00764696	0.00246546	0.00574318	0.00241363	0.00334485	0.00186530	0.00817522	0.00358708	0.00272511	0.00581121	0.00842259	0.01396796	0.00974411	0.00844813	0.00457232	0.00308747
2.04000000	0.00222956	0.00436525	0.00151906	0.00473658	0.00221766	0.00773799	0.01679980	0.02662735	0.01935640	0.02064194	0.00985761	0.00803529	0.00284129	0.00596133	0.00253411	0.00349925	0.00156654	0.00811779	0.00351691	0.00278850	0.00581973	0.00848610	0.01391434	0.00990678	0.00831176	0.00518537	0.00290547
2.05000000	0.00218340	0.00452169	0.00149679	0.00493825	0.00235578	0.00804986	0.01639283	0.02669223	0.01932355	0.02107050	0.00985569	0.00824991	0.00306565	0.00640407	0.00249702	0.00344460	0.00189748	0.00799993	0.00351379	0.00284332	0.00587524	0.00846895	0.01391279	0.01010626	0.00810767	0.00555678	0.00253183
2.06000000	0.00158316	0.00447497	0.00156767	0.00485656	0.00222456	0.00847924	0.01585650	0.02694112	0.01943297	0.02118389	0.01003873	0.00850288	0.00342859	0.00663297	0.00263346	0.00351909	0.00162306	0.00794092	0.00348252	0.00293559	0.00585043	0.00850883	0.01382810	0.01022500	0.00793843	0.00610763	0.00232423
2.07000000	0.00050430	0.00451738	0.00147933	0.00472435	0.00209624	0.00906918	0.01534331	0.02723207	0.01951679	0.02103432	0.01048977	0.00890609	0.00425023	0.00645528	0.00255558	0.00358025	0.00169079	0.00800350	0.00352968	0.00293489	0.00591067	0.00837633	0.01380209	0.00999850	0.00764205	0.00707404	0.00227471
2.08000000	0.00163468	0.00455539	0.00152909	0.00525221	0.00246305	0.00945345	0.01455721	0.02685315	0.01927417	0.02162285	0.01027484	0.00896427	0.00380727	0.00733461	0.00263651	0.00346321	0.00207055	0.00765095	0.00350252	0.00310025	0.00590731	0.00857673	0.01372471	0.01027239	0.00747108	0.00690501	0.00173285
2.09000000	0.00151758	0.00453430	0.00151853	0.00537392	0.00251096	0.01013426	0.01374209	0.02666266	0.01918930	0.02167053	0.01027315	0.00926900	0.00393484	0.00759909	0.00266571	0.00355944	0.00206426	0.00749371	0.00351215	0.00317413	0.00595660	0.00864769	0.01369354	0.01016259	0.00723206	0.00725268	0.00144132
2.10000000	0.00110268	0.00438540	0.00147676	0.00529926	0.00240660	0.01058225	0.01283964	0.02637992	0.01895008	0.02173694	0.01032705	0.00962248	0.00419509	0.00776338	0.00271352	0.00350767	0.00205722	0.00737382	0.00351864	0.00331022	0.00593431	0.00866954	0.01360767	0.01022344	0.00699122	0.00752337	0.00115763
2.11000000	0.00118707	0.00413935	0.00143778	0.00540101	0.00241850	0.01095662	0.01169010	0.02577239	0.01871971	0.02174023	0.01019038	0.00990366	0.00419062	0.00819627	0.00275757	0.00357359	0.00207266	0.00731715	0.00353064	0.00338880	0.00593344	0.00871327	0.01350784	0.01003799	0.00671580	0.00791029	0.00085751
2.12000000	0.00104159	0.00386460	0.00139350	0.00524299	0.00225945	0.01115625	0.01061140	0.02481330	0.01834967	0.02164771	0.01016424	0.01027718	0.00446836	0.00837008	0.00283844	0.00345831	0.00201800	0.00725296	0.00352446	0.00351180	0.00590914	0.00873632	0.01342869	0.01000378	0.00643765	0.00815964	0.00052755
2.13000000	0.00141884	0.00341703	0.00133063	0.00548359	0.00240837	0.01145863	0.00927310	0.02312424	0.01809520	0.02140011	0.00979793	0.01060465	0.00446429	0.00881777	0.00277950	0.00355629	0.00219835	0.00719225	0.00354123	0.00357737	0.00594464	0.00880185	0.01332975	0.00968478	0.00612766	0.00843063	0.00019014
2.14000000	0.00194999	0.00296786	0.00139339	0.00492291	0.00193644	0.01056781	0.00800104	0.02147599	0.01757112	0.02135985	0.00968861	0.01093996	0.00477510	0.00878979	0.00287641	0.00351248	0.00196175	0.00719484	0.00356359	0.00374737	0.00587825	0.00877176	0.01323745	0.00967778	0.00589820	0.00865695	0.00032755
2.15000000	0.00237055	0.00246141	0.00143392	0.00480363	0.00181330	0.00958130	0.00701828	0.01902449	0.01709861	0.02077608	0.01003093	0.01118674	0.00493901	0.00901558	0.00290866	0.00347571	0.00198189	0.00720748	0.00366799	0.00391568	0.00586292	0.00879196	0.01310960	0.00954760	0.00569864	0.00875125	0.00052648
2.16000000	0.00232522	0.00187776	0.00129198	0.00520043	0.00214131	0.00903025	0.00518899	0.01608294	0.01716989	0.01968682	0.00929121	0.01141102	0.00480791	0.00942829	0.00280172	0.00356078	0.00233452	0.00725147	0.00362737	0.00389331	0.00594406	0.00881279	0.01308960	0.00912234	0.00528553	0.00888617	0.00098390
2.17000000	0.00428631	0.00132005	0.00147174	0.00423996	0.00146980	0.00653966	0.00356569	0.01377492	0.01662644	0.02028532	0.00793359	0.01168950	0.00525349	0.00904637	0.00295534	0.00334888	0.00210755	0.00730482	0.00362668	0.00403391	0.00588200	0.00868772	0.01310510	0.00899344	0.00506479	0.00920693	0.00132625
2.18000000	0.00436684	0.00147467	0.00139484	0.00457649	0.00183620	0.00607115	0.00282829	0.01141393	0.01682164	0.01729174	0.00915732	0.01198858	0.00509525	0.00919967	0.00281381	0.00352016	0.00231515	0.00741581	0.00373659	0.00408229	0.00592367	0.00873054	0.01295164	0.00877735	0.00479263	0.00902880	0.00167749
2.19000000	0.00508463	0.00162836	0.00147599	0.00423200	0.00160323	0.00539699	0.00207484	0.01057803	0.01654651	0.01633812	0.00926291	0.01216938	0.00516303	0.00912353	0.00281487	0.00353515	0.00237263	0.00753038	0.00380949	0.00416179	0.00590583	0.00871821	0.01291164	0.00868385	0.00463566	0.00897977	0.00192964
2.20000000	0.00632419	0.00177878	0.00156281	0.00383827	0.00142815	0.00653572	0.00159636	0.01137428	0.01642820	0.01535958	0.00877583	0.01245581	0.00523273	0.00889342	0.00283454	0.00351002	0.00234389	0.00765999	0.00388445	0.00420607	0.00588840	0.00868244	0.01286993	0.00851148	0.00447408	0.00899639	0.00217816
2.21000000	0.00716629	0.00202327	0.00173029	0.00343596	0.00119007	0.00942880	0.00137793	0.01296576	0.01614367	0.01499663	0.00858595	0.01264019	0.00527950	0.00876406	0.00284410	0.00349398	0.00237878	0.00775329	0.00394186	0.00425388	0.00586012	0.00868809	0.01286059	0.00843793	0.00438932	0.00894911	0.00237176
2.22000000	0.00811149	0.00216245	0.00195547	0.00300571	0.00100885	0.01284517	0.00132604	0.01467481	0.01583819	0.01516715	0.00827757	0.01284563	0.00538062	0.00861313	0.00286169	0.00340503	0.00243053	0.00782743	0.00396864	0.00427912	0.00581161	0.00871293	0.01284713	0.00841234	0.00436383	0.00890908	0.00252099
2.23000000	0.00908074	0.00213081	0.00218422	0.00260370	0.00097187	0.01601980	0.00131339	0.01601438	0.01560198	0.01577757	0.00767090	0.01300459	0.00543164	0.00865215	0.00295337	0.00326917	0.00235810	0.00788437	0.00403159	0.00431350	0.00576729	0.00877332	0.01279587	0.00833964	0.00439194	0.00887579	0.00271724
2.24000000	0.00871791	0.00228936	0.00252348	0.00264992	0.00119686	0.01808794	0.00120113	0.01731018	0.01543032	0.01608673	0.00826961	0.01308158	0.00530985	0.00878139	0.00281024	0.00344029	0.00248723	0.00803270	0.00398639	0.00420093	0.00570157	0.00885075	0.01276945	0.00835871	0.00446814	0.00883093	0.00283452
2.25000000	0.00989710	0.00290964	0.00283269	0.00219524	0.00137928	0.01926005	0.00166427	0.01702426	0.01531245	0.01666384	0.00824499	0.01327812	0.00557503	0.00879810	0.00285884	0.00323231	0.00252035	0.00812629	0.00425029	0.00432755	0.00559404	0.00883314	0.01245325	0.00829371	0.00470235	0.00898222	0.00304659
2.26000000	0.00875258	0.00197836	0.00282427	0.00252237	0.00134264	0.01888312	0.00178696	0.01698591	0.01523616	0.01683732	0.00843467	0.01330833	0.00551319	0.00903288	0.00285612	0.00305796	0.00256004	0.00794691	0.00406551	0.00415701	0.00561735	0.00901112	0.01254908	0.00828447	0.00490223	0.00883468	0.00305678
2.27000000	0.00799964	0.00202365	0.00278072	0.00261919	0.00123049	0.01724605	0.00200839	0.01612055	0.01530393	0.01691120	0.00869782	0.01329314	0.00545477	0.00928215	0.00283609	0.00300873	0.00251402	0.00769494	0.00406957	0.00410850	0.00566855	0.00914375	0.01250192	0.00812240	0.00514811	0.00885903	0.00321525
2.28000000	0.00741770	0.00203956	0.00278114	0.00269769	0.00118675	0.01466394	0.00241403	0.01476530	0.01531869	0.01688287	0.00919518	0.01317459	0.00522887	0.00950707	0.00284058	0.00295378	0.00244784	0.00785985	0.00417268	0.00396201	0.00555894	0.00910063	0.01215108	0.00828017	0.00538624	0.00893039	0.00340735
2.29000000	0.00706541	0.00219472	0.00272392	0.00277118	0.00119248	0.01157177	0.00327696	0.01333625	0.01534873	0.01662881	0.01003094	0.01302361	0.00523283	0.00945132	0.00303505	0.00272516	0.00222024	0.00784965	0.00433967	0.00389811	0.00554759	0.00901179	0.01185174	0.00828635	0.00549615	0.00915195	0.00385288
2.30000000	0.00676037	0.00235534	0.00260964	0.00274695	0.00110021	0.00819483	0.00377447	0.01234840	0.01540645	0.01635420	0.01107019	0.01295011	0.00508042	0.00914168	0.00321424	0.00241144	0.00229807	0.00763807	0.00467629	0.00400475	0.00560443	0.00894704	0.01152583	0.00802476	0.00584568	0.00949426	0.00439796
2.31000000	0.00538539	0.00269112	0.00231742	0.00298776	0.00081085	0.00560821	0.00483496	0.01206985	0.01543732	0.01700687	0.01062741	0.01253378	0.00468786	0.00902634	0.00312078	0.00272520	0.00212853	0.00741935	0.00447499	0.00370794	0.00557331	0.00891795	0.01139784	0.00839394	0.00621112	0.00951117	0.00408448
2.32000000	0.00478254	0.00288859	0.00209718	0.00309940	0.00085985	0.00391522	0.00545314	0.01191848	0.01546008	0.01692886	0.01127129	0.01221653	0.00425614	0.00835567	0.00325789	0.00252965	0.00221460	0.00737533	0.00475531	0.00368898	0.00562318	0.00864777	0.01110785	0.00836521	0.00647894	0.00991806	0.00452078
2.33000000	0.00396346	0.00320925	0.00197415	0.00313244	0.00084326	0.00290172	0.00573228	0.01208352	0.01539178	0.01762812	0.01096406	0.01178699	0.00370296	0.00756202	0.00329188	0.00254222	0.00207482	0.00690893	0.00461904	0.00353702	0.00562986	0.00865155	0.01105775	0.00872560	0.00704212	0.01010282	0.00438810
2.34000000	0.00347142	0.00327975	0.00174662	0.00316125	0.00101899	0.00245776	0.00595846	0.01230369	0.01528254	0.01788134	0.01104949	0.01124350	0.00335532	0.00642123	0.00334766	0.00243167	0.00219128	0.00673299	0.00475467	0.00348601	0.00568255	0.00842974	0.01088425	0.00895985	0.00746153	0.01044877	0.00464573
2.35000000	0.00311435	0.00325585	0.00146989	0.00315823	0.00120964	0.00220392	0.00607534	0.01255456	0.01517736	0.01802999	0.01109972	0.01058210	0.00299097	0.00513504	0.00338879	0.00227405	0.00238289	0.00657642	0.00497475	0.00352001	0.00576480	0.00813036	0.01069564	0.00907568	0.00785072	0.01091427	0.00502770
2.36000000	0.00278632	0.00317822	0.00125498	0.00317312	0.00144442	0.00236001	0.00603853	0.01289901	0.01511475	0.01809952	0.01103119	0.00974135	0.00277696	0.00380668	0.00338512	0.00233248	0.00273854	0.00644715	0.00515768	0.00353526	0.00586076	0.00781882	0.01057453	0.00930059	0.00827001	0.01134495	0.00538122
2.37000000	0.00244559	0.00306988	0.00114221	0.00324491	0.00174112	0.00284844	0.00584681	0.01327549	0.01506949	0.01812429	0.01092401	0.00875983	0.00276571	0.00286453	0.00330617	0.00264343	0.00326842	0.00639326	0.00536856	0.00356989	0.00597819	0.00748501	0.01046883	0.00953683	0.00869376	0.01174743	0.00574355
2.38000000	0.00210683	0.00304502	0.00126159	0.00338439	0.00208657	0.00342463	0.00556324	0.01359063	0.01505878	0.01810341	0.01086034	0.00776623	0.00287031	0.00310376	0.00322670	0.00319281	0.00371791	0.00632840	0.00559274	0.00365016	0.00613400	0.00717219	0.01040543	0.00975581	0.00911291	0.01211706	0.00610806
2.39000000	0.00183846	0.00298533	0.00155557	0.00360706	0.00249276	0.00391862	0.00514228	0.01386756	0.01500245	0.01815271	0.01080631	0.00687736	0.00327767	0.00439929	0.00308373	0.00379431	0.00410682	0.00643352	0.00581855	0.00372377	0.00625340	0.00679686	0.01031219	0.01002875	0.00942485	0.01252379	0.00652462
2.40000000	0.00179961	0.00328823	0.00199355	0.00385527	0.00286801	0.00419319	0.00456712	0.01410394	0.01510913	0.01815878	0.01072343	0.00667820	0.00336118	0.00626552	0.00292365	0.00438967	0.00412187	0.00644111	0.00602293	0.00380498	0.00642906	0.00657543	0.01029164	0.01035997	0.00986399	0.01271231	0.00676281
2.41000000	0.00225925	0.00361775	0.00251167	0.00411899	0.00325207	0.00446126	0.00401806	0.01425201	0.01523167	0.01835356	0.01060766	0.00704456	0.00348199	0.00828232	0.00287815	0.00501794	0.00345925	0.00656311	0.00621306	0.00391338	0.00655874	0.00636596	0.01020933	0.01071859	0.01026585	0.01288170	0.00696984
2.42000000	0.00233729	0.00374730	0.00295877	0.00424088	0.00355993	0.00451187	0.00362260	0.01451064	0.01534572	0.01830974	0.01072482	0.00710891	0.00375691	0.01057451	0.00262440	0.00577669	0.00263154	0.00681077	0.00642872	0.00402111	0.00667930	0.00607031	0.01016066	0.01105136	0.01053770	0.01312980	0.00726250
2.43000000	0.00242571	0.00398041	0.00348393	0.00454158	0.00399257	0.00461458	0.00323232	0.01467258	0.01528785	0.01860888	0.01086216	0.00868420	0.00426404	0.01212560	0.00293561	0.00553550	0.00265971	0.00710236	0.00664810	0.00409128	0.00680371	0.00587380	0.01007414	0.01133914	0.01079052	0.01323415	0.00744290
2.44000000	0.00296382	0.00407813	0.00379312	0.00447291	0.00408479	0.00421827	0.00292849	0.01511353	0.01566465	0.01855928	0.01072925	0.00895037	0.00434901	0.01428104	0.00310730	0.00614863	0.00151921	0.00729132	0.00676917	0.00414326	0.00693238	0.00576555	0.01005891	0.01178357	0.01110581	0.01320198	0.00758548
2.45000000	0.00306689	0.00420532	0.00418985	0.00465780	0.00438616	0.00414614	0.00302160	0.01538094	0.01579166	0.01865324	0.01083002	0.00970512	0.00479594	0.01586675	0.00349338	0.00626918	0.00197063	0.00765838	0.00691696	0.00422112	0.00694727	0.00566197	0.00982404	0.01218422	0.01134589	0.01314939	0.00763586
2.46000000	0.00321240	0.00419145	0.00456387	0.00471175	0.00460405	0.00399550	0.00310891	0.01560893	0.01595987	0.01876838	0.01088220	0.01046191	0.00545818	0.01734866	0.00387670	0.00628805	0.00263584	0.00798940	0.00707794	0.00430409	0.00700363	0.00558179	0.00964461	0.01252735	0.01163342	0.01299081	0.00759145
2.47000000	0.00333033	0.00398198	0.00483431	0.00453602	0.00465697	0.00381094	0.00335540	0.01581757	0.01604364	0.01894215	0.01089949	0.01057430	0.00609597	0.01913846	0.00410227	0.00651252	0.00318130	0.00838010	0.00716830	0.00430238	0.00699482	0.00547972	0.00948295	0.01290254	0.01179124	0.01281072	0.00765944
2.48000000	0.00320237	0.00401339	0.00537035	0.00450586	0.00492591	0.00364972	0.00353538	0.01594447	0.01608670	0.01899368	0.01109964	0.01124420	0.00702487	0.02052355	0.00447463	0.00634333	0.00344719	0.00876594	0.00726363	0.00432546	0.00694908	0.00543456	0.00924005	0.01319908	0.01196154	0.01252488	0.00757883
2.49000000	0.00344667	0.00355760	0.00539218	0.00413333	0.00475115	0.00367732	0.00383987	0.01601489	0.01620092	0.01917825	0.01091558	0.01067692	0.00781953	0.02251425	0.00440064	0.00664617	0.00379384	0.00920154	0.00733669	0.00431060	0.00687067	0.00528259	0.00905990	0.01351775	0.01204749	0.01217990	0.00754506
2.50000000	0.00342066	0.00338982	0.00562871	0.00381470	0.00472804	0.00359469	0.00401122	0.01602440	0.01622988	0.01930871	0.01086714	0.01049665	0.00869437	0.02400195	0.00444597	0.00667798	0.00391032	0.00959045	0.00736688	0.00427904	0.00675100	0.00519503	0.00886180	0.01373586	0.01214210	0.01170461	0.00736819
2.51000000	0.00314947	0.00379754	0.00607463	0.00354406	0.00482796	0.00353983	0.00412791	0.01604024	0.01626860	0.01928266	0.01086491	0.01084226	0.00960003	0.02469647	0.00474241	0.00632395	0.00378981	0.00995556	0.00740157	0.00421270	0.00660685	0.00511191	0.00866986	0.01400427	0.01212943	0.01104561	0.00715523
2.52000000	0.00291501	0.00380545	0.00621389	0.00322439	0.00475538	0.00351796	0.00424352	0.01595742	0.01616996	0.01943496	0.01078484	0.01058148	0.01026735	0.02518087	0.00479459	0.00620548	0.00388070	0.01023295	0.00739170	0.00419853	0.00642032	0.00511994	0.00842338	0.01396591	0.01222614	0.01037484	0.00677265
2.53000000	0.00269818	0.00370440	0.00620259	0.00276090	0.00452919	0.00366109	0.00426791	0.01582388	0.01607821	0.01959938	0.01068917	0.01033041	0.01074922	0.02499400	0.00486739	0.00586968	0.00391164	0.01052068	0.00733122	0.00409023	0.00616706	0.00508471	0.00823108	0.01400090	0.01217000	0.00964521	0.00649047
2.54000000	0.00271610	0.00303362	0.00607582	0.00248682	0.00434261	0.00378341	0.00450835	0.01579500	0.01601572	0.01955991	0.01068621	0.00945015	0.01076126	0.02452971	0.00483784	0.00568707	0.00424687	0.01063929	0.00730321	0.00406461	0.00597096	0.00515586	0.00809487	0.01360980	0.01212110	0.00890264	0.00610696
2.55000000	0.00238023	0.00283403	0.00594191	0.00203533	0.00403888	0.00417575	0.00466673	0.01556590	0.01592737	0.01984227	0.01041620	0.00948426	0.01102842	0.02313830	0.00498269	0.00521123	0.00408673	0.01074329	0.00711086	0.00379409	0.00565050	0.00531231	0.00796896	0.01363747	0.01208317	0.00790089	0.00566498
2.56000000	0.00226443	0.00200124	0.00577664	0.00199630	0.00393261	0.00421545	0.00487886	0.01567257	0.01596017	0.01949697	0.01065650	0.00883601	0.01088065	0.02190142	0.00481057	0.00504354	0.00431941	0.01069943	0.00707292	0.00387563	0.00541033	0.00551121	0.00776324	0.01285992	0.01197319	0.00705065	0.00541963
2.57000000	0.00185226	0.00132861	0.00553686	0.00176678	0.00366124	0.00458424	0.00524989	0.01548993	0.01579200	0.01978301	0.01046055	0.00880097	0.01076981	0.02031721	0.00495567	0.00472433	0.00433162	0.01061869	0.00693759	0.00378403	0.00509398	0.00576292	0.00758673	0.01243482	0.01196318	0.00594586	0.00495987
2.58000000	0.00167161	0.00087195	0.00535865	0.00164521	0.00347190	0.00483865	0.00559100	0.01549976	0.01576050	0.01980095	0.01039653	0.00861971	0.01049394	0.01889383	0.00496493	0.00445118	0.00433268	0.01047860	0.00683207	0.00374203	0.00478573	0.00602257	0.00740643	0.01178466	0.01189206	0.00498670	0.00463317
2.59000000	0.00157358	0.00082639	0.00523841	0.00152236	0.00332206	0.00502252	0.00594092	0.01565293	0.01580118	0.01958265	0.01055010	0.00843569	0.01015640	0.01767623	0.00489213	0.00416129	0.00425142	0.01029901	0.00674903	0.00369039	0.00448366	0.00627755	0.00722987	0.01108645	0.01180649	0.00403814	0.00428802
2.60000000	0.00123634	0.00106118	0.00486467	0.00129750	0.00292387	0.00559681	0.00621906	0.01547112	0.01570149	0.01999750	0.01030431	0.00847880	0.00962484	0.01677367	0.00483101	0.00397471	0.00442117	0.01007174	0.00660766	0.00359570	0.00414127	0.00655233	0.00709731	0.01054615	0.01181035	0.00301430	0.00376511
2.61000000	0.00130324	0.00144588	0.00517364	0.00122201	0.00306866	0.00548693	0.00650420	0.01598233	0.01580766	0.01933997	0.01089118	0.00828937	0.00908190	0.01597400	0.00476019	0.00365473	0.00418018	0.00975366	0.00666991	0.00355363	0.00396434	0.00675680	0.00697746	0.00966517	0.01164832	0.00208717	0.00339263
2.62000000	0.00122509	0.00171582	0.00511377	0.00111038	0.00292809	0.00578132	0.00689378	0.01619259	0.01582996	0.01924449	0.01094799	0.00843786	0.00852049	0.01541073	0.00459459	0.00337518	0.00413207	0.00942509	0.00663871	0.00351625	0.00371534	0.00699657	0.00681492	0.00891824	0.01161877	0.00116633	0.00288190
2.63000000	0.00120577	0.00200967	0.00508699	0.00099180	0.00280719	0.00609835	0.00723815	0.01644173	0.01584378	0.01920081	0.01097285	0.00872018	0.00781367	0.01492615	0.00441897	0.00311334	0.00410409	0.00906053	0.00664912	0.00348151	0.00349221	0.00721002	0.00663643	0.00819678	0.01159158	0.00027271	0.00228663
2.64000000	0.00127586	0.00233036	0.00505532	0.00091811	0.00268996	0.00649249	0.00754141	0.01666687	0.01584336	0.01920128	0.01101465	0.00904839	0.00701013	0.01442221	0.00420267	0.00287442	0.00408111	0.00868552	0.00667919	0.00344068	0.00328692	0.00741045	0.00642595	0.00752364	0.01157218	0.00055401	0.00165057
2.65000000	0.00135947	0.00254306	0.00501825	0.00094774	0.00260253	0.00692794	0.00785322	0.01688542	0.01585079	0.01920377	0.01102368	0.00939281	0.00617320	0.01374991	0.00398775	0.00262284	0.00401627	0.00829323	0.00672569	0.00339816	0.00315128	0.00759545	0.00623292	0.00682805	0.01158897	0.00138743	0.00099153
2.66000000	0.00141911	0.00337037	0.00431194	0.00101368	0.00206182	0.00782314	0.00830277	0.01671252	0.01585991	0.01968513	0.01054811	0.00964349	0.00502064	0.01321821	0.00373692	0.00251214	0.00402559	0.00786387	0.00661054	0.00347017	0.00289988	0.00789784	0.00592902	0.00635984	0.01179335	0.00216507	0.00034741
2.67000000	0.00154254	0.00341461	0.00459970	0.00087393	0.00223064	0.00807222	0.00833700	0.01723084	0.01593028	0.01964584	0.01037264	0.00930818	0.00419818	0.01198161	0.00353407	0.00223473	0.00388895	0.00738262	0.00688585	0.00340535	0.00294932	0.00791243	0.00578234	0.00585117	0.01175554	0.00264938	0.00041178
2.68000000	0.00128214	0.00312435	0.00498729	0.00105608	0.00246288	0.00838055	0.00854368	0.01753181	0.01573563	0.01949151	0.01096773	0.00935476	0.00366019	0.00978761	0.00350476	0.00167304	0.00360490	0.00692410	0.00707777	0.00336132	0.00293837	0.00809420	0.00548534	0.00539703	0.01170958	0.00346487	0.00122871
2.69000000	0.00114787	0.00332330	0.00484658	0.00114431	0.00230794	0.00893165	0.00863973	0.01766606	0.01564318	0.01959200	0.01113114	0.00889777	0.00314508	0.00782650	0.00331771	0.00149304	0.00341308	0.00659931	0.00719446	0.00338097	0.00288370	0.00816391	0.00518495	0.00522674	0.01184050	0.00400110	0.00180304
2.70000000	0.00090439	0.00354457	0.00474734	0.00119379	0.00222754	0.00943639	0.00868928	0.01782481	0.01554919	0.01978943	0.01114349	0.00850561	0.00276336	0.00558853	0.00323066	0.00121613	0.00313917	0.00619369	0.00735750	0.00342159	0.00291786	0.00825363	0.00493636	0.00512474	0.01193096	0.00455175	0.00233907
2.71000000	0.00068514	0.00412731	0.00442535	0.00126790	0.00202085	0.00990988	0.00870752	0.01793590	0.01547230	0.02006525	0.01098690	0.00823221	0.00250039	0.00364071	0.00302282	0.00132280	0.00294695	0.00586446	0.00744135	0.00345082	0.00293303	0.00834602	0.00468619	0.00520653	0.01212362	0.00499592	0.00276585
2.72000000	0.00057900	0.00434152	0.00446255	0.00129709	0.00206205	0.01038125	0.00870546	0.01804917	0.01531079	0.02025260	0.01118875	0.00848336	0.00236064	0.00119785	0.00307577	0.00110821	0.00256940	0.00554352	0.00769771	0.00354855	0.00304181	0.00833830	0.00444704	0.00521172	0.01213681	0.00556616	0.00314465
2.73000000	0.00079218	0.00562585	0.00382169	0.00137298	0.00160373	0.01076423	0.00881249	0.01800470	0.01506430	0.02075830	0.01111098	0.00920347	0.00228020	0.00076715	0.00280063	0.00185698	0.00248301	0.00522487	0.00772710	0.00380108	0.00301028	0.00847501	0.00412848	0.00513011	0.01235988	0.00623450	0.00359574
2.74000000	0.00110625	0.00555794	0.00384532	0.00152631	0.00163166	0.01100918	0.00867544	0.01815012	0.01518440	0.02065941	0.01116733	0.01030569	0.00238754	0.00241853	0.00257750	0.00190425	0.00223253	0.00524500	0.00790847	0.00378226	0.00312858	0.00822689	0.00404256	0.00579259	0.01246316	0.00618432	0.00383892
2.75000000	0.00175049	0.00610488	0.00356617	0.00169908	0.00141034	0.01126534	0.00872544	0.01810003	0.01518183	0.02075169	0.01130341	0.01139422	0.00235459	0.00366722	0.00249662	0.00227047	0.00203173	0.00514876	0.00801858	0.00399122	0.00318558	0.00815513	0.00385497	0.00590893	0.01260511	0.00657859	0.00410344
2.76000000	0.00265709	0.00676394	0.00324187	0.00193541	0.00107858	0.01113969	0.00874946	0.01815900	0.01497722	0.02105654	0.01147122	0.01247457	0.00272255	0.00417011	0.00225784	0.00259086	0.00224947	0.00509338	0.00812084	0.00429163	0.00321099	0.00803261	0.00362419	0.00570969	0.01275793	0.00723881	0.00441154
2.77000000	0.00237452	0.00681502	0.00354359	0.00176956	0.00146836	0.01140342	0.00876280	0.01815266	0.01519017	0.02097369	0.01137747	0.01209124	0.00218250	0.00638897	0.00266583	0.00238322	0.00125399	0.00538781	0.00844514	0.00423146	0.00343019	0.00766172	0.00357102	0.00638796	0.01259516	0.00704371	0.00453988
2.78000000	0.00296012	0.00731296	0.00326572	0.00197181	0.00123437	0.01125247	0.00892149	0.01804776	0.01528638	0.02095144	0.01141484	0.01252380	0.00213637	0.00664638	0.00247581	0.00246273	0.00109793	0.00550984	0.00852887	0.00446024	0.00350586	0.00742652	0.00348430	0.00641256	0.01270922	0.00732475	0.00468840
2.79000000	0.00354118	0.00779470	0.00302395	0.00224078	0.00107029	0.01103743	0.00909718	0.01786160	0.01540186	0.02094464	0.01142756	0.01264184	0.00196513	0.00676299	0.00220191	0.00255053	0.00110922	0.00570491	0.00858413	0.00468512	0.00357552	0.00710806	0.00343537	0.00635329	0.01283717	0.00761857	0.00487661
2.80000000	0.00394980	0.00821616	0.00287379	0.00251078	0.00108168	0.01084352	0.00933781	0.01758321	0.01557886	0.02086261	0.01136553	0.01255691	0.00177593	0.00667417	0.00211889	0.00261301	0.00099552	0.00604334	0.00869405	0.00483202	0.00365260	0.00678051	0.00346303	0.00647632	0.01289734	0.00768609	0.00492879
2.81000000	0.00444271	0.00852372	0.00281667	0.00278000	0.00128897	0.01079050	0.00959827	0.01709681	0.01580193	0.02083786	0.01123542	0.01214967	0.00162433	0.00636586	0.00192794	0.00270365	0.00094543	0.00661965	0.00861783	0.00486280	0.00371659	0.00635683	0.00358949	0.00690004	0.01297143	0.00748490	0.00513367
2.82000000	0.00512405	0.00925542	0.00239605	0.00321310	0.00132312	0.01059883	0.00958837	0.01665651	0.01590433	0.02095752	0.01126347	0.01187717	0.00110873	0.00587058	0.00187129	0.00247174	0.00111639	0.00706051	0.00850724	0.00524242	0.00373459	0.00603219	0.00368048	0.00676266	0.01307833	0.00769922	0.00539921
2.83000000	0.00573695	0.01000135	0.00233516	0.00335014	0.00151755	0.01070698	0.01006760	0.01605507	0.01608845	0.02085414	0.01107182	0.01129708	0.00095761	0.00533991	0.00181897	0.00264787	0.00090625	0.00763411	0.00850627	0.00523143	0.00377265	0.00565540	0.00384865	0.00695107	0.01307637	0.00754057	0.00536802
2.84000000	0.00637791	0.01075298	0.00201104	0.00372438	0.00175728	0.01078878	0.00990419	0.01564071	0.01633054	0.02080065	0.01093084	0.01112810	0.00113242	0.00485068	0.00177251	0.00257267	0.00092779	0.00784741	0.00831142	0.00550907	0.00375832	0.00550444	0.00397539	0.00680030	0.01330281	0.00765942	0.00564824
2.85000000	0.00725665	0.01173051	0.00186058	0.00389760	0.00196219	0.01106557	0.01032710	0.01503347	0.01641992	0.02080472	0.01083904	0.01088967	0.00100665	0.00430984	0.00179939	0.00259048	0.00102726	0.00825587	0.00820147	0.00563101	0.00380241	0.00525553	0.00420953	0.00687483	0.01334857	0.00754029	0.00557786
2.86000000	0.00788567	0.01242837	0.00171223	0.00422043	0.00228810	0.01141732	0.00984812	0.01469165	0.01666617	0.02073929	0.01057577	0.01097891	0.00217131	0.00423665	0.00188642	0.00267314	0.00101633	0.00843796	0.00802652	0.00579017	0.00372701	0.00527199	0.00439696	0.00692726	0.01351899	0.00741258	0.00585785
2.87000000	0.00888239	0.01327453	0.00169200	0.00432952	0.00244515	0.01188172	0.00993192	0.01423158	0.01681958	0.02058482	0.01058770	0.01104081	0.00193575	0.00402763	0.00173320	0.00271289	0.00099017	0.00882522	0.00799799	0.00583971	0.00377352	0.00503339	0.00472770	0.00670998	0.01337387	0.00750863	0.00564506
2.88000000	0.00965061	0.01382673	0.00164848	0.00439622	0.00257922	0.01222840	0.00948800	0.01400688	0.01701164	0.02045348	0.01038980	0.01094269	0.00218032	0.00428523	0.00189835	0.00252709	0.00093502	0.00893164	0.00785987	0.00585957	0.00373309	0.00505225	0.00498322	0.00668837	0.01339519	0.00740480	0.00568195
2.89000000	0.01031967	0.01429320	0.00159330	0.00436783	0.00263532	0.01252664	0.00893763	0.01388410	0.01721270	0.02023619	0.01015479	0.01051166	0.00232372	0.00471787	0.00198257	0.00250037	0.00089545	0.00898395	0.00776369	0.00588069	0.00369933	0.00508673	0.00523651	0.00661795	0.01334386	0.00732276	0.00566790
2.90000000	0.01097689	0.01435651	0.00158824	0.00434840	0.00268052	0.01293499	0.00780955	0.01368220	0.01735142	0.01999500	0.00992070	0.00998798	0.00252162	0.00489214	0.00216658	0.00198549	0.00128104	0.00902083	0.00770568	0.00584074	0.00361284	0.00515849	0.00548506	0.00650458	0.01321200	0.00727441	0.00573365
2.91000000	0.01144627	0.01431014	0.00142777	0.00404025	0.00248798	0.01282881	0.00704891	0.01375701	0.01750773	0.01963534	0.00977943	0.00888003	0.00219732	0.00502782	0.00233068	0.00206606	0.00126970	0.00889037	0.00769342	0.00575111	0.00358235	0.00526447	0.00568933	0.00642652	0.01302676	0.00715852	0.00562574
2.92000000	0.01182438	0.01391545	0.00125484	0.00365459	0.00220845	0.01268535	0.00589162	0.01375453	0.01761050	0.01923724	0.00958060	0.00777489	0.00195228	0.00476790	0.00263863	0.00171487	0.00158558	0.00881131	0.00783934	0.00557541	0.00354748	0.00534276	0.00591846	0.00631158	0.01262637	0.00706922	0.00541928
2.93000000	0.01204397	0.01316912	0.00113096	0.00324493	0.00192627	0.01217444	0.00476970	0.01382865	0.01772354	0.01874115	0.00955469	0.00668741	0.00177878	0.00429284	0.00275283	0.00162069	0.00175697	0.00865486	0.00792865	0.00536774	0.00350373	0.00546085	0.00612704	0.00621486	0.01227674	0.00694518	0.00520661
2.94000000	0.01258502	0.01123451	0.00098956	0.00312758	0.00162550	0.01104237	0.00353891	0.01395548	0.01786184	0.01810812	0.00964959	0.00632412	0.00133509	0.00295652	0.00249270	0.00214236	0.00110371	0.00864737	0.00803608	0.00519004	0.00345914	0.00535494	0.00639948	0.00616692	0.01187790	0.00675045	0.00490672
2.95000000	0.01236808	0.01025673	0.00096615	0.00254221	0.00124313	0.01018918	0.00265539	0.01392583	0.01790950	0.01761827	0.00967951	0.00561605	0.00135738	0.00244956	0.00250178	0.00210240	0.00126917	0.00843530	0.00819508	0.00491180	0.00344072	0.00552015	0.00655979	0.00608894	0.01141927	0.00657199	0.00460926
