SUBJ63_3_JMP_06_shoulder_elbow_joint_personalization_task_1_initialErrors.sto
version=1
nRows=171
nColumns=26
inDegrees=no
endheader
time	R_Asis	L_Asis	Sacral	R_Thigh_Lateral	R_Knee_Lateral	R_Shank_Lateral	R_Ankle_Lateral	R_Heel	R_Toe	L_Thigh_Lateral	L_Knee_Lateral	L_Shank_Lateral	L_Ankle_Lateral	L_Heel	L_Toe	R_Shoulder	L_Shoulder	C7	J_Notch	Thoracic	Sternum	R_Elbow	L_Elbow	R_Wrist	L_Wrist
0.00000000	0.00419577	0.00115945	0.00339281	0.00995715	0.00382144	0.01429345	0.00209086	0.00381469	0.00161364	0.00212077	0.00142093	0.00325788	0.00342822	0.00470454	0.00205345	0.00370553	0.00742990	0.00605661	0.00201741	0.00363001	0.00525829	0.00161596	0.00209162	0.00112737	0.00133470
0.01000000	0.00427826	0.00089738	0.00305204	0.01068430	0.00356609	0.01412542	0.00227125	0.00389444	0.00166561	0.00282194	0.00249703	0.00353561	0.00318125	0.00502711	0.00264705	0.00338419	0.00632160	0.00590036	0.00201807	0.00389339	0.00506222	0.00123777	0.00358563	0.00059413	0.00192542
0.02000000	0.00485003	0.00066780	0.00259460	0.01079215	0.00309184	0.01335166	0.00239097	0.00376157	0.00170263	0.00299987	0.00228505	0.00398925	0.00321594	0.00456720	0.00227979	0.00312295	0.00538497	0.00532328	0.00162195	0.00406941	0.00495132	0.00054811	0.00204763	0.00037497	0.00052567
0.03000000	0.00511360	0.00116687	0.00221825	0.01103478	0.00259010	0.01262487	0.00248284	0.00362302	0.00169542	0.00339376	0.00269595	0.00434526	0.00303849	0.00423257	0.00221585	0.00275171	0.00423381	0.00479878	0.00136084	0.00416432	0.00492646	0.00020148	0.00197903	0.00010954	0.00012404
0.04000000	0.00530912	0.00162862	0.00240877	0.01164743	0.00199413	0.01194033	0.00254544	0.00377956	0.00178054	0.00405430	0.00396976	0.00435388	0.00285983	0.00385982	0.00268384	0.00261267	0.00257819	0.00455952	0.00148720	0.00408858	0.00480434	0.00116657	0.00298537	0.00094495	0.00175227
0.05000000	0.00534118	0.00193188	0.00198770	0.01094464	0.00168567	0.01121209	0.00231163	0.00327463	0.00171033	0.00421939	0.00369684	0.00467541	0.00256206	0.00303291	0.00163913	0.00217476	0.00242121	0.00388869	0.00109288	0.00396247	0.00489982	0.00133776	0.00170577	0.00095367	0.00080778
0.06000000	0.00511320	0.00238598	0.00234919	0.01034580	0.00134369	0.01060246	0.00206331	0.00300954	0.00163892	0.00455555	0.00416422	0.00478590	0.00219911	0.00228792	0.00128925	0.00210215	0.00213897	0.00358618	0.00122065	0.00374083	0.00478181	0.00188872	0.00155115	0.00130945	0.00141385
0.07000000	0.00481131	0.00281534	0.00284964	0.00928979	0.00118303	0.00986056	0.00170705	0.00263917	0.00153322	0.00486157	0.00454706	0.00479851	0.00184418	0.00153265	0.00094197	0.00221382	0.00218629	0.00343852	0.00156018	0.00346285	0.00450437	0.00234971	0.00159994	0.00164031	0.00211938
0.08000000	0.00430880	0.00303085	0.00350503	0.00793263	0.00129995	0.00869907	0.00130697	0.00208790	0.00126141	0.00520971	0.00480473	0.00471905	0.00149447	0.00093330	0.00075286	0.00241749	0.00243077	0.00336762	0.00198841	0.00315811	0.00415387	0.00269438	0.00183108	0.00189211	0.00291492
0.09000000	0.00389222	0.00313430	0.00400084	0.00596238	0.00145177	0.00710173	0.00094964	0.00175730	0.00107180	0.00543125	0.00504472	0.00460901	0.00127483	0.00058494	0.00068204	0.00288940	0.00263693	0.00331521	0.00246211	0.00281551	0.00384700	0.00298434	0.00234575	0.00214415	0.00361492
0.10000000	0.00328233	0.00300326	0.00475014	0.00387896	0.00150871	0.00503062	0.00084883	0.00181236	0.00070550	0.00578018	0.00539963	0.00459723	0.00100691	0.00094023	0.00056407	0.00336134	0.00281378	0.00329919	0.00287851	0.00251140	0.00369852	0.00308891	0.00293634	0.00219021	0.00422569
0.11000000	0.00283606	0.00306374	0.00555122	0.00255032	0.00163263	0.00325601	0.00094230	0.00210547	0.00076189	0.00615224	0.00521649	0.00427563	0.00092670	0.00087199	0.00072442	0.00373633	0.00304181	0.00316323	0.00344448	0.00227769	0.00413154	0.00339925	0.00367231	0.00249938	0.00475188
0.12000000	0.00296769	0.00264846	0.00636484	0.00454521	0.00189249	0.00291923	0.00120821	0.00278598	0.00095673	0.00656380	0.00503402	0.00413485	0.00090318	0.00096749	0.00091203	0.00421500	0.00311867	0.00309772	0.00392057	0.00213945	0.00476186	0.00353180	0.00430786	0.00259284	0.00509596
0.13000000	0.00351719	0.00204748	0.00710656	0.00752189	0.00205207	0.00490393	0.00142684	0.00349334	0.00128079	0.00694477	0.00500743	0.00403870	0.00108238	0.00100054	0.00101488	0.00456027	0.00320757	0.00300211	0.00427131	0.00205263	0.00554118	0.00365191	0.00494559	0.00271347	0.00541318
0.14000000	0.00439017	0.00136709	0.00781349	0.01017249	0.00216484	0.00726312	0.00165995	0.00402759	0.00158011	0.00733610	0.00518043	0.00397331	0.00132378	0.00101884	0.00118179	0.00498244	0.00322985	0.00293867	0.00463385	0.00208527	0.00641967	0.00384033	0.00542883	0.00288325	0.00557942
0.15000000	0.00584485	0.00109851	0.00882587	0.01236759	0.00182948	0.00865658	0.00192798	0.00398630	0.00213905	0.00789084	0.00525630	0.00380649	0.00159667	0.00110267	0.00138526	0.00545914	0.00314154	0.00304847	0.00500855	0.00223870	0.00723939	0.00426264	0.00512936	0.00312544	0.00601214
0.16000000	0.00570954	0.00229455	0.00886279	0.01271646	0.00194436	0.01011912	0.00206353	0.00427026	0.00221783	0.00767132	0.00687749	0.00444053	0.00236200	0.00158779	0.00100075	0.00577266	0.00323471	0.00300997	0.00516117	0.00234696	0.00785750	0.00426457	0.00561514	0.00305517	0.00589012
0.17000000	0.00671003	0.00363446	0.00937331	0.01234665	0.00194545	0.00971260	0.00207827	0.00373666	0.00227766	0.00792978	0.00711003	0.00408439	0.00285205	0.00158299	0.00139581	0.00608043	0.00306061	0.00297942	0.00544361	0.00232439	0.00854401	0.00458242	0.00554576	0.00337041	0.00587963
0.18000000	0.00684458	0.00517898	0.00942247	0.01087291	0.00195938	0.00835305	0.00210586	0.00310704	0.00212364	0.00780796	0.00780003	0.00406479	0.00362349	0.00207936	0.00142796	0.00624946	0.00297390	0.00299110	0.00553269	0.00228337	0.00890153	0.00478485	0.00542930	0.00351585	0.00587252
0.19000000	0.00727772	0.00645754	0.00947416	0.00838082	0.00177003	0.00615550	0.00210701	0.00233452	0.00197328	0.00773906	0.00773563	0.00336863	0.00426600	0.00212720	0.00191981	0.00642212	0.00282470	0.00301038	0.00560369	0.00224509	0.00912733	0.00499808	0.00521743	0.00375202	0.00580698
0.20000000	0.00747714	0.00733693	0.00922750	0.00537112	0.00162257	0.00369773	0.00205646	0.00186124	0.00185861	0.00729484	0.00725170	0.00244569	0.00496677	0.00236732	0.00210234	0.00661074	0.00284286	0.00296405	0.00550768	0.00232565	0.00909896	0.00523865	0.00508199	0.00404921	0.00582667
0.21000000	0.00718081	0.00815646	0.00905307	0.00268115	0.00094123	0.00199578	0.00216670	0.00116013	0.00137543	0.00688558	0.00661924	0.00187085	0.00557228	0.00257123	0.00281125	0.00638817	0.00266757	0.00295424	0.00534002	0.00205535	0.00878693	0.00509163	0.00489296	0.00395724	0.00566354
0.22000000	0.00671649	0.00832770	0.00884762	0.00125919	0.00064996	0.00175513	0.00202577	0.00096368	0.00121770	0.00602476	0.00548539	0.00135397	0.00616257	0.00281530	0.00314068	0.00616515	0.00270822	0.00288586	0.00494904	0.00196667	0.00809655	0.00488758	0.00480690	0.00385776	0.00559096
0.23000000	0.00502975	0.00827136	0.00864272	0.00137132	0.00072048	0.00226477	0.00151030	0.00094934	0.00067619	0.00480653	0.00423882	0.00128365	0.00666564	0.00301760	0.00332024	0.00584191	0.00272508	0.00280711	0.00453035	0.00188655	0.00721568	0.00458287	0.00462897	0.00362474	0.00549774
0.24000000	0.00422657	0.00708772	0.00836709	0.00143723	0.00048997	0.00224258	0.00127362	0.00106535	0.00133900	0.00330270	0.00257245	0.00137284	0.00696903	0.00324326	0.00318727	0.00553604	0.00307423	0.00272640	0.00387577	0.00206802	0.00617049	0.00415223	0.00478516	0.00336107	0.00552700
0.25000000	0.00337026	0.00633043	0.00800839	0.00093978	0.00107099	0.00258141	0.00091252	0.00099711	0.00126483	0.00213375	0.00151829	0.00186414	0.00680018	0.00311829	0.00338851	0.00497545	0.00329616	0.00277838	0.00331670	0.00215896	0.00518262	0.00343283	0.00481598	0.00288791	0.00546871
0.26000000	0.00298303	0.00566388	0.00763591	0.00043593	0.00131620	0.00298518	0.00091432	0.00102862	0.00152990	0.00202499	0.00176840	0.00198010	0.00652022	0.00302138	0.00316613	0.00454458	0.00353934	0.00279428	0.00281187	0.00232631	0.00438888	0.00288057	0.00488509	0.00251776	0.00542153
0.27000000	0.00262203	0.00563514	0.00778848	0.00061766	0.00139087	0.00331238	0.00123480	0.00097417	0.00141535	0.00302254	0.00217911	0.00186926	0.00598080	0.00293834	0.00277331	0.00417138	0.00360571	0.00272827	0.00244441	0.00236658	0.00379496	0.00245550	0.00486462	0.00216667	0.00521795
0.28000000	0.00304483	0.00559677	0.00746704	0.00113217	0.00163912	0.00320588	0.00167088	0.00120536	0.00159427	0.00370840	0.00275644	0.00227003	0.00540661	0.00333285	0.00200660	0.00383764	0.00383332	0.00275091	0.00208931	0.00251672	0.00331635	0.00189882	0.00483430	0.00182420	0.00518505
0.29000000	0.00306692	0.00627192	0.00761297	0.00111521	0.00144088	0.00296974	0.00199062	0.00119319	0.00135680	0.00420586	0.00262069	0.00252213	0.00456468	0.00321479	0.00148802	0.00359680	0.00374561	0.00271022	0.00182936	0.00252694	0.00285382	0.00166072	0.00459941	0.00158080	0.00485617
0.30000000	0.00344652	0.00664273	0.00724852	0.00127016	0.00158817	0.00223825	0.00214024	0.00129732	0.00130990	0.00478780	0.00285726	0.00305926	0.00375127	0.00301936	0.00105771	0.00338110	0.00365680	0.00274971	0.00164650	0.00254631	0.00244824	0.00134852	0.00434011	0.00132306	0.00450933
0.31000000	0.00357870	0.00687552	0.00674391	0.00122042	0.00161290	0.00163893	0.00218127	0.00131130	0.00113882	0.00535997	0.00295670	0.00342964	0.00282876	0.00264249	0.00123509	0.00320882	0.00351510	0.00276141	0.00147444	0.00258065	0.00215542	0.00124790	0.00401251	0.00119597	0.00410740
0.32000000	0.00405993	0.00661564	0.00592113	0.00118175	0.00175510	0.00116013	0.00220363	0.00139363	0.00111555	0.00583210	0.00328625	0.00387103	0.00209434	0.00242914	0.00218303	0.00313734	0.00333506	0.00283943	0.00151156	0.00255109	0.00200337	0.00097417	0.00369328	0.00097977	0.00367906
0.33000000	0.00400866	0.00638907	0.00530022	0.00123441	0.00192632	0.00158268	0.00187692	0.00090043	0.00097095	0.00597506	0.00286448	0.00360435	0.00143707	0.00165440	0.00190856	0.00313354	0.00313639	0.00278924	0.00154962	0.00249024	0.00218970	0.00107532	0.00331607	0.00097626	0.00320625
0.34000000	0.00417718	0.00573494	0.00441610	0.00138534	0.00212398	0.00163976	0.00183421	0.00097312	0.00097382	0.00603245	0.00305076	0.00379632	0.00144435	0.00144124	0.00241809	0.00316588	0.00305668	0.00280872	0.00165569	0.00247452	0.00244700	0.00106465	0.00305307	0.00093504	0.00284222
0.35000000	0.00423848	0.00506193	0.00387131	0.00152642	0.00243941	0.00162160	0.00177972	0.00102631	0.00102102	0.00599628	0.00328300	0.00410998	0.00163568	0.00166459	0.00286466	0.00323235	0.00298408	0.00279103	0.00174869	0.00246615	0.00281547	0.00106002	0.00288175	0.00092094	0.00244241
0.36000000	0.00409219	0.00447423	0.00355287	0.00163427	0.00261077	0.00180495	0.00169124	0.00096686	0.00107421	0.00602720	0.00351619	0.00481250	0.00174101	0.00208512	0.00289938	0.00336349	0.00295171	0.00267026	0.00184773	0.00241025	0.00327763	0.00125432	0.00268934	0.00100480	0.00222940
0.37000000	0.00399950	0.00404269	0.00352643	0.00170444	0.00269995	0.00204492	0.00157888	0.00080698	0.00102148	0.00604263	0.00373540	0.00608424	0.00179467	0.00249575	0.00285099	0.00346733	0.00292499	0.00255967	0.00192406	0.00239237	0.00356724	0.00121072	0.00255883	0.00097245	0.00187982
0.38000000	0.00349939	0.00389454	0.00349349	0.00189056	0.00289433	0.00246106	0.00143706	0.00053106	0.00099715	0.00621645	0.00402943	0.00771269	0.00179230	0.00284228	0.00259754	0.00363283	0.00290508	0.00236944	0.00197173	0.00238612	0.00393630	0.00134590	0.00267158	0.00106217	0.00151736
0.39000000	0.00352201	0.00277097	0.00380262	0.00164013	0.00244094	0.00248846	0.00153766	0.00071367	0.00114653	0.00654116	0.00445641	0.00926867	0.00184895	0.00315269	0.00254217	0.00357090	0.00301521	0.00218481	0.00180936	0.00261598	0.00399760	0.00123337	0.00226618	0.00097952	0.00153651
0.40000000	0.00287630	0.00322233	0.00361581	0.00189892	0.00267389	0.00244257	0.00140278	0.00045731	0.00127918	0.00678698	0.00459416	0.01084074	0.00191503	0.00355457	0.00246225	0.00360958	0.00285798	0.00196491	0.00163777	0.00279002	0.00419598	0.00130411	0.00214034	0.00101147	0.00125159
0.41000000	0.00278761	0.00274822	0.00377938	0.00155887	0.00192290	0.00222882	0.00160659	0.00069867	0.00124158	0.00734038	0.00490114	0.01180384	0.00206030	0.00370257	0.00245824	0.00350585	0.00273391	0.00175468	0.00141368	0.00311620	0.00414293	0.00124297	0.00187971	0.00098408	0.00107356
0.42000000	0.00218077	0.00310846	0.00346924	0.00186735	0.00210578	0.00230279	0.00154921	0.00037381	0.00118739	0.00758894	0.00492310	0.01261498	0.00227915	0.00392338	0.00262395	0.00350132	0.00252056	0.00177700	0.00111920	0.00344075	0.00414198	0.00117903	0.00163193	0.00090540	0.00087640
0.43000000	0.00171400	0.00319987	0.00321553	0.00215187	0.00224315	0.00238609	0.00149031	0.00030147	0.00118115	0.00790703	0.00489937	0.01294317	0.00257883	0.00400921	0.00271175	0.00349480	0.00227184	0.00182775	0.00084964	0.00377148	0.00414122	0.00117365	0.00151743	0.00086070	0.00072836
0.44000000	0.00150469	0.00321719	0.00296477	0.00243156	0.00236758	0.00247415	0.00140830	0.00043270	0.00113409	0.00827405	0.00477688	0.01287008	0.00285929	0.00412782	0.00281832	0.00348207	0.00195754	0.00201432	0.00055881	0.00412781	0.00412589	0.00110535	0.00132103	0.00076794	0.00061216
0.45000000	0.00152439	0.00308809	0.00283036	0.00270668	0.00249146	0.00259126	0.00134926	0.00043139	0.00087361	0.00860747	0.00453582	0.01258562	0.00313235	0.00419305	0.00286025	0.00352264	0.00156597	0.00219024	0.00035396	0.00441519	0.00415567	0.00098008	0.00099822	0.00061490	0.00047974
0.46000000	0.00170822	0.00302368	0.00256539	0.00310715	0.00262329	0.00269527	0.00127792	0.00043484	0.00069927	0.00891190	0.00411793	0.01221031	0.00336313	0.00428210	0.00291512	0.00354056	0.00108394	0.00240659	0.00023067	0.00466531	0.00414767	0.00088577	0.00088113	0.00050926	0.00053467
0.47000000	0.00184453	0.00272419	0.00252380	0.00349089	0.00281155	0.00281806	0.00117082	0.00034299	0.00055113	0.00920630	0.00367664	0.01171146	0.00340896	0.00422760	0.00290553	0.00345333	0.00061450	0.00261815	0.00024218	0.00485544	0.00411924	0.00063244	0.00069620	0.00031505	0.00084281
0.48000000	0.00225137	0.00268311	0.00236063	0.00407365	0.00302715	0.00284211	0.00109504	0.00042085	0.00056379	0.00915208	0.00305239	0.01117745	0.00325796	0.00416919	0.00290261	0.00349601	0.00041593	0.00283627	0.00053180	0.00487508	0.00389490	0.00048209	0.00129434	0.00011722	0.00138247
0.49000000	0.00213867	0.00187067	0.00263920	0.00442523	0.00339671	0.00310185	0.00090494	0.00020043	0.00059497	0.00893654	0.00255150	0.01037173	0.00309914	0.00376590	0.00233199	0.00330671	0.00094598	0.00294504	0.00078123	0.00489813	0.00371375	0.00031984	0.00140298	0.00016816	0.00163212
0.50000000	0.00206773	0.00137610	0.00287214	0.00485945	0.00382016	0.00327484	0.00070253	0.00020677	0.00068886	0.00806456	0.00203373	0.00937814	0.00266268	0.00339661	0.00188066	0.00310458	0.00161673	0.00306652	0.00119973	0.00483838	0.00345084	0.00048851	0.00179469	0.00043492	0.00198961
0.51000000	0.00224894	0.00134682	0.00322575	0.00524383	0.00397947	0.00348307	0.00064752	0.00026966	0.00065845	0.00672254	0.00159421	0.00804396	0.00202406	0.00286301	0.00140504	0.00301123	0.00230119	0.00308943	0.00167958	0.00468006	0.00331909	0.00087140	0.00245576	0.00088760	0.00243319
0.52000000	0.00196545	0.00124369	0.00385585	0.00550262	0.00414911	0.00375572	0.00060377	0.00048027	0.00076549	0.00504659	0.00136421	0.00633421	0.00145979	0.00238228	0.00097543	0.00283977	0.00291205	0.00308101	0.00215634	0.00456124	0.00348194	0.00152262	0.00284886	0.00130679	0.00264343
0.53000000	0.00169699	0.00282615	0.00426788	0.00623752	0.00440864	0.00375018	0.00052590	0.00085664	0.00122647	0.00349662	0.00092281	0.00463728	0.00094504	0.00225827	0.00079025	0.00253547	0.00385778	0.00303079	0.00284411	0.00440349	0.00417733	0.00209059	0.00388153	0.00144125	0.00341172
0.54000000	0.00113495	0.00227835	0.00494843	0.00616503	0.00477566	0.00428556	0.00066794	0.00095633	0.00077428	0.00325772	0.00102789	0.00274715	0.00079351	0.00236679	0.00076325	0.00247375	0.00427188	0.00305971	0.00325229	0.00464257	0.00480989	0.00288445	0.00362077	0.00209246	0.00287569
0.55000000	0.00098994	0.00329458	0.00564501	0.00659543	0.00481092	0.00444466	0.00082774	0.00105912	0.00070598	0.00452758	0.00107041	0.00260269	0.00093781	0.00267304	0.00117291	0.00246890	0.00486179	0.00294221	0.00383601	0.00459903	0.00579410	0.00344674	0.00415084	0.00251800	0.00319038
0.56000000	0.00083845	0.00375522	0.00611178	0.00694524	0.00536605	0.00491694	0.00100896	0.00121856	0.00078884	0.00593085	0.00096261	0.00369017	0.00134578	0.00329784	0.00173874	0.00247139	0.00539918	0.00286831	0.00431841	0.00469092	0.00677105	0.00404849	0.00448245	0.00283022	0.00312052
0.57000000	0.00124155	0.00509456	0.00724470	0.00751587	0.00539875	0.00517056	0.00115006	0.00140988	0.00114593	0.00749152	0.00131360	0.00422705	0.00195230	0.00362105	0.00213269	0.00249395	0.00573518	0.00270566	0.00494216	0.00443224	0.00790695	0.00443508	0.00483604	0.00294607	0.00343170
0.58000000	0.00261086	0.00510997	0.00678684	0.00784008	0.00673074	0.00550718	0.00150926	0.00129032	0.00124985	0.00718909	0.00096896	0.00535929	0.00169404	0.00371194	0.00224116	0.00235778	0.00637577	0.00267213	0.00530815	0.00468715	0.00861054	0.00453047	0.00523253	0.00309949	0.00342471
0.59000000	0.00367439	0.00621553	0.00703232	0.00836170	0.00712524	0.00536129	0.00189671	0.00105992	0.00159324	0.00685653	0.00083080	0.00522000	0.00171921	0.00329946	0.00232174	0.00221523	0.00680020	0.00256651	0.00568071	0.00461872	0.00930784	0.00450387	0.00575115	0.00312823	0.00385896
0.60000000	0.00493357	0.00688959	0.00717887	0.00870697	0.00754972	0.00520897	0.00230070	0.00091026	0.00216489	0.00600171	0.00061769	0.00452732	0.00173724	0.00285970	0.00231203	0.00197218	0.00704092	0.00247272	0.00594445	0.00443734	0.00980524	0.00430700	0.00611560	0.00303929	0.00420202
0.61000000	0.00628088	0.00672115	0.00704876	0.00835359	0.00826924	0.00562773	0.00315184	0.00139071	0.00235454	0.00487074	0.00066067	0.00340769	0.00164499	0.00230810	0.00207823	0.00184962	0.00697996	0.00242921	0.00588681	0.00431939	0.00985623	0.00421118	0.00564801	0.00295471	0.00364394
0.62000000	0.00710827	0.00717890	0.00676949	0.00821381	0.00785940	0.00490456	0.00378737	0.00131007	0.00268169	0.00354726	0.00062164	0.00202952	0.00164273	0.00148937	0.00198560	0.00172941	0.00704591	0.00233318	0.00576386	0.00433687	0.00975057	0.00402205	0.00588474	0.00285122	0.00398804
0.63000000	0.00785265	0.00714670	0.00660383	0.00780969	0.00721593	0.00422889	0.00428558	0.00152441	0.00332237	0.00261351	0.00080338	0.00064084	0.00171873	0.00095931	0.00162152	0.00149463	0.00679152	0.00225837	0.00552798	0.00405848	0.00938207	0.00373064	0.00593473	0.00266677	0.00397961
0.64000000	0.00790038	0.00696346	0.00615977	0.00702037	0.00608231	0.00328371	0.00480861	0.00188979	0.00341856	0.00233771	0.00072652	0.00089014	0.00171592	0.00117153	0.00196976	0.00147731	0.00662289	0.00207531	0.00503765	0.00408065	0.00865836	0.00361075	0.00618855	0.00268219	0.00420020
0.65000000	0.00770306	0.00646839	0.00580164	0.00597272	0.00485171	0.00268396	0.00539266	0.00202327	0.00370235	0.00265149	0.00137512	0.00184207	0.00173072	0.00099067	0.00163255	0.00153025	0.00610397	0.00212254	0.00452324	0.00400278	0.00777281	0.00343895	0.00608838	0.00253593	0.00419558
0.66000000	0.00692638	0.00570826	0.00540074	0.00470171	0.00324063	0.00220082	0.00559920	0.00240183	0.00375152	0.00303430	0.00204393	0.00235884	0.00156640	0.00114891	0.00193495	0.00169616	0.00563945	0.00192208	0.00379660	0.00398210	0.00666446	0.00345225	0.00621422	0.00260238	0.00381785
0.67000000	0.00612346	0.00445104	0.00527030	0.00411534	0.00159903	0.00131529	0.00541175	0.00186023	0.00381688	0.00226531	0.00168017	0.00268970	0.00101749	0.00134448	0.00134294	0.00170877	0.00513184	0.00189039	0.00337004	0.00391636	0.00570079	0.00316212	0.00416690	0.00226387	0.00245102
0.68000000	0.00494760	0.00410409	0.00472464	0.00340835	0.00049695	0.00166307	0.00536195	0.00226614	0.00349016	0.00233321	0.00252215	0.00287087	0.00079116	0.00151331	0.00197175	0.00193520	0.00452845	0.00175592	0.00266234	0.00400455	0.00476180	0.00331371	0.00402235	0.00240375	0.00216809
0.69000000	0.00450674	0.00417699	0.00464282	0.00336350	0.00091221	0.00195827	0.00507241	0.00246342	0.00305982	0.00244170	0.00312496	0.00342998	0.00075900	0.00161494	0.00249509	0.00199330	0.00392216	0.00160993	0.00212802	0.00399904	0.00397249	0.00328454	0.00377423	0.00237052	0.00201566
0.70000000	0.00440147	0.00419447	0.00479786	0.00368059	0.00125958	0.00230170	0.00456254	0.00261360	0.00245287	0.00249369	0.00357211	0.00398624	0.00108786	0.00160858	0.00287668	0.00195717	0.00346039	0.00146760	0.00171366	0.00406088	0.00337991	0.00327013	0.00347631	0.00228648	0.00182447
0.71000000	0.00457021	0.00439840	0.00514273	0.00385604	0.00144629	0.00283015	0.00389354	0.00265367	0.00170327	0.00250910	0.00407953	0.00434528	0.00150525	0.00157231	0.00294009	0.00183945	0.00301711	0.00141465	0.00140359	0.00414028	0.00288896	0.00313226	0.00309864	0.00217885	0.00174506
0.72000000	0.00474034	0.00472696	0.00521889	0.00414302	0.00153482	0.00356691	0.00295887	0.00263010	0.00106528	0.00239513	0.00435485	0.00448825	0.00190024	0.00162379	0.00294198	0.00173826	0.00269309	0.00146046	0.00116901	0.00424526	0.00252955	0.00299894	0.00257473	0.00206076	0.00161719
0.73000000	0.00477101	0.00492202	0.00550460	0.00452348	0.00143742	0.00381141	0.00194785	0.00244921	0.00078483	0.00240473	0.00447295	0.00445895	0.00203227	0.00122262	0.00240481	0.00150483	0.00275598	0.00148828	0.00106836	0.00435505	0.00226829	0.00270964	0.00207570	0.00182045	0.00126957
0.74000000	0.00473451	0.00538185	0.00510307	0.00472110	0.00129888	0.00464705	0.00102017	0.00221505	0.00130286	0.00247822	0.00439923	0.00418522	0.00230402	0.00154534	0.00234050	0.00139254	0.00282682	0.00170245	0.00104494	0.00439345	0.00215784	0.00247363	0.00139064	0.00164556	0.00096960
0.75000000	0.00457391	0.00577286	0.00484209	0.00479259	0.00099766	0.00466505	0.00052786	0.00229495	0.00138661	0.00254067	0.00442368	0.00389008	0.00231795	0.00132623	0.00208800	0.00125181	0.00314021	0.00187711	0.00111144	0.00448550	0.00218987	0.00218896	0.00172885	0.00139835	0.00078865
0.76000000	0.00322172	0.00596152	0.00408254	0.00509236	0.00088607	0.00510007	0.00095512	0.00206397	0.00282279	0.00297886	0.00514171	0.00341718	0.00210647	0.00119243	0.00170606	0.00172209	0.00360626	0.00213346	0.00125781	0.00500614	0.00256479	0.00241003	0.00161873	0.00153645	0.00024219
0.77000000	0.00402242	0.00623541	0.00446149	0.00454335	0.00086526	0.00499905	0.00133953	0.00236859	0.00197136	0.00283959	0.00421864	0.00323160	0.00226283	0.00145174	0.00182870	0.00126487	0.00401647	0.00206967	0.00138606	0.00468658	0.00308497	0.00166795	0.00190479	0.00104951	0.00092789
0.78000000	0.00371498	0.00629563	0.00476039	0.00447945	0.00130155	0.00528884	0.00156296	0.00235570	0.00209311	0.00295632	0.00400532	0.00307899	0.00221267	0.00141772	0.00183329	0.00139639	0.00437755	0.00206043	0.00151176	0.00481592	0.00367852	0.00144215	0.00207022	0.00089104	0.00125143
0.79000000	0.00309729	0.00636892	0.00540398	0.00470224	0.00187249	0.00581892	0.00156807	0.00251297	0.00209676	0.00287666	0.00370194	0.00302933	0.00208943	0.00132784	0.00176629	0.00162226	0.00458146	0.00201561	0.00164208	0.00493083	0.00415735	0.00137226	0.00239075	0.00078606	0.00185582
0.80000000	0.00301165	0.00597031	0.00594704	0.00505990	0.00241241	0.00699831	0.00154711	0.00259196	0.00199630	0.00284459	0.00347966	0.00298497	0.00200879	0.00127179	0.00148987	0.00175923	0.00474039	0.00182816	0.00174384	0.00503304	0.00463067	0.00119939	0.00274186	0.00061321	0.00238480
0.81000000	0.00269760	0.00550683	0.00654290	0.00573640	0.00286760	0.00838895	0.00154666	0.00264985	0.00178652	0.00277334	0.00313759	0.00316315	0.00179080	0.00104705	0.00142695	0.00188067	0.00476376	0.00155161	0.00177154	0.00506560	0.00497825	0.00102958	0.00301537	0.00059136	0.00275044
0.82000000	0.00229482	0.00479270	0.00694218	0.00648029	0.00311245	0.00989063	0.00156568	0.00280193	0.00160339	0.00278521	0.00293003	0.00346943	0.00158174	0.00074822	0.00132545	0.00203937	0.00459414	0.00128121	0.00173545	0.00531352	0.00505658	0.00093215	0.00331964	0.00039474	0.00293316
0.83000000	0.00200607	0.00403982	0.00718745	0.00732252	0.00327433	0.01124239	0.00170416	0.00293920	0.00159058	0.00283413	0.00272235	0.00385204	0.00136210	0.00059430	0.00116762	0.00209866	0.00427629	0.00097086	0.00163608	0.00547853	0.00499000	0.00072996	0.00352334	0.00025079	0.00299229
0.84000000	0.00185702	0.00323774	0.00712938	0.00829888	0.00336485	0.01224921	0.00191810	0.00304884	0.00150960	0.00302749	0.00269624	0.00419270	0.00117417	0.00057172	0.00104590	0.00206650	0.00384113	0.00075559	0.00154711	0.00562932	0.00487247	0.00047105	0.00360716	0.00007619	0.00294521
0.85000000	0.00278441	0.00210403	0.00615447	0.00898810	0.00325961	0.01329605	0.00226421	0.00337032	0.00167008	0.00350058	0.00291189	0.00441819	0.00109859	0.00073022	0.00085097	0.00177896	0.00351464	0.00078740	0.00139714	0.00580608	0.00463720	0.00022134	0.00409447	0.00037665	0.00289780
0.86000000	0.00472821	0.00246194	0.00487410	0.00988069	0.00323060	0.01390953	0.00248232	0.00363694	0.00180137	0.00397016	0.00435793	0.00468170	0.00052548	0.00189039	0.00088446	0.00150838	0.00291890	0.00104721	0.00129435	0.00586753	0.00446434	0.00081581	0.00516020	0.00098449	0.00277599
0.87000000	0.00271367	0.00207544	0.00518569	0.01037170	0.00293148	0.01365810	0.00256477	0.00348802	0.00180209	0.00403830	0.00317647	0.00509313	0.00098328	0.00118069	0.00110306	0.00125249	0.00255614	0.00138906	0.00113999	0.00600633	0.00424623	0.00116140	0.00418065	0.00103047	0.00243143
0.88000000	0.00236742	0.00255784	0.00505818	0.01116201	0.00257269	0.01304442	0.00286146	0.00337352	0.00166991	0.00427253	0.00365107	0.00520774	0.00077365	0.00106703	0.00036585	0.00130400	0.00207830	0.00140267	0.00088439	0.00589824	0.00448774	0.00105977	0.00332918	0.00114825	0.00177479
0.89000000	0.00274682	0.00304694	0.00428628	0.01153800	0.00214970	0.01267213	0.00287826	0.00335009	0.00177407	0.00458374	0.00396645	0.00531376	0.00066926	0.00112303	0.00035878	0.00108163	0.00194969	0.00160454	0.00066162	0.00588009	0.00449671	0.00151714	0.00302690	0.00137733	0.00126146
0.90000000	0.00324195	0.00336916	0.00340027	0.01157754	0.00171532	0.01229352	0.00274796	0.00332432	0.00196789	0.00500542	0.00441075	0.00523627	0.00065390	0.00117641	0.00040889	0.00091335	0.00202425	0.00182111	0.00040980	0.00576941	0.00435903	0.00200715	0.00276320	0.00176021	0.00078342
0.91000000	0.00342304	0.00365007	0.00285995	0.01136422	0.00119515	0.01156816	0.00257213	0.00303590	0.00186355	0.00524979	0.00478557	0.00529426	0.00062250	0.00124601	0.00044083	0.00114847	0.00213996	0.00186330	0.00017814	0.00557560	0.00426224	0.00229573	0.00234047	0.00196613	0.00014683
0.92000000	0.00354051	0.00391960	0.00233806	0.01054140	0.00084248	0.01080267	0.00218675	0.00270656	0.00182200	0.00561167	0.00511782	0.00524042	0.00062547	0.00138600	0.00058594	0.00143831	0.00231059	0.00189496	0.00029587	0.00533667	0.00386408	0.00263278	0.00193436	0.00220706	0.00052013
0.93000000	0.00344717	0.00402578	0.00217649	0.00925983	0.00076374	0.00966926	0.00170010	0.00219952	0.00168930	0.00596469	0.00536582	0.00520028	0.00071822	0.00154828	0.00072678	0.00188774	0.00247443	0.00187594	0.00071239	0.00502806	0.00325090	0.00291880	0.00155642	0.00243850	0.00115488
0.94000000	0.00304406	0.00408039	0.00233761	0.00745943	0.00087504	0.00821093	0.00117021	0.00160653	0.00148144	0.00635390	0.00543257	0.00517939	0.00076386	0.00170486	0.00085165	0.00233619	0.00261319	0.00182562	0.00117463	0.00468530	0.00249865	0.00314819	0.00137027	0.00256309	0.00177993
0.95000000	0.00244517	0.00389790	0.00268604	0.00541443	0.00106543	0.00631477	0.00078893	0.00114060	0.00122548	0.00670149	0.00550576	0.00506387	0.00086644	0.00189447	0.00083278	0.00288942	0.00279590	0.00180053	0.00171495	0.00429808	0.00182238	0.00330988	0.00155426	0.00265952	0.00238074
0.96000000	0.00290265	0.00352476	0.00306561	0.00357242	0.00111005	0.00467118	0.00069049	0.00124634	0.00127084	0.00733646	0.00532054	0.00492370	0.00091978	0.00194337	0.00094942	0.00343013	0.00284630	0.00190583	0.00232687	0.00396181	0.00171359	0.00363031	0.00190514	0.00294705	0.00290601
0.97000000	0.00336252	0.00310719	0.00344805	0.00343545	0.00133153	0.00342361	0.00094455	0.00190793	0.00092853	0.00756137	0.00503466	0.00486663	0.00113894	0.00194262	0.00083454	0.00387886	0.00311129	0.00189050	0.00281669	0.00360684	0.00255938	0.00373180	0.00257263	0.00296570	0.00353637
0.98000000	0.00393401	0.00225151	0.00380018	0.00508849	0.00143885	0.00364733	0.00129398	0.00275630	0.00105418	0.00778266	0.00495299	0.00483173	0.00142358	0.00195864	0.00088125	0.00434256	0.00341163	0.00204926	0.00328166	0.00323107	0.00348450	0.00376323	0.00327602	0.00293702	0.00396816
0.99000000	0.00451880	0.00101250	0.00401178	0.00673103	0.00115722	0.00484790	0.00179251	0.00356314	0.00139147	0.00790870	0.00541728	0.00502919	0.00193262	0.00208707	0.00085156	0.00475089	0.00372220	0.00228871	0.00370780	0.00291296	0.00439506	0.00377701	0.00371460	0.00283690	0.00443176
1.00000000	0.00566965	0.00056183	0.00413825	0.00768959	0.00110848	0.00570794	0.00198344	0.00373411	0.00149805	0.00814926	0.00573022	0.00490438	0.00232352	0.00213258	0.00100999	0.00507723	0.00386913	0.00243965	0.00413277	0.00265190	0.00538098	0.00398875	0.00412194	0.00296523	0.00465790
1.01000000	0.00689876	0.00165807	0.00424847	0.00775686	0.00089239	0.00576019	0.00201936	0.00352068	0.00140929	0.00831071	0.00579088	0.00461029	0.00277235	0.00209583	0.00134487	0.00529947	0.00394319	0.00253290	0.00446938	0.00256843	0.00619129	0.00420190	0.00437738	0.00316516	0.00488823
1.02000000	0.00712146	0.00333605	0.00427169	0.00699134	0.00117483	0.00509610	0.00186754	0.00317857	0.00125397	0.00816958	0.00661123	0.00459239	0.00349581	0.00236963	0.00154847	0.00532366	0.00392349	0.00258026	0.00465665	0.00274457	0.00664196	0.00431999	0.00440593	0.00318391	0.00497699
1.03000000	0.00782722	0.00446564	0.00418501	0.00537901	0.00130815	0.00382880	0.00175843	0.00254260	0.00115334	0.00808800	0.00644263	0.00387190	0.00408220	0.00236352	0.00181444	0.00532449	0.00380636	0.00253650	0.00479714	0.00337454	0.00705256	0.00454763	0.00434300	0.00339483	0.00511082
1.04000000	0.00805574	0.00562366	0.00424759	0.00362047	0.00133258	0.00220099	0.00183110	0.00185584	0.00115315	0.00789098	0.00629852	0.00311001	0.00471019	0.00238433	0.00236478	0.00509812	0.00359059	0.00237761	0.00477222	0.00411817	0.00712764	0.00461537	0.00432726	0.00345568	0.00502812
1.05000000	0.00750688	0.00668720	0.00411253	0.00242255	0.00175140	0.00122644	0.00179108	0.00112846	0.00079203	0.00724348	0.00609925	0.00277469	0.00548352	0.00285113	0.00286325	0.00469725	0.00332224	0.00216315	0.00456643	0.00483671	0.00684905	0.00445784	0.00422704	0.00340975	0.00501295
1.06000000	0.00729301	0.00690032	0.00401153	0.00219704	0.00179642	0.00196440	0.00180017	0.00062741	0.00090346	0.00655598	0.00509779	0.00195570	0.00611497	0.00294364	0.00325925	0.00436407	0.00314279	0.00193269	0.00429545	0.00553905	0.00645931	0.00438488	0.00407949	0.00335030	0.00498817
1.07000000	0.00672883	0.00672693	0.00395329	0.00268991	0.00153741	0.00288283	0.00181427	0.00047005	0.00093443	0.00564286	0.00385323	0.00149560	0.00660563	0.00298625	0.00366279	0.00389783	0.00302608	0.00158734	0.00383090	0.00595413	0.00583337	0.00412691	0.00399079	0.00325143	0.00501145
1.08000000	0.00599934	0.00597303	0.00393600	0.00277450	0.00121356	0.00300441	0.00155847	0.00094876	0.00153069	0.00464189	0.00236635	0.00121998	0.00688869	0.00314922	0.00368773	0.00343756	0.00304421	0.00123002	0.00329899	0.00622718	0.00519536	0.00379674	0.00399851	0.00306712	0.00501385
1.09000000	0.00474605	0.00547434	0.00393721	0.00222103	0.00119256	0.00281422	0.00136164	0.00079600	0.00106181	0.00367753	0.00123222	0.00166249	0.00696341	0.00281339	0.00419542	0.00290071	0.00298899	0.00090114	0.00277601	0.00628717	0.00458110	0.00322982	0.00393196	0.00272122	0.00489147
1.10000000	0.00390637	0.00500671	0.00393305	0.00120754	0.00117020	0.00280101	0.00083325	0.00118064	0.00128371	0.00331592	0.00113673	0.00189884	0.00676136	0.00295585	0.00417451	0.00254092	0.00309021	0.00076293	0.00231751	0.00637571	0.00426361	0.00274093	0.00387360	0.00243280	0.00484439
1.11000000	0.00354745	0.00512034	0.00452435	0.00079216	0.00125607	0.00322726	0.00044018	0.00140201	0.00120083	0.00364651	0.00125724	0.00196762	0.00644069	0.00310440	0.00389401	0.00236720	0.00310891	0.00087435	0.00198541	0.00639983	0.00415602	0.00233094	0.00380174	0.00212785	0.00466006
1.12000000	0.00391049	0.00555995	0.00491333	0.00141240	0.00128653	0.00369587	0.00077432	0.00175905	0.00129304	0.00367612	0.00147613	0.00243665	0.00588806	0.00329655	0.00338008	0.00235015	0.00315147	0.00110068	0.00172736	0.00646493	0.00404342	0.00191385	0.00364888	0.00192693	0.00453251
1.13000000	0.00445762	0.00598050	0.00554488	0.00171433	0.00145702	0.00395581	0.00104575	0.00169494	0.00122139	0.00368215	0.00140333	0.00290448	0.00506378	0.00327790	0.00266887	0.00250223	0.00323545	0.00140853	0.00155991	0.00657586	0.00388029	0.00167478	0.00352634	0.00171319	0.00437961
1.14000000	0.00523374	0.00637571	0.00561776	0.00190171	0.00148995	0.00362493	0.00138361	0.00204294	0.00108974	0.00361817	0.00174231	0.00370368	0.00407581	0.00308167	0.00193159	0.00268676	0.00335376	0.00171565	0.00145256	0.00672686	0.00350871	0.00139856	0.00339324	0.00155258	0.00417297
1.15000000	0.00599280	0.00656897	0.00547843	0.00195387	0.00165464	0.00295627	0.00147537	0.00210900	0.00109913	0.00386869	0.00212919	0.00437060	0.00302770	0.00278380	0.00182071	0.00299749	0.00342771	0.00202963	0.00149805	0.00682356	0.00315174	0.00114854	0.00322710	0.00138086	0.00394179
1.16000000	0.00634172	0.00640287	0.00546367	0.00159800	0.00181619	0.00260095	0.00128703	0.00155930	0.00095072	0.00452357	0.00195757	0.00404808	0.00173879	0.00226932	0.00139090	0.00331334	0.00357804	0.00219155	0.00144922	0.00694451	0.00309370	0.00123765	0.00310569	0.00137508	0.00357844
1.17000000	0.00668441	0.00601883	0.00494305	0.00160371	0.00186603	0.00188018	0.00133985	0.00175965	0.00099828	0.00460642	0.00251581	0.00451924	0.00124528	0.00204699	0.00231896	0.00353403	0.00374496	0.00237445	0.00154657	0.00700865	0.00323996	0.00117985	0.00300666	0.00136377	0.00326146
1.18000000	0.00681167	0.00561600	0.00461385	0.00134892	0.00163056	0.00194747	0.00120229	0.00142593	0.00096092	0.00462011	0.00246168	0.00443074	0.00121486	0.00161432	0.00256961	0.00368093	0.00394553	0.00250321	0.00165060	0.00709140	0.00369407	0.00126540	0.00283141	0.00135542	0.00294378
1.19000000	0.00667324	0.00471100	0.00447601	0.00144774	0.00187572	0.00184536	0.00113547	0.00135175	0.00110880	0.00463325	0.00298740	0.00449452	0.00151379	0.00204771	0.00326118	0.00380155	0.00415776	0.00263079	0.00183342	0.00709371	0.00416866	0.00137004	0.00298121	0.00145740	0.00254348
1.20000000	0.00635231	0.00404320	0.00450865	0.00150349	0.00198070	0.00209690	0.00109293	0.00114636	0.00111440	0.00462415	0.00329204	0.00494728	0.00171552	0.00228816	0.00350709	0.00384524	0.00439643	0.00265413	0.00193955	0.00710725	0.00451486	0.00155812	0.00304890	0.00158142	0.00221877
1.21000000	0.00587234	0.00367851	0.00461558	0.00154987	0.00213150	0.00251373	0.00104433	0.00093499	0.00104961	0.00465358	0.00353137	0.00606925	0.00180766	0.00250563	0.00333422	0.00389514	0.00460550	0.00259732	0.00198558	0.00705740	0.00474100	0.00178761	0.00314777	0.00178187	0.00196373
1.22000000	0.00534791	0.00381049	0.00476269	0.00151039	0.00214568	0.00289174	0.00106192	0.00074896	0.00082101	0.00470385	0.00381581	0.00769306	0.00178591	0.00276229	0.00293931	0.00404679	0.00460786	0.00239379	0.00190259	0.00687923	0.00495692	0.00197714	0.00302325	0.00191018	0.00165701
1.23000000	0.00525055	0.00276875	0.00497021	0.00119436	0.00180519	0.00305121	0.00126231	0.00056091	0.00097636	0.00512464	0.00423026	0.00927811	0.00176897	0.00299876	0.00276920	0.00396082	0.00469036	0.00223882	0.00203829	0.00652193	0.00488883	0.00194767	0.00266264	0.00173323	0.00168312
1.24000000	0.00472743	0.00262153	0.00502997	0.00126158	0.00189334	0.00312860	0.00132298	0.00036585	0.00103377	0.00565073	0.00457547	0.01078960	0.00176845	0.00329016	0.00261271	0.00378490	0.00475942	0.00204223	0.00205774	0.00618748	0.00488639	0.00206638	0.00268497	0.00181741	0.00157959
1.25000000	0.00437260	0.00298576	0.00504157	0.00144970	0.00181764	0.00291653	0.00158162	0.00049367	0.00092136	0.00619907	0.00478379	0.01202935	0.00188094	0.00352501	0.00253127	0.00346847	0.00465406	0.00187236	0.00209191	0.00570693	0.00484046	0.00208921	0.00260834	0.00184559	0.00137821
1.26000000	0.00374624	0.00338906	0.00490110	0.00151127	0.00207968	0.00312632	0.00158567	0.00036448	0.00083742	0.00669693	0.00496058	0.01291028	0.00207371	0.00366657	0.00255649	0.00308615	0.00458671	0.00164998	0.00220081	0.00531340	0.00494974	0.00209184	0.00251668	0.00178350	0.00125532
1.27000000	0.00317106	0.00391070	0.00476702	0.00160293	0.00235924	0.00324244	0.00162108	0.00041728	0.00070444	0.00723636	0.00505918	0.01331834	0.00233880	0.00375899	0.00258900	0.00258318	0.00439512	0.00153006	0.00237110	0.00481860	0.00512067	0.00206038	0.00235812	0.00171778	0.00110577
1.28000000	0.00244839	0.00512776	0.00450952	0.00201582	0.00261402	0.00335303	0.00155524	0.00043072	0.00047635	0.00773441	0.00485185	0.01346418	0.00261878	0.00397452	0.00285150	0.00211886	0.00407009	0.00155808	0.00243320	0.00441394	0.00524696	0.00216151	0.00230547	0.00171000	0.00102617
1.29000000	0.00215979	0.00509191	0.00435399	0.00202802	0.00293997	0.00337362	0.00155528	0.00043090	0.00057140	0.00821446	0.00493571	0.01314292	0.00276446	0.00382866	0.00279220	0.00142492	0.00370495	0.00155771	0.00280397	0.00382940	0.00565633	0.00184098	0.00180447	0.00147376	0.00065035
1.30000000	0.00202261	0.00543741	0.00407764	0.00233082	0.00316564	0.00338228	0.00147644	0.00032899	0.00049468	0.00860435	0.00473341	0.01279461	0.00287986	0.00376181	0.00289318	0.00082791	0.00321828	0.00172544	0.00300139	0.00333085	0.00590848	0.00170222	0.00134252	0.00133794	0.00044753
1.31000000	0.00217861	0.00578085	0.00390940	0.00272225	0.00335151	0.00340347	0.00138648	0.00006987	0.00054179	0.00873494	0.00420568	0.01245858	0.00291945	0.00369368	0.00298015	0.00035246	0.00268200	0.00189021	0.00311695	0.00295809	0.00590647	0.00150473	0.00110712	0.00110674	0.00053657
1.32000000	0.00237621	0.00556458	0.00354049	0.00303160	0.00370163	0.00351066	0.00122237	0.00020784	0.00049906	0.00885226	0.00383308	0.01183264	0.00283154	0.00345345	0.00283840	0.00047721	0.00205812	0.00204332	0.00323689	0.00253851	0.00592018	0.00116333	0.00075716	0.00088010	0.00059126
1.33000000	0.00258745	0.00515138	0.00322837	0.00335463	0.00400681	0.00361300	0.00108862	0.00039868	0.00056025	0.00855295	0.00331810	0.01108193	0.00262552	0.00307986	0.00254454	0.00097021	0.00138565	0.00220974	0.00325320	0.00223854	0.00561287	0.00080274	0.00074150	0.00060769	0.00086289
1.34000000	0.00262691	0.00451843	0.00298113	0.00366306	0.00426301	0.00372135	0.00093245	0.00065569	0.00068089	0.00787190	0.00280664	0.01001297	0.00234376	0.00252919	0.00209524	0.00147774	0.00068034	0.00235471	0.00318607	0.00205915	0.00504879	0.00037668	0.00094688	0.00029522	0.00115544
1.35000000	0.00260929	0.00370073	0.00272318	0.00398774	0.00446798	0.00380075	0.00080840	0.00092461	0.00075424	0.00674836	0.00231460	0.00855585	0.00202358	0.00187194	0.00161503	0.00197682	0.00042051	0.00247125	0.00309922	0.00203969	0.00428925	0.00030595	0.00132443	0.00012561	0.00139556
1.36000000	0.00261986	0.00269106	0.00237264	0.00429752	0.00449314	0.00393269	0.00077503	0.00117894	0.00072026	0.00534748	0.00195484	0.00675048	0.00171986	0.00105027	0.00112819	0.00247032	0.00096482	0.00254151	0.00301353	0.00221123	0.00350844	0.00086036	0.00178149	0.00059030	0.00159559
1.37000000	0.00255599	0.00210917	0.00229732	0.00463758	0.00457685	0.00407705	0.00068360	0.00132925	0.00069462	0.00384987	0.00148475	0.00473250	0.00163834	0.00059775	0.00075009	0.00296062	0.00168795	0.00265385	0.00293676	0.00249532	0.00256615	0.00152371	0.00225152	0.00096543	0.00172546
1.38000000	0.00224719	0.00153608	0.00218688	0.00501733	0.00462175	0.00419391	0.00064131	0.00150653	0.00077146	0.00378467	0.00131606	0.00260045	0.00173231	0.00088695	0.00048246	0.00343462	0.00235815	0.00270515	0.00293071	0.00286556	0.00206008	0.00223023	0.00250647	0.00145214	0.00184811
1.39000000	0.00184713	0.00179255	0.00229239	0.00543280	0.00474275	0.00436582	0.00061243	0.00160553	0.00077352	0.00477361	0.00108556	0.00184587	0.00200174	0.00179595	0.00039679	0.00391516	0.00303522	0.00287036	0.00301333	0.00324960	0.00213012	0.00282253	0.00246755	0.00180036	0.00158090
1.40000000	0.00136646	0.00233059	0.00259181	0.00586073	0.00490256	0.00449625	0.00068967	0.00156629	0.00078847	0.00607135	0.00110682	0.00320607	0.00222341	0.00252771	0.00073240	0.00420477	0.00353919	0.00291978	0.00313985	0.00367307	0.00277720	0.00336627	0.00269677	0.00212798	0.00163585
1.41000000	0.00066317	0.00299852	0.00279183	0.00618815	0.00519142	0.00477157	0.00079144	0.00160494	0.00087529	0.00705495	0.00101840	0.00443111	0.00244558	0.00305500	0.00089564	0.00452331	0.00407831	0.00307620	0.00335308	0.00399470	0.00361905	0.00375348	0.00279634	0.00233666	0.00156045
1.42000000	0.00099570	0.00469964	0.00381536	0.00666861	0.00483360	0.00491775	0.00087380	0.00207894	0.00095002	0.00735603	0.00126227	0.00486375	0.00276910	0.00321691	0.00118137	0.00429884	0.00451907	0.00311401	0.00371001	0.00437356	0.00472719	0.00381572	0.00347342	0.00248669	0.00225218
1.43000000	0.00202041	0.00481418	0.00365162	0.00671259	0.00635034	0.00511755	0.00149598	0.00134368	0.00111643	0.00685617	0.00088980	0.00489280	0.00250312	0.00325471	0.00101185	0.00463419	0.00477838	0.00324354	0.00377789	0.00441525	0.00509325	0.00399081	0.00296723	0.00251359	0.00155310
1.44000000	0.00305660	0.00619272	0.00406533	0.00695606	0.00644939	0.00471134	0.00194744	0.00110517	0.00142240	0.00564072	0.00091091	0.00413667	0.00240364	0.00299933	0.00108544	0.00461035	0.00512071	0.00333309	0.00395672	0.00448032	0.00567482	0.00389962	0.00359611	0.00249548	0.00208863
1.45000000	0.00416135	0.00740236	0.00474167	0.00738650	0.00630120	0.00381437	0.00206529	0.00115376	0.00133615	0.00423789	0.00084041	0.00297399	0.00225180	0.00285841	0.00172469	0.00430451	0.00522426	0.00343327	0.00403555	0.00454951	0.00595943	0.00356983	0.00429594	0.00234588	0.00269820
1.46000000	0.00565342	0.00676013	0.00448410	0.00633618	0.00691635	0.00458688	0.00316869	0.00128009	0.00214805	0.00307927	0.00116990	0.00141530	0.00214513	0.00185968	0.00067705	0.00423334	0.00496298	0.00319523	0.00391594	0.00440563	0.00592236	0.00358670	0.00299415	0.00224692	0.00159185
1.47000000	0.00609773	0.00722709	0.00463781	0.00583510	0.00611021	0.00388829	0.00365110	0.00134368	0.00242101	0.00229560	0.00109723	0.00107668	0.00212459	0.00135375	0.00106452	0.00412857	0.00486320	0.00308372	0.00373306	0.00425024	0.00570365	0.00338220	0.00339703	0.00222727	0.00197528
1.48000000	0.00635391	0.00703612	0.00485580	0.00512858	0.00500186	0.00329643	0.00397045	0.00147138	0.00280824	0.00258788	0.00122950	0.00215386	0.00226460	0.00097552	0.00097941	0.00384029	0.00457836	0.00294333	0.00344452	0.00415138	0.00522489	0.00316163	0.00365981	0.00207829	0.00207784
1.49000000	0.00629654	0.00586749	0.00511774	0.00425996	0.00360106	0.00257691	0.00417258	0.00129100	0.00293568	0.00263380	0.00108567	0.00303920	0.00207528	0.00098517	0.00095674	0.00363973	0.00432210	0.00276814	0.00324465	0.00394434	0.00472661	0.00291118	0.00277682	0.00190470	0.00138238
1.50000000	0.00546157	0.00496226	0.00523491	0.00330855	0.00201715	0.00228764	0.00436995	0.00144781	0.00295711	0.00266122	0.00110692	0.00303345	0.00204353	0.00143282	0.00131498	0.00358782	0.00399070	0.00253234	0.00290310	0.00377902	0.00412121	0.00282301	0.00293717	0.00188598	0.00154186
1.51000000	0.00466101	0.00376263	0.00549521	0.00302632	0.00067459	0.00205744	0.00432933	0.00147153	0.00288628	0.00243504	0.00147962	0.00250326	0.00192119	0.00167483	0.00145983	0.00349735	0.00363630	0.00230781	0.00265856	0.00376662	0.00379930	0.00274749	0.00296002	0.00179690	0.00155546
1.52000000	0.00396950	0.00307802	0.00570346	0.00329744	0.00068748	0.00209681	0.00419544	0.00171516	0.00262778	0.00195652	0.00196084	0.00212956	0.00163070	0.00209680	0.00171117	0.00353986	0.00330470	0.00208613	0.00253821	0.00376037	0.00394308	0.00279191	0.00286833	0.00185750	0.00161796
1.53000000	0.00386493	0.00298183	0.00626500	0.00385429	0.00123896	0.00227506	0.00399308	0.00196126	0.00218913	0.00170251	0.00249172	0.00256888	0.00134851	0.00233607	0.00196320	0.00356005	0.00302869	0.00200557	0.00250634	0.00385455	0.00426583	0.00280043	0.00266832	0.00179598	0.00150710
1.54000000	0.00407121	0.00298930	0.00730147	0.00425860	0.00132483	0.00243955	0.00358285	0.00235862	0.00151559	0.00168207	0.00316620	0.00325097	0.00118777	0.00214162	0.00201137	0.00355068	0.00278765	0.00193867	0.00250351	0.00399895	0.00458972	0.00279421	0.00227056	0.00173869	0.00138061
1.55000000	0.00436469	0.00324606	0.00779029	0.00461670	0.00148441	0.00301083	0.00293244	0.00254396	0.00093574	0.00189098	0.00351659	0.00373635	0.00118511	0.00220111	0.00226412	0.00357157	0.00249320	0.00190988	0.00253364	0.00417239	0.00493700	0.00288748	0.00182087	0.00175308	0.00134493
1.56000000	0.00475142	0.00344487	0.00826321	0.00491709	0.00144484	0.00347463	0.00213138	0.00253014	0.00075440	0.00203948	0.00393978	0.00382539	0.00131896	0.00186942	0.00226233	0.00357152	0.00226551	0.00200114	0.00251862	0.00439165	0.00502324	0.00284871	0.00132273	0.00169857	0.00118242
1.57000000	0.00488599	0.00377231	0.00825078	0.00534274	0.00149230	0.00382770	0.00115854	0.00257338	0.00101063	0.00214151	0.00408004	0.00365153	0.00154755	0.00172316	0.00202030	0.00354989	0.00216365	0.00206007	0.00248567	0.00454365	0.00507870	0.00282365	0.00102341	0.00164616	0.00103907
1.58000000	0.00504201	0.00416393	0.00756850	0.00571450	0.00159441	0.00455416	0.00038566	0.00234244	0.00185751	0.00235802	0.00398175	0.00349941	0.00169646	0.00187131	0.00202799	0.00358911	0.00206105	0.00219282	0.00248725	0.00473026	0.00497501	0.00278518	0.00061866	0.00160620	0.00093525
1.59000000	0.00486611	0.00428061	0.00718908	0.00573907	0.00117410	0.00476710	0.00065684	0.00252845	0.00190644	0.00248657	0.00382646	0.00323159	0.00178863	0.00162016	0.00191758	0.00361485	0.00229749	0.00226875	0.00233239	0.00486250	0.00463642	0.00267183	0.00118762	0.00149938	0.00070648
1.60000000	0.00464223	0.00440377	0.00656148	0.00570364	0.00087207	0.00522218	0.00123210	0.00248674	0.00228547	0.00266430	0.00373313	0.00306365	0.00176374	0.00147468	0.00178670	0.00368686	0.00259415	0.00231184	0.00222216	0.00493572	0.00425184	0.00251308	0.00090875	0.00138378	0.00024397
1.61000000	0.00410631	0.00446669	0.00575007	0.00578005	0.00123405	0.00565372	0.00167906	0.00243925	0.00267716	0.00284401	0.00382881	0.00276974	0.00176438	0.00142756	0.00177185	0.00383701	0.00299558	0.00236847	0.00217052	0.00485068	0.00400025	0.00235738	0.00160701	0.00124873	0.00086295
1.62000000	0.00358019	0.00442320	0.00522707	0.00586496	0.00168826	0.00628446	0.00183015	0.00273715	0.00262927	0.00306367	0.00377682	0.00267296	0.00167990	0.00129961	0.00160731	0.00390804	0.00345233	0.00233667	0.00208617	0.00469256	0.00378948	0.00211841	0.00298777	0.00115399	0.00165250
1.63000000	0.00306291	0.00487295	0.00486833	0.00598979	0.00229516	0.00730199	0.00197462	0.00266623	0.00245288	0.00293501	0.00317671	0.00242905	0.00171720	0.00134113	0.00160813	0.00405491	0.00350342	0.00244971	0.00201817	0.00452507	0.00343505	0.00209565	0.00213527	0.00106260	0.00183729
1.64000000	0.00227321	0.00427380	0.00489430	0.00601739	0.00235985	0.00894494	0.00170827	0.00314401	0.00264345	0.00335878	0.00393666	0.00253985	0.00132563	0.00087217	0.00132758	0.00434288	0.00388005	0.00241106	0.00203156	0.00410395	0.00352200	0.00216233	0.00319599	0.00095265	0.00248539
1.65000000	0.00203257	0.00463641	0.00502044	0.00687834	0.00350165	0.00997784	0.00176256	0.00300003	0.00197070	0.00302057	0.00271385	0.00238707	0.00146589	0.00092297	0.00150018	0.00407711	0.00380167	0.00242417	0.00208195	0.00373902	0.00344647	0.00170009	0.00293339	0.00083437	0.00281710
1.66000000	0.00148590	0.00441761	0.00511364	0.00740688	0.00387657	0.01131546	0.00168442	0.00318586	0.00170190	0.00307578	0.00248405	0.00255154	0.00132323	0.00078203	0.00144422	0.00421142	0.00372127	0.00242578	0.00222280	0.00318400	0.00346306	0.00153999	0.00326471	0.00077333	0.00306519
1.67000000	0.00201899	0.00339213	0.00470550	0.00758034	0.00404596	0.01297632	0.00172112	0.00343778	0.00149092	0.00340118	0.00296880	0.00277814	0.00106419	0.00058478	0.00092016	0.00388870	0.00374802	0.00236672	0.00215090	0.00268271	0.00341984	0.00118196	0.00428677	0.00033451	0.00353491
1.68000000	0.00156374	0.00346503	0.00483030	0.00856621	0.00435832	0.01318932	0.00206945	0.00342123	0.00138115	0.00331066	0.00242643	0.00297121	0.00096216	0.00068983	0.00109309	0.00374468	0.00311648	0.00228193	0.00234090	0.00213484	0.00336322	0.00101054	0.00358074	0.00033742	0.00336739
1.69000000	0.00206231	0.00276352	0.00410541	0.00882052	0.00414085	0.01382829	0.00226585	0.00355572	0.00153841	0.00367340	0.00255197	0.00327888	0.00084939	0.00072119	0.00111101	0.00337105	0.00273769	0.00224613	0.00235879	0.00179265	0.00319745	0.00049080	0.00390159	0.00012441	0.00333065
1.70000000	0.00208459	0.00294795	0.00390833	0.00931792	0.00396048	0.01354681	0.00240686	0.00343215	0.00140800	0.00380265	0.00264185	0.00382310	0.00063414	0.00076496	0.00087867	0.00301539	0.00209030	0.00209613	0.00252428	0.00158453	0.00334577	0.00027008	0.00359284	0.00017533	0.00298800
