Coordinates
version=1
nRows=121
nColumns=42
inDegrees=yes

Units are S.I. units (second, meters, Newtons, ...)
If the header above contains a line with 'inDegrees', this indicates whether rotational values are in degrees (yes) or radians (no).

endheader
time	pelvis_tilt	pelvis_list	pelvis_rotation	pelvis_tx	pelvis_ty	pelvis_tz	hip_flexion_r	hip_adduction_r	hip_rotation_r	knee_angle_r	knee_adduction_r	knee_angle_r_beta	ankle_angle_r	subtalar_angle_r	mtp_angle_r	hip_flexion_l	hip_adduction_l	hip_rotation_l	knee_angle_l	knee_adduction_l	knee_angle_l_beta	ankle_angle_l	subtalar_angle_l	mtp_angle_l	lumbar_extension	lumbar_bending	lumbar_rotation	arm_flex_r	arm_add_r	arm_rot_r	elbow_flex_r	pro_sup_r	wrist_flex_r	wrist_dev_r	arm_flex_l	arm_add_l	arm_rot_l	elbow_flex_l	pro_sup_l	wrist_flex_l	wrist_dev_l
      0.30000000	     15.72893040	      1.04563592	     -0.39927055	     -0.90724478	      0.99331801	     -0.14928322	      5.41469578	     -2.26116757	     -2.82176262	     39.94545518	      3.78203103	      0.69717971	      4.49729475	     -8.95008857	     -9.71020778	    -21.08974769	      3.69504519	     -5.25492465	      3.33141257	      1.71406874	      0.05814412	      8.02834092	     15.00724584	     -9.71020778	    -34.13084879	      0.00817238	      3.87605494	     -5.95854221	    -22.39812466	     -6.87531228	     71.22887589	     90.00000001	      0.00000000	      0.00000000	      3.97293308	    -20.79900022	      5.78174846	     66.27593729	     90.00000001	      0.00000000	      0.00000000
      0.31000000	     15.67722688	      1.31532995	     -0.11100065	     -0.89460281	      0.99137214	     -0.14977428	      6.23524721	     -2.49015413	     -3.43178451	     36.94823519	      3.54408461	      0.64486836	      4.32225638	     -8.78069149	     -9.61986808	    -21.97069909	      3.88479477	     -5.43658524	      3.13846822	      1.73114707	      0.05477660	      8.77410722	     16.00371220	     -9.61986808	    -34.07718394	     -0.06672804	      3.64819158	     -6.35053870	    -22.39184184	     -7.32184152	     71.19731210	     90.00000001	      0.00000000	      0.00000000	      4.76832257	    -21.23765687	      6.24441088	     66.93334736	     90.00000001	      0.00000000	      0.00000000
      0.32000000	     15.67326572	      1.55461771	      0.11181823	     -0.88193306	      0.98930253	     -0.14999969	      6.91281993	     -2.62403404	     -4.31718718	     33.77708530	      3.02739885	      0.58952135	      4.06826999	     -8.01871808	     -9.53029915	    -22.88713652	      4.01660462	     -5.49338221	      2.99583799	      1.82647926	      0.05228724	      9.51325356	     16.60385095	     -9.53029915	    -34.09020896	     -0.16016819	      3.51699161	     -6.73962994	    -22.29602624	     -7.88341249	     71.18557653	     90.00000001	      0.00000000	      0.00000000	      5.62351845	    -21.64330206	      6.72636764	     67.49555227	     90.00000001	      0.00000000	      0.00000000
      0.33000000	     15.66835010	      1.83549668	      0.34907696	     -0.86930176	      0.98701640	     -0.15023115	      7.52178944	     -2.78365789	     -5.59058485	     30.53939146	      2.30088852	      0.53301293	      3.86455728	     -6.71965754	     -9.44447540	    -23.75845287	      4.19650774	     -5.34061728	      2.93773834	      1.88035345	      0.05127321	     10.26204238	     16.97971835	     -9.44447540	    -34.11706792	     -0.28109724	      3.36366524	     -7.08218894	    -22.18534778	     -8.45976911	     71.15330915	     90.00000001	      0.00000000	      0.00000000	      6.52766315	    -22.04771032	      7.30817871	     67.99835948	     90.00000001	      0.00000000	      0.00000000
      0.34000000	     15.61134515	      2.19252683	      0.58152770	     -0.85663863	      0.98447326	     -0.15040389	      8.13947244	     -3.02795189	     -7.09635645	     27.31257906	      1.54232477	      0.47669443	      3.60384339	     -5.08595470	     -9.37827133	    -24.51656899	      4.44646819	     -5.01792994	      2.99970350	      1.92365152	      0.05235470	     11.06969676	     17.18068422	     -9.37827133	    -34.08780192	     -0.48637519	      3.16808706	     -7.37500984	    -22.02353984	     -9.01122466	     71.04263152	     90.00000001	      0.00000000	      0.00000000	      7.45330264	    -22.46500986	      7.94275622	     68.41281550	     90.00000001	      0.00000000	      0.00000000
      0.35000000	     15.55790985	      2.55758138	      0.81249431	     -0.84383401	      0.98176822	     -0.15052580	      8.72584260	     -3.26330679	     -9.05819693	     24.17368259	      0.63681412	      0.42191035	      3.43718661	     -2.63016813	     -9.29609390	    -25.25571258	      4.69978881	     -4.64125349	      3.14686377	      1.96061435	      0.05492313	     11.76419988	     17.18462486	     -9.29609390	    -34.06181680	     -0.69781136	      3.02085146	     -7.75643063	    -21.90202295	     -9.53576744	     70.99723337	     90.00000001	      0.00000000	      0.00000000	      8.39830247	    -22.84479938	      8.61182557	     68.82358828	     90.00000001	      0.00000000	      0.00000000
      0.36000000	     15.44912290	      2.99492851	      1.05879220	     -0.83098956	      0.97888519	     -0.15067370	      9.37046661	     -3.62635280	    -11.23952363	     21.24321778	     -0.14212155	      0.37076409	      3.29071133	      0.34035377	     -9.20252349	    -25.89279887	      5.02042921	     -4.12884812	      3.38075703	      1.97830738	      0.05900534	     12.48027001	     17.04875819	     -9.20252349	    -33.97749573	     -0.96432676	      2.80305925	     -8.07011152	    -21.73480641	    -10.02083042	     70.90902503	     90.00000001	      0.00000000	      0.00000000	      9.32670065	    -23.21915259	      9.29541684	     69.17457807	     90.00000001	      0.00000000	      0.00000000
      0.37000000	     15.31624999	      3.43096812	      1.33708829	     -0.81804385	      0.97592921	     -0.15077703	      9.97183193	     -3.99910521	    -13.30275794	     18.45273988	     -0.68514902	      0.32206107	      2.95678725	      2.93780114	     -9.12311010	    -26.46786649	      5.30906576	     -3.58451813	      3.71578281	      1.99479164	      0.06485264	     13.21214370	     16.89766435	     -9.12311010	    -33.86799748	     -1.22742871	      2.57436307	     -8.35041751	    -21.54204416	    -10.46026692	     70.73049938	     90.00000001	      0.00000000	      0.00000000	     10.24911345	    -23.54455470	      9.98775163	     69.47703131	     90.00000001	      0.00000000	      0.00000000
      0.38000000	     15.15823300	      3.84476450	      1.65585688	     -0.80497594	      0.97297629	     -0.15087077	     10.49126279	     -4.37290415	    -15.10703406	     15.78440948	     -0.95369095	      0.27548992	      2.41378960	      5.08594857	     -9.06737965	    -26.98514579	      5.54370863	     -3.06634749	      4.13842122	      2.00114690	      0.07222908	     13.96609097	     16.80529546	     -9.06737965	    -33.73027659	     -1.44306483	      2.28534355	     -8.55725104	    -21.32908993	    -10.88197622	     70.49655239	     90.00000001	      0.00000000	      0.00000000	     11.11602430	    -23.89613926	     10.68545553	     69.69825060	     90.00000001	      0.00000000	      0.00000000
      0.39000000	     15.04478058	      4.17575256	      2.01891667	     -0.79163611	      0.97007216	     -0.15093222	     10.93018244	     -4.66490872	    -16.95670383	     13.46993424	     -1.14780025	      0.23509470	      1.99133897	      7.36380696	     -9.00246418	    -27.55094495	      5.65297936	     -2.67172147	      4.60533425	      2.01062269	      0.08037825	     14.64882438	     16.80830413	     -9.00246418	    -33.62054942	     -1.54965929	      2.04769225	     -8.84057175	    -21.14269192	    -11.29415059	     70.32197475	     90.00000001	      0.00000000	      0.00000000	     11.94173111	    -24.18820491	     11.35838877	     69.92438317	     90.00000001	      0.00000000	      0.00000000
      0.40000000	     14.71861401	      4.65332993	      2.30377134	     -0.77832933	      0.96693594	     -0.15101732	     11.54456139	     -5.15731217	    -17.86600031	     11.49949096	     -0.97874241	      0.20070398	      1.51601851	      8.41952367	     -8.97633109	    -27.85729856	      6.00492686	     -2.27814091	      5.14007811	      1.89765541	      0.08971129	     15.26157941	     16.87759497	     -8.97633109	    -33.30567954	     -1.83657773	      1.73343067	     -9.01415607	    -20.97095137	    -11.52047585	     70.03936091	     90.00000001	      0.00000000	      0.00000000	     12.61737310	    -24.40125073	     11.78116596	     70.15793264	     90.00000001	      0.00000000	      0.00000000
      0.41000000	     14.57382610	      4.88862926	      2.77693543	     -0.76464138	      0.96420517	     -0.15110793	     11.81361336	     -5.37028511	    -18.93915276	      9.77754585	     -0.85783506	      0.17065037	      1.05576673	      9.47620664	     -8.95192766	    -28.35413368	      5.91284535	     -1.96575381	      5.73481851	      1.96123192	      0.10009147	     15.85972961	     16.99755809	     -8.95192766	    -33.14128428	     -1.78829234	      1.43770879	     -9.20446233	    -20.76395197	    -11.87228834	     69.74145880	     90.00000001	      0.00000000	      0.00000000	     13.27704473	    -24.62741254	     12.36375751	     70.33108348	     90.00000001	      0.00000000	      0.00000000
      0.42000000	     14.34606280	      5.08807230	      3.26309023	     -0.75072711	      0.96145694	     -0.15110046	     12.18854921	     -5.54696120	    -19.79663784	      8.60881503	     -0.76661107	      0.15025217	      0.81058543	     10.25261153	     -8.92498399	    -28.69921026	      5.76227197	     -1.92436934	      6.49587377	      2.00341614	      0.11337439	     16.46404529	     17.28837307	     -8.92498399	    -32.87479282	     -1.71280990	      1.16810600	     -9.41220956	    -20.53173892	    -12.20258479	     69.42619083	     90.00000001	      0.00000000	      0.00000000	     13.83956288	    -24.79917703	     12.85097063	     70.48451039	     90.00000001	      0.00000000	      0.00000000
      0.43000000	     13.96131873	      5.29617129	      3.51690875	     -0.73655183	      0.95851905	     -0.15087868	     12.89238347	     -5.70313768	    -20.05442855	      8.24327029	     -0.73526123	      0.14387221	      0.86754626	     10.28453047	     -8.91542712	    -28.98526360	      5.72567248	     -1.97674995	      7.03831428	      2.06791350	      0.12284176	     16.59491977	     17.36884838	     -8.91542712	    -32.40978352	     -1.75085874	      1.08010865	     -9.70290803	    -20.46768054	    -12.26104406	     69.17483201	     90.00000001	      0.00000000	      0.00000000	     14.15663658	    -24.75003025	     12.90977142	     70.70333975	     90.00000001	      0.00000000	      0.00000000
      0.44000000	     13.76655759	      5.35244954	      4.30882617	     -0.72226677	      0.95623936	     -0.15128598	     13.01481861	     -5.82503411	    -20.56404773	      7.83096228	     -0.60071110	      0.13667608	      0.81813373	     10.57505926	     -8.88382624	    -29.17801351	      5.29191530	     -2.19973304	      8.23303716	      1.95049919	      0.14369361	     17.52841682	     18.43533954	     -8.88382624	    -32.16120999	     -1.35445398	      0.58411054	     -9.72231764	    -20.11286235	    -12.84933010	     68.64514056	     90.00000001	      0.00000000	      0.00000000	     14.52287970	    -25.03017207	     13.54454595	     70.80994361	     90.00000001	      0.00000000	      0.00000000
      0.45000000	     13.30373566	      5.44771910	      4.69769323	     -0.70760286	      0.95363483	     -0.15114736	     13.60587008	     -5.86920968	    -20.25116978	      8.06333758	     -0.66922680	      0.14073179	      0.78167455	     10.56730341	     -8.87728243	    -29.34509420	      5.08013775	     -2.18911371	      8.86458009	      1.90785587	      0.15471611	     17.47502001	     18.52314270	     -8.87728243	    -31.56908575	     -1.20385196	      0.45997314	    -10.02858527	    -19.99293269	    -12.83699472	     68.45432071	     90.00000001	      0.00000000	      0.00000000	     14.62774359	    -24.92457204	     13.53573964	     70.94990201	     90.00000001	      0.00000000	      0.00000000
      0.46000000	     13.21844137	      5.25300873	      5.14394373	     -0.69250076	      0.95154504	     -0.15094665	     13.87818925	     -5.64695198	    -20.26468116	      9.12087466	     -0.73071365	      0.15918929	      1.07158521	      9.56263603	     -8.79060285	    -29.35802964	      4.44048251	     -4.65539483	     10.69043766	      1.47127073	      0.18658334	     18.66323461	     23.04585023	     -8.79060285	    -31.31090582	     -0.70331228	      0.41334241	    -10.19810435	    -19.82323596	    -13.23166798	     68.06912189	     90.00000001	      0.00000000	      0.00000000	     14.60440986	    -24.90865692	     13.63961887	     71.20714154	     90.00000001	      0.00000000	      0.00000000
      0.47000000	     12.92461888	      5.09475393	      5.56515778	     -0.67733075	      0.94956130	     -0.15072796	     14.31191922	     -5.44265989	    -19.78399267	     10.33610066	     -0.85191732	      0.18039899	      0.95113802	      8.55673651	     -8.70832167	    -29.41892926	      3.87159198	     -5.46723086	     11.90602440	      1.27665355	      0.20779933	     18.76286172	     24.32370841	     -8.70832167	    -30.83917124	     -0.26308471	      0.32715532	    -10.28726882	    -19.70201041	    -13.38516151	     67.57807591	     90.00000001	      0.00000000	      0.00000000	     14.39112951	    -24.79948319	     13.46596529	     71.41729599	     90.00000001	      0.00000000	      0.00000000
      0.48000000	     12.61104666	      4.96322899	      5.97331478	     -0.66199334	      0.94783507	     -0.15048396	     14.82962430	     -5.31781393	    -19.45476574	     12.02173108	     -1.01208105	      0.20981879	      0.74940210	      7.80788719	     -8.69046401	    -29.48928229	      3.29829767	     -5.59664487	     13.05430158	      1.28109484	      0.22784054	     18.44534580	     24.44151820	     -8.69046401	    -30.34443682	      0.14607594	      0.26124717	    -10.39085472	    -19.53405905	    -13.59793682	     67.09442978	     90.00000001	      0.00000000	      0.00000000	     14.09066534	    -24.66516190	     13.28544121	     71.57887921	     90.00000001	      0.00000000	      0.00000000
      0.49000000	     12.39727007	      4.72177018	      6.30423276	     -0.64639275	      0.94643697	     -0.15023268	     15.18565674	     -5.07363934	    -18.71716358	     13.85575507	     -1.01873035	      0.24182855	      0.24869291	      6.02579599	     -8.60628578	    -29.49657602	      2.68821704	     -6.53371880	     14.46006375	      0.88779969	      0.25237572	     18.14721657	     26.16829723	     -8.60628578	    -29.92223722	      0.68050189	      0.26576259	    -10.46219829	    -19.48685153	    -13.70707058	     66.69472220	     90.00000001	      0.00000000	      0.00000000	     13.56992706	    -24.47233317	     12.87350102	     71.83149355	     90.00000001	      0.00000000	      0.00000000
      0.50000000	     12.22358058	      4.48353543	      6.63491596	     -0.63065648	      0.94544410	     -0.14992782	     15.55302472	     -4.85537163	    -18.42998534	     15.95386462	     -1.18962951	      0.27844747	     -0.24886623	      5.24524583	     -8.58951595	    -29.53782065	      2.01504637	     -6.59322150	     15.86794620	      0.84069800	      0.27694791	     17.28450689	     26.11066492	     -8.58951595	    -29.54356572	      1.21373433	      0.32045629	    -10.52716071	    -19.37939703	    -13.92518926	     66.25678420	     90.00000001	      0.00000000	      0.00000000	     13.02407917	    -24.24881207	     12.54067795	     71.97529590	     90.00000001	      0.00000000	      0.00000000
      0.51000000	     12.13468435	      4.21194444	      6.92480500	     -0.61490059	      0.94487151	     -0.14953593	     15.74986941	     -4.59162306	    -17.89709408	     17.99297166	     -1.24905461	      0.31403660	     -0.76849427	      4.63234397	     -8.57716741	    -29.55015956	      1.33912293	     -6.46288368	     17.41117895	      0.74725902	      0.30388240	     16.20892717	     26.08927180	     -8.57716741	    -29.27289754	      1.76737270	      0.43096352	    -10.56320272	    -19.33353923	    -14.07851022	     65.86178756	     90.00000001	      0.00000000	      0.00000000	     12.45073362	    -24.00700765	     12.18040375	     72.09230844	     90.00000001	      0.00000000	      0.00000000
      0.52000000	     12.14820639	      3.90225649	      7.14522290	     -0.59880032	      0.94470941	     -0.14925850	     15.88221445	     -4.27780073	    -17.57389922	     20.22182295	     -1.38760328	      0.35293739	     -1.26281929	      3.09457194	     -8.55960273	    -29.51264950	      0.71169071	     -6.80608092	     19.18404385	      0.36738227	      0.33482473	     14.37972639	     26.12448985	     -8.55960273	    -29.07142569	      2.39599447	      0.51773312	    -10.53773923	    -19.32378340	    -14.19923317	     65.47791040	     90.00000001	      0.00000000	      0.00000000	     11.53904007	    -23.69472909	     11.44306780	     72.36146573	     90.00000001	      0.00000000	      0.00000000
      0.53000000	     12.32253524	      3.45697777	      7.18717448	     -0.58289963	      0.94517235	     -0.14850265	     15.58144172	     -3.70051750	    -16.00041516	     21.88412706	     -0.94272086	      0.38195007	     -2.28579086	      0.16456711	     -8.49170367	    -29.46954645	     -0.06041683	     -6.99530463	     21.19259297	      0.21258915	      0.36988052	     12.32345554	     26.00377191	     -8.49170367	    -29.08516678	      3.08055669	      0.83277679	    -10.40005215	    -19.41098815	    -14.13775080	     65.08531084	     90.00000001	      0.00000000	      0.00000000	     10.66726792	    -23.33368318	     10.71473880	     72.52611781	     90.00000001	      0.00000000	      0.00000000
      0.54000000	     12.66846070	      3.09716443	      7.30835477	     -0.56686130	      0.94609643	     -0.14777538	     15.13461600	     -3.25918980	    -15.38634040	     23.74042491	     -0.80755800	      0.41434858	     -2.25236037	     -0.32682844	     -8.48397140	    -29.44318609	     -0.84697381	     -6.80216564	     23.47144339	      0.21526748	      0.40965397	     10.14998171	     25.55401577	     -8.48397140	    -29.28612291	      3.70734023	      1.17909765	    -10.36454237	    -19.41552176	    -14.29276522	     64.77818987	     90.00000001	      0.00000000	      0.00000000	      9.97562302	    -23.04753678	     10.32364499	     72.51631390	     90.00000001	      0.00000000	      0.00000000
      0.55000000	     13.06955916	      2.62362091	      7.37959073	     -0.55068552	      0.94741840	     -0.14713484	     14.47214210	     -2.58937296	    -14.66146648	     25.24555218	     -0.68539224	      0.44061801	     -1.97367417	     -1.59030439	     -8.46750982	    -29.28203350	     -1.55307903	     -6.82558477	     25.91659861	     -0.20678863	      0.45232998	      6.76992246	     24.23842409	     -8.46750982	    -29.52971157	      4.46629266	      1.48591136	    -10.22501839	    -19.49009105	    -14.33786958	     64.56065178	     90.00000001	      0.00000000	      0.00000000	      8.94930464	    -22.66048066	      9.60654094	     72.69313015	     90.00000001	      0.00000000	      0.00000000
      0.56000000	     13.54412073	      2.23052079	      7.25293540	     -0.53494079	      0.94929731	     -0.14602547	     13.51525748	     -1.93062993	    -12.90217015	     26.28828218	      0.04298868	      0.45881708	     -2.31036764	     -4.35502929	     -8.39869369	    -29.11090589	     -2.16407941	     -5.87481342	     28.47143347	      0.08009918	      0.49692026	      3.56497977	     21.44153399	     -8.39869369	    -29.96059733	      5.01976186	      1.98165825	     -9.97444805	    -19.61411733	    -14.22775532	     64.25012470	     90.00000001	      0.00000000	      0.00000000	      8.09503006	    -22.28100928	      8.91576956	     72.70629803	     90.00000001	      0.00000000	      0.00000000
      0.57000000	     14.07816858	      1.77535728	      7.27376772	     -0.51909438	      0.95124110	     -0.14512420	     12.45134597	     -1.23944995	    -12.33142977	     27.30704208	      0.30902295	      0.47659779	     -1.37625059	     -4.76823338	     -8.38636490	    -28.65356457	     -2.85614867	     -5.58719929	     31.51825357	     -0.17102728	      0.55009730	      0.58676846	     20.25588877	     -8.38636490	    -30.40937081	      5.70035688	      2.41940582	     -9.81194168	    -19.70820617	    -14.27357932	     64.15380271	     90.00000001	      0.00000000	      0.00000000	      7.25216530	    -21.99871704	      8.48921691	     72.62709011	     90.00000001	      0.00000000	      0.00000000
      0.58000000	     14.48809301	      1.37563201	      7.12423312	     -0.50360638	      0.95330974	     -0.14391282	     11.39828741	     -0.51918965	    -11.60719078	     27.97224140	      0.53872079	      0.48820771	     -0.70823122	     -5.43968298	     -8.34342501	    -27.93379576	     -3.38911254	     -4.58088530	     34.72659136	      0.11789148	      0.60609336	     -2.36819405	     17.10379336	     -8.34342501	    -30.80143060	      6.20095711	      2.93764509	     -9.52574404	    -19.87086250	    -14.07713337	     63.96616961	     90.00000001	      0.00000000	      0.00000000	      6.37983274	    -21.62117201	      7.86031060	     72.51508380	     90.00000001	      0.00000000	      0.00000000
      0.59000000	     14.71309906	      1.02557433	      7.05974230	     -0.48843452	      0.95516077	     -0.14279239	     10.47751716	      0.10204556	    -11.42884332	     28.52420082	      0.57872955	      0.49784122	      0.44497805	     -5.37347693	     -8.29408977	    -26.70981448	     -3.82458722	     -3.74339854	     38.32635268	      0.14627033	      0.66892104	     -4.73142272	     14.70398180	     -8.29408977	    -31.02378216	      6.63986260	      3.38908255	     -9.25652719	    -19.96697740	    -14.00941247	     63.88640104	     90.00000001	      0.00000000	      0.00000000	      5.59323778	    -21.34682688	      7.45656346	     72.28407763	     90.00000001	      0.00000000	      0.00000000
      0.60000000	     14.76035745	      0.68597485	      6.97933730	     -0.47362901	      0.95682479	     -0.14162016	      9.69348977	      0.70777782	    -11.60719179	     28.91308512	      0.41972836	      0.50462853	      1.74341506	     -4.77710305	     -8.24666804	    -25.08107578	     -4.18756386	     -2.95649980	     42.13755827	      0.12885423	      0.73543913	     -6.47142581	     12.49377043	     -8.24666804	    -31.09230177	      7.01861906	      3.83980141	     -8.95508415	    -20.08697763	    -13.89744577	     63.83148027	     90.00000001	      0.00000000	      0.00000000	      4.85321539	    -21.07496405	      7.09564563	     71.97609392	     90.00000001	      0.00000000	      0.00000000
      0.61000000	     14.69536530	      0.29272781	      6.87155003	     -0.45910898	      0.95842098	     -0.14026149	      8.93061010	      1.39292305	    -11.97813454	     29.02685401	      0.14660654	      0.50661417	      2.96888333	     -3.98549965	     -8.21697480	    -23.18651858	     -4.57516907	     -2.39213886	     45.99330586	      0.01802794	      0.80273462	     -7.55444784	     10.66977010	     -8.21697480	    -31.06682102	      7.39137953	      4.34038347	     -8.64974544	    -20.21806277	    -13.74831757	     63.84328208	     90.00000001	      0.00000000	      0.00000000	      4.16361493	    -20.82216629	      6.78986057	     71.58087463	     90.00000001	      0.00000000	      0.00000000
      0.62000000	     14.78003951	      0.02804122	      6.82400160	     -0.44481813	      0.96043776	     -0.13911756	      7.78630712	      1.88658493	    -12.18212700	     28.78050468	      0.14687744	      0.50231457	      4.22889057	     -3.36657754	     -8.20235966	    -21.41592893	     -4.77510892	     -1.95570938	     49.55610626	     -0.38443371	      0.86491722	     -8.09423058	      9.47515591	     -8.20235966	    -31.23032762	      7.67025458	      4.72719422	     -8.33387279	    -20.32040779	    -13.61328810	     64.02967533	     90.00000001	      0.00000000	      0.00000000	      3.54760585	    -20.64035893	      6.63917860	     71.12694007	     90.00000001	      0.00000000	      0.00000000
      0.63000000	     14.64961022	     -0.30640413	      6.69459592	     -0.43081605	      0.96221524	     -0.13771536	      6.90192818	      2.50365098	    -12.59098529	     28.45985164	     -0.12983607	      0.49671812	      5.27148550	     -2.40191975	     -8.18611704	    -19.33485321	     -5.02431576	     -1.63883948	     52.99918990	     -0.67068003	      0.92501036	     -7.99014578	      7.97860372	     -8.18611704	    -31.18600118	      7.92651571	      5.19985931	     -7.99452399	    -20.48371611	    -13.38814411	     64.14404595	     90.00000001	      0.00000000	      0.00000000	      2.98250169	    -20.42006197	      6.44884435	     70.55934759	     90.00000001	      0.00000000	      0.00000000
      0.64000000	     14.38812565	     -0.54464940	      6.51622704	     -0.41711482	      0.96389122	     -0.13611946	      6.26297621	      3.01925707	    -13.41641701	     28.29604337	     -0.74216648	      0.49385912	      6.26211258	     -0.68894420	     -8.15702417	    -17.10643519	     -5.19029822	     -1.03082609	     56.13995061	     -0.56306479	      0.97982698	     -7.54599152	      6.24979198	     -8.15702417	    -31.03327697	      8.01118735	      5.65202832	     -7.61109115	    -20.62477837	    -13.08710348	     64.21575193	     90.00000001	      0.00000000	      0.00000000	      2.48101589	    -20.23336559	      6.23392366	     69.92007535	     90.00000001	      0.00000000	      0.00000000
      0.65000000	     14.68287922	     -0.33147593	      6.16631878	     -0.40348410	      0.96678587	     -0.13458053	      4.75241277	      3.01320557	    -13.37333448	     27.82390371	     -0.73317398	      0.48561873	      6.82382529	     -0.28954041	     -8.14864289	    -15.69044680	     -4.76811771	     -1.01814777	     58.36270519	     -0.99855757	      1.01862137	     -7.05522880	      5.81427698	     -8.14864289	    -31.55409108	      7.60535168	      6.06738917	     -7.19312424	    -20.67993744	    -12.94332808	     64.44645980	     90.00000001	      0.00000000	      0.00000000	      2.11293680	    -20.17738976	      6.20477415	     69.35864339	     90.00000001	      0.00000000	      0.00000000
      0.66000000	     14.51832693	     -0.75338285	      6.14820459	     -0.38993948	      0.96883765	     -0.13323747	      3.63456931	      3.68497378	    -13.41108927	     26.87259738	     -0.69983766	      0.46901530	      7.69478373	      0.82370418	     -8.12643965	    -13.50281410	     -5.15716358	     -1.17346412	     60.73079388	     -1.51692504	      1.05995231	     -5.80424098	      4.58109925	     -8.12643965	    -31.46317469	      7.95678229	      6.42153969	     -6.88158069	    -20.90141075	    -12.54004820	     64.78068992	     90.00000001	      0.00000000	      0.00000000	      1.64935620	    -20.00004390	      6.13408172	     68.47482203	     90.00000001	      0.00000000	      0.00000000
      0.67000000	     14.62976989	     -0.67878663	      5.93936168	     -0.37660890	      0.97155716	     -0.13189896	      2.19001906	      3.76950272	    -13.14757987	     26.04147681	     -0.47911325	      0.45450951	      8.23240778	      1.29378490	     -8.11438126	    -11.80256698	     -4.90752568	     -1.39329293	     62.29091353	     -2.06186397	      1.08718154	     -4.68929212	      3.98511635	     -8.11438126	    -31.74775831	      7.73469016	      6.70283901	     -6.48358845	    -21.00515052	    -12.27817748	     65.11305574	     90.00000001	      0.00000000	      0.00000000	      1.30030230	    -19.91481281	      6.14799133	     67.67266763	     90.00000001	      0.00000000	      0.00000000
      0.68000000	     14.72130087	     -0.75329634	      5.65126443	     -0.36338237	      0.97418346	     -0.13024970	      0.75258920	      4.09784881	    -12.68696499	     25.06357123	     -0.35498972	      0.43744184	      8.59760766	      1.69858320	     -8.09932098	    -10.09335011	     -4.88044628	     -1.77091578	     63.46808627	     -2.47583634	      1.10772708	     -3.43885901	      3.51219768	     -8.09932098	    -32.01207352	      7.59156232	      7.11282128	     -6.11173535	    -21.18479314	    -11.90598163	     65.50520091	     90.00000001	      0.00000000	      0.00000000	      0.98530803	    -19.80521525	      6.13663055	     66.79743060	     90.00000001	      0.00000000	      0.00000000
      0.69000000	     14.72168038	     -0.57565959	      5.36060089	     -0.35043000	      0.97671129	     -0.12869204	     -0.56697670	      4.13712302	    -12.33723919	     24.11865166	     -0.33685252	      0.42094988	      8.88624732	      1.97206889	     -8.09033358	     -8.33123802	     -4.49710727	     -2.05838569	     64.15193580	     -2.88248891	      1.11966250	     -2.34449888	      3.18364849	     -8.09033358	    -32.21897974	      7.17550495	      7.32678029	     -5.70453967	    -21.23913525	    -11.62418245	     65.96051831	     90.00000001	      0.00000000	      0.00000000	      0.65700852	    -19.80406202	      6.15643491	     65.97815054	     90.00000001	      0.00000000	      0.00000000
      0.70000000	     14.94698118	     -0.78777310	      4.93442304	     -0.33722110	      0.97946355	     -0.12676908	     -2.34871927	      4.65839429	    -11.31759889	     22.62304681	     -0.06557342	      0.39484665	      8.71826740	      1.64865303	     -8.05548004	     -6.89999016	     -4.64910493	     -3.00987661	     64.37772849	     -3.52296392	      1.12360333	     -0.83393920	      3.63854553	     -8.05548004	    -32.61429914	      7.09697059	      7.86016431	     -5.38345776	    -21.48972910	    -11.15685144	     66.50299082	     90.00000001	      0.00000000	      0.00000000	      0.34436953	    -19.69390284	      6.15492066	     65.03585816	     90.00000001	      0.00000000	      0.00000000
      0.71000000	     14.87789955	     -0.68767992	      4.55731424	     -0.32447198	      0.98164159	     -0.12513467	     -3.62390095	      4.75459590	    -10.90533789	     21.54798526	     -0.05703223	      0.37608329	      8.97883695	      2.01984395	     -8.04254988	     -5.14461002	     -4.35356304	     -3.41474110	     64.30844968	     -3.79771087	      1.12239418	      0.38363518	      3.36301021	     -8.04254988	    -32.73733642	      6.71703422	      8.14015844	     -5.00687231	    -21.64577935	    -10.75882422	     66.99974167	     90.00000001	      0.00000000	      0.00000000	      0.08360971	    -19.62793878	      6.15880437	     64.03957008	     90.00000001	      0.00000000	      0.00000000
      0.72000000	     14.94481254	     -0.66783346	      4.12029235	     -0.31162456	      0.98387522	     -0.12334150	     -5.14161906	      5.00293118	    -10.43842717	     20.21523816	     -0.16973821	      0.35282246	      9.06022756	      2.47797979	     -8.02486803	     -3.64234768	     -4.17964415	     -3.95194772	     63.78762568	     -4.05702191	      1.11330409	      1.55537692	      3.43424472	     -8.02486803	    -32.98737350	      6.38525383	      8.48115578	     -4.66655908	    -21.84034084	    -10.29030888	     67.59998554	     90.00000001	      0.00000000	      0.00000000	     -0.21244808	    -19.56468391	      6.13946639	     63.09528508	     90.00000001	      0.00000000	      0.00000000
      0.73000000	     14.88148573	     -0.58837565	      3.73068619	     -0.29895939	      0.98570872	     -0.12174051	     -6.48882259	      5.12729942	    -10.14865152	     18.94840991	     -0.27103574	      0.33071214	      9.18718774	      2.99727816	     -8.01096891	     -2.01984020	     -3.90203535	     -4.29497759	     62.99553846	     -4.18316350	      1.09947956	      2.65515232	      3.36488033	     -8.01096891	    -33.10293104	      6.01999530	      8.70547347	     -4.31157120	    -22.01548162	     -9.85988054	     68.19335098	     90.00000001	      0.00000000	      0.00000000	     -0.50720374	    -19.51613937	      6.12820887	     62.14038723	     90.00000001	      0.00000000	      0.00000000
      0.74000000	     14.77839812	     -0.52999081	      3.32578255	     -0.28634757	      0.98724912	     -0.12013344	     -7.79363836	      5.26276975	     -9.93673020	     17.65424360	     -0.40862422	      0.30812468	      9.32656383	      3.61095853	     -8.00050628	     -0.41545623	     -3.63780150	     -4.44550447	     61.92378907	     -4.10750330	      1.08077400	      3.64359864	      3.18574269	     -8.00050628	    -33.16055366	      5.66978634	      8.91322191	     -3.96214263	    -22.18229992	     -9.40248674	     68.82013094	     90.00000001	      0.00000000	      0.00000000	     -0.82198932	    -19.46222053	      6.10833572	     61.18965820	     90.00000001	      0.00000000	      0.00000000
      0.75000000	     14.96401007	     -0.49193789	      2.87397024	     -0.27351277	      0.98900001	     -0.11843720	     -9.53575093	      5.45955762	     -9.70150672	     16.10652855	     -0.63002207	      0.28111195	      9.32695745	      4.38803023	     -7.98337263	      0.70122325	     -3.43416786	     -4.40004972	     60.42136418	     -3.75299130	      1.05455174	      4.42542128	      2.97338786	     -7.98337263	    -33.51373256	      5.32358086	      9.15418002	     -3.62226637	    -22.38762722	     -8.88236444	     69.51312437	     90.00000001	      0.00000000	      0.00000000	     -1.18579260	    -19.42620934	      6.03693694	     60.37441854	     90.00000001	      0.00000000	      0.00000000
      0.76000000	     14.97168729	     -0.45582510	      2.47785017	     -0.26085625	      0.99019707	     -0.11696402	    -11.05323810	      5.59467283	     -9.48154883	     14.62533529	     -0.76617870	      0.25526026	      9.43084194	      5.11453799	     -7.96897434	      1.99219147	     -3.20187235	     -4.07331212	     58.75651506	     -3.20560958	      1.02549464	      5.13428744	      2.45836240	     -7.96897434	    -33.67147601	      5.02231767	      9.32089770	     -3.28087881	    -22.61752925	     -8.36421601	     70.16913049	     90.00000001	      0.00000000	      0.00000000	     -1.51178072	    -19.36002846	      5.97229939	     59.46303438	     90.00000001	      0.00000000	      0.00000000
      0.77000000	     15.09141936	     -0.36524384	      2.10413273	     -0.24810346	      0.99128236	     -0.11559456	    -12.75135080	      5.64169485	     -9.27075883	     13.05204625	     -0.84734412	      0.22780118	      9.41880096	      5.73011660	     -7.94706719	      3.02884851	     -2.89315116	     -3.38298082	     56.76094280	     -2.37019188	      0.99066534	      5.46580971	      1.43222022	     -7.94706719	    -33.93605367	      4.68311844	      9.40606790	     -2.93595841	    -22.82024495	     -7.85867074	     70.85278386	     90.00000001	      0.00000000	      0.00000000	     -1.92507928	    -19.34202708	      5.89118504	     58.74594974	     90.00000001	      0.00000000	      0.00000000
      0.78000000	     15.08967375	     -0.39974613	      1.72420929	     -0.23544367	      0.99181678	     -0.11423384	    -14.29057007	      5.80588539	     -9.00462583	     11.51639777	     -0.95147945	      0.20099906	      9.54141634	      6.43646528	     -7.93380041	      4.15486396	     -2.75059496	     -2.59881362	     54.62556113	     -1.44007116	      0.95339590	      5.85078027	      0.62546306	     -7.93380041	    -34.06514509	      4.47740621	      9.56104340	     -2.59305285	    -23.09407728	     -7.29889570	     71.49929272	     90.00000001	      0.00000000	      0.00000000	     -2.26239250	    -19.23685201	      5.79161373	     57.87519755	     90.00000001	      0.00000000	      0.00000000
      0.79000000	     14.63014991	     -0.62337857	      1.33774264	     -0.22293969	      0.99109259	     -0.11275975	    -14.91828661	      6.10308349	     -9.33625248	     10.88882522	     -1.10092826	      0.19004585	      9.83478130	      6.54515707	     -7.92917505	      5.88228977	     -2.86622099	     -2.50162822	     52.57379042	     -1.06000819	      0.91758574	      6.01924862	      0.47510805	     -7.92917505	    -33.71404614	      4.42837119	      9.78093590	     -2.23825892	    -23.15461316	     -7.07214684	     72.08983320	     90.00000001	      0.00000000	      0.00000000	     -2.84427825	    -19.22649292	      5.83141584	     57.48374603	     90.00000001	      0.00000000	      0.00000000
      0.80000000	     15.35986382	     -0.22773847	      1.00217062	     -0.20981466	      0.99235525	     -0.11196562	    -17.76715250	      5.73747985	     -8.43528128	      8.35527186	     -0.93254131	      0.14582700	      9.51045857	      7.37382042	     -7.90762860	      5.67650193	     -2.16066370	     -0.44928955	     49.38827372	      0.76624426	      0.86198799	      5.42001944	     -2.26978048	     -7.90762860	    -34.57506707	      3.87923382	      9.62953143	     -1.88752916	    -23.56701528	     -6.21525548	     72.80631722	     90.00000001	      0.00000000	      0.00000000	     -3.19421553	    -19.13894916	      5.52981117	     56.70959288	     90.00000001	      0.00000000	      0.00000000
      0.81000000	     15.38913320	     -0.20352218	      0.63992347	     -0.19712346	      0.99191653	     -0.11094558	    -19.32906470	      5.72468648	     -8.02515419	      6.89942341	     -0.88924622	      0.12041766	      9.55646122	      7.56751061	     -7.88453111	      6.43131956	     -1.96347730	      0.75538797	     46.46310692	      1.91984924	      0.81093420	      4.86597823	     -3.86911231	     -7.88453111	    -34.72338971	      3.66020001	      9.69232766	     -1.50563544	    -23.85220678	     -5.66103026	     73.40260863	     90.00000001	      0.00000000	      0.00000000	     -3.63696503	    -19.03922696	      5.37552906	     56.12043326	     90.00000001	      0.00000000	      0.00000000
      0.82000000	     15.42689057	     -0.26615131	      0.25266825	     -0.18430855	      0.99107882	     -0.10990045	    -20.83274146	      5.78236739	     -7.72432057	      5.60446763	     -0.90352306	      0.09781641	      9.66634457	      8.05558399	     -7.86967449	      7.07970889	     -1.89407835	      1.55698503	     43.36289271	      2.73764768	      0.75682525	      4.55196661	     -4.56159213	     -7.86967449	    -34.85831903	      3.51965956	      9.82121578	     -1.13226598	    -24.15883493	     -5.09633811	     73.96188380	     90.00000001	      0.00000000	      0.00000000	     -4.11408688	    -18.91503925	      5.18281830	     55.58958243	     90.00000001	      0.00000000	      0.00000000
      0.83000000	     15.41139188	     -0.24684206	     -0.13268459	     -0.17156587	      0.98989515	     -0.10909309	    -22.19157735	      5.68816075	     -7.33542751	      4.52329290	     -0.81795695	      0.07894635	      9.89518233	      8.12685794	     -7.84193374	      7.66008569	     -1.72400078	      2.42998572	     39.99236212	      3.54343013	      0.69799839	      3.54647840	     -5.79756950	     -7.84193374	    -34.94263329	      3.32835619	      9.90550769	     -0.73308489	    -24.45739292	     -4.54321966	     74.45812061	     90.00000001	      0.00000000	      0.00000000	     -4.61529258	    -18.76761451	      5.00968928	     55.16452411	     90.00000001	      0.00000000	      0.00000000
      0.84000000	     15.37382901	     -0.34416920	     -0.54604878	     -0.15876528	      0.98828986	     -0.10819809	    -23.42278102	      5.68825126	     -7.12489036	      3.65501543	     -0.76123127	      0.06379205	     10.15032995	      8.59693885	     -7.82797779	      8.18103250	     -1.69847931	      2.61844065	     36.51424174	      3.81924107	      0.63729374	      3.04452811	     -5.60359083	     -7.82797779	    -35.00822472	      3.22552307	     10.07399348	     -0.34302246	    -24.80327612	     -3.98285254	     74.95694213	     90.00000001	      0.00000000	      0.00000000	     -5.16420601	    -18.61144154	      4.73689740	     54.89976698	     90.00000001	      0.00000000	      0.00000000
      0.85000000	     15.29098712	     -0.51671821	     -0.97222433	     -0.14592758	      0.98632909	     -0.10735402	    -24.47217423	      5.74760883	     -6.90353253	      3.08454006	     -0.70696844	      0.05383538	     10.57269355	      8.92465926	     -7.81630098	      8.65823089	     -1.75295658	      2.52198114	     32.95060407	      3.87716510	      0.57509653	      2.39688958	     -5.11159666	     -7.81630098	    -35.01657068	      3.20821433	     10.30060433	      0.06570670	    -25.14488432	     -3.41779212	     75.34424979	     90.00000001	      0.00000000	      0.00000000	     -5.72705611	    -18.40807535	      4.47145996	     54.63913472	     90.00000001	      0.00000000	      0.00000000
      0.86000000	     15.13709670	     -0.73346217	     -1.37929760	     -0.13316359	      0.98397207	     -0.10658942	    -25.33956003	      5.83601848	     -6.67646916	      2.73700153	     -0.65476366	      0.04776969	     11.07321607	      9.15566344	     -7.80424627	      9.15402613	     -1.87484762	      2.06644635	     29.36196870	      3.75891921	      0.51246303	      1.63063020	     -4.19427559	     -7.80424627	    -34.96799657	      3.24553411	     10.54138935	      0.50547972	    -25.50827437	     -2.87920722	     75.71384196	     90.00000001	      0.00000000	      0.00000000	     -6.30875730	    -18.19873931	      4.17817419	     54.51458241	     90.00000001	      0.00000000	      0.00000000
      0.87000000	     14.78626853	     -1.16050669	     -1.75900863	     -0.12042481	      0.98108724	     -0.10574073	    -25.86733680	      6.18902078	     -6.40985545	      2.66635469	     -0.68200401	      0.04653667	     11.74283536	      9.35961814	     -7.79620850	      9.84726911	     -2.27694679	      1.43578524	     25.91432704	      3.62737315	      0.45229033	      0.88179008	     -2.85184801	     -7.79620850	    -34.72282535	      3.50388014	     10.89648568	      0.92025550	    -25.86088365	     -2.36598411	     76.00651484	     90.00000001	      0.00000000	      0.00000000	     -6.88874407	    -17.97163956	      3.93806365	     54.37458986	     90.00000001	      0.00000000	      0.00000000
      0.88000000	     14.75884726	     -1.42078927	     -2.25843691	     -0.10729761	      0.97853175	     -0.10496946	    -26.74267646	      6.24386943	     -6.10379774	      2.65528466	     -0.60080298	      0.04634346	     12.23121738	      9.33942207	     -7.78534048	      9.99962407	     -2.39338039	      0.12204213	     22.36726410	      3.10603998	      0.39038240	      0.25139573	     -1.15651771	     -7.78534048	    -34.77608907	      3.54203711	     11.21306214	      1.37713981	    -26.20790365	     -1.78282583	     76.21607615	     90.00000001	      0.00000000	      0.00000000	     -7.56104049	    -17.71187184	      3.50440907	     54.43429863	     90.00000001	      0.00000000	      0.00000000
      0.89000000	     14.44470836	     -1.93441456	     -2.70516621	     -0.09432079	      0.97540962	     -0.10416512	    -27.20902360	      6.63988811	     -5.71162401	      2.85132959	     -0.66652858	      0.04976509	     12.91550499	      9.36644738	     -7.77741475	     10.51618920	     -2.87953428	     -1.05736460	     19.17177511	      2.87584794	      0.33461060	     -0.38692794	      0.57498495	     -7.77741475	    -34.57351240	      3.86796911	     11.67235590	      1.81625121	    -26.58217921	     -1.28956543	     76.36439050	     90.00000001	      0.00000000	      0.00000000	     -8.18909903	    -17.42789258	      3.22233959	     54.44202336	     90.00000001	      0.00000000	      0.00000000
      0.90000000	     14.31256545	     -2.29973931	     -3.27574781	     -0.08093334	      0.97248886	     -0.10338595	    -27.85561671	      6.76008892	     -5.32011721	      3.16612500	     -0.65686357	      0.05525931	     13.47284911	      9.19948342	     -7.76636593	     10.76463458	     -3.12447320	     -2.86315267	     16.23839563	      2.39617678	      0.28341347	     -0.77005953	      2.68131617	     -7.76636593	    -34.51156460	      3.98913812	     12.10658926	      2.24710675	    -26.92464116	     -0.73274585	     76.42394368	     90.00000001	      0.00000000	      0.00000000	     -8.90014844	    -17.10859151	      2.77075132	     54.55470254	     90.00000001	      0.00000000	      0.00000000
      0.91000000	     13.90797355	     -2.89613587	     -3.73892275	     -0.06773469	      0.96916283	     -0.10254361	    -28.14211903	      7.23704172	     -4.93871180	      3.60886820	     -0.83601515	      0.06298663	     14.13836333	      9.29813562	     -7.76114670	     11.34788623	     -3.72230999	     -4.05529322	     13.73478056	      2.36108796	      0.23971714	     -1.10945270	      3.94584563	     -7.76114670	    -34.21649134	      4.38827172	     12.66168833	      2.61879735	    -27.21871203	     -0.34013700	     76.43701687	     90.00000001	      0.00000000	      0.00000000	     -9.48246928	    -16.85286255	      2.59154957	     54.62784591	     90.00000001	      0.00000000	      0.00000000
      0.92000000	     13.75934765	     -3.23937469	     -4.41495525	     -0.05397134	      0.96621482	     -0.10173917	    -28.64142176	      7.21763410	     -4.91237361	      4.27885442	     -0.85217083	      0.07468010	     14.91815385	      9.90002305	     -7.73722323	     11.69609829	     -3.97992572	     -6.60037403	     11.86133098	      1.93233803	      0.20701928	     -0.77324242	      6.93264575	     -7.73722323	    -34.12500451	      4.44630848	     13.11748508	      3.06176762	    -27.50066999	      0.22288535	     76.35888922	     90.00000001	      0.00000000	      0.00000000	    -10.19733218	    -16.49873459	      2.09904111	     54.71389862	     90.00000001	      0.00000000	      0.00000000
      0.93000000	     13.44010430	     -3.62861678	     -5.02283671	     -0.04039387	      0.96322179	     -0.10097981	    -28.93681476	      7.29220161	     -4.69682237	      4.97869778	     -0.94322573	      0.08689467	     15.55909642	     10.21587528	     -7.73070614	     12.07829883	     -4.32224690	     -7.86390036	     10.09957364	      1.97274956	      0.17627081	     -0.85064349	      7.52466151	     -7.73070614	    -33.90241712	      4.58883978	     13.62798166	      3.42287787	    -27.72335314	      0.59734616	     76.22132386	     90.00000001	      0.00000000	      0.00000000	    -10.74008408	    -16.20818268	      1.89537502	     54.70258303	     90.00000001	      0.00000000	      0.00000000
      0.94000000	     12.92556276	     -3.99967037	     -5.20022320	     -0.02661719	      0.95992421	     -0.10090846	    -29.09478055	      7.48111591	     -4.83981979	      5.51530877	     -0.90687829	      0.09626030	     15.75872114	     10.27603676	     -7.72872149	     12.94806487	     -4.51686928	     -8.71314203	      9.28419355	      1.90094513	      0.16203975	     -0.63531887	      7.46020923	     -7.72872149	    -33.42905730	      4.96345776	     13.79063752	      3.64385761	    -27.75610013	      0.63283433	     76.18613328	     90.00000001	      0.00000000	      0.00000000	    -11.21454691	    -16.02082326	      1.92473771	     54.63530628	     90.00000001	      0.00000000	      0.00000000
      0.95000000	     12.69897115	     -4.28033418	     -6.26775546	     -0.01276180	      0.95753137	     -0.09944165	    -29.27818700	      7.19545465	     -4.55932800	      6.72860619	     -1.15196809	      0.11743633	     16.70781082	     11.30834949	     -7.72417039	     12.94206888	     -4.87137691	    -10.12736171	      8.15096267	      2.06038597	      0.14226114	     -0.39597050	      7.98068874	     -7.72417039	    -33.30533275	      4.73816881	     14.56051753	      4.09228216	    -27.94130032	      1.21333635	     75.69279813	     90.00000001	      0.00000000	      0.00000000	    -11.68572132	    -15.67239517	      1.58999577	     54.54033546	     90.00000001	      0.00000000	      0.00000000
      0.96000000	     12.57149677	     -4.17165338	     -6.80662707	      0.00173091	      0.95503000	     -0.09914243	    -29.32932024	      6.53481918	     -6.56074950	      8.29577458	     -1.38407020	      0.14478858	     18.09546145	     15.32226960	     -7.70675140	     13.32071285	     -4.52947583	    -12.09893345	      8.30278426	      1.65236077	      0.14491092	      0.30858245	      9.73145527	     -7.70675140	    -33.12276126	      4.41881012	     14.67181434	      4.33816643	    -27.96470094	      1.52567476	     75.43163142	     90.00000001	      0.00000000	      0.00000000	    -12.15798874	    -15.47831846	      1.30577179	     54.50840167	     90.00000001	      0.00000000	      0.00000000
      0.97000000	     12.19900090	     -4.32565022	     -7.35213588	      0.01599649	      0.95269013	     -0.09849489	    -29.41789822	      6.22350794	     -6.43696225	      9.31857492	     -1.41874701	      0.16263981	     18.24154310	     15.72908008	     -7.70366578	     13.79585242	     -4.58933809	    -12.76023004	      8.65105067	      1.60426375	      0.15098932	      0.57161098	      9.28612338	     -7.70366578	    -32.77070540	      4.35210625	     14.99929520	      4.51580016	    -27.89983776	      1.62057157	     75.06161926	     90.00000001	      0.00000000	      0.00000000	    -12.41771827	    -15.32341893	      1.35888587	     54.24975585	     90.00000001	      0.00000000	      0.00000000
      0.98000000	     12.02783974	     -4.17673997	     -7.90565887	      0.03076083	      0.95064403	     -0.09804212	    -29.44859362	      5.48720243	     -7.60344757	     10.79931871	     -1.66280827	      0.18848367	     18.92777901	     18.54425228	     -7.68861222	     14.12545049	     -4.26538925	    -13.76856979	      9.54168112	      1.32320598	      0.16653375	      0.80534249	      9.49260541	     -7.68861222	    -32.52537154	      3.96260525	     15.12496847	      4.60603421	    -27.80301809	      1.75149142	     74.77736068	     90.00000001	      0.00000000	      0.00000000	    -12.68894463	    -15.21835708	      1.34881943	     54.04939867	     90.00000001	      0.00000000	      0.00000000
      0.99000000	     11.75185934	     -4.15027821	     -8.36480622	      0.04548274	      0.94886175	     -0.09754215	    -29.49863763	      4.95921553	     -7.50575204	     12.04171331	     -1.69243701	      0.21016754	     18.65476856	     18.89451165	     -7.68549492	     14.55789072	     -4.10523518	    -14.01676353	     10.77693820	      1.12797334	      0.18809305	      0.69076780	      8.77470698	     -7.68549492	    -32.19663125	      3.73719784	     15.25087487	      4.66734842	    -27.61954715	      1.74014429	     74.39041638	     90.00000001	      0.00000000	      0.00000000	    -12.80794189	    -15.13909517	      1.45867823	     53.67625681	     90.00000001	      0.00000000	      0.00000000
      1.00000000	     11.64293926	     -3.90445603	     -8.79237182	      0.06059490	      0.94745382	     -0.09719118	    -29.50395198	      4.14977346	     -8.24340688	     13.63148702	     -1.91042067	      0.23791433	     18.55978144	     20.86639900	     -7.67188251	     14.81179426	     -3.64244681	    -14.11330132	     12.24951024	      0.82294845	      0.21379429	      0.26011123	      7.84592455	     -7.67188251	    -31.96409277	      3.28466814	     15.23101521	      4.61703126	    -27.37624372	      1.66715692	     74.10666323	     90.00000001	      0.00000000	      0.00000000	    -12.87608120	    -15.14981733	      1.65892027	     53.36260315	     90.00000001	      0.00000000	      0.00000000
      1.01000000	     11.51716703	     -3.75379644	     -9.13185803	      0.07578316	      0.94639354	     -0.09682833	    -29.52365953	      3.51332281	     -8.14119156	     15.16938432	     -1.96034227	      0.26475570	     17.65661711	     20.97871955	     -7.66917369	     15.11903676	     -3.31279390	    -14.00995051	     14.01938634	      0.52375050	      0.24468445	     -0.28440326	      7.06265620	     -7.66917369	    -31.71339285	      2.95683879	     15.17921867	      4.53731697	    -27.08792010	      1.57921176	     73.72852946	     90.00000001	      0.00000000	      0.00000000	    -12.82583648	    -15.14225511	      1.81144861	     52.94276910	     90.00000001	      0.00000000	      0.00000000
      1.02000000	     11.49468446	     -3.52677584	     -9.42118455	      0.09113230	      0.94577513	     -0.09646885	    -29.52024532	      2.82762508	     -8.10875054	     16.88091887	     -2.07868251	      0.29462761	     16.46148546	     21.14283072	     -7.66597251	     15.32843469	     -2.88569028	    -13.81767140	     15.94194562	      0.17653553	      0.27823944	     -0.98383877	      6.08550784	     -7.66597251	    -31.55305150	      2.54223479	     15.04327123	      4.39509470	    -26.77987904	      1.39510619	     73.42945382	     90.00000001	      0.00000000	      0.00000000	    -12.71536078	    -15.21810166	      2.05790257	     52.52623698	     90.00000001	      0.00000000	      0.00000000
      1.03000000	     11.59124261	     -3.32178528	     -9.64182788	      0.10643756	      0.94572360	     -0.09616295	    -29.52713872	      2.19189981	     -7.76901204	     18.76170321	     -2.12178733	      0.32745349	     15.11528740	     21.22475262	     -7.66498810	     15.27013775	     -2.45974826	    -13.12340757	     17.66051444	     -0.04071121	      0.30823412	     -1.54323076	      5.63833510	     -7.66498810	    -31.54271084	      2.15160665	     14.83251885	      4.28751262	    -26.47063958	      1.25105737	     73.14894366	     90.00000001	      0.00000000	      0.00000000	    -12.49750522	    -15.25832249	      2.22501018	     52.18809584	     90.00000001	      0.00000000	      0.00000000
      1.04000000	     11.82750300	     -2.87930631	     -9.72689575	      0.12213640	      0.94616039	     -0.09608987	    -29.46512983	      1.36865090	     -7.98567662	     20.96716319	     -2.26981832	      0.36594603	     12.87681972	     20.43133568	     -7.65568105	     15.04032384	     -1.71448334	    -12.14284381	     19.36483838	     -0.05909699	      0.33798019	     -2.79154614	      2.58331983	     -7.65568105	    -31.56398136	      1.57532122	     14.51457196	      3.86758766	    -26.00301557	      0.66557415	     72.96839225	     90.00000001	      0.00000000	      0.00000000	    -12.13832106	    -15.60969241	      3.02943504	     51.71586186	     90.00000001	      0.00000000	      0.00000000
      1.05000000	     12.18250083	     -2.61569838	     -9.80881979	      0.13770785	      0.94713431	     -0.09589460	    -29.40378790	      0.72895963	     -7.74360138	     23.38655661	     -2.34210186	      0.40817241	     10.87708686	     20.08597912	     -7.65460177	     14.61001546	     -1.22334950	    -11.39910541	     21.05191442	     -0.08770321	      0.36742522	     -2.89673461	      2.15464940	     -7.65460177	    -31.77261379	      1.14251368	     14.09170519	      3.71204544	    -25.68570108	      0.54315512	     72.67443526	     90.00000001	      0.00000000	      0.00000000	    -11.83759176	    -15.71191480	      3.08528868	     51.36152749	     90.00000001	      0.00000000	      0.00000000
      1.06000000	     12.65594536	     -2.12267264	     -9.81161812	      0.15324663	      0.94881351	     -0.09584925	    -29.31561023	     -0.03584022	     -7.03223594	     25.96242647	     -2.18478315	      0.45312982	      7.73204016	     16.77130372	     -7.64568984	     13.80315915	     -0.38992152	     -9.74787708	     22.20757913	      0.31282859	      0.38759537	     -3.55926164	     -0.91682449	     -7.64568984	    -32.07511503	      0.50582560	     13.63072117	      3.35392494	    -25.20701254	      0.04960071	     72.51655341	     90.00000001	      0.00000000	      0.00000000	    -11.29308747	    -16.02889044	      3.69950403	     50.99773856	     90.00000001	      0.00000000	      0.00000000
      1.07000000	     13.23095047	     -1.70812716	     -9.81165384	      0.16873478	      0.95090342	     -0.09575886	    -29.13970701	     -0.72319648	     -6.29942064	     28.83887776	     -2.02596119	      0.50333337	      4.97110042	     14.20812920	     -7.63649333	     12.77444166	      0.31475403	     -8.29856958	     23.22765737	      0.80206498	      0.40539910	     -3.57866222	     -2.88739730	     -7.63649333	    -32.50162250	     -0.06122894	     13.11259750	      3.07758073	    -24.83031092	     -0.23600394	     72.33866032	     90.00000001	      0.00000000	      0.00000000	    -10.78981787	    -16.25808636	      3.95884033	     50.73675834	     90.00000001	      0.00000000	      0.00000000
      1.08000000	     13.87253005	     -1.30942819	     -9.82435660	      0.18424202	      0.95320451	     -0.09561253	    -28.78327200	     -1.39307695	     -6.09828099	     32.05800028	     -2.17883447	      0.55951766	      2.75666223	     13.16651731	     -7.63518233	     11.61665705	      0.93897470	     -7.62860759	     24.20104685	      1.16996589	      0.42238795	     -2.81299534	     -3.29837857	     -7.63518233	    -32.97162635	     -0.61127596	     12.58434255	      2.78047674	    -24.50248967	     -0.42488489	     72.18938482	     90.00000001	      0.00000000	      0.00000000	    -10.31552863	    -16.47213802	      4.07088721	     50.61363142	     90.00000001	      0.00000000	      0.00000000
      1.09000000	     14.39540342	     -0.70168616	     -9.86765291	      0.19951392	      0.95554440	     -0.09545439	    -28.03865648	     -2.17154055	     -5.75502937	     35.61409159	     -2.34459616	      0.62158316	      0.54896897	     10.87843322	     -7.63350529	     10.39688542	      1.84364551	     -6.95851697	     24.67665877	      1.45321566	      0.43068894	     -1.90783431	     -3.86389491	     -7.63350529	    -33.29661823	     -1.35787091	     12.03368776	      2.38602458	    -24.14631100	     -0.74085986	     72.13034908	     90.00000001	      0.00000000	      0.00000000	     -9.76992922	    -16.80267449	      4.32499267	     50.57975827	     90.00000001	      0.00000000	      0.00000000
      1.10000000	     14.66393749	     -0.12417811	     -9.86822229	      0.21429954	      0.95779516	     -0.09544618	    -26.83900529	     -2.81997874	     -4.90608432	     39.40233200	     -2.22712821	      0.68770043	     -1.17870760	      7.64652491	     -7.63132880	      9.31566413	      2.72593359	     -6.41747742	     24.80977807	      1.60680639	      0.43301231	     -1.13555105	     -4.29285038	     -7.63132880	    -33.42686383	     -1.98964440	     11.47900559	      2.03047739	    -23.79074407	     -1.12723493	     72.09483370	     90.00000001	      0.00000000	      0.00000000	     -9.17023327	    -17.14202055	      4.65272849	     50.57689032	     90.00000001	      0.00000000	      0.00000000
      1.11000000	     14.72147240	     -0.08042336	     -9.71250155	      0.22843806	      0.96020649	     -0.09537993	    -25.45870292	     -2.80506232	     -2.57630293	     43.07242223	     -0.95938903	      0.75175558	     -3.01815030	      1.92105113	     -7.62307639	      8.43393025	      2.90483183	     -6.42880995	     25.05508628	      1.65154826	      0.43729375	     -0.45076356	     -4.23870824	     -7.62307639	    -33.48348847	     -1.97877481	     11.11709146	      1.74933789	    -23.50716126	     -1.55864091	     71.97861055	     90.00000001	      0.00000000	      0.00000000	     -8.42745197	    -17.37187655	      5.02451266	     50.47360473	     90.00000001	      0.00000000	      0.00000000
      1.12000000	     14.64682623	      0.36436611	     -9.58029502	      0.24264635	      0.96210105	     -0.09558061	    -23.59415887	     -3.19889068	     -2.11245615	     46.98471778	     -0.86964287	      0.82003802	     -3.61770558	     -0.29508444	     -7.61804856	      7.63297490	      3.58718105	     -7.07978100	     24.99764242	      1.26898345	      0.43629117	      0.69762067	     -3.01086221	     -7.61804856	    -33.28740489	     -2.31919668	     10.53603820	      1.42467374	    -23.24759442	     -1.83172947	     71.92646829	     90.00000001	      0.00000000	      0.00000000	     -7.84465306	    -17.62397453	      5.08960254	     50.61763225	     90.00000001	      0.00000000	      0.00000000
      1.13000000	     14.62108152	      0.62993442	     -9.54365078	      0.25657170	      0.96432317	     -0.09544526	    -21.72876652	     -3.33730831	     -1.91736063	     50.58889261	     -1.25994692	      0.88294274	     -3.75491410	     -1.68703672	     -7.61556559	      6.51547747	      4.00210075	     -7.60951653	     24.47465670	      1.15635477	      0.42716334	      1.88701783	     -1.99834263	     -7.61556559	    -33.19897360	     -2.55099234	     10.16336846	      1.07077925	    -23.14235883	     -1.98784933	     71.98294760	     90.00000001	      0.00000000	      0.00000000	     -7.26581787	    -17.87502102	      5.04681004	     50.97053924	     90.00000001	      0.00000000	      0.00000000
      1.14000000	     14.44366998	      0.92484339	     -9.41001688	      0.27036789	      0.96637865	     -0.09557288	    -19.67259459	     -3.52208822	     -1.75559643	     53.94793880	     -1.41869240	      0.94156916	     -3.41689551	     -3.25080833	     -7.61303770	      5.58296371	      4.48621492	     -8.35809527	     23.92954272	      0.79402061	      0.41764931	      2.86558286	     -0.55423774	     -7.61303770	    -32.94010580	     -2.70983283	      9.72344021	      0.70998200	    -22.98020815	     -2.22882236	     71.99713650	     90.00000001	      0.00000000	      0.00000000	     -6.67348437	    -18.11201827	      5.03627343	     51.30053462	     90.00000001	      0.00000000	      0.00000000
      1.15000000	     14.36010540	      1.02642637	     -9.26449874	      0.28399761	      0.96876226	     -0.09561197	    -17.75789650	     -3.47239462	     -1.69378675	     56.78750671	     -1.69739352	      0.99112897	     -2.81337938	     -4.41175313	     -7.61090049	      4.46375115	      4.74905276	     -8.93396690	     23.29451773	      0.53222059	      0.40656603	      3.71476370	      0.82583826	     -7.61090049	    -32.81443865	     -2.67830268	      9.36684696	      0.39053935	    -22.88870103	     -2.43632491	     72.03422335	     90.00000001	      0.00000000	      0.00000000	     -6.08881987	    -18.31221982	      4.97686504	     51.68809834	     90.00000001	      0.00000000	      0.00000000
      1.16000000	     14.12430323	      0.96236475	     -9.16364107	      0.29758110	      0.97088098	     -0.09562642	    -15.68039243	     -3.32215667	     -1.25083763	     59.26748598	     -1.48135647	      1.03441277	     -2.22919566	     -5.95478082	     -7.60131504	      3.76535272	      4.73434586	    -10.99914158	     23.22768053	     -0.28772792	      0.40539950	      5.36768620	      4.94963769	     -7.60131504	    -32.52936708	     -2.45411183	      9.17560003	      0.02345828	    -22.85432505	     -2.75791515	     72.06703060	     90.00000001	      0.00000000	      0.00000000	     -5.52229053	    -18.47783866	      4.95920786	     52.03830589	     90.00000001	      0.00000000	      0.00000000
      1.17000000	     14.18289911	      0.93137596	     -9.02357488	      0.31112712	      0.97367316	     -0.09564806	    -13.97081047	     -3.17990150	     -1.68747011	     61.08134127	     -2.04005834	      1.06607052	     -1.15707266	     -6.32419829	     -7.59939798	      2.26010156	      4.82457712	    -10.81980338	     22.19370408	     -0.04787147	      0.38735321	      5.83840539	      5.47525500	     -7.59939798	    -32.56854254	     -2.28828096	      8.90841263	     -0.30944763	    -22.88717639	     -2.91945889	     72.14632773	     90.00000001	      0.00000000	      0.00000000	     -4.98276605	    -18.64796924	      4.78032930	     52.58074098	     90.00000001	      0.00000000	      0.00000000
      1.18000000	     14.27408825	      1.09878462	     -8.83063454	      0.32462762	      0.97639860	     -0.09599609	    -12.26982927	     -3.35180917	     -2.34269517	     62.51021582	     -2.52739727	      1.09100908	      0.19173363	     -6.10370936	     -7.59623729	      0.68967533	      5.24070294	    -10.31396167	     20.95179734	      0.09260402	      0.36567785	      6.07788105	      5.80955967	     -7.59623729	    -32.61402744	     -2.26303019	      8.51267220	     -0.64501410	    -22.86031548	     -3.22136877	     72.23187218	     90.00000001	      0.00000000	      0.00000000	     -4.44337461	    -18.83235782	      4.62243147	     53.16800129	     90.00000001	      0.00000000	      0.00000000
      1.19000000	     14.43524730	      1.12623168	     -8.59989205	      0.33813967	      0.97923382	     -0.09630651	    -10.73693373	     -3.35261252	     -3.25117908	     63.32475333	     -3.25034438	      1.10522544	      1.77988119	     -5.23727486	     -7.59111189	     -1.08040816	      5.46039800	     -9.41403622	     19.52554168	      0.46495642	      0.34078499	      5.96780220	      5.39796302	     -7.59111189	    -32.74241393	     -2.08923959	      8.17555066	     -0.99725457	    -22.91352180	     -3.44970138	     72.32393098	     90.00000001	      0.00000000	      0.00000000	     -3.92591007	    -19.00234403	      4.46301386	     53.83119188	     90.00000001	      0.00000000	      0.00000000
      1.20000000	     14.53566521	      1.05861941	     -8.34354012	      0.35138106	      0.98186417	     -0.09652212	     -9.16742101	     -3.20592492	     -3.96767832	     63.73455576	     -3.77136723	      1.11237785	      3.16640654	     -4.71600217	     -7.58572774	     -2.75443724	      5.53361693	     -8.56389129	     18.15946759	      0.80732857	      0.31694250	      5.89056301	      5.04606002	     -7.58572774	    -32.84965729	     -1.81742075	      7.87868345	     -1.30417729	    -22.98995469	     -3.66869113	     72.43331241	     90.00000001	      0.00000000	      0.00000000	     -3.38475964	    -19.18190612	      4.27049147	     54.50738198	     90.00000001	      0.00000000	      0.00000000
      1.21000000	     14.54868102	      0.94689206	     -8.04973894	      0.36457883	      0.98416809	     -0.09679944	     -7.55927371	     -3.01304507	     -4.48228132	     63.73531138	     -4.01047851	      1.11239103	      4.40347880	     -4.45894334	     -7.58181034	     -4.29432276	      5.55709833	     -8.04485594	     16.83642311	      0.92821475	      0.29385102	      5.94258796	      5.24003906	     -7.58181034	    -32.86296100	     -1.46101891	      7.61200981	     -1.63760226	    -23.06549145	     -3.93207826	     72.52802404	     90.00000001	      0.00000000	      0.00000000	     -2.85169647	    -19.32794928	      4.08825754	     55.23719498	     90.00000001	      0.00000000	      0.00000000
      1.22000000	     14.31022439	      0.74301947	     -7.72374021	      0.37746993	      0.98584806	     -0.09704991	     -5.68721004	     -2.65356967	     -4.74542337	     63.45360037	     -3.99842728	      1.10747425	      5.31495239	     -4.56473065	     -7.58065657	     -5.36415989	      5.43027199	     -8.07268613	     15.91044839	      0.84801594	      0.27768971	      6.12198199	      5.60637476	     -7.58065657	    -32.64047122	     -0.97828369	      7.38566790	     -1.93313458	    -23.21787305	     -4.12265042	     72.55409705	     90.00000001	      0.00000000	      0.00000000	     -2.31068917	    -19.48165733	      3.92597844	     55.92100625	     90.00000001	      0.00000000	      0.00000000
      1.23000000	     14.46323765	      0.68465136	     -7.40339773	      0.39060571	      0.98781395	     -0.09722113	     -4.36914848	     -2.54131833	     -5.02553128	     62.69764333	     -3.92227150	      1.09428031	      6.41372724	     -4.32051194	     -7.57745872	     -7.13393623	      5.50431909	     -7.67929873	     14.35805932	      0.91620339	      0.25059541	      6.19171132	      6.57153264	     -7.57745872	    -32.80034885	     -0.71164600	      7.12594413	     -2.27521255	    -23.23103753	     -4.53067430	     72.71059110	     90.00000001	      0.00000000	      0.00000000	     -1.75294896	    -19.69626694	      3.77746316	     56.79188037	     90.00000001	      0.00000000	      0.00000000
      1.24000000	     14.14710097	      0.55677431	     -7.04558105	      0.40338361	      0.98874191	     -0.09747531	     -2.50700817	     -2.24965053	     -5.10809986	     61.81801854	     -3.70310737	      1.07892796	      7.12528350	     -4.45099725	     -7.57634475	     -8.08694653	      5.44730132	     -7.79024393	     13.43189106	      0.76421986	      0.23443072	      6.39991999	      7.04369038	     -7.57634475	    -32.48630482	     -0.30028995	      6.87033380	     -2.56417471	    -23.34320118	     -4.76583236	     72.72769399	     90.00000001	      0.00000000	      0.00000000	     -1.19777686	    -19.89179541	      3.64860130	     57.54260865	     90.00000001	      0.00000000	      0.00000000
      1.25000000	     14.26011698	      0.47033236	     -6.74009627	      0.41637082	      0.99002325	     -0.09745327	     -1.27436227	     -2.10055622	     -4.82704176	     60.51300134	     -3.09196228	      1.05615111	      7.70819158	     -4.85513622	     -7.57403953	     -9.74182554	      5.43594800	     -7.63055269	     12.01908918	      0.80713603	      0.20977268	      6.63546244	      8.29765407	     -7.57403953	    -32.61523072	     -0.04371214	      6.66791268	     -2.87954447	    -23.33590740	     -5.23554942	     72.84997855	     90.00000001	      0.00000000	      0.00000000	     -0.59021315	    -20.14097695	      3.58725691	     58.43708162	     90.00000001	      0.00000000	      0.00000000
      1.26000000	     13.94087398	      0.42659540	     -6.39061798	      0.42913952	      0.99025884	     -0.09758435	      0.46614240	     -1.92040040	     -4.68089526	     59.11852754	     -2.67350913	      1.03181295	      8.11984761	     -5.08487693	     -7.57297349	    -10.63083987	      5.44565153	     -7.79713595	     11.19386306	      0.66119006	      0.19536977	      6.92234386	      8.75441564	     -7.57297349	    -32.27907877	      0.24801340	      6.40625152	     -3.16872811	    -23.40411115	     -5.48061544	     72.85474723	     90.00000001	      0.00000000	      0.00000000	      0.00546775	    -20.35530253	      3.52673984	     59.21345357	     90.00000001	      0.00000000	      0.00000000
      1.27000000	     14.26163649	      0.19912518	     -6.15936585	      0.44219335	      0.99123894	     -0.09716685	      1.24054125	     -1.58688588	     -3.65812435	     57.20047942	     -1.53691055	      0.99833670	      7.96053730	     -6.68088194	     -7.56979558	    -12.55428024	      5.23983799	     -7.67663185	      9.76045075	      0.82221082	      0.17035200	      7.17726793	     10.01053701	     -7.56979558	    -32.63803796	      0.55096956	      6.38699810	     -3.51426130	    -23.39779560	     -6.02110888	     73.03258386	     90.00000001	      0.00000000	      0.00000000	      0.70532351	    -20.65890893	      3.67356703	     60.11972492	     90.00000001	      0.00000000	      0.00000000
      1.28000000	     13.88789414	      0.35380422	     -5.85814104	      0.45497923	      0.99059487	     -0.09719200	      2.96797511	     -1.67065932	     -3.51261314	     55.45994727	     -1.15346274	      0.96795868	      8.17089070	     -6.77036348	     -7.56898852	    -13.21337206	      5.40440305	     -7.89698461	      9.29660818	      0.76152893	      0.16225642	      7.53266213	     10.18302720	     -7.56898852	    -32.19624773	      0.60374092	      6.06701279	     -3.79352083	    -23.43826224	     -6.20078724	     72.99516216	     90.00000001	      0.00000000	      0.00000000	      1.34966292	    -20.90591134	      3.61417617	     60.78573751	     90.00000001	      0.00000000	      0.00000000
      1.29000000	     14.25311758	     -0.03698990	     -5.64907345	      0.46789360	      0.99107212	     -0.09637157	      3.47986021	     -1.11742619	     -1.88035198	     53.02665363	      0.37448015	      0.92548970	      7.40826202	     -9.48028900	     -7.56509531	    -15.27150947	      4.97101514	     -7.33614674	      7.70627790	      1.05165068	      0.13449992	      7.86675194	     10.97444439	     -7.56509531	    -32.66221185	      0.99650723	      6.19587340	     -4.08722284	    -23.34049344	     -6.90365160	     73.15806823	     90.00000001	      0.00000000	      0.00000000	      2.16196225	    -21.25847553	      3.97840165	     61.73863706	     90.00000001	      0.00000000	      0.00000000
      1.30000000	     14.30076880	     -0.06376803	     -5.37553330	      0.48077067	      0.99053319	     -0.09600694	      4.42739458	     -1.04549348	     -1.06987201	     50.64094395	      1.26030518	      0.88385121	      7.19488604	    -10.55934464	     -7.56226126	    -16.62302413	      4.94662330	     -7.07639880	      6.79654242	      1.09506842	      0.11862204	      8.25333799	     11.29608914	     -7.56226126	    -32.71801850	      1.12205585	      6.06056937	     -4.36960443	    -23.27923440	     -7.38611255	     73.21087307	     90.00000001	      0.00000000	      0.00000000	      2.96792339	    -21.56312206	      4.22474443	     62.49029358	     90.00000001	      0.00000000	      0.00000000
      1.31000000	     14.32782234	     -0.13151326	     -5.10367827	      0.49365675	      0.98967102	     -0.09536360	      5.30827290	     -0.88303549	     -0.37633929	     48.03099436	      1.93896096	      0.83829899	      6.75935015	    -11.61411026	     -7.55922613	    -17.92311600	      4.81527976	     -6.77943491	      5.98549381	      1.21583376	      0.10446657	      8.65295196	     11.44900508	     -7.55922613	    -32.75291827	      1.24746766	      5.95811952	     -4.66708365	    -23.14655165	     -7.84736511	     73.24379232	     90.00000001	      0.00000000	      0.00000000	      3.82006555	    -21.90003545	      4.54321194	     63.21366272	     90.00000001	      0.00000000	      0.00000000
      1.32000000	     14.36749850	     -0.13503344	     -4.83337039	      0.50646878	      0.98850723	     -0.09479836	      6.11550412	     -0.84069626	      0.02335472	     45.25987481	      2.39538215	      0.78993383	      6.51614338	    -12.12811442	     -7.55678531	    -19.16505823	      4.73920797	     -6.48844463	      5.30112515	      1.34376351	      0.09252209	      9.14917324	     11.68680006	     -7.55678531	    -32.81807935	      1.31858604	      5.83015788	     -4.90252135	    -23.02402702	     -8.35961917	     73.27642270	     90.00000001	      0.00000000	      0.00000000	      4.72248745	    -22.24309658	      4.94576724	     63.88603348	     90.00000001	      0.00000000	      0.00000000
      1.33000000	     14.38259357	     -0.11753075	     -4.55501180	      0.51929330	      0.98702639	     -0.09408186	      6.87405642	     -0.79840957	      0.14480242	     42.32917784	      2.56645415	      0.73878352	      6.20100626	    -12.26557337	     -7.55456916	    -20.30878174	      4.65736430	     -6.23298132	      4.77410039	      1.45534686	      0.08332377	      9.68595523	     11.88173357	     -7.55456916	    -32.85065761	      1.34554480	      5.69753238	     -5.16168354	    -22.84968298	     -8.85121478	     73.28457680	     90.00000001	      0.00000000	      0.00000000	      5.67402367	    -22.59751252	      5.41385750	     64.49381629	     90.00000001	      0.00000000	      0.00000000
      1.34000000	     14.16831715	      0.07837681	     -4.32007908	      0.53194725	      0.98491516	     -0.09340044	      7.90731968	     -0.97553970	      0.05082711	     39.41400451	      2.58637643	      0.68790415	      5.94432571	    -11.72501458	     -7.55333586	    -21.05038141	      4.78571663	     -5.99446283	      4.51181257	      1.46063027	      0.07874598	     10.38360300	     12.10428205	     -7.55333586	    -32.64559134	      1.19260083	      5.47337697	     -5.33624886	    -22.64772173	     -9.27922033	     73.13029124	     90.00000001	      0.00000000	      0.00000000	      6.59315674	    -22.94523816	      5.82851486	     65.05676410	     90.00000001	      0.00000000	      0.00000000
      1.35000000	     13.74285379	      0.55841606	     -4.28672588	      0.54456992	      0.98206087	     -0.09259706	      9.32611444	     -1.40415373	     -0.40854929	     36.79598819	      2.18966187	      0.64221115	      5.85248978	    -11.20834852	     -7.55265380	    -21.40283605	      5.23018081	     -6.19069492	      4.54564510	      1.50972244	      0.07933647	     10.82828263	     12.11903125	     -7.55265380	    -32.18367794	      0.69344439	      5.24446570	     -5.58136095	    -22.53078866	     -9.39678591	     73.13955380	     90.00000001	      0.00000000	      0.00000000	      7.47141996	    -23.15682977	      5.98706005	     65.57065046	     90.00000001	      0.00000000	      0.00000000
      1.36000000	     14.18813101	      0.27101623	     -3.77353949	      0.55755596	      0.98080693	     -0.09168140	      9.07466771	     -1.00935063	     -1.42043227	     32.92412057	      1.64721861	      0.57463431	      4.96043173	     -9.70245525	     -7.55102071	    -23.01444674	      4.66755113	     -5.53514410	      4.09182928	      1.74638608	      0.07141589	     11.64505536	     12.53426352	     -7.55102071	    -32.72845005	      1.06068897	      5.22283434	     -5.85540261	    -22.17849051	    -10.30647366	     73.16428374	     90.00000001	      0.00000000	      0.00000000	      8.77752894	    -23.63240040	      7.26482773	     65.90515239	     90.00000001	      0.00000000	      0.00000000
      1.37000000	     14.12798477	      0.46119911	     -3.52750004	      0.57040039	      0.97837174	     -0.09078716	      9.68689676	     -1.10734568	     -2.72350894	     29.66442164	      0.85993895	      0.51774183	      4.40166275	     -7.59185510	     -7.54888753	    -23.83446198	      4.72559986	     -5.27868706	      4.04557776	      1.80079924	      0.07060865	     12.18890697	     12.63273940	     -7.54888753	    -32.69312589	      0.89945072	      5.08633154	     -6.15347591	    -21.95851231	    -10.75127967	     73.21993691	     90.00000001	      0.00000000	      0.00000000	      9.86627635	    -23.92993125	      8.01280761	     66.28390029	     90.00000001	      0.00000000	      0.00000000
      1.38000000	     13.59068372	      1.03909856	     -3.49380375	      0.58283934	      0.97501851	     -0.08987610	     10.97828926	     -1.62327893	     -3.48181516	     26.73162691	      0.39908882	      0.46655490	      3.60210818	     -6.06463789	     -7.54797424	    -23.91688892	      5.33428081	     -5.08773942	      4.34254305	      1.59287251	      0.07579167	     12.84556058	     12.73455339	     -7.54797424	    -32.17516905	      0.30319063	      4.79900546	     -6.24864810	    -21.70243175	    -10.94540274	     73.09099718	     90.00000001	      0.00000000	      0.00000000	     10.79613360	    -24.17736459	      8.43998562	     66.63552779	     90.00000001	      0.00000000	      0.00000000
      1.39000000	     13.78851301	      1.24156778	     -2.99048526	      0.59631085	      0.97269559	     -0.08921484	     11.21338591	     -1.88029830	     -6.51854846	     23.66768665	     -0.73344983	      0.41307906	      3.64264563	     -0.64407686	     -7.54391197	    -25.04328937	      5.21399883	     -4.56491095	      4.32870606	      1.84397590	      0.07555017	     13.41180219	     12.92756128	     -7.54391197	    -32.35462391	      0.23390530	      4.53762008	     -6.68197362	    -21.42188632	    -11.54215514	     73.09614023	     90.00000001	      0.00000000	      0.00000000	     11.97068914	    -24.51634881	      9.56434899	     66.86355799	     90.00000001	      0.00000000	      0.00000000
      1.40000000	     13.60111530	      1.64183858	     -2.65343304	      0.60942403	      0.96980084	     -0.08845075	     11.90602666	     -2.32240307	     -8.53964511	     20.82228693	     -1.27270596	      0.36341746	      2.91716087	      2.75561938	     -7.53994139	    -25.56551727	      5.41099147	     -4.19472716	      4.62947784	      1.87047089	      0.08079963	     14.03712684	     13.10465885	     -7.53994139	    -32.16551065	     -0.07137899	      4.22075675	     -6.95355785	    -21.13660891	    -11.91823023	     72.98962024	     90.00000001	      0.00000000	      0.00000000	     13.00813238	    -24.77848692	     10.44289383	     67.06827468	     90.00000001	      0.00000000	      0.00000000
      1.41000000	     13.14661620	      2.21371431	     -2.45580344	      0.62234775	      0.96655411	     -0.08761504	     12.82463535	     -2.94624416	     -9.40765093	     18.10088034	     -1.23711280	      0.31591996	      1.63332300	      4.23922346	     -7.53917885	    -25.70001115	      5.89393336	     -3.87986960	      5.08855437	      1.71363530	      0.08881203	     14.60410150	     13.26511700	     -7.53917885	    -31.72332184	     -0.59067304	      3.86631855	     -7.12475589	    -20.88048387	    -12.09872565	     72.80127527	     90.00000001	      0.00000000	      0.00000000	     13.90116849	    -24.95631339	     11.03976209	     67.28995992	     90.00000001	      0.00000000	      0.00000000
      1.42000000	     13.32150881	      2.35896756	     -1.90269233	      0.63628481	      0.96427794	     -0.08682511	     12.90127777	     -3.20771947	    -12.17698452	     15.61195072	     -1.63141584	      0.27247994	      1.10280093	      8.58929248	     -7.53580199	    -26.66599390	      5.62744161	     -3.67908746	      5.43490598	      1.91448331	      0.09485700	     15.13590442	     13.80104738	     -7.53580199	    -31.86672931	     -0.55153220	      3.56280495	     -7.53507942	    -20.58533457	    -12.54865495	     72.73416986	     90.00000001	      0.00000000	      0.00000000	     14.89713287	    -25.19362761	     12.14056628	     67.40603344	     90.00000001	      0.00000000	      0.00000000
      1.43000000	     13.21231340	      2.62510191	     -1.46149235	      0.65002102	      0.96173830	     -0.08597396	     13.14371300	     -3.55347715	    -13.41614842	     13.21327748	     -1.47051281	      0.23061520	     -0.01005780	     10.16540557	     -7.53438155	    -27.23476134	      5.56509197	     -3.44797885	      5.92328937	      1.97314637	      0.10338090	     15.57734506	     14.09142177	     -7.53438155	    -31.74527797	     -0.65733032	      3.22947186	     -7.84093784	    -20.32483154	    -12.81620858	     72.58503170	     90.00000001	      0.00000000	      0.00000000	     15.73107411	    -25.33809270	     12.96888394	     67.54321678	     90.00000001	      0.00000000	      0.00000000
      1.44000000	     13.11933762	      2.84830220	     -0.97709981	      0.66405633	      0.95931108	     -0.08512090	     13.30895780	     -3.86973560	    -14.60854051	     11.19900433	     -1.26417154	      0.19545950	     -0.85419671	     11.54207895	     -7.53304241	    -27.79905417	      5.42415671	     -3.34186297	      6.48575017	      1.99674310	      0.11319769	     15.97342843	     14.58908389	     -7.53304241	    -31.61774761	     -0.69257000	      2.87086689	     -8.13170338	    -20.06423701	    -13.04838759	     72.39435106	     90.00000001	      0.00000000	      0.00000000	     16.45628668	    -25.46044537	     13.74559236	     67.67301996	     90.00000001	      0.00000000	      0.00000000
      1.45000000	     12.87109416	      3.22119981	     -0.50116164	      0.67814438	      0.95678913	     -0.08448327	     13.62061321	     -4.37350070	    -15.29803526	      9.62405509	     -0.95205004	      0.16797145	     -1.38316182	     12.20846635	     -7.53251781	    -28.17589977	      5.46753086	     -3.11047413	      7.08151730	      1.93787714	      0.12359579	     16.17940723	     14.93989993	     -7.53251781	    -31.33822212	     -0.84387808	      2.40725821	     -8.36955271	    -19.85764384	    -13.17478416	     72.13048156	     90.00000001	      0.00000000	      0.00000000	     17.02057566	    -25.50550401	     14.28233954	     67.83172775	     90.00000001	      0.00000000	      0.00000000
      1.46000000	     12.60835371	      3.46457209	     -0.33685183	      0.69273795	      0.95421249	     -0.08316556	     14.14723822	     -4.60016712	    -15.83277216	      8.93524605	     -0.86381425	      0.15594946	     -1.41092951	     12.22902396	     -7.53236072	    -28.65998113	      5.42105827	     -3.14086461	      7.47544785	      2.05343279	      0.13047118	     16.20421235	     15.04749741	     -7.53236072	    -30.98060860	     -1.01703238	      2.29006739	     -8.74212716	    -19.70532064	    -13.14675833	     71.91518937	     90.00000001	      0.00000000	      0.00000000	     17.33406559	    -25.38556467	     14.44961676	     68.05009110	     90.00000001	      0.00000000	      0.00000000
      1.47000000	     12.52560225	      3.57959201	      0.63478881	      0.70738119	      0.95242571	     -0.08293490	     13.90121579	     -4.89126242	    -16.73803415	      7.77924895	     -0.66147562	      0.13577351	     -1.97721438	     12.63842284	     -7.53181611	    -28.98719006	      4.90392280	     -2.97277419	      8.62039570	      1.94943186	      0.15045429	     16.44153793	     15.94509825	     -7.53181611	    -30.85018042	     -0.67435911	      1.56017610	     -8.92466177	    -19.35151063	    -13.48383137	     71.56424036	     90.00000001	      0.00000000	      0.00000000	     17.79754869	    -25.54927656	     15.44072624	     68.12191828	     90.00000001	      0.00000000	      0.00000000
      1.48000000	     12.30215403	      3.62979545	      1.22760943	      0.72237083	      0.95035463	     -0.08212472	     14.16251092	     -5.00552693	    -17.42740214	      7.79090597	     -0.70083340	      0.13597696	     -1.98304235	     12.32972900	     -7.53122129	    -29.19572054	      4.41438320	     -3.38832195	      9.71854975	      1.93259734	      0.16962069	     16.56343905	     17.02715212	     -7.53122129	    -30.53109844	     -0.43256715	      1.19087582	     -9.22003299	    -19.13557278	    -13.67534079	     71.26486197	     90.00000001	      0.00000000	      0.00000000	     17.99453141	    -25.53359822	     15.90117321	     68.28554800	     90.00000001	      0.00000000	      0.00000000
      1.49000000	     11.87754430	      3.73848867	      1.53214630	      0.73767764	      0.94815862	     -0.08110629	     14.59241505	     -5.07651451	    -17.19911258	      8.01356577	     -0.80952361	      0.13986311	     -2.05103758	     12.28708093	     -7.53110139	    -29.39899703	      4.19258482	     -3.31219650	     10.32578177	      1.86932497	      0.18021889	     16.45037158	     17.15267116	     -7.53110139	    -29.95106138	     -0.33978268	      1.02035216	     -9.60167574	    -18.99578246	    -13.63801067	     71.07859229	     90.00000001	      0.00000000	      0.00000000	     17.89572584	    -25.28295145	     15.99838120	     68.40909506	     90.00000001	      0.00000000	      0.00000000
      1.50000000	     11.84324031	      3.51410005	      2.12494234	      0.75326437	      0.94650189	     -0.08025899	     14.74583876	     -4.95121088	    -17.92041389	      9.22100922	     -0.91690290	      0.16093697	     -1.99706564	     11.08180213	     -7.52911569	    -29.37174938	      3.36004309	     -5.63139816	     12.33269379	      1.38278859	      0.21524611	     17.02749168	     21.99006944	     -7.52911569	    -29.77294112	      0.22247276	      0.75567604	     -9.85910163	    -18.93366627	    -13.81901081	     70.80802632	     90.00000001	      0.00000000	      0.00000000	     17.78050940	    -25.22064229	     16.27907544	     68.74143484	     90.00000001	      0.00000000	      0.00000000
