TVC20_3_JMP_08_wrist_axis_personalization_task_1_initialErrors.sto
version=1
nRows=121
nColumns=28
inDegrees=no
endheader
time	R_Asis	L_Asis	R_Psis	L_Psis	Sacral	R_Thigh_Lateral	R_Knee_Lateral	R_Shank_Lateral	R_Ankle_Lateral	R_Heel	R_Toe	L_Thigh_Lateral	L_Knee_Lateral	L_Shank_Lateral	L_Ankle_Lateral	L_Heel	L_Toe	R_Shoulder	L_Shoulder	C7	J_Notch	Thoracic	Sternum	R_Elbow	L_Elbow	R_Wrist	L_Wrist
0.30000000	0.00391424	0.00239007	0.00244199	0.00340442	0.00242416	0.00823366	0.00750903	0.00748014	0.00187072	0.00280080	0.00180827	0.00366076	0.00515077	0.00420409	0.00206478	0.00215716	0.00141579	0.00204386	0.00143336	0.00156126	0.00076341	0.00076021	0.00265836	0.00167772	0.00041005	0.00041837	0.00018418
0.31000000	0.00355124	0.00235185	0.00227751	0.00335265	0.00225894	0.00855963	0.00695885	0.00748394	0.00171574	0.00270609	0.00169599	0.00350691	0.00542454	0.00428681	0.00189025	0.00210078	0.00148001	0.00215052	0.00166972	0.00154786	0.00082989	0.00086088	0.00296708	0.00175802	0.00061674	0.00043530	0.00033175
0.32000000	0.00327419	0.00232810	0.00204038	0.00321336	0.00201340	0.00838479	0.00639236	0.00721781	0.00147000	0.00249154	0.00141337	0.00335279	0.00567895	0.00438865	0.00172155	0.00200126	0.00152345	0.00225940	0.00194066	0.00154805	0.00091342	0.00097966	0.00333340	0.00182954	0.00084117	0.00045020	0.00047567
0.33000000	0.00412471	0.00228323	0.00154326	0.00245429	0.00129722	0.00776441	0.00552536	0.00702651	0.00112586	0.00222918	0.00109266	0.00337428	0.00592952	0.00443585	0.00153703	0.00187094	0.00162021	0.00251555	0.00200151	0.00146485	0.00115536	0.00112682	0.00384384	0.00212746	0.00108583	0.00044249	0.00047652
0.34000000	0.00323034	0.00234251	0.00144198	0.00272796	0.00133754	0.00693670	0.00499513	0.00544952	0.00064480	0.00162070	0.00081446	0.00332159	0.00602856	0.00456374	0.00143834	0.00178841	0.00154440	0.00252982	0.00259884	0.00161422	0.00114305	0.00126819	0.00412873	0.00199228	0.00134253	0.00049401	0.00071634
0.35000000	0.00351022	0.00247900	0.00120573	0.00226968	0.00080375	0.00592068	0.00430322	0.00430059	0.00043731	0.00111126	0.00019470	0.00344537	0.00624151	0.00456965	0.00131340	0.00159345	0.00156702	0.00272959	0.00297161	0.00169155	0.00129573	0.00139224	0.00455584	0.00219275	0.00153458	0.00047511	0.00082988
0.36000000	0.00378546	0.00266556	0.00105081	0.00213556	0.00062505	0.00542147	0.00307848	0.00274284	0.00061821	0.00071500	0.00045173	0.00371123	0.00614980	0.00464905	0.00131031	0.00148045	0.00154436	0.00291678	0.00339842	0.00184618	0.00143315	0.00151546	0.00501019	0.00220302	0.00181092	0.00055960	0.00094379
0.37000000	0.00380102	0.00278822	0.00127718	0.00199690	0.00060764	0.00550514	0.00237585	0.00163821	0.00109660	0.00081524	0.00046580	0.00396662	0.00632081	0.00465946	0.00127823	0.00135459	0.00151094	0.00316353	0.00380708	0.00203885	0.00160056	0.00162148	0.00543723	0.00234103	0.00196543	0.00063609	0.00104785
0.38000000	0.00421424	0.00304989	0.00153513	0.00199918	0.00095494	0.00576299	0.00150731	0.00165613	0.00166779	0.00135220	0.00067355	0.00426843	0.00624656	0.00470953	0.00137013	0.00132927	0.00141768	0.00344744	0.00420161	0.00223342	0.00177756	0.00172289	0.00590214	0.00251047	0.00216288	0.00067479	0.00114731
0.39000000	0.00416183	0.00318598	0.00208821	0.00219013	0.00145962	0.00648525	0.00150751	0.00214410	0.00196709	0.00176817	0.00073751	0.00454812	0.00643305	0.00473749	0.00139431	0.00128063	0.00135386	0.00371103	0.00450252	0.00244752	0.00198705	0.00189137	0.00635720	0.00272190	0.00226513	0.00075723	0.00120019
0.40000000	0.00447013	0.00344021	0.00267807	0.00247050	0.00204807	0.00705166	0.00197615	0.00250680	0.00222320	0.00195967	0.00064265	0.00482224	0.00652401	0.00474190	0.00149631	0.00132462	0.00123760	0.00401645	0.00473140	0.00266019	0.00223845	0.00207413	0.00687002	0.00304010	0.00233227	0.00077583	0.00127986
0.41000000	0.00413010	0.00337535	0.00311427	0.00281792	0.00240087	0.00702727	0.00261588	0.00320505	0.00249169	0.00241383	0.00051070	0.00507280	0.00709371	0.00484036	0.00153919	0.00143291	0.00108487	0.00442645	0.00510690	0.00299258	0.00242292	0.00209880	0.00716606	0.00325411	0.00237663	0.00095872	0.00123325
0.42000000	0.00457882	0.00353862	0.00364608	0.00315259	0.00292698	0.00716249	0.00301536	0.00334839	0.00254981	0.00238326	0.00044754	0.00543523	0.00715739	0.00490452	0.00165071	0.00146118	0.00115999	0.00477024	0.00507841	0.00320977	0.00279722	0.00237369	0.00778553	0.00371260	0.00235546	0.00102490	0.00130626
0.43000000	0.00454835	0.00361455	0.00413646	0.00345828	0.00333759	0.00711375	0.00316693	0.00346383	0.00260403	0.00234087	0.00040977	0.00588598	0.00764528	0.00489043	0.00171443	0.00148337	0.00127096	0.00522773	0.00516292	0.00350461	0.00307168	0.00254085	0.00816675	0.00417252	0.00230652	0.00110828	0.00132362
0.44000000	0.00428798	0.00359840	0.00452968	0.00371066	0.00357667	0.00686874	0.00318386	0.00330149	0.00256754	0.00222838	0.00033130	0.00606771	0.00887663	0.00518271	0.00199080	0.00171582	0.00095256	0.00563358	0.00529791	0.00383672	0.00328856	0.00257295	0.00838544	0.00442322	0.00218397	0.00137612	0.00134826
0.45000000	0.00494706	0.00375572	0.00499055	0.00401707	0.00399007	0.00668788	0.00296745	0.00308192	0.00250049	0.00241219	0.00070137	0.00668288	0.00874251	0.00527141	0.00199854	0.00180039	0.00180383	0.00615306	0.00508388	0.00424525	0.00375805	0.00281246	0.00880474	0.00489938	0.00196348	0.00195885	0.00129233
0.46000000	0.00509916	0.00418567	0.00516119	0.00419015	0.00414479	0.00650420	0.00322411	0.00293492	0.00281527	0.00155416	0.00035591	0.00705980	0.00988859	0.00517720	0.00262394	0.00181682	0.00104786	0.00641611	0.00497919	0.00435400	0.00386778	0.00293027	0.00900866	0.00530656	0.00206250	0.00167135	0.00130182
0.47000000	0.00547498	0.00463692	0.00553491	0.00442475	0.00445255	0.00660660	0.00269844	0.00253732	0.00271339	0.00239868	0.00150314	0.00788561	0.00995035	0.00484037	0.00281752	0.00174644	0.00144696	0.00684848	0.00470160	0.00474286	0.00424346	0.00317190	0.00920195	0.00575034	0.00177638	0.00192616	0.00129908
0.48000000	0.00579175	0.00542776	0.00565833	0.00440699	0.00449190	0.00644122	0.00280730	0.00287830	0.00281229	0.00190437	0.00155134	0.00835912	0.01034016	0.00459178	0.00325902	0.00147626	0.00194897	0.00723705	0.00458317	0.00482635	0.00430629	0.00322976	0.00920251	0.00630732	0.00181782	0.00175324	0.00139316
0.49000000	0.00632460	0.00593882	0.00553919	0.00444051	0.00440450	0.00629660	0.00301735	0.00367177	0.00298904	0.00213935	0.00138564	0.00870131	0.01019496	0.00461231	0.00380092	0.00172948	0.00189026	0.00727701	0.00413382	0.00491485	0.00452240	0.00326482	0.00929194	0.00641368	0.00190732	0.00205514	0.00115715
0.50000000	0.00622714	0.00672612	0.00552923	0.00441502	0.00431631	0.00565791	0.00268902	0.00433763	0.00276217	0.00256631	0.00162259	0.00873772	0.01024060	0.00446664	0.00451879	0.00200703	0.00177174	0.00725761	0.00381965	0.00487074	0.00448988	0.00323307	0.00912077	0.00653541	0.00193431	0.00211070	0.00123226
0.51000000	0.00623681	0.00745836	0.00538814	0.00426720	0.00412723	0.00546435	0.00266936	0.00456709	0.00245833	0.00263409	0.00167758	0.00897400	0.00956571	0.00393289	0.00498110	0.00179951	0.00216922	0.00736269	0.00366980	0.00489556	0.00445643	0.00314165	0.00880384	0.00669235	0.00185508	0.00219367	0.00130258
0.52000000	0.00617391	0.00804152	0.00517309	0.00418577	0.00395357	0.00526408	0.00275255	0.00472429	0.00202555	0.00262661	0.00137690	0.00905005	0.00838621	0.00345260	0.00533698	0.00184295	0.00269537	0.00728992	0.00335115	0.00481737	0.00429328	0.00304414	0.00842133	0.00668961	0.00192754	0.00224447	0.00128582
0.53000000	0.00579043	0.00836419	0.00510331	0.00418908	0.00393472	0.00421343	0.00254583	0.00482237	0.00144918	0.00293610	0.00101614	0.00880448	0.00685445	0.00296908	0.00565233	0.00190833	0.00309732	0.00704779	0.00288968	0.00466378	0.00406921	0.00301840	0.00803744	0.00659212	0.00200677	0.00226387	0.00128134
0.54000000	0.00526806	0.00857524	0.00464355	0.00400870	0.00359481	0.00450292	0.00278335	0.00433259	0.00080648	0.00261743	0.00164866	0.00836342	0.00533181	0.00249867	0.00585190	0.00187822	0.00364378	0.00683541	0.00291812	0.00435678	0.00356380	0.00269309	0.00735177	0.00638501	0.00211866	0.00230868	0.00154010
0.55000000	0.00436045	0.00846845	0.00449075	0.00390876	0.00348182	0.00402613	0.00267481	0.00369141	0.00094476	0.00281970	0.00149332	0.00774511	0.00293040	0.00216247	0.00568147	0.00196486	0.00399345	0.00637724	0.00238949	0.00411430	0.00329361	0.00258698	0.00702555	0.00609460	0.00225283	0.00220525	0.00132010
0.56000000	0.00333315	0.00819600	0.00408714	0.00372846	0.00319121	0.00404702	0.00279565	0.00305286	0.00144621	0.00264846	0.00199415	0.00665867	0.00098807	0.00213882	0.00542903	0.00197330	0.00415838	0.00594790	0.00227353	0.00373916	0.00276448	0.00224821	0.00647510	0.00568672	0.00240251	0.00217139	0.00136039
0.57000000	0.00235780	0.00802626	0.00353552	0.00353911	0.00280468	0.00423778	0.00306944	0.00262183	0.00186367	0.00245194	0.00244270	0.00508589	0.00153595	0.00259678	0.00513302	0.00220110	0.00405680	0.00545458	0.00232405	0.00328696	0.00214065	0.00174268	0.00589522	0.00516058	0.00261046	0.00211418	0.00141866
0.58000000	0.00174147	0.00747875	0.00330341	0.00334768	0.00271704	0.00394337	0.00292621	0.00248917	0.00241824	0.00229797	0.00262023	0.00378052	0.00351731	0.00255566	0.00449794	0.00154828	0.00358942	0.00501594	0.00215839	0.00288400	0.00165360	0.00148959	0.00552771	0.00480499	0.00271892	0.00197987	0.00138917
0.59000000	0.00143119	0.00762170	0.00302775	0.00309707	0.00252157	0.00375377	0.00282778	0.00264969	0.00261990	0.00225432	0.00277731	0.00181140	0.00479386	0.00305562	0.00406216	0.00169423	0.00310084	0.00459566	0.00217108	0.00251025	0.00115758	0.00112261	0.00510692	0.00431902	0.00278380	0.00195051	0.00137530
0.60000000	0.00141917	0.00786810	0.00288754	0.00286227	0.00243365	0.00352368	0.00259246	0.00285898	0.00272392	0.00230654	0.00279551	0.00092721	0.00580038	0.00357350	0.00369773	0.00187917	0.00252794	0.00414082	0.00214458	0.00215506	0.00076117	0.00086397	0.00480032	0.00383729	0.00279407	0.00188475	0.00134715
0.61000000	0.00154644	0.00828730	0.00284678	0.00237113	0.00232480	0.00358802	0.00260884	0.00318788	0.00264241	0.00181834	0.00264617	0.00223825	0.00654834	0.00371108	0.00330232	0.00099085	0.00183034	0.00398387	0.00199810	0.00185387	0.00050024	0.00085058	0.00450024	0.00376043	0.00262478	0.00170520	0.00130258
0.62000000	0.00153960	0.00865042	0.00274675	0.00207289	0.00221472	0.00356957	0.00243102	0.00339374	0.00249135	0.00178551	0.00249346	0.00336136	0.00738826	0.00394968	0.00281709	0.00099074	0.00149822	0.00370364	0.00195703	0.00156910	0.00029269	0.00089717	0.00421627	0.00343765	0.00250595	0.00160680	0.00126652
0.63000000	0.00169732	0.00868500	0.00258601	0.00181584	0.00208774	0.00364730	0.00260453	0.00354762	0.00224017	0.00168631	0.00232496	0.00420511	0.00833768	0.00408984	0.00241436	0.00102929	0.00120852	0.00343835	0.00192766	0.00130652	0.00040431	0.00104923	0.00400606	0.00315255	0.00238673	0.00148497	0.00117976
0.64000000	0.00155331	0.00843117	0.00251354	0.00168462	0.00199776	0.00381271	0.00248472	0.00330200	0.00222433	0.00196669	0.00220019	0.00483239	0.00941246	0.00407021	0.00199400	0.00142969	0.00130924	0.00315844	0.00191273	0.00115452	0.00068808	0.00124688	0.00374407	0.00279605	0.00223835	0.00138292	0.00110437
0.65000000	0.00145445	0.00860792	0.00241273	0.00152832	0.00186016	0.00387359	0.00254224	0.00345603	0.00203341	0.00153182	0.00214402	0.00481260	0.00989339	0.00459023	0.00177236	0.00178713	0.00120477	0.00294290	0.00180936	0.00102397	0.00084037	0.00136794	0.00356175	0.00256073	0.00198883	0.00123364	0.00102058
0.66000000	0.00147795	0.00792400	0.00234643	0.00147116	0.00175116	0.00395866	0.00262868	0.00321213	0.00203255	0.00157439	0.00206741	0.00492409	0.01084753	0.00501552	0.00170488	0.00220868	0.00128448	0.00273730	0.00173244	0.00095519	0.00103733	0.00149098	0.00332356	0.00230947	0.00178094	0.00111814	0.00092124
0.67000000	0.00155723	0.00750667	0.00226300	0.00138056	0.00160187	0.00406774	0.00265435	0.00319492	0.00198863	0.00137595	0.00210296	0.00479645	0.01140624	0.00600979	0.00181866	0.00258360	0.00125039	0.00253907	0.00161852	0.00091903	0.00117113	0.00154589	0.00311435	0.00209396	0.00152799	0.00093423	0.00085594
0.68000000	0.00182189	0.00712492	0.00215094	0.00125911	0.00142205	0.00418911	0.00252835	0.00323545	0.00209037	0.00128035	0.00205303	0.00474639	0.01179687	0.00731184	0.00212797	0.00287140	0.00117624	0.00236157	0.00146918	0.00086843	0.00126665	0.00152862	0.00289778	0.00188620	0.00132111	0.00084086	0.00074749
0.69000000	0.00182916	0.00634160	0.00203714	0.00127465	0.00122350	0.00433490	0.00296735	0.00315908	0.00206689	0.00129329	0.00201272	0.00496177	0.01231450	0.00875073	0.00246646	0.00305536	0.00098131	0.00227679	0.00129573	0.00076493	0.00125353	0.00144723	0.00271868	0.00176794	0.00104198	0.00070204	0.00056080
0.70000000	0.00182779	0.00588961	0.00194890	0.00128081	0.00104465	0.00447554	0.00323073	0.00332066	0.00200531	0.00124449	0.00202224	0.00522599	0.01253861	0.01027998	0.00279935	0.00315368	0.00073643	0.00212732	0.00115575	0.00070178	0.00128400	0.00134504	0.00248794	0.00160750	0.00080507	0.00053702	0.00045466
0.71000000	0.00239192	0.00564089	0.00204113	0.00112259	0.00100382	0.00454895	0.00275002	0.00369765	0.00211536	0.00119169	0.00190572	0.00582820	0.01266100	0.01121868	0.00316791	0.00306531	0.00099128	0.00174446	0.00105126	0.00081340	0.00144322	0.00126498	0.00228803	0.00120647	0.00067834	0.00034051	0.00035713
0.72000000	0.00210214	0.00548122	0.00195580	0.00124190	0.00086701	0.00475798	0.00318503	0.00388972	0.00197990	0.00120786	0.00183092	0.00615190	0.01259318	0.01243929	0.00338336	0.00312297	0.00080064	0.00158677	0.00091534	0.00069916	0.00138848	0.00105496	0.00202771	0.00104425	0.00038271	0.00019241	0.00027081
0.73000000	0.00140557	0.00536249	0.00172085	0.00151646	0.00063876	0.00501578	0.00387884	0.00422190	0.00169721	0.00131590	0.00177776	0.00654305	0.01247154	0.01335091	0.00346404	0.00305371	0.00038828	0.00153358	0.00071570	0.00057354	0.00130881	0.00081631	0.00184693	0.00107235	0.00040468	0.00025987	0.00018481
0.74000000	0.00216575	0.00523355	0.00190065	0.00131206	0.00062712	0.00514184	0.00342869	0.00488030	0.00170072	0.00123937	0.00157257	0.00685523	0.01222769	0.01353770	0.00353042	0.00303822	0.00062168	0.00100342	0.00076147	0.00069672	0.00146087	0.00081330	0.00168190	0.00051211	0.00013193	0.00016490	0.00008542
0.75000000	0.00194986	0.00522176	0.00178839	0.00152623	0.00051090	0.00544426	0.00387715	0.00495677	0.00148751	0.00135590	0.00152000	0.00723929	0.01188134	0.01355252	0.00369912	0.00313177	0.00071995	0.00077269	0.00079075	0.00065482	0.00139798	0.00073165	0.00148249	0.00040263	0.00018409	0.00027379	0.00011319
0.76000000	0.00219009	0.00508390	0.00179278	0.00157180	0.00041366	0.00556526	0.00391872	0.00536968	0.00140222	0.00146016	0.00140298	0.00755530	0.01142935	0.01332816	0.00368006	0.00317039	0.00082840	0.00044242	0.00080750	0.00072451	0.00145022	0.00083929	0.00148165	0.00041485	0.00030188	0.00048267	0.00013726
0.77000000	0.00235478	0.00495600	0.00174308	0.00170802	0.00031944	0.00570796	0.00411546	0.00557140	0.00129469	0.00152083	0.00135483	0.00790254	0.01083638	0.01300264	0.00371412	0.00330988	0.00092960	0.00036430	0.00083536	0.00078297	0.00147369	0.00095976	0.00153738	0.00065190	0.00036253	0.00070334	0.00025097
0.78000000	0.00255732	0.00477586	0.00167278	0.00187397	0.00031899	0.00578889	0.00422943	0.00566024	0.00130589	0.00161224	0.00132897	0.00849390	0.01022218	0.01260724	0.00363652	0.00338177	0.00111193	0.00063661	0.00091387	0.00084855	0.00147909	0.00113598	0.00163351	0.00105126	0.00053898	0.00075880	0.00026975
0.79000000	0.00261978	0.00488272	0.00154796	0.00217946	0.00050935	0.00590114	0.00451285	0.00561456	0.00123722	0.00165826	0.00136329	0.00913579	0.00936875	0.01233206	0.00367561	0.00356324	0.00149852	0.00100038	0.00108375	0.00092029	0.00135085	0.00128709	0.00169868	0.00139030	0.00072367	0.00081706	0.00038936
0.80000000	0.00302047	0.00467001	0.00158972	0.00233006	0.00065275	0.00587976	0.00448501	0.00576786	0.00124057	0.00165925	0.00136151	0.00972683	0.00869196	0.01211165	0.00345051	0.00359929	0.00163950	0.00150220	0.00114613	0.00104719	0.00138285	0.00146158	0.00194626	0.00177427	0.00069653	0.00101507	0.00049631
0.81000000	0.00316000	0.00449730	0.00160781	0.00255297	0.00082195	0.00591075	0.00457940	0.00575445	0.00122686	0.00160470	0.00141052	0.01044002	0.00801140	0.01195542	0.00330878	0.00364662	0.00175380	0.00198736	0.00125931	0.00118515	0.00138079	0.00159982	0.00220701	0.00214196	0.00073234	0.00113899	0.00055983
0.82000000	0.00322724	0.00410470	0.00165987	0.00283416	0.00099084	0.00593345	0.00474566	0.00563282	0.00113515	0.00143816	0.00137655	0.01090251	0.00776524	0.01174734	0.00309796	0.00364903	0.00107460	0.00241026	0.00141512	0.00128639	0.00137929	0.00166218	0.00249441	0.00248573	0.00052820	0.00114807	0.00082975
0.83000000	0.00330606	0.00411702	0.00141610	0.00309936	0.00117261	0.00591697	0.00496559	0.00564567	0.00118249	0.00140588	0.00143319	0.01141866	0.00694083	0.01155049	0.00299886	0.00371618	0.00165301	0.00291719	0.00169536	0.00141487	0.00131304	0.00174240	0.00283567	0.00281009	0.00085183	0.00125003	0.00068471
0.84000000	0.00332046	0.00388262	0.00149244	0.00335995	0.00134482	0.00587544	0.00525766	0.00569648	0.00115471	0.00131587	0.00144145	0.01137733	0.00668259	0.01079875	0.00288843	0.00359896	0.00136143	0.00344798	0.00188670	0.00156878	0.00131077	0.00179189	0.00316742	0.00319152	0.00076841	0.00126650	0.00078571
0.85000000	0.00335983	0.00365706	0.00133360	0.00363481	0.00154598	0.00583495	0.00572839	0.00569270	0.00114322	0.00123962	0.00144520	0.01078807	0.00627353	0.00993539	0.00278557	0.00343677	0.00122765	0.00397581	0.00219872	0.00169236	0.00130107	0.00179755	0.00364442	0.00352756	0.00083782	0.00129613	0.00088351
0.86000000	0.00344625	0.00347777	0.00114654	0.00391524	0.00181025	0.00581026	0.00621431	0.00578770	0.00111707	0.00111310	0.00150928	0.00970760	0.00577097	0.00877476	0.00270919	0.00309379	0.00116004	0.00452118	0.00256350	0.00181844	0.00127695	0.00180663	0.00413885	0.00385977	0.00102071	0.00130420	0.00090304
0.87000000	0.00363318	0.00331799	0.00103133	0.00417156	0.00210217	0.00580575	0.00675074	0.00582773	0.00109773	0.00108780	0.00146958	0.00832764	0.00530308	0.00728626	0.00272196	0.00257686	0.00102160	0.00506982	0.00292680	0.00196590	0.00133357	0.00180882	0.00475633	0.00415705	0.00117693	0.00132137	0.00094180
0.88000000	0.00381236	0.00330574	0.00109659	0.00443185	0.00243249	0.00586945	0.00719222	0.00590685	0.00109457	0.00112454	0.00142183	0.00704059	0.00480692	0.00559002	0.00287247	0.00191644	0.00098705	0.00563366	0.00332993	0.00213556	0.00137057	0.00184197	0.00533710	0.00445070	0.00134824	0.00128166	0.00098703
0.89000000	0.00408904	0.00357866	0.00129107	0.00465410	0.00274378	0.00594869	0.00755552	0.00596996	0.00110138	0.00128008	0.00128245	0.00620166	0.00415400	0.00394177	0.00310481	0.00123885	0.00095939	0.00622123	0.00376580	0.00227848	0.00142716	0.00191730	0.00602705	0.00474017	0.00158602	0.00127730	0.00112121
0.90000000	0.00449873	0.00462479	0.00191161	0.00505136	0.00338079	0.00619726	0.00786052	0.00601327	0.00118952	0.00159014	0.00120165	0.00613169	0.00337474	0.00296661	0.00315235	0.00089474	0.00081565	0.00658395	0.00415513	0.00233758	0.00162691	0.00182797	0.00691863	0.00490627	0.00189998	0.00115014	0.00133211
0.91000000	0.00450293	0.00448793	0.00193668	0.00520156	0.00346360	0.00646965	0.00840205	0.00593246	0.00103438	0.00156881	0.00127955	0.00675373	0.00266671	0.00142920	0.00364421	0.00148151	0.00079456	0.00715024	0.00467829	0.00257336	0.00166865	0.00201985	0.00749350	0.00506365	0.00220126	0.00121308	0.00133125
0.92000000	0.00466779	0.00536482	0.00231443	0.00544892	0.00380793	0.00685225	0.00890496	0.00597174	0.00103132	0.00183271	0.00112428	0.00731177	0.00124650	0.00106861	0.00392764	0.00213401	0.00085819	0.00752535	0.00510862	0.00265132	0.00180065	0.00210274	0.00826058	0.00517779	0.00263185	0.00121259	0.00151535
0.93000000	0.00462784	0.00579829	0.00265637	0.00586711	0.00423447	0.00734690	0.00939533	0.00578277	0.00103353	0.00200677	0.00122439	0.00809402	0.00100086	0.00172801	0.00389680	0.00263747	0.00075852	0.00774737	0.00569516	0.00269328	0.00197221	0.00199548	0.00896525	0.00514149	0.00319631	0.00118141	0.00165623
0.94000000	0.00457882	0.00644777	0.00313821	0.00634575	0.00474821	0.00793767	0.00990608	0.00558590	0.00099597	0.00210565	0.00135386	0.00859469	0.00131516	0.00254647	0.00367502	0.00266964	0.00099048	0.00784224	0.00611195	0.00273950	0.00224631	0.00182615	0.00966186	0.00499275	0.00374160	0.00120595	0.00190412
0.95000000	0.00409840	0.00633678	0.00317004	0.00668762	0.00493098	0.00827338	0.01126490	0.00594302	0.00126066	0.00230760	0.00100816	0.00850987	0.00151993	0.00275153	0.00371266	0.00302225	0.00107333	0.00796954	0.00654760	0.00284164	0.00236833	0.00185397	0.01010519	0.00488270	0.00417311	0.00118343	0.00210415
0.96000000	0.00371072	0.00688558	0.00361742	0.00723274	0.00545703	0.00898501	0.01162632	0.00564573	0.00135513	0.00228584	0.00132747	0.00833607	0.00196368	0.00311992	0.00329989	0.00246581	0.00106503	0.00781819	0.00692449	0.00283247	0.00266470	0.00160090	0.01065229	0.00461372	0.00476087	0.00121806	0.00231422
0.97000000	0.00345768	0.00733413	0.00397160	0.00772013	0.00590178	0.00956363	0.01187668	0.00532734	0.00145382	0.00217789	0.00171733	0.00782342	0.00217367	0.00307013	0.00290481	0.00175435	0.00084228	0.00765989	0.00738016	0.00277861	0.00287091	0.00138158	0.01108308	0.00437447	0.00534576	0.00135530	0.00258899
0.98000000	0.00289979	0.00748843	0.00414299	0.00811031	0.00618788	0.01014317	0.01217831	0.00516046	0.00174541	0.00214623	0.00199321	0.00708481	0.00228505	0.00293360	0.00257310	0.00088102	0.00077578	0.00742530	0.00775946	0.00279858	0.00302258	0.00130248	0.01129188	0.00408080	0.00581050	0.00143802	0.00283355
0.99000000	0.00215120	0.00679085	0.00365707	0.00818331	0.00594862	0.01025510	0.01326626	0.00575809	0.00255707	0.00214607	0.00124023	0.00615673	0.00231494	0.00229540	0.00240168	0.00055415	0.00104220	0.00718879	0.00768126	0.00286657	0.00309482	0.00157516	0.01126177	0.00390134	0.00586428	0.00115720	0.00296044
1.00000000	0.00216508	0.00685103	0.00366165	0.00842287	0.00606877	0.01072003	0.01292795	0.00530824	0.00288867	0.00181948	0.00191248	0.00561872	0.00220796	0.00230321	0.00221678	0.00109592	0.00165907	0.00680955	0.00775144	0.00289259	0.00325822	0.00165814	0.01125845	0.00355567	0.00615668	0.00122869	0.00300662
1.01000000	0.00260061	0.00683070	0.00346473	0.00841522	0.00596047	0.01109763	0.01236289	0.00469516	0.00328235	0.00147860	0.00242958	0.00518783	0.00213338	0.00278392	0.00198762	0.00202771	0.00207144	0.00649647	0.00778344	0.00288126	0.00325781	0.00180486	0.01110876	0.00333512	0.00615037	0.00116434	0.00324846
1.02000000	0.00316383	0.00667249	0.00317102	0.00827508	0.00573465	0.01129462	0.01144287	0.00399141	0.00373288	0.00109540	0.00316105	0.00495502	0.00215650	0.00318579	0.00174596	0.00272506	0.00229890	0.00621457	0.00763200	0.00290279	0.00325975	0.00195545	0.01084123	0.00306227	0.00606311	0.00123190	0.00328160
1.03000000	0.00379946	0.00617918	0.00275899	0.00802786	0.00538287	0.01134199	0.01017254	0.00338867	0.00414014	0.00098009	0.00393631	0.00472677	0.00240156	0.00354567	0.00151919	0.00302204	0.00212409	0.00586525	0.00742173	0.00276180	0.00308951	0.00218526	0.01037046	0.00294645	0.00586446	0.00119943	0.00339556
1.04000000	0.00437435	0.00549286	0.00223606	0.00762939	0.00489416	0.01116890	0.00854521	0.00293751	0.00443463	0.00129679	0.00462855	0.00456742	0.00279353	0.00362583	0.00113740	0.00317686	0.00183246	0.00560544	0.00710868	0.00266500	0.00287925	0.00235337	0.00985140	0.00283730	0.00556032	0.00119496	0.00334043
1.05000000	0.00460561	0.00476444	0.00178605	0.00708043	0.00435103	0.01074787	0.00676044	0.00274001	0.00459764	0.00192380	0.00512056	0.00481815	0.00323325	0.00349540	0.00058493	0.00330187	0.00208384	0.00537472	0.00667517	0.00254245	0.00253512	0.00248387	0.00922316	0.00275840	0.00506886	0.00134038	0.00327085
1.06000000	0.00477255	0.00337048	0.00161126	0.00696236	0.00413408	0.01007486	0.00442475	0.00264139	0.00416430	0.00208301	0.00516509	0.00404131	0.00293980	0.00340309	0.00061016	0.00369342	0.00155248	0.00468579	0.00615744	0.00234565	0.00238284	0.00256892	0.00878258	0.00261087	0.00464541	0.00106504	0.00324928
1.07000000	0.00483214	0.00210730	0.00133255	0.00627014	0.00340544	0.00902042	0.00249802	0.00370496	0.00386535	0.00241243	0.00505471	0.00480700	0.00357828	0.00321682	0.00111959	0.00365814	0.00171544	0.00456772	0.00560020	0.00231181	0.00196463	0.00266291	0.00798987	0.00256111	0.00399726	0.00106197	0.00304670
1.08000000	0.00452391	0.00162509	0.00134063	0.00581254	0.00296892	0.00760544	0.00140449	0.00433055	0.00324432	0.00242970	0.00426539	0.00489516	0.00337870	0.00324452	0.00195422	0.00381725	0.00216950	0.00421077	0.00513075	0.00214174	0.00164192	0.00263252	0.00740959	0.00250209	0.00356825	0.00100753	0.00291956
1.09000000	0.00438277	0.00221971	0.00159764	0.00528234	0.00250951	0.00610075	0.00275047	0.00502047	0.00270152	0.00238010	0.00335305	0.00497115	0.00343609	0.00332522	0.00248351	0.00373405	0.00250994	0.00394779	0.00453494	0.00206004	0.00130385	0.00263438	0.00681151	0.00245054	0.00303685	0.00101233	0.00270058
1.10000000	0.00471037	0.00286926	0.00187772	0.00490793	0.00216549	0.00465575	0.00394658	0.00551877	0.00252618	0.00231691	0.00237085	0.00496675	0.00324202	0.00307568	0.00277597	0.00337003	0.00276942	0.00378732	0.00406025	0.00207404	0.00102063	0.00262140	0.00618975	0.00239342	0.00259406	0.00089414	0.00249032
1.11000000	0.00468994	0.00288382	0.00184896	0.00453861	0.00198160	0.00333606	0.00519404	0.00574420	0.00271733	0.00232990	0.00132166	0.00449157	0.00296431	0.00270441	0.00282088	0.00312750	0.00265514	0.00354068	0.00368984	0.00202914	0.00082647	0.00253636	0.00577862	0.00231934	0.00229144	0.00080532	0.00234386
1.12000000	0.00516111	0.00306697	0.00207734	0.00424043	0.00185185	0.00248725	0.00622633	0.00593610	0.00303843	0.00215287	0.00127205	0.00318166	0.00207447	0.00237377	0.00284480	0.00320949	0.00255420	0.00331632	0.00325450	0.00207653	0.00065846	0.00249809	0.00532772	0.00228485	0.00188977	0.00075622	0.00220111
1.13000000	0.00563835	0.00214462	0.00166166	0.00420415	0.00193818	0.00192225	0.00670170	0.00570058	0.00346974	0.00237779	0.00063137	0.00333602	0.00248639	0.00196212	0.00250778	0.00211436	0.00229166	0.00307194	0.00314102	0.00197197	0.00060635	0.00232138	0.00507343	0.00204643	0.00196373	0.00065513	0.00206756
1.14000000	0.00599036	0.00183841	0.00169833	0.00392392	0.00185589	0.00191371	0.00744946	0.00556214	0.00375287	0.00243640	0.00091691	0.00319918	0.00240020	0.00223704	0.00229719	0.00166707	0.00197920	0.00291243	0.00287163	0.00204209	0.00057972	0.00220633	0.00481571	0.00195980	0.00173513	0.00053087	0.00195159
1.15000000	0.00553413	0.00170755	0.00173351	0.00348781	0.00178824	0.00229939	0.00885328	0.00527373	0.00389075	0.00254437	0.00111248	0.00342646	0.00239705	0.00206791	0.00215832	0.00193809	0.00197443	0.00277437	0.00272635	0.00211020	0.00062720	0.00200765	0.00459784	0.00192091	0.00156436	0.00048991	0.00183674
1.16000000	0.00595293	0.00156514	0.00177578	0.00330645	0.00171431	0.00245611	0.00919725	0.00558875	0.00392894	0.00273624	0.00100218	0.00332334	0.00234786	0.00224584	0.00210272	0.00156330	0.00185783	0.00260509	0.00266351	0.00212197	0.00062107	0.00182812	0.00440039	0.00175736	0.00155711	0.00032389	0.00173811
1.17000000	0.00535166	0.00123184	0.00163158	0.00284373	0.00156443	0.00282631	0.01010465	0.00604131	0.00380040	0.00301748	0.00090287	0.00309542	0.00261507	0.00199536	0.00198924	0.00147507	0.00191794	0.00249301	0.00270840	0.00212883	0.00064296	0.00157021	0.00431344	0.00164201	0.00160919	0.00030256	0.00166179
1.18000000	0.00542892	0.00123314	0.00175074	0.00248703	0.00142979	0.00289551	0.01038569	0.00705584	0.00349859	0.00334875	0.00090347	0.00276901	0.00251823	0.00203141	0.00212518	0.00109214	0.00189180	0.00233198	0.00267523	0.00218227	0.00066755	0.00140148	0.00421646	0.00148403	0.00160020	0.00022231	0.00153152
1.19000000	0.00507251	0.00136435	0.00182182	0.00205182	0.00132064	0.00312625	0.01082422	0.00806311	0.00316039	0.00358260	0.00091097	0.00268564	0.00240617	0.00193536	0.00221905	0.00096516	0.00198946	0.00219075	0.00272859	0.00219379	0.00067671	0.00122486	0.00412414	0.00135745	0.00160686	0.00015950	0.00148558
1.20000000	0.00471337	0.00148257	0.00188521	0.00167294	0.00131044	0.00340916	0.01117360	0.00905438	0.00272819	0.00373131	0.00092194	0.00265908	0.00229232	0.00188004	0.00231200	0.00094798	0.00199825	0.00204254	0.00277073	0.00221959	0.00069470	0.00108854	0.00402907	0.00118557	0.00161926	0.00013300	0.00138454
1.21000000	0.00432648	0.00080290	0.00154181	0.00138770	0.00118797	0.00356182	0.01137745	0.01012889	0.00231174	0.00394192	0.00085093	0.00284673	0.00279994	0.00186429	0.00218351	0.00102961	0.00186191	0.00189219	0.00298402	0.00216071	0.00062657	0.00099670	0.00388924	0.00094613	0.00175229	0.00008916	0.00133827
1.22000000	0.00425297	0.00127993	0.00188227	0.00120342	0.00138498	0.00377655	0.01143032	0.01059824	0.00183896	0.00399896	0.00099173	0.00259611	0.00232386	0.00244207	0.00229631	0.00089644	0.00182112	0.00172983	0.00287521	0.00221124	0.00072731	0.00111240	0.00369842	0.00085467	0.00164518	0.00008577	0.00115133
1.23000000	0.00439215	0.00079360	0.00174380	0.00113465	0.00133988	0.00396897	0.01127564	0.01101631	0.00151644	0.00413410	0.00118047	0.00286309	0.00265112	0.00266443	0.00213048	0.00105966	0.00166242	0.00154413	0.00293395	0.00217502	0.00067496	0.00131461	0.00346331	0.00060624	0.00167694	0.00007392	0.00107108
1.24000000	0.00442651	0.00097388	0.00188406	0.00116082	0.00143466	0.00406783	0.01116133	0.01097845	0.00123251	0.00410866	0.00124970	0.00310337	0.00254003	0.00340219	0.00211861	0.00107670	0.00149415	0.00141707	0.00285350	0.00220541	0.00073654	0.00149902	0.00323541	0.00048617	0.00158248	0.00007375	0.00089163
1.25000000	0.00469731	0.00096234	0.00192224	0.00121801	0.00143988	0.00434677	0.01092833	0.01071765	0.00114088	0.00409567	0.00154084	0.00349602	0.00280211	0.00367911	0.00197886	0.00118349	0.00144510	0.00126119	0.00278229	0.00219214	0.00069443	0.00175904	0.00294156	0.00027085	0.00152721	0.00011507	0.00081061
1.26000000	0.00489304	0.00111109	0.00203675	0.00135005	0.00149837	0.00460636	0.01064626	0.01031181	0.00116377	0.00409180	0.00190249	0.00366756	0.00293758	0.00398579	0.00192068	0.00120917	0.00145811	0.00115340	0.00263769	0.00219398	0.00069654	0.00197267	0.00265935	0.00011111	0.00141073	0.00008966	0.00070640
1.27000000	0.00477255	0.00122424	0.00218690	0.00163142	0.00164434	0.00486005	0.01037990	0.00989864	0.00131167	0.00404102	0.00199716	0.00356120	0.00305453	0.00430553	0.00198739	0.00125984	0.00144728	0.00104905	0.00245360	0.00216716	0.00077525	0.00211571	0.00243984	0.00013248	0.00126506	0.00009911	0.00045545
1.28000000	0.00523883	0.00149193	0.00225261	0.00161027	0.00155543	0.00589851	0.00987663	0.00955727	0.00162760	0.00407773	0.00259644	0.00333903	0.00349896	0.00426938	0.00190343	0.00132961	0.00153829	0.00106783	0.00243140	0.00209631	0.00064910	0.00223020	0.00201552	0.00016523	0.00124800	0.00015024	0.00047898
1.29000000	0.00439016	0.00121155	0.00241998	0.00228542	0.00194412	0.00607214	0.00971059	0.00949017	0.00181671	0.00397333	0.00202810	0.00311030	0.00346156	0.00446407	0.00204804	0.00133512	0.00161458	0.00088295	0.00193686	0.00206220	0.00084867	0.00236698	0.00197834	0.00013550	0.00100751	0.00005076	0.00013959
1.30000000	0.00430043	0.00117232	0.00246585	0.00246037	0.00198109	0.00695337	0.00922852	0.00973034	0.00203931	0.00407087	0.00194086	0.00301756	0.00372699	0.00423607	0.00198795	0.00126273	0.00178744	0.00097774	0.00169539	0.00198287	0.00078632	0.00246477	0.00162541	0.00026189	0.00090712	0.00007545	0.00006626
1.31000000	0.00415973	0.00118907	0.00267114	0.00286231	0.00225223	0.00815106	0.00873411	0.00988438	0.00216423	0.00410164	0.00232488	0.00288125	0.00389835	0.00426425	0.00206032	0.00121718	0.00185131	0.00096442	0.00134452	0.00185834	0.00081958	0.00253565	0.00140932	0.00029073	0.00073484	0.00010836	0.00017495
1.32000000	0.00434534	0.00142729	0.00270990	0.00287685	0.00221631	0.00947785	0.00806824	0.01027153	0.00224833	0.00418373	0.00281144	0.00281505	0.00420525	0.00420255	0.00199990	0.00110769	0.00195668	0.00113496	0.00114107	0.00172964	0.00074674	0.00248502	0.00112085	0.00050768	0.00067264	0.00008450	0.00018445
1.33000000	0.00385002	0.00139897	0.00274261	0.00329071	0.00239094	0.01041376	0.00784144	0.01029687	0.00229932	0.00404978	0.00246289	0.00274106	0.00438201	0.00434139	0.00204090	0.00104794	0.00190102	0.00108939	0.00083609	0.00151133	0.00079119	0.00242788	0.00108760	0.00043466	0.00055108	0.00022017	0.00029633
1.34000000	0.00374113	0.00141335	0.00270835	0.00340683	0.00238803	0.01082422	0.00736752	0.01034483	0.00219567	0.00391144	0.00226639	0.00270958	0.00463124	0.00438664	0.00199579	0.00096303	0.00187321	0.00125909	0.00061240	0.00132813	0.00075478	0.00234944	0.00114021	0.00056357	0.00045888	0.00036211	0.00035748
1.35000000	0.00368408	0.00150927	0.00249578	0.00329551	0.00217459	0.01066622	0.00687399	0.01009597	0.00198404	0.00359585	0.00203997	0.00274523	0.00488358	0.00439450	0.00197015	0.00085261	0.00187029	0.00141643	0.00061738	0.00108006	0.00074474	0.00220898	0.00139105	0.00077231	0.00045629	0.00036367	0.00040340
1.36000000	0.00415988	0.00142931	0.00194942	0.00269698	0.00155739	0.01005511	0.00612351	0.00963920	0.00154384	0.00330818	0.00153327	0.00270099	0.00522947	0.00452163	0.00195307	0.00078479	0.00187640	0.00172003	0.00063040	0.00088381	0.00078869	0.00196370	0.00192414	0.00105297	0.00062070	0.00048564	0.00045498
1.37000000	0.00334608	0.00149548	0.00193776	0.00323388	0.00178487	0.00867357	0.00598439	0.00760105	0.00125028	0.00249984	0.00089345	0.00280054	0.00523047	0.00457414	0.00196986	0.00083770	0.00171718	0.00163465	0.00127083	0.00051924	0.00080965	0.00185354	0.00212930	0.00086505	0.00048143	0.00063761	0.00053232
1.38000000	0.00340211	0.00156764	0.00162096	0.00301927	0.00144542	0.00720577	0.00536840	0.00569295	0.00077949	0.00183264	0.00021161	0.00292862	0.00538853	0.00460761	0.00190683	0.00088335	0.00169612	0.00184461	0.00175475	0.00036438	0.00080584	0.00170584	0.00255064	0.00105389	0.00052716	0.00066558	0.00059648
1.39000000	0.00368947	0.00163565	0.00132152	0.00288444	0.00120511	0.00610897	0.00447831	0.00354255	0.00061549	0.00108291	0.00039736	0.00314148	0.00550088	0.00463147	0.00192570	0.00102816	0.00156139	0.00201288	0.00226343	0.00045115	0.00085405	0.00153213	0.00302544	0.00110841	0.00066635	0.00078900	0.00060166
1.40000000	0.00460431	0.00186211	0.00107692	0.00259523	0.00096505	0.00572529	0.00317692	0.00188902	0.00123751	0.00054085	0.00101980	0.00341238	0.00551450	0.00465838	0.00194624	0.00110687	0.00144747	0.00226270	0.00274004	0.00073529	0.00094315	0.00143896	0.00362661	0.00139387	0.00080776	0.00071540	0.00062237
1.41000000	0.00485037	0.00195725	0.00105465	0.00257761	0.00094567	0.00620131	0.00250116	0.00216915	0.00181656	0.00080150	0.00142224	0.00363173	0.00560618	0.00471028	0.00191465	0.00133006	0.00129425	0.00247285	0.00313919	0.00112874	0.00109427	0.00145257	0.00420710	0.00143262	0.00082547	0.00079849	0.00074048
1.42000000	0.00490939	0.00209180	0.00138939	0.00255506	0.00104927	0.00726380	0.00235199	0.00322262	0.00228603	0.00122142	0.00178554	0.00392379	0.00578944	0.00462892	0.00182142	0.00152914	0.00127164	0.00281584	0.00361213	0.00151870	0.00117791	0.00167936	0.00474075	0.00170591	0.00090326	0.00079857	0.00075629
1.43000000	0.00512847	0.00225547	0.00165215	0.00269911	0.00131198	0.00772133	0.00277905	0.00432265	0.00288772	0.00180776	0.00192942	0.00410796	0.00597536	0.00468740	0.00188368	0.00162886	0.00105193	0.00306540	0.00407049	0.00183518	0.00134736	0.00187848	0.00533757	0.00187339	0.00103352	0.00082476	0.00074176
1.44000000	0.00565970	0.00243107	0.00219974	0.00280166	0.00177437	0.00845482	0.00316090	0.00445175	0.00311458	0.00194732	0.00191711	0.00445998	0.00596601	0.00466010	0.00194383	0.00174166	0.00102405	0.00346166	0.00425248	0.00232442	0.00159075	0.00237248	0.00597754	0.00224367	0.00106150	0.00081513	0.00074937
1.45000000	0.00489813	0.00247031	0.00256874	0.00295966	0.00183778	0.00867641	0.00349407	0.00465029	0.00339080	0.00221818	0.00180383	0.00475349	0.00653132	0.00465938	0.00187201	0.00187153	0.00119865	0.00387886	0.00477955	0.00265453	0.00174506	0.00266801	0.00637819	0.00251811	0.00112836	0.00110434	0.00069222
1.46000000	0.00531489	0.00269470	0.00310895	0.00319084	0.00238299	0.00864596	0.00349214	0.00437887	0.00348864	0.00225179	0.00161766	0.00510403	0.00677504	0.00464562	0.00198503	0.00185158	0.00119800	0.00427860	0.00479763	0.00314400	0.00198977	0.00320661	0.00697745	0.00292927	0.00106316	0.00082963	0.00081150
1.47000000	0.00585043	0.00296029	0.00365808	0.00342848	0.00283880	0.00828848	0.00338202	0.00399617	0.00362020	0.00212271	0.00153017	0.00559352	0.00708810	0.00465604	0.00201914	0.00188772	0.00158650	0.00477014	0.00481616	0.00362282	0.00232758	0.00372130	0.00747121	0.00341514	0.00109039	0.00086875	0.00081672
1.48000000	0.00552894	0.00332330	0.00403583	0.00349412	0.00301145	0.00796161	0.00316918	0.00352537	0.00366368	0.00200171	0.00148048	0.00591429	0.00803086	0.00464242	0.00221786	0.00182089	0.00155403	0.00532778	0.00503138	0.00400373	0.00248534	0.00413129	0.00777580	0.00392243	0.00104694	0.00090091	0.00085009
1.49000000	0.00637836	0.00375588	0.00455753	0.00375291	0.00346913	0.00757525	0.00219122	0.00316755	0.00350906	0.00277750	0.00181725	0.00655096	0.00787054	0.00467076	0.00234086	0.00207502	0.00186948	0.00576167	0.00478620	0.00448132	0.00304134	0.00462138	0.00824377	0.00433811	0.00093618	0.00134436	0.00078630
1.50000000	0.00584310	0.00475942	0.00475357	0.00387854	0.00348251	0.00700584	0.00229075	0.00280086	0.00370584	0.00215715	0.00182578	0.00637392	0.00998123	0.00491336	0.00314365	0.00157988	0.00101156	0.00586304	0.00482642	0.00451949	0.00300451	0.00466374	0.00836763	0.00450567	0.00109377	0.00101909	0.00086267
