Coordinates
version=1
nRows=121
nColumns=42
inDegrees=yes

Units are S.I. units (second, meters, Newtons, ...)
If the header above contains a line with 'inDegrees', this indicates whether rotational values are in degrees (yes) or radians (no).

endheader
time	pelvis_tilt	pelvis_list	pelvis_rotation	pelvis_tx	pelvis_ty	pelvis_tz	hip_flexion_r	hip_adduction_r	hip_rotation_r	knee_angle_r	knee_adduction_r	knee_angle_r_beta	ankle_angle_r	subtalar_angle_r	mtp_angle_r	hip_flexion_l	hip_adduction_l	hip_rotation_l	knee_angle_l	knee_adduction_l	knee_angle_l_beta	ankle_angle_l	subtalar_angle_l	mtp_angle_l	lumbar_extension	lumbar_bending	lumbar_rotation	arm_flex_r	arm_add_r	arm_rot_r	elbow_flex_r	pro_sup_r	wrist_flex_r	wrist_dev_r	arm_flex_l	arm_add_l	arm_rot_l	elbow_flex_l	pro_sup_l	wrist_flex_l	wrist_dev_l
      0.30000000	     15.66319129	      1.13090572	     -0.37210124	     -0.90737170	      0.99311395	     -0.14936784	      5.54268956	     -2.38670435	     -2.84434831	     40.07785812	      3.83052141	      0.69949058	      4.55789138	     -9.13330454	     -9.63868542	    -20.88218522	      3.79151909	     -5.67325679	      3.58914853	      1.61961956	      0.06264246	      8.24374688	     15.85250984	     -9.63868542	    -33.18662077	     -0.20213803	      3.70996457	     -6.67491697	    -22.61761237	     -6.43693468	     71.40162303	     90.00000001	      0.00000000	      0.00000000	      2.81194206	    -21.19395912	      5.65341221	     67.25735108	     90.00000001	      0.00000000	      0.00000000
      0.31000000	     15.69984585	      1.31899032	     -0.11857458	     -0.89468094	      0.99134989	     -0.14971543	      6.22426253	     -2.48852587	     -3.40953871	     36.96503170	      3.54699848	      0.64516151	      4.31917619	     -8.80466557	     -9.54999054	    -21.94069115	      3.88187255	     -5.66007969	      3.24215785	      1.71834029	      0.05658633	      8.88514980	     16.36472767	     -9.54999054	    -33.23416217	     -0.22177347	      3.58320675	     -7.10399485	    -22.55689064	     -7.02911592	     71.43347371	     90.00000001	      0.00000000	      0.00000000	      3.64750486	    -21.60741978	      6.14505051	     67.86122931	     90.00000001	      0.00000000	      0.00000000
      0.32000000	     15.71401299	      1.56087732	      0.12265479	     -0.88202457	      0.98930982	     -0.14997520	      6.87178567	     -2.62320317	     -4.32250613	     33.77663796	      3.01284219	      0.58951354	      4.07775039	     -8.01886000	     -9.46173603	    -22.90574339	      4.01547112	     -5.56804759	      3.03806788	      1.82005513	      0.05302429	      9.56943955	     16.77434351	     -9.46173603	    -33.26866581	     -0.30576075	      3.43407743	     -7.48392817	    -22.45972456	     -7.60391725	     71.42810344	     90.00000001	      0.00000000	      0.00000000	      4.51496031	    -22.01771566	      6.65170857	     68.40472290	     90.00000001	      0.00000000	      0.00000000
      0.33000000	     15.39719878	      2.03790501	      0.24120860	     -0.86962777	      0.98654139	     -0.15021658	      7.94431138	     -3.02517246	     -5.17456695	     30.74758944	      2.48238363	      0.53664667	      3.82381470	     -7.12764126	     -9.42294638	    -23.36949930	      4.52522580	     -5.37035969	      3.08255509	      1.70539048	      0.05380074	     10.33692621	     16.98221748	     -9.42294638	    -32.98746541	     -0.67864783	      3.22419928	     -7.74221994	    -22.37319160	     -8.01494821	     71.24957044	     90.00000001	      0.00000000	      0.00000000	      5.34518301	    -22.39443080	      7.01860213	     68.91170398	     90.00000001	      0.00000000	      0.00000000
      0.34000000	     15.64253913	      2.23971348	      0.56544239	     -0.85662622	      0.98443236	     -0.15038858	      8.16335278	     -3.08153855	     -7.38656082	     27.42877321	      1.37213622	      0.47872240	      3.90553087	     -4.30855470	     -9.27446200	    -24.56073745	      4.50510698	     -5.02312776	      2.98387312	      1.91995701	      0.05207841	     10.97599536	     17.13439074	     -9.27446200	    -33.24407402	     -0.68709453	      3.10367172	     -8.19203469	    -22.22016312	     -8.67628745	     71.32429300	     90.00000001	      0.00000000	      0.00000000	      6.33632371	    -22.82282985	      7.81178698	     69.32896037	     90.00000001	      0.00000000	      0.00000000
      0.35000000	     15.48463903	      2.66357900	      0.80742793	     -0.84399006	      0.98162663	     -0.15056072	      8.84435309	     -3.43193834	     -8.97336711	     24.25295459	      0.76206560	      0.42329391	      3.42956311	     -2.70392503	     -9.21924488	    -25.14181632	      4.81484550	     -4.59454053	      3.19862018	      1.95784514	      0.05582645	     11.85166684	     17.19849981	     -9.21924488	    -33.11447635	     -0.95881358	      2.88435791	     -8.45513541	    -22.05034679	     -9.20117746	     71.13852709	     90.00000001	      0.00000000	      0.00000000	      7.29778573	    -23.23439072	      8.48942324	     69.67269222	     90.00000001	      0.00000000	      0.00000000
      0.36000000	     15.42502276	      3.12371198	      1.07234566	     -0.83103934	      0.97876553	     -0.15074552	      9.49315389	     -3.80271565	    -11.57252322	     21.45037900	     -0.26765284	      0.37437974	      3.66350740	      1.17111973	     -9.06555832	    -25.87992662	      5.16416483	     -3.95976285	      3.34723610	      1.94304787	      0.05842029	     12.43107756	     16.91212712	     -9.06555832	    -33.08225802	     -1.23961691	      2.64810048	     -8.81748688	    -21.88866377	     -9.67630414	     71.10784318	     90.00000001	      0.00000000	      0.00000000	      8.21857764	    -23.60497576	      9.17080663	     70.03257300	     90.00000001	      0.00000000	      0.00000000
      0.37000000	     15.31811070	      3.48562905	      1.35883816	     -0.81809429	      0.97589212	     -0.15078101	      9.99032766	     -4.07246514	    -13.38676341	     18.50095161	     -0.70400864	      0.32290252	      3.03304103	      3.08591874	     -9.00208956	    -26.46709494	      5.35616018	     -3.49577805	      3.71800318	      1.98336091	      0.06489140	     13.21374032	     16.83171160	     -9.00208956	    -33.00093188	     -1.42759086	      2.45168437	     -9.10840882	    -21.69833377	    -10.15844118	     70.95863495	     90.00000001	      0.00000000	      0.00000000	      9.15995106	    -23.96233861	      9.91798127	     70.29269963	     90.00000001	      0.00000000	      0.00000000
      0.38000000	     15.16530582	      3.95436406	      1.66245997	     -0.80495817	      0.97286503	     -0.15090477	     10.62489488	     -4.53327920	    -15.67389187	     16.07996715	     -1.14564078	      0.28064837	      2.91106724	      6.38764388	     -8.87853403	    -27.02596840	      5.67318410	     -2.91936589	      4.07511910	      1.95124613	      0.07112425	     13.87317182	     16.69276164	     -8.87853403	    -32.86759479	     -1.70336079	      2.18384885	     -9.39115432	    -21.51228408	    -10.55823656	     70.79921800	     90.00000001	      0.00000000	      0.00000000	     10.04020116	    -24.28115832	     10.56757617	     70.56200015	     90.00000001	      0.00000000	      0.00000000
      0.39000000	     15.02556884	      4.26977495	      2.01848006	     -0.79170473	      0.96997860	     -0.15094721	     11.03171466	     -4.79935249	    -17.18173904	     13.63936406	     -1.19806324	      0.23805181	      2.21297972	      7.89270714	     -8.82111175	    -27.53333162	      5.75728944	     -2.55910388	      4.59668224	      1.99547833	      0.08022724	     14.61495563	     16.70909263	     -8.82111175	    -32.73794652	     -1.80462920	      1.93817148	     -9.62517817	    -21.31681725	    -10.95899369	     70.58898580	     90.00000001	      0.00000000	      0.00000000	     10.86880283	    -24.58161029	     11.24971221	     70.75315594	     90.00000001	      0.00000000	      0.00000000
      0.40000000	     14.80050920	      4.64013241	      2.37583311	     -0.77834281	      0.96702194	     -0.15097007	     11.49174613	     -5.15966762	    -18.26829787	     11.60048463	     -1.06282983	      0.20246665	      1.62650890	      9.01096942	     -8.78826594	    -27.93660813	      5.90757023	     -2.21846880	      5.16582073	      1.98063888	      0.09016058	     15.30300192	     16.81975535	     -8.78826594	    -32.51977590	     -1.96165285	      1.64686420	     -9.79811740	    -21.11504882	    -11.26324217	     70.29377473	     90.00000001	      0.00000000	      0.00000000	     11.61133252	    -24.82808232	     11.79745612	     70.94506278	     90.00000001	      0.00000000	      0.00000000
      0.41000000	     14.68589854	      4.80370961	      2.81614604	     -0.76449497	      0.96426566	     -0.15097391	     11.82033347	     -5.28902568	    -19.78693313	     10.05198582	     -1.08188325	      0.17544025	      1.44531471	     10.88512006	     -8.69420521	    -28.39581664	      5.75268413	     -2.37356504	      5.92034763	      1.99985229	      0.10332956	     16.02251337	     17.57529221	     -8.69420521	    -32.36489717	     -1.85811231	      1.48319262	    -10.13338631	    -20.93632923	    -11.66712668	     70.10399536	     90.00000001	      0.00000000	      0.00000000	     12.28486901	    -24.99928803	     12.42127708	     71.12917640	     90.00000001	      0.00000000	      0.00000000
      0.42000000	     14.35575892	      5.12515272	      3.26607079	     -0.75068098	      0.96138608	     -0.15108331	     12.29809993	     -5.62005947	    -20.27078935	      8.87150394	     -0.88003768	      0.15483695	      1.18923145	     11.20163641	     -8.67486789	    -28.68112732	      5.80438242	     -2.15085192	      6.56342165	      1.93922895	      0.11455332	     16.54099388	     17.73425190	     -8.67486789	    -32.00481515	     -1.91806542	      1.09675914	    -10.24306357	    -20.72155018	    -11.87169058	     69.74072319	     90.00000001	      0.00000000	      0.00000000	     12.77410464	    -25.17346911	     12.76532915	     71.28688272	     90.00000001	      0.00000000	      0.00000000
      0.43000000	     14.09475322	      5.27208500	      3.79340165	     -0.73658314	      0.95876336	     -0.15115185	     12.64198726	     -5.75033707	    -20.71176277	      8.12478448	     -0.76621325	      0.14180424	      1.00121126	     11.34530187	     -8.65311976	    -28.97174069	      5.57205331	     -2.15954937	      7.37932732	      1.96678820	      0.12879356	     17.08605886	     18.15096007	     -8.65311976	    -31.69208598	     -1.76435463	      0.80652439	    -10.41218410	    -20.49616960	    -12.18268015	     69.37166696	     90.00000001	      0.00000000	      0.00000000	     13.21007237	    -25.30202609	     13.17932970	     71.45005212	     90.00000001	      0.00000000	      0.00000000
      0.44000000	     13.88548170	      5.21107843	      4.25154549	     -0.72203820	      0.95624617	     -0.15097612	     12.94219129	     -5.60121735	    -20.87719188	      7.88504833	     -0.77475213	      0.13762005	      0.89976038	     11.18060315	     -8.57607992	    -29.12624012	      5.11467403	     -3.48124392	      8.61409994	      1.81241891	      0.15034441	     17.94462653	     20.55959198	     -8.57607992	    -31.36713923	     -1.41866497	      0.72333844	    -10.71063844	    -20.32856289	    -12.51832583	     69.16387740	     90.00000001	      0.00000000	      0.00000000	     13.53263905	    -25.35188611	     13.53509254	     71.59197441	     90.00000001	      0.00000000	      0.00000000
      0.45000000	     13.43099072	      5.31035888	      4.65004220	     -0.70737860	      0.95367139	     -0.15090506	     13.51185008	     -5.65939632	    -20.54520179	      8.11558099	     -0.81736744	      0.14164361	      0.87521058	     11.15201228	     -8.57101171	    -29.30740620	      4.91695748	     -3.41550922	      9.23023070	      1.74874171	      0.16109792	     17.89448405	     20.55940493	     -8.57101171	    -30.79026329	     -1.26173406	      0.55133300	    -10.97924503	    -20.23098454	    -12.53313608	     68.93619720	     90.00000001	      0.00000000	      0.00000000	     13.60930136	    -25.29300417	     13.52616171	     71.71144670	     90.00000001	      0.00000000	      0.00000000
      0.46000000	     13.18863009	      5.30776500	      5.19031547	     -0.69256975	      0.95153410	     -0.15093664	     13.92605668	     -5.71815147	    -20.35774276	      9.16480652	     -0.76202396	      0.15995605	      1.11954016	      9.71112790	     -8.51503167	    -29.35004569	      4.46802623	     -4.40636096	     10.64095045	      1.52043275	      0.18571962	     18.60009829	     22.73695344	     -8.51503167	    -30.43046924	     -0.92876764	      0.27294952	    -10.99023963	    -19.98696226	    -12.89846719	     68.37320841	     90.00000001	      0.00000000	      0.00000000	     13.57355592	    -25.31188753	     13.56672816	     71.98877856	     90.00000001	      0.00000000	      0.00000000
      0.47000000	     12.80450096	      5.23132294	      5.63007391	     -0.67749722	      0.94955191	     -0.15089244	     14.35004827	     -5.60287833	    -19.73382952	     10.11323645	     -0.89133395	      0.17650927	      0.95533598	      9.52354122	     -8.50728763	    -29.45223431	      4.03491836	     -4.28768551	     11.56906271	      1.43142844	      0.20191824	     18.41517420	     22.79509145	     -8.50728763	    -29.88395614	     -0.54457514	      0.15427139	    -11.14478174	    -19.91989488	    -13.02087443	     68.00278277	     90.00000001	      0.00000000	      0.00000000	     13.41505977	    -25.21069264	     13.54623351	     72.07301014	     90.00000001	      0.00000000	      0.00000000
      0.48000000	     12.53924537	      5.07386396	      6.01590771	     -0.66221625	      0.94785729	     -0.15044356	     14.93942684	     -5.46812858	    -19.56445405	     12.09265449	     -1.04476609	      0.21105664	      0.83480760	      8.43905743	     -8.49435482	    -29.52110360	      3.39111966	     -4.67696412	     12.82710419	      1.50033661	      0.22387520	     18.14976600	     23.08435000	     -8.49435482	    -29.45790991	     -0.15064060	      0.11877236	    -11.15845226	    -19.67061831	    -13.26378016	     67.40381524	     90.00000001	      0.00000000	      0.00000000	     13.14565122	    -25.08827240	     13.29012535	     72.30667595	     90.00000001	      0.00000000	      0.00000000
      0.49000000	     12.26276889	      4.92535447	      6.39288557	     -0.64649273	      0.94634797	     -0.15047310	     15.44130660	     -5.40311550	    -19.15278170	     14.17000902	     -1.09171666	      0.24731331	      0.60597827	      6.68787367	     -8.46539456	    -29.50562990	      2.92905225	     -5.49348744	     14.16041765	      1.02448067	      0.24714591	     17.86549418	     24.66433850	     -8.46539456	    -28.95020174	      0.32555716	      0.00428199	    -11.28604571	    -19.61534023	    -13.45178898	     67.03167193	     90.00000001	      0.00000000	      0.00000000	     12.51061179	    -24.88123483	     12.80871131	     72.61058606	     90.00000001	      0.00000000	      0.00000000
      0.50000000	     12.17948769	      4.55771531	      6.64184524	     -0.63069825	      0.94541218	     -0.14994952	     15.58769092	     -4.95478523	    -18.22700259	     15.96744228	     -1.08616025	      0.27868444	     -0.27798869	      4.74539139	     -8.40824394	    -29.50720651	      2.13205752	     -6.61421432	     15.81087136	      0.71639732	      0.27595176	     17.28767699	     26.48558024	     -8.40824394	    -28.64703164	      0.95363671	      0.12761243	    -11.32796308	    -19.58561100	    -13.50048334	     66.62295864	     90.00000001	      0.00000000	      0.00000000	     11.91319313	    -24.63871007	     12.30973774	     72.83265179	     90.00000001	      0.00000000	      0.00000000
      0.51000000	     12.10224466	      4.23341018	      6.92374519	     -0.61477542	      0.94483890	     -0.14953009	     15.81005311	     -4.61329949	    -17.92165072	     18.07017653	     -1.26180512	      0.31538408	     -0.85124058	      3.95842514	     -8.39746766	    -29.51442082	      1.38542700	     -6.72220240	     17.41784621	      0.61091476	      0.30399876	     16.07092326	     26.36537735	     -8.39746766	    -28.35082332	      1.56734738	      0.26638622	    -11.38528330	    -19.50450068	    -13.72387501	     66.20339846	     90.00000001	      0.00000000	      0.00000000	     11.29313976	    -24.39870675	     11.96850550	     72.95642430	     90.00000001	      0.00000000	      0.00000000
      0.52000000	     12.13405515	      3.90763326	      7.15262910	     -0.59882381	      0.94473105	     -0.14914265	     15.87716504	     -4.27021202	    -17.45633427	     20.18402316	     -1.34267887	      0.35227766	     -1.34337088	      2.86891765	     -8.38424343	    -29.49322081	      0.70059895	     -6.81882848	     19.18222333	      0.37039747	      0.33479296	     14.39425075	     26.24722947	     -8.38424343	    -28.19443909	      2.19540332	      0.40550804	    -11.36880362	    -19.47868597	    -13.86091634	     65.84029375	     90.00000001	      0.00000000	      0.00000000	     10.51617114	    -24.09350592	     11.40136291	     73.14570137	     90.00000001	      0.00000000	      0.00000000
      0.53000000	     12.29602626	      3.49967782	      7.20887186	     -0.58290066	      0.94519197	     -0.14843728	     15.59655307	     -3.73317524	    -15.93016612	     21.87348375	     -0.94401446	      0.38176431	     -2.31704199	      0.01599430	     -8.32061871	    -29.45763210	     -0.03464437	     -6.88780293	     21.16087279	      0.25034737	      0.36932690	     12.29371782	     25.90107435	     -8.32061871	    -28.19874054	      2.84881148	      0.68369825	    -11.24737134	    -19.55289216	    -13.81573597	     65.44551024	     90.00000001	      0.00000000	      0.00000000	      9.64863939	    -23.72389226	     10.65916880	     73.31529879	     90.00000001	      0.00000000	      0.00000000
      0.54000000	     12.61724194	      3.12811001	      7.31990893	     -0.56688978	      0.94606583	     -0.14772688	     15.18568034	     -3.29769956	    -15.33887961	     23.72773994	     -0.78271921	      0.41412719	     -2.28386186	     -0.44591196	     -8.31415948	    -29.39535222	     -0.81830862	     -6.70803008	     23.45162180	      0.24959617	      0.40930802	     10.11374802	     25.44482352	     -8.31415948	    -28.37638867	      3.48477245	      1.02103091	    -11.21183848	    -19.55088553	    -13.97150000	     65.14102776	     90.00000001	      0.00000000	      0.00000000	      8.92458351	    -23.43754719	     10.28310274	     73.31475555	     90.00000001	      0.00000000	      0.00000000
      0.55000000	     13.00694009	      2.67389019	      7.30833489	     -0.55090588	      0.94750586	     -0.14694947	     14.46305693	     -2.61602852	    -13.89502545	     25.06960414	     -0.32220914	      0.43754713	     -2.56192467	     -3.02578969	     -8.26470300	    -29.28677796	     -1.47530067	     -6.29664926	     25.78638204	      0.10007590	      0.45005727	      6.74349651	     23.32921342	     -8.26470300	    -28.64202973	      4.19220791	      1.34723621	    -10.96737342	    -19.68573864	    -13.84373761	     64.81621232	     90.00000001	      0.00000000	      0.00000000	      7.89236995	    -23.00968876	      9.38271690	     73.48450560	     90.00000001	      0.00000000	      0.00000000
      0.56000000	     13.52799612	      2.24195465	      7.28411550	     -0.53497734	      0.94929957	     -0.14601156	     13.52766690	     -1.95194396	    -12.90152639	     26.29017277	      0.05319916	      0.45885008	     -2.26550834	     -4.29409381	     -8.21925082	    -29.08815891	     -2.17282428	     -5.82128864	     28.47110483	      0.09003523	      0.49691452	      3.58350540	     21.48938876	     -8.21925082	    -29.07284851	      4.84835136	      1.78675475	    -10.79687318	    -19.75227223	    -13.89332440	     64.62210312	     90.00000001	      0.00000000	      0.00000000	      7.03136931	    -22.68210546	      8.85264824	     73.48699012	     90.00000001	      0.00000000	      0.00000000
      0.57000000	     14.06481687	      1.81315218	      7.29778621	     -0.51912667	      0.95122307	     -0.14511389	     12.46918939	     -1.29466913	    -12.36623194	     27.33078148	      0.31467983	      0.47701212	     -1.34249847	     -4.71662088	     -8.21037447	    -28.63357885	     -2.83653836	     -5.54298437	     31.52770949	     -0.15941993	      0.55026234	      0.62778549	     20.33062116	     -8.21037447	    -29.52637610	      5.50025908	      2.22768006	    -10.64655184	    -19.83090224	    -13.96715278	     64.51484917	     90.00000001	      0.00000000	      0.00000000	      6.19393988	    -22.39909480	      8.45303351	     73.43819523	     90.00000001	      0.00000000	      0.00000000
      0.58000000	     14.50115299	      1.45581904	      7.15596324	     -0.50368290	      0.95337185	     -0.14395673	     11.37605613	     -0.62940857	    -11.60038736	     27.98987878	      0.59412624	      0.48851554	     -0.69757972	     -5.56380464	     -8.15945965	    -27.96081479	     -3.31216641	     -4.35221160	     34.68801182	      0.18874251	      0.60542002	     -2.44890601	     16.82023057	     -8.15945965	    -29.95366397	      5.97121235	      2.71773067	    -10.34534102	    -19.96147221	    -13.80963362	     64.31542059	     90.00000001	      0.00000000	      0.00000000	      5.33343577	    -22.04063814	      7.84123514	     73.33952089	     90.00000001	      0.00000000	      0.00000000
      0.59000000	     14.75657842	      1.02878414	      7.11096034	     -0.48844765	      0.95519750	     -0.14284458	     10.40237785	      0.07797063	    -11.41104043	     28.49631250	      0.66034297	      0.49735448	      0.53068930	     -5.47060737	     -8.14425680	    -26.72184900	     -3.83518387	     -3.98898066	     38.34656964	     -0.09446728	      0.66927390	     -4.70517463	     15.40646271	     -8.14425680	    -30.18707974	      6.50749803	      3.19969863	    -10.12390976	    -20.06640569	    -13.78071797	     64.28468873	     90.00000001	      0.00000000	      0.00000000	      4.53702033	    -21.76554034	      7.48579698	     73.14128448	     90.00000001	      0.00000000	      0.00000000
      0.60000000	     14.88851227	      0.63583684	      7.03723406	     -0.47356006	      0.95696780	     -0.14168895	      9.45788305	      0.74160335	    -11.39745643	     28.75952148	      0.65285263	      0.50194834	      1.76377742	     -5.16719318	     -8.13072057	    -25.17681078	     -4.28746515	     -3.51132322	     42.16257455	     -0.29086208	      0.73587575	     -6.42253853	     13.77760821	     -8.13072057	    -30.32550691	      6.96248894	      3.65756119	     -9.83457453	    -20.19220417	    -13.69076842	     64.30326780	     90.00000001	      0.00000000	      0.00000000	      3.77303947	    -21.51611543	      7.15147420	     72.84562800	     90.00000001	      0.00000000	      0.00000000
      0.61000000	     14.64803163	      0.32222287	      6.88683089	     -0.45916554	      0.95833516	     -0.14026377	      9.00801075	      1.34768611	    -12.02616396	     29.08424311	      0.12686696	      0.50761580	      2.95400816	     -3.95391316	     -8.09814015	    -23.11545994	     -4.55279457	     -2.32196951	     46.03957630	      0.06075691	      0.80354219	     -7.49679671	     10.61386964	     -8.09814015	    -30.13854382	      7.20779662	      4.13561665	     -9.47161564	    -20.31929687	    -13.41839572	     64.14825190	     90.00000001	      0.00000000	      0.00000000	      3.07327601	    -21.19904016	      6.69679383	     72.45012347	     90.00000001	      0.00000000	      0.00000000
      0.62000000	     14.57177161	     -0.00511361	      6.79104110	     -0.44493385	      0.96005910	     -0.13892315	      8.16664404	      1.95911912	    -12.57240279	     29.00381263	     -0.22771798	      0.50621203	      4.22525901	     -2.80601601	     -8.07327772	    -21.15195643	     -4.83161480	     -1.69249577	     49.69180757	     -0.04427310	      0.86728565	     -8.05538474	      8.82548206	     -8.07327772	    -30.13540705	      7.49923891	      4.58702540	     -9.13945346	    -20.44902836	    -13.24944977	     64.22423932	     90.00000001	      0.00000000	      0.00000000	      2.45835440	    -20.99607664	      6.46554512	     71.99966897	     90.00000001	      0.00000000	      0.00000000
      0.63000000	     14.48007238	     -0.15085237	      6.71337889	     -0.43095296	      0.96191320	     -0.13775191	      7.28074523	      2.29358522	    -13.34017398	     28.85924697	     -0.58112194	      0.50368888	      5.57912884	     -1.16218585	     -8.03621348	    -19.14856705	     -4.85986717	     -0.99237825	     53.06838284	     -0.15794605	      0.92621801	     -8.07993614	      7.13725070	     -8.03621348	    -30.13585822	      7.60708677	      4.91135949	     -8.77314714	    -20.55280783	    -13.04705818	     64.33991157	     90.00000001	      0.00000000	      0.00000000	      1.87929507	    -20.82691591	      6.29586061	     71.46364168	     90.00000001	      0.00000000	      0.00000000
      0.64000000	     14.57992135	     -0.34576784	      6.57109995	     -0.41707958	      0.96426886	     -0.13640106	      5.96327878	      2.72893588	    -13.42825738	     28.24526736	     -0.54539000	      0.49297291	      6.50010701	     -0.52140582	     -8.02461144	    -17.36928861	     -4.93757601	     -0.98165437	     55.97507029	     -0.70714488	      0.97694928	     -7.63348169	      6.22372871	     -8.02461144	    -30.36371285	      7.73025206	      5.34622374	     -8.43310039	    -20.69385293	    -12.84443901	     64.57369007	     90.00000001	      0.00000000	      0.00000000	      1.39589474	    -20.68113064	      6.22169330	     70.87113453	     90.00000001	      0.00000000	      0.00000000
      0.65000000	     14.45746418	     -0.57658418	      6.40740640	     -0.40351644	      0.96629875	     -0.13486438	      5.00146734	      3.23185548	    -13.76992460	     27.74673351	     -0.82466212	      0.48427186	      7.22751523	      0.59976512	     -7.99806595	    -15.29248804	     -5.08992880	     -0.84236980	     58.66211359	     -0.96456565	      1.02384703	     -6.82714807	      5.18238332	     -7.99806595	    -30.36486201	      7.82446792	      5.75341840	     -8.04007046	    -20.83385891	    -12.54766952	     64.77471980	     90.00000001	      0.00000000	      0.00000000	      0.92737715	    -20.53489725	      6.09671265	     70.18083984	     90.00000001	      0.00000000	      0.00000000
      0.66000000	     14.58787279	     -0.60985200	      6.19463681	     -0.39000488	      0.96896775	     -0.13346290	      3.56237163	      3.46795077	    -13.57496814	     26.95306190	     -0.66035449	      0.47041967	      7.87115837	      1.10695113	     -7.98737882	    -13.59181362	     -4.97300242	     -1.06089552	     60.67894398	     -1.53659472	      1.05904736	     -5.84312198	      4.47854300	     -7.98737882	    -30.66156081	      7.72291636	      6.13584476	     -7.67274586	    -20.96653294	    -12.29050420	     65.06207749	     90.00000001	      0.00000000	      0.00000000	      0.53858170	    -20.42076380	      6.08441037	     69.44959594	     90.00000001	      0.00000000	      0.00000000
      0.67000000	     14.66636908	     -0.70357677	      5.94414628	     -0.37664807	      0.97155642	     -0.13187404	      2.17414575	      3.81681846	    -13.24076767	     26.06856485	     -0.56341730	      0.45498229	      8.30721946	      1.54724845	     -7.97541263	    -11.83576580	     -4.95178337	     -1.35412660	     62.30417909	     -2.00402320	      1.08741306	     -4.69979167	      3.89860985	     -7.97541263	    -30.90643219	      7.63295945	      6.54055691	     -7.28629067	    -21.11617216	    -11.96295480	     65.40578710	     90.00000001	      0.00000000	      0.00000000	      0.17436002	    -20.31235957	      6.06305775	     68.65475179	     90.00000001	      0.00000000	      0.00000000
      0.68000000	     14.76002590	     -0.81444102	      5.65218658	     -0.36342990	      0.97421101	     -0.13014605	      0.69461562	      4.20642801	    -12.65028926	     24.97158347	     -0.39998310	      0.43583635	      8.48619435	      1.63264900	     -7.95414593	    -10.12692763	     -4.96596915	     -1.79752715	     63.47459838	     -2.48421776	      1.10784073	     -3.42195562	      3.65574879	     -7.95414593	    -31.17829513	      7.51750726	      6.96462163	     -6.91559264	    -21.28880619	    -11.59813092	     65.81805212	     90.00000001	      0.00000000	      0.00000000	     -0.15308055	    -20.26086570	      6.02856966	     67.83189711	     90.00000001	      0.00000000	      0.00000000
      0.69000000	     14.77969376	     -0.65628935	      5.36915339	     -0.35039126	      0.97677315	     -0.12870488	     -0.67246041	      4.21418918	    -12.24954311	     24.02168224	     -0.23622805	      0.41925745	      8.84126994	      1.90806225	     -7.94626520	     -8.39252727	     -4.60438781	     -2.13798160	     64.15761361	     -2.92760111	      1.11976160	     -2.21865431	      3.25656260	     -7.94626520	    -31.38280658	      7.15127770	      7.19988436	     -6.51318825	    -21.36607045	    -11.30994226	     66.22693184	     90.00000001	      0.00000000	      0.00000000	     -0.48269656	    -20.19745966	      6.07192034	     66.95565677	     90.00000001	      0.00000000	      0.00000000
      0.70000000	     14.78832446	     -0.59929319	      5.01969139	     -0.33745723	      0.97918652	     -0.12704396	     -2.05142245	      4.37956130	    -11.76150812	     22.93349207	     -0.15688447	      0.40026495	      9.08964154	      2.22284247	     -7.93822226	     -6.68597414	     -4.37628156	     -2.58070975	     64.45276959	     -3.29690017	      1.12491304	     -0.96685585	      2.98076687	     -7.93822226	    -31.57806348	      6.83177615	      7.52489788	     -6.13818402	    -21.51368100	    -10.93202669	     66.69942107	     90.00000001	      0.00000000	      0.00000000	     -0.77884271	    -20.13769584	      6.08248362	     66.03337520	     90.00000001	      0.00000000	      0.00000000
      0.71000000	     15.04268718	     -0.71527300	      4.53639578	     -0.32441319	      0.98186796	     -0.12507331	     -3.86954192	      4.82307399	    -10.75382887	     21.39828419	     -0.03725067	      0.37347051	      8.82878550	      1.82059981	     -7.90867162	     -5.35400233	     -4.39923239	     -3.64384536	     64.22700767	     -3.99089184	      1.12097275	      0.43528660	      3.75086433	     -7.90867162	    -32.02490392	      6.62649511	      8.02319644	     -5.79755832	    -21.73610383	    -10.47610504	     67.27882634	     90.00000001	      0.00000000	      0.00000000	     -1.09604925	    -20.07012117	      6.07511040	     65.16226910	     90.00000001	      0.00000000	      0.00000000
      0.72000000	     14.90985409	     -0.63471121	      4.15005214	     -0.31174626	      0.98378042	     -0.12344470	     -5.08163778	      4.92885166	    -10.43895725	     20.27281232	     -0.08113496	      0.35382732	      9.05620501	      2.32190661	     -7.89992486	     -3.57257083	     -4.11428937	     -3.96000230	     63.82717704	     -4.13837307	      1.11399439	      1.59209153	      3.45090089	     -7.89992486	    -32.07265114	      6.26044410	      8.28421143	     -5.42963573	    -21.89030557	    -10.06124404	     67.81263659	     90.00000001	      0.00000000	      0.00000000	     -1.37709044	    -20.01448579	      6.07398873	     64.17128334	     90.00000001	      0.00000000	      0.00000000
      0.73000000	     14.67989178	     -0.49938617	      3.73502437	     -0.29917329	      0.98531553	     -0.12167090	     -6.11306754	      5.04094789	    -10.39327282	     19.26416476	     -0.41512683	      0.33622310	      9.24989932	      2.67803781	     -7.89435794	     -1.74679602	     -3.77847166	     -4.16333941	     63.07298740	     -4.12139142	      1.10083130	      2.42876489	      3.27693598	     -7.89435794	    -32.01843549	      5.78803028	      8.47814815	     -5.06179462	    -21.95559612	     -9.73035249	     68.39850413	     90.00000001	      0.00000000	      0.00000000	     -1.75315121	    -20.04304812	      6.07722668	     63.39635912	     90.00000001	      0.00000000	      0.00000000
      0.74000000	     14.96658673	     -0.56401598	      3.29186151	     -0.28628961	      0.98749750	     -0.12004544	     -8.04064279	      5.33548585	     -9.90031833	     17.55118899	     -0.46027733	      0.30632604	      9.26494162	      3.69141056	     -7.88213820	     -0.66336995	     -3.70607201	     -4.43282549	     61.85928982	     -4.03433385	      1.07964828	      3.60650874	      3.21541425	     -7.88213820	    -32.47957428	      5.58562802	      8.83158448	     -4.72999960	    -22.28830952	     -9.09637261	     69.05945823	     90.00000001	      0.00000000	      0.00000000	     -2.01660988	    -19.90644017	      5.99726966	     62.35885697	     90.00000001	      0.00000000	      0.00000000
      0.75000000	     14.86714504	     -0.50301948	      2.89981355	     -0.27366370	      0.98879047	     -0.11851132	     -9.37569274	      5.44684905	     -9.71154327	     16.21599837	     -0.58494103	      0.28302256	      9.40279825	      4.33525724	     -7.87349271	      0.85757735	     -3.42747913	     -4.40430987	     60.49935968	     -3.80861655	      1.05591302	      4.47904400	      2.95732177	     -7.87349271	    -32.53192738	      5.24557159	      9.00974262	     -4.38701001	    -22.46523150	     -8.64068848	     69.68394382	     90.00000001	      0.00000000	      0.00000000	     -2.35791284	    -19.85546163	      5.97328909	     61.45482804	     90.00000001	      0.00000000	      0.00000000
      0.76000000	     14.98837268	     -0.47119044	      2.48721883	     -0.26093490	      0.99015535	     -0.11698980	    -11.05935384	      5.60822464	     -9.48666860	     14.64065462	     -0.76059230	      0.25552763	      9.44999618	      5.13352435	     -7.86291721	      1.98909959	     -3.21728878	     -4.06755404	     58.77575032	     -3.20981850	      1.02583036	      5.16176294	      2.46736790	     -7.86291721	    -32.80908482	      4.94459418	      9.19830626	     -4.03462055	    -22.70668460	     -8.10772727	     70.35993060	     90.00000001	      0.00000000	      0.00000000	     -2.70701642	    -19.80696197	      5.88902536	     60.61754717	     90.00000001	      0.00000000	      0.00000000
      0.77000000	     15.08054164	     -0.42485714	      2.09767187	     -0.24819871	      0.99116496	     -0.11555111	    -12.71083526	      5.71684633	     -9.27454194	     13.09079933	     -0.88517041	      0.22847755	      9.49455136	      5.83479643	     -7.85174808	      3.07538855	     -2.97710667	     -3.46461435	     56.82872358	     -2.42247549	      0.99184834	      5.61474374	      1.69153121	     -7.85174808	    -33.04431948	      4.64156547	      9.33774641	     -3.67919361	    -22.92872216	     -7.58516480	     71.02596020	     90.00000001	      0.00000000	      0.00000000	     -3.09319370	    -19.76183670	      5.80228258	     59.84341783	     90.00000001	      0.00000000	      0.00000000
      0.78000000	     15.14929931	     -0.39060919	      1.74145380	     -0.23552008	      0.99184159	     -0.11428143	    -14.35948951	      5.80740487	     -8.99251380	     11.49172192	     -0.96727037	      0.20056838	      9.55701373	      6.51057689	     -7.84115535	      4.09692728	     -2.75620266	     -2.64292092	     54.62818008	     -1.45556722	      0.95344161	      5.89874561	      0.70921713	     -7.84115535	    -33.25182598	      4.37961532	      9.43203775	     -3.34263279	    -23.18981170	     -7.03894496	     71.67939367	     90.00000001	      0.00000000	      0.00000000	     -3.47059362	    -19.68468605	      5.70463003	     59.07315698	     90.00000001	      0.00000000	      0.00000000
      0.79000000	     15.11230747	     -0.39955119	      1.35825864	     -0.22276427	      0.99196705	     -0.11298397	    -15.87168755	      5.89171870	     -8.70393597	      9.97033767	     -0.99513251	      0.17401522	      9.70562414	      7.13177523	     -7.83294165	      5.16942958	     -2.57279681	     -1.76034115	     52.27696344	     -0.49816297	      0.91240513	      6.02942115	     -0.15951429	     -7.83294165	    -33.32356148	      4.15578014	      9.54239340	     -3.00985714	    -23.42351863	     -6.48494351	     72.34327024	     90.00000001	      0.00000000	      0.00000000	     -3.89907893	    -19.61659674	      5.61047541	     58.30455676	     90.00000001	      0.00000000	      0.00000000
      0.80000000	     15.30286358	     -0.37411814	      0.98475628	     -0.20993872	      0.99213525	     -0.11185418	    -17.68025733	      5.90298802	     -8.40289471	      8.36459342	     -0.96992602	      0.14598970	      9.67984722	      7.67765054	     -7.82328519	      5.80671410	     -2.36909553	     -0.63501109	     49.52583601	      0.66843758	      0.86438890	      5.81872869	     -1.47919554	     -7.82328519	    -33.63466421	      3.92233217	      9.62957606	     -2.63249485	    -23.70758748	     -5.92272372	     72.95759019	     90.00000001	      0.00000000	      0.00000000	     -4.36028999	    -19.54198234	      5.45040124	     57.73226006	     90.00000001	      0.00000000	      0.00000000
      0.81000000	     15.38852576	     -0.33775944	      0.60800536	     -0.19715421	      0.99175824	     -0.11083099	    -19.31177570	      5.87025198	     -8.05367110	      6.91383731	     -0.94332760	      0.12066922	      9.74272617	      8.07824882	     -7.81362813	      6.48841177	     -2.15899492	      0.41872857	     46.59425977	      1.72677057	      0.81322325	      5.38532308	     -2.73122777	     -7.81362813	    -33.82988013	      3.68552908	      9.70576544	     -2.25894187	    -23.99557828	     -5.36880427	     73.54844146	     90.00000001	      0.00000000	      0.00000000	     -4.82893168	    -19.45402927	      5.29140546	     57.20245258	     90.00000001	      0.00000000	      0.00000000
      0.82000000	     15.52616786	     -0.20674907	      0.24295040	     -0.18435241	      0.99120632	     -0.11000468	    -20.94976146	      5.67658134	     -7.71441007	      5.59973884	     -0.81729841	      0.09773388	      9.66773893	      8.01740234	     -7.79714162	      6.94450693	     -1.80474371	      1.56345885	     43.29053677	      2.72453103	      0.75556240	      4.36605513	     -4.72443773	     -7.79714162	    -34.08521061	      3.37617383	      9.71457219	     -1.87785930	    -24.26871657	     -4.85768452	     74.08761870	     90.00000001	      0.00000000	      0.00000000	     -5.37745473	    -19.36737843	      5.08733576	     56.94034549	     90.00000001	      0.00000000	      0.00000000
      0.83000000	     15.36783098	     -0.38029194	     -0.15220977	     -0.17169919	      0.98970433	     -0.10898062	    -22.10929265	      5.83392111	     -7.38331551	      4.57062557	     -0.86457305	      0.07977246	     10.00476615	      8.50093901	     -7.78887520	      7.77831309	     -1.90264120	      2.15143781	     40.13609434	      3.38475646	      0.70050700	      4.00473983	     -4.81170925	     -7.78887520	    -34.02812147	      3.35008134	      9.91849848	     -1.47843836	    -24.59047541	     -4.29610367	     74.60760331	     90.00000001	      0.00000000	      0.00000000	     -5.83627227	    -19.19699685	      4.92988691	     56.38886947	     90.00000001	      0.00000000	      0.00000000
      0.84000000	     15.46074959	     -0.34724838	     -0.56821238	     -0.15880753	      0.98833458	     -0.10816626	    -23.51338751	      5.68261016	     -7.13399700	      3.65970812	     -0.76478525	      0.06387396	     10.17576906	      8.70137046	     -7.77679631	      8.09433298	     -1.70263756	      2.46684405	     36.53201798	      3.73329029	      0.63760400	      3.13154252	     -5.30709416	     -7.77679631	    -34.22176884	      3.12604096	      9.99771146	     -1.05869437	    -24.88782003	     -3.73241946	     75.09546630	     90.00000001	      0.00000000	      0.00000000	     -6.42889349	    -19.07017491	      4.63763449	     56.20686916	     90.00000001	      0.00000000	      0.00000000
      0.85000000	     15.35914261	     -0.49594392	     -0.97758510	     -0.14604162	      0.98635620	     -0.10738624	    -24.54324402	      5.70754786	     -6.90048232	      3.07761655	     -0.68749092	      0.05371454	     10.56988274	      8.90644843	     -7.76480617	      8.59451223	     -1.73265816	      2.47155642	     32.95275409	      3.86689863	      0.57513406	      2.33105212	     -5.08186995	     -7.76480617	    -34.22033950	      3.09763973	     10.20820579	     -0.63790806	    -25.24571517	     -3.19368521	     75.48574381	     90.00000001	      0.00000000	      0.00000000	     -6.99991277	    -18.86984934	      4.37129002	     55.99869015	     90.00000001	      0.00000000	      0.00000000
      0.86000000	     15.19211818	     -0.74690248	     -1.40015499	     -0.13323760	      0.98398935	     -0.10656939	    -25.39537523	      5.83609884	     -6.66114969	      2.74252578	     -0.64620467	      0.04786610	     11.07562848	      9.13866988	     -7.75437674	      9.09744708	     -1.90110061	      2.04682456	     29.36875437	      3.78012460	      0.51258146	      1.61596557	     -4.17325749	     -7.75437674	    -34.15208513	      3.16528421	     10.47199189	     -0.19937327	    -25.59150597	     -2.64316745	     75.82995161	     90.00000001	      0.00000000	      0.00000000	     -7.58860534	    -18.64984070	      4.08356818	     55.83202342	     90.00000001	      0.00000000	      0.00000000
      0.87000000	     15.01519545	     -1.06950625	     -1.82857226	     -0.12037709	      0.98139454	     -0.10579128	    -26.13606481	      6.02535149	     -6.39410552	      2.62691889	     -0.61826635	      0.04584838	     11.63127935	      9.27151603	     -7.74562759	      9.53474710	     -2.13165742	      1.24687403	     25.80617382	      3.49230602	      0.45040270	      0.93093891	     -2.84431785	     -7.74562759	    -34.07562030	      3.30227974	     10.79851309	      0.24459875	    -25.96464800	     -2.10358827	     76.07856473	     90.00000001	      0.00000000	      0.00000000	     -8.19211971	    -18.40168508	      3.76375561	     55.75334012	     90.00000001	      0.00000000	      0.00000000
      0.88000000	     14.81570724	     -1.43735737	     -2.28146499	     -0.10741854	      0.97856659	     -0.10498177	    -26.79584103	      6.24846910	     -6.06202832	      2.65808298	     -0.60794478	      0.04639230	     12.23247019	      9.30367386	     -7.73623811	      9.94318767	     -2.41142636	      0.08892920	     22.37461967	      3.10275099	      0.39051078	      0.25721423	     -1.10303942	     -7.73623811	    -33.97347726	      3.47260490	     11.14509503	      0.70392140	    -26.30553315	     -1.55578357	     76.31897211	     90.00000001	      0.00000000	      0.00000000	     -8.84419568	    -18.14205660	      3.40542869	     55.76750057	     90.00000001	      0.00000000	      0.00000000
      0.89000000	     14.60492243	     -1.87669978	     -2.78015781	     -0.09428764	      0.97560804	     -0.10420964	    -27.39221154	      6.51351438	     -5.67417738	      2.82889255	     -0.62801318	      0.04937349	     12.83854691	      9.22855500	     -7.72724341	     10.32146391	     -2.77327589	     -1.34163323	     19.16248567	      2.71156890	      0.33444847	     -0.29649717	      0.83570324	     -7.72724341	    -33.85252062	      3.71045685	     11.57895526	      1.14963123	    -26.66753215	     -1.02866135	     76.45586849	     90.00000001	      0.00000000	      0.00000000	     -9.52199712	    -17.83849795	      3.04829640	     55.81987415	     90.00000001	      0.00000000	      0.00000000
      0.90000000	     14.11863111	     -2.50991869	     -3.14815552	     -0.08128521	      0.97213562	     -0.10345708	    -27.61281059	      7.12297975	     -5.26915140	      3.18891740	     -0.85693352	      0.05565711	     13.51588777	      9.32512557	     -7.72299147	     11.06263855	     -3.35747232	     -2.38819645	     16.35591088	      2.50779665	      0.28546450	     -0.81054778	      2.16733415	     -7.72299147	    -33.47643343	      4.19575090	     12.07728462	      1.50781670	    -26.99686380	     -0.65428932	     76.55973037	     90.00000001	      0.00000000	      0.00000000	    -10.12421392	    -17.60333321	      2.88566272	     55.90348003	     90.00000001	      0.00000000	      0.00000000
      0.91000000	     14.10447222	     -2.77543949	     -3.85794580	     -0.06767069	      0.96942942	     -0.10260425	    -28.34066953	      6.98738960	     -4.96445457	      3.65023192	     -0.71512180	      0.06370857	     14.13524563	      9.23105398	     -7.71442988	     11.10051499	     -3.53662508	     -4.49093805	     13.69179785	      2.16291681	      0.23896695	     -1.09150690	      4.34864989	     -7.71442988	    -33.53358475	      4.15180816	     12.52622545	      2.00531178	    -27.31092967	     -0.01237614	     76.50834248	     90.00000001	      0.00000000	      0.00000000	    -10.83390385	    -17.23259291	      2.30118132	     55.97725859	     90.00000001	      0.00000000	      0.00000000
      0.92000000	     13.78403647	     -3.27181725	     -4.44553590	     -0.05404269	      0.96621731	     -0.10174991	    -28.66470681	      7.23224291	     -4.87742052	      4.28065151	     -0.85830454	      0.07471146	     14.91141783	      9.90587882	     -7.69292343	     11.68198600	     -4.01529717	     -6.67779194	     11.89703731	      1.91044435	      0.20764247	     -0.70945046	      7.02978230	     -7.69292343	    -33.28376054	      4.41136718	     13.07256214	      2.36950246	    -27.58897336	      0.43246951	     76.44908612	     90.00000001	      0.00000000	      0.00000000	    -11.48293898	    -16.93305028	      2.01968164	     56.06335634	     90.00000001	      0.00000000	      0.00000000
      0.93000000	     13.46640740	     -3.64737020	     -5.07427964	     -0.04048031	      0.96324331	     -0.10099089	    -28.95129585	      7.26793997	     -4.68325516	      5.00868156	     -0.91857515	      0.08741798	     15.57433249	     10.23489194	     -7.68700447	     12.05539376	     -4.33798055	     -7.96627133	     10.11994111	      1.93394838	      0.17662629	     -0.83635690	      7.63723650	     -7.68700447	    -33.06931516	      4.53203507	     13.56506373	      2.75371120	    -27.77605477	      0.84109886	     76.31530141	     90.00000001	      0.00000000	      0.00000000	    -12.03485016	    -16.63593187	      1.76760103	     56.07109345	     90.00000001	      0.00000000	      0.00000000
      0.94000000	     13.09106906	     -4.02486571	     -5.66643528	     -0.02672999	      0.96029687	     -0.10021023	    -29.13528260	      7.32841646	     -4.59586633	      5.84336697	     -1.07285915	      0.10198599	     16.17798048	     10.75131990	     -7.68321312	     12.49581983	     -4.67843030	     -9.10326541	      8.88470768	      2.01118190	      0.15506740	     -0.62648564	      7.99707887	     -7.68321312	    -32.76357310	      4.67397805	     14.05319645	      3.10025633	    -27.91750356	      1.14207877	     76.05470761	     90.00000001	      0.00000000	      0.00000000	    -12.54473120	    -16.37156374	      1.61060129	     56.04140757	     90.00000001	      0.00000000	      0.00000000
      0.95000000	     12.88182698	     -4.08434469	     -6.25078355	     -0.01250429	      0.95759213	     -0.09976091	    -29.24823168	      6.90371766	     -5.92557609	      7.14275918	     -1.23710056	      0.12466467	     17.38418280	     13.57490295	     -7.66898386	     12.88533025	     -4.57104939	    -10.94702006	      8.40847461	      1.76665912	      0.14675557	     -0.08689764	      9.40365212	     -7.66898386	    -32.55312743	      4.51097868	     14.29855350	      3.41227264	    -28.01568598	      1.51734302	     75.80069879	     90.00000001	      0.00000000	      0.00000000	    -13.08219667	    -16.11116092	      1.27980536	     56.02711802	     90.00000001	      0.00000000	      0.00000000
      0.96000000	     12.48548371	     -4.32070206	     -6.85014510	      0.00151472	      0.95499152	     -0.09900220	    -29.34562007	      6.71152739	     -5.77557949	      8.11138288	     -1.32425066	      0.14157034	     17.73565135	     14.05547767	     -7.66615038	     13.36920454	     -4.74927220	    -11.81729644	      8.25219609	      1.79740831	      0.14402799	      0.24796796	      9.14931770	     -7.66615038	    -32.20623610	      4.50412822	     14.72010179	      3.65103140	    -28.01894639	      1.68712049	     75.46684880	     90.00000001	      0.00000000	      0.00000000	    -13.41284983	    -15.93123769	      1.28763273	     55.83319603	     90.00000001	      0.00000000	      0.00000000
      0.97000000	     12.12730099	     -4.47530829	     -7.36066711	      0.01571905	      0.95266703	     -0.09855928	    -29.42645144	      6.37359184	     -5.76457636	      9.17524644	     -1.29424906	      0.16013826	     17.90705942	     14.66850758	     -7.66395461	     13.85445621	     -4.74423022	    -12.47351054	      8.60482788	      1.62531990	      0.15018258	      0.46921974	      8.82536661	     -7.66395461	    -31.88872104	      4.47619317	     14.99980761	      3.87708828	    -27.97306805	      1.77593471	     75.12939609	     90.00000001	      0.00000000	      0.00000000	    -13.68918397	    -15.72989709	      1.30003834	     55.61634971	     90.00000001	      0.00000000	      0.00000000
      0.98000000	     11.84109748	     -4.48082992	     -7.92425527	      0.03024612	      0.95062751	     -0.09798296	    -29.48287775	      5.84233740	     -5.93983666	     10.41414568	     -1.34464519	      0.18176113	     18.08842016	     15.59130418	     -7.66146984	     14.29099857	     -4.65284040	    -13.14433275	      9.51232205	      1.50736078	      0.16602134	      0.59037393	      8.36225671	     -7.66146984	    -31.58862530	      4.24762503	     15.21612732	      4.03709400	    -27.87848431	      1.87171738	     74.75618548	     90.00000001	      0.00000000	      0.00000000	    -13.91877834	    -15.59471544	      1.30935725	     55.29992049	     90.00000001	      0.00000000	      0.00000000
      0.99000000	     11.80117997	     -4.12817646	     -8.42435591	      0.04550016	      0.94889579	     -0.09758224	    -29.47882032	      4.88095692	     -7.85307334	     12.16765840	     -1.78819988	      0.21236570	     18.91851591	     19.78618018	     -7.65074341	     14.48406387	     -4.06792589	    -14.07061260	     10.74449787	      1.10709923	      0.18752686	      0.67008563	      8.73957584	     -7.65074341	    -31.37143530	      3.65571733	     15.19862027	      3.97050528	    -27.69126340	      1.96586134	     74.53768372	     90.00000001	      0.00000000	      0.00000000	    -14.15398410	    -15.58951781	      1.35580086	     55.15392124	     90.00000001	      0.00000000	      0.00000000
      1.00000000	     11.59520900	     -3.99170874	     -8.80889051	      0.06051702	      0.94745601	     -0.09716697	    -29.51542305	      4.25675573	     -7.83349439	     13.53491777	     -1.83578769	      0.23622888	     18.33732669	     20.04687108	     -7.64800348	     14.89168144	     -3.77389664	    -14.24409459	     12.34126570	      0.83712963	      0.21539572	      0.31924795	      7.90269388	     -7.64800348	    -31.05822768	      3.33742769	     15.21527809	      3.92865955	    -27.42020309	      1.92205182	     74.14144416	     90.00000001	      0.00000000	      0.00000000	    -14.16464182	    -15.54215862	      1.50946116	     54.74577688	     90.00000001	      0.00000000	      0.00000000
      1.01000000	     11.47857264	     -3.81919457	     -9.18079948	      0.07568601	      0.94638702	     -0.09678914	    -29.51961303	      3.57506018	     -7.83240007	     15.09970543	     -1.92349266	      0.26353958	     17.59847966	     20.62953122	     -7.64451688	     15.18364640	     -3.40847770	    -14.09828906	     14.09714513	      0.50823774	      0.24604160	     -0.27819805	      7.00871538	     -7.64451688	    -30.82950862	      2.96969716	     15.18297405	      3.84608869	    -27.17186155	      1.77779557	     73.85462126	     90.00000001	      0.00000000	      0.00000000	    -14.16078750	    -15.59330058	      1.72196335	     54.37477741	     90.00000001	      0.00000000	      0.00000000
      1.02000000	     11.46511122	     -3.60321010	     -9.44365100	      0.09107957	      0.94577989	     -0.09649215	    -29.51597279	      2.89589625	     -7.86497803	     16.84690807	     -2.01651489	      0.29403401	     16.38587411	     20.80647099	     -7.64222417	     15.35108016	     -2.98619381	    -13.83690147	     15.95164622	      0.19681516	      0.27840875	     -0.93040473	      6.18616343	     -7.64222417	    -30.65958345	      2.57995376	     15.03443013	      3.71550828	    -26.85896261	      1.62516811	     73.52652270	     90.00000001	      0.00000000	      0.00000000	    -14.03903045	    -15.64467389	      1.93071826	     53.95689405	     90.00000001	      0.00000000	      0.00000000
      1.03000000	     11.58007271	     -3.29622214	     -9.65879912	      0.10662318	      0.94568275	     -0.09621030	    -29.49807860	      2.16182330	     -7.95621992	     18.79705670	     -2.18677133	      0.32807053	     14.78841704	     20.86100729	     -7.64016384	     15.37478341	     -2.44029803	    -13.48816379	     17.87411382	     -0.13476014	      0.31196214	     -1.65075858	      5.10271134	     -7.64016384	    -30.60855259	      2.10117211	     14.79734101	      3.49844275	    -26.50402344	      1.38548264	     73.26220381	     90.00000001	      0.00000000	      0.00000000	    -13.85280198	    -15.78150501	      2.23549065	     53.54530762	     90.00000001	      0.00000000	      0.00000000
      1.04000000	     11.81550826	     -2.95597853	     -9.79914025	      0.12223952	      0.94610157	     -0.09606925	    -29.45681358	      1.42367643	     -7.99018527	     20.96909698	     -2.35716122	      0.36597978	     12.79059785	     20.51809350	     -7.63806734	     15.17766376	     -1.83421178	    -12.89835731	     19.67008418	     -0.34199065	      0.34330773	     -2.21801158	      3.95793232	     -7.63806734	    -30.66612676	      1.60016720	     14.46955727	      3.25866982	    -26.13429820	      1.09784166	     73.02998545	     90.00000001	      0.00000000	      0.00000000	    -13.57040182	    -15.92560970	      2.58591946	     53.16577578	     90.00000001	      0.00000000	      0.00000000
      1.05000000	     12.18014045	     -2.66052022	     -9.85821457	      0.13781264	      0.94707559	     -0.09588150	    -29.38481281	      0.73878653	     -7.81985951	     23.42821655	     -2.38477411	      0.40889952	     10.68254545	     20.00166263	     -7.63683258	     14.72461777	     -1.29933669	    -12.09879755	     21.31558488	     -0.34154697	      0.37202714	     -2.46392126	      3.16323055	     -7.63683258	    -30.87833011	      1.13889384	     14.08936631	      3.01729061	    -25.75218180	      0.87511209	     72.77825037	     90.00000001	      0.00000000	      0.00000000	    -13.20401210	    -16.11031752	      2.81939411	     52.82543263	     90.00000001	      0.00000000	      0.00000000
      1.06000000	     12.65039621	     -2.15248177	     -9.82502434	      0.15323279	      0.94881727	     -0.09588701	    -29.31527036	     -0.02229667	     -6.94641645	     25.95854876	     -2.14465202	      0.45306214	      7.70502776	     16.66471272	     -7.62914267	     13.82162924	     -0.41506879	     -9.82979362	     22.23633683	      0.25703162	      0.38809729	     -3.52672348	     -0.75875010	     -7.62914267	    -31.20150380	      0.49401177	     13.62811487	      2.62367545	    -25.27656142	      0.22112514	     72.67409614	     90.00000001	      0.00000000	      0.00000000	    -12.62234347	    -16.51702010	      3.68225543	     52.45060509	     90.00000001	      0.00000000	      0.00000000
      1.07000000	     13.25355541	     -1.69931381	     -9.84484203	      0.16885830	      0.95078917	     -0.09575083	    -29.10778924	     -0.76088115	     -6.75746499	     28.91729134	     -2.28206157	      0.50470194	      5.09396994	     15.18094282	     -7.62642605	     12.84851655	      0.33500897	     -8.89785530	     23.43714522	      0.49852169	      0.40905535	     -3.10529042	     -1.80719555	     -7.62642605	    -31.61897940	     -0.13414426	     13.08348951	      2.35339398	    -24.93126701	      0.02887428	     72.50782977	     90.00000001	      0.00000000	      0.00000000	    -12.18441334	    -16.72377107	      3.78115947	     52.22402625	     90.00000001	      0.00000000	      0.00000000
      1.08000000	     13.86315606	     -1.28541901	     -9.82689891	      0.18408582	      0.95334254	     -0.09567706	    -28.81784285	     -1.40201618	     -5.41852107	     32.00251141	     -1.77529220	      0.55854919	      2.37379903	     11.25415327	     -7.61945913	     11.55065502	      1.02177513	     -7.23675482	     23.98994508	      1.23436697	      0.41870353	     -3.18903177	     -4.08121811	     -7.61945913	    -32.11511175	     -0.68500639	     12.59317093	      2.03594291	    -24.54783012	     -0.37523659	     72.36031965	     90.00000001	      0.00000000	      0.00000000	    -11.57004324	    -17.01357493	      4.23732577	     52.00912076	     90.00000001	      0.00000000	      0.00000000
      1.09000000	     14.40163356	     -0.86288055	     -9.81572661	      0.19915988	      0.95587664	     -0.09550466	    -28.19493582	     -1.97702911	     -4.39532701	     35.41826717	     -1.48351108	      0.61816538	      0.04287677	      8.00013074	     -7.61234859	     10.29500386	      1.69440647	     -6.27759915	     24.48533469	      1.70112419	      0.42734971	     -2.62205277	     -5.17702833	     -7.61234859	    -32.52425695	     -1.23421620	     12.09813363	      1.71478380	    -24.21084318	     -0.67622068	     72.25546941	     90.00000001	      0.00000000	      0.00000000	    -10.96484267	    -17.28903845	      4.48832682	     51.90555248	     90.00000001	      0.00000000	      0.00000000
      1.10000000	     14.68703822	     -0.36697668	     -9.74749473	      0.21399369	      0.95808894	     -0.09557573	    -27.02696736	     -2.55525053	     -3.74731270	     39.21073552	     -1.32113333	      0.68435644	     -1.58400211	      5.31307972	     -7.60821586	      9.27100882	      2.46472477	     -5.99744281	     24.81835232	      1.79285857	      0.43316196	     -1.74547163	     -5.19933976	     -7.60821586	    -32.66244552	     -1.75231677	     11.49695933	      1.38649539	    -23.87412845	     -1.00892547	     72.18281178	     90.00000001	      0.00000000	      0.00000000	    -10.39071863	    -17.57930990	      4.70979656	     51.86465110	     90.00000001	      0.00000000	      0.00000000
      1.11000000	     14.78874026	     -0.12222350	     -9.71228232	      0.22840122	      0.96030133	     -0.09539302	    -25.55084176	     -2.77291658	     -2.50921678	     43.02538479	     -0.91614011	      0.75093463	     -3.12261648	      1.74516213	     -7.59936179	      8.34355291	      2.87027281	     -6.41344213	     25.03823772	      1.66293154	      0.43699969	     -0.38338638	     -4.22544517	     -7.59936179	    -32.68405685	     -2.01410933	     11.11264278	      1.03986150	    -23.63225084	     -1.28669434	     72.14482961	     90.00000001	      0.00000000	      0.00000000	     -9.76314142	    -17.81745444	      4.87597271	     51.90144995	     90.00000001	      0.00000000	      0.00000000
      1.12000000	     14.85640382	      0.27225097	     -9.67067982	      0.24262281	      0.96246453	     -0.09529767	    -23.83697522	     -3.09924515	     -2.36383922	     46.85989187	     -1.27575861	      0.81785940	     -3.62801072	      0.46645008	     -7.59740984	      7.24773299	      3.44384485	     -6.72253525	     24.75542689	      1.63172605	      0.43206371	      0.73672670	     -3.55269899	     -7.59740984	    -32.65168342	     -2.39734622	     10.64439062	      0.69121569	    -23.43811600	     -1.44303345	     72.14619042	     90.00000001	      0.00000000	      0.00000000	     -9.18240164	    -18.06327790	      4.87198898	     52.15906106	     90.00000001	      0.00000000	      0.00000000
      1.13000000	     14.41753975	      0.44423167	     -9.54482834	      0.25639468	      0.96402693	     -0.09537504	    -21.52952048	     -3.13023181	     -1.13280477	     50.64681779	     -0.62712044	      0.88395373	     -4.04428469	     -3.00281025	     -7.59088030	      6.97914832	      3.74720282	     -8.55648118	     25.02390381	      0.67253148	      0.43674951	      2.28174242	     -0.50751516	     -7.59088030	    -32.14040391	     -2.41104822	     10.28956804	      0.35460673	    -23.21288800	     -1.85187574	     72.09066190	     90.00000001	      0.00000000	      0.00000000	     -8.52456091	    -18.30138176	      5.08567757	     52.22469062	     90.00000001	      0.00000000	      0.00000000
      1.14000000	     14.28001425	      0.68947488	     -9.42496197	      0.27023624	      0.96610520	     -0.09545503	    -19.52769266	     -3.27089358	     -0.92276098	     53.98555314	     -0.72730003	      0.94222565	     -3.81725512	     -4.51410518	     -7.58519242	      6.06832334	      4.15967521	     -9.79397378	     24.62854450	      0.11633413	      0.42984919	      3.57500245	      1.85245500	     -7.58519242	    -31.91875988	     -2.53905355	      9.87829336	     -0.01178970	    -23.08914076	     -2.07758133	     72.11001957	     90.00000001	      0.00000000	      0.00000000	     -7.95355028	    -18.53276045	      5.04271963	     52.55588309	     90.00000001	      0.00000000	      0.00000000
      1.15000000	     14.34102721	      0.74748217	     -9.30100451	      0.28393764	      0.96876197	     -0.09537493	    -17.80352994	     -3.14543733	     -1.11514888	     56.71886985	     -1.32160230	      0.98993103	     -3.17876073	     -5.22714326	     -7.58372885	      4.66064885	      4.36396264	     -9.98359726	     23.78609032	      0.15995029	      0.41514559	      4.35939695	      2.64094046	     -7.58372885	    -31.95700279	     -2.51074037	      9.53958143	     -0.33432119	    -23.05152825	     -2.19116715	     72.20889126	     90.00000001	      0.00000000	      0.00000000	     -7.38443420	    -18.72842138	      4.90966953	     53.00500016	     90.00000001	      0.00000000	      0.00000000
      1.16000000	     14.23478507	      1.02743598	     -9.13564506	      0.29755462	      0.97110683	     -0.09571627	    -15.80533485	     -3.40408621	     -1.40776208	     59.22082921	     -1.57877400	      1.03359846	     -2.25665740	     -5.89670107	     -7.58160987	      3.51280895	      4.85437420	    -10.32807615	     22.93529359	     -0.01388511	      0.40029639	      5.02422645	      3.84952878	     -7.58160987	    -31.77243825	     -2.60255444	      9.08871784	     -0.68408497	    -22.97068745	     -2.48147623	     72.25035069	     90.00000001	      0.00000000	      0.00000000	     -6.82122685	    -18.93508934	      4.82293183	     53.42720890	     90.00000001	      0.00000000	      0.00000000
      1.17000000	     14.25034933	      0.95873414	     -8.99834891	      0.31106116	      0.97382105	     -0.09573861	    -14.04791850	     -3.21652456	     -1.76155518	     61.05482558	     -2.07945156	      1.06560773	     -1.16660381	     -6.25700378	     -7.58012753	      2.10182026	      4.88858964	    -10.33729408	     22.00943355	      0.13276731	      0.38413708	      5.53643897	      4.58453024	     -7.58012753	    -31.77152793	     -2.39258202	      8.84554456	     -1.01177279	    -23.00621338	     -2.64271694	     72.31847054	     90.00000001	      0.00000000	      0.00000000	     -6.26263819	    -19.08163083	      4.67474983	     53.93521827	     90.00000001	      0.00000000	      0.00000000
      1.18000000	     14.30351213	      1.10285168	     -8.82911312	      0.32457108	      0.97645359	     -0.09601631	    -12.30269958	     -3.35818832	     -2.39587898	     62.49536910	     -2.58597038	      1.09074996	      0.25690967	     -5.93225722	     -7.57698158	      0.61558912	      5.25253832	    -10.07542729	     20.85800281	      0.19714528	      0.36404082	      5.85737877	      5.28032586	     -7.57698158	    -31.77157505	     -2.35989241	      8.49088730	     -1.36554443	    -22.99476939	     -2.94578268	     72.40354348	     90.00000001	      0.00000000	      0.00000000	     -5.72004652	    -19.26613822	      4.53906709	     54.49173047	     90.00000001	      0.00000000	      0.00000000
      1.19000000	     14.43399890	      1.10404782	     -8.60718085	      0.33804376	      0.97923841	     -0.09629846	    -10.72782670	     -3.32427775	     -3.15852498	     63.34448210	     -3.17807504	      1.10556978	      1.70387170	     -5.42658536	     -7.57365297	     -1.06838130	      5.43745345	     -9.40893128	     19.54630835	      0.46383449	      0.34114744	      6.00416419	      5.38184303	     -7.57365297	    -31.87661182	     -2.16278570	      8.17202066	     -1.71721727	    -23.04647706	     -3.19766423	     72.50612855	     90.00000001	      0.00000000	      0.00000000	     -5.19505349	    -19.42307940	      4.35380112	     55.11531697	     90.00000001	      0.00000000	      0.00000000
      1.20000000	     14.53795649	      1.04357891	     -8.34442789	      0.35138445	      0.98186233	     -0.09656239	     -9.17814279	     -3.21030626	     -3.88704920	     63.72499244	     -3.66720930	      1.11221093	      3.11228966	     -4.87877563	     -7.57025557	     -2.74831990	      5.53522596	     -8.65657770	     18.16783908	      0.73357234	      0.31708861	      5.99141839	      5.26657268	     -7.57025557	    -31.97071616	     -1.89179908	      7.87415661	     -2.05537167	    -23.12605501	     -3.44260239	     72.60708482	     90.00000001	      0.00000000	      0.00000000	     -4.65445926	    -19.58516123	      4.16168718	     55.79048442	     90.00000001	      0.00000000	      0.00000000
      1.21000000	     14.36349587	      0.81296570	     -8.08482494	      0.36434079	      0.98389806	     -0.09667440	     -7.32763442	     -2.79379617	     -4.21029344	     63.80289410	     -3.87632771	      1.11357057	      4.21166427	     -5.00502793	     -7.56918908	     -3.94778909	      5.36544021	     -8.50402549	     17.16440766	      0.79674196	      0.29957543	      6.17090911	      5.59691886	     -7.56918908	    -31.82699849	     -1.43324858	      7.69439891	     -2.35332328	    -23.26273160	     -3.59624575	     72.67377772	     90.00000001	      0.00000000	      0.00000000	     -4.10829379	    -19.72017469	      3.98180899	     56.46031390	     90.00000001	      0.00000000	      0.00000000
      1.22000000	     14.56173891	      0.80303475	     -7.74410307	      0.37760722	      0.98620855	     -0.09698961	     -6.00420352	     -2.76264040	     -4.80454559	     63.36359733	     -4.04977771	      1.10590340	      5.47821979	     -4.34566419	     -7.56611102	     -5.78036496	      5.53050529	     -7.86662887	     15.59647389	      0.92687129	      0.27220982	      6.09306042	      5.98289371	     -7.56611102	    -32.01480359	     -1.19137240	      7.34202171	     -2.70013248	    -23.28688838	     -3.96489408	     72.81583024	     90.00000001	      0.00000000	      0.00000000	     -3.55957574	    -19.92198175	      3.81588580	     57.23399422	     90.00000001	      0.00000000	      0.00000000
      1.23000000	     14.34478510	      0.66648575	     -7.41230831	      0.39044341	      0.98760432	     -0.09716879	     -4.19632347	     -2.48154676	     -5.01032982	     62.77383828	     -3.95009899	      1.09561016	      6.42797490	     -4.42149445	     -7.56472773	     -6.93967637	      5.44004275	     -7.74207568	     14.49294470	      0.94703455	      0.25294960	      6.26998574	      6.55600576	     -7.56472773	    -31.81383708	     -0.80022512	      7.10598312	     -2.99965307	    -23.38093537	     -4.23056114	     72.86922626	     90.00000001	      0.00000000	      0.00000000	     -2.99335236	    -20.09676528	      3.64972984	     57.99170347	     90.00000001	      0.00000000	      0.00000000
      1.24000000	     14.36983238	      0.57142803	     -7.06257413	      0.40344632	      0.98907677	     -0.09737468	     -2.79152909	     -2.30940109	     -5.01650529	     61.74830436	     -3.58909042	      1.07771122	      7.15401757	     -4.50113054	     -7.56275291	     -8.44288224	      5.46951884	     -7.66334039	     13.19144284	      0.85223075	      0.23023411	      6.41984555	      7.45387738	     -7.56275291	    -31.84537927	     -0.47319890	      6.83098481	     -3.31297362	    -23.42491559	     -4.61088534	     72.96632440	     90.00000001	      0.00000000	      0.00000000	     -2.41449233	    -20.31142027	      3.55070370	     58.78500325	     90.00000001	      0.00000000	      0.00000000
      1.25000000	     14.21143904	      0.46859212	     -6.74205363	      0.41629656	      0.98992301	     -0.09741386	     -1.20017658	     -2.08171419	     -4.86770245	     60.54181249	     -3.14956262	      1.05665396	      7.74949443	     -4.82464508	     -7.56125714	     -9.66723325	      5.40303198	     -7.64175413	     12.06276468	      0.85690135	      0.21053496	      6.66436736	      8.29211194	     -7.56125714	    -31.68977279	     -0.15496703	      6.62193733	     -3.61990879	    -23.46805743	     -4.94178757	     73.02624893	     90.00000001	      0.00000000	      0.00000000	     -1.81978289	    -20.53537005	      3.46851164	     59.61013836	     90.00000001	      0.00000000	      0.00000000
      1.26000000	     14.13209352	      0.37240988	     -6.42844920	      0.42917041	      0.99055102	     -0.09737592	      0.21265688	     -1.86707494	     -4.45783398	     59.06311225	     -2.49656153	      1.03084578	      8.13234199	     -5.37377550	     -7.55981782	    -10.99413294	      5.35857225	     -7.57421663	     10.89514887	      0.83351705	      0.19015622	      6.96632296	      9.20101940	     -7.55981782	    -31.61451250	      0.12718159	      6.42528062	     -3.92543537	    -23.49033081	     -5.34100483	     73.08572491	     90.00000001	      0.00000000	      0.00000000	     -1.20110043	    -20.78193933	      3.44774049	     60.45845913	     90.00000001	      0.00000000	      0.00000000
      1.27000000	     14.21525096	      0.25255126	     -6.13990624	      0.44210451	      0.99112320	     -0.09721736	      1.32612973	     -1.65627531	     -3.74744292	     57.26413315	     -1.58630464	      0.99944767	      8.13158720	     -6.41082561	     -7.55799986	    -12.48968085	      5.28616301	     -7.58094556	      9.76181878	      0.83591132	      0.17037588	      7.25954779	     10.03957652	     -7.55799986	    -31.71641680	      0.38950701	      6.26704837	     -4.22794679	    -23.49505783	     -5.76726699	     73.18772492	     90.00000001	      0.00000000	      0.00000000	     -0.51311373	    -21.05240132	      3.53529604	     61.25242102	     90.00000001	      0.00000000	      0.00000000
      1.28000000	     13.96288524	      0.21177382	     -5.84050762	      0.45485463	      0.99074783	     -0.09710374	      2.85040746	     -1.49050721	     -3.25398040	     55.43734143	     -0.95019411	      0.96756414	      8.30511390	     -6.93242531	     -7.55697725	    -13.47617222	      5.30218523	     -7.49851265	      8.88826401	      0.69903616	      0.15512947	      7.69145411	     10.53074337	     -7.55697725	    -31.46228980	      0.60799639	      6.05917703	     -4.48226825	    -23.51068817	     -6.12445384	     73.17082350	     90.00000001	      0.00000000	      0.00000000	      0.13400948	    -21.32830388	      3.56719970	     62.07495679	     90.00000001	      0.00000000	      0.00000000
      1.29000000	     14.32819163	     -0.00448909	     -5.62938651	      0.46789725	      0.99114548	     -0.09647615	      3.39504442	     -1.18644616	     -1.97608314	     53.02136579	      0.33557642	      0.92539741	      7.57055706	     -9.19555331	     -7.55442390	    -15.34512421	      5.04648169	     -7.36302565	      7.70222890	      0.95984799	      0.13442925	      7.85201190	     11.03843436	     -7.55442390	    -31.85987258	      0.85182896	      6.09328664	     -4.84271645	    -23.48837040	     -6.64872443	     73.36295288	     90.00000001	      0.00000000	      0.00000000	      0.99746281	    -21.64571794	      3.88788089	     62.80094416	     90.00000001	      0.00000000	      0.00000000
      1.30000000	     14.27445258	     -0.08151777	     -5.37613900	      0.48065415	      0.99049418	     -0.09592346	      4.46730859	     -1.00558115	     -0.98464221	     50.64965016	      1.31836712	      0.88400316	      7.03595444	    -10.85740195	     -7.55076291	    -16.59061160	      4.90978649	     -7.00960159	      6.80333702	      1.12652611	      0.11874063	      8.27676163	     11.15685989	     -7.55076291	    -31.82467305	      1.00100780	      5.98570830	     -5.09319883	    -23.38712540	     -7.09738579	     73.35215336	     90.00000001	      0.00000000	      0.00000000	      1.80366577	    -21.95933904	      4.10053994	     63.54673318	     90.00000001	      0.00000000	      0.00000000
      1.31000000	     14.37480117	     -0.12347622	     -5.10518230	      0.49358836	      0.98970383	     -0.09532028	      5.25973594	     -0.91855483	     -0.39612503	     48.02995497	      1.98965762	      0.83828085	      6.81706917	    -11.58646116	     -7.54854745	    -17.97896917	      4.81499226	     -6.73590891	      5.96655886	      1.24165677	      0.10413610	      8.66301238	     11.46988095	     -7.54854745	    -31.93575973	      1.10150813	      5.87707193	     -5.39474777	    -23.27755733	     -7.59741188	     73.43590911	     90.00000001	      0.00000000	      0.00000000	      2.68310921	    -22.31844170	      4.45140963	     64.24178600	     90.00000001	      0.00000000	      0.00000000
      1.32000000	     14.26537201	     -0.04160508	     -4.80785574	      0.50631290	      0.98828499	     -0.09486968	      6.29197666	     -0.97346537	     -0.02608041	     45.37995332	      2.42596739	      0.79202960	      6.74693100	    -11.73999528	     -7.54729370	    -19.00401470	      4.82589042	     -6.42157591	      5.36692766	      1.33003859	      0.09367056	      9.31987214	     11.78849161	     -7.54729370	    -31.83480150	      1.11219525	      5.65063234	     -5.57370130	    -23.10395461	     -8.06676404	     73.34805165	     90.00000001	      0.00000000	      0.00000000	      3.54747844	    -22.63973817	      4.78444827	     64.92109159	     90.00000001	      0.00000000	      0.00000000
      1.33000000	     14.41698403	     -0.11936735	     -4.55333893	      0.51923682	      0.98705707	     -0.09408427	      6.83695085	     -0.79559489	      0.10994312	     42.32118776	      2.53406256	      0.73864407	      6.22287804	    -12.19562887	     -7.54540080	    -20.33961935	      4.66213256	     -6.23193371	      4.78075807	      1.44205760	      0.08343997	      9.69210925	     11.91584459	     -7.54540080	    -32.01801753	      1.21822095	      5.60471041	     -5.89166174	    -22.98082527	     -8.58660415	     73.48173960	     90.00000001	      0.00000000	      0.00000000	      4.53515424	    -22.98758490	      5.34190768	     65.47772014	     90.00000001	      0.00000000	      0.00000000
      1.34000000	     14.39477208	     -0.05409263	     -4.27924050	      0.53202801	      0.98526468	     -0.09327753	      7.57533080	     -0.79809662	     -0.05010797	     39.26842888	      2.47493373	      0.68536338	      5.79916561	    -11.94738209	     -7.54346851	    -21.37179439	      4.60098787	     -5.98561376	      4.39312594	      1.56813489	      0.07667451	     10.24917911	     12.04678112	     -7.54346851	    -32.01511048	      1.18121492	      5.46116982	     -6.15416933	    -22.77480965	     -9.05567119	     73.47444212	     90.00000001	      0.00000000	      0.00000000	      5.54646332	    -23.34965398	      5.86522693	     66.00029020	     90.00000001	      0.00000000	      0.00000000
      1.35000000	     14.28703510	      0.11340259	     -4.02307337	      0.54471229	      0.98311841	     -0.09252286	      8.37779355	     -0.91932227	     -0.50685831	     36.15643178	      2.20555329	      0.63104878	      5.42999617	    -11.10239192	     -7.54217536	    -22.21313107	      4.65195050	     -5.70857561	      4.17838315	      1.64790876	      0.07292654	     10.94275726	     12.25400305	     -7.54217536	    -31.93309683	      1.05435264	      5.27662114	     -6.34587511	    -22.54556936	     -9.52624161	     73.38790616	     90.00000001	      0.00000000	      0.00000000	      6.57723747	    -23.68282458	      6.45768918	     66.45245941	     90.00000001	      0.00000000	      0.00000000
      1.36000000	     13.89446849	      0.50069579	     -3.92722605	      0.55714242	      0.98027396	     -0.09166877	      9.58450922	     -1.23166890	     -1.05983728	     33.21447900	      1.75908286	      0.57970202	      4.96865926	    -10.04059677	     -7.54140650	    -22.57371879	      5.04169907	     -5.61247763	      4.24453708	      1.51037552	      0.07408115	     11.53784496	     12.36186112	     -7.54140650	    -31.56989598	      0.65658593	      5.06419480	     -6.48140589	    -22.35279067	     -9.78169205	     73.33500164	     90.00000001	      0.00000000	      0.00000000	      7.56528229	    -23.95332151	      6.84303912	     66.91552161	     90.00000001	      0.00000000	      0.00000000
      1.37000000	     14.15400282	      0.48767696	     -3.53294822	      0.57034300	      0.97836344	     -0.09075813	      9.67976901	     -1.13911447	     -2.76402055	     29.69501046	      0.83551446	      0.51827570	      4.44999478	     -7.41247829	     -7.53918449	    -23.86445377	      4.75249163	     -5.23979183	      4.02640050	      1.80666099	      0.07027395	     12.13442410	     12.56323645	     -7.53918449	    -31.85250668	      0.72913967	      4.98054481	     -6.90233356	    -22.09212082	    -10.45715680	     73.43938875	     90.00000001	      0.00000000	      0.00000000	      8.76416507	    -24.34769793	      7.91324427	     67.20133274	     90.00000001	      0.00000000	      0.00000000
      1.38000000	     14.00198477	      0.78575189	     -3.24591294	      0.58320084	      0.97566611	     -0.08992515	     10.37026645	     -1.39363805	     -4.34187878	     26.51334805	      0.10089040	      0.46274522	      3.85335295	     -4.86931326	     -7.53752251	    -24.49725317	      4.88594411	     -4.90507031	      4.15657309	      1.86080049	      0.07254589	     12.83869575	     12.72850195	     -7.53752251	    -31.71453018	      0.48114086	      4.76214484	     -7.15860969	    -21.81253125	    -10.90864759	     73.35811146	     90.00000001	      0.00000000	      0.00000000	      9.87996851	    -24.65598816	      8.76428557	     67.46212059	     90.00000001	      0.00000000	      0.00000000
      1.39000000	     13.85158106	      1.14929665	     -2.95957833	      0.59624179	      0.97283332	     -0.08913361	     11.04852654	     -1.75905343	     -6.24442503	     23.48254076	     -0.60862792	      0.40984765	      3.27683521	     -1.47374005	     -7.53560321	    -25.10744545	      5.07802619	     -4.57494846	      4.34055456	      1.90474157	      0.07575697	     13.43809111	     12.90954316	     -7.53560321	    -31.56432273	      0.18351009	      4.51083965	     -7.46743846	    -21.56067713	    -11.31795128	     73.33141155	     90.00000001	      0.00000000	      0.00000000	     10.94695128	    -24.94279479	      9.60504672	     67.72321045	     90.00000001	      0.00000000	      0.00000000
      1.40000000	     13.60248360	      1.68713085	     -2.64596762	      0.60937528	      0.96979046	     -0.08847452	     11.92593459	     -2.38998321	     -8.58201075	     20.86023262	     -1.26101668	      0.36407974	      2.97114690	      2.87141138	     -7.53230638	    -25.55788263	      5.45218092	     -4.15417970	      4.63773072	      1.87628208	      0.08094367	     14.04092477	     13.09784087	     -7.53230638	    -31.29549694	     -0.26138758	      4.12909640	     -7.70524015	    -21.28522623	    -11.62556745	     73.13116103	     90.00000001	      0.00000000	      0.00000000	     11.93899505	    -25.17507221	     10.37079436	     67.93632500	     90.00000001	      0.00000000	      0.00000000
      1.41000000	     13.46258779	      2.02969858	     -2.29590601	      0.62267322	      0.96699688	     -0.08763718	     12.45099593	     -2.77848159	    -10.38692443	     18.10738368	     -1.55546219	      0.31603346	      2.01048524	      5.79667381	     -7.52982307	    -26.12120835	      5.56453434	     -3.89366789	      4.99058089	      1.90188745	      0.08710207	     14.59221586	     13.36671489	     -7.52982307	    -31.16585102	     -0.49947416	      3.81731854	     -8.00345797	    -21.00907178	    -11.97282495	     73.10886131	     90.00000001	      0.00000000	      0.00000000	     12.93445639	    -25.41136174	     11.24663729	     68.10593052	     90.00000001	      0.00000000	      0.00000000
      1.42000000	     13.32341627	      2.32088204	     -1.88259704	      0.63616319	      0.96433343	     -0.08674731	     12.82271927	     -3.13877468	    -11.85313043	     15.45720060	     -1.54012452	      0.26977904	      0.82178929	      7.78832576	     -7.52871660	    -26.65940009	      5.56007953	     -3.59210071	      5.44646855	      1.96026221	      0.09505881	     15.11224165	     13.59420925	     -7.52871660	    -31.02198098	     -0.67080578	      3.49901647	     -8.28418641	    -20.71810245	    -12.26946868	     72.94840031	     90.00000001	      0.00000000	      0.00000000	     13.87523600	    -25.62193751	     12.13552661	     68.23168122	     90.00000001	      0.00000000	      0.00000000
      1.43000000	     13.22837674	      2.65628665	     -1.45087586	      0.65002519	      0.96172288	     -0.08593742	     13.18303249	     -3.59850620	    -13.66910395	     13.33060655	     -1.54039590	      0.23266298	      0.16525330	     10.66973395	     -7.52631062	    -27.23195975	      5.59174003	     -3.50008803	      5.95890478	      1.95014873	      0.10400251	     15.61068162	     14.26040330	     -7.52631062	    -30.88634275	     -0.84873150	      3.12357705	     -8.60019125	    -20.45428874	    -12.52689324	     72.80306971	     90.00000001	      0.00000000	      0.00000000	     14.67204130	    -25.78853933	     12.92138745	     68.35970469	     90.00000001	      0.00000000	      0.00000000
      1.44000000	     12.98805271	      3.04804804	     -1.00619759	      0.66387130	      0.95909818	     -0.08523748	     13.52075348	     -4.12323550	    -14.43584475	     11.31211680	     -1.18326643	      0.19743368	     -0.72383382	     11.52243894	     -7.52584949	    -27.64404261	      5.69224881	     -3.15510386	      6.47121414	      1.89495333	      0.11294399	     15.91147912	     14.50849184	     -7.52584949	    -30.62724781	     -1.05563386	      2.68300774	     -8.84514965	    -20.22298763	    -12.65668694	     72.57270442	     90.00000001	      0.00000000	      0.00000000	     15.36273171	    -25.87523827	     13.54104699	     68.52297553	     90.00000001	      0.00000000	      0.00000000
      1.45000000	     12.98536927	      3.07315491	     -0.42835817	      0.67844384	      0.95694191	     -0.08428377	     13.45651590	     -4.19389173	    -15.62011242	      9.60710828	     -1.04950014	      0.16767567	     -1.44961788	     12.50500873	     -7.52495811	    -28.29717995	      5.22517953	     -3.25380734	      7.14099163	      2.00765130	      0.12463382	     16.27521832	     15.13136329	     -7.52495811	    -30.53704980	     -0.85747661	      2.39716855	     -9.28968969	    -19.94057210	    -12.92871768	     72.39834464	     90.00000001	      0.00000000	      0.00000000	     15.96702868	    -25.95321034	     14.41478102	     68.63326269	     90.00000001	      0.00000000	      0.00000000
      1.46000000	     12.77017028	      3.38262443	      0.07772152	      0.69268472	      0.95461683	     -0.08357962	     13.69768723	     -4.60051127	    -16.25879492	      8.46926044	     -0.83579323	      0.14781648	     -1.77728442	     12.87419512	     -7.52450807	    -28.65426047	      5.14983387	     -3.15291828	      7.86416657	      1.96320423	      0.13725560	     16.46697055	     15.68579737	     -7.52450807	    -30.30454155	     -0.92646834	      1.92243783	     -9.45913688	    -19.73611104	    -13.06012698	     72.13179750	     90.00000001	      0.00000000	      0.00000000	     16.46373116	    -25.99571228	     14.91869427	     68.76691674	     90.00000001	      0.00000000	      0.00000000
      1.47000000	     12.45483226	      3.58445710	      0.51102594	      0.70740696	      0.95225133	     -0.08270028	     14.07447411	     -4.84676100	    -16.78191160	      7.91459961	     -0.75444670	      0.13813582	     -1.81155290	     12.83321015	     -7.52426126	    -28.93370707	      4.94391724	     -3.15440501	      8.57973108	      1.99051302	      0.14974456	     16.45952281	     16.07105728	     -7.52426126	    -29.89994173	     -0.91197949	      1.60100370	     -9.75768410	    -19.56620597	    -13.13041734	     71.88306621	     90.00000001	      0.00000000	      0.00000000	     16.72789879	    -25.90216634	     15.26572320	     68.95120556	     90.00000001	      0.00000000	      0.00000000
      1.48000000	     12.30211806	      3.62467364	      1.24335834	      0.72237159	      0.95035837	     -0.08205177	     14.14944489	     -5.00113013	    -17.51348979	      7.75798971	     -0.69901576	      0.13540246	     -1.98953610	     12.55763988	     -7.52362689	    -29.17475270	      4.41356094	     -3.57453788	      9.74409255	      1.84973006	      0.17006650	     16.76381039	     17.51305421	     -7.52362689	    -29.66629565	     -0.61349443	      1.13924208	    -10.05799454	    -19.29721606	    -13.34678244	     71.57799354	     90.00000001	      0.00000000	      0.00000000	     16.99769877	    -25.94206844	     15.90399631	     69.13103906	     90.00000001	      0.00000000	      0.00000000
      1.49000000	     11.88828277	      3.73699488	      1.54531526	      0.73773223	      0.94817198	     -0.08106243	     14.57647750	     -5.07066190	    -17.28242215	      8.00438004	     -0.83486587	      0.13970279	     -2.04833592	     12.49166117	     -7.52353262	    -29.38673947	      4.18475627	     -3.48999298	     10.37815092	      1.81367551	      0.18113290	     16.61802403	     17.62830840	     -7.52353262	    -29.08918076	     -0.51496477	      0.94123231	    -10.43350278	    -19.19108038	    -13.33464345	     71.38249141	     90.00000001	      0.00000000	      0.00000000	     16.87391120	    -25.72545345	     15.99653847	     69.22619818	     90.00000001	      0.00000000	      0.00000000
      1.50000000	     11.84102465	      3.48350905	      2.12737330	      0.75327511	      0.94652857	     -0.08010112	     14.73885604	     -4.88162942	    -17.92508992	      9.17830208	     -0.96946337	      0.16019159	     -2.03909403	     11.14949540	     -7.52168762	    -29.35754254	      3.30038793	     -5.74586723	     12.35694298	      1.40014415	      0.21566934	     16.97139806	     22.01859614	     -7.52168762	    -28.90662661	      0.05693714	      0.68239231	    -10.65823650	    -19.09277163	    -13.50666391	     71.08707807	     90.00000001	      0.00000000	      0.00000000	     16.76109751	    -25.64548065	     16.22272173	     69.54383935	     90.00000001	      0.00000000	      0.00000000
