Model Marker Errors from IK
version=1
nRows=355
nColumns=4
inDegrees=no
endheader
time	total_squared_error	marker_error_RMS	marker_error_max
      0.00000000	      0.00045506	      0.00426642	      0.00873322
      0.01000000	      0.00043931	      0.00419194	      0.00767502
      0.02000000	      0.00044750	      0.00423082	      0.00800731
      0.03000000	      0.00049163	      0.00443455	      0.00810131
      0.04000000	      0.00056091	      0.00473670	      0.00912439
      0.05000000	      0.00064937	      0.00509655	      0.01071041
      0.06000000	      0.00076236	      0.00552216	      0.01292700
      0.07000000	      0.00088252	      0.00594146	      0.01441190
      0.08000000	      0.00100884	      0.00635244	      0.01602699
      0.09000000	      0.00113006	      0.00672328	      0.01721808
      0.10000000	      0.00124674	      0.00706184	      0.01848288
      0.11000000	      0.00134159	      0.00732554	      0.01887398
      0.12000000	      0.00143803	      0.00758428	      0.01968149
      0.13000000	      0.00152828	      0.00781865	      0.01984498
      0.14000000	      0.00161446	      0.00803606	      0.01990474
      0.15000000	      0.00170516	      0.00825871	      0.01988742
      0.16000000	      0.00178948	      0.00846046	      0.01988165
      0.17000000	      0.00180731	      0.00850250	      0.01937907
      0.18000000	      0.00177026	      0.00841489	      0.01874019
      0.19000000	      0.00165616	      0.00813919	      0.01783694
      0.20000000	      0.00149030	      0.00772087	      0.01712677
      0.21000000	      0.00127775	      0.00714913	      0.01517961
      0.22000000	      0.00105926	      0.00650924	      0.01342988
      0.23000000	      0.00085417	      0.00584522	      0.01134742
      0.24000000	      0.00067803	      0.00520779	      0.01071535
      0.25000000	      0.00054530	      0.00467034	      0.01073012
      0.26000000	      0.00047184	      0.00434435	      0.01057783
      0.27000000	      0.00044995	      0.00424242	      0.01054523
      0.28000000	      0.00046530	      0.00431418	      0.01068293
      0.29000000	      0.00048978	      0.00442619	      0.01079385
      0.30000000	      0.00049746	      0.00446076	      0.01106844
      0.31000000	      0.00051693	      0.00454720	      0.01070396
      0.32000000	      0.00049785	      0.00446250	      0.01095484
      0.33000000	      0.00048889	      0.00442216	      0.01051701
      0.34000000	      0.00046129	      0.00429555	      0.00979050
      0.35000000	      0.00043869	      0.00418896	      0.00882090
      0.36000000	      0.00041225	      0.00406077	      0.00780190
      0.37000000	      0.00038456	      0.00392204	      0.00730361
      0.38000000	      0.00037334	      0.00386438	      0.00743757
      0.39000000	      0.00036913	      0.00384253	      0.00761073
      0.40000000	      0.00037193	      0.00385712	      0.00768365
      0.41000000	      0.00037423	      0.00386902	      0.00770570
      0.42000000	      0.00038580	      0.00392836	      0.00768800
      0.43000000	      0.00039586	      0.00397924	      0.00780420
      0.44000000	      0.00041637	      0.00408102	      0.00777548
      0.45000000	      0.00043204	      0.00415713	      0.00787403
      0.46000000	      0.00045284	      0.00425602	      0.00815923
      0.47000000	      0.00047386	      0.00435365	      0.00856201
      0.48000000	      0.00048950	      0.00442494	      0.00888479
      0.49000000	      0.00049685	      0.00445802	      0.00885316
      0.50000000	      0.00049455	      0.00444771	      0.00846501
      0.51000000	      0.00048469	      0.00440315	      0.00813114
      0.52000000	      0.00049481	      0.00444888	      0.00767651
      0.53000000	      0.00048867	      0.00442118	      0.00786632
      0.54000000	      0.00051296	      0.00452974	      0.00809019
      0.55000000	      0.00055977	      0.00473189	      0.00836618
      0.56000000	      0.00062399	      0.00499597	      0.00880000
      0.57000000	      0.00070285	      0.00530228	      0.00929552
      0.58000000	      0.00077489	      0.00556738	      0.00966729
      0.59000000	      0.00085855	      0.00586021	      0.01124393
      0.60000000	      0.00092136	      0.00607078	      0.01169294
      0.61000000	      0.00099841	      0.00631951	      0.01339296
      0.62000000	      0.00103545	      0.00643568	      0.01319385
      0.63000000	      0.00109708	      0.00662444	      0.01426926
      0.64000000	      0.00113559	      0.00673969	      0.01418792
      0.65000000	      0.00115792	      0.00680565	      0.01451220
      0.66000000	      0.00117993	      0.00687003	      0.01452081
      0.67000000	      0.00117831	      0.00686530	      0.01419868
      0.68000000	      0.00112968	      0.00672215	      0.01349776
      0.69000000	      0.00103565	      0.00643630	      0.01297770
      0.70000000	      0.00092008	      0.00606656	      0.01210916
      0.71000000	      0.00081410	      0.00570649	      0.01092575
      0.72000000	      0.00070903	      0.00532552	      0.00987763
      0.73000000	      0.00060922	      0.00493646	      0.00885419
      0.74000000	      0.00053362	      0.00462004	      0.00811685
      0.75000000	      0.00048390	      0.00439953	      0.00823364
      0.76000000	      0.00047619	      0.00436434	      0.00824306
      0.77000000	      0.00049304	      0.00444088	      0.00858076
      0.78000000	      0.00052955	      0.00460241	      0.00906270
      0.79000000	      0.00056249	      0.00474335	      0.00959817
      0.80000000	      0.00060686	      0.00492689	      0.01040956
      0.81000000	      0.00064823	      0.00509209	      0.01143533
      0.82000000	      0.00069830	      0.00528506	      0.01239632
      0.83000000	      0.00076252	      0.00552277	      0.01320505
      0.84000000	      0.00081929	      0.00572466	      0.01455641
      0.85000000	      0.00088124	      0.00593713	      0.01543349
      0.86000000	      0.00093655	      0.00612063	      0.01622727
      0.87000000	      0.00097381	      0.00624119	      0.01734247
      0.88000000	      0.00100304	      0.00633417	      0.01787747
      0.89000000	      0.00102108	      0.00639088	      0.01842596
      0.90000000	      0.00103577	      0.00643667	      0.01890033
      0.91000000	      0.00104966	      0.00647969	      0.01922565
      0.92000000	      0.00106444	      0.00652515	      0.01949260
      0.93000000	      0.00108445	      0.00658620	      0.02005222
      0.94000000	      0.00110444	      0.00664663	      0.01984119
      0.95000000	      0.00111851	      0.00668882	      0.02005787
      0.96000000	      0.00112972	      0.00672225	      0.02032167
      0.97000000	      0.00111623	      0.00668201	      0.02004133
      0.98000000	      0.00106598	      0.00652986	      0.01858564
      0.99000000	      0.00100543	      0.00634171	      0.01802952
      1.00000000	      0.00090261	      0.00600871	      0.01637977
      1.01000000	      0.00079172	      0.00562751	      0.01468760
      1.02000000	      0.00067670	      0.00520268	      0.01269207
      1.03000000	      0.00057229	      0.00478450	      0.01063331
      1.04000000	      0.00050144	      0.00447856	      0.01001796
      1.05000000	      0.00046921	      0.00433227	      0.01012001
      1.06000000	      0.00046393	      0.00430781	      0.00975619
      1.07000000	      0.00052980	      0.00460346	      0.00981668
      1.08000000	      0.00064634	      0.00508465	      0.00986832
      1.09000000	      0.00080596	      0.00567790	      0.01201707
      1.10000000	      0.00099779	      0.00631757	      0.01464002
      1.11000000	      0.00117815	      0.00686484	      0.01639383
      1.12000000	      0.00135697	      0.00736740	      0.01823575
      1.13000000	      0.00152590	      0.00781255	      0.01971521
      1.14000000	      0.00167145	      0.00817668	      0.02054704
      1.15000000	      0.00181153	      0.00851242	      0.02115302
      1.16000000	      0.00193458	      0.00879677	      0.02145851
      1.17000000	      0.00202481	      0.00899957	      0.02149213
      1.18000000	      0.00207094	      0.00910151	      0.02138945
      1.19000000	      0.00204727	      0.00904936	      0.02095417
      1.20000000	      0.00192640	      0.00877815	      0.01981226
      1.21000000	      0.00174506	      0.00835479	      0.01855427
      1.22000000	      0.00151873	      0.00779419	      0.01759123
      1.23000000	      0.00124438	      0.00705515	      0.01491889
      1.24000000	      0.00099229	      0.00630012	      0.01365546
      1.25000000	      0.00076426	      0.00552904	      0.01081911
      1.26000000	      0.00060503	      0.00491948	      0.01053960
      1.27000000	      0.00052949	      0.00460215	      0.01063811
      1.28000000	      0.00053637	      0.00463192	      0.01070975
      1.29000000	      0.00059071	      0.00486090	      0.01112718
      1.30000000	      0.00065089	      0.00510249	      0.01173701
      1.31000000	      0.00069591	      0.00527603	      0.01248323
      1.32000000	      0.00073750	      0.00543140	      0.01313587
      1.33000000	      0.00076470	      0.00553065	      0.01370184
      1.34000000	      0.00077477	      0.00556693	      0.01424516
      1.35000000	      0.00077322	      0.00556138	      0.01441333
      1.36000000	      0.00075830	      0.00550746	      0.01441411
      1.37000000	      0.00072485	      0.00538463	      0.01414497
      1.38000000	      0.00068585	      0.00523775	      0.01365323
      1.39000000	      0.00064487	      0.00507885	      0.01315850
      1.40000000	      0.00061224	      0.00494868	      0.01274200
      1.41000000	      0.00057780	      0.00480750	      0.01223794
      1.42000000	      0.00056230	      0.00474256	      0.01208695
      1.43000000	      0.00055214	      0.00469952	      0.01175935
      1.44000000	      0.00055725	      0.00472124	      0.01195890
      1.45000000	      0.00057607	      0.00480029	      0.01219480
      1.46000000	      0.00056170	      0.00474005	      0.01164602
      1.47000000	      0.00056301	      0.00474555	      0.01149258
      1.48000000	      0.00055900	      0.00472865	      0.01130980
      1.49000000	      0.00054122	      0.00465284	      0.01050641
      1.50000000	      0.00052603	      0.00458707	      0.00983554
      1.51000000	      0.00049240	      0.00443802	      0.00816399
      1.52000000	      0.00047131	      0.00434196	      0.00747410
      1.53000000	      0.00047491	      0.00435847	      0.00808558
      1.54000000	      0.00047281	      0.00434886	      0.00824806
      1.55000000	      0.00050537	      0.00449608	      0.00870874
      1.56000000	      0.00055697	      0.00472003	      0.00920389
      1.57000000	      0.00060341	      0.00491287	      0.00921396
      1.58000000	      0.00067337	      0.00518988	      0.01042527
      1.59000000	      0.00074013	      0.00544107	      0.01183462
      1.60000000	      0.00081885	      0.00572310	      0.01343797
      1.61000000	      0.00087864	      0.00592836	      0.01429887
      1.62000000	      0.00087285	      0.00590882	      0.01404255
      1.63000000	      0.00087587	      0.00591903	      0.01377934
      1.64000000	      0.00085835	      0.00585952	      0.01268691
      1.65000000	      0.00081795	      0.00571998	      0.01129997
      1.66000000	      0.00079567	      0.00564151	      0.01068560
      1.67000000	      0.00077076	      0.00555250	      0.01022424
      1.68000000	      0.00072265	      0.00537643	      0.00964617
      1.69000000	      0.00065796	      0.00513015	      0.00921006
      1.70000000	      0.00057866	      0.00481109	      0.00877877
      1.71000000	      0.00050333	      0.00448701	      0.00819315
      1.72000000	      0.00043639	      0.00417799	      0.00862233
      1.73000000	      0.00039834	      0.00399169	      0.00893023
      1.74000000	      0.00038063	      0.00390194	      0.00937484
      1.75000000	      0.00040286	      0.00401430	      0.00946159
      1.76000000	      0.00044510	      0.00421950	      0.00959521
      1.77000000	      0.00050689	      0.00450285	      0.00956502
      1.78000000	      0.00057499	      0.00479577	      0.00971500
      1.79000000	      0.00064910	      0.00509550	      0.01092764
      1.80000000	      0.00073181	      0.00541041	      0.01223194
      1.81000000	      0.00081478	      0.00570885	      0.01340143
      1.82000000	      0.00089508	      0.00598356	      0.01451049
      1.83000000	      0.00097232	      0.00623640	      0.01531906
      1.84000000	      0.00103067	      0.00642081	      0.01634591
      1.85000000	      0.00107681	      0.00656295	      0.01678666
      1.86000000	      0.00109294	      0.00661193	      0.01744557
      1.87000000	      0.00109221	      0.00660971	      0.01779563
      1.88000000	      0.00107411	      0.00655471	      0.01813617
      1.89000000	      0.00105108	      0.00648406	      0.01837955
      1.90000000	      0.00102975	      0.00641794	      0.01864670
      1.91000000	      0.00101662	      0.00637690	      0.01891828
      1.92000000	      0.00101743	      0.00637942	      0.01925158
      1.93000000	      0.00103258	      0.00642677	      0.01922077
      1.94000000	      0.00105258	      0.00648870	      0.01972336
      1.95000000	      0.00107382	      0.00655383	      0.01995764
      1.96000000	      0.00108202	      0.00657883	      0.01944427
      1.97000000	      0.00106924	      0.00653985	      0.01938762
      1.98000000	      0.00103245	      0.00642635	      0.01910758
      1.99000000	      0.00094290	      0.00614132	      0.01735546
      2.00000000	      0.00083337	      0.00577363	      0.01609231
      2.01000000	      0.00069768	      0.00528272	      0.01368160
      2.02000000	      0.00058088	      0.00482030	      0.01177245
      2.03000000	      0.00046826	      0.00432785	      0.00956491
      2.04000000	      0.00041359	      0.00406739	      0.00879971
      2.05000000	      0.00042533	      0.00412471	      0.00923051
      2.06000000	      0.00046795	      0.00432644	      0.00894658
      2.07000000	      0.00057259	      0.00478577	      0.00911879
      2.08000000	      0.00071219	      0.00533739	      0.01163875
      2.09000000	      0.00085975	      0.00586430	      0.01369110
      2.10000000	      0.00102827	      0.00641332	      0.01562641
      2.11000000	      0.00116068	      0.00681374	      0.01765341
      2.12000000	      0.00130957	      0.00723760	      0.01936354
      2.13000000	      0.00146077	      0.00764402	      0.02056541
      2.14000000	      0.00162655	      0.00806609	      0.02158382
      2.15000000	      0.00180609	      0.00849962	      0.02237437
      2.16000000	      0.00199176	      0.00892583	      0.02312952
      2.17000000	      0.00213977	      0.00925153	      0.02319261
      2.18000000	      0.00225701	      0.00950161	      0.02325524
      2.19000000	      0.00230809	      0.00960852	      0.02309786
      2.20000000	      0.00228321	      0.00955660	      0.02256227
      2.21000000	      0.00219379	      0.00936759	      0.02197131
      2.22000000	      0.00200810	      0.00896236	      0.02003929
      2.23000000	      0.00178333	      0.00844591	      0.01864919
      2.24000000	      0.00150870	      0.00776839	      0.01608979
      2.25000000	      0.00123195	      0.00701983	      0.01542026
      2.26000000	      0.00097074	      0.00623133	      0.01446011
      2.27000000	      0.00075554	      0.00549742	      0.01324143
      2.28000000	      0.00061053	      0.00494180	      0.01158404
      2.29000000	      0.00055354	      0.00470548	      0.01015932
      2.30000000	      0.00054331	      0.00466182	      0.01008951
      2.31000000	      0.00055832	      0.00472574	      0.01028374
      2.32000000	      0.00057552	      0.00479800	      0.01058665
      2.33000000	      0.00057974	      0.00481555	      0.01087975
      2.34000000	      0.00058086	      0.00482020	      0.01119199
      2.35000000	      0.00057819	      0.00480910	      0.01140395
      2.36000000	      0.00057083	      0.00477840	      0.01149163
      2.37000000	      0.00055267	      0.00470180	      0.01151417
      2.38000000	      0.00052407	      0.00457851	      0.01131186
      2.39000000	      0.00049679	      0.00445776	      0.01093853
      2.40000000	      0.00047509	      0.00435930	      0.01070264
      2.41000000	      0.00044781	      0.00423228	      0.01014649
      2.42000000	      0.00043192	      0.00415655	      0.00970197
      2.43000000	      0.00042365	      0.00411654	      0.00940823
      2.44000000	      0.00041794	      0.00408871	      0.00909709
      2.45000000	      0.00042022	      0.00409987	      0.00898574
      2.46000000	      0.00042729	      0.00413421	      0.00880866
      2.47000000	      0.00044040	      0.00419714	      0.00871766
      2.48000000	      0.00041906	      0.00409418	      0.00814861
      2.49000000	      0.00041781	      0.00408807	      0.00800291
      2.50000000	      0.00042463	      0.00412130	      0.00768946
      2.51000000	      0.00041694	      0.00408381	      0.00775693
      2.52000000	      0.00042907	      0.00414282	      0.00765742
      2.53000000	      0.00045197	      0.00425192	      0.00762089
      2.54000000	      0.00046090	      0.00429371	      0.00759865
      2.55000000	      0.00050667	      0.00450186	      0.00867361
      2.56000000	      0.00054125	      0.00465298	      0.00847988
      2.57000000	      0.00058841	      0.00485141	      0.00980673
      2.58000000	      0.00062454	      0.00499818	      0.00985222
      2.59000000	      0.00066464	      0.00515612	      0.01069372
      2.60000000	      0.00073251	      0.00541299	      0.01296067
      2.61000000	      0.00076048	      0.00551536	      0.01244619
      2.62000000	      0.00082034	      0.00572832	      0.01384229
      2.63000000	      0.00087597	      0.00591937	      0.01420695
      2.64000000	      0.00092669	      0.00608832	      0.01436934
      2.65000000	      0.00099740	      0.00631634	      0.01545596
      2.66000000	      0.00104488	      0.00646492	      0.01462741
      2.67000000	      0.00110541	      0.00664954	      0.01449152
      2.68000000	      0.00118008	      0.00687046	      0.01472808
      2.69000000	      0.00117044	      0.00684233	      0.01319611
      2.70000000	      0.00114509	      0.00676784	      0.01248268
      2.71000000	      0.00105258	      0.00648871	      0.01119218
      2.72000000	      0.00090936	      0.00603112	      0.01002751
      2.73000000	      0.00074952	      0.00547548	      0.00851029
      2.74000000	      0.00060955	      0.00493783	      0.00858052
      2.75000000	      0.00052860	      0.00459826	      0.00827730
      2.76000000	      0.00049697	      0.00445857	      0.00819003
      2.77000000	      0.00051099	      0.00452102	      0.00848946
      2.78000000	      0.00053749	      0.00463675	      0.00941538
      2.79000000	      0.00055967	      0.00473145	      0.01043127
      2.80000000	      0.00058170	      0.00482369	      0.01103005
      2.81000000	      0.00061300	      0.00495176	      0.01134014
      2.82000000	      0.00065527	      0.00511964	      0.01192442
      2.83000000	      0.00070754	      0.00531994	      0.01238815
      2.84000000	      0.00075762	      0.00550498	      0.01289380
      2.85000000	      0.00080172	      0.00566295	      0.01334277
      2.86000000	      0.00082166	      0.00573291	      0.01430324
      2.87000000	      0.00085009	      0.00583127	      0.01454822
      2.88000000	      0.00086261	      0.00587406	      0.01484759
      2.89000000	      0.00085668	      0.00585381	      0.01523492
      2.90000000	      0.00085241	      0.00583921	      0.01562562
      2.91000000	      0.00083668	      0.00578508	      0.01555888
      2.92000000	      0.00082219	      0.00573479	      0.01575899
      2.93000000	      0.00080853	      0.00568692	      0.01550701
      2.94000000	      0.00079426	      0.00563654	      0.01541446
      2.95000000	      0.00078904	      0.00561797	      0.01567671
      2.96000000	      0.00076160	      0.00551940	      0.01481114
      2.97000000	      0.00073724	      0.00543042	      0.01408198
      2.98000000	      0.00069718	      0.00528082	      0.01330692
      2.99000000	      0.00064501	      0.00507940	      0.01217024
      3.00000000	      0.00058434	      0.00483463	      0.01114495
      3.01000000	      0.00053040	      0.00460608	      0.01013097
      3.02000000	      0.00046505	      0.00431300	      0.00888258
      3.03000000	      0.00043065	      0.00415042	      0.00779631
      3.04000000	      0.00043048	      0.00414961	      0.00741290
      3.05000000	      0.00045232	      0.00425354	      0.00776112
      3.06000000	      0.00052472	      0.00458135	      0.00847734
      3.07000000	      0.00062838	      0.00501349	      0.00995633
      3.08000000	      0.00075853	      0.00550827	      0.01193957
      3.09000000	      0.00089507	      0.00598354	      0.01359894
      3.10000000	      0.00103910	      0.00644701	      0.01559591
      3.11000000	      0.00116684	      0.00683180	      0.01725658
      3.12000000	      0.00127191	      0.00713277	      0.01854012
      3.13000000	      0.00134807	      0.00734320	      0.01914638
      3.14000000	      0.00142370	      0.00754640	      0.02001607
      3.15000000	      0.00149759	      0.00773973	      0.02055490
      3.16000000	      0.00157835	      0.00794568	      0.02098500
      3.17000000	      0.00166023	      0.00814918	      0.02089158
      3.18000000	      0.00174824	      0.00836238	      0.02096646
      3.19000000	      0.00182823	      0.00855157	      0.02106739
      3.20000000	      0.00188532	      0.00868407	      0.02107137
      3.21000000	      0.00190492	      0.00872908	      0.02087168
      3.22000000	      0.00187490	      0.00866002	      0.02041132
      3.23000000	      0.00180599	      0.00849939	      0.02015442
      3.24000000	      0.00167050	      0.00817436	      0.01879486
      3.25000000	      0.00149545	      0.00773421	      0.01727350
      3.26000000	      0.00128398	      0.00716652	      0.01532334
      3.27000000	      0.00106166	      0.00651663	      0.01482637
      3.28000000	      0.00083960	      0.00579518	      0.01407706
      3.29000000	      0.00065799	      0.00513025	      0.01303441
      3.30000000	      0.00053334	      0.00461883	      0.01174832
      3.31000000	      0.00047904	      0.00437739	      0.01069645
      3.32000000	      0.00046957	      0.00433389	      0.01005513
      3.33000000	      0.00046947	      0.00433346	      0.00964574
      3.34000000	      0.00047399	      0.00435425	      0.00938581
      3.35000000	      0.00047564	      0.00436184	      0.00917640
      3.36000000	      0.00048395	      0.00439978	      0.00907116
      3.37000000	      0.00048971	      0.00442587	      0.00904510
      3.38000000	      0.00049387	      0.00444461	      0.00895094
      3.39000000	      0.00049480	      0.00444883	      0.00888301
      3.40000000	      0.00049085	      0.00443101	      0.00873877
      3.41000000	      0.00048733	      0.00441509	      0.00872646
      3.42000000	      0.00048097	      0.00438623	      0.00856924
      3.43000000	      0.00047414	      0.00435497	      0.00846230
      3.44000000	      0.00047068	      0.00433904	      0.00839111
      3.45000000	      0.00045625	      0.00427200	      0.00850998
      3.46000000	      0.00045358	      0.00425947	      0.00853529
      3.47000000	      0.00047053	      0.00433835	      0.00846545
      3.48000000	      0.00044877	      0.00423685	      0.00869349
      3.49000000	      0.00046190	      0.00429839	      0.00827161
      3.50000000	      0.00044846	      0.00423538	      0.00856705
      3.51000000	      0.00044489	      0.00421849	      0.00842279
      3.52000000	      0.00044831	      0.00423468	      0.00895243
      3.53000000	      0.00044371	      0.00421288	      0.00922216
      3.54000000	      0.00044824	      0.00423434	      0.00965264
