SUBJ36_1_JMP_02_knee_ankle_joint_personalization_task_1_finalErrors.sto
version=1
nRows=324
nColumns=26
inDegrees=no
endheader
time	R_Asis	L_Asis	Sacral	R_Thigh_Lateral	R_Knee_Lateral	R_Shank_Lateral	R_Ankle_Lateral	R_Heel	R_Toe	L_Thigh_Lateral	L_Knee_Lateral	L_Shank_Lateral	L_Ankle_Lateral	L_Heel	L_Toe	R_Shoulder	L_Shoulder	C7	J_Notch	Thoracic	Sternum	R_Elbow	L_Elbow	R_Wrist	L_Wrist
0.00000000	0.00644371	0.00738794	0.00396839	0.01220931	0.01474767	0.02288492	0.03103022	0.01991081	0.01364694	0.00351872	0.00357739	0.00247444	0.00780860	0.00330678	0.00403747	0.00533674	0.00163395	0.00305141	0.00753322	0.00884932	0.00474294	0.00537335	0.00586369	0.00556646	0.00335166
0.01000000	0.00673472	0.00675531	0.00399055	0.01274502	0.01482581	0.02339071	0.03071221	0.02000048	0.01385078	0.00409339	0.00423268	0.00286321	0.00766368	0.00301505	0.00379274	0.00503882	0.00150179	0.00308855	0.00772142	0.00857208	0.00454425	0.00541610	0.00570744	0.00571330	0.00304616
0.02000000	0.00677120	0.00623811	0.00406310	0.01329602	0.01482346	0.02378579	0.03056045	0.02005097	0.01379054	0.00430257	0.00461659	0.00310616	0.00759972	0.00283097	0.00366599	0.00499454	0.00143935	0.00305005	0.00781495	0.00807640	0.00435154	0.00568570	0.00546093	0.00591495	0.00279014
0.03000000	0.00693334	0.00575883	0.00441219	0.01362917	0.01461274	0.02389327	0.03037893	0.02024639	0.01370553	0.00437834	0.00481863	0.00339969	0.00759264	0.00265601	0.00358376	0.00489725	0.00146875	0.00308369	0.00787308	0.00763147	0.00412310	0.00588049	0.00525945	0.00608996	0.00254949
0.04000000	0.00669026	0.00550913	0.00484741	0.01399908	0.01433520	0.02360050	0.03027255	0.02027579	0.01359313	0.00411630	0.00489771	0.00368145	0.00764392	0.00247978	0.00368346	0.00483348	0.00154334	0.00313654	0.00788489	0.00711662	0.00410444	0.00615124	0.00483963	0.00621018	0.00211113
0.05000000	0.00670959	0.00605018	0.00546314	0.01382083	0.01369511	0.02293415	0.03017062	0.02025632	0.01337247	0.00344741	0.00457559	0.00438986	0.00773543	0.00229065	0.00378452	0.00494792	0.00197433	0.00311757	0.00797285	0.00658627	0.00436909	0.00605219	0.00404469	0.00593781	0.00160936
0.06000000	0.00674319	0.00568962	0.00557722	0.01429832	0.01323272	0.02178006	0.03025387	0.01985800	0.01310053	0.00364273	0.00528664	0.00496045	0.00750875	0.00253590	0.00369191	0.00498390	0.00220858	0.00304093	0.00773270	0.00599809	0.00437659	0.00632363	0.00368803	0.00627469	0.00111073
0.07000000	0.00681499	0.00581376	0.00613690	0.01418071	0.01248858	0.02036364	0.03023893	0.01939555	0.01289612	0.00350461	0.00526064	0.00609202	0.00749256	0.00229841	0.00362472	0.00488901	0.00261046	0.00308644	0.00760296	0.00561782	0.00459594	0.00630687	0.00327445	0.00608627	0.00058986
0.08000000	0.00684614	0.00543894	0.00630283	0.01411079	0.01158579	0.01877685	0.03030063	0.01890832	0.01273891	0.00410563	0.00544143	0.00729803	0.00732146	0.00238761	0.00338290	0.00489002	0.00297578	0.00317219	0.00717892	0.00511161	0.00467656	0.00669564	0.00292298	0.00630116	0.00009065
0.09000000	0.00698490	0.00539482	0.00655787	0.01378815	0.01058543	0.01708519	0.03035310	0.01832080	0.01243560	0.00468273	0.00590116	0.00880403	0.00703995	0.00230800	0.00302416	0.00489968	0.00331088	0.00310564	0.00693787	0.00476832	0.00500477	0.00673072	0.00258244	0.00643791	0.00057740
0.10000000	0.00715033	0.00500096	0.00671561	0.01350955	0.00954049	0.01524885	0.03038771	0.01776509	0.01210726	0.00547799	0.00673914	0.01037615	0.00657273	0.00238565	0.00267157	0.00496404	0.00373772	0.00312477	0.00668738	0.00445922	0.00525841	0.00688107	0.00231063	0.00648792	0.00104604
0.11000000	0.00729471	0.00458298	0.00691557	0.01307023	0.00846990	0.01354948	0.03036914	0.01715662	0.01174364	0.00630910	0.00763524	0.01199052	0.00612085	0.00238419	0.00227255	0.00506318	0.00405954	0.00304473	0.00645764	0.00424062	0.00549958	0.00709175	0.00207477	0.00664592	0.00144884
0.12000000	0.00733862	0.00428346	0.00709101	0.01251071	0.00745155	0.01211010	0.03021830	0.01652855	0.01135861	0.00711211	0.00847568	0.01354590	0.00563980	0.00241134	0.00197438	0.00514250	0.00435085	0.00290120	0.00634617	0.00405800	0.00586601	0.00735626	0.00188509	0.00679221	0.00174588
0.13000000	0.00735875	0.00430421	0.00732112	0.01193620	0.00617789	0.01100370	0.03004798	0.01582404	0.01086462	0.00863147	0.00941379	0.01439350	0.00513014	0.00281026	0.00172260	0.00530318	0.00448869	0.00263079	0.00621209	0.00373845	0.00633381	0.00783295	0.00160671	0.00726764	0.00207507
0.14000000	0.00722363	0.00338384	0.00755883	0.01108349	0.00539276	0.01000629	0.02974180	0.01507316	0.01053175	0.00819389	0.01064918	0.01618710	0.00462015	0.00260958	0.00131514	0.00533658	0.00476963	0.00257999	0.00615501	0.00386331	0.00648771	0.00786749	0.00160843	0.00716174	0.00203321
0.15000000	0.00710825	0.00314013	0.00776754	0.01010719	0.00452937	0.00954189	0.02928957	0.01431442	0.01016254	0.00833444	0.01165482	0.01719043	0.00429180	0.00263095	0.00101936	0.00549276	0.00495503	0.00250051	0.00606025	0.00378083	0.00680766	0.00823481	0.00140786	0.00738718	0.00204515
0.16000000	0.00693786	0.00294440	0.00802587	0.00895482	0.00379061	0.00945742	0.02877086	0.01350088	0.00982487	0.00853980	0.01246604	0.01783017	0.00398077	0.00272219	0.00092177	0.00569853	0.00510773	0.00254732	0.00596321	0.00370673	0.00706408	0.00857805	0.00130989	0.00765195	0.00190422
0.17000000	0.00675385	0.00323728	0.00843332	0.00723613	0.00321260	0.00996746	0.02813815	0.01277636	0.00967659	0.00904139	0.01295277	0.01799610	0.00374301	0.00277090	0.00075926	0.00595605	0.00509228	0.00254321	0.00588664	0.00349708	0.00743689	0.00901624	0.00104535	0.00809529	0.00176273
0.18000000	0.00655566	0.00322663	0.00876723	0.00562772	0.00313065	0.01076631	0.02747538	0.01210734	0.00938402	0.00913784	0.01352415	0.01807543	0.00362165	0.00284208	0.00095383	0.00634832	0.00511825	0.00264455	0.00576949	0.00331775	0.00757877	0.00948647	0.00103851	0.00839972	0.00146988
0.19000000	0.00667941	0.00279838	0.00889557	0.00451979	0.00283785	0.01166930	0.02716555	0.01089402	0.00871612	0.00865493	0.01447205	0.01832093	0.00360820	0.00305478	0.00100065	0.00674897	0.00529611	0.00292805	0.00565098	0.00326489	0.00754259	0.00981451	0.00103872	0.00867444	0.00117699
0.20000000	0.00714356	0.00327197	0.00950048	0.00272817	0.00297404	0.01329461	0.02655530	0.01021924	0.00859144	0.00894384	0.01481471	0.01800712	0.00358199	0.00311033	0.00092126	0.00722310	0.00517810	0.00289052	0.00558500	0.00293699	0.00781553	0.01029701	0.00087915	0.00923717	0.00101293
0.21000000	0.00755822	0.00325096	0.00989255	0.00247071	0.00327376	0.01518252	0.02620442	0.00925669	0.00790821	0.00875045	0.01566427	0.01792397	0.00359126	0.00333928	0.00122207	0.00761481	0.00521849	0.00302517	0.00547268	0.00283396	0.00778951	0.01068572	0.00080368	0.00947854	0.00081780
0.22000000	0.00836805	0.00355633	0.01046759	0.00363274	0.00358968	0.01734416	0.02578661	0.00843996	0.00743241	0.00877804	0.01621356	0.01764543	0.00353855	0.00338258	0.00125445	0.00800368	0.00523167	0.00305140	0.00535981	0.00264760	0.00785297	0.01106398	0.00074102	0.00985997	0.00067547
0.23000000	0.00919359	0.00400820	0.01129617	0.00579270	0.00389410	0.01923958	0.02541501	0.00792585	0.00725305	0.00893383	0.01646299	0.01730626	0.00356311	0.00344201	0.00111199	0.00834381	0.00516902	0.00308050	0.00530358	0.00239451	0.00797367	0.01136094	0.00057697	0.01022223	0.00063579
0.24000000	0.00982192	0.00436591	0.01198269	0.00760444	0.00396360	0.02100523	0.02515116	0.00758285	0.00686871	0.00905375	0.01688951	0.01691279	0.00352332	0.00341789	0.00119385	0.00858539	0.00513703	0.00311398	0.00522006	0.00226052	0.00802779	0.01161002	0.00043947	0.01050041	0.00057634
0.25000000	0.01019182	0.00478233	0.01251675	0.00889060	0.00417519	0.02234774	0.02496106	0.00734350	0.00649466	0.00910987	0.01731959	0.01655572	0.00341013	0.00332899	0.00119957	0.00876538	0.00510792	0.00314952	0.00513719	0.00218829	0.00805275	0.01181004	0.00032391	0.01070004	0.00053586
0.26000000	0.01091304	0.00512535	0.01285509	0.00983850	0.00470090	0.02305273	0.02465513	0.00715575	0.00649892	0.00927420	0.01725582	0.01622490	0.00349876	0.00322830	0.00138362	0.00892422	0.00503607	0.00316761	0.00505903	0.00221803	0.00807954	0.01196321	0.00057247	0.01100508	0.00029573
0.27000000	0.01110514	0.00576589	0.01328402	0.00975410	0.00477957	0.02306441	0.02459511	0.00736537	0.00627091	0.00947374	0.01736065	0.01564624	0.00330751	0.00288513	0.00123783	0.00904074	0.00503307	0.00321995	0.00504791	0.00215406	0.00808091	0.01205290	0.00037611	0.01106842	0.00034111
0.28000000	0.01134687	0.00637061	0.01345304	0.00909347	0.00483467	0.02251070	0.02441425	0.00786539	0.00600197	0.00973800	0.01710459	0.01501455	0.00335458	0.00266420	0.00109438	0.00913520	0.00494015	0.00324037	0.00503348	0.00222308	0.00805350	0.01219822	0.00051663	0.01118405	0.00021635
0.29000000	0.01081412	0.00717770	0.01291200	0.00731172	0.00555457	0.02168942	0.02434493	0.00749518	0.00565743	0.00947650	0.01768023	0.01459837	0.00293004	0.00227711	0.00092534	0.00901572	0.00496539	0.00323107	0.00498468	0.00252003	0.00781537	0.01214135	0.00064622	0.01104373	0.00010419
0.30000000	0.01105825	0.00767896	0.01283662	0.00580972	0.00580532	0.02008897	0.02405895	0.00795450	0.00568118	0.00957420	0.01702126	0.01372352	0.00294128	0.00179194	0.00092095	0.00905431	0.00483647	0.00317927	0.00496634	0.00268490	0.00768662	0.01225852	0.00093646	0.01112940	0.00015434
0.31000000	0.01103481	0.00824259	0.01247070	0.00433328	0.00613755	0.01825279	0.02379851	0.00829090	0.00582635	0.00959325	0.01619459	0.01272859	0.00303696	0.00140495	0.00093846	0.00903732	0.00462608	0.00308681	0.00493834	0.00295082	0.00748662	0.01231015	0.00134014	0.01120982	0.00038372
0.32000000	0.01107165	0.00867525	0.01187294	0.00317989	0.00584984	0.01650541	0.02356601	0.00916695	0.00594652	0.00963231	0.01480204	0.01136066	0.00340675	0.00114046	0.00075094	0.00910616	0.00433606	0.00292883	0.00491502	0.00314750	0.00734018	0.01242715	0.00184532	0.01139074	0.00061672
0.33000000	0.01091498	0.00885505	0.01110471	0.00338402	0.00666770	0.01482124	0.02362866	0.00860043	0.00640662	0.00906716	0.01391782	0.01013251	0.00341759	0.00122317	0.00103118	0.00887435	0.00416575	0.00284219	0.00480733	0.00354888	0.00684476	0.01225335	0.00226738	0.01121482	0.00095201
0.34000000	0.01055620	0.00899227	0.00997541	0.00438535	0.00681361	0.01369546	0.02387427	0.00838503	0.00683769	0.00838652	0.01259601	0.00873877	0.00357721	0.00178522	0.00125705	0.00859170	0.00384874	0.00264113	0.00472817	0.00396505	0.00646036	0.01196608	0.00269343	0.01111397	0.00117517
0.35000000	0.01046717	0.00892386	0.00879689	0.00530755	0.00657487	0.01269723	0.02447490	0.00874173	0.00725186	0.00789765	0.01030996	0.00719811	0.00374128	0.00205926	0.00190684	0.00834941	0.00363317	0.00258599	0.00465986	0.00415091	0.00605151	0.01171326	0.00321587	0.01087291	0.00139185
0.36000000	0.01011900	0.00838147	0.00740342	0.00652648	0.00718404	0.01248436	0.02496431	0.00826376	0.00772157	0.00645585	0.00896271	0.00601238	0.00380195	0.00287055	0.00132351	0.00769367	0.00338744	0.00252654	0.00460511	0.00456177	0.00559807	0.01103900	0.00320112	0.01034125	0.00140167
0.37000000	0.00762933	0.00867628	0.00643733	0.00605140	0.00563083	0.01214694	0.02583354	0.00907149	0.00811968	0.00509699	0.00694108	0.00437736	0.00342158	0.00256793	0.00145256	0.00725724	0.00295740	0.00228587	0.00446590	0.00471552	0.00513485	0.01039618	0.00364989	0.01009391	0.00171760
0.38000000	0.00669220	0.00772556	0.00581485	0.00621945	0.00556073	0.01221032	0.02637312	0.00930010	0.00851222	0.00346196	0.00457911	0.00377473	0.00323939	0.00268762	0.00146160	0.00644118	0.00263321	0.00224208	0.00451129	0.00495345	0.00477545	0.00945796	0.00360735	0.00933552	0.00173379
0.39000000	0.00589425	0.00679695	0.00529327	0.00655611	0.00572374	0.01254633	0.02677976	0.00927506	0.00870233	0.00177493	0.00248517	0.00378208	0.00301036	0.00266602	0.00146934	0.00550912	0.00224958	0.00225122	0.00466736	0.00519132	0.00453130	0.00845352	0.00340770	0.00841909	0.00157994
0.40000000	0.00552045	0.00564402	0.00489202	0.00694902	0.00617675	0.01285270	0.02693503	0.00924062	0.00889338	0.00131565	0.00184956	0.00402485	0.00293516	0.00285540	0.00209618	0.00468482	0.00195546	0.00231928	0.00491126	0.00528173	0.00450998	0.00756400	0.00298160	0.00758035	0.00126372
0.41000000	0.00401569	0.00579103	0.00431300	0.00655392	0.00536304	0.01287514	0.02727909	0.00939854	0.00904708	0.00285827	0.00202625	0.00357066	0.00275941	0.00270040	0.00116818	0.00409148	0.00162802	0.00215999	0.00488391	0.00526965	0.00411655	0.00688712	0.00307507	0.00704503	0.00141849
0.42000000	0.00403530	0.00584003	0.00377084	0.00675479	0.00557840	0.01304722	0.02712074	0.00944041	0.00913883	0.00326337	0.00261775	0.00457532	0.00317406	0.00266750	0.00141301	0.00351900	0.00138776	0.00214528	0.00497704	0.00531862	0.00390621	0.00628357	0.00292421	0.00648559	0.00146483
0.43000000	0.00337906	0.00628369	0.00339335	0.00681975	0.00541857	0.01289956	0.02719200	0.00916783	0.00919781	0.00423675	0.00288228	0.00467705	0.00359741	0.00317345	0.00107324	0.00311842	0.00124300	0.00212867	0.00498912	0.00534938	0.00364310	0.00595765	0.00287405	0.00604696	0.00149859
0.44000000	0.00294955	0.00613906	0.00316892	0.00690618	0.00552125	0.01295551	0.02692783	0.00905491	0.00924948	0.00502421	0.00345471	0.00502101	0.00440495	0.00372499	0.00115354	0.00282096	0.00112676	0.00212754	0.00504686	0.00543157	0.00352900	0.00567289	0.00285635	0.00581866	0.00153852
0.45000000	0.00242851	0.00634167	0.00323075	0.00705573	0.00563623	0.01301704	0.02668470	0.00891666	0.00924254	0.00548710	0.00375823	0.00545391	0.00532009	0.00403806	0.00180849	0.00264861	0.00113998	0.00220739	0.00502510	0.00556409	0.00336662	0.00556903	0.00287865	0.00561313	0.00171096
0.46000000	0.00181469	0.00502726	0.00346584	0.00729227	0.00607453	0.01328876	0.02621071	0.00890726	0.00940468	0.00636348	0.00502517	0.00621368	0.00633676	0.00436228	0.00367993	0.00266579	0.00141092	0.00239042	0.00515170	0.00569266	0.00352769	0.00569583	0.00267592	0.00537088	0.00157187
0.47000000	0.00160398	0.00617434	0.00344278	0.00733774	0.00596076	0.01354215	0.02621454	0.00859922	0.00916204	0.00613651	0.00476672	0.00590690	0.00705894	0.00483963	0.00312188	0.00273533	0.00131443	0.00237204	0.00495274	0.00576932	0.00308599	0.00568020	0.00301830	0.00565496	0.00188516
0.48000000	0.00139196	0.00595376	0.00385010	0.00749973	0.00612612	0.01392458	0.02604983	0.00855141	0.00907612	0.00634468	0.00544590	0.00605136	0.00773125	0.00510366	0.00386096	0.00296287	0.00148612	0.00248006	0.00482580	0.00586424	0.00290110	0.00586821	0.00306736	0.00575005	0.00199665
0.49000000	0.00161147	0.00535182	0.00424604	0.00761794	0.00635905	0.01446795	0.02590859	0.00837094	0.00901870	0.00654314	0.00635804	0.00618435	0.00820503	0.00539459	0.00444760	0.00324574	0.00166518	0.00254628	0.00465704	0.00594151	0.00272762	0.00625200	0.00310509	0.00579337	0.00206723
0.50000000	0.00182423	0.00496278	0.00455936	0.00762476	0.00647753	0.01493620	0.02588863	0.00820152	0.00895234	0.00663249	0.00712189	0.00635784	0.00845766	0.00565724	0.00463056	0.00360915	0.00186198	0.00257499	0.00446438	0.00597035	0.00266961	0.00666384	0.00312909	0.00584149	0.00212833
0.51000000	0.00208859	0.00428390	0.00510568	0.00755456	0.00696481	0.01517607	0.02600634	0.00769375	0.00909947	0.00698839	0.00757545	0.00682836	0.00862527	0.00578867	0.00511991	0.00396346	0.00215896	0.00264194	0.00427550	0.00605805	0.00280895	0.00735764	0.00297556	0.00548451	0.00216108
0.52000000	0.00214554	0.00426377	0.00482206	0.00742850	0.00674983	0.01574570	0.02589562	0.00789652	0.00891979	0.00662444	0.00818977	0.00797668	0.00840311	0.00622610	0.00424276	0.00429471	0.00221265	0.00257601	0.00397201	0.00606504	0.00282100	0.00735959	0.00326171	0.00587451	0.00226332
0.53000000	0.00220061	0.00382578	0.00480321	0.00726671	0.00689338	0.01608350	0.02588022	0.00778169	0.00893084	0.00675811	0.00848370	0.00948666	0.00822989	0.00654274	0.00410347	0.00470050	0.00246335	0.00261912	0.00370651	0.00607866	0.00292391	0.00735610	0.00336696	0.00591528	0.00232794
0.54000000	0.00229138	0.00332202	0.00466998	0.00704442	0.00701006	0.01644676	0.02589542	0.00753908	0.00896300	0.00688090	0.00861791	0.01141488	0.00800976	0.00696001	0.00411518	0.00487718	0.00254460	0.00257696	0.00347668	0.00629744	0.00314626	0.00738448	0.00342589	0.00587239	0.00233192
0.55000000	0.00230459	0.00284622	0.00425129	0.00688636	0.00714892	0.01685821	0.02585608	0.00733961	0.00906566	0.00722386	0.00876712	0.01341862	0.00784911	0.00725313	0.00424414	0.00510787	0.00269105	0.00258919	0.00325924	0.00644584	0.00331569	0.00746878	0.00352292	0.00573711	0.00245659
0.56000000	0.00262666	0.00217969	0.00406527	0.00678510	0.00738689	0.01726707	0.02579861	0.00725291	0.00914698	0.00772686	0.00873711	0.01533844	0.00770713	0.00758714	0.00471760	0.00521254	0.00279823	0.00264733	0.00310136	0.00678256	0.00337407	0.00725959	0.00363707	0.00562641	0.00247635
0.57000000	0.00333431	0.00139821	0.00424065	0.00666928	0.00737016	0.01788907	0.02582604	0.00717523	0.00910568	0.00838188	0.00871657	0.01688091	0.00775952	0.00771899	0.00511837	0.00519232	0.00288567	0.00277827	0.00299938	0.00724398	0.00339516	0.00699569	0.00366943	0.00544218	0.00247134
0.58000000	0.00340947	0.00145599	0.00358499	0.00690508	0.00772888	0.01847944	0.02576507	0.00716015	0.00907440	0.00907987	0.00856744	0.01820442	0.00792925	0.00788822	0.00554915	0.00526774	0.00287861	0.00278026	0.00281777	0.00761887	0.00339852	0.00706091	0.00383081	0.00523225	0.00263225
0.59000000	0.00403707	0.00123612	0.00367276	0.00703987	0.00778713	0.01934805	0.02576761	0.00721795	0.00879760	0.00949254	0.00837278	0.01894199	0.00813711	0.00798092	0.00593058	0.00529205	0.00295231	0.00293126	0.00268575	0.00808107	0.00322482	0.00683354	0.00402649	0.00509190	0.00268826
0.60000000	0.00414182	0.00172005	0.00314729	0.00756839	0.00828856	0.02020812	0.02560820	0.00717515	0.00866576	0.01024374	0.00822025	0.01902782	0.00847137	0.00807650	0.00622692	0.00538817	0.00297262	0.00297264	0.00243059	0.00845414	0.00301610	0.00697871	0.00421561	0.00485133	0.00293758
0.61000000	0.00474719	0.00159011	0.00361481	0.00791574	0.00824772	0.02133092	0.02552908	0.00736316	0.00818537	0.01014045	0.00795986	0.01867463	0.00872817	0.00810747	0.00638364	0.00534407	0.00295007	0.00315277	0.00239766	0.00895424	0.00280900	0.00659615	0.00445069	0.00478326	0.00292240
0.62000000	0.00502734	0.00179393	0.00371339	0.00853874	0.00853626	0.02242591	0.02531511	0.00741616	0.00789467	0.01026009	0.00774586	0.01774787	0.00901629	0.00812851	0.00639401	0.00531443	0.00286642	0.00321358	0.00227413	0.00939686	0.00257604	0.00648531	0.00464975	0.00465092	0.00305421
0.63000000	0.00526143	0.00210089	0.00387522	0.00922009	0.00885368	0.02355355	0.02508328	0.00741154	0.00763774	0.01021376	0.00747003	0.01648515	0.00926377	0.00808170	0.00626009	0.00530990	0.00281891	0.00330205	0.00218333	0.00977341	0.00227941	0.00634394	0.00485158	0.00449333	0.00320118
0.64000000	0.00526070	0.00281687	0.00381507	0.01002471	0.00913872	0.02460184	0.02478430	0.00758453	0.00754095	0.01020951	0.00712565	0.01496033	0.00937581	0.00806128	0.00616990	0.00533241	0.00279651	0.00336860	0.00204658	0.01003011	0.00194344	0.00617643	0.00516116	0.00451419	0.00333913
0.65000000	0.00553418	0.00319538	0.00408044	0.01066590	0.00936313	0.02561520	0.02461639	0.00756724	0.00741726	0.00981150	0.00670205	0.01337452	0.00942743	0.00787383	0.00590386	0.00528796	0.00276995	0.00345112	0.00203750	0.01028153	0.00164484	0.00599435	0.00534832	0.00435425	0.00343084
0.66000000	0.00561183	0.00314877	0.00439767	0.01111897	0.00968892	0.02669402	0.02435108	0.00743979	0.00737692	0.00944714	0.00630538	0.01157792	0.00934136	0.00747497	0.00539038	0.00517163	0.00264681	0.00348564	0.00208501	0.01058541	0.00137101	0.00583746	0.00541690	0.00405834	0.00363661
0.67000000	0.00567260	0.00390831	0.00425725	0.01175575	0.01012934	0.02727326	0.02412102	0.00753034	0.00745879	0.00888472	0.00576601	0.00990980	0.00920246	0.00707130	0.00506609	0.00515277	0.00263865	0.00348524	0.00200946	0.01065688	0.00106333	0.00570161	0.00572587	0.00404746	0.00376230
0.68000000	0.00564460	0.00385125	0.00452440	0.01184091	0.01023094	0.02811990	0.02393950	0.00746093	0.00733218	0.00801756	0.00523278	0.00806306	0.00889975	0.00651796	0.00467575	0.00512274	0.00258739	0.00351137	0.00206476	0.01077206	0.00082483	0.00554047	0.00583478	0.00384530	0.00387799
0.69000000	0.00571797	0.00450215	0.00429112	0.01228142	0.01078953	0.02830066	0.02372671	0.00753208	0.00745011	0.00711625	0.00474692	0.00615504	0.00858997	0.00587209	0.00417698	0.00504632	0.00250725	0.00339757	0.00202834	0.01080026	0.00073483	0.00547279	0.00609980	0.00379314	0.00410202
0.70000000	0.00540193	0.00381611	0.00463080	0.01205812	0.01080008	0.02901939	0.02350806	0.00759851	0.00732334	0.00579921	0.00435934	0.00400735	0.00815418	0.00513055	0.00360624	0.00498894	0.00246283	0.00341404	0.00211611	0.01083169	0.00069602	0.00534358	0.00612710	0.00364834	0.00417076
0.71000000	0.00526298	0.00393060	0.00461948	0.01202071	0.01113003	0.02928545	0.02331475	0.00764685	0.00732665	0.00430807	0.00399978	0.00224703	0.00774380	0.00430562	0.00300731	0.00495216	0.00244405	0.00332957	0.00211748	0.01078260	0.00071581	0.00530916	0.00628479	0.00358844	0.00433104
0.72000000	0.00526679	0.00430674	0.00467695	0.01193021	0.01145392	0.02940620	0.02322904	0.00756835	0.00726157	0.00304799	0.00362220	0.00262647	0.00725632	0.00348430	0.00245637	0.00494844	0.00244429	0.00321842	0.00212893	0.01070707	0.00081253	0.00529437	0.00646272	0.00353326	0.00442406
0.73000000	0.00527658	0.00644546	0.00430560	0.01186941	0.01186149	0.02932100	0.02307133	0.00761459	0.00737754	0.00347940	0.00309720	0.00494217	0.00664904	0.00303917	0.00187000	0.00514444	0.00260576	0.00300738	0.00196896	0.01055387	0.00106798	0.00543289	0.00674003	0.00347381	0.00504708
0.74000000	0.00514559	0.00508828	0.00509252	0.01168232	0.01182208	0.02960200	0.02300616	0.00755774	0.00724270	0.00603327	0.00277418	0.00843281	0.00626186	0.00181415	0.00112876	0.00489232	0.00247100	0.00292514	0.00215188	0.01048906	0.00098603	0.00529789	0.00672486	0.00346501	0.00468748
0.75000000	0.00501796	0.00553818	0.00542134	0.01167226	0.01199434	0.02955033	0.02303529	0.00751325	0.00710577	0.00894329	0.00215474	0.01204174	0.00571072	0.00142032	0.00040229	0.00486920	0.00247234	0.00279733	0.00216343	0.01040008	0.00108066	0.00528307	0.00676314	0.00345290	0.00482360
0.76000000	0.00509045	0.00688493	0.00572454	0.01165766	0.01223775	0.02940127	0.02305637	0.00738271	0.00701069	0.01126717	0.00198794	0.01581484	0.00498937	0.00225700	0.00086492	0.00477586	0.00239794	0.00264486	0.00216259	0.01041731	0.00113208	0.00524478	0.00681972	0.00340732	0.00496912
0.77000000	0.00500808	0.00765150	0.00618096	0.01167561	0.01237525	0.02924551	0.02308850	0.00725420	0.00693603	0.01397233	0.00218079	0.01903801	0.00436338	0.00346295	0.00159323	0.00470526	0.00243839	0.00255301	0.00214041	0.01029705	0.00120385	0.00524706	0.00687673	0.00340015	0.00511284
0.78000000	0.00480595	0.00871753	0.00699647	0.01143572	0.01213399	0.02927412	0.02312694	0.00722684	0.00678942	0.01739399	0.00278520	0.02089340	0.00356906	0.00437529	0.00251502	0.00461992	0.00237351	0.00234857	0.00212716	0.01016707	0.00111263	0.00519107	0.00686355	0.00354348	0.00534824
0.79000000	0.00472077	0.00849439	0.00685635	0.01162056	0.01270850	0.02887805	0.02310093	0.00699449	0.00687117	0.01797669	0.00293626	0.02344737	0.00346855	0.00511040	0.00264675	0.00460330	0.00236948	0.00224094	0.00200416	0.01010724	0.00127075	0.00534494	0.00704631	0.00345364	0.00537296
0.80000000	0.00462615	0.00914726	0.00740480	0.01164333	0.01253926	0.02853018	0.02325531	0.00697501	0.00674466	0.01940604	0.00335148	0.02387622	0.00304727	0.00517482	0.00283390	0.00468373	0.00234199	0.00208418	0.00195475	0.00991906	0.00135131	0.00531834	0.00697879	0.00368000	0.00560875
0.81000000	0.00443262	0.00916484	0.00722486	0.01149339	0.01315455	0.02819757	0.02326006	0.00653820	0.00671266	0.01853566	0.00384837	0.02426434	0.00293328	0.00538565	0.00302313	0.00460724	0.00242733	0.00209469	0.00185043	0.00987630	0.00157870	0.00546524	0.00721911	0.00358466	0.00564966
0.82000000	0.00441159	0.00947718	0.00734815	0.01144709	0.01300822	0.02768491	0.02342817	0.00640949	0.00670601	0.01781002	0.00408635	0.02332865	0.00283282	0.00485686	0.00287363	0.00463337	0.00244319	0.00199390	0.00175394	0.00976963	0.00168506	0.00566182	0.00731210	0.00367264	0.00581098
0.83000000	0.00434502	0.00947895	0.00727906	0.01136130	0.01297048	0.02713916	0.02347319	0.00632437	0.00680627	0.01652851	0.00441431	0.02182461	0.00277890	0.00421602	0.00270125	0.00468588	0.00253375	0.00198955	0.00166666	0.00968926	0.00186392	0.00586841	0.00745247	0.00379550	0.00599258
0.84000000	0.00465411	0.00945785	0.00718714	0.01123113	0.01281989	0.02629429	0.02368131	0.00624605	0.00682627	0.01484316	0.00466052	0.02007802	0.00272572	0.00348030	0.00247563	0.00473526	0.00258764	0.00193382	0.00164446	0.00975190	0.00196270	0.00607574	0.00762929	0.00389273	0.00617143
0.85000000	0.00486773	0.00918976	0.00708877	0.01093336	0.01270230	0.02546610	0.02376078	0.00620812	0.00694350	0.01295398	0.00494438	0.01834431	0.00261052	0.00296982	0.00232909	0.00498728	0.00267723	0.00197417	0.00161342	0.00969097	0.00216261	0.00645813	0.00770008	0.00407901	0.00632662
0.86000000	0.00593351	0.00740382	0.00669419	0.00969832	0.01323187	0.02481495	0.02390401	0.00568610	0.00640990	0.01189656	0.00428739	0.01667008	0.00286763	0.00256441	0.00205135	0.00501573	0.00268970	0.00205514	0.00178085	0.00981282	0.00200222	0.00662817	0.00774859	0.00426415	0.00629793
0.87000000	0.00650160	0.00748251	0.00671813	0.00919837	0.01232233	0.02342374	0.02422553	0.00593767	0.00648517	0.00997449	0.00490988	0.01532826	0.00287220	0.00256373	0.00188108	0.00527662	0.00286507	0.00217845	0.00187115	0.00983953	0.00198363	0.00703203	0.00793700	0.00447436	0.00644604
0.88000000	0.00716839	0.00740141	0.00667071	0.00865990	0.01143592	0.02173662	0.02457441	0.00632682	0.00649455	0.00831045	0.00554702	0.01437309	0.00291603	0.00249269	0.00184357	0.00546067	0.00296010	0.00226866	0.00203695	0.00998187	0.00183031	0.00739527	0.00810766	0.00470760	0.00651881
0.89000000	0.00845072	0.00609396	0.00648604	0.00742405	0.01067398	0.02029593	0.02480763	0.00672372	0.00628014	0.00819257	0.00465315	0.01329718	0.00350527	0.00294791	0.00125111	0.00568579	0.00300237	0.00243139	0.00232754	0.01001107	0.00170477	0.00772047	0.00798862	0.00486281	0.00653453
0.90000000	0.00912345	0.00568275	0.00640599	0.00633347	0.00922446	0.01853826	0.02523698	0.00735429	0.00614415	0.00773425	0.00444616	0.01251256	0.00420587	0.00284585	0.00130272	0.00581763	0.00305265	0.00259998	0.00261131	0.01007796	0.00172840	0.00796053	0.00793176	0.00503917	0.00647107
0.91000000	0.00936016	0.00548879	0.00602100	0.00516332	0.00748369	0.01667339	0.02580746	0.00808950	0.00592960	0.00678038	0.00490467	0.01225085	0.00493522	0.00209254	0.00237468	0.00581187	0.00305666	0.00285380	0.00293690	0.01027384	0.00198390	0.00791528	0.00777508	0.00507855	0.00630305
0.92000000	0.00997913	0.00467514	0.00590812	0.00395390	0.00591793	0.01483818	0.02620990	0.00903442	0.00589626	0.00714132	0.00391418	0.01079115	0.00603312	0.00234913	0.00229439	0.00589124	0.00305204	0.00291405	0.00322357	0.01029522	0.00239792	0.00796646	0.00746512	0.00516858	0.00609152
0.93000000	0.00972622	0.00430074	0.00554501	0.00308099	0.00428833	0.01304155	0.02687369	0.00998489	0.00543752	0.00666790	0.00445406	0.01024802	0.00680242	0.00152476	0.00324712	0.00558872	0.00299262	0.00313606	0.00365955	0.01064287	0.00291624	0.00751231	0.00704351	0.00504114	0.00567361
0.94000000	0.00976379	0.00386496	0.00506374	0.00312823	0.00329790	0.01138471	0.02754855	0.01068735	0.00535493	0.00664300	0.00463518	0.00948262	0.00744914	0.00135968	0.00363874	0.00560755	0.00303082	0.00324434	0.00397448	0.01077965	0.00342977	0.00719385	0.00643443	0.00491149	0.00534265
0.95000000	0.00990150	0.00331824	0.00461264	0.00380984	0.00290387	0.00996114	0.02807533	0.01173172	0.00533956	0.00667939	0.00454271	0.00859888	0.00788988	0.00148982	0.00389489	0.00547715	0.00317781	0.00328523	0.00422859	0.01085250	0.00377214	0.00684637	0.00597402	0.00484749	0.00498321
0.96000000	0.01017453	0.00282972	0.00420713	0.00492101	0.00346023	0.00882573	0.02842740	0.01283929	0.00551721	0.00653508	0.00411040	0.00796261	0.00811129	0.00189893	0.00366614	0.00546959	0.00335676	0.00325908	0.00444007	0.01085749	0.00410972	0.00654554	0.00560743	0.00473367	0.00459082
0.97000000	0.00982416	0.00246114	0.00383185	0.00640390	0.00428121	0.00779167	0.02903391	0.01365207	0.00565776	0.00655723	0.00413136	0.00729216	0.00805318	0.00233907	0.00360116	0.00525496	0.00353077	0.00324055	0.00470896	0.01098564	0.00446368	0.00611989	0.00518432	0.00463612	0.00430608
0.98000000	0.00990768	0.00209681	0.00351970	0.00754689	0.00503242	0.00722199	0.02938685	0.01435407	0.00601188	0.00643889	0.00385086	0.00705705	0.00784360	0.00262344	0.00341970	0.00515345	0.00367941	0.00322320	0.00487673	0.01103283	0.00466201	0.00576411	0.00493778	0.00452793	0.00410930
0.99000000	0.00980695	0.00188670	0.00349491	0.00855309	0.00582333	0.00690846	0.02965360	0.01489050	0.00637181	0.00631085	0.00361684	0.00690022	0.00762405	0.00280997	0.00311801	0.00506578	0.00381814	0.00316866	0.00503061	0.01102258	0.00481230	0.00552569	0.00468358	0.00445752	0.00389947
1.00000000	0.00959758	0.00180741	0.00360870	0.00934676	0.00657476	0.00685213	0.02982717	0.01525102	0.00672434	0.00621231	0.00347139	0.00684236	0.00730487	0.00289767	0.00292589	0.00499036	0.00393516	0.00315051	0.00512274	0.01094858	0.00483240	0.00532573	0.00454999	0.00441849	0.00377736
1.01000000	0.00901160	0.00168618	0.00351372	0.00930757	0.00697130	0.00757496	0.02950575	0.01629096	0.00744691	0.00578841	0.00382343	0.00722135	0.00683505	0.00231644	0.00262563	0.00480373	0.00381198	0.00309873	0.00513302	0.01104382	0.00473568	0.00498973	0.00471861	0.00439045	0.00382474
1.02000000	0.00869320	0.00194187	0.00378443	0.00980234	0.00773328	0.00778176	0.02960305	0.01629574	0.00778669	0.00551740	0.00385951	0.00711968	0.00655768	0.00225264	0.00247557	0.00460532	0.00372179	0.00302461	0.00512249	0.01100989	0.00458327	0.00487047	0.00478783	0.00435138	0.00378990
1.03000000	0.00811941	0.00227592	0.00386538	0.00989364	0.00834906	0.00844141	0.02953468	0.01666103	0.00824949	0.00519361	0.00408391	0.00699808	0.00631730	0.00205550	0.00242416	0.00441914	0.00355268	0.00294932	0.00503778	0.01097718	0.00435893	0.00473528	0.00498268	0.00432177	0.00389609
1.04000000	0.00749199	0.00279262	0.00416967	0.01040500	0.00959385	0.00859755	0.02952501	0.01695095	0.00861535	0.00494715	0.00422030	0.00670668	0.00622214	0.00225075	0.00236722	0.00423441	0.00340819	0.00290806	0.00492526	0.01090860	0.00409702	0.00463332	0.00514662	0.00430014	0.00392494
1.05000000	0.00730258	0.00342460	0.00438725	0.01009547	0.00980708	0.00994427	0.02956376	0.01707272	0.00920405	0.00450386	0.00408551	0.00662428	0.00624949	0.00188364	0.00242930	0.00392127	0.00316162	0.00277248	0.00476692	0.01083451	0.00387235	0.00464361	0.00530811	0.00428253	0.00400833
1.06000000	0.00677821	0.00386530	0.00459285	0.01017853	0.01051591	0.01109000	0.02962669	0.01733014	0.00972696	0.00428292	0.00411723	0.00647674	0.00633175	0.00185945	0.00248888	0.00362641	0.00298031	0.00269821	0.00459557	0.01074496	0.00366851	0.00461354	0.00544382	0.00424470	0.00403602
1.07000000	0.00645800	0.00400864	0.00451574	0.01038861	0.01153697	0.01218425	0.02954670	0.01794740	0.01042902	0.00420865	0.00453692	0.00656866	0.00634499	0.00171752	0.00247965	0.00328756	0.00281321	0.00272081	0.00450294	0.01073101	0.00364446	0.00435151	0.00549723	0.00417729	0.00397540
1.08000000	0.00621458	0.00413317	0.00443851	0.01060391	0.01221954	0.01379422	0.02965513	0.01815679	0.01089204	0.00411732	0.00450270	0.00674794	0.00652933	0.00158551	0.00264412	0.00303818	0.00262974	0.00257378	0.00423335	0.01055319	0.00342517	0.00444802	0.00556096	0.00415914	0.00395504
1.09000000	0.00547936	0.00490303	0.00439518	0.01051651	0.01236247	0.01564544	0.02972658	0.01860657	0.01127823	0.00402669	0.00392214	0.00679487	0.00675383	0.00171392	0.00275640	0.00277872	0.00245620	0.00252619	0.00419877	0.01033728	0.00356049	0.00436617	0.00542445	0.00398332	0.00384625
1.10000000	0.00545094	0.00476204	0.00388643	0.01097832	0.01277403	0.01713677	0.02985689	0.01912648	0.01188544	0.00412197	0.00504614	0.00735898	0.00653833	0.00228833	0.00220707	0.00243890	0.00215395	0.00252681	0.00429398	0.01029253	0.00378618	0.00391940	0.00526555	0.00397038	0.00349147
1.11000000	0.00525726	0.00550487	0.00366383	0.01110912	0.01316480	0.01874433	0.02977192	0.01951243	0.01210033	0.00421970	0.00342923	0.00699553	0.00707144	0.00221592	0.00272754	0.00257216	0.00231259	0.00234354	0.00404697	0.00967292	0.00359173	0.00426840	0.00503919	0.00403009	0.00348054
1.12000000	0.00534508	0.00513281	0.00290216	0.01144365	0.01337709	0.02032168	0.02977376	0.01996417	0.01245264	0.00434371	0.00404874	0.00736675	0.00699372	0.00220996	0.00269473	0.00248790	0.00215567	0.00221111	0.00400108	0.00937720	0.00355149	0.00422702	0.00489175	0.00416724	0.00332209
1.13000000	0.00513861	0.00499928	0.00256380	0.01194189	0.01347405	0.02170142	0.02974699	0.02033824	0.01279216	0.00445401	0.00419541	0.00768337	0.00715377	0.00199494	0.00281099	0.00244997	0.00212968	0.00208672	0.00402673	0.00901660	0.00352664	0.00435388	0.00466147	0.00423110	0.00308706
1.14000000	0.00485736	0.00532503	0.00299656	0.01248914	0.01344487	0.02279193	0.02981094	0.02049208	0.01288790	0.00452302	0.00402874	0.00825823	0.00728491	0.00193864	0.00275899	0.00244430	0.00221166	0.00207377	0.00413146	0.00869706	0.00352508	0.00435711	0.00435190	0.00429289	0.00287523
1.15000000	0.00487287	0.00535577	0.00305449	0.01330362	0.01346746	0.02351528	0.02985186	0.02056606	0.01305242	0.00475221	0.00417336	0.00866293	0.00735476	0.00210106	0.00269378	0.00252105	0.00238523	0.00202926	0.00422840	0.00830116	0.00355099	0.00451282	0.00404485	0.00447018	0.00265379
1.16000000	0.00525292	0.00508615	0.00288169	0.01411782	0.01330543	0.02391438	0.02986853	0.02063406	0.01335451	0.00521831	0.00474837	0.00903587	0.00733760	0.00231796	0.00253544	0.00263985	0.00252647	0.00196017	0.00428233	0.00793351	0.00355339	0.00477298	0.00380664	0.00475201	0.00242431
1.17000000	0.00533570	0.00520498	0.00329209	0.01472534	0.01295366	0.02395985	0.02988262	0.02060216	0.01344950	0.00536755	0.00463909	0.00997738	0.00747213	0.00222466	0.00250038	0.00276141	0.00280499	0.00194573	0.00439575	0.00758178	0.00358432	0.00506934	0.00345796	0.00490142	0.00218804
1.18000000	0.00542358	0.00514187	0.00364076	0.01566229	0.01260807	0.02341142	0.03002330	0.02017448	0.01341814	0.00599200	0.00501381	0.01082441	0.00745191	0.00222058	0.00240010	0.00287620	0.00311112	0.00197738	0.00455537	0.00726886	0.00371801	0.00527489	0.00312697	0.00505614	0.00195989
1.19000000	0.00563099	0.00503229	0.00387303	0.01642793	0.01203390	0.02245285	0.03007409	0.01976617	0.01340807	0.00671680	0.00539070	0.01190126	0.00737358	0.00228959	0.00216269	0.00304313	0.00342436	0.00199245	0.00468089	0.00692775	0.00386457	0.00557484	0.00278347	0.00520907	0.00172358
1.20000000	0.00580777	0.00499264	0.00403712	0.01694344	0.01126211	0.02112117	0.03018206	0.01916821	0.01315283	0.00747582	0.00608262	0.01315351	0.00715927	0.00238801	0.00185423	0.00327230	0.00382223	0.00214603	0.00487819	0.00650118	0.00410310	0.00570850	0.00244969	0.00538578	0.00145238
1.21000000	0.00591145	0.00470708	0.00417359	0.01720993	0.01035386	0.01949674	0.03019513	0.01855143	0.01286211	0.00819926	0.00673711	0.01457533	0.00690275	0.00253158	0.00148854	0.00344680	0.00415104	0.00218234	0.00501012	0.00614930	0.00431862	0.00593260	0.00209294	0.00554993	0.00121453
1.22000000	0.00589952	0.00444944	0.00422876	0.01695343	0.00919510	0.01784135	0.03017463	0.01788925	0.01242070	0.00902667	0.00750281	0.01591108	0.00659380	0.00254706	0.00128371	0.00356324	0.00443583	0.00223749	0.00517987	0.00581733	0.00460364	0.00613016	0.00180203	0.00570172	0.00099838
1.23000000	0.00581062	0.00403668	0.00419325	0.01630566	0.00795982	0.01607407	0.03007883	0.01717190	0.01194393	0.00945118	0.00851870	0.01728932	0.00622559	0.00256602	0.00109890	0.00372569	0.00470682	0.00230145	0.00530462	0.00550094	0.00488406	0.00636718	0.00152092	0.00582086	0.00082045
1.24000000	0.00569505	0.00377567	0.00420557	0.01515326	0.00670727	0.01438515	0.02991389	0.01626065	0.01141420	0.01013396	0.00916280	0.01834859	0.00591549	0.00263407	0.00094951	0.00395574	0.00498318	0.00243267	0.00541131	0.00521206	0.00516131	0.00651806	0.00124146	0.00599245	0.00062163
1.25000000	0.00568531	0.00391729	0.00403116	0.01350975	0.00544735	0.01292241	0.02951696	0.01550037	0.01102320	0.01097135	0.00957844	0.01892572	0.00575373	0.00276271	0.00060801	0.00417670	0.00515480	0.00253720	0.00549667	0.00494347	0.00551171	0.00680596	0.00104916	0.00621072	0.00050065
1.26000000	0.00544759	0.00330855	0.00410342	0.01193685	0.00449829	0.01120454	0.02916429	0.01447698	0.01046204	0.01072893	0.01043693	0.01977701	0.00541803	0.00284521	0.00081018	0.00437527	0.00539518	0.00270232	0.00559988	0.00480994	0.00568851	0.00681588	0.00086667	0.00629168	0.00039110
1.27000000	0.00533106	0.00335015	0.00404866	0.00952123	0.00367310	0.01052167	0.02860025	0.01358275	0.01007254	0.01100448	0.01078971	0.01999308	0.00521878	0.00283049	0.00084351	0.00460850	0.00550171	0.00282167	0.00564190	0.00464226	0.00594917	0.00702288	0.00072662	0.00650631	0.00032011
1.28000000	0.00513992	0.00301592	0.00403309	0.00777004	0.00300321	0.00988978	0.02821121	0.01237237	0.00937033	0.01071535	0.01144392	0.02023183	0.00496537	0.00273817	0.00090854	0.00479027	0.00560121	0.00296148	0.00572380	0.00452951	0.00615150	0.00704608	0.00067246	0.00668693	0.00018577
1.29000000	0.00553128	0.00319925	0.00400669	0.00503655	0.00260798	0.01069295	0.02756502	0.01144455	0.00915025	0.01116299	0.01168599	0.01986105	0.00478486	0.00263415	0.00078965	0.00511278	0.00558543	0.00309076	0.00565765	0.00423553	0.00626729	0.00733928	0.00064936	0.00705471	0.00018971
1.30000000	0.00573701	0.00292290	0.00405107	0.00345289	0.00259712	0.01198879	0.02707504	0.01030852	0.00836776	0.01078610	0.01235686	0.01982523	0.00454020	0.00259179	0.00109790	0.00532490	0.00562482	0.00322671	0.00566898	0.00405534	0.00628371	0.00747672	0.00063759	0.00712490	0.00019154
1.31000000	0.00642265	0.00318461	0.00427495	0.00269198	0.00273136	0.01383002	0.02655400	0.00944357	0.00807885	0.01114676	0.01241628	0.01937170	0.00436940	0.00254105	0.00100639	0.00557541	0.00546130	0.00340015	0.00566268	0.00374843	0.00646480	0.00770714	0.00073791	0.00749000	0.00020711
1.32000000	0.00675282	0.00314914	0.00454083	0.00395491	0.00295209	0.01593481	0.02620996	0.00845198	0.00746295	0.01108149	0.01316179	0.01906521	0.00405833	0.00261459	0.00118448	0.00576061	0.00537021	0.00348440	0.00563018	0.00371112	0.00640277	0.00792489	0.00081373	0.00766022	0.00029916
1.33000000	0.00793702	0.00340719	0.00507817	0.00599861	0.00308293	0.01788869	0.02578081	0.00779180	0.00723086	0.01127703	0.01334876	0.01865368	0.00383874	0.00275676	0.00111462	0.00591429	0.00516783	0.00362850	0.00563912	0.00383439	0.00649830	0.00810578	0.00092116	0.00796286	0.00032464
1.34000000	0.00896601	0.00367826	0.00567558	0.00779358	0.00327725	0.01961244	0.02545694	0.00710058	0.00709743	0.01121567	0.01357178	0.01836445	0.00360992	0.00306605	0.00120649	0.00603708	0.00502873	0.00373709	0.00563927	0.00428141	0.00649476	0.00824192	0.00098736	0.00827407	0.00041962
1.35000000	0.00946983	0.00397541	0.00631619	0.00914847	0.00335126	0.02093237	0.02527529	0.00689235	0.00659384	0.01128727	0.01409607	0.01786053	0.00337080	0.00310209	0.00116201	0.00600826	0.00479235	0.00386343	0.00566931	0.00483592	0.00652538	0.00835340	0.00110291	0.00831352	0.00044767
1.36000000	0.01024675	0.00418510	0.00706167	0.01009127	0.00409095	0.02165495	0.02499209	0.00640223	0.00678891	0.01126543	0.01411288	0.01755640	0.00336121	0.00334484	0.00134030	0.00594633	0.00455052	0.00393731	0.00563308	0.00544506	0.00637680	0.00823800	0.00119981	0.00861872	0.00080955
1.37000000	0.00988439	0.00476913	0.00695557	0.00951931	0.00396160	0.02226605	0.02501235	0.00647954	0.00596616	0.01078886	0.01513296	0.01715731	0.00291826	0.00325552	0.00105670	0.00586598	0.00459323	0.00393255	0.00568725	0.00580965	0.00631119	0.00844185	0.00121424	0.00839515	0.00062928
1.38000000	0.01031049	0.00527954	0.00739223	0.00898666	0.00405337	0.02196209	0.02481701	0.00698419	0.00574467	0.01084833	0.01489226	0.01659012	0.00304999	0.00325460	0.00091282	0.00585172	0.00436518	0.00406593	0.00563802	0.00599621	0.00625075	0.00850439	0.00135439	0.00860085	0.00086829
1.39000000	0.01039591	0.00584823	0.00754660	0.00791499	0.00454341	0.02118454	0.02461626	0.00722231	0.00570885	0.01075543	0.01495077	0.01595795	0.00286832	0.00297450	0.00094211	0.00579400	0.00430969	0.00406979	0.00563235	0.00608025	0.00617225	0.00864369	0.00148423	0.00864860	0.00077689
1.40000000	0.01044638	0.00647958	0.00762467	0.00651526	0.00452979	0.01993602	0.02442127	0.00821376	0.00557233	0.01089348	0.01437323	0.01512057	0.00304151	0.00272431	0.00061546	0.00580455	0.00408471	0.00414903	0.00560365	0.00606200	0.00618976	0.00880410	0.00169880	0.00881754	0.00094411
1.41000000	0.01028589	0.00696817	0.00757378	0.00478110	0.00521442	0.01851978	0.02430296	0.00819832	0.00572207	0.01073405	0.01398357	0.01442413	0.00291535	0.00244341	0.00096574	0.00571639	0.00391341	0.00405700	0.00555104	0.00618546	0.00593286	0.00887282	0.00206497	0.00885509	0.00111837
1.42000000	0.01013176	0.00739164	0.00730478	0.00318275	0.00552905	0.01698342	0.02423353	0.00855793	0.00587189	0.01059695	0.01320575	0.01345332	0.00292398	0.00209287	0.00106504	0.00571629	0.00376116	0.00393109	0.00551573	0.00625620	0.00584058	0.00901194	0.00236060	0.00896261	0.00131114
1.43000000	0.00979657	0.00768057	0.00700759	0.00204630	0.00563909	0.01551314	0.02438882	0.00871599	0.00615303	0.01033956	0.01215411	0.01246197	0.00295313	0.00186865	0.00136268	0.00564465	0.00348333	0.00374964	0.00546141	0.00636423	0.00568416	0.00904336	0.00280388	0.00900852	0.00160599
1.44000000	0.00959747	0.00771097	0.00640248	0.00252740	0.00585238	0.01431152	0.02458635	0.00878073	0.00657796	0.00989773	0.01087298	0.01133636	0.00294145	0.00182020	0.00164969	0.00559433	0.00336503	0.00346779	0.00541985	0.00651945	0.00559634	0.00907295	0.00304645	0.00898654	0.00175407
1.45000000	0.00943052	0.00745067	0.00583320	0.00354103	0.00602272	0.01336506	0.02495210	0.00881501	0.00712498	0.00931548	0.00928761	0.01014807	0.00296319	0.00195509	0.00210495	0.00540149	0.00315736	0.00320054	0.00541797	0.00666145	0.00558715	0.00887297	0.00330049	0.00881582	0.00184177
1.46000000	0.00899022	0.00699441	0.00517468	0.00456443	0.00593271	0.01293035	0.02543755	0.00865566	0.00751608	0.00843179	0.00749612	0.00923618	0.00286690	0.00237994	0.00244128	0.00511746	0.00295150	0.00293660	0.00543354	0.00682514	0.00554357	0.00851781	0.00347122	0.00855721	0.00197732
1.47000000	0.00692303	0.00705976	0.00464320	0.00455545	0.00476452	0.01248401	0.02610346	0.00913738	0.00788916	0.00755114	0.00577916	0.00794948	0.00245804	0.00218670	0.00276726	0.00478550	0.00253345	0.00290876	0.00541753	0.00674329	0.00556167	0.00804211	0.00374817	0.00826374	0.00225149
1.48000000	0.00683936	0.00590718	0.00407669	0.00523100	0.00529018	0.01246926	0.02625396	0.00911621	0.00827020	0.00628416	0.00372089	0.00739188	0.00233866	0.00248475	0.00295510	0.00416780	0.00255250	0.00267908	0.00569816	0.00675576	0.00588614	0.00733382	0.00353843	0.00765331	0.00196364
1.49000000	0.00583492	0.00557954	0.00369691	0.00543428	0.00483466	0.01249081	0.02658493	0.00918224	0.00843691	0.00524040	0.00228412	0.00690225	0.00201074	0.00219654	0.00297713	0.00353865	0.00227696	0.00264478	0.00586149	0.00675689	0.00603105	0.00657800	0.00352260	0.00707237	0.00211114
1.50000000	0.00483811	0.00539612	0.00314693	0.00540237	0.00445262	0.01237556	0.02673582	0.00933619	0.00871093	0.00512737	0.00204095	0.00613108	0.00167899	0.00192090	0.00273353	0.00302027	0.00225205	0.00266239	0.00605482	0.00658015	0.00632918	0.00594912	0.00339087	0.00664910	0.00194059
1.51000000	0.00487881	0.00544227	0.00291497	0.00565657	0.00453577	0.01234144	0.02662331	0.00934886	0.00891463	0.00431161	0.00254850	0.00634173	0.00184161	0.00187980	0.00259867	0.00249825	0.00218629	0.00268859	0.00624461	0.00650715	0.00657936	0.00536653	0.00324167	0.00620577	0.00195659
1.52000000	0.00442673	0.00585351	0.00283435	0.00579284	0.00441185	0.01210196	0.02668675	0.00916185	0.00905780	0.00461950	0.00309050	0.00613921	0.00206913	0.00217667	0.00204208	0.00207605	0.00222022	0.00267097	0.00642535	0.00646147	0.00682387	0.00496007	0.00311846	0.00583229	0.00185858
1.53000000	0.00413031	0.00586960	0.00286985	0.00595381	0.00448693	0.01201006	0.02649273	0.00914883	0.00924478	0.00517009	0.00378488	0.00615602	0.00280139	0.00271645	0.00156496	0.00178830	0.00222592	0.00269808	0.00658489	0.00645126	0.00705038	0.00464744	0.00304410	0.00560601	0.00178363
1.54000000	0.00375769	0.00619261	0.00316030	0.00614205	0.00461495	0.01184374	0.02640417	0.00908909	0.00937570	0.00536378	0.00428037	0.00643276	0.00367177	0.00319210	0.00136259	0.00160014	0.00222399	0.00263848	0.00671987	0.00654242	0.00717182	0.00446041	0.00302072	0.00540425	0.00178884
1.55000000	0.00341721	0.00624507	0.00322918	0.00640646	0.00492757	0.01199850	0.02613882	0.00921924	0.00948772	0.00553612	0.00495806	0.00706359	0.00471832	0.00347654	0.00194354	0.00149582	0.00229326	0.00255114	0.00679466	0.00676634	0.00715724	0.00437195	0.00295742	0.00532535	0.00183297
1.56000000	0.00281810	0.00642308	0.00350282	0.00654744	0.00498469	0.01184277	0.02626709	0.00910753	0.00958905	0.00614658	0.00512739	0.00673819	0.00568284	0.00407490	0.00210498	0.00156362	0.00232523	0.00253466	0.00679783	0.00685853	0.00709320	0.00460380	0.00296842	0.00533677	0.00181419
1.57000000	0.00272347	0.00597955	0.00358031	0.00665736	0.00535606	0.01209443	0.02619762	0.00907614	0.00965289	0.00650712	0.00581568	0.00673857	0.00653948	0.00461156	0.00260566	0.00170701	0.00235284	0.00244992	0.00677333	0.00703339	0.00687826	0.00474784	0.00296167	0.00548630	0.00183474
1.58000000	0.00245371	0.00460288	0.00380793	0.00674172	0.00587108	0.01238170	0.02619835	0.00886651	0.00980173	0.00715282	0.00695297	0.00685528	0.00731594	0.00493536	0.00427379	0.00178951	0.00265248	0.00246442	0.00682678	0.00724013	0.00681003	0.00514263	0.00264209	0.00538637	0.00172486
1.59000000	0.00264762	0.00538022	0.00403162	0.00668727	0.00573423	0.01279662	0.02627840	0.00898456	0.00966212	0.00690999	0.00726232	0.00694254	0.00764207	0.00534071	0.00387432	0.00215237	0.00240889	0.00243457	0.00658329	0.00737514	0.00619907	0.00528905	0.00296105	0.00569838	0.00191464
1.60000000	0.00284922	0.00474366	0.00427411	0.00656152	0.00592914	0.01325618	0.02629320	0.00886605	0.00969645	0.00700779	0.00815406	0.00723775	0.00794431	0.00562334	0.00421574	0.00245829	0.00240024	0.00244460	0.00646186	0.00746683	0.00582963	0.00565913	0.00295279	0.00571216	0.00203483
1.61000000	0.00288338	0.00430142	0.00443848	0.00643385	0.00605506	0.01370988	0.02633951	0.00870400	0.00967044	0.00703562	0.00870944	0.00785433	0.00802531	0.00588324	0.00430078	0.00273528	0.00243475	0.00243963	0.00632451	0.00749329	0.00553592	0.00596271	0.00293084	0.00573275	0.00207114
1.62000000	0.00293797	0.00364789	0.00462743	0.00625930	0.00657613	0.01394769	0.02646339	0.00818764	0.00990366	0.00729861	0.00889946	0.00886662	0.00803377	0.00608076	0.00467821	0.00287291	0.00260276	0.00247429	0.00627361	0.00742474	0.00550268	0.00648878	0.00271324	0.00533096	0.00218858
1.63000000	0.00285331	0.00350845	0.00412073	0.00601104	0.00617764	0.01456595	0.02637129	0.00835804	0.00965336	0.00696649	0.00946042	0.01017108	0.00784284	0.00640704	0.00406473	0.00321193	0.00242236	0.00250700	0.00598757	0.00733076	0.00511589	0.00645450	0.00306676	0.00568615	0.00227349
1.64000000	0.00305099	0.00294782	0.00401516	0.00569189	0.00626792	0.01491740	0.02632931	0.00832391	0.00961224	0.00710704	0.00949912	0.01165360	0.00761991	0.00675549	0.00424909	0.00323968	0.00243465	0.00269203	0.00583199	0.00727410	0.00500732	0.00622037	0.00320064	0.00555194	0.00228307
1.65000000	0.00337587	0.00225360	0.00397507	0.00531532	0.00608790	0.01538571	0.02632746	0.00818102	0.00954618	0.00731367	0.00958113	0.01315664	0.00746899	0.00699378	0.00444764	0.00312107	0.00250213	0.00260488	0.00578818	0.00729058	0.00497782	0.00585097	0.00322889	0.00546418	0.00221864
1.66000000	0.00349453	0.00198704	0.00344925	0.00510315	0.00631114	0.01577517	0.02625691	0.00805000	0.00949496	0.00763563	0.00949360	0.01482270	0.00733521	0.00724285	0.00467077	0.00303616	0.00240446	0.00262999	0.00569493	0.00723234	0.00490328	0.00572555	0.00346143	0.00526713	0.00234490
1.67000000	0.00327272	0.00199523	0.00270683	0.00510919	0.00664965	0.01621214	0.02618412	0.00790298	0.00948310	0.00812878	0.00939203	0.01636650	0.00737303	0.00735243	0.00476278	0.00304165	0.00230347	0.00258731	0.00555113	0.00723135	0.00470945	0.00586566	0.00367184	0.00510375	0.00260382
1.68000000	0.00346300	0.00194538	0.00230102	0.00509040	0.00698716	0.01678193	0.02606819	0.00797799	0.00933552	0.00863560	0.00914608	0.01761442	0.00733414	0.00760718	0.00527055	0.00289016	0.00214822	0.00258475	0.00550194	0.00729836	0.00459019	0.00566058	0.00398846	0.00496772	0.00274824
1.69000000	0.00407363	0.00203350	0.00285949	0.00489286	0.00706092	0.01761895	0.02604552	0.00799286	0.00905511	0.00901335	0.00874735	0.01845092	0.00744519	0.00768594	0.00561050	0.00252914	0.00203700	0.00245715	0.00559455	0.00762208	0.00452894	0.00512290	0.00418813	0.00471797	0.00279333
1.70000000	0.00422663	0.00238709	0.00265697	0.00529581	0.00783108	0.01838711	0.02585707	0.00780474	0.00908569	0.00995976	0.00851736	0.01870432	0.00767854	0.00771843	0.00585581	0.00253816	0.00190366	0.00246607	0.00549244	0.00773260	0.00425611	0.00519975	0.00453658	0.00449254	0.00312196
1.71000000	0.00441467	0.00274388	0.00293181	0.00568238	0.00809768	0.01943755	0.02564070	0.00791658	0.00891602	0.01048332	0.00817835	0.01848595	0.00785824	0.00780039	0.00634609	0.00247067	0.00175916	0.00246040	0.00543136	0.00793071	0.00402565	0.00495002	0.00499013	0.00444958	0.00325294
1.72000000	0.00509256	0.00288145	0.00367879	0.00595062	0.00827387	0.02052020	0.02559271	0.00790387	0.00858701	0.01041603	0.00778142	0.01788611	0.00816376	0.00767304	0.00642469	0.00217610	0.00159451	0.00234488	0.00554461	0.00823742	0.00408436	0.00446881	0.00524078	0.00423289	0.00329387
1.73000000	0.00522061	0.00332486	0.00402987	0.00673875	0.00866476	0.02162255	0.02532501	0.00794113	0.00855131	0.01072129	0.00747814	0.01665741	0.00847970	0.00759832	0.00653340	0.00205686	0.00139537	0.00229733	0.00547208	0.00845679	0.00391736	0.00433062	0.00562841	0.00415550	0.00346196
1.74000000	0.00611379	0.00450181	0.00353455	0.00812369	0.01033259	0.02217180	0.02484704	0.00752646	0.00910559	0.01132530	0.00723602	0.01499946	0.00898947	0.00741633	0.00620926	0.00176413	0.00104719	0.00227246	0.00540951	0.00872408	0.00387759	0.00454144	0.00609056	0.00362297	0.00397991
1.75000000	0.00589119	0.00374505	0.00494980	0.00819797	0.00925736	0.02384870	0.02486649	0.00781779	0.00826570	0.01026545	0.00692549	0.01336170	0.00922425	0.00733545	0.00606707	0.00185425	0.00108121	0.00216304	0.00547825	0.00881305	0.00396358	0.00400407	0.00602781	0.00380080	0.00368306
1.76000000	0.00603851	0.00426564	0.00509563	0.00893802	0.00944020	0.02474556	0.02461304	0.00786321	0.00812979	0.00971420	0.00648818	0.01157815	0.00950554	0.00736553	0.00586928	0.00176781	0.00102379	0.00217847	0.00544374	0.00894000	0.00394844	0.00376091	0.00645012	0.00369269	0.00382227
1.77000000	0.00615654	0.00437878	0.00534744	0.00952429	0.00964316	0.02557285	0.02433599	0.00783139	0.00798788	0.00898783	0.00616398	0.00966984	0.00972136	0.00731252	0.00538776	0.00169843	0.00095127	0.00211867	0.00547024	0.00905453	0.00405090	0.00360958	0.00658699	0.00346460	0.00407209
1.78000000	0.00628374	0.00466334	0.00545667	0.01005657	0.00982922	0.02611247	0.02411448	0.00781560	0.00784345	0.00804805	0.00574389	0.00790723	0.00987488	0.00722274	0.00485419	0.00175030	0.00095893	0.00213209	0.00544880	0.00905410	0.00414579	0.00352461	0.00686746	0.00336042	0.00421683
1.79000000	0.00601816	0.00440751	0.00564742	0.01028113	0.00996898	0.02676354	0.02380666	0.00779665	0.00764677	0.00694858	0.00547279	0.00603317	0.00982788	0.00689180	0.00417315	0.00167571	0.00086136	0.00207171	0.00543665	0.00915171	0.00421910	0.00336677	0.00698483	0.00325696	0.00448338
1.80000000	0.00600691	0.00435079	0.00573649	0.01034624	0.01003354	0.02712297	0.02361274	0.00773831	0.00745729	0.00562855	0.00512288	0.00434691	0.00961410	0.00632528	0.00357682	0.00169046	0.00082918	0.00211756	0.00541867	0.00913740	0.00439168	0.00327111	0.00721274	0.00313435	0.00463746
1.81000000	0.00578209	0.00431325	0.00594310	0.01038634	0.01022008	0.02730134	0.02340781	0.00770390	0.00735103	0.00407216	0.00468944	0.00294094	0.00909846	0.00558752	0.00305626	0.00173245	0.00093641	0.00214726	0.00540044	0.00910036	0.00451297	0.00321191	0.00737612	0.00302737	0.00487397
1.82000000	0.00581456	0.00481878	0.00610411	0.01050239	0.01056392	0.02708547	0.02333932	0.00756339	0.00728893	0.00263871	0.00414283	0.00245414	0.00842742	0.00467213	0.00259558	0.00166894	0.00123425	0.00215261	0.00539693	0.00901180	0.00465229	0.00319976	0.00765416	0.00299535	0.00517517
1.83000000	0.00527290	0.00446202	0.00634799	0.01032861	0.01072045	0.02722680	0.02311217	0.00762572	0.00723739	0.00252282	0.00367956	0.00459300	0.00767199	0.00332664	0.00198756	0.00167540	0.00115251	0.00220396	0.00532466	0.00912393	0.00471163	0.00296749	0.00772299	0.00297785	0.00539923
1.84000000	0.00513670	0.00465485	0.00672007	0.01013918	0.01085759	0.02707814	0.02314246	0.00751815	0.00712748	0.00454422	0.00316097	0.00713083	0.00683395	0.00213310	0.00156319	0.00171908	0.00129892	0.00229711	0.00530018	0.00904716	0.00488446	0.00290405	0.00789218	0.00297498	0.00554510
1.85000000	0.00529748	0.00570480	0.00715912	0.01016972	0.01114391	0.02667769	0.02322550	0.00744423	0.00712283	0.00756802	0.00246514	0.00965189	0.00602696	0.00164493	0.00125905	0.00167702	0.00153161	0.00247586	0.00522081	0.00891634	0.00503333	0.00295931	0.00812358	0.00292520	0.00584937
1.86000000	0.00480490	0.00596810	0.00743415	0.00990378	0.01147075	0.02671569	0.02327546	0.00724165	0.00694077	0.00952167	0.00162896	0.01333326	0.00519963	0.00204284	0.00077997	0.00167058	0.00152657	0.00238628	0.00519791	0.00910139	0.00502605	0.00269302	0.00812234	0.00293137	0.00595938
1.87000000	0.00452655	0.00627144	0.00795938	0.00986331	0.01158350	0.02657612	0.02333211	0.00721218	0.00697289	0.01247664	0.00108214	0.01607678	0.00456321	0.00324617	0.00043937	0.00171643	0.00169656	0.00249939	0.00512959	0.00894371	0.00511880	0.00272542	0.00819829	0.00300358	0.00611816
1.88000000	0.00458056	0.00733868	0.00829741	0.00980980	0.01190633	0.02630246	0.02353707	0.00695810	0.00686283	0.01422756	0.00158909	0.01862781	0.00388901	0.00443453	0.00073864	0.00170180	0.00176341	0.00248648	0.00509021	0.00895905	0.00517661	0.00272597	0.00821810	0.00301682	0.00629853
1.89000000	0.00453686	0.00757845	0.00866190	0.00987557	0.01201521	0.02598838	0.02369543	0.00686429	0.00687657	0.01618031	0.00176081	0.02019399	0.00351173	0.00523815	0.00078267	0.00169206	0.00189745	0.00259059	0.00499791	0.00878247	0.00522592	0.00283449	0.00831465	0.00314785	0.00645943
1.90000000	0.00481783	0.00808773	0.00893153	0.01001262	0.01209714	0.02549621	0.02388892	0.00672217	0.00691087	0.01736151	0.00209812	0.02083597	0.00312279	0.00551583	0.00075940	0.00167073	0.00205656	0.00269515	0.00492613	0.00857106	0.00530847	0.00313681	0.00842202	0.00319482	0.00667524
1.91000000	0.00496284	0.00850345	0.00921405	0.01010334	0.01175659	0.02503525	0.02413675	0.00668214	0.00688102	0.01754816	0.00247066	0.02063389	0.00278970	0.00538637	0.00077086	0.00164161	0.00218246	0.00283814	0.00478723	0.00834700	0.00526218	0.00317655	0.00848866	0.00355691	0.00699862
1.92000000	0.00509203	0.00905858	0.00939459	0.00983399	0.01087909	0.02457969	0.02455324	0.00655656	0.00655462	0.01664843	0.00282606	0.01969081	0.00283394	0.00495990	0.00097849	0.00198203	0.00229584	0.00310054	0.00461711	0.00812083	0.00532029	0.00290776	0.00835860	0.00419975	0.00753286
1.93000000	0.00563982	0.00769825	0.00874885	0.00995057	0.01226570	0.02400234	0.02419560	0.00625163	0.00682990	0.01455056	0.00332303	0.01870755	0.00275037	0.00451699	0.00106123	0.00188332	0.00220365	0.00282254	0.00470674	0.00809083	0.00524691	0.00364018	0.00849106	0.00393554	0.00715261
1.94000000	0.00611118	0.00780250	0.00864776	0.00978208	0.01172747	0.02312572	0.02446939	0.00625401	0.00678990	0.01244153	0.00394211	0.01688713	0.00288227	0.00348355	0.00106558	0.00202284	0.00230766	0.00286205	0.00469809	0.00784139	0.00530865	0.00395736	0.00859574	0.00417841	0.00733036
1.95000000	0.00663845	0.00771746	0.00849171	0.00964407	0.01108939	0.02195545	0.02474513	0.00655845	0.00674643	0.01011006	0.00446773	0.01514805	0.00331950	0.00237422	0.00146058	0.00240392	0.00237448	0.00293950	0.00471663	0.00752128	0.00548393	0.00427809	0.00859001	0.00456967	0.00754642
1.96000000	0.00712349	0.00718964	0.00813365	0.00908196	0.01062172	0.02101459	0.02485168	0.00661136	0.00674842	0.00791985	0.00537556	0.01382280	0.00349188	0.00154746	0.00128342	0.00258800	0.00250578	0.00276440	0.00479641	0.00731586	0.00549807	0.00480434	0.00874819	0.00487048	0.00766416
1.97000000	0.00832738	0.00507804	0.00767407	0.00811481	0.01053364	0.01996142	0.02493845	0.00679198	0.00624342	0.00754705	0.00457622	0.01254357	0.00454111	0.00100007	0.00089980	0.00293977	0.00242065	0.00265909	0.00491944	0.00698987	0.00570671	0.00530318	0.00863346	0.00520805	0.00761264
1.98000000	0.00850615	0.00492439	0.00735081	0.00729607	0.00929744	0.01849770	0.02526931	0.00729177	0.00598746	0.00625353	0.00562059	0.01215920	0.00501769	0.00082288	0.00130924	0.00328696	0.00250743	0.00245241	0.00509040	0.00681655	0.00602325	0.00567710	0.00861155	0.00564163	0.00770426
1.99000000	0.00886163	0.00460452	0.00691521	0.00639559	0.00822995	0.01704701	0.02543731	0.00782407	0.00580571	0.00600467	0.00650965	0.01200315	0.00565357	0.00080389	0.00152832	0.00333088	0.00256138	0.00216286	0.00534034	0.00676910	0.00634623	0.00605739	0.00855228	0.00580700	0.00770176
2.00000000	0.00947948	0.00358601	0.00654447	0.00535260	0.00716485	0.01538969	0.02543762	0.00875756	0.00554864	0.00703976	0.00540236	0.01107004	0.00681105	0.00164391	0.00135674	0.00371056	0.00258053	0.00210235	0.00551310	0.00657210	0.00688684	0.00654603	0.00840199	0.00613751	0.00772759
2.01000000	0.00916779	0.00333104	0.00599841	0.00416877	0.00577773	0.01356966	0.02577627	0.00961458	0.00488693	0.00687285	0.00594342	0.01123755	0.00728812	0.00122181	0.00286642	0.00357973	0.00252592	0.00193975	0.00583011	0.00682656	0.00731448	0.00650178	0.00814652	0.00616409	0.00754155
2.02000000	0.00953965	0.00278333	0.00574077	0.00307875	0.00475030	0.01202659	0.02576684	0.01041832	0.00493427	0.00710357	0.00482668	0.00975070	0.00822355	0.00202404	0.00285647	0.00373390	0.00245621	0.00196027	0.00602054	0.00678326	0.00777199	0.00673571	0.00779478	0.00627971	0.00738565
2.03000000	0.00942007	0.00222666	0.00527444	0.00267020	0.00389445	0.01054057	0.02602209	0.01105275	0.00467345	0.00709032	0.00509508	0.00905648	0.00857987	0.00186196	0.00373650	0.00355268	0.00224647	0.00202835	0.00632772	0.00710631	0.00817941	0.00647652	0.00730549	0.00617215	0.00701227
2.04000000	0.00956536	0.00161398	0.00478990	0.00312119	0.00381023	0.00932663	0.02611485	0.01186889	0.00474444	0.00707828	0.00475537	0.00788661	0.00897788	0.00210804	0.00421964	0.00330097	0.00213502	0.00211214	0.00651342	0.00738268	0.00842351	0.00626947	0.00693846	0.00599927	0.00679477
2.05000000	0.00915313	0.00103872	0.00441068	0.00452161	0.00419507	0.00830287	0.02655769	0.01241853	0.00483973	0.00728307	0.00496918	0.00709480	0.00895294	0.00239094	0.00463218	0.00300121	0.00197873	0.00225919	0.00674941	0.00774458	0.00869926	0.00582427	0.00651820	0.00572317	0.00651335
2.06000000	0.00758315	0.00170114	0.00499672	0.00601567	0.00522935	0.00758740	0.02693008	0.01383683	0.00524703	0.00741376	0.00527875	0.00644482	0.00881190	0.00228782	0.00465557	0.00236102	0.00172334	0.00248717	0.00711632	0.00819045	0.00914169	0.00502643	0.00628963	0.00538742	0.00611616
2.07000000	0.00938320	0.00078331	0.00410414	0.00669518	0.00558390	0.00762695	0.02728979	0.01369407	0.00594191	0.00703596	0.00435593	0.00621740	0.00865214	0.00256325	0.00451957	0.00248879	0.00183061	0.00241411	0.00697013	0.00834242	0.00880611	0.00503656	0.00606651	0.00525652	0.00607470
2.08000000	0.00899778	0.00125013	0.00430197	0.00781980	0.00647586	0.00757187	0.02791927	0.01403666	0.00651803	0.00664350	0.00403621	0.00571314	0.00823016	0.00314428	0.00435715	0.00229952	0.00174389	0.00245960	0.00702880	0.00855463	0.00886414	0.00466618	0.00595075	0.00506243	0.00597634
2.09000000	0.00901510	0.00184038	0.00444369	0.00813864	0.00711091	0.00825261	0.02810641	0.01475944	0.00730119	0.00625049	0.00373557	0.00594364	0.00777875	0.00279131	0.00399832	0.00211659	0.00172972	0.00247488	0.00701712	0.00883752	0.00882826	0.00424669	0.00605671	0.00487231	0.00594287
2.10000000	0.00846655	0.00253351	0.00489881	0.00899062	0.00821178	0.00841744	0.02861703	0.01492348	0.00770355	0.00589935	0.00348808	0.00550615	0.00735778	0.00337639	0.00382948	0.00198322	0.00169470	0.00241122	0.00697599	0.00900159	0.00882298	0.00397560	0.00617505	0.00475868	0.00592667
2.11000000	0.00711175	0.00342845	0.00573986	0.00994213	0.00948746	0.00852371	0.02900320	0.01531504	0.00815984	0.00572775	0.00366985	0.00515772	0.00683459	0.00368548	0.00397118	0.00180466	0.00163419	0.00251405	0.00704823	0.00916838	0.00910129	0.00339968	0.00644328	0.00460278	0.00580799
2.12000000	0.00771868	0.00344104	0.00546605	0.00897031	0.00940516	0.01031119	0.02906184	0.01576890	0.00894819	0.00497821	0.00390689	0.00587451	0.00655753	0.00269208	0.00334921	0.00182828	0.00188687	0.00232726	0.00671941	0.00919628	0.00888862	0.00351750	0.00679218	0.00460924	0.00610682
2.13000000	0.00727980	0.00407336	0.00591593	0.00937923	0.01058323	0.01065368	0.02928798	0.01598994	0.00930444	0.00466846	0.00397388	0.00578778	0.00640675	0.00289091	0.00331203	0.00176257	0.00200662	0.00225842	0.00658536	0.00918642	0.00896838	0.00335385	0.00703716	0.00463332	0.00612393
2.14000000	0.00733912	0.00461702	0.00617632	0.00911271	0.01086354	0.01191770	0.02944012	0.01601471	0.00992860	0.00422673	0.00393097	0.00611764	0.00644798	0.00253525	0.00329254	0.00162491	0.00210904	0.00216155	0.00638701	0.00913072	0.00901998	0.00338019	0.00730087	0.00465101	0.00617514
2.15000000	0.00695373	0.00472413	0.00623541	0.00932077	0.01183361	0.01269151	0.02944910	0.01627249	0.01028942	0.00408920	0.00434222	0.00650070	0.00646001	0.00267163	0.00327634	0.00151824	0.00235540	0.00215331	0.00616904	0.00901947	0.00908781	0.00323355	0.00764045	0.00475553	0.00624018
2.16000000	0.00636377	0.00498870	0.00631352	0.00884474	0.01168670	0.01421704	0.02946590	0.01641879	0.01093447	0.00395689	0.00442343	0.00688561	0.00670355	0.00261476	0.00346061	0.00147691	0.00243877	0.00218057	0.00602835	0.00870364	0.00929770	0.00339413	0.00772903	0.00472423	0.00620563
2.17000000	0.00612958	0.00485985	0.00625759	0.00920986	0.01217067	0.01485781	0.02949271	0.01657729	0.01127916	0.00407912	0.00558473	0.00786698	0.00662830	0.00261885	0.00322314	0.00137765	0.00237752	0.00221795	0.00606899	0.00865310	0.00948771	0.00309437	0.00788787	0.00466967	0.00579877
2.18000000	0.00600126	0.00431264	0.00565346	0.00910562	0.01262747	0.01607059	0.02929391	0.01681742	0.01159155	0.00423452	0.00560329	0.00837703	0.00706632	0.00235484	0.00364180	0.00143067	0.00244421	0.00215977	0.00574215	0.00821350	0.00927113	0.00348374	0.00788178	0.00502697	0.00587993
2.19000000	0.00551788	0.00503115	0.00523696	0.00863297	0.01200062	0.01755087	0.02909447	0.01688936	0.01197474	0.00439009	0.00475950	0.00848076	0.00744064	0.00311942	0.00385487	0.00128818	0.00235681	0.00227649	0.00573450	0.00764550	0.00930057	0.00370799	0.00773147	0.00487980	0.00575898
2.20000000	0.00555811	0.00447877	0.00454293	0.00897181	0.01211141	0.01832985	0.02903797	0.01714764	0.01217335	0.00465620	0.00552503	0.00926284	0.00749550	0.00304328	0.00363560	0.00132301	0.00216160	0.00220110	0.00567126	0.00741542	0.00897982	0.00373188	0.00762801	0.00510703	0.00546297
2.21000000	0.00495955	0.00472119	0.00430476	0.00889025	0.01170355	0.01945859	0.02893870	0.01742800	0.01236277	0.00481627	0.00522413	0.00983259	0.00771042	0.00291937	0.00404530	0.00129663	0.00180782	0.00217493	0.00571710	0.00709580	0.00862381	0.00391155	0.00723453	0.00516091	0.00524063
2.22000000	0.00540714	0.00444930	0.00343650	0.00986815	0.01187578	0.01989152	0.02896550	0.01768546	0.01241297	0.00521529	0.00641606	0.01027041	0.00743004	0.00334146	0.00350479	0.00126848	0.00158812	0.00202028	0.00577462	0.00689648	0.00813286	0.00394106	0.00724587	0.00529449	0.00482160
2.23000000	0.00437003	0.00485316	0.00340236	0.01015900	0.01141943	0.02049418	0.02911144	0.01789402	0.01260568	0.00550952	0.00534543	0.01048371	0.00775894	0.00328880	0.00380872	0.00118124	0.00114967	0.00216136	0.00581597	0.00643317	0.00777111	0.00420774	0.00663267	0.00536315	0.00466656
2.24000000	0.00493638	0.00468247	0.00271528	0.01101227	0.01118565	0.02060965	0.02920947	0.01827112	0.01286655	0.00599474	0.00571658	0.01075749	0.00764141	0.00336229	0.00360733	0.00119103	0.00086454	0.00206962	0.00584191	0.00621457	0.00725333	0.00441662	0.00637227	0.00559195	0.00431992
2.25000000	0.00449037	0.00509108	0.00315858	0.01179741	0.01086833	0.02052366	0.02951683	0.01832984	0.01272939	0.00626447	0.00558183	0.01134587	0.00750424	0.00341051	0.00357419	0.00110713	0.00062820	0.00205581	0.00596957	0.00605166	0.00693132	0.00455681	0.00589805	0.00567238	0.00403485
2.26000000	0.00494573	0.00510287	0.00307097	0.01262964	0.01040406	0.02016145	0.02972469	0.01847907	0.01280803	0.00678220	0.00567650	0.01197072	0.00728943	0.00347702	0.00349924	0.00111093	0.00068203	0.00198754	0.00600997	0.00591173	0.00660886	0.00485069	0.00553735	0.00586906	0.00375114
2.27000000	0.00489539	0.00521907	0.00342805	0.01357701	0.00995686	0.01942413	0.02996537	0.01835171	0.01272440	0.00736693	0.00604395	0.01288146	0.00699722	0.00361226	0.00317320	0.00106332	0.00092081	0.00201075	0.00612194	0.00580921	0.00652358	0.00499690	0.00514348	0.00601586	0.00342850
2.28000000	0.00513835	0.00515280	0.00361603	0.01432069	0.00931966	0.01853350	0.03011786	0.01813035	0.01261961	0.00812183	0.00643191	0.01404625	0.00666349	0.00376364	0.00290880	0.00109374	0.00122925	0.00204460	0.00619642	0.00573912	0.00648310	0.00524010	0.00476054	0.00619593	0.00309687
2.29000000	0.00549932	0.00499778	0.00361468	0.01478933	0.00849322	0.01755516	0.03013154	0.01777224	0.01252593	0.00909254	0.00664921	0.01537553	0.00640385	0.00389999	0.00271368	0.00120395	0.00149727	0.00205179	0.00623933	0.00563463	0.00650021	0.00562014	0.00438953	0.00637703	0.00288414
2.30000000	0.00537611	0.00450876	0.00377874	0.01516581	0.00767757	0.01625549	0.03011631	0.01716803	0.01208325	0.00980719	0.00781045	0.01690272	0.00590996	0.00415838	0.00226588	0.00129720	0.00179666	0.00213651	0.00632646	0.00559623	0.00661592	0.00580622	0.00406755	0.00657784	0.00254994
2.31000000	0.00571622	0.00457974	0.00352347	0.01473263	0.00656107	0.01529722	0.02972717	0.01661256	0.01175850	0.01108179	0.00820968	0.01811001	0.00567908	0.00419513	0.00198540	0.00158195	0.00200917	0.00230205	0.00634307	0.00540824	0.00682147	0.00620778	0.00376594	0.00684800	0.00230194
2.32000000	0.00546641	0.00385372	0.00383225	0.01421118	0.00566712	0.01373968	0.02930827	0.01568338	0.01119208	0.01144206	0.00914684	0.01968611	0.00520550	0.00445230	0.00177039	0.00168568	0.00229488	0.00233689	0.00643088	0.00555377	0.00691896	0.00628462	0.00343525	0.00701862	0.00204809
2.33000000	0.00556552	0.00393582	0.00370034	0.01258165	0.00480085	0.01283509	0.02850115	0.01496099	0.01077451	0.01235205	0.00959505	0.02050896	0.00496673	0.00445537	0.00152307	0.00202206	0.00238783	0.00245038	0.00640285	0.00535535	0.00713740	0.00673894	0.00323481	0.00723612	0.00188264
2.34000000	0.00526479	0.00324366	0.00389534	0.01130104	0.00402681	0.01119369	0.02790493	0.01373139	0.00991472	0.01226183	0.01051983	0.02147359	0.00457218	0.00461862	0.00152838	0.00217450	0.00264397	0.00254312	0.00644050	0.00551844	0.00722333	0.00682297	0.00295748	0.00740434	0.00166196
2.35000000	0.00524642	0.00305589	0.00397623	0.00907383	0.00356515	0.01054306	0.02715464	0.01259982	0.00915083	0.01237023	0.01118211	0.02188485	0.00426267	0.00449770	0.00151924	0.00243917	0.00279146	0.00259031	0.00639793	0.00552229	0.00731529	0.00708218	0.00275102	0.00760678	0.00151984
2.36000000	0.00559489	0.00339490	0.00386768	0.00593734	0.00341132	0.01130893	0.02641474	0.01150458	0.00885066	0.01298133	0.01143061	0.02156881	0.00406049	0.00433972	0.00117991	0.00293225	0.00276653	0.00280130	0.00626142	0.00517842	0.00752060	0.00748542	0.00273415	0.00806979	0.00149685
2.37000000	0.00524311	0.00311065	0.00421020	0.00392267	0.00371652	0.01285797	0.02591303	0.01015809	0.00764673	0.01246014	0.01193671	0.02166980	0.00382535	0.00438889	0.00143165	0.00305572	0.00290954	0.00281059	0.00619117	0.00531166	0.00743768	0.00761047	0.00256214	0.00807473	0.00135995
2.38000000	0.00598565	0.00339340	0.00456455	0.00375962	0.00407897	0.01555568	0.02532345	0.00925290	0.00723538	0.01269892	0.01202692	0.02111388	0.00370679	0.00428341	0.00136985	0.00342833	0.00277651	0.00301524	0.00603363	0.00496619	0.00748610	0.00786819	0.00268538	0.00842599	0.00148690
2.39000000	0.00675472	0.00365334	0.00505596	0.00646022	0.00432455	0.01858065	0.02499412	0.00835781	0.00672456	0.01281912	0.01216616	0.02052118	0.00361571	0.00426826	0.00135464	0.00377586	0.00266576	0.00318545	0.00587014	0.00467353	0.00746952	0.00813817	0.00280376	0.00874697	0.00146543
2.40000000	0.00709572	0.00367752	0.00528780	0.00880592	0.00479635	0.02180803	0.02494691	0.00716201	0.00582918	0.01238380	0.01318757	0.02012308	0.00342014	0.00427096	0.00153218	0.00397990	0.00265884	0.00321756	0.00573543	0.00468177	0.00722146	0.00828261	0.00286091	0.00886612	0.00155204
2.41000000	0.00831264	0.00400446	0.00585517	0.01128490	0.00508919	0.02431303	0.02479904	0.00664364	0.00551152	0.01246066	0.01353758	0.01947784	0.00331236	0.00418209	0.00143131	0.00424883	0.00252535	0.00333659	0.00559995	0.00445482	0.00708559	0.00846556	0.00302328	0.00916890	0.00162712
2.42000000	0.00931067	0.00440638	0.00622599	0.01282069	0.00535243	0.02607006	0.02473433	0.00635700	0.00531843	0.01239386	0.01398722	0.01890217	0.00321893	0.00411682	0.00135344	0.00450873	0.00243380	0.00335925	0.00547740	0.00430255	0.00691055	0.00863521	0.00315184	0.00953031	0.00169415
2.43000000	0.01010836	0.00467974	0.00645642	0.01332841	0.00583110	0.02691605	0.02465041	0.00600461	0.00537674	0.01244808	0.01428472	0.01836718	0.00335894	0.00402443	0.00157825	0.00471677	0.00224910	0.00339325	0.00527279	0.00427358	0.00653179	0.00864385	0.00326754	0.01000223	0.00212725
2.44000000	0.01078323	0.00530288	0.00673063	0.01268112	0.00576511	0.02656716	0.02478417	0.00640905	0.00521197	0.01232632	0.01489689	0.01770270	0.00314188	0.00376150	0.00144110	0.00486461	0.00227461	0.00337495	0.00523652	0.00412704	0.00641800	0.00885238	0.00343361	0.01014235	0.00207757
2.45000000	0.01134231	0.00573786	0.00687431	0.01109197	0.00563507	0.02543278	0.02475266	0.00685605	0.00524821	0.01221687	0.01537435	0.01715868	0.00299603	0.00351689	0.00132126	0.00500366	0.00213142	0.00326705	0.00506693	0.00409553	0.00612739	0.00902162	0.00364318	0.01035440	0.00211499
2.46000000	0.01175680	0.00626575	0.00696008	0.00908227	0.00564538	0.02335074	0.02475747	0.00731494	0.00543529	0.01210072	0.01578466	0.01658237	0.00288034	0.00332071	0.00127093	0.00508348	0.00208205	0.00314138	0.00495832	0.00406708	0.00586923	0.00923362	0.00388650	0.01039965	0.00227728
2.47000000	0.01213135	0.00681157	0.00695580	0.00663344	0.00544788	0.02102846	0.02460387	0.00777041	0.00565653	0.01204372	0.01594673	0.01604521	0.00275595	0.00305300	0.00123379	0.00516200	0.00203178	0.00305689	0.00482150	0.00413982	0.00558906	0.00938047	0.00420613	0.01046743	0.00247566
2.48000000	0.01216067	0.00746363	0.00692071	0.00423052	0.00524654	0.01856844	0.02445879	0.00817273	0.00589698	0.01191489	0.01594221	0.01557156	0.00268393	0.00281730	0.00131304	0.00518284	0.00205852	0.00298235	0.00469786	0.00425289	0.00527670	0.00950549	0.00469963	0.01043228	0.00281493
2.49000000	0.01221860	0.00809737	0.00686327	0.00227403	0.00506211	0.01635265	0.02421297	0.00859751	0.00608754	0.01181760	0.01562970	0.01484843	0.00264372	0.00258019	0.00149092	0.00527409	0.00208571	0.00280810	0.00460394	0.00437685	0.00510264	0.00971546	0.00509642	0.01046340	0.00311642
2.50000000	0.01230172	0.00864034	0.00685792	0.00154520	0.00494248	0.01458586	0.02394110	0.00900587	0.00628171	0.01169003	0.01493995	0.01392536	0.00263814	0.00228678	0.00156943	0.00535970	0.00217922	0.00263501	0.00453237	0.00451472	0.00499298	0.00990625	0.00553219	0.01045711	0.00340409
2.51000000	0.01132093	0.00954135	0.00644312	0.00237511	0.00469218	0.01343260	0.02399153	0.00886375	0.00635749	0.01127961	0.01442996	0.01311177	0.00252180	0.00220422	0.00199878	0.00527628	0.00239103	0.00235685	0.00447185	0.00483662	0.00477313	0.00986385	0.00609202	0.01035031	0.00372578
2.52000000	0.01150255	0.00959235	0.00637701	0.00334696	0.00492397	0.01277109	0.02397291	0.00881165	0.00665741	0.01080941	0.01302430	0.01204210	0.00259625	0.00231913	0.00234621	0.00520476	0.00253706	0.00206678	0.00441215	0.00508787	0.00461922	0.00984580	0.00647275	0.01018213	0.00402925
2.53000000	0.01143179	0.00949306	0.00606587	0.00423630	0.00526662	0.01254593	0.02425548	0.00853090	0.00692922	0.01010655	0.01137027	0.01088371	0.00261731	0.00254329	0.00275360	0.00502325	0.00256037	0.00171517	0.00440219	0.00537376	0.00452352	0.00966577	0.00669569	0.00994998	0.00416489
2.54000000	0.01093293	0.00918278	0.00557329	0.00496198	0.00545471	0.01275252	0.02475031	0.00818988	0.00723966	0.00909899	0.00953942	0.00982591	0.00262167	0.00297867	0.00306061	0.00461421	0.00254534	0.00145200	0.00443702	0.00569932	0.00435770	0.00923934	0.00678067	0.00951729	0.00434630
2.55000000	0.01045067	0.00851401	0.00514920	0.00553086	0.00585863	0.01305316	0.02537537	0.00797742	0.00758361	0.00784610	0.00734088	0.00872639	0.00246802	0.00303535	0.00351842	0.00409553	0.00225219	0.00130912	0.00454046	0.00596654	0.00432736	0.00871129	0.00659791	0.00898837	0.00419170
2.56000000	0.00801291	0.00823276	0.00496852	0.00524184	0.00469884	0.01329996	0.02592810	0.00860174	0.00814740	0.00666311	0.00519305	0.00727030	0.00208612	0.00255282	0.00327695	0.00364002	0.00222047	0.00135681	0.00447840	0.00580927	0.00425426	0.00801388	0.00662943	0.00871565	0.00430977
2.57000000	0.00712861	0.00707021	0.00450918	0.00575076	0.00517042	0.01383440	0.02630264	0.00833320	0.00837985	0.00492434	0.00304172	0.00689580	0.00194901	0.00254874	0.00328647	0.00280639	0.00166050	0.00139455	0.00472690	0.00615413	0.00424118	0.00717117	0.00604508	0.00797061	0.00404613
2.58000000	0.00598625	0.00635053	0.00410248	0.00607066	0.00529078	0.01421699	0.02661637	0.00821165	0.00857660	0.00368315	0.00188100	0.00644817	0.00174757	0.00230231	0.00308799	0.00207944	0.00117479	0.00154027	0.00492276	0.00638472	0.00422894	0.00643741	0.00549461	0.00735127	0.00381691
2.59000000	0.00480551	0.00591931	0.00377695	0.00621367	0.00497739	0.01430285	0.02688918	0.00817593	0.00883944	0.00375083	0.00207811	0.00568585	0.00156416	0.00209274	0.00257055	0.00154702	0.00080877	0.00170661	0.00506926	0.00649850	0.00422613	0.00591908	0.00505908	0.00686589	0.00355111
2.60000000	0.00399745	0.00558092	0.00355481	0.00637472	0.00484618	0.01421502	0.02684827	0.00836421	0.00915496	0.00417163	0.00271783	0.00534801	0.00179185	0.00233123	0.00207869	0.00129438	0.00048685	0.00181537	0.00517858	0.00647624	0.00434444	0.00557032	0.00461418	0.00664996	0.00331883
2.61000000	0.00372811	0.00560990	0.00334829	0.00666982	0.00499830	0.01421328	0.02675054	0.00831033	0.00920584	0.00405259	0.00334202	0.00577409	0.00227327	0.00246828	0.00175193	0.00113226	0.00036202	0.00191636	0.00529630	0.00666289	0.00434631	0.00534386	0.00418072	0.00642081	0.00314397
2.62000000	0.00324329	0.00558206	0.00333001	0.00683017	0.00501743	0.01414025	0.02665580	0.00816544	0.00930268	0.00480418	0.00377846	0.00566176	0.00297088	0.00302322	0.00115673	0.00116676	0.00043259	0.00195953	0.00535531	0.00679010	0.00431505	0.00533433	0.00390780	0.00635406	0.00296443
2.63000000	0.00285154	0.00569612	0.00343614	0.00703674	0.00515338	0.01413041	0.02649092	0.00807443	0.00932304	0.00508751	0.00428614	0.00591321	0.00378668	0.00336025	0.00112658	0.00116404	0.00047968	0.00199167	0.00534438	0.00698961	0.00421698	0.00544059	0.00366047	0.00633716	0.00288347
2.64000000	0.00258209	0.00530988	0.00362091	0.00725284	0.00535208	0.01437401	0.02617570	0.00814351	0.00927314	0.00529646	0.00530609	0.00637104	0.00468344	0.00362062	0.00174962	0.00120173	0.00056508	0.00203156	0.00532384	0.00714284	0.00409368	0.00561445	0.00344792	0.00639020	0.00282948
2.65000000	0.00234631	0.00568284	0.00394232	0.00738178	0.00547062	0.01438117	0.02617209	0.00794500	0.00920107	0.00555222	0.00571652	0.00618576	0.00542335	0.00409472	0.00185163	0.00129209	0.00058493	0.00203315	0.00522484	0.00726995	0.00386136	0.00584370	0.00336854	0.00650768	0.00273565
2.66000000	0.00241084	0.00495207	0.00433789	0.00751305	0.00571578	0.01485174	0.02588453	0.00789489	0.00923975	0.00572436	0.00694395	0.00638915	0.00614640	0.00438279	0.00256151	0.00146665	0.00065751	0.00208650	0.00511227	0.00729754	0.00362831	0.00619780	0.00325406	0.00652756	0.00266286
2.67000000	0.00249353	0.00522711	0.00472254	0.00751723	0.00583307	0.01525266	0.02587997	0.00772915	0.00906619	0.00572515	0.00749590	0.00634975	0.00665943	0.00480177	0.00253418	0.00162804	0.00056042	0.00209971	0.00484222	0.00728842	0.00328977	0.00633454	0.00332087	0.00665106	0.00270689
2.68000000	0.00255882	0.00480357	0.00495599	0.00760907	0.00610303	0.01586222	0.02574012	0.00761128	0.00909497	0.00570078	0.00844374	0.00659247	0.00700718	0.00510810	0.00283452	0.00190559	0.00064017	0.00200051	0.00461252	0.00725743	0.00302092	0.00664709	0.00330924	0.00652442	0.00267270
2.69000000	0.00260910	0.00459861	0.00509538	0.00763556	0.00633683	0.01651061	0.02576996	0.00742131	0.00891629	0.00565104	0.00905401	0.00706175	0.00728913	0.00538051	0.00292389	0.00204436	0.00066998	0.00210406	0.00427802	0.00718605	0.00276947	0.00673662	0.00331780	0.00640730	0.00272565
2.70000000	0.00259640	0.00437177	0.00498432	0.00768643	0.00656344	0.01719290	0.02578751	0.00731814	0.00884452	0.00559150	0.00949328	0.00784189	0.00741409	0.00573124	0.00297720	0.00218349	0.00079798	0.00206873	0.00392060	0.00709838	0.00257877	0.00677259	0.00340632	0.00623803	0.00274746
2.71000000	0.00290258	0.00379568	0.00507830	0.00772323	0.00677107	0.01796781	0.02575498	0.00732490	0.00875880	0.00570491	0.00957853	0.00889443	0.00738678	0.00619974	0.00338121	0.00207437	0.00098390	0.00213374	0.00355880	0.00711331	0.00238079	0.00636805	0.00348260	0.00601322	0.00271620
2.72000000	0.00286506	0.00352182	0.00446432	0.00786261	0.00708623	0.01869468	0.02577830	0.00713633	0.00864851	0.00592347	0.00964969	0.01037975	0.00740798	0.00650371	0.00347226	0.00207381	0.00110614	0.00206806	0.00318911	0.00705831	0.00227553	0.00629332	0.00357478	0.00573208	0.00282006
2.73000000	0.00301297	0.00313424	0.00383713	0.00803478	0.00742616	0.01942469	0.02571452	0.00704368	0.00862473	0.00644464	0.00961858	0.01202126	0.00741883	0.00677703	0.00369627	0.00201744	0.00123775	0.00199199	0.00278136	0.00702261	0.00212453	0.00619450	0.00376619	0.00543325	0.00288477
2.74000000	0.00353971	0.00245050	0.00356154	0.00829639	0.00770203	0.02019850	0.02562216	0.00705485	0.00850556	0.00692336	0.00929103	0.01377985	0.00728943	0.00721892	0.00434251	0.00171396	0.00137202	0.00196519	0.00256287	0.00714159	0.00198807	0.00563211	0.00381674	0.00514295	0.00290702
2.75000000	0.00413136	0.00184441	0.00330546	0.00852611	0.00787779	0.02105196	0.02557580	0.00693787	0.00838595	0.00770782	0.00901019	0.01537604	0.00731171	0.00745138	0.00470095	0.00150440	0.00144819	0.00188536	0.00232232	0.00730736	0.00178549	0.00522237	0.00393480	0.00484327	0.00298624
2.76000000	0.00467829	0.00155472	0.00309528	0.00892137	0.00816291	0.02188335	0.02547568	0.00687720	0.00830544	0.00854835	0.00868639	0.01673669	0.00738160	0.00767670	0.00506899	0.00138481	0.00152554	0.00175225	0.00212527	0.00747154	0.00161876	0.00493723	0.00409474	0.00457503	0.00310349
2.77000000	0.00514051	0.00163351	0.00294092	0.00942217	0.00856697	0.02274002	0.02529743	0.00687217	0.00827675	0.00939527	0.00840173	0.01769592	0.00751951	0.00784932	0.00543481	0.00136716	0.00154357	0.00162926	0.00193690	0.00764034	0.00147864	0.00469506	0.00438421	0.00437496	0.00331579
2.78000000	0.00558226	0.00176114	0.00309065	0.00997739	0.00888753	0.02362773	0.02516688	0.00699853	0.00821489	0.01015737	0.00815838	0.01809605	0.00768410	0.00794108	0.00575979	0.00140207	0.00164863	0.00152471	0.00185573	0.00783562	0.00140680	0.00442993	0.00469683	0.00420160	0.00349598
2.79000000	0.00618368	0.00174332	0.00358584	0.01044440	0.00909370	0.02465718	0.02509006	0.00709171	0.00809022	0.01054023	0.00791827	0.01797015	0.00792050	0.00790600	0.00588624	0.00139772	0.00173933	0.00143283	0.00189923	0.00810740	0.00136057	0.00419015	0.00488738	0.00396937	0.00361493
2.80000000	0.00652851	0.00208873	0.00383326	0.01101792	0.00943022	0.02557295	0.02496957	0.00730673	0.00795460	0.01080369	0.00764365	0.01733849	0.00818800	0.00777231	0.00598501	0.00151396	0.00182256	0.00147752	0.00190817	0.00837248	0.00141262	0.00395394	0.00528290	0.00379345	0.00382365
2.81000000	0.00678865	0.00246001	0.00414695	0.01152941	0.00966205	0.02648528	0.02477910	0.00758738	0.00780377	0.01085464	0.00732188	0.01620590	0.00835587	0.00760217	0.00608014	0.00157405	0.00191145	0.00154447	0.00197748	0.00863042	0.00154683	0.00374332	0.00558420	0.00370657	0.00397649
2.82000000	0.00707627	0.00268144	0.00446790	0.01196724	0.00993190	0.02730376	0.02449559	0.00773690	0.00761309	0.01062280	0.00697496	0.01470936	0.00847773	0.00728602	0.00597990	0.00163502	0.00199740	0.00163453	0.00207005	0.00889119	0.00169190	0.00359729	0.00585019	0.00353144	0.00413727
2.83000000	0.00729783	0.00284769	0.00470888	0.01234725	0.01026488	0.02796161	0.02405736	0.00783130	0.00740676	0.01020789	0.00654842	0.01298511	0.00856160	0.00680424	0.00570957	0.00161717	0.00198885	0.00175755	0.00215507	0.00912070	0.00183771	0.00351747	0.00607544	0.00338813	0.00428855
2.84000000	0.00748796	0.00347594	0.00483538	0.01279498	0.01062881	0.02826859	0.02348057	0.00799028	0.00730261	0.00964268	0.00603024	0.01112534	0.00844866	0.00634211	0.00545752	0.00163874	0.00205635	0.00183756	0.00220332	0.00923717	0.00201355	0.00338504	0.00644201	0.00333378	0.00435844
2.85000000	0.00742183	0.00318849	0.00505935	0.01276809	0.01078024	0.02887909	0.02272561	0.00801696	0.00701767	0.00874768	0.00556395	0.00906513	0.00819779	0.00572461	0.00497236	0.00161438	0.00202560	0.00194515	0.00226516	0.00940518	0.00215226	0.00334061	0.00653458	0.00318178	0.00451754
2.86000000	0.00752660	0.00521731	0.00456596	0.01314561	0.01156534	0.02873685	0.02169166	0.00795947	0.00713276	0.00793511	0.00451678	0.00720465	0.00775300	0.00511172	0.00432288	0.00157806	0.00225337	0.00187881	0.00231919	0.00942609	0.00266862	0.00337577	0.00692408	0.00308530	0.00508401
2.87000000	0.00750094	0.00352546	0.00529275	0.01280741	0.01118063	0.02920706	0.02093696	0.00797319	0.00654683	0.00625506	0.00458746	0.00492118	0.00741085	0.00439645	0.00389466	0.00151304	0.00205978	0.00206853	0.00231925	0.00941006	0.00246884	0.00317934	0.00686958	0.00304612	0.00481812
2.88000000	0.00761501	0.00381535	0.00546876	0.01267620	0.01136430	0.02918028	0.01997217	0.00778269	0.00623522	0.00480971	0.00425759	0.00288886	0.00695321	0.00368750	0.00327454	0.00149173	0.00209258	0.00213393	0.00233899	0.00930794	0.00260777	0.00312652	0.00703262	0.00294901	0.00485531
2.89000000	0.00759581	0.00398789	0.00564419	0.01253186	0.01153046	0.02908902	0.01901559	0.00765879	0.00597735	0.00368212	0.00400718	0.00244554	0.00654427	0.00294161	0.00255147	0.00144770	0.00209890	0.00220783	0.00234227	0.00919915	0.00273335	0.00304096	0.00710418	0.00290319	0.00496789
2.90000000	0.00786242	0.00529657	0.00577844	0.01255435	0.01190752	0.02862052	0.01828166	0.00746165	0.00588244	0.00400605	0.00367708	0.00424674	0.00617704	0.00235292	0.00189585	0.00132655	0.00220377	0.00224665	0.00236837	0.00895799	0.00291881	0.00305056	0.00733341	0.00286806	0.00518682
2.91000000	0.00740480	0.00492488	0.00604432	0.01214885	0.01197792	0.02878112	0.01788207	0.00731404	0.00560397	0.00541920	0.00336363	0.00784147	0.00583348	0.00136767	0.00091929	0.00142085	0.00210907	0.00238924	0.00236893	0.00898717	0.00302992	0.00289300	0.00714021	0.00284407	0.00520660
2.92000000	0.00726420	0.00559895	0.00642684	0.01196795	0.01206501	0.02858135	0.01797970	0.00717862	0.00554171	0.00815544	0.00293025	0.01109348	0.00554825	0.00082629	0.00019908	0.00135710	0.00213945	0.00247807	0.00234184	0.00880053	0.00308309	0.00278478	0.00727218	0.00281727	0.00532251
2.93000000	0.00702078	0.00650142	0.00671997	0.01176466	0.01232903	0.02847198	0.01835947	0.00693948	0.00554366	0.01059066	0.00246649	0.01468463	0.00511422	0.00137179	0.00094331	0.00135564	0.00213940	0.00253898	0.00238203	0.00876371	0.00320637	0.00267253	0.00723534	0.00281544	0.00545594
2.94000000	0.00677684	0.00718617	0.00715775	0.01162699	0.01247530	0.02833612	0.01896333	0.00681323	0.00565633	0.01339339	0.00204377	0.01778014	0.00483884	0.00228172	0.00177074	0.00133830	0.00216343	0.00265365	0.00240833	0.00858328	0.00329129	0.00269272	0.00723042	0.00284418	0.00559930
2.95000000	0.00663217	0.00841296	0.00780696	0.01166343	0.01249188	0.02799785	0.01983459	0.00672640	0.00581081	0.01633234	0.00152966	0.01997427	0.00460565	0.00266496	0.00244314	0.00122312	0.00225570	0.00277647	0.00244333	0.00826229	0.00340333	0.00286087	0.00723984	0.00302107	0.00590130
2.96000000	0.00662929	0.00870232	0.00820941	0.01171968	0.01268588	0.02760835	0.02064676	0.00657092	0.00601927	0.01817049	0.00106450	0.02184270	0.00454377	0.00329555	0.00285580	0.00116845	0.00239229	0.00285757	0.00249645	0.00799042	0.00347206	0.00308759	0.00743436	0.00297512	0.00601787
2.97000000	0.00602997	0.00895920	0.00827473	0.01142315	0.01318158	0.02763691	0.02127483	0.00620642	0.00594074	0.01773545	0.00285882	0.02332217	0.00389123	0.00445282	0.00342851	0.00120777	0.00222900	0.00289630	0.00245982	0.00815856	0.00348643	0.00280223	0.00731875	0.00319568	0.00611914
2.98000000	0.00597588	0.00935208	0.00856927	0.01142189	0.01306572	0.02725723	0.02190209	0.00611432	0.00611576	0.01777638	0.00302386	0.02314423	0.00390304	0.00422968	0.00352836	0.00115804	0.00239453	0.00292605	0.00252499	0.00796385	0.00362533	0.00302504	0.00742747	0.00334050	0.00641388
2.99000000	0.00579407	0.00928005	0.00869783	0.01148214	0.01316316	0.02682702	0.02226830	0.00602026	0.00625529	0.01679213	0.00331857	0.02222289	0.00391738	0.00395857	0.00344691	0.00114090	0.00248468	0.00294308	0.00256741	0.00795246	0.00372809	0.00321346	0.00756461	0.00350700	0.00657992
3.00000000	0.00582765	0.00918711	0.00873233	0.01146331	0.01318150	0.02626952	0.02257523	0.00587128	0.00632900	0.01507776	0.00362890	0.02064943	0.00394054	0.00351638	0.00330248	0.00113046	0.00264415	0.00288328	0.00267458	0.00810340	0.00384248	0.00340714	0.00766417	0.00369392	0.00680134
3.01000000	0.00600896	0.00820104	0.00860083	0.01100003	0.01359082	0.02590983	0.02271899	0.00547210	0.00608416	0.01349059	0.00327692	0.01867659	0.00403615	0.00270171	0.00297971	0.00114033	0.00267856	0.00283841	0.00274845	0.00851271	0.00381107	0.00355977	0.00769151	0.00393611	0.00687836
3.02000000	0.00637231	0.00812831	0.00859347	0.01079722	0.01322776	0.02514788	0.02297322	0.00538722	0.00605322	0.01119721	0.00372380	0.01667322	0.00387195	0.00208648	0.00274146	0.00114632	0.00286699	0.00269802	0.00289419	0.00915807	0.00382468	0.00382340	0.00780000	0.00413670	0.00703262
3.03000000	0.00694551	0.00776576	0.00859115	0.01047864	0.01282912	0.02431323	0.02317718	0.00539248	0.00595274	0.00912706	0.00425757	0.01485848	0.00361785	0.00140266	0.00247583	0.00123976	0.00305359	0.00255285	0.00304349	0.01000127	0.00372551	0.00415131	0.00782366	0.00442424	0.00716469
3.04000000	0.00761737	0.00735472	0.00862538	0.01004433	0.01229804	0.02325866	0.02344571	0.00554506	0.00581965	0.00728184	0.00482185	0.01349667	0.00338957	0.00066612	0.00223680	0.00130744	0.00325967	0.00233742	0.00324122	0.01105742	0.00346527	0.00447159	0.00787186	0.00472908	0.00727822
3.05000000	0.00867057	0.00585693	0.00876252	0.00913137	0.01182508	0.02236781	0.02361644	0.00572546	0.00554132	0.00715572	0.00406429	0.01216716	0.00378372	0.00089175	0.00151019	0.00169141	0.00349875	0.00219360	0.00345394	0.01205501	0.00310361	0.00505445	0.00772152	0.00509859	0.00722131
3.06000000	0.00922689	0.00568155	0.00873179	0.00824769	0.01073176	0.02104041	0.02408386	0.00608734	0.00526333	0.00594152	0.00491487	0.01186642	0.00377273	0.00114449	0.00143093	0.00189247	0.00372966	0.00189228	0.00369433	0.01332263	0.00272671	0.00539389	0.00756650	0.00541124	0.00718576
3.07000000	0.00996372	0.00502828	0.00862240	0.00746797	0.00965478	0.01945532	0.02436823	0.00684017	0.00523548	0.00589964	0.00465989	0.01166104	0.00424119	0.00161864	0.00120240	0.00221496	0.00391078	0.00168706	0.00392122	0.01426041	0.00236756	0.00587509	0.00728508	0.00576041	0.00709743
3.08000000	0.01013317	0.00493422	0.00820485	0.00610850	0.00815393	0.01781563	0.02495854	0.00747445	0.00493249	0.00557224	0.00507277	0.01182025	0.00461971	0.00143980	0.00151598	0.00222404	0.00401589	0.00143725	0.00418146	0.01497728	0.00213565	0.00598640	0.00697534	0.00594736	0.00688249
3.09000000	0.01035496	0.00455355	0.00762686	0.00495584	0.00681311	0.01583462	0.02524626	0.00857747	0.00495135	0.00609019	0.00428456	0.01129847	0.00547859	0.00173219	0.00164774	0.00234426	0.00407733	0.00140166	0.00435705	0.01496418	0.00220576	0.00622152	0.00664632	0.00613935	0.00670607
3.10000000	0.00995317	0.00432111	0.00674865	0.00336242	0.00537417	0.01382415	0.02587084	0.00948029	0.00451850	0.00596225	0.00475359	0.01097293	0.00596232	0.00129083	0.00247202	0.00205748	0.00397293	0.00151146	0.00459904	0.01462084	0.00248124	0.00591718	0.00612937	0.00609089	0.00630909
3.11000000	0.00961856	0.00404264	0.00571795	0.00241570	0.00433640	0.01182627	0.02632017	0.01038197	0.00452418	0.00593237	0.00483045	0.01036702	0.00647021	0.00119489	0.00305185	0.00186610	0.00398615	0.00167959	0.00480534	0.01373478	0.00288454	0.00573102	0.00552410	0.00597953	0.00590625
3.12000000	0.00947987	0.00376858	0.00453740	0.00283757	0.00387282	0.00979079	0.02669746	0.01137474	0.00454285	0.00595637	0.00465181	0.00945963	0.00698405	0.00128275	0.00345722	0.00168428	0.00384844	0.00193738	0.00490235	0.01257882	0.00322690	0.00544001	0.00507054	0.00592857	0.00561783
3.13000000	0.00929025	0.00344213	0.00347376	0.00427264	0.00406418	0.00802517	0.02701684	0.01248254	0.00480025	0.00594537	0.00449679	0.00847434	0.00734724	0.00156506	0.00362637	0.00146628	0.00375947	0.00215768	0.00502734	0.01143265	0.00358528	0.00509138	0.00466080	0.00581375	0.00533672
3.14000000	0.00923657	0.00327211	0.00275970	0.00580739	0.00471914	0.00686512	0.02726822	0.01349768	0.00524304	0.00577032	0.00408819	0.00780320	0.00746354	0.00187353	0.00353854	0.00133141	0.00372566	0.00229106	0.00512147	0.01054396	0.00381529	0.00487920	0.00430944	0.00570711	0.00502216
3.15000000	0.00909911	0.00312180	0.00237393	0.00730633	0.00556008	0.00638453	0.02752870	0.01441585	0.00585320	0.00554122	0.00373173	0.00730086	0.00743379	0.00208343	0.00344660	0.00114739	0.00365892	0.00244047	0.00522566	0.01001818	0.00402272	0.00449439	0.00417939	0.00551819	0.00486162
3.16000000	0.00884343	0.00295629	0.00239307	0.00862894	0.00642160	0.00667257	0.02784786	0.01508713	0.00656674	0.00524386	0.00352426	0.00697152	0.00726700	0.00231435	0.00335263	0.00101312	0.00354866	0.00254115	0.00530691	0.00982331	0.00413280	0.00414459	0.00415378	0.00535882	0.00478371
3.17000000	0.00808733	0.00273648	0.00264691	0.01005961	0.00752420	0.00731576	0.02821663	0.01550815	0.00724490	0.00512386	0.00357944	0.00653420	0.00703959	0.00284178	0.00327998	0.00095366	0.00348346	0.00258405	0.00537455	0.00991570	0.00416765	0.00376874	0.00426285	0.00515738	0.00486868
3.18000000	0.00817128	0.00304781	0.00307404	0.01061298	0.00830808	0.00882469	0.02839333	0.01579383	0.00808459	0.00467608	0.00327369	0.00679464	0.00677526	0.00254288	0.00310670	0.00085767	0.00333310	0.00253906	0.00536615	0.01027911	0.00402679	0.00353417	0.00452137	0.00506472	0.00493178
3.19000000	0.00749216	0.00333193	0.00370801	0.01102506	0.00920145	0.01061623	0.02856583	0.01620792	0.00892324	0.00423905	0.00341197	0.00697742	0.00648599	0.00250078	0.00290295	0.00084814	0.00327618	0.00246956	0.00537151	0.01072264	0.00396538	0.00328929	0.00481054	0.00502162	0.00504226
3.20000000	0.00672997	0.00368951	0.00423425	0.01141039	0.01022207	0.01248375	0.02875638	0.01648452	0.00962774	0.00398670	0.00370254	0.00700940	0.00621225	0.00246057	0.00290023	0.00078993	0.00315540	0.00242062	0.00532462	0.01137390	0.00391738	0.00303448	0.00529560	0.00489013	0.00530625
3.21000000	0.00600679	0.00429743	0.00501197	0.01206781	0.01150597	0.01401275	0.02894342	0.01672274	0.01025919	0.00381793	0.00388862	0.00687987	0.00609204	0.00263216	0.00286669	0.00081969	0.00320285	0.00235149	0.00529370	0.01217812	0.00397554	0.00284623	0.00563526	0.00486151	0.00543789
3.22000000	0.00561477	0.00498821	0.00555346	0.01248269	0.01258841	0.01580886	0.02915861	0.01687738	0.01080396	0.00348408	0.00387787	0.00697848	0.00604375	0.00258961	0.00287884	0.00070088	0.00326235	0.00221020	0.00526337	0.01327590	0.00405428	0.00279529	0.00601967	0.00477357	0.00562199
3.23000000	0.00513329	0.00585368	0.00594567	0.01194481	0.01284945	0.01817360	0.02933735	0.01722340	0.01147621	0.00319755	0.00375099	0.00710548	0.00610458	0.00240075	0.00302092	0.00069296	0.00334275	0.00209694	0.00525971	0.01472114	0.00430383	0.00276235	0.00630446	0.00472595	0.00572019
