SUBJ94_3_JMP_04_ankle_axis_personalization_task_1_finalErrors.sto
version=1
nRows=240
nColumns=26
inDegrees=no
endheader
time	R_Asis	L_Asis	Sacral	R_Thigh_Lateral	R_Knee_Lateral	R_Shank_Lateral	R_Ankle_Lateral	R_Heel	R_Toe	L_Thigh_Lateral	L_Knee_Lateral	L_Shank_Lateral	L_Ankle_Lateral	L_Heel	L_Toe	R_Shoulder	L_Shoulder	C7	J_Notch	Thoracic	Sternum	R_Elbow	L_Elbow	R_Wrist	L_Wrist
0.00000000	0.00343064	0.00369521	0.00203681	0.00586824	0.00429015	0.00732096	0.00101592	0.00340956	0.00095875	0.00895435	0.00441000	0.00664763	0.00268194	0.00431356	0.00308517	0.00780312	0.00955337	0.00671302	0.00360341	0.00270669	0.00373924	0.00558941	0.00611149	0.00692438	0.01058379
0.01000000	0.00351666	0.00355518	0.00204037	0.00540716	0.00472525	0.00699415	0.00093503	0.00313734	0.00104572	0.00854223	0.00335929	0.00589534	0.00288220	0.00436493	0.00345305	0.00781816	0.00958042	0.00658912	0.00361607	0.00262476	0.00378920	0.00589220	0.00605797	0.00742401	0.01033270
0.02000000	0.00370003	0.00378407	0.00215148	0.00509864	0.00546314	0.00658443	0.00082145	0.00308674	0.00071545	0.00866464	0.00240555	0.00496606	0.00288903	0.00428094	0.00337274	0.00788986	0.00955715	0.00649077	0.00366827	0.00247673	0.00391539	0.00622029	0.00615173	0.00783933	0.01001411
0.03000000	0.00380297	0.00394153	0.00223987	0.00492456	0.00583088	0.00628352	0.00077770	0.00287587	0.00073299	0.00861238	0.00166927	0.00442407	0.00275599	0.00406293	0.00333005	0.00802182	0.00953502	0.00639776	0.00371971	0.00232855	0.00403673	0.00647124	0.00613432	0.00824676	0.00974955
0.04000000	0.00378039	0.00290543	0.00188458	0.00482128	0.00563013	0.00606933	0.00065997	0.00249330	0.00099727	0.00805881	0.00135380	0.00420794	0.00252376	0.00371993	0.00329277	0.00823603	0.00940647	0.00642381	0.00386103	0.00235722	0.00410303	0.00662498	0.00570596	0.00865976	0.00972054
0.05000000	0.00372866	0.00290616	0.00204230	0.00486551	0.00577651	0.00576530	0.00057927	0.00225474	0.00114770	0.00793972	0.00149832	0.00403869	0.00225510	0.00360404	0.00309083	0.00842730	0.00943097	0.00633940	0.00389418	0.00216640	0.00424351	0.00683925	0.00569161	0.00898769	0.00939705
0.06000000	0.00373230	0.00270442	0.00199696	0.00488126	0.00588139	0.00552976	0.00046721	0.00213387	0.00115703	0.00774337	0.00187679	0.00392248	0.00199959	0.00353935	0.00284532	0.00863225	0.00945243	0.00626777	0.00396033	0.00202136	0.00439571	0.00699117	0.00557244	0.00931892	0.00914643
0.07000000	0.00380998	0.00343843	0.00221320	0.00494511	0.00614482	0.00547134	0.00054542	0.00226417	0.00083011	0.00766278	0.00275798	0.00416324	0.00144879	0.00305869	0.00176160	0.00901993	0.00931121	0.00614007	0.00406650	0.00155651	0.00472803	0.00708677	0.00595044	0.00970252	0.00861968
0.08000000	0.00361679	0.00230270	0.00179464	0.00498920	0.00596523	0.00529385	0.00034315	0.00196014	0.00109881	0.00709660	0.00240196	0.00386468	0.00153556	0.00320499	0.00196196	0.00916154	0.00928699	0.00623018	0.00420684	0.00158416	0.00485321	0.00722043	0.00537876	0.00995642	0.00863421
0.09000000	0.00348333	0.00231000	0.00213680	0.00522890	0.00603322	0.00506217	0.00029291	0.00193103	0.00119693	0.00683435	0.00220193	0.00356274	0.00130051	0.00279059	0.00200001	0.00935590	0.00938096	0.00615323	0.00423532	0.00128128	0.00514389	0.00741516	0.00552287	0.01018050	0.00816516
0.10000000	0.00336293	0.00207312	0.00182433	0.00524282	0.00569510	0.00521441	0.00033398	0.00196681	0.00113366	0.00614170	0.00189546	0.00342182	0.00092439	0.00228514	0.00145398	0.00965187	0.00919953	0.00620316	0.00446364	0.00102990	0.00550655	0.00740776	0.00529399	0.01055789	0.00801125
0.11000000	0.00319891	0.00229064	0.00227793	0.00555398	0.00566124	0.00508223	0.00045563	0.00204067	0.00121331	0.00585302	0.00138897	0.00300246	0.00044078	0.00149160	0.00145920	0.00990254	0.00922122	0.00615876	0.00454078	0.00072560	0.00592536	0.00755337	0.00540039	0.01080684	0.00757243
0.12000000	0.00300177	0.00205038	0.00198068	0.00563203	0.00516107	0.00529617	0.00056354	0.00214618	0.00117478	0.00533720	0.00117714	0.00292925	0.00064985	0.00085557	0.00103377	0.01018124	0.00906893	0.00620322	0.00477265	0.00076119	0.00638048	0.00755571	0.00520001	0.01118319	0.00738943
0.13000000	0.00283757	0.00218152	0.00207634	0.00584887	0.00486235	0.00535575	0.00082207	0.00228409	0.00123866	0.00526231	0.00149912	0.00287003	0.00145473	0.00138085	0.00098253	0.01044757	0.00898107	0.00625177	0.00495142	0.00105963	0.00688386	0.00762364	0.00508259	0.01151900	0.00712013
0.14000000	0.00263280	0.00251739	0.00222240	0.00611935	0.00456616	0.00541900	0.00111337	0.00244012	0.00128918	0.00546657	0.00197237	0.00302080	0.00236991	0.00241428	0.00124885	0.01072645	0.00892832	0.00629296	0.00511427	0.00155453	0.00741602	0.00768104	0.00491993	0.01187458	0.00687255
0.15000000	0.00261329	0.00345959	0.00282059	0.00635076	0.00400966	0.00574981	0.00135216	0.00272519	0.00116360	0.00577453	0.00070556	0.00375609	0.00413417	0.00416347	0.00239328	0.01120049	0.00855726	0.00648693	0.00533649	0.00225295	0.00789523	0.00745759	0.00494659	0.01247291	0.00661531
0.16000000	0.00205190	0.00304559	0.00250208	0.00658209	0.00374776	0.00557601	0.00170682	0.00273959	0.00130880	0.00637337	0.00259448	0.00375565	0.00397649	0.00445315	0.00167852	0.01129432	0.00878471	0.00651204	0.00538573	0.00257742	0.00833757	0.00791447	0.00468063	0.01249355	0.00630942
0.17000000	0.00186665	0.00365171	0.00292367	0.00681212	0.00327148	0.00555131	0.00204406	0.00292351	0.00111678	0.00674673	0.00254246	0.00401895	0.00436535	0.00502730	0.00155985	0.01152551	0.00877461	0.00660058	0.00542907	0.00303536	0.00869147	0.00806712	0.00474921	0.01272548	0.00587880
0.18000000	0.00156962	0.00335793	0.00288034	0.00687842	0.00284822	0.00538933	0.00236496	0.00286790	0.00115111	0.00701985	0.00249609	0.00423876	0.00448271	0.00509015	0.00182127	0.01175254	0.00877018	0.00673941	0.00550121	0.00335494	0.00893098	0.00817579	0.00451239	0.01300082	0.00565664
0.19000000	0.00152954	0.00332855	0.00310887	0.00686243	0.00229280	0.00522386	0.00267422	0.00287869	0.00084871	0.00699485	0.00220616	0.00430280	0.00430634	0.00481642	0.00184924	0.01195264	0.00874504	0.00687218	0.00549320	0.00362708	0.00902948	0.00832442	0.00447063	0.01319153	0.00530905
0.20000000	0.00184823	0.00369947	0.00393585	0.00641617	0.00136008	0.00553919	0.00289192	0.00261801	0.00235277	0.00660347	0.00124499	0.00413131	0.00384562	0.00407991	0.00152759	0.01216686	0.00881169	0.00678176	0.00537270	0.00410793	0.00913614	0.00824848	0.00470001	0.01346339	0.00480178
0.21000000	0.00177387	0.00284048	0.00342479	0.00638315	0.00132393	0.00454292	0.00318280	0.00258091	0.00083174	0.00614394	0.00130165	0.00408431	0.00342475	0.00346888	0.00202196	0.01225753	0.00872615	0.00713959	0.00543418	0.00398241	0.00893158	0.00861639	0.00427031	0.01347625	0.00472298
0.22000000	0.00209341	0.00221999	0.00355596	0.00598848	0.00117854	0.00390180	0.00319982	0.00209353	0.00143946	0.00544031	0.00093184	0.00391428	0.00293464	0.00276601	0.00197445	0.01239971	0.00873382	0.00724304	0.00529800	0.00414605	0.00869696	0.00870595	0.00409324	0.01358025	0.00450011
0.23000000	0.00223242	0.00187280	0.00357438	0.00531323	0.00136871	0.00329912	0.00327878	0.00192388	0.00207547	0.00457844	0.00057900	0.00369696	0.00241758	0.00204310	0.00201480	0.01250810	0.00871413	0.00739547	0.00520907	0.00429869	0.00842265	0.00879340	0.00394631	0.01366467	0.00429675
0.24000000	0.00229166	0.00164693	0.00350346	0.00444007	0.00180680	0.00262931	0.00330757	0.00197335	0.00279855	0.00361630	0.00073998	0.00358179	0.00195881	0.00156039	0.00203695	0.01260928	0.00871862	0.00755513	0.00510228	0.00445152	0.00810309	0.00886606	0.00377925	0.01371853	0.00414410
0.25000000	0.00261850	0.00162845	0.00374041	0.00360283	0.00201927	0.00175353	0.00318271	0.00210474	0.00344711	0.00300045	0.00077308	0.00303794	0.00127779	0.00085677	0.00157995	0.01267314	0.00882301	0.00769385	0.00493239	0.00459502	0.00771707	0.00889447	0.00364076	0.01369398	0.00397558
0.26000000	0.00242045	0.00167688	0.00342807	0.00235702	0.00254609	0.00138713	0.00323560	0.00252949	0.00412554	0.00205831	0.00135570	0.00337610	0.00097445	0.00109000	0.00161333	0.01279963	0.00873299	0.00790554	0.00485885	0.00481766	0.00733373	0.00899866	0.00343632	0.01363686	0.00395323
0.27000000	0.00270090	0.00171262	0.00356782	0.00131208	0.00253743	0.00141848	0.00317639	0.00281866	0.00441536	0.00136900	0.00188120	0.00364198	0.00046548	0.00123815	0.00166028	0.01288192	0.00881131	0.00805770	0.00473431	0.00505450	0.00699832	0.00897795	0.00328218	0.01355251	0.00391099
0.28000000	0.00272586	0.00174245	0.00351697	0.00071299	0.00266179	0.00199205	0.00324228	0.00299372	0.00455092	0.00144105	0.00223965	0.00379584	0.00020148	0.00122093	0.00142420	0.01303456	0.00895319	0.00816460	0.00457090	0.00523192	0.00665253	0.00889092	0.00321155	0.01348044	0.00385174
0.29000000	0.00257498	0.00197356	0.00309875	0.00194404	0.00321066	0.00258821	0.00314255	0.00294142	0.00439360	0.00166254	0.00265988	0.00458614	0.00065007	0.00153852	0.00181261	0.01306439	0.00886495	0.00845349	0.00466181	0.00544148	0.00636104	0.00886077	0.00285032	0.01332420	0.00414081
0.30000000	0.00262493	0.00207294	0.00299239	0.00335405	0.00343737	0.00330950	0.00298584	0.00269349	0.00388380	0.00223370	0.00303490	0.00531351	0.00111643	0.00165577	0.00222767	0.01313488	0.00888173	0.00867906	0.00468668	0.00561696	0.00613938	0.00875079	0.00267757	0.01313456	0.00431865
0.31000000	0.00191977	0.00234115	0.00206331	0.00487359	0.00456313	0.00401255	0.00238381	0.00337137	0.00407140	0.00301910	0.00406829	0.00595311	0.00136499	0.00158585	0.00252016	0.01324947	0.00880962	0.00899612	0.00495223	0.00548238	0.00607072	0.00848687	0.00241551	0.01311419	0.00463433
0.32000000	0.00322305	0.00212013	0.00386929	0.00588482	0.00335234	0.00469165	0.00242112	0.00200607	0.00231585	0.00349673	0.00366409	0.00605545	0.00202048	0.00132546	0.00241873	0.01319435	0.00926093	0.00892384	0.00470117	0.00593844	0.00581857	0.00841693	0.00260227	0.01256821	0.00461317
0.33000000	0.00212671	0.00241792	0.00285447	0.00737225	0.00450528	0.00508019	0.00183966	0.00270720	0.00332948	0.00419034	0.00436330	0.00669499	0.00211785	0.00108299	0.00234397	0.01330866	0.00903493	0.00931733	0.00503181	0.00569663	0.00585005	0.00819073	0.00234876	0.01239077	0.00494710
0.34000000	0.00319886	0.00213497	0.00367142	0.00841899	0.00399882	0.00539352	0.00154971	0.00133222	0.00178653	0.00462378	0.00356539	0.00698477	0.00254176	0.00137549	0.00288962	0.01337139	0.00930773	0.00921680	0.00496727	0.00599922	0.00570511	0.00795269	0.00247339	0.01188356	0.00515784
0.35000000	0.00337628	0.00217625	0.00374224	0.00934068	0.00410278	0.00559470	0.00121248	0.00127169	0.00221784	0.00508793	0.00365475	0.00705184	0.00263669	0.00113975	0.00283341	0.01334881	0.00934792	0.00936430	0.00514450	0.00600282	0.00570991	0.00764138	0.00247587	0.01151645	0.00541194
0.36000000	0.00287170	0.00243969	0.00306223	0.01010166	0.00456589	0.00573401	0.00105646	0.00197079	0.00358119	0.00555319	0.00412237	0.00712372	0.00246985	0.00073319	0.00219499	0.01329766	0.00922740	0.00965077	0.00549223	0.00569386	0.00584962	0.00758912	0.00245244	0.01105212	0.00561516
0.37000000	0.00376118	0.00212688	0.00382998	0.01038139	0.00409736	0.00585049	0.00095266	0.00142472	0.00294103	0.00575441	0.00315717	0.00682025	0.00262401	0.00085763	0.00248900	0.01339455	0.00935547	0.00950340	0.00541020	0.00579466	0.00570045	0.00719444	0.00273944	0.01052868	0.00573916
0.38000000	0.00362779	0.00236539	0.00328623	0.01052760	0.00413138	0.00583705	0.00106853	0.00173150	0.00334259	0.00602230	0.00340009	0.00633197	0.00229583	0.00057192	0.00195285	0.01327460	0.00937128	0.00962917	0.00566677	0.00555808	0.00581109	0.00689720	0.00264745	0.01012516	0.00596103
0.39000000	0.00387924	0.00233763	0.00310127	0.01039771	0.00398493	0.00572458	0.00111853	0.00187141	0.00327411	0.00613304	0.00311894	0.00593802	0.00198852	0.00066993	0.00151866	0.01321420	0.00931484	0.00966525	0.00577727	0.00539770	0.00586760	0.00673554	0.00277383	0.00954944	0.00606559
0.40000000	0.00437537	0.00207737	0.00354273	0.01006677	0.00363147	0.00563746	0.00120864	0.00205552	0.00300538	0.00606223	0.00224171	0.00538163	0.00198517	0.00073887	0.00174886	0.01327962	0.00930306	0.00953325	0.00565172	0.00527758	0.00578226	0.00632297	0.00303241	0.00906159	0.00600770
0.41000000	0.00453683	0.00207361	0.00323469	0.00950294	0.00343742	0.00543380	0.00123750	0.00227006	0.00257462	0.00602216	0.00208507	0.00488554	0.00162924	0.00104154	0.00124863	0.01321154	0.00924236	0.00951001	0.00574727	0.00503823	0.00594435	0.00614146	0.00312859	0.00853010	0.00607279
0.42000000	0.00469865	0.00199021	0.00311120	0.00886331	0.00319674	0.00522148	0.00125148	0.00250128	0.00228199	0.00587183	0.00172233	0.00447437	0.00135676	0.00124323	0.00100988	0.01316212	0.00919780	0.00945159	0.00574867	0.00481039	0.00610108	0.00587458	0.00334596	0.00804630	0.00602663
0.43000000	0.00485621	0.00184951	0.00294426	0.00810314	0.00295248	0.00503317	0.00129547	0.00265477	0.00195581	0.00576601	0.00154958	0.00410102	0.00114156	0.00153397	0.00070163	0.01318151	0.00911808	0.00936149	0.00575156	0.00450595	0.00634298	0.00573171	0.00353052	0.00751071	0.00598022
0.44000000	0.00492426	0.00175805	0.00283966	0.00733996	0.00265790	0.00489319	0.00135539	0.00285513	0.00219012	0.00544853	0.00129381	0.00383464	0.00100270	0.00158930	0.00102795	0.01308418	0.00914201	0.00927628	0.00575534	0.00432074	0.00663385	0.00534399	0.00366972	0.00717135	0.00593920
0.45000000	0.00507403	0.00159283	0.00275499	0.00663371	0.00245709	0.00466469	0.00142738	0.00291665	0.00208906	0.00534127	0.00128877	0.00369631	0.00085689	0.00174933	0.00097059	0.01315086	0.00918374	0.00906734	0.00567370	0.00404001	0.00693955	0.00511826	0.00380312	0.00674504	0.00586273
0.46000000	0.00519727	0.00152773	0.00275810	0.00609287	0.00222282	0.00448891	0.00148892	0.00285073	0.00202072	0.00517786	0.00139913	0.00366945	0.00074854	0.00192717	0.00097615	0.01311712	0.00923691	0.00892316	0.00564644	0.00383911	0.00729206	0.00490529	0.00394360	0.00636123	0.00580406
0.47000000	0.00522344	0.00145782	0.00274229	0.00565877	0.00202135	0.00440753	0.00159872	0.00273039	0.00209360	0.00506232	0.00154642	0.00374036	0.00072719	0.00202666	0.00102247	0.01307903	0.00934702	0.00876689	0.00561008	0.00362537	0.00767745	0.00470393	0.00411398	0.00600879	0.00569934
0.48000000	0.00540266	0.00140972	0.00293295	0.00543025	0.00168643	0.00445120	0.00166316	0.00265887	0.00223699	0.00499868	0.00177113	0.00383299	0.00077373	0.00212863	0.00102496	0.01304455	0.00944904	0.00857889	0.00554645	0.00349192	0.00797620	0.00451860	0.00422999	0.00568102	0.00564600
0.49000000	0.00528337	0.00148829	0.00295565	0.00537765	0.00144040	0.00453474	0.00170052	0.00245977	0.00211991	0.00487261	0.00201401	0.00406151	0.00081868	0.00220043	0.00105734	0.01296283	0.00953874	0.00847310	0.00555600	0.00332905	0.00831653	0.00437514	0.00427945	0.00537703	0.00562755
0.50000000	0.00552179	0.00139975	0.00310445	0.00582611	0.00098701	0.00473335	0.00164924	0.00240786	0.00216699	0.00497117	0.00243919	0.00429532	0.00087913	0.00235520	0.00076790	0.01292069	0.00959332	0.00832858	0.00549417	0.00322463	0.00849214	0.00430203	0.00450245	0.00505984	0.00550632
0.51000000	0.00547951	0.00148171	0.00334996	0.00593246	0.00069596	0.00513682	0.00151331	0.00244618	0.00237039	0.00484271	0.00249589	0.00443838	0.00097859	0.00222796	0.00120934	0.01281815	0.00976661	0.00809362	0.00536720	0.00317200	0.00860781	0.00420895	0.00442582	0.00477376	0.00555668
0.52000000	0.00538592	0.00152384	0.00337353	0.00640927	0.00042833	0.00553582	0.00131418	0.00243136	0.00238398	0.00493394	0.00277943	0.00450430	0.00107547	0.00221907	0.00118513	0.01271510	0.00989811	0.00793606	0.00525606	0.00309100	0.00865771	0.00411015	0.00444610	0.00456815	0.00556354
0.53000000	0.00515078	0.00170947	0.00337813	0.00683698	0.00048019	0.00590609	0.00103519	0.00234416	0.00198860	0.00494862	0.00297245	0.00465174	0.00114550	0.00218663	0.00108535	0.01250758	0.00999617	0.00779597	0.00520044	0.00303155	0.00867998	0.00408686	0.00447441	0.00434689	0.00555957
0.54000000	0.00498644	0.00185339	0.00334423	0.00715814	0.00073529	0.00629926	0.00072620	0.00235397	0.00171854	0.00502226	0.00316310	0.00472975	0.00117324	0.00214456	0.00101623	0.01230921	0.01004993	0.00766583	0.00509268	0.00298948	0.00855338	0.00412515	0.00446451	0.00411765	0.00560662
0.55000000	0.00500966	0.00192470	0.00317035	0.00739840	0.00115474	0.00662218	0.00035099	0.00245749	0.00176200	0.00526298	0.00344130	0.00461487	0.00120554	0.00210781	0.00096911	0.01206711	0.01012927	0.00752608	0.00488866	0.00301367	0.00828232	0.00427473	0.00449115	0.00383630	0.00563014
0.56000000	0.00519307	0.00211799	0.00288396	0.00747458	0.00150065	0.00684230	0.00032670	0.00227593	0.00115810	0.00550873	0.00360395	0.00464713	0.00117446	0.00210841	0.00081320	0.01192413	0.01009044	0.00738639	0.00470044	0.00299827	0.00784696	0.00443120	0.00455763	0.00359448	0.00566273
0.57000000	0.00492948	0.00227326	0.00273233	0.00711372	0.00144716	0.00660734	0.00049175	0.00228068	0.00132699	0.00564964	0.00372807	0.00450905	0.00119291	0.00201358	0.00095090	0.01160659	0.01013048	0.00725418	0.00451788	0.00300758	0.00748689	0.00461941	0.00441565	0.00336041	0.00583515
0.58000000	0.00417097	0.00253241	0.00255892	0.00640965	0.00105236	0.00600239	0.00091835	0.00197810	0.00071294	0.00555017	0.00355268	0.00481834	0.00124688	0.00193742	0.00094620	0.01130706	0.01000619	0.00718258	0.00453734	0.00289209	0.00716023	0.00461791	0.00422420	0.00332791	0.00610251
0.59000000	0.00391423	0.00269067	0.00225726	0.00561423	0.00094686	0.00534580	0.00135191	0.00152219	0.00034140	0.00574393	0.00348196	0.00487679	0.00126348	0.00195529	0.00090669	0.01096447	0.00993437	0.00711097	0.00446219	0.00287917	0.00673710	0.00478187	0.00420680	0.00318341	0.00626543
0.60000000	0.00376219	0.00279291	0.00186582	0.00466607	0.00104182	0.00460016	0.00175390	0.00143473	0.00018801	0.00605095	0.00338898	0.00489362	0.00131164	0.00199780	0.00092316	0.01067358	0.00984163	0.00703869	0.00438685	0.00288226	0.00625586	0.00494307	0.00415828	0.00305759	0.00647486
0.61000000	0.00369149	0.00289833	0.00155423	0.00379164	0.00132328	0.00382940	0.00223679	0.00174968	0.00035331	0.00631138	0.00323575	0.00498424	0.00144028	0.00210108	0.00094147	0.01037005	0.00971339	0.00698985	0.00435922	0.00291483	0.00580155	0.00513533	0.00411185	0.00291926	0.00672697
0.62000000	0.00424434	0.00292109	0.00088978	0.00342177	0.00159289	0.00327708	0.00273457	0.00238358	0.00048345	0.00677963	0.00305917	0.00496472	0.00158205	0.00220886	0.00094581	0.01016587	0.00964182	0.00691940	0.00426086	0.00299615	0.00528633	0.00541689	0.00414450	0.00268146	0.00691899
0.63000000	0.00379679	0.00303312	0.00103050	0.00366158	0.00191277	0.00295577	0.00321402	0.00302543	0.00105306	0.00701423	0.00281972	0.00514569	0.00181785	0.00241303	0.00103282	0.00996115	0.00947706	0.00688574	0.00437151	0.00298654	0.00496412	0.00542554	0.00407564	0.00273507	0.00725980
0.64000000	0.00448348	0.00305989	0.00053854	0.00442559	0.00200878	0.00317941	0.00360972	0.00363459	0.00103983	0.00739597	0.00235332	0.00533385	0.00202263	0.00256898	0.00096330	0.00974983	0.00951742	0.00686498	0.00431139	0.00308532	0.00460778	0.00566944	0.00414330	0.00248989	0.00743057
0.65000000	0.00413129	0.00340017	0.00080737	0.00539406	0.00203810	0.00381528	0.00389114	0.00405851	0.00126795	0.00758677	0.00213450	0.00550767	0.00229000	0.00274080	0.00101187	0.00943884	0.00944559	0.00701124	0.00445136	0.00315268	0.00438897	0.00572901	0.00422294	0.00245805	0.00768456
0.66000000	0.00459492	0.00358126	0.00143864	0.00654176	0.00180901	0.00406532	0.00456401	0.00394537	0.00198783	0.00770248	0.00159825	0.00580682	0.00260767	0.00291789	0.00121044	0.00932136	0.00935102	0.00712063	0.00464431	0.00308329	0.00424461	0.00569059	0.00410430	0.00242716	0.00805170
0.67000000	0.00430010	0.00410321	0.00098897	0.00677038	0.00177399	0.00507418	0.00408247	0.00411561	0.00153854	0.00798078	0.00155094	0.00567215	0.00280323	0.00294444	0.00091534	0.00922114	0.00955994	0.00712407	0.00446114	0.00309714	0.00393643	0.00594036	0.00445608	0.00218225	0.00800474
0.68000000	0.00466141	0.00401992	0.00153046	0.00691862	0.00191652	0.00547249	0.00412105	0.00375122	0.00176989	0.00777157	0.00141040	0.00598866	0.00310961	0.00288019	0.00203712	0.00918641	0.00972859	0.00708897	0.00443583	0.00305596	0.00381687	0.00596599	0.00434604	0.00203976	0.00827418
0.69000000	0.00413502	0.00494418	0.00113910	0.00682881	0.00179004	0.00580508	0.00399199	0.00359942	0.00194042	0.00772848	0.00133103	0.00566023	0.00320845	0.00310699	0.00089449	0.00915264	0.00976895	0.00728503	0.00442978	0.00291925	0.00366116	0.00606229	0.00474776	0.00182741	0.00825407
0.70000000	0.00363556	0.00537137	0.00118094	0.00639994	0.00199112	0.00588691	0.00392926	0.00344921	0.00210198	0.00741001	0.00148941	0.00540281	0.00325254	0.00290323	0.00139665	0.00914401	0.00996928	0.00738171	0.00438778	0.00278027	0.00364680	0.00599514	0.00493561	0.00172759	0.00832142
0.71000000	0.00321863	0.00564608	0.00107049	0.00565444	0.00240761	0.00578586	0.00387419	0.00335077	0.00218097	0.00685345	0.00182769	0.00499807	0.00324334	0.00281841	0.00206780	0.00915744	0.01012112	0.00750480	0.00435455	0.00266123	0.00373574	0.00593237	0.00513291	0.00159268	0.00840808
0.72000000	0.00273519	0.00575121	0.00086092	0.00474416	0.00289982	0.00550782	0.00376424	0.00335500	0.00212003	0.00604099	0.00219061	0.00454566	0.00318772	0.00277283	0.00273098	0.00923868	0.01038273	0.00756860	0.00427684	0.00255381	0.00392114	0.00578774	0.00537415	0.00148584	0.00843003
0.73000000	0.00231074	0.00561554	0.00070673	0.00374443	0.00350282	0.00509774	0.00364449	0.00339733	0.00193758	0.00498459	0.00264924	0.00399353	0.00307931	0.00291928	0.00350279	0.00933116	0.01048713	0.00770670	0.00428349	0.00243318	0.00426394	0.00563187	0.00550493	0.00138169	0.00857871
0.74000000	0.00184018	0.00534582	0.00052421	0.00282019	0.00399304	0.00465158	0.00340656	0.00343797	0.00164758	0.00390768	0.00286772	0.00344713	0.00297592	0.00308637	0.00409934	0.00950595	0.01073501	0.00775347	0.00422164	0.00237659	0.00465714	0.00539938	0.00575332	0.00131027	0.00859894
0.75000000	0.00151281	0.00505445	0.00058946	0.00226194	0.00424632	0.00421320	0.00306712	0.00341676	0.00131567	0.00290709	0.00299281	0.00308052	0.00287264	0.00329006	0.00451768	0.00970555	0.01092078	0.00784537	0.00417921	0.00237804	0.00509426	0.00516579	0.00599071	0.00126365	0.00863260
0.76000000	0.00163083	0.00497135	0.00085586	0.00240998	0.00401922	0.00306065	0.00257179	0.00304667	0.00064776	0.00256700	0.00291594	0.00313078	0.00270091	0.00354885	0.00463211	0.00990409	0.01120288	0.00793060	0.00407292	0.00234137	0.00554684	0.00503226	0.00616879	0.00109133	0.00866614
0.77000000	0.00077144	0.00405817	0.00150665	0.00280240	0.00442785	0.00296503	0.00236414	0.00308605	0.00054215	0.00349146	0.00327175	0.00367946	0.00272010	0.00372295	0.00465232	0.01011279	0.01116406	0.00807468	0.00429467	0.00224673	0.00625956	0.00462749	0.00627913	0.00120577	0.00883602
0.78000000	0.00027192	0.00367186	0.00209003	0.00342192	0.00455807	0.00288833	0.00206770	0.00297687	0.00087907	0.00499622	0.00331726	0.00461053	0.00268272	0.00369367	0.00434203	0.01033760	0.01122828	0.00816945	0.00440432	0.00222758	0.00680436	0.00433337	0.00646685	0.00122534	0.00889763
0.79000000	0.00021834	0.00348083	0.00258950	0.00403006	0.00463290	0.00287263	0.00183964	0.00283214	0.00120838	0.00670497	0.00328317	0.00579297	0.00262071	0.00359815	0.00379066	0.01052969	0.01124989	0.00827041	0.00455341	0.00220026	0.00735406	0.00406077	0.00658512	0.00127948	0.00899809
0.80000000	0.00049959	0.00340717	0.00304406	0.00448178	0.00468928	0.00289808	0.00167294	0.00265202	0.00155287	0.00847689	0.00324130	0.00703249	0.00259652	0.00349215	0.00313401	0.01077468	0.01121328	0.00837342	0.00473068	0.00217476	0.00778571	0.00381299	0.00665750	0.00134169	0.00911766
0.81000000	0.00066398	0.00425551	0.00328836	0.00478441	0.00463438	0.00287672	0.00144508	0.00218169	0.00166584	0.01005589	0.00278997	0.00848393	0.00249373	0.00336701	0.00265440	0.01098865	0.01128340	0.00840045	0.00477908	0.00220099	0.00803203	0.00366312	0.00674844	0.00136143	0.00916837
0.82000000	0.00098289	0.00431189	0.00359354	0.00499513	0.00441519	0.00317957	0.00145085	0.00208577	0.00174476	0.01156401	0.00269560	0.00977522	0.00242274	0.00327113	0.00233825	0.01114863	0.01122201	0.00851735	0.00498366	0.00216486	0.00834137	0.00349277	0.00685004	0.00147554	0.00922190
0.83000000	0.00133317	0.00419567	0.00394323	0.00521240	0.00433821	0.00358493	0.00153543	0.00208461	0.00179016	0.01277487	0.00264627	0.01098754	0.00235198	0.00327850	0.00222866	0.01122765	0.01115834	0.00860948	0.00519956	0.00209018	0.00854746	0.00337437	0.00685257	0.00159946	0.00932135
0.84000000	0.00157028	0.00461807	0.00405184	0.00528255	0.00414003	0.00397559	0.00140325	0.00197638	0.00167981	0.01357850	0.00222093	0.01218218	0.00237303	0.00336080	0.00211881	0.01131883	0.01111135	0.00871188	0.00535467	0.00210182	0.00862001	0.00331595	0.00692827	0.00173058	0.00933292
0.85000000	0.00183024	0.00441804	0.00390727	0.00544806	0.00431777	0.00424689	0.00131292	0.00184839	0.00163114	0.01393842	0.00223652	0.01312641	0.00236726	0.00362304	0.00226476	0.01135136	0.01097956	0.00890019	0.00565026	0.00208233	0.00872172	0.00326763	0.00675980	0.00193211	0.00951594
0.86000000	0.00200374	0.00455373	0.00414954	0.00549086	0.00384863	0.00485348	0.00148554	0.00206619	0.00142156	0.01420735	0.00200441	0.01367620	0.00232020	0.00366012	0.00176619	0.01132807	0.01097826	0.00894651	0.00567841	0.00216891	0.00849548	0.00339721	0.00687554	0.00200024	0.00942664
0.87000000	0.00249928	0.00497959	0.00372806	0.00554207	0.00413574	0.00525025	0.00117066	0.00211795	0.00108450	0.01395607	0.00206325	0.01396816	0.00218405	0.00383681	0.00174851	0.01091036	0.01095801	0.00923827	0.00596726	0.00230149	0.00857548	0.00350738	0.00685834	0.00218953	0.00943155
0.88000000	0.00207916	0.00449822	0.00376877	0.00565460	0.00368428	0.00543584	0.00137545	0.00203891	0.00115126	0.01343273	0.00167046	0.01394624	0.00234092	0.00420206	0.00077306	0.01109818	0.01093421	0.00920365	0.00599474	0.00237049	0.00827595	0.00358502	0.00681313	0.00247225	0.00940247
0.89000000	0.00213640	0.00460549	0.00407645	0.00556221	0.00334994	0.00577455	0.00126247	0.00217130	0.00093148	0.01282975	0.00135238	0.01343753	0.00220877	0.00443144	0.00120150	0.01126115	0.01087620	0.00909951	0.00590560	0.00240220	0.00771897	0.00377910	0.00681500	0.00247476	0.00930262
0.90000000	0.00196163	0.00442888	0.00380122	0.00554771	0.00337597	0.00584736	0.00127268	0.00219913	0.00081628	0.01205081	0.00143167	0.01251287	0.00207117	0.00453654	0.00082127	0.01107297	0.01090711	0.00922089	0.00600403	0.00252369	0.00752988	0.00392257	0.00678144	0.00272636	0.00920146
0.91000000	0.00200428	0.00441688	0.00361491	0.00553225	0.00362811	0.00587511	0.00125067	0.00221485	0.00058672	0.01118964	0.00139468	0.01116215	0.00199893	0.00476091	0.00070297	0.01071881	0.01093104	0.00928453	0.00614979	0.00258370	0.00740947	0.00412094	0.00672287	0.00296151	0.00910840
0.92000000	0.00176951	0.00436282	0.00365207	0.00532481	0.00349323	0.00600118	0.00136698	0.00230121	0.00048952	0.01031556	0.00162958	0.00968934	0.00168985	0.00458791	0.00099216	0.01070469	0.01098691	0.00921127	0.00608340	0.00259103	0.00703374	0.00429967	0.00659821	0.00320653	0.00900120
0.93000000	0.00172464	0.00443047	0.00375071	0.00517094	0.00358655	0.00598615	0.00136236	0.00231335	0.00048572	0.00943037	0.00181029	0.00810109	0.00140117	0.00434715	0.00121248	0.01065563	0.01105258	0.00909392	0.00601767	0.00255137	0.00670959	0.00450753	0.00657134	0.00341986	0.00879909
0.94000000	0.00172548	0.00423284	0.00349106	0.00498390	0.00355123	0.00594300	0.00129056	0.00229840	0.00064480	0.00834198	0.00166355	0.00679621	0.00112283	0.00412839	0.00152849	0.01071892	0.01091060	0.00907142	0.00613820	0.00248192	0.00660929	0.00457156	0.00641330	0.00372792	0.00871576
0.95000000	0.00173819	0.00436980	0.00355088	0.00487759	0.00379338	0.00576849	0.00125626	0.00225418	0.00074306	0.00778046	0.00174364	0.00513058	0.00118380	0.00382900	0.00179352	0.01061723	0.01095925	0.00896816	0.00612800	0.00237357	0.00646283	0.00468167	0.00636375	0.00405436	0.00850274
0.96000000	0.00180663	0.00444567	0.00355720	0.00481158	0.00395526	0.00561804	0.00123833	0.00223627	0.00087640	0.00723735	0.00170735	0.00383595	0.00139786	0.00355992	0.00210944	0.01059021	0.01094428	0.00885086	0.00614650	0.00224154	0.00637108	0.00479764	0.00622783	0.00435913	0.00835313
0.97000000	0.00209723	0.00495159	0.00372121	0.00477458	0.00488429	0.00538101	0.00113581	0.00205528	0.00039616	0.00727707	0.00153957	0.00264461	0.00170227	0.00341682	0.00251564	0.01058546	0.01096524	0.00865307	0.00613305	0.00204035	0.00632011	0.00484994	0.00641268	0.00475394	0.00796792
0.98000000	0.00226696	0.00431094	0.00340304	0.00468897	0.00430612	0.00538729	0.00107254	0.00210793	0.00070370	0.00668914	0.00160470	0.00265672	0.00194363	0.00314869	0.00238560	0.01065654	0.01080810	0.00867408	0.00623080	0.00200175	0.00638998	0.00497049	0.00606209	0.00501321	0.00798117
0.99000000	0.00245092	0.00452656	0.00369713	0.00485107	0.00462715	0.00515347	0.00101783	0.00206894	0.00068224	0.00703024	0.00163210	0.00309795	0.00205375	0.00327031	0.00280299	0.01070034	0.01085095	0.00845095	0.00613680	0.00183444	0.00633906	0.00508159	0.00603450	0.00531981	0.00773670
1.00000000	0.00268256	0.00453063	0.00359840	0.00484908	0.00469734	0.00506305	0.00096594	0.00197895	0.00086758	0.00727010	0.00167280	0.00396741	0.00215763	0.00345256	0.00304357	0.01078486	0.01084890	0.00836952	0.00613407	0.00171547	0.00647013	0.00515375	0.00601480	0.00565231	0.00750033
1.01000000	0.00296522	0.00449952	0.00375482	0.00501372	0.00498326	0.00488048	0.00091168	0.00194630	0.00074300	0.00783023	0.00185436	0.00497364	0.00209013	0.00365888	0.00311258	0.01093017	0.01076396	0.00825301	0.00609912	0.00160654	0.00653931	0.00521639	0.00601983	0.00598763	0.00727520
1.02000000	0.00317059	0.00437172	0.00372336	0.00506854	0.00519616	0.00476665	0.00089959	0.00186823	0.00072736	0.00842230	0.00195727	0.00579695	0.00195271	0.00370173	0.00308662	0.01106767	0.01071752	0.00819333	0.00610557	0.00151343	0.00676219	0.00526328	0.00599415	0.00634308	0.00708879
1.03000000	0.00337605	0.00418529	0.00379310	0.00511368	0.00535730	0.00475307	0.00093401	0.00177517	0.00061986	0.00894317	0.00200971	0.00644161	0.00166111	0.00357549	0.00263042	0.01124477	0.01065355	0.00808729	0.00613371	0.00140297	0.00703316	0.00530441	0.00600627	0.00670463	0.00689273
1.04000000	0.00349854	0.00410221	0.00392693	0.00523224	0.00554708	0.00467616	0.00093857	0.00175220	0.00061573	0.00926005	0.00196252	0.00673509	0.00132448	0.00332970	0.00229019	0.01153527	0.01052380	0.00802133	0.00610663	0.00134757	0.00726134	0.00535471	0.00605770	0.00704853	0.00669853
1.05000000	0.00353217	0.00397844	0.00421185	0.00545458	0.00566951	0.00458652	0.00096346	0.00172159	0.00068434	0.00936853	0.00183889	0.00674614	0.00095816	0.00292545	0.00216351	0.01174577	0.01053522	0.00789545	0.00603201	0.00138984	0.00759966	0.00544942	0.00621501	0.00735824	0.00641060
1.06000000	0.00353341	0.00391063	0.00438177	0.00559570	0.00573143	0.00452239	0.00088936	0.00177457	0.00070250	0.00915147	0.00151894	0.00639846	0.00068053	0.00243154	0.00189079	0.01203654	0.01045011	0.00782513	0.00601468	0.00144873	0.00797382	0.00550348	0.00627115	0.00770729	0.00624811
1.07000000	0.00344466	0.00382052	0.00441706	0.00557415	0.00558903	0.00474751	0.00095932	0.00181356	0.00069225	0.00844327	0.00119218	0.00585153	0.00091818	0.00186119	0.00111784	0.01231988	0.01020512	0.00776297	0.00618246	0.00152468	0.00843896	0.00547099	0.00617609	0.00814742	0.00622959
1.08000000	0.00328999	0.00368955	0.00468840	0.00583021	0.00553690	0.00465970	0.00090673	0.00187273	0.00073764	0.00783716	0.00098612	0.00511643	0.00153870	0.00204656	0.00095967	0.01259586	0.01019710	0.00763467	0.00616085	0.00176034	0.00897288	0.00553406	0.00629465	0.00849470	0.00602595
1.09000000	0.00309550	0.00362988	0.00469015	0.00587131	0.00520085	0.00485323	0.00090134	0.00195247	0.00076130	0.00681565	0.00125832	0.00436021	0.00225342	0.00253235	0.00113043	0.01286674	0.00990631	0.00765824	0.00634442	0.00202860	0.00947028	0.00550579	0.00612266	0.00895118	0.00610979
1.10000000	0.00282405	0.00381548	0.00514570	0.00619414	0.00486898	0.00490855	0.00088357	0.00212649	0.00076352	0.00623812	0.00120140	0.00359372	0.00307638	0.00368529	0.00074846	0.01308874	0.00986592	0.00751099	0.00629122	0.00243918	0.00995117	0.00557863	0.00628989	0.00926521	0.00587073
1.11000000	0.00250263	0.00413310	0.00529957	0.00644321	0.00457921	0.00483206	0.00110549	0.00219085	0.00078586	0.00580854	0.00151305	0.00297533	0.00361567	0.00447490	0.00115964	0.01324595	0.00968940	0.00751012	0.00637903	0.00274848	0.01040888	0.00565817	0.00625753	0.00957433	0.00580725
1.12000000	0.00206268	0.00355544	0.00509293	0.00641575	0.00409103	0.00491389	0.00142421	0.00217103	0.00084158	0.00560003	0.00188707	0.00273129	0.00406072	0.00489366	0.00176155	0.01354719	0.00933501	0.00758196	0.00653850	0.00296421	0.01067102	0.00566592	0.00598224	0.00995557	0.00598083
1.13000000	0.00164549	0.00381981	0.00540587	0.00663943	0.00356119	0.00486717	0.00169839	0.00226924	0.00072218	0.00582227	0.00166475	0.00274566	0.00424340	0.00526706	0.00157676	0.01364021	0.00916560	0.00756540	0.00649392	0.00321400	0.01086035	0.00577151	0.00607825	0.01013160	0.00579588
1.14000000	0.00156825	0.00371680	0.00590497	0.00649777	0.00221479	0.00542490	0.00193729	0.00259838	0.00078280	0.00623141	0.00044444	0.00285749	0.00464295	0.00539188	0.00198410	0.01338599	0.00902589	0.00756330	0.00664299	0.00350916	0.01110978	0.00546984	0.00585218	0.01062886	0.00590572
1.15000000	0.00085114	0.00323222	0.00538475	0.00667829	0.00262930	0.00449149	0.00242646	0.00200970	0.00050715	0.00630712	0.00151975	0.00342344	0.00386453	0.00471799	0.00187730	0.01369775	0.00880763	0.00760508	0.00644293	0.00338871	0.01086339	0.00592516	0.00581034	0.01044276	0.00579880
1.16000000	0.00085628	0.00317059	0.00543742	0.00654763	0.00206092	0.00427552	0.00277315	0.00186427	0.00024207	0.00630705	0.00120463	0.00363833	0.00338320	0.00401584	0.00192832	0.01360121	0.00861644	0.00764702	0.00637368	0.00341050	0.01066912	0.00596304	0.00580566	0.01051438	0.00566827
1.17000000	0.00108232	0.00290007	0.00541060	0.00626614	0.00162158	0.00393056	0.00307376	0.00156828	0.00072694	0.00601751	0.00091093	0.00380328	0.00289283	0.00322297	0.00196773	0.01348026	0.00843717	0.00767200	0.00628567	0.00339602	0.01037354	0.00603734	0.00568435	0.01050335	0.00563375
1.18000000	0.00139928	0.00254642	0.00534005	0.00586675	0.00135673	0.00344025	0.00324802	0.00130592	0.00142869	0.00551926	0.00068838	0.00383530	0.00250345	0.00250608	0.00199065	0.01329781	0.00827265	0.00772942	0.00615154	0.00338415	0.00994625	0.00609231	0.00561045	0.01046050	0.00554280
1.19000000	0.00177643	0.00221659	0.00526357	0.00532836	0.00137092	0.00282878	0.00334138	0.00115754	0.00227447	0.00477838	0.00066774	0.00382933	0.00216011	0.00194490	0.00202874	0.01311414	0.00808866	0.00774809	0.00601775	0.00341345	0.00943630	0.00616193	0.00543382	0.01033085	0.00553559
1.20000000	0.00187689	0.00197804	0.00499939	0.00446694	0.00162998	0.00236444	0.00346016	0.00158760	0.00319112	0.00391188	0.00098628	0.00380813	0.00196333	0.00160493	0.00201026	0.01289774	0.00791598	0.00780561	0.00591910	0.00344266	0.00891001	0.00618874	0.00526253	0.01020921	0.00553141
1.21000000	0.00204022	0.00167090	0.00485298	0.00359795	0.00185795	0.00170662	0.00342305	0.00215939	0.00408276	0.00294079	0.00144582	0.00383245	0.00178940	0.00157121	0.00196851	0.01269988	0.00778093	0.00783280	0.00576790	0.00352547	0.00832948	0.00624816	0.00512434	0.00998802	0.00548840
1.22000000	0.00193711	0.00150863	0.00441391	0.00239665	0.00224637	0.00142714	0.00352218	0.00283844	0.00482472	0.00203354	0.00210020	0.00393943	0.00164543	0.00180002	0.00187484	0.01251149	0.00763080	0.00788724	0.00573025	0.00356565	0.00781283	0.00614320	0.00489542	0.00985754	0.00554602
1.23000000	0.00202526	0.00134935	0.00415659	0.00136416	0.00243151	0.00155501	0.00351239	0.00336066	0.00534884	0.00131534	0.00270922	0.00419708	0.00143511	0.00201297	0.00189484	0.01232862	0.00750076	0.00795993	0.00563844	0.00368215	0.00725291	0.00612334	0.00468735	0.00960718	0.00560310
1.24000000	0.00268498	0.00102069	0.00456611	0.00100486	0.00223023	0.00219805	0.00340018	0.00367755	0.00548638	0.00147903	0.00272265	0.00376801	0.00099281	0.00188833	0.00134506	0.01217020	0.00756158	0.00798160	0.00540820	0.00383529	0.00665743	0.00616879	0.00459296	0.00919641	0.00554184
1.25000000	0.00247688	0.00114176	0.00406041	0.00237743	0.00267260	0.00289084	0.00333384	0.00377957	0.00539327	0.00173692	0.00335755	0.00445536	0.00091409	0.00229873	0.00167242	0.01205574	0.00736865	0.00805302	0.00548474	0.00398254	0.00623660	0.00611636	0.00427494	0.00889753	0.00576261
1.26000000	0.00264984	0.00120835	0.00383396	0.00405938	0.00284575	0.00373813	0.00307935	0.00367154	0.00487075	0.00236723	0.00391823	0.00510061	0.00081712	0.00256215	0.00205951	0.01192395	0.00729449	0.00814154	0.00553620	0.00409493	0.00594920	0.00599821	0.00406622	0.00860318	0.00590642
1.27000000	0.00319536	0.00124800	0.00418856	0.00552945	0.00286641	0.00467837	0.00262290	0.00339365	0.00406876	0.00307473	0.00426261	0.00543709	0.00083594	0.00260837	0.00222773	0.01186254	0.00735507	0.00813086	0.00547611	0.00427909	0.00559844	0.00601256	0.00395680	0.00812906	0.00598788
1.28000000	0.00361254	0.00163271	0.00437576	0.00706914	0.00293952	0.00568096	0.00206710	0.00318830	0.00324150	0.00380634	0.00412305	0.00535293	0.00117017	0.00255191	0.00211990	0.01172775	0.00744377	0.00823573	0.00550297	0.00443482	0.00541512	0.00597427	0.00375895	0.00768433	0.00614986
1.29000000	0.00359365	0.00198321	0.00410026	0.00886255	0.00325498	0.00637497	0.00161159	0.00299350	0.00311766	0.00451402	0.00441186	0.00604597	0.00135526	0.00279444	0.00222107	0.01173057	0.00743670	0.00825738	0.00561052	0.00445801	0.00536530	0.00582056	0.00363085	0.00732811	0.00632323
1.30000000	0.00398672	0.00240690	0.00416279	0.01031801	0.00328677	0.00713999	0.00134202	0.00302956	0.00374671	0.00518333	0.00466317	0.00635224	0.00138432	0.00276946	0.00233323	0.01162696	0.00751900	0.00830867	0.00568917	0.00457234	0.00531350	0.00573683	0.00356407	0.00690796	0.00646540
1.31000000	0.00448576	0.00291080	0.00423264	0.01157285	0.00322001	0.00782162	0.00142170	0.00324609	0.00483824	0.00581235	0.00456445	0.00636999	0.00136166	0.00259952	0.00213510	0.01163405	0.00760875	0.00828198	0.00573319	0.00456329	0.00526493	0.00564694	0.00355501	0.00648073	0.00657210
1.32000000	0.00431137	0.00325810	0.00396505	0.01258413	0.00339253	0.00843534	0.00179561	0.00363110	0.00583578	0.00632768	0.00469353	0.00647072	0.00119682	0.00251646	0.00186650	0.01165334	0.00767996	0.00827653	0.00577395	0.00448476	0.00524588	0.00552115	0.00347883	0.00609484	0.00669100
1.33000000	0.00443389	0.00365207	0.00385859	0.01329020	0.00339718	0.00896244	0.00218161	0.00389554	0.00647195	0.00672250	0.00445934	0.00632677	0.00103025	0.00243377	0.00168009	0.01165441	0.00773630	0.00826426	0.00576914	0.00442031	0.00517668	0.00546982	0.00350062	0.00566492	0.00675247
1.34000000	0.00423703	0.00400395	0.00339194	0.01346738	0.00337333	0.00950780	0.00251361	0.00419393	0.00695642	0.00703156	0.00463229	0.00582491	0.00062933	0.00207891	0.00127183	0.01153729	0.00773263	0.00838514	0.00588734	0.00429037	0.00528939	0.00540995	0.00345750	0.00528540	0.00688473
1.35000000	0.00440760	0.00424567	0.00337190	0.01348214	0.00324433	0.00990128	0.00271341	0.00433626	0.00692794	0.00718484	0.00399468	0.00548422	0.00055031	0.00213527	0.00105178	0.01161078	0.00783134	0.00824096	0.00573461	0.00414585	0.00515260	0.00532161	0.00353954	0.00494420	0.00683898
1.36000000	0.00432867	0.00444229	0.00309700	0.01315312	0.00317118	0.01021111	0.00280357	0.00442432	0.00663457	0.00724742	0.00364038	0.00495921	0.00049736	0.00203823	0.00080118	0.01166113	0.00785942	0.00817701	0.00564604	0.00391059	0.00515490	0.00526770	0.00366210	0.00460754	0.00678053
1.37000000	0.00424622	0.00451533	0.00284436	0.01248295	0.00306798	0.01047720	0.00285329	0.00454598	0.00611172	0.00720140	0.00335469	0.00443215	0.00070198	0.00200521	0.00058661	0.01161653	0.00793928	0.00810704	0.00554675	0.00373572	0.00521835	0.00521580	0.00372168	0.00432579	0.00677032
1.38000000	0.00389407	0.00451723	0.00241823	0.01172114	0.00308494	0.01056477	0.00279222	0.00472719	0.00585898	0.00704785	0.00297526	0.00402706	0.00092192	0.00216752	0.00051201	0.01158348	0.00799935	0.00802986	0.00546269	0.00347537	0.00538305	0.00517400	0.00381118	0.00407714	0.00675615
1.39000000	0.00355905	0.00446986	0.00199275	0.01097427	0.00322867	0.01043946	0.00272745	0.00468502	0.00518900	0.00677276	0.00316655	0.00397979	0.00132120	0.00239670	0.00039555	0.01152367	0.00801678	0.00796140	0.00540779	0.00322436	0.00560215	0.00510388	0.00393263	0.00389710	0.00674670
1.40000000	0.00344721	0.00430902	0.00199477	0.01018044	0.00327822	0.01031702	0.00260614	0.00453990	0.00447231	0.00663929	0.00322278	0.00351255	0.00160399	0.00235639	0.00050238	0.01147915	0.00811323	0.00782709	0.00525314	0.00308029	0.00573001	0.00512039	0.00407380	0.00369176	0.00672723
1.41000000	0.00340041	0.00421743	0.00195092	0.00953892	0.00330235	0.01002031	0.00251300	0.00441641	0.00391861	0.00652405	0.00325519	0.00337253	0.00175417	0.00247579	0.00095733	0.01156720	0.00815156	0.00761141	0.00506695	0.00282732	0.00584948	0.00517258	0.00428751	0.00346433	0.00668304
1.42000000	0.00294374	0.00388244	0.00185131	0.00888423	0.00332941	0.00973236	0.00266606	0.00436200	0.00410907	0.00635701	0.00330333	0.00322483	0.00180740	0.00247048	0.00063048	0.01143754	0.00827488	0.00748982	0.00494746	0.00270064	0.00601760	0.00517022	0.00432065	0.00336088	0.00677946
1.43000000	0.00274793	0.00385093	0.00182724	0.00855100	0.00328735	0.00930635	0.00273930	0.00417092	0.00405308	0.00622911	0.00356220	0.00325051	0.00185073	0.00252217	0.00063025	0.01130960	0.00837390	0.00731586	0.00483255	0.00263856	0.00611895	0.00517685	0.00443651	0.00327056	0.00688380
1.44000000	0.00241410	0.00388957	0.00174342	0.00840518	0.00318838	0.00885578	0.00293759	0.00401367	0.00401026	0.00613311	0.00384273	0.00349565	0.00185126	0.00258299	0.00063324	0.01122018	0.00844835	0.00712657	0.00471334	0.00254778	0.00618233	0.00520453	0.00453480	0.00317889	0.00703790
1.45000000	0.00274822	0.00437814	0.00168171	0.00888103	0.00307845	0.00833841	0.00306195	0.00381213	0.00373075	0.00602545	0.00437165	0.00376658	0.00187817	0.00278223	0.00091809	0.01097915	0.00853472	0.00690532	0.00459129	0.00271173	0.00616050	0.00534415	0.00465306	0.00302394	0.00725472
1.46000000	0.00232888	0.00408084	0.00180936	0.00878078	0.00270446	0.00823698	0.00312250	0.00374423	0.00425299	0.00618566	0.00431570	0.00372092	0.00162229	0.00251956	0.00068085	0.01083655	0.00864602	0.00669109	0.00441647	0.00284775	0.00604127	0.00543873	0.00476437	0.00293130	0.00749013
1.47000000	0.00271890	0.00452258	0.00150634	0.00948695	0.00246440	0.00801126	0.00314412	0.00361194	0.00399048	0.00622637	0.00470146	0.00409666	0.00152977	0.00266652	0.00063447	0.01063608	0.00872831	0.00644530	0.00424732	0.00313965	0.00590459	0.00562682	0.00482638	0.00276576	0.00784141
1.48000000	0.00155728	0.00448256	0.00216601	0.00951620	0.00204866	0.00801929	0.00304494	0.00346285	0.00382704	0.00626916	0.00457078	0.00417002	0.00135999	0.00238280	0.00059662	0.01033364	0.00883785	0.00637050	0.00415433	0.00335459	0.00573880	0.00573296	0.00499239	0.00270023	0.00817664
1.49000000	0.00130437	0.00465966	0.00239985	0.00985485	0.00174639	0.00810356	0.00281478	0.00340115	0.00361864	0.00641456	0.00464583	0.00428110	0.00121397	0.00227071	0.00061949	0.01007566	0.00892528	0.00624433	0.00401786	0.00374581	0.00555799	0.00597513	0.00510802	0.00251307	0.00861635
1.50000000	0.00142241	0.00491889	0.00217727	0.01018654	0.00165558	0.00828285	0.00244904	0.00346720	0.00343191	0.00674315	0.00478483	0.00441861	0.00106433	0.00228964	0.00057032	0.00983787	0.00903615	0.00612823	0.00388128	0.00421209	0.00547095	0.00632539	0.00519841	0.00224872	0.00912399
1.51000000	0.00080904	0.00494872	0.00308188	0.01006302	0.00155356	0.00823279	0.00205638	0.00323874	0.00288366	0.00682545	0.00474086	0.00445879	0.00098318	0.00212050	0.00067995	0.00957625	0.00913165	0.00613545	0.00382588	0.00466721	0.00543872	0.00655783	0.00549470	0.00206474	0.00959828
1.52000000	0.00070292	0.00500093	0.00358356	0.00980558	0.00161991	0.00811784	0.00157162	0.00309626	0.00245073	0.00708390	0.00474314	0.00450070	0.00086720	0.00208610	0.00073626	0.00932310	0.00927418	0.00614807	0.00378984	0.00518342	0.00560118	0.00692617	0.00569917	0.00178676	0.01019544
1.53000000	0.00094443	0.00503198	0.00423895	0.00936610	0.00156537	0.00775201	0.00111688	0.00278764	0.00188260	0.00732766	0.00469227	0.00459873	0.00085206	0.00206062	0.00076534	0.00917339	0.00937250	0.00624610	0.00384777	0.00570493	0.00590340	0.00725213	0.00599515	0.00151984	0.01077611
1.54000000	0.00122946	0.00511277	0.00429459	0.00882776	0.00181018	0.00738003	0.00054422	0.00232944	0.00127459	0.00783355	0.00468538	0.00459615	0.00074029	0.00221237	0.00083735	0.00924013	0.00952601	0.00630793	0.00397285	0.00632970	0.00653847	0.00776625	0.00611706	0.00104620	0.01144962
1.55000000	0.00151978	0.00490418	0.00562509	0.00771553	0.00138148	0.00639626	0.00014567	0.00204027	0.00103144	0.00792596	0.00457464	0.00475546	0.00084160	0.00218381	0.00091717	0.00899845	0.00958735	0.00657112	0.00415535	0.00686810	0.00700255	0.00796477	0.00676372	0.00092226	0.01202863
1.56000000	0.00192404	0.00472529	0.00579810	0.00678886	0.00165089	0.00569106	0.00072376	0.00143111	0.00051437	0.00847929	0.00437925	0.00483440	0.00087322	0.00236543	0.00102408	0.00917505	0.00981042	0.00671865	0.00441867	0.00760195	0.00794918	0.00844928	0.00689983	0.00047657	0.01273565
1.57000000	0.00215212	0.00449141	0.00705227	0.00565853	0.00137602	0.00454516	0.00117332	0.00177127	0.00044665	0.00858662	0.00426256	0.00492092	0.00100686	0.00251144	0.00101871	0.00903490	0.00977946	0.00708636	0.00466988	0.00814692	0.00842104	0.00861373	0.00762473	0.00031082	0.01332901
1.58000000	0.00286165	0.00430543	0.00734088	0.00505144	0.00161567	0.00378401	0.00187955	0.00217113	0.00030447	0.00920312	0.00407064	0.00484344	0.00112586	0.00265901	0.00112318	0.00932946	0.00986120	0.00730808	0.00502215	0.00883176	0.00927874	0.00900310	0.00799042	0.00039348	0.01389460
1.59000000	0.00292090	0.00401911	0.00833163	0.00471840	0.00186984	0.00320540	0.00253547	0.00276039	0.00085975	0.00925664	0.00382616	0.00499225	0.00148071	0.00283774	0.00108211	0.00930421	0.00987010	0.00768173	0.00520287	0.00942388	0.00972929	0.00912957	0.00866603	0.00031158	0.01451466
1.60000000	0.00386268	0.00386310	0.00863877	0.00509436	0.00197484	0.00308047	0.00308900	0.00334874	0.00086830	0.00972949	0.00362120	0.00481385	0.00167723	0.00299580	0.00099696	0.00958699	0.00993153	0.00795103	0.00549381	0.01001344	0.01031790	0.00942295	0.00907354	0.00079439	0.01497678
1.61000000	0.00399947	0.00364667	0.00930355	0.00574058	0.00201244	0.00355574	0.00359194	0.00375928	0.00131429	0.00976429	0.00334649	0.00491547	0.00206492	0.00303903	0.00090050	0.00964749	0.00989723	0.00829678	0.00564036	0.01052366	0.01056064	0.00954434	0.00962906	0.00089036	0.01544133
1.62000000	0.00488747	0.00362210	0.00954648	0.00642542	0.00191840	0.00401912	0.00383726	0.00385008	0.00139899	0.00991977	0.00305902	0.00479141	0.00231412	0.00307836	0.00054446	0.00991279	0.00989875	0.00853287	0.00583565	0.01095131	0.01080352	0.00977526	0.00994212	0.00139419	0.01576006
1.63000000	0.00540973	0.00379216	0.00975625	0.00696615	0.00175291	0.00455849	0.00387299	0.00376191	0.00163298	0.00986735	0.00287191	0.00456953	0.00261575	0.00297123	0.00050777	0.01016339	0.00979797	0.00871364	0.00591441	0.01123846	0.01080223	0.00997893	0.01041235	0.00176900	0.01598215
1.64000000	0.00597177	0.00402217	0.01014663	0.00731766	0.00147257	0.00500719	0.00393000	0.00345271	0.00176448	0.00975780	0.00278028	0.00414499	0.00282352	0.00272932	0.00080438	0.01020511	0.00972897	0.00897250	0.00591413	0.01138126	0.01046714	0.01001573	0.01052699	0.00201497	0.01627830
1.65000000	0.00602559	0.00419857	0.01010838	0.00720073	0.00131198	0.00549616	0.00376571	0.00319513	0.00208275	0.00922779	0.00263942	0.00392975	0.00318001	0.00242254	0.00161697	0.01041574	0.00949363	0.00911953	0.00595132	0.01151022	0.01023404	0.01006911	0.01079477	0.00235098	0.01637320
1.66000000	0.00619274	0.00438832	0.01012110	0.00684087	0.00139995	0.00576138	0.00363326	0.00296810	0.00228267	0.00859374	0.00259022	0.00355129	0.00334963	0.00204615	0.00250862	0.01049193	0.00935486	0.00921981	0.00582127	0.01148969	0.00970077	0.01006953	0.01087742	0.00264819	0.01647715
1.67000000	0.00624998	0.00461165	0.00993127	0.00628581	0.00173318	0.00583404	0.00345889	0.00288468	0.00228834	0.00778981	0.00249441	0.00319177	0.00347846	0.00158172	0.00355139	0.01046365	0.00932416	0.00931776	0.00562785	0.01143512	0.00908176	0.00998726	0.01090610	0.00286132	0.01646510
1.68000000	0.00665179	0.00432340	0.01005647	0.00539106	0.00240785	0.00565681	0.00328573	0.00298921	0.00233444	0.00680351	0.00294979	0.00242456	0.00337517	0.00217362	0.00440666	0.01039372	0.00895744	0.00943709	0.00544447	0.01119284	0.00829160	0.00980763	0.01060022	0.00319277	0.01670531
1.69000000	0.00655461	0.00447903	0.00948564	0.00415017	0.00277906	0.00575030	0.00308120	0.00281288	0.00227977	0.00577097	0.00193529	0.00215700	0.00376311	0.00201832	0.00504744	0.01042003	0.00877384	0.00941655	0.00522710	0.01105516	0.00770395	0.00962750	0.01083619	0.00329126	0.01639156
1.70000000	0.00659200	0.00447710	0.00890526	0.00306189	0.00323346	0.00539157	0.00269826	0.00292078	0.00189306	0.00436833	0.00165062	0.00191598	0.00391710	0.00223611	0.00561116	0.01033121	0.00871239	0.00942951	0.00495132	0.01080994	0.00704086	0.00940931	0.01060823	0.00349367	0.01628980
1.71000000	0.00678502	0.00360888	0.00890773	0.00204682	0.00406573	0.00497060	0.00247500	0.00307163	0.00189609	0.00282114	0.00260968	0.00159748	0.00351429	0.00350830	0.00616047	0.01004183	0.00846026	0.00952573	0.00459288	0.01035913	0.00615036	0.00910282	0.01054757	0.00365968	0.01626805
1.72000000	0.00665182	0.00463096	0.00748948	0.00123561	0.00368086	0.00425472	0.00176037	0.00244628	0.00092709	0.00174929	0.00094796	0.00171149	0.00392430	0.00269961	0.00567360	0.01024882	0.00855430	0.00936011	0.00440857	0.01006308	0.00582927	0.00893612	0.01010988	0.00385098	0.01590147
1.73000000	0.00664092	0.00420237	0.00720660	0.00106160	0.00391406	0.00418115	0.00150119	0.00260539	0.00112049	0.00112418	0.00143099	0.00220717	0.00371118	0.00254751	0.00542930	0.00996207	0.00831586	0.00934763	0.00407145	0.00970597	0.00522154	0.00845341	0.00991853	0.00381684	0.01573541
1.74000000	0.00650523	0.00457477	0.00629301	0.00156428	0.00376368	0.00351128	0.00127439	0.00216535	0.00116836	0.00211251	0.00159769	0.00263916	0.00342123	0.00244907	0.00470064	0.00998021	0.00828806	0.00922555	0.00383522	0.00926543	0.00488834	0.00821177	0.00961488	0.00398826	0.01536779
1.75000000	0.00640994	0.00466757	0.00580414	0.00226567	0.00386942	0.00334467	0.00121732	0.00199628	0.00159943	0.00365622	0.00186454	0.00321057	0.00299157	0.00225691	0.00394906	0.00980114	0.00820003	0.00918327	0.00364587	0.00885715	0.00460360	0.00777042	0.00929752	0.00394096	0.01504044
1.76000000	0.00636273	0.00460140	0.00545825	0.00292299	0.00383244	0.00333107	0.00133389	0.00195867	0.00205103	0.00530653	0.00204304	0.00381984	0.00249741	0.00207308	0.00336300	0.00966741	0.00806202	0.00913809	0.00357775	0.00840670	0.00441091	0.00734110	0.00893142	0.00385237	0.01469099
1.77000000	0.00616974	0.00492036	0.00498813	0.00351021	0.00385377	0.00323945	0.00145390	0.00172057	0.00205427	0.00661554	0.00195828	0.00456233	0.00212834	0.00204568	0.00294971	0.00952563	0.00810261	0.00902576	0.00345153	0.00795586	0.00433460	0.00704757	0.00856274	0.00381756	0.01425353
1.78000000	0.00597978	0.00495074	0.00464543	0.00383285	0.00383812	0.00320539	0.00153571	0.00162945	0.00236299	0.00798794	0.00179629	0.00530571	0.00183300	0.00198234	0.00302811	0.00948567	0.00800899	0.00886179	0.00344086	0.00749408	0.00430469	0.00682218	0.00806731	0.00380326	0.01389812
1.79000000	0.00589948	0.00475427	0.00461635	0.00403882	0.00389735	0.00322114	0.00154123	0.00159508	0.00245411	0.00912186	0.00145763	0.00604052	0.00179535	0.00235936	0.00344295	0.00938020	0.00802104	0.00877711	0.00353103	0.00698805	0.00427085	0.00657095	0.00763065	0.00366441	0.01345832
1.80000000	0.00575503	0.00479728	0.00447732	0.00418066	0.00365100	0.00334221	0.00157019	0.00165311	0.00240027	0.00996596	0.00102405	0.00697856	0.00183293	0.00249375	0.00370952	0.00930282	0.00809893	0.00866956	0.00360194	0.00648704	0.00426346	0.00647350	0.00718235	0.00361535	0.01291427
1.81000000	0.00564442	0.00480636	0.00440924	0.00419569	0.00349355	0.00340490	0.00148582	0.00163975	0.00230861	0.01051048	0.00050915	0.00798880	0.00192289	0.00274959	0.00390152	0.00924604	0.00816472	0.00854707	0.00369368	0.00596366	0.00423816	0.00644646	0.00670017	0.00357373	0.01236987
1.82000000	0.00558889	0.00466848	0.00447108	0.00416391	0.00345791	0.00345545	0.00130047	0.00158514	0.00217235	0.01078369	0.00007528	0.00894790	0.00200613	0.00311034	0.00384865	0.00920313	0.00821948	0.00842504	0.00381983	0.00542751	0.00421667	0.00646196	0.00636862	0.00351041	0.01176488
1.83000000	0.00547227	0.00464564	0.00447178	0.00412748	0.00319972	0.00358178	0.00120567	0.00165838	0.00197834	0.01081390	0.00062688	0.00984677	0.00203123	0.00348070	0.00366392	0.00918667	0.00840285	0.00826870	0.00383932	0.00492807	0.00420589	0.00657522	0.00587106	0.00345380	0.01115346
1.84000000	0.00539603	0.00449962	0.00451264	0.00410285	0.00311597	0.00363951	0.00106527	0.00170599	0.00175053	0.01066059	0.00116367	0.01054299	0.00201752	0.00382310	0.00324646	0.00913012	0.00850584	0.00816827	0.00394158	0.00444352	0.00424868	0.00672294	0.00554617	0.00336989	0.01050986
1.85000000	0.00536900	0.00435040	0.00460467	0.00408573	0.00306416	0.00370965	0.00090619	0.00171161	0.00156292	0.01023522	0.00161879	0.01104406	0.00197767	0.00419329	0.00284367	0.00907787	0.00860412	0.00807152	0.00403247	0.00398645	0.00431204	0.00688677	0.00520900	0.00326435	0.00988251
1.86000000	0.00521117	0.00430341	0.00456246	0.00405819	0.00291410	0.00383780	0.00089200	0.00181055	0.00135001	0.00982486	0.00203227	0.01116927	0.00197325	0.00435832	0.00245887	0.00908700	0.00874859	0.00793541	0.00403787	0.00364913	0.00444855	0.00711003	0.00466042	0.00320898	0.00930632
1.87000000	0.00511112	0.00434720	0.00464260	0.00410238	0.00298617	0.00390944	0.00086238	0.00175937	0.00118792	0.00918545	0.00236914	0.01093304	0.00190463	0.00461846	0.00213126	0.00910030	0.00886411	0.00776419	0.00404908	0.00336544	0.00460441	0.00727006	0.00434685	0.00297935	0.00868205
1.88000000	0.00509474	0.00435639	0.00472748	0.00407877	0.00303256	0.00398908	0.00093315	0.00179562	0.00107218	0.00858827	0.00249146	0.01031843	0.00187376	0.00479600	0.00211235	0.00906936	0.00899892	0.00764891	0.00406775	0.00311072	0.00473383	0.00739718	0.00383646	0.00273350	0.00813431
1.89000000	0.00510487	0.00438577	0.00484555	0.00407812	0.00317910	0.00412135	0.00101255	0.00181644	0.00089687	0.00792396	0.00255959	0.00944315	0.00190745	0.00474932	0.00216193	0.00901816	0.00903799	0.00753208	0.00412182	0.00295612	0.00489563	0.00749905	0.00340643	0.00244171	0.00764218
1.90000000	0.00594772	0.00451408	0.00549636	0.00413142	0.00462923	0.00388834	0.00100561	0.00201673	0.00106655	0.00745174	0.00247622	0.00802256	0.00205556	0.00531312	0.00221906	0.00864868	0.00867824	0.00771100	0.00460553	0.00269694	0.00499383	0.00733849	0.00445282	0.00195962	0.00693779
1.91000000	0.00527560	0.00438877	0.00503268	0.00410016	0.00371601	0.00435282	0.00115715	0.00178558	0.00060376	0.00672884	0.00243007	0.00702767	0.00210538	0.00423881	0.00224773	0.00899702	0.00899503	0.00727775	0.00423676	0.00277895	0.00518282	0.00759710	0.00281546	0.00173979	0.00672038
1.92000000	0.00530263	0.00484652	0.00489997	0.00417335	0.00432569	0.00437677	0.00119000	0.00175873	0.00044651	0.00662029	0.00236990	0.00550560	0.00222094	0.00383586	0.00223852	0.00892899	0.00898661	0.00718264	0.00426768	0.00288213	0.00532225	0.00761047	0.00311771	0.00131371	0.00606904
1.93000000	0.00535054	0.00493054	0.00481328	0.00424386	0.00432429	0.00443006	0.00131549	0.00176301	0.00050043	0.00610636	0.00211248	0.00441249	0.00229105	0.00349258	0.00266367	0.00889861	0.00902802	0.00703695	0.00424235	0.00291490	0.00532066	0.00759560	0.00256944	0.00085048	0.00582288
1.94000000	0.00559823	0.00471808	0.00488559	0.00417119	0.00462038	0.00457337	0.00137058	0.00171505	0.00049349	0.00577946	0.00188812	0.00355696	0.00235470	0.00309281	0.00278919	0.00891154	0.00895565	0.00694974	0.00427266	0.00294570	0.00530004	0.00751708	0.00224664	0.00037609	0.00552413
1.95000000	0.00577788	0.00569221	0.00452384	0.00419660	0.00556172	0.00448689	0.00143963	0.00160602	0.00051322	0.00618704	0.00208276	0.00304214	0.00225010	0.00277729	0.00275111	0.00888675	0.00876461	0.00684336	0.00431340	0.00317495	0.00538435	0.00735817	0.00293959	0.00037754	0.00492510
1.96000000	0.00596491	0.00428337	0.00464607	0.00413132	0.00535119	0.00468192	0.00143865	0.00162066	0.00021707	0.00581640	0.00197275	0.00325502	0.00230373	0.00259199	0.00276496	0.00904340	0.00863070	0.00686571	0.00435532	0.00317600	0.00528541	0.00738152	0.00207327	0.00063407	0.00496396
1.97000000	0.00605523	0.00542962	0.00395281	0.00416733	0.00595868	0.00462614	0.00147911	0.00156578	0.00056632	0.00642011	0.00252542	0.00393356	0.00193617	0.00241267	0.00242647	0.00911191	0.00844759	0.00674768	0.00431884	0.00348764	0.00540780	0.00718282	0.00261284	0.00123701	0.00445821
1.98000000	0.00618090	0.00405361	0.00397629	0.00422524	0.00588692	0.00455880	0.00142462	0.00151776	0.00031848	0.00629340	0.00231365	0.00425608	0.00206642	0.00275030	0.00257683	0.00929360	0.00834221	0.00684084	0.00432084	0.00354725	0.00529858	0.00719602	0.00183978	0.00159147	0.00450179
1.99000000	0.00631161	0.00368365	0.00374243	0.00417203	0.00585913	0.00464931	0.00136319	0.00154830	0.00028071	0.00648587	0.00240327	0.00475462	0.00191147	0.00258919	0.00227344	0.00938616	0.00821017	0.00684643	0.00428765	0.00367203	0.00522204	0.00713817	0.00198149	0.00209085	0.00431428
2.00000000	0.00636336	0.00353014	0.00340033	0.00425450	0.00591080	0.00453753	0.00122015	0.00158604	0.00030587	0.00654207	0.00230267	0.00483794	0.00166789	0.00250224	0.00205785	0.00961391	0.00801423	0.00687527	0.00423500	0.00386658	0.00532076	0.00699318	0.00185166	0.00261888	0.00411637
2.01000000	0.00638793	0.00334019	0.00308501	0.00431407	0.00582947	0.00452783	0.00112371	0.00155032	0.00039496	0.00646012	0.00195380	0.00465561	0.00136398	0.00215909	0.00177144	0.00976280	0.00781608	0.00695104	0.00422168	0.00407776	0.00546167	0.00685966	0.00181424	0.00314735	0.00399431
2.02000000	0.00630166	0.00316484	0.00273788	0.00443041	0.00563825	0.00448111	0.00098592	0.00157503	0.00048137	0.00623505	0.00145508	0.00429528	0.00096411	0.00141835	0.00144199	0.00998817	0.00756332	0.00701843	0.00420331	0.00430301	0.00567109	0.00673583	0.00184561	0.00365563	0.00389822
2.03000000	0.00616746	0.00375226	0.00201123	0.00483797	0.00548183	0.00437884	0.00078737	0.00168473	0.00063357	0.00606358	0.00118794	0.00395473	0.00093535	0.00073680	0.00118535	0.01015034	0.00747126	0.00700060	0.00408252	0.00460568	0.00612685	0.00658261	0.00209443	0.00421689	0.00366746
2.04000000	0.00607709	0.00305712	0.00221494	0.00476769	0.00508770	0.00443502	0.00077592	0.00168213	0.00063109	0.00534188	0.00036240	0.00321167	0.00124767	0.00109248	0.00096301	0.01037081	0.00705972	0.00717993	0.00418920	0.00480164	0.00628173	0.00644410	0.00188898	0.00469292	0.00380788
2.05000000	0.00596325	0.00310691	0.00198309	0.00503574	0.00482310	0.00432286	0.00084020	0.00172112	0.00070390	0.00488580	0.00069490	0.00272315	0.00194786	0.00200727	0.00109552	0.01053445	0.00687930	0.00726745	0.00416355	0.00506337	0.00662176	0.00629032	0.00189946	0.00520399	0.00378942
2.06000000	0.00575624	0.00310651	0.00180713	0.00529336	0.00436192	0.00441257	0.00104666	0.00179484	0.00071032	0.00456177	0.00110805	0.00252014	0.00269527	0.00304343	0.00123068	0.01075365	0.00657443	0.00738747	0.00418473	0.00528751	0.00687656	0.00617017	0.00193771	0.00567964	0.00384861
2.07000000	0.00549998	0.00355056	0.00133333	0.00563905	0.00400864	0.00436830	0.00132795	0.00178440	0.00081574	0.00458679	0.00119494	0.00239431	0.00335600	0.00406708	0.00109250	0.01085687	0.00642753	0.00745423	0.00416094	0.00551901	0.00722272	0.00614635	0.00218639	0.00606653	0.00377898
2.08000000	0.00527645	0.00385397	0.00118831	0.00589001	0.00354501	0.00444292	0.00164542	0.00180252	0.00073725	0.00466802	0.00121860	0.00253915	0.00359872	0.00454900	0.00116740	0.01115413	0.00622789	0.00749663	0.00405314	0.00568412	0.00736946	0.00618642	0.00225363	0.00634375	0.00372056
2.09000000	0.00512366	0.00305728	0.00121331	0.00596028	0.00307085	0.00447237	0.00192362	0.00178692	0.00054947	0.00495259	0.00139828	0.00283135	0.00379792	0.00457176	0.00136508	0.01124033	0.00607446	0.00765059	0.00407126	0.00570383	0.00722529	0.00617290	0.00212395	0.00666756	0.00391529
2.10000000	0.00490189	0.00336773	0.00080801	0.00611605	0.00228499	0.00450411	0.00214896	0.00183464	0.00081601	0.00519406	0.00054656	0.00299101	0.00389054	0.00438195	0.00145617	0.01163407	0.00565417	0.00777476	0.00402749	0.00573249	0.00693017	0.00616918	0.00228679	0.00693234	0.00397988
2.11000000	0.00493919	0.00291072	0.00132446	0.00614039	0.00223020	0.00427519	0.00243298	0.00142573	0.00023004	0.00517744	0.00084842	0.00322300	0.00345941	0.00389762	0.00131116	0.01142282	0.00593853	0.00783608	0.00392913	0.00567842	0.00683284	0.00639446	0.00221861	0.00699851	0.00390451
2.12000000	0.00494922	0.00279357	0.00157821	0.00595776	0.00169465	0.00419886	0.00264214	0.00119664	0.00072482	0.00499197	0.00046351	0.00329850	0.00318155	0.00325749	0.00136091	0.01154115	0.00587226	0.00792356	0.00384032	0.00559784	0.00642517	0.00651475	0.00231038	0.00710413	0.00389574
2.13000000	0.00494970	0.00264038	0.00181339	0.00557905	0.00142735	0.00394827	0.00281768	0.00101924	0.00155260	0.00455900	0.00018000	0.00333263	0.00299410	0.00268956	0.00136614	0.01155656	0.00588370	0.00805866	0.00378119	0.00553144	0.00591567	0.00662092	0.00245422	0.00719930	0.00388542
2.14000000	0.00481300	0.00226503	0.00202586	0.00519724	0.00115304	0.00359830	0.00284814	0.00076549	0.00221669	0.00394822	0.00056460	0.00328011	0.00280984	0.00241001	0.00149036	0.01166822	0.00598752	0.00807351	0.00365004	0.00551339	0.00535713	0.00687378	0.00251113	0.00712557	0.00396612
2.15000000	0.00484487	0.00217698	0.00228435	0.00432340	0.00157409	0.00326856	0.00290087	0.00123413	0.00318337	0.00319050	0.00111668	0.00311847	0.00273508	0.00236629	0.00151440	0.01170360	0.00602453	0.00821756	0.00360584	0.00540945	0.00467630	0.00691417	0.00259270	0.00721059	0.00401118
2.16000000	0.00477890	0.00204056	0.00254261	0.00333783	0.00183561	0.00293904	0.00302152	0.00186919	0.00397486	0.00237911	0.00170491	0.00300895	0.00265705	0.00247455	0.00153714	0.01174656	0.00619790	0.00828852	0.00352913	0.00534544	0.00398655	0.00697463	0.00271575	0.00724015	0.00407738
2.17000000	0.00445964	0.00178431	0.00268540	0.00232394	0.00210329	0.00258267	0.00304898	0.00240514	0.00466865	0.00165003	0.00219861	0.00295959	0.00253018	0.00268285	0.00142406	0.01183384	0.00633585	0.00837486	0.00351904	0.00537854	0.00334188	0.00714388	0.00286295	0.00714542	0.00424660
2.18000000	0.00426215	0.00216866	0.00324848	0.00172962	0.00201730	0.00224220	0.00289419	0.00287433	0.00496367	0.00156654	0.00221681	0.00225153	0.00210176	0.00250488	0.00099202	0.01204723	0.00654640	0.00839439	0.00335196	0.00542108	0.00289019	0.00745035	0.00279794	0.00688013	0.00416867
2.19000000	0.00382991	0.00191305	0.00331486	0.00159890	0.00251448	0.00256805	0.00295381	0.00323640	0.00526676	0.00184374	0.00272882	0.00235321	0.00190484	0.00273856	0.00110229	0.01213356	0.00672234	0.00851870	0.00344012	0.00541107	0.00233432	0.00746323	0.00304203	0.00681233	0.00437160
2.20000000	0.00339573	0.00197766	0.00356759	0.00263287	0.00276678	0.00312871	0.00291930	0.00337309	0.00517469	0.00247843	0.00313986	0.00242141	0.00154982	0.00288101	0.00128475	0.01224583	0.00698431	0.00858608	0.00350602	0.00545471	0.00207856	0.00751955	0.00327519	0.00666057	0.00453311
2.21000000	0.00299350	0.00205409	0.00392513	0.00414544	0.00308517	0.00386499	0.00284972	0.00336176	0.00468007	0.00317272	0.00345512	0.00244287	0.00126293	0.00296396	0.00148641	0.01231718	0.00719365	0.00873985	0.00366414	0.00545953	0.00207054	0.00750455	0.00344353	0.00650457	0.00467563
2.22000000	0.00290545	0.00246537	0.00449533	0.00546057	0.00300303	0.00482906	0.00266800	0.00315963	0.00395502	0.00374608	0.00363119	0.00195278	0.00083724	0.00273551	0.00141902	0.01249815	0.00742591	0.00880339	0.00369419	0.00547706	0.00219287	0.00762712	0.00352855	0.00616209	0.00469962
2.23000000	0.00260360	0.00269089	0.00469995	0.00707297	0.00323776	0.00558731	0.00249022	0.00284114	0.00325129	0.00433298	0.00375265	0.00192134	0.00058054	0.00270115	0.00172726	0.01258296	0.00767927	0.00892365	0.00390564	0.00549439	0.00249680	0.00760850	0.00373984	0.00586430	0.00488825
2.24000000	0.00207671	0.00273530	0.00491882	0.00867258	0.00359893	0.00628094	0.00222027	0.00247336	0.00293796	0.00487605	0.00391282	0.00193172	0.00053958	0.00276416	0.00185489	0.01263712	0.00786994	0.00908174	0.00418307	0.00546666	0.00287119	0.00749270	0.00386437	0.00558107	0.00509649
2.25000000	0.00186732	0.00294810	0.00516285	0.01001104	0.00374998	0.00689729	0.00209347	0.00220461	0.00299134	0.00534530	0.00398598	0.00186523	0.00052903	0.00268498	0.00198202	0.01272678	0.00802254	0.00920417	0.00442037	0.00542759	0.00318863	0.00743080	0.00394925	0.00517629	0.00527129
2.26000000	0.00258893	0.00335382	0.00534302	0.01096325	0.00348111	0.00748842	0.00202430	0.00204805	0.00356741	0.00572884	0.00404616	0.00153764	0.00043637	0.00231188	0.00213418	0.01266126	0.00829638	0.00938098	0.00464123	0.00553779	0.00334889	0.00740784	0.00412981	0.00468197	0.00537768
2.27000000	0.00203522	0.00336634	0.00546014	0.01182654	0.00378467	0.00781034	0.00213302	0.00207106	0.00395141	0.00609976	0.00414170	0.00149725	0.00048301	0.00230032	0.00188158	0.01277448	0.00828447	0.00948013	0.00488546	0.00537079	0.00359395	0.00727531	0.00404065	0.00421046	0.00558247
2.28000000	0.00185254	0.00348095	0.00525844	0.01221496	0.00393861	0.00808568	0.00230097	0.00222413	0.00435427	0.00624947	0.00441866	0.00114319	0.00030113	0.00194294	0.00201864	0.01265436	0.00837364	0.00973585	0.00522451	0.00528299	0.00386313	0.00713326	0.00405327	0.00371060	0.00581694
2.29000000	0.00199698	0.00359319	0.00523831	0.01236064	0.00392732	0.00820385	0.00233428	0.00206659	0.00417574	0.00649058	0.00433388	0.00106578	0.00022774	0.00182827	0.00185586	0.01265494	0.00828511	0.00989223	0.00543895	0.00513194	0.00398263	0.00707203	0.00394319	0.00308854	0.00599489
2.30000000	0.00279450	0.00387074	0.00549535	0.01223204	0.00344396	0.00809252	0.00223512	0.00189162	0.00370104	0.00682507	0.00371870	0.00115145	0.00018007	0.00189012	0.00171376	0.01276094	0.00831135	0.00986709	0.00539325	0.00518874	0.00373144	0.00707489	0.00381353	0.00242072	0.00598558
2.31000000	0.00273617	0.00382464	0.00537618	0.01180148	0.00345740	0.00784273	0.00221589	0.00182380	0.00313695	0.00694336	0.00368768	0.00125747	0.00009706	0.00178504	0.00157824	0.01273011	0.00823649	0.00995586	0.00549406	0.00508827	0.00371111	0.00702305	0.00366707	0.00178951	0.00613581
2.32000000	0.00283154	0.00378967	0.00503882	0.01122090	0.00343814	0.00739778	0.00211012	0.00184238	0.00233263	0.00701843	0.00388165	0.00148951	0.00036182	0.00149443	0.00163964	0.01258532	0.00806805	0.01016889	0.00571199	0.00494406	0.00389270	0.00685887	0.00340709	0.00128806	0.00635571
2.33000000	0.00282685	0.00373754	0.00510281	0.01045030	0.00340751	0.00678062	0.00195295	0.00192180	0.00180638	0.00710982	0.00351787	0.00172951	0.00040601	0.00170906	0.00143347	0.01258927	0.00802823	0.01009907	0.00559579	0.00495866	0.00361169	0.00693581	0.00335709	0.00057815	0.00643176
2.34000000	0.00291001	0.00373217	0.00496666	0.00960567	0.00345743	0.00600336	0.00175460	0.00201417	0.00125798	0.00720143	0.00349885	0.00198508	0.00064315	0.00166806	0.00141311	0.01245515	0.00788449	0.01015796	0.00566259	0.00487844	0.00362749	0.00682980	0.00322646	0.00025066	0.00661879
2.35000000	0.00311973	0.00371223	0.00476747	0.00881113	0.00353186	0.00503841	0.00144155	0.00216805	0.00077782	0.00730087	0.00358864	0.00223970	0.00085843	0.00162465	0.00145502	0.01235825	0.00780335	0.01012111	0.00564103	0.00479694	0.00362292	0.00671726	0.00305702	0.00048639	0.00678884
2.36000000	0.00308457	0.00362384	0.00459935	0.00796439	0.00367733	0.00406792	0.00116102	0.00207116	0.00084433	0.00726666	0.00354751	0.00233915	0.00097852	0.00177737	0.00137434	0.01229612	0.00771457	0.00999796	0.00554831	0.00479967	0.00351446	0.00681977	0.00307685	0.00103041	0.00707815
2.37000000	0.00318171	0.00381389	0.00444740	0.00724708	0.00359920	0.00305507	0.00084707	0.00210082	0.00119521	0.00722630	0.00349972	0.00235246	0.00107676	0.00197071	0.00118312	0.01204976	0.00764239	0.00995099	0.00559824	0.00475789	0.00362136	0.00670870	0.00322795	0.00136088	0.00736242
2.38000000	0.00381085	0.00399094	0.00417705	0.00662766	0.00364466	0.00197676	0.00043916	0.00200266	0.00097570	0.00722319	0.00409418	0.00240126	0.00150937	0.00162247	0.00173114	0.01189924	0.00771470	0.00975908	0.00547454	0.00479404	0.00352924	0.00671800	0.00314393	0.00182728	0.00769552
2.39000000	0.00400355	0.00397831	0.00412695	0.00613235	0.00377794	0.00113609	0.00023317	0.00181595	0.00107241	0.00726219	0.00428042	0.00253096	0.00164606	0.00166886	0.00175464	0.01182253	0.00767480	0.00956790	0.00537218	0.00476394	0.00339546	0.00677658	0.00315113	0.00217010	0.00802311
