Model Marker Errors from IK
version=1
nRows=781
nColumns=4
inDegrees=no
endheader
time	total_squared_error	marker_error_RMS	marker_error_max
      1.07000000	      0.00371649	      0.01173234	      0.01893477
      1.08000000	      0.00369945	      0.01170541	      0.01882517
      1.09000000	      0.00369997	      0.01170624	      0.01882461
      1.10000000	      0.00371111	      0.01172385	      0.01889513
      1.11000000	      0.00370419	      0.01171291	      0.01882490
      1.12000000	      0.00371216	      0.01172550	      0.01927366
      1.13000000	      0.00371290	      0.01172668	      0.01929680
      1.14000000	      0.00371828	      0.01173516	      0.01967887
      1.15000000	      0.00372344	      0.01174330	      0.02001884
      1.16000000	      0.00373928	      0.01176826	      0.02040657
      1.17000000	      0.00376018	      0.01180110	      0.02078129
      1.18000000	      0.00375196	      0.01178819	      0.02077844
      1.19000000	      0.00377127	      0.01181848	      0.02099825
      1.20000000	      0.00378998	      0.01184777	      0.02123431
      1.21000000	      0.00382176	      0.01189733	      0.02125207
      1.22000000	      0.00383312	      0.01191500	      0.02140597
      1.23000000	      0.00388323	      0.01199263	      0.02138725
      1.24000000	      0.00393507	      0.01207241	      0.02149589
      1.25000000	      0.00402002	      0.01220204	      0.02147852
      1.26000000	      0.00408029	      0.01229316	      0.02152778
      1.27000000	      0.00418285	      0.01244670	      0.02164923
      1.28000000	      0.00426012	      0.01256114	      0.02180452
      1.29000000	      0.00437481	      0.01272911	      0.02188121
      1.30000000	      0.00448095	      0.01288259	      0.02275335
      1.31000000	      0.00459268	      0.01304221	      0.02409898
      1.32000000	      0.00472672	      0.01323117	      0.02553671
      1.33000000	      0.00485753	      0.01341300	      0.02698196
      1.34000000	      0.00498984	      0.01359444	      0.02888986
      1.35000000	      0.00513052	      0.01378474	      0.02987452
      1.36000000	      0.00525602	      0.01395233	      0.03132189
      1.37000000	      0.00539304	      0.01413302	      0.03254141
      1.38000000	      0.00550042	      0.01427303	      0.03391418
      1.39000000	      0.00561811	      0.01442491	      0.03489946
      1.40000000	      0.00572537	      0.01456196	      0.03555657
      1.41000000	      0.00580122	      0.01465810	      0.03639916
      1.42000000	      0.00589035	      0.01477028	      0.03677775
      1.43000000	      0.00594891	      0.01484351	      0.03754278
      1.44000000	      0.00602651	      0.01494001	      0.03761414
      1.45000000	      0.00608272	      0.01500953	      0.03811715
      1.46000000	      0.00615343	      0.01509652	      0.03817614
      1.47000000	      0.00621882	      0.01517651	      0.03845627
      1.48000000	      0.00629342	      0.01526727	      0.03886717
      1.49000000	      0.00638465	      0.01537753	      0.03910953
      1.50000000	      0.00647003	      0.01548001	      0.03934883
      1.51000000	      0.00654524	      0.01556973	      0.03970044
      1.52000000	      0.00665564	      0.01570048	      0.03999985
      1.53000000	      0.00676399	      0.01582777	      0.04052433
      1.54000000	      0.00688809	      0.01597230	      0.04088601
      1.55000000	      0.00700361	      0.01610568	      0.04108369
      1.56000000	      0.00712874	      0.01624892	      0.04144523
      1.57000000	      0.00725045	      0.01638705	      0.04173964
      1.58000000	      0.00717695	      0.01630378	      0.04253573
      1.59000000	      0.00728146	      0.01642205	      0.04264598
      1.60000000	      0.00738320	      0.01653637	      0.04282557
      1.61000000	      0.00745088	      0.01661200	      0.04302276
      1.62000000	      0.00754730	      0.01671914	      0.04286785
      1.63000000	      0.00762520	      0.01680520	      0.04282650
      1.64000000	      0.00769200	      0.01687866	      0.04280495
      1.65000000	      0.00760210	      0.01677972	      0.04329774
      1.66000000	      0.00764492	      0.01682691	      0.04295270
      1.67000000	      0.00767562	      0.01686067	      0.04258538
      1.68000000	      0.00769756	      0.01688475	      0.04216325
      1.69000000	      0.00758915	      0.01676543	      0.04196768
      1.70000000	      0.00758778	      0.01676391	      0.04139119
      1.71000000	      0.00754210	      0.01671338	      0.04090395
      1.72000000	      0.00750132	      0.01666814	      0.04032802
      1.73000000	      0.00749993	      0.01666659	      0.03941327
      1.74000000	      0.00746354	      0.01662611	      0.03885914
      1.75000000	      0.00737170	      0.01652350	      0.03824055
      1.76000000	      0.00733977	      0.01648767	      0.03738462
      1.77000000	      0.00730151	      0.01644464	      0.03643957
      1.78000000	      0.00723137	      0.01636547	      0.03573285
      1.79000000	      0.00706151	      0.01617212	      0.03503359
      1.80000000	      0.00698836	      0.01608814	      0.03400936
      1.81000000	      0.00683612	      0.01591193	      0.03328754
      1.82000000	      0.00672069	      0.01577702	      0.03233430
      1.83000000	      0.00660777	      0.01564391	      0.03145558
      1.84000000	      0.00649013	      0.01550403	      0.03041527
      1.85000000	      0.00641212	      0.01541057	      0.02938751
      1.86000000	      0.00630425	      0.01528041	      0.02898081
      1.87000000	      0.00625016	      0.01521471	      0.02893331
      1.88000000	      0.00617029	      0.01511718	      0.02893192
      1.89000000	      0.00615073	      0.01509321	      0.02922411
      1.90000000	      0.00610017	      0.01503104	      0.02945467
      1.91000000	      0.00609427	      0.01502377	      0.03037270
      1.92000000	      0.00609165	      0.01502055	      0.03110075
      1.93000000	      0.00604710	      0.01496552	      0.03089188
      1.94000000	      0.00604607	      0.01496424	      0.03133734
      1.95000000	      0.00600255	      0.01491029	      0.03097792
      1.96000000	      0.00600356	      0.01491154	      0.03125313
      1.97000000	      0.00599901	      0.01490589	      0.03121213
      1.98000000	      0.00599124	      0.01489624	      0.03102510
      1.99000000	      0.00599033	      0.01489510	      0.03058959
      2.00000000	      0.00598877	      0.01489316	      0.03024798
      2.01000000	      0.00600048	      0.01490771	      0.02982575
      2.02000000	      0.00602122	      0.01493346	      0.02939877
      2.03000000	      0.00604779	      0.01496638	      0.02971278
      2.04000000	      0.00607997	      0.01500613	      0.02917903
      2.05000000	      0.00611392	      0.01504798	      0.02871255
      2.06000000	      0.00615399	      0.01509720	      0.02909951
      2.07000000	      0.00619124	      0.01514282	      0.02854362
      2.08000000	      0.00622393	      0.01518275	      0.02868463
      2.09000000	      0.00624129	      0.01520391	      0.02870329
      2.10000000	      0.00624791	      0.01521198	      0.02874664
      2.11000000	      0.00625547	      0.01522118	      0.02894139
      2.12000000	      0.00625469	      0.01522022	      0.02920813
      2.13000000	      0.00624027	      0.01520266	      0.02906582
      2.14000000	      0.00622958	      0.01518964	      0.02911521
      2.15000000	      0.00621164	      0.01516775	      0.02908022
      2.16000000	      0.00619292	      0.01514488	      0.02902309
      2.17000000	      0.00618464	      0.01513475	      0.02913189
      2.18000000	      0.00617151	      0.01511868	      0.02901171
      2.19000000	      0.00617409	      0.01512184	      0.02912969
      2.20000000	      0.00617348	      0.01512109	      0.02900510
      2.21000000	      0.00618555	      0.01513587	      0.02899651
      2.22000000	      0.00619619	      0.01514887	      0.02897644
      2.23000000	      0.00621610	      0.01517320	      0.02912891
      2.24000000	      0.00622928	      0.01518928	      0.02912677
      2.25000000	      0.00624541	      0.01520892	      0.02922161
      2.26000000	      0.00626111	      0.01522803	      0.02938557
      2.27000000	      0.00627307	      0.01524257	      0.02936551
      2.28000000	      0.00627673	      0.01524702	      0.02952464
      2.29000000	      0.00627687	      0.01524719	      0.02966127
      2.30000000	      0.00626177	      0.01522883	      0.02969400
      2.31000000	      0.00624130	      0.01520393	      0.02970566
      2.32000000	      0.00621757	      0.01517499	      0.02973393
      2.33000000	      0.00617751	      0.01512603	      0.02985253
      2.34000000	      0.00613191	      0.01507009	      0.02973242
      2.35000000	      0.00609247	      0.01502155	      0.02951342
      2.36000000	      0.00605563	      0.01497606	      0.02932600
      2.37000000	      0.00601914	      0.01493087	      0.02916215
      2.38000000	      0.00595415	      0.01485006	      0.02912001
      2.39000000	      0.00591090	      0.01479602	      0.02891531
      2.40000000	      0.00587311	      0.01474865	      0.02873944
      2.41000000	      0.00579730	      0.01465315	      0.02858323
      2.42000000	      0.00573547	      0.01457480	      0.02845103
      2.43000000	      0.00568104	      0.01450548	      0.02832005
      2.44000000	      0.00563717	      0.01444936	      0.02824973
      2.45000000	      0.00557571	      0.01437038	      0.02810387
      2.46000000	      0.00553350	      0.01431588	      0.02787787
      2.47000000	      0.00548337	      0.01425088	      0.02782651
      2.48000000	      0.00544559	      0.01420171	      0.02775330
      2.49000000	      0.00539661	      0.01413770	      0.02769852
      2.50000000	      0.00536509	      0.01409635	      0.02748619
      2.51000000	      0.00531962	      0.01403649	      0.02734147
      2.52000000	      0.00530612	      0.01401866	      0.02740108
      2.53000000	      0.00527162	      0.01397301	      0.02702153
      2.54000000	      0.00524433	      0.01393680	      0.02702172
      2.55000000	      0.00521852	      0.01390247	      0.02692706
      2.56000000	      0.00520375	      0.01388277	      0.02680034
      2.57000000	      0.00517140	      0.01383955	      0.02633085
      2.58000000	      0.00515432	      0.01381668	      0.02621299
      2.59000000	      0.00515418	      0.01381650	      0.02621574
      2.60000000	      0.00516458	      0.01383042	      0.02626417
      2.61000000	      0.00515530	      0.01381800	      0.02572236
      2.62000000	      0.00516007	      0.01382438	      0.02576105
      2.63000000	      0.00517344	      0.01384228	      0.02549551
      2.64000000	      0.00521043	      0.01389168	      0.02566892
      2.65000000	      0.00522525	      0.01391142	      0.02543288
      2.66000000	      0.00525986	      0.01395743	      0.02518997
      2.67000000	      0.00531880	      0.01403541	      0.02540825
      2.68000000	      0.00533183	      0.01405258	      0.02517411
      2.69000000	      0.00538246	      0.01411915	      0.02527454
      2.70000000	      0.00540679	      0.01415102	      0.02502709
      2.71000000	      0.00541454	      0.01416116	      0.02507750
      2.72000000	      0.00543243	      0.01418453	      0.02499274
      2.73000000	      0.00544828	      0.01420522	      0.02501136
      2.74000000	      0.00544039	      0.01419492	      0.02504163
      2.75000000	      0.00543742	      0.01419105	      0.02492625
      2.76000000	      0.00536012	      0.01408982	      0.02482184
      2.77000000	      0.00533522	      0.01405705	      0.02479048
      2.78000000	      0.00525445	      0.01395024	      0.02485303
      2.79000000	      0.00521644	      0.01389969	      0.02480762
      2.80000000	      0.00517792	      0.01384828	      0.02460036
      2.81000000	      0.00511670	      0.01376617	      0.02467423
      2.82000000	      0.00509214	      0.01373309	      0.02448351
      2.83000000	      0.00507537	      0.01371046	      0.02428271
      2.84000000	      0.00507100	      0.01370455	      0.02410319
      2.85000000	      0.00503025	      0.01364938	      0.02410578
      2.86000000	      0.00499485	      0.01360126	      0.02420684
      2.87000000	      0.00498992	      0.01359455	      0.02403464
      2.88000000	      0.00499160	      0.01359683	      0.02399963
      2.89000000	      0.00499523	      0.01360178	      0.02403936
      2.90000000	      0.00499156	      0.01359679	      0.02385751
      2.91000000	      0.00496031	      0.01355415	      0.02382360
      2.92000000	      0.00495845	      0.01355161	      0.02386443
      2.93000000	      0.00495876	      0.01355203	      0.02386395
      2.94000000	      0.00493342	      0.01351737	      0.02381759
      2.95000000	      0.00492545	      0.01350645	      0.02382011
      2.96000000	      0.00491548	      0.01349277	      0.02394784
      2.97000000	      0.00490425	      0.01347735	      0.02390238
      2.98000000	      0.00490675	      0.01348078	      0.02400967
      2.99000000	      0.00490998	      0.01348521	      0.02408121
      3.00000000	      0.00490656	      0.01348052	      0.02422736
      3.01000000	      0.00491362	      0.01349022	      0.02411345
      3.02000000	      0.00488078	      0.01344507	      0.02409339
      3.03000000	      0.00489793	      0.01346865	      0.02420804
      3.04000000	      0.00488518	      0.01345112	      0.02415157
      3.05000000	      0.00489973	      0.01347114	      0.02427942
      3.06000000	      0.00487210	      0.01343310	      0.02426869
      3.07000000	      0.00486818	      0.01342769	      0.02422667
      3.08000000	      0.00486169	      0.01341874	      0.02436186
      3.09000000	      0.00485942	      0.01341561	      0.02440789
      3.10000000	      0.00484700	      0.01339845	      0.02417356
      3.11000000	      0.00484929	      0.01340161	      0.02442421
      3.12000000	      0.00485584	      0.01341067	      0.02447663
      3.13000000	      0.00485197	      0.01340531	      0.02447760
      3.14000000	      0.00487066	      0.01343112	      0.02458282
      3.15000000	      0.00487407	      0.01343582	      0.02459702
      3.16000000	      0.00489362	      0.01346273	      0.02477539
      3.17000000	      0.00491155	      0.01348738	      0.02489145
      3.18000000	      0.00493523	      0.01351985	      0.02489458
      3.19000000	      0.00497212	      0.01357028	      0.02499664
      3.20000000	      0.00498859	      0.01359274	      0.02527047
      3.21000000	      0.00501929	      0.01363450	      0.02548882
      3.22000000	      0.00504502	      0.01366940	      0.02575767
      3.23000000	      0.00508226	      0.01371976	      0.02606488
      3.24000000	      0.00512639	      0.01377919	      0.02640314
      3.25000000	      0.00515155	      0.01381297	      0.02687857
      3.26000000	      0.00519109	      0.01386588	      0.02745990
      3.27000000	      0.00522402	      0.01390979	      0.02804173
      3.28000000	      0.00525901	      0.01395629	      0.02880379
      3.29000000	      0.00528222	      0.01398706	      0.02950038
      3.30000000	      0.00530516	      0.01401740	      0.03038422
      3.31000000	      0.00533706	      0.01405948	      0.03154848
      3.32000000	      0.00535612	      0.01408456	      0.03238844
      3.33000000	      0.00536870	      0.01410110	      0.03350685
      3.34000000	      0.00540675	      0.01415097	      0.03449073
      3.35000000	      0.00542499	      0.01417482	      0.03553557
      3.36000000	      0.00546319	      0.01422464	      0.03641499
      3.37000000	      0.00547428	      0.01423907	      0.03745859
      3.38000000	      0.00549810	      0.01427001	      0.03803654
      3.39000000	      0.00551606	      0.01429330	      0.03855110
      3.40000000	      0.00551432	      0.01429105	      0.03906527
      3.41000000	      0.00554580	      0.01433178	      0.03932135
      3.42000000	      0.00555180	      0.01433953	      0.03981990
      3.43000000	      0.00558326	      0.01438011	      0.04013191
      3.44000000	      0.00566349	      0.01448306	      0.04018136
      3.45000000	      0.00573905	      0.01457935	      0.04063567
      3.46000000	      0.00585838	      0.01473014	      0.04092449
      3.47000000	      0.00598875	      0.01489313	      0.04156727
      3.48000000	      0.00614479	      0.01508592	      0.04217970
      3.49000000	      0.00632103	      0.01530072	      0.04288199
      3.50000000	      0.00649854	      0.01551408	      0.04365460
      3.51000000	      0.00667537	      0.01572374	      0.04447510
      3.52000000	      0.00681608	      0.01588860	      0.04541361
      3.53000000	      0.00696632	      0.01606274	      0.04612838
      3.54000000	      0.00705648	      0.01616635	      0.04695913
      3.55000000	      0.00720139	      0.01633150	      0.04728405
      3.56000000	      0.00719058	      0.01631924	      0.04802227
      3.57000000	      0.00726724	      0.01640600	      0.04795216
      3.58000000	      0.00718237	      0.01630993	      0.04818878
      3.59000000	      0.00713410	      0.01625503	      0.04794312
      3.60000000	      0.00714013	      0.01626190	      0.04690799
      3.61000000	      0.00696994	      0.01606692	      0.04650628
      3.62000000	      0.00691424	      0.01600260	      0.04522538
      3.63000000	      0.00677043	      0.01583529	      0.04412469
      3.64000000	      0.00667757	      0.01572633	      0.04265895
      3.65000000	      0.00659482	      0.01562858	      0.04114944
      3.66000000	      0.00659630	      0.01563033	      0.03939813
      3.67000000	      0.00653886	      0.01556213	      0.03791369
      3.68000000	      0.00658160	      0.01561290	      0.03635391
      3.69000000	      0.00659121	      0.01562430	      0.03480112
      3.70000000	      0.00666359	      0.01570986	      0.03343309
      3.71000000	      0.00675392	      0.01581598	      0.03348559
      3.72000000	      0.00679754	      0.01586698	      0.03471181
      3.73000000	      0.00674397	      0.01580432	      0.03328659
      3.74000000	      0.00673236	      0.01579071	      0.03366881
      3.75000000	      0.00666842	      0.01571555	      0.03390229
      3.76000000	      0.00650525	      0.01552209	      0.03246154
      3.77000000	      0.00636678	      0.01535600	      0.03179967
      3.78000000	      0.00619847	      0.01515166	      0.03047962
      3.79000000	      0.00603702	      0.01495304	      0.02916531
      3.80000000	      0.00587599	      0.01475226	      0.02843595
      3.81000000	      0.00571571	      0.01454967	      0.02814844
      3.82000000	      0.00558537	      0.01438282	      0.02806549
      3.83000000	      0.00549014	      0.01425968	      0.02803570
      3.84000000	      0.00541028	      0.01415559	      0.02791474
      3.85000000	      0.00536563	      0.01409706	      0.02779965
      3.86000000	      0.00532650	      0.01404556	      0.02775275
      3.87000000	      0.00529677	      0.01400631	      0.02774529
      3.88000000	      0.00530334	      0.01401499	      0.02777114
      3.89000000	      0.00531003	      0.01402383	      0.02769583
      3.90000000	      0.00533010	      0.01405031	      0.02778015
      3.91000000	      0.00534060	      0.01406414	      0.02755309
      3.92000000	      0.00535432	      0.01408219	      0.02756996
      3.93000000	      0.00535752	      0.01408639	      0.02746275
      3.94000000	      0.00535599	      0.01408439	      0.02741904
      3.95000000	      0.00534213	      0.01406615	      0.02724699
      3.96000000	      0.00532639	      0.01404542	      0.02709614
      3.97000000	      0.00529310	      0.01400145	      0.02681611
      3.98000000	      0.00525424	      0.01394996	      0.02655602
      3.99000000	      0.00520258	      0.01388122	      0.02639278
      4.00000000	      0.00515301	      0.01381492	      0.02604498
      4.01000000	      0.00510931	      0.01375622	      0.02590730
      4.02000000	      0.00502414	      0.01364109	      0.02534668
      4.03000000	      0.00495532	      0.01354733	      0.02501944
      4.04000000	      0.00487338	      0.01343487	      0.02457125
      4.05000000	      0.00479222	      0.01332252	      0.02424431
      4.06000000	      0.00470900	      0.01320633	      0.02399467
      4.07000000	      0.00462259	      0.01308461	      0.02352063
      4.08000000	      0.00454670	      0.01297675	      0.02327048
      4.09000000	      0.00448053	      0.01288198	      0.02293847
      4.10000000	      0.00440128	      0.01276755	      0.02268339
      4.11000000	      0.00434212	      0.01268145	      0.02258352
      4.12000000	      0.00429352	      0.01261028	      0.02235966
      4.13000000	      0.00425642	      0.01255569	      0.02220715
      4.14000000	      0.00422910	      0.01251532	      0.02221221
      4.15000000	      0.00420755	      0.01248340	      0.02188678
      4.16000000	      0.00420911	      0.01248571	      0.02200853
      4.17000000	      0.00423166	      0.01251912	      0.02248583
      4.18000000	      0.00423887	      0.01252978	      0.02240215
      4.19000000	      0.00426102	      0.01256247	      0.02231092
      4.20000000	      0.00431249	      0.01263810	      0.02262096
      4.21000000	      0.00435193	      0.01269578	      0.02282918
      4.22000000	      0.00440508	      0.01277306	      0.02288209
      4.23000000	      0.00447105	      0.01286835	      0.02315027
      4.24000000	      0.00456463	      0.01300232	      0.02349079
      4.25000000	      0.00459242	      0.01304184	      0.02365988
      4.26000000	      0.00466256	      0.01314106	      0.02386629
      4.27000000	      0.00472383	      0.01322712	      0.02405618
      4.28000000	      0.00475927	      0.01327664	      0.02415612
      4.29000000	      0.00479619	      0.01332804	      0.02475728
      4.30000000	      0.00482069	      0.01336204	      0.02551215
      4.31000000	      0.00482569	      0.01336897	      0.02613199
      4.32000000	      0.00481216	      0.01335021	      0.02645875
      4.33000000	      0.00476794	      0.01328874	      0.02639916
      4.34000000	      0.00472985	      0.01323555	      0.02643275
      4.35000000	      0.00468621	      0.01317435	      0.02623077
      4.36000000	      0.00463482	      0.01310191	      0.02588610
      4.37000000	      0.00458578	      0.01303241	      0.02528759
      4.38000000	      0.00453179	      0.01295547	      0.02517481
      4.39000000	      0.00448371	      0.01288656	      0.02512961
      4.40000000	      0.00443441	      0.01281551	      0.02497179
      4.41000000	      0.00439251	      0.01275482	      0.02476808
      4.42000000	      0.00435347	      0.01269801	      0.02456221
      4.43000000	      0.00431351	      0.01263961	      0.02421893
      4.44000000	      0.00428338	      0.01259539	      0.02387392
      4.45000000	      0.00425545	      0.01255425	      0.02347492
      4.46000000	      0.00423167	      0.01251912	      0.02306016
      4.47000000	      0.00421338	      0.01249204	      0.02256308
      4.48000000	      0.00420049	      0.01247291	      0.02213122
      4.49000000	      0.00416716	      0.01242334	      0.02175078
      4.50000000	      0.00415110	      0.01239937	      0.02127311
      4.51000000	      0.00413908	      0.01238141	      0.02075416
      4.52000000	      0.00412719	      0.01236360	      0.02056870
      4.53000000	      0.00407062	      0.01227859	      0.02063961
      4.54000000	      0.00404421	      0.01223868	      0.02074416
      4.55000000	      0.00402199	      0.01220502	      0.02091610
      4.56000000	      0.00398558	      0.01214965	      0.02097731
      4.57000000	      0.00395757	      0.01210689	      0.02110559
      4.58000000	      0.00394605	      0.01208925	      0.02123296
      4.59000000	      0.00395012	      0.01209549	      0.02154345
      4.60000000	      0.00390539	      0.01202680	      0.02144176
      4.61000000	      0.00390407	      0.01202478	      0.02176960
      4.62000000	      0.00386432	      0.01196339	      0.02176578
      4.63000000	      0.00385476	      0.01194860	      0.02189066
      4.64000000	      0.00384951	      0.01194046	      0.02197868
      4.65000000	      0.00384289	      0.01193018	      0.02212676
      4.66000000	      0.00383857	      0.01192347	      0.02229904
      4.67000000	      0.00383117	      0.01191198	      0.02248150
      4.68000000	      0.00381416	      0.01188551	      0.02253747
      4.69000000	      0.00381496	      0.01188676	      0.02270564
      4.70000000	      0.00382045	      0.01189530	      0.02290668
      4.71000000	      0.00383149	      0.01191247	      0.02299360
      4.72000000	      0.00386221	      0.01196014	      0.02320499
      4.73000000	      0.00388448	      0.01199457	      0.02330565
      4.74000000	      0.00391018	      0.01203418	      0.02345589
      4.75000000	      0.00394900	      0.01209377	      0.02357754
      4.76000000	      0.00398511	      0.01214894	      0.02384048
      4.77000000	      0.00403353	      0.01222251	      0.02401177
      4.78000000	      0.00408380	      0.01229845	      0.02414224
      4.79000000	      0.00410460	      0.01232973	      0.02436897
      4.80000000	      0.00414718	      0.01239352	      0.02463513
      4.81000000	      0.00419853	      0.01247002	      0.02476028
      4.82000000	      0.00422522	      0.01250958	      0.02520547
      4.83000000	      0.00427719	      0.01258629	      0.02541894
      4.84000000	      0.00432844	      0.01266146	      0.02576843
      4.85000000	      0.00436957	      0.01272147	      0.02619593
      4.86000000	      0.00443073	      0.01281020	      0.02658099
      4.87000000	      0.00448962	      0.01289504	      0.02718142
      4.88000000	      0.00454515	      0.01297455	      0.02762858
      4.89000000	      0.00460902	      0.01306539	      0.02829181
      4.90000000	      0.00466545	      0.01314513	      0.02891563
      4.91000000	      0.00473079	      0.01323686	      0.02976955
      4.92000000	      0.00479376	      0.01332466	      0.03051336
      4.93000000	      0.00486525	      0.01342366	      0.03135937
      4.94000000	      0.00495708	      0.01354974	      0.03231972
      4.95000000	      0.00505140	      0.01367805	      0.03347162
      4.96000000	      0.00514078	      0.01379852	      0.03439454
      4.97000000	      0.00526668	      0.01396647	      0.03537638
      4.98000000	      0.00538011	      0.01411607	      0.03629114
      4.99000000	      0.00548486	      0.01425282	      0.03720024
      5.00000000	      0.00557773	      0.01437298	      0.03811349
      5.01000000	      0.00567886	      0.01450269	      0.03855483
      5.02000000	      0.00574554	      0.01458759	      0.03923295
      5.03000000	      0.00582385	      0.01468666	      0.03941766
      5.04000000	      0.00586483	      0.01473825	      0.03981765
      5.05000000	      0.00592074	      0.01480834	      0.04002174
      5.06000000	      0.00599168	      0.01489678	      0.03990728
      5.07000000	      0.00603230	      0.01494719	      0.04021351
      5.08000000	      0.00609800	      0.01502837	      0.04038424
      5.09000000	      0.00619508	      0.01514752	      0.04027634
      5.10000000	      0.00628672	      0.01525915	      0.04061949
      5.11000000	      0.00640048	      0.01539658	      0.04089946
      5.12000000	      0.00652471	      0.01554529	      0.04135107
      5.13000000	      0.00667684	      0.01572547	      0.04185656
      5.14000000	      0.00683749	      0.01591353	      0.04241880
      5.15000000	      0.00696495	      0.01606117	      0.04327193
      5.16000000	      0.00714355	      0.01626579	      0.04384492
      5.17000000	      0.00730240	      0.01644565	      0.04454065
      5.18000000	      0.00748554	      0.01665059	      0.04512569
      5.19000000	      0.00752120	      0.01669021	      0.04629425
      5.20000000	      0.00767482	      0.01685979	      0.04662638
      5.21000000	      0.00771457	      0.01690339	      0.04730206
      5.22000000	      0.00782603	      0.01702506	      0.04737112
      5.23000000	      0.00783266	      0.01703228	      0.04767245
      5.24000000	      0.00786565	      0.01706811	      0.04760388
      5.25000000	      0.00790742	      0.01711337	      0.04726202
      5.26000000	      0.00787491	      0.01707815	      0.04713450
      5.27000000	      0.00790026	      0.01710561	      0.04645329
      5.28000000	      0.00784228	      0.01704273	      0.04602385
      5.29000000	      0.00784822	      0.01704919	      0.04508267
      5.30000000	      0.00784897	      0.01705001	      0.04416883
      5.31000000	      0.00773603	      0.01692689	      0.04358763
      5.32000000	      0.00770340	      0.01689116	      0.04258122
      5.33000000	      0.00765967	      0.01684314	      0.04154309
      5.34000000	      0.00765405	      0.01683696	      0.04021038
      5.35000000	      0.00757386	      0.01674853	      0.03924723
      5.36000000	      0.00754410	      0.01671559	      0.03807184
      5.37000000	      0.00750914	      0.01667682	      0.03681965
      5.38000000	      0.00751421	      0.01668245	      0.03551515
      5.39000000	      0.00746373	      0.01662632	      0.03441215
      5.40000000	      0.00747996	      0.01664439	      0.03407942
      5.41000000	      0.00741767	      0.01657493	      0.03367616
      5.42000000	      0.00739961	      0.01655475	      0.03405981
      5.43000000	      0.00738575	      0.01653923	      0.03466956
      5.44000000	      0.00732967	      0.01647633	      0.03466021
      5.45000000	      0.00728706	      0.01642836	      0.03487378
      5.46000000	      0.00724136	      0.01637676	      0.03500131
      5.47000000	      0.00718417	      0.01631197	      0.03511746
      5.48000000	      0.00709759	      0.01621338	      0.03454905
      5.49000000	      0.00702340	      0.01612842	      0.03442187
      5.50000000	      0.00694540	      0.01603861	      0.03430008
      5.51000000	      0.00684571	      0.01592309	      0.03380076
      5.52000000	      0.00675719	      0.01581981	      0.03341803
      5.53000000	      0.00666678	      0.01571362	      0.03295967
      5.54000000	      0.00657566	      0.01560587	      0.03243593
      5.55000000	      0.00649661	      0.01551178	      0.03198588
      5.56000000	      0.00642478	      0.01542579	      0.03156319
      5.57000000	      0.00636063	      0.01534858	      0.03125377
      5.58000000	      0.00631688	      0.01529570	      0.03092848
      5.59000000	      0.00629711	      0.01527175	      0.03079429
      5.60000000	      0.00629246	      0.01526610	      0.03084382
      5.61000000	      0.00631012	      0.01528752	      0.03092131
      5.62000000	      0.00634584	      0.01533073	      0.03111597
      5.63000000	      0.00639629	      0.01539155	      0.03147525
      5.64000000	      0.00646381	      0.01547257	      0.03178786
      5.65000000	      0.00652472	      0.01554530	      0.03225049
      5.66000000	      0.00659914	      0.01563370	      0.03257068
      5.67000000	      0.00666875	      0.01571594	      0.03280748
      5.68000000	      0.00671146	      0.01576619	      0.03299539
      5.69000000	      0.00676163	      0.01582500	      0.03308385
      5.70000000	      0.00679044	      0.01585868	      0.03297878
      5.71000000	      0.00678399	      0.01585115	      0.03292309
      5.72000000	      0.00678158	      0.01584834	      0.03265985
      5.73000000	      0.00676922	      0.01583388	      0.03232619
      5.74000000	      0.00672068	      0.01577701	      0.03195609
      5.75000000	      0.00668131	      0.01573073	      0.03152774
      5.76000000	      0.00662413	      0.01566328	      0.03086893
      5.77000000	      0.00657905	      0.01560989	      0.03057540
      5.78000000	      0.00650924	      0.01552685	      0.03004609
      5.79000000	      0.00644752	      0.01545306	      0.02958119
      5.80000000	      0.00638865	      0.01538235	      0.02910749
      5.81000000	      0.00631988	      0.01529933	      0.02850706
      5.82000000	      0.00625500	      0.01522060	      0.02821352
      5.83000000	      0.00621034	      0.01516617	      0.02783387
      5.84000000	      0.00615521	      0.01509870	      0.02777363
      5.85000000	      0.00612509	      0.01506171	      0.02788076
      5.86000000	      0.00608850	      0.01501666	      0.02784428
      5.87000000	      0.00606133	      0.01498312	      0.02790000
      5.88000000	      0.00604890	      0.01496774	      0.02801702
      5.89000000	      0.00605205	      0.01497164	      0.02839661
      5.90000000	      0.00604612	      0.01496430	      0.02852631
      5.91000000	      0.00602378	      0.01493663	      0.02858982
      5.92000000	      0.00603836	      0.01495469	      0.02889800
      5.93000000	      0.00602453	      0.01493757	      0.02896013
      5.94000000	      0.00602593	      0.01493930	      0.02920823
      5.95000000	      0.00600151	      0.01490900	      0.02920682
      5.96000000	      0.00598343	      0.01488652	      0.02923594
      5.97000000	      0.00595637	      0.01485282	      0.02922630
      5.98000000	      0.00592679	      0.01481589	      0.02925292
      5.99000000	      0.00587970	      0.01475692	      0.02914524
      6.00000000	      0.00582465	      0.01468767	      0.02876687
      6.01000000	      0.00576485	      0.01461208	      0.02868218
      6.02000000	      0.00569290	      0.01452061	      0.02850382
      6.03000000	      0.00561255	      0.01441778	      0.02828844
      6.04000000	      0.00554635	      0.01433250	      0.02801044
      6.05000000	      0.00546643	      0.01422886	      0.02788942
      6.06000000	      0.00540479	      0.01414841	      0.02784914
      6.07000000	      0.00534607	      0.01407135	      0.02752143
      6.08000000	      0.00528506	      0.01399082	      0.02752233
      6.09000000	      0.00524502	      0.01393772	      0.02758929
      6.10000000	      0.00521693	      0.01390034	      0.02762084
      6.11000000	      0.00521066	      0.01389200	      0.02770978
      6.12000000	      0.00518690	      0.01386028	      0.02742889
      6.13000000	      0.00520190	      0.01388031	      0.02755203
      6.14000000	      0.00520954	      0.01389050	      0.02754734
      6.15000000	      0.00524263	      0.01393455	      0.02768176
      6.16000000	      0.00528229	      0.01398715	      0.02775070
      6.17000000	      0.00530731	      0.01402023	      0.02776664
      6.18000000	      0.00535751	      0.01408638	      0.02802919
      6.19000000	      0.00540187	      0.01414458	      0.02809314
      6.20000000	      0.00537086	      0.01410393	      0.02799363
      6.21000000	      0.00539393	      0.01413418	      0.02800915
      6.22000000	      0.00541016	      0.01415544	      0.02791245
      6.23000000	      0.00540967	      0.01415479	      0.02784759
      6.24000000	      0.00535361	      0.01408127	      0.02783572
      6.25000000	      0.00533840	      0.01406124	      0.02779613
      6.26000000	      0.00529484	      0.01400376	      0.02751811
      6.27000000	      0.00527391	      0.01397605	      0.02754018
      6.28000000	      0.00523904	      0.01392977	      0.02740046
      6.29000000	      0.00515076	      0.01381191	      0.02726719
      6.30000000	      0.00510623	      0.01375208	      0.02719431
      6.31000000	      0.00505245	      0.01367947	      0.02698277
      6.32000000	      0.00499529	      0.01360186	      0.02681500
      6.33000000	      0.00491201	      0.01348800	      0.02682688
      6.34000000	      0.00486185	      0.01341896	      0.02666731
      6.35000000	      0.00481101	      0.01334862	      0.02653888
      6.36000000	      0.00474352	      0.01325465	      0.02626457
      6.37000000	      0.00465675	      0.01313287	      0.02619382
      6.38000000	      0.00459690	      0.01304820	      0.02594887
      6.39000000	      0.00454712	      0.01297737	      0.02574037
      6.40000000	      0.00448555	      0.01288920	      0.02559994
      6.41000000	      0.00445899	      0.01285098	      0.02531426
      6.42000000	      0.00442166	      0.01279708	      0.02508446
      6.43000000	      0.00443063	      0.01281005	      0.02487382
      6.44000000	      0.00446322	      0.01285708	      0.02463994
      6.45000000	      0.00447520	      0.01287432	      0.02459321
      6.46000000	      0.00453381	      0.01295835	      0.02453041
      6.47000000	      0.00459876	      0.01305083	      0.02435276
      6.48000000	      0.00459483	      0.01304526	      0.02433790
      6.49000000	      0.00464642	      0.01311829	      0.02435766
      6.50000000	      0.00469131	      0.01318152	      0.02433097
      6.51000000	      0.00470674	      0.01320317	      0.02432688
      6.52000000	      0.00472309	      0.01322609	      0.02447463
      6.53000000	      0.00474635	      0.01325861	      0.02472860
      6.54000000	      0.00477132	      0.01329344	      0.02494296
      6.55000000	      0.00479587	      0.01332760	      0.02505915
      6.56000000	      0.00484771	      0.01339944	      0.02539773
      6.57000000	      0.00491902	      0.01349763	      0.02550973
      6.58000000	      0.00498949	      0.01359396	      0.02587904
      6.59000000	      0.00508798	      0.01372748	      0.02627589
      6.60000000	      0.00519187	      0.01386693	      0.02631728
      6.61000000	      0.00534240	      0.01406651	      0.02636561
      6.62000000	      0.00547767	      0.01424348	      0.02665354
      6.63000000	      0.00564268	      0.01445642	      0.02665511
      6.64000000	      0.00580956	      0.01466864	      0.02789012
      6.65000000	      0.00598443	      0.01488776	      0.02948036
      6.66000000	      0.00616463	      0.01511025	      0.03107162
      6.67000000	      0.00631310	      0.01529112	      0.03267126
      6.68000000	      0.00647239	      0.01548283	      0.03410275
      6.69000000	      0.00661224	      0.01564920	      0.03546814
      6.70000000	      0.00674450	      0.01580495	      0.03640553
      6.71000000	      0.00683290	      0.01590818	      0.03758309
      6.72000000	      0.00692882	      0.01601946	      0.03812167
      6.73000000	      0.00698437	      0.01608355	      0.03892306
      6.74000000	      0.00704789	      0.01615651	      0.03934085
      6.75000000	      0.00709305	      0.01620819	      0.03993096
      6.76000000	      0.00713738	      0.01625877	      0.04040572
      6.77000000	      0.00719159	      0.01632039	      0.04112768
      6.78000000	      0.00725537	      0.01639260	      0.04120440
      6.79000000	      0.00731249	      0.01645700	      0.04152378
      6.80000000	      0.00739903	      0.01655410	      0.04197723
      6.81000000	      0.00749552	      0.01666169	      0.04254410
      6.82000000	      0.00756238	      0.01673583	      0.04348667
      6.83000000	      0.00771755	      0.01690666	      0.04384282
      6.84000000	      0.00783869	      0.01703883	      0.04468261
      6.85000000	      0.00791347	      0.01711991	      0.04599376
      6.86000000	      0.00809947	      0.01731994	      0.04647650
      6.87000000	      0.00819191	      0.01741849	      0.04752581
      6.88000000	      0.00839027	      0.01762812	      0.04787070
      6.89000000	      0.00846173	      0.01770303	      0.04863083
      6.90000000	      0.00863330	      0.01788161	      0.04859998
      6.91000000	      0.00868544	      0.01793552	      0.04887353
      6.92000000	      0.00880452	      0.01805805	      0.04836356
      6.93000000	      0.00887667	      0.01813189	      0.04776662
      6.94000000	      0.00877906	      0.01803193	      0.04751957
      6.95000000	      0.00877259	      0.01802528	      0.04633513
      6.96000000	      0.00871736	      0.01796845	      0.04507497
      6.97000000	      0.00852619	      0.01777033	      0.04408538
      6.98000000	      0.00841000	      0.01764884	      0.04235087
      6.99000000	      0.00821945	      0.01744775	      0.04088040
      7.00000000	      0.00801130	      0.01722541	      0.03924114
      7.01000000	      0.00781447	      0.01701249	      0.03749196
      7.02000000	      0.00763834	      0.01681968	      0.03576073
      7.03000000	      0.00744803	      0.01660882	      0.03406235
      7.04000000	      0.00732694	      0.01647326	      0.03228388
      7.05000000	      0.00715020	      0.01627336	      0.03129461
      7.06000000	      0.00703708	      0.01614412	      0.03165363
      7.07000000	      0.00695288	      0.01604724	      0.03139057
      7.08000000	      0.00688794	      0.01597213	      0.03166732
      7.09000000	      0.00682195	      0.01589544	      0.03157272
      7.10000000	      0.00680215	      0.01587235	      0.03201169
      7.11000000	      0.00680143	      0.01587150	      0.03244849
      7.12000000	      0.00676651	      0.01583071	      0.03231844
      7.13000000	      0.00678196	      0.01584877	      0.03316166
      7.14000000	      0.00676967	      0.01583441	      0.03255762
      7.15000000	      0.00677101	      0.01583598	      0.03307667
      7.16000000	      0.00676771	      0.01583212	      0.03327229
      7.17000000	      0.00675141	      0.01581304	      0.03214742
      7.18000000	      0.00672075	      0.01577709	      0.03200440
      7.19000000	      0.00668808	      0.01573870	      0.03156014
      7.20000000	      0.00665090	      0.01569489	      0.03084602
      7.21000000	      0.00661111	      0.01564787	      0.03039664
      7.22000000	      0.00656950	      0.01559855	      0.03023377
      7.23000000	      0.00653333	      0.01555555	      0.03051514
      7.24000000	      0.00649214	      0.01550643	      0.03056979
      7.25000000	      0.00644140	      0.01544572	      0.03050971
      7.26000000	      0.00640699	      0.01540441	      0.03054308
      7.27000000	      0.00637353	      0.01536414	      0.03066147
      7.28000000	      0.00633871	      0.01532211	      0.03060656
      7.29000000	      0.00631261	      0.01529053	      0.03063544
      7.30000000	      0.00628368	      0.01525545	      0.03070037
      7.31000000	      0.00625881	      0.01522524	      0.03082006
      7.32000000	      0.00623353	      0.01519445	      0.03079682
      7.33000000	      0.00621567	      0.01517268	      0.03088288
      7.34000000	      0.00620427	      0.01515875	      0.03091656
      7.35000000	      0.00619915	      0.01515250	      0.03092852
      7.36000000	      0.00619542	      0.01514794	      0.03085956
      7.37000000	      0.00618810	      0.01513898	      0.03097462
      7.38000000	      0.00619094	      0.01514246	      0.03091009
      7.39000000	      0.00618861	      0.01513961	      0.03069076
      7.40000000	      0.00617741	      0.01512590	      0.03067778
      7.41000000	      0.00617285	      0.01512032	      0.03062839
      7.42000000	      0.00615223	      0.01509504	      0.03032184
      7.43000000	      0.00613188	      0.01507006	      0.03025856
      7.44000000	      0.00607582	      0.01500102	      0.03008679
      7.45000000	      0.00603314	      0.01494823	      0.02980754
      7.46000000	      0.00598089	      0.01488336	      0.02968832
      7.47000000	      0.00591744	      0.01480420	      0.02951926
      7.48000000	      0.00584398	      0.01471203	      0.02930429
      7.49000000	      0.00579530	      0.01465063	      0.02935042
      7.50000000	      0.00573103	      0.01456915	      0.02917267
      7.51000000	      0.00566540	      0.01448549	      0.02893522
      7.52000000	      0.00562398	      0.01443245	      0.02887852
      7.53000000	      0.00558007	      0.01437599	      0.02877628
      7.54000000	      0.00554460	      0.01433023	      0.02870184
      7.55000000	      0.00552199	      0.01430099	      0.02876975
      7.56000000	      0.00548640	      0.01425483	      0.02850017
      7.57000000	      0.00545179	      0.01420979	      0.02837120
      7.58000000	      0.00542753	      0.01417813	      0.02835928
      7.59000000	      0.00538468	      0.01412206	      0.02810857
      7.60000000	      0.00535218	      0.01407938	      0.02799944
      7.61000000	      0.00531118	      0.01402534	      0.02778180
      7.62000000	      0.00528103	      0.01398548	      0.02765979
      7.63000000	      0.00524992	      0.01394423	      0.02754536
      7.64000000	      0.00521028	      0.01389149	      0.02720196
      7.65000000	      0.00518053	      0.01385176	      0.02700808
      7.66000000	      0.00515721	      0.01382056	      0.02681407
      7.67000000	      0.00514329	      0.01380189	      0.02666426
      7.68000000	      0.00512508	      0.01377744	      0.02653941
      7.69000000	      0.00513220	      0.01378700	      0.02651646
      7.70000000	      0.00510955	      0.01375655	      0.02608947
      7.71000000	      0.00512431	      0.01377640	      0.02600225
      7.72000000	      0.00514971	      0.01381051	      0.02612826
      7.73000000	      0.00513767	      0.01379435	      0.02615338
      7.74000000	      0.00516287	      0.01382814	      0.02622237
      7.75000000	      0.00519192	      0.01386699	      0.02625954
      7.76000000	      0.00522817	      0.01391531	      0.02634380
      7.77000000	      0.00526151	      0.01395961	      0.02624673
      7.78000000	      0.00530978	      0.01402350	      0.02618957
      7.79000000	      0.00534554	      0.01407064	      0.02637710
      7.80000000	      0.00538106	      0.01411731	      0.02640106
      7.81000000	      0.00541150	      0.01415719	      0.02647695
      7.82000000	      0.00543016	      0.01418157	      0.02645669
      7.83000000	      0.00543027	      0.01418171	      0.02645464
      7.84000000	      0.00541674	      0.01416403	      0.02643555
      7.85000000	      0.00538369	      0.01412076	      0.02631149
      7.86000000	      0.00533964	      0.01406287	      0.02628655
      7.87000000	      0.00528037	      0.01398461	      0.02622960
      7.88000000	      0.00521153	      0.01389315	      0.02612971
      7.89000000	      0.00512644	      0.01377926	      0.02600209
      7.90000000	      0.00506195	      0.01369232	      0.02588461
      7.91000000	      0.00497842	      0.01357887	      0.02581605
      7.92000000	      0.00490743	      0.01348171	      0.02563880
      7.93000000	      0.00483737	      0.01338513	      0.02560206
      7.94000000	      0.00478002	      0.01330556	      0.02554665
      7.95000000	      0.00471023	      0.01320806	      0.02523235
      7.96000000	      0.00466590	      0.01314577	      0.02497840
      7.97000000	      0.00464581	      0.01311743	      0.02497988
      7.98000000	      0.00461442	      0.01307304	      0.02477422
      7.99000000	      0.00459436	      0.01304460	      0.02465671
      8.00000000	      0.00457042	      0.01301056	      0.02431334
      8.01000000	      0.00456140	      0.01299772	      0.02430037
      8.02000000	      0.00448598	      0.01288982	      0.02409582
      8.03000000	      0.00447447	      0.01287327	      0.02393919
      8.04000000	      0.00444952	      0.01283733	      0.02374340
      8.05000000	      0.00443188	      0.01281186	      0.02348716
      8.06000000	      0.00438843	      0.01274889	      0.02321408
      8.07000000	      0.00437528	      0.01272979	      0.02311262
      8.08000000	      0.00432002	      0.01264913	      0.02301845
      8.09000000	      0.00431092	      0.01263581	      0.02276560
      8.10000000	      0.00431232	      0.01263787	      0.02259527
      8.11000000	      0.00432494	      0.01265635	      0.02240376
      8.12000000	      0.00429661	      0.01261482	      0.02261729
      8.13000000	      0.00432075	      0.01265021	      0.02258037
      8.14000000	      0.00435919	      0.01270636	      0.02252055
      8.15000000	      0.00437475	      0.01272901	      0.02258841
      8.16000000	      0.00441061	      0.01278108	      0.02270937
      8.17000000	      0.00443953	      0.01282291	      0.02282964
      8.18000000	      0.00446504	      0.01285969	      0.02284632
      8.19000000	      0.00447877	      0.01287945	      0.02295883
      8.20000000	      0.00446803	      0.01286400	      0.02302164
      8.21000000	      0.00447112	      0.01286846	      0.02310715
      8.22000000	      0.00446587	      0.01286089	      0.02328730
      8.23000000	      0.00445468	      0.01284478	      0.02322767
      8.24000000	      0.00444519	      0.01283108	      0.02342356
      8.25000000	      0.00444183	      0.01282623	      0.02318147
      8.26000000	      0.00444273	      0.01282753	      0.02309464
      8.27000000	      0.00445206	      0.01284099	      0.02278428
      8.28000000	      0.00447870	      0.01287935	      0.02297507
      8.29000000	      0.00452729	      0.01294903	      0.02361060
      8.30000000	      0.00459393	      0.01304399	      0.02435452
      8.31000000	      0.00468138	      0.01316755	      0.02546549
      8.32000000	      0.00480307	      0.01333759	      0.02665579
      8.33000000	      0.00494235	      0.01352960	      0.02803402
      8.34000000	      0.00510611	      0.01375192	      0.02947816
      8.35000000	      0.00528897	      0.01399599	      0.03097386
      8.36000000	      0.00547716	      0.01424281	      0.03252387
      8.37000000	      0.00568175	      0.01450638	      0.03399335
      8.38000000	      0.00587914	      0.01475622	      0.03543592
      8.39000000	      0.00607123	      0.01499535	      0.03687525
      8.40000000	      0.00627789	      0.01524843	      0.03772943
      8.41000000	      0.00643977	      0.01544377	      0.03882833
      8.42000000	      0.00660880	      0.01564514	      0.03987270
      8.43000000	      0.00675714	      0.01581975	      0.04051458
      8.44000000	      0.00689398	      0.01597913	      0.04122361
      8.45000000	      0.00701982	      0.01612431	      0.04174722
      8.46000000	      0.00714894	      0.01627193	      0.04187563
      8.47000000	      0.00726079	      0.01639873	      0.04241928
      8.48000000	      0.00737763	      0.01653014	      0.04283591
      8.49000000	      0.00748503	      0.01665003	      0.04335813
      8.50000000	      0.00759209	      0.01676868	      0.04376140
      8.51000000	      0.00767454	      0.01685949	      0.04448984
      8.52000000	      0.00778990	      0.01698572	      0.04498417
      8.53000000	      0.00793966	      0.01714823	      0.04530498
      8.54000000	      0.00799012	      0.01720262	      0.04625586
      8.55000000	      0.00814104	      0.01736433	      0.04650042
      8.56000000	      0.00823566	      0.01746495	      0.04716576
      8.57000000	      0.00837786	      0.01761508	      0.04731159
      8.58000000	      0.00856145	      0.01780704	      0.04719364
      8.59000000	      0.00873807	      0.01798978	      0.04701496
      8.60000000	      0.00872887	      0.01798030	      0.04736607
      8.61000000	      0.00886433	      0.01811928	      0.04670844
      8.62000000	      0.00897457	      0.01823161	      0.04594711
      8.63000000	      0.00889162	      0.01814716	      0.04577479
      8.64000000	      0.00891089	      0.01816681	      0.04464755
      8.65000000	      0.00887015	      0.01812523	      0.04349090
      8.66000000	      0.00870713	      0.01795790	      0.04262294
      8.67000000	      0.00861302	      0.01786059	      0.04118330
      8.68000000	      0.00845228	      0.01769314	      0.03991330
      8.69000000	      0.00827621	      0.01750789	      0.03847127
      8.70000000	      0.00813648	      0.01735947	      0.03698199
      8.71000000	      0.00800255	      0.01721600	      0.03542355
      8.72000000	      0.00785305	      0.01705444	      0.03404347
      8.73000000	      0.00773466	      0.01692540	      0.03330189
      8.74000000	      0.00766083	      0.01684442	      0.03363139
      8.75000000	      0.00755910	      0.01673220	      0.03386834
      8.76000000	      0.00747423	      0.01663801	      0.03360576
      8.77000000	      0.00740967	      0.01656600	      0.03389541
      8.78000000	      0.00737133	      0.01652308	      0.03410521
      8.79000000	      0.00729709	      0.01643967	      0.03421823
      8.80000000	      0.00726412	      0.01640248	      0.03434564
      8.81000000	      0.00722574	      0.01635909	      0.03453534
      8.82000000	      0.00720021	      0.01633017	      0.03487925
      8.83000000	      0.00713279	      0.01625353	      0.03420545
      8.84000000	      0.00709565	      0.01621116	      0.03377636
      8.85000000	      0.00706805	      0.01617960	      0.03392252
      8.86000000	      0.00703791	      0.01614507	      0.03389380
      8.87000000	      0.00700097	      0.01610265	      0.03310366
