PathFileType	4	(X/Y/Z)	TVC_58_Cal_02_0_static_RCNL2025.trc
DataRate	CameraRate	NumFrames	NumMarkers	Units	OrigDataRate	OrigDataStartFrame	OrigNumFrames
100	100	102	27	mm	100	1	102
Frame#	Time	R_Shoulder			L_Shoulder			C7			J_Notch			R_Elbow			L_Elbow			R_Wrist			L_Wrist			R_Asis			L_Asis			R_Psis			L_Psis			Sacral			Thoracic			Sternum			R_Thigh_Lateral			R_Knee_Lateral			R_Shank_Lateral			R_Ankle_Lateral			R_Heel			R_Toe			L_Thigh_Lateral			L_Knee_Lateral			L_Shank_Lateral			L_Ankle_Lateral			L_Heel			L_Toe		
		X1	Y1	Z1	X2	Y2	Z2	X3	Y3	Z3	X4	Y4	Z4	X5	Y5	Z5	X6	Y6	Z6	X7	Y7	Z7	X8	Y8	Z8	X9	Y9	Z9	X10	Y10	Z10	X11	Y11	Z11	X12	Y12	Z12	X13	Y13	Z13	X14	Y14	Z14	X15	Y15	Z15	X16	Y16	Z16	X17	Y17	Z17	X18	Y18	Z18	X19	Y19	Z19	X20	Y20	Z20	X21	Y21	Z21	X22	Y22	Z22	X23	Y23	Z23	X24	Y24	Z24	X25	Y25	Z25	X26	Y26	Z26	X27	Y27	Z27
1	0.00000000	-282.910889	1354.406006	-28.654985	-270.337952	1363.022339	-383.695770	-338.724457	1426.335327	-214.655792	-189.083878	1332.507812	-204.230560	-301.149200	1043.870239	54.062344	-321.449829	1053.817261	-458.532684	-217.237724	805.749298	87.065262	-262.375053	813.816040	-511.745026	-172.732925	910.382202	-59.363567	-164.842316	907.065186	-367.660828	-393.894745	965.747375	-152.571991	-395.725525	958.789978	-264.384949	-394.810135	962.268677	-208.478470	-375.253815	1119.734741	-212.670105	-84.059418	1082.872803	-212.785934	-226.442581	704.838623	30.681093	-236.131363	470.343719	-49.544617	-277.143280	273.067383	-2.903078	-308.551605	70.271599	-97.802330	-356.145813	61.384716	-156.176376	-178.831070	46.441330	-117.934395	-267.224884	676.122314	-447.659241	-236.367905	469.536957	-345.619873	-276.165619	286.601379	-404.580048	-322.710175	65.011879	-315.524384	-363.325378	57.899021	-262.037170	-184.328003	44.513805	-303.993256
2	0.01000000	-283.037354	1354.410889	-28.635355	-270.400238	1363.004150	-383.655945	-338.725067	1426.292358	-214.657562	-189.181229	1332.533691	-204.244049	-301.248352	1043.836792	54.014233	-321.395874	1053.744995	-458.498230	-217.190575	805.679840	87.072262	-262.426491	813.833954	-511.761963	-173.170441	910.317383	-59.454647	-164.877121	907.061462	-367.592163	-393.931732	965.791809	-152.501053	-395.790771	958.808105	-264.211914	-394.861252	962.299957	-208.356483	-375.332886	1119.708252	-212.599945	-84.132126	1082.828735	-212.728836	-226.532654	704.800842	30.709812	-236.165863	470.358429	-49.519638	-277.194489	273.161530	-2.856153	-308.646271	70.216553	-97.823174	-356.069946	61.373734	-156.241348	-178.842911	46.454674	-117.927795	-267.130890	676.124146	-447.637512	-236.384628	469.528107	-345.604095	-276.071472	286.607574	-404.450745	-322.700562	65.021843	-315.528809	-363.355133	57.811882	-262.060638	-184.339401	44.527748	-303.966125
3	0.02000000	-283.107880	1354.453003	-28.533607	-270.457794	1363.000977	-383.580139	-338.826294	1426.304810	-214.592545	-189.168396	1332.585693	-204.194458	-301.323761	1043.844360	54.055439	-321.422852	1053.769165	-458.478699	-217.113686	805.769318	87.079073	-262.461769	813.791138	-511.745667	-173.353104	910.233398	-59.433109	-164.962158	907.086426	-367.489166	-394.012268	965.792419	-152.460037	-395.896454	958.773987	-264.122925	-394.954361	962.283203	-208.291481	-375.338593	1119.708984	-212.595901	-84.277771	1082.852539	-212.714828	-226.565704	704.774597	30.728024	-236.204849	470.375336	-49.475189	-277.174286	273.084167	-2.773778	-308.353363	70.431725	-97.879837	-356.138489	61.323879	-156.186981	-178.838821	46.450340	-117.931824	-267.082184	676.092896	-447.615387	-236.451523	469.536133	-345.531799	-276.078369	286.605438	-404.387634	-322.760284	65.077248	-315.522247	-363.298615	57.796295	-262.069183	-184.348572	44.503437	-303.938416
4	0.03000000	-283.021271	1354.390991	-28.563944	-270.511230	1362.952026	-383.591553	-338.816040	1426.288696	-214.576691	-189.278961	1332.472778	-204.072403	-301.343323	1043.833984	54.066544	-321.377167	1053.744141	-458.441711	-217.210907	805.688782	87.074982	-262.519890	813.800964	-511.798477	-173.478409	910.182251	-59.440868	-164.959091	907.066833	-367.465149	-394.019897	965.787109	-152.457001	-395.979523	958.757812	-264.080780	-394.999710	962.272461	-208.268890	-375.388397	1119.739624	-212.461914	-84.306053	1082.764282	-212.707870	-226.757034	704.777405	30.927464	-236.135315	470.253052	-49.528133	-277.238342	273.160065	-2.897997	-308.346588	70.454773	-97.847580	-356.158295	61.325195	-156.174164	-178.773407	46.437954	-117.904907	-267.028442	676.078674	-447.474518	-236.447388	469.539154	-345.554657	-276.184448	286.560150	-404.487823	-322.752869	65.046700	-315.601440	-363.344208	57.785381	-262.059448	-184.278030	44.460381	-303.973969
5	0.04000000	-283.058441	1354.342407	-28.531979	-270.514282	1362.971558	-383.544891	-338.796326	1426.321289	-214.480698	-189.317535	1332.473877	-203.984055	-301.413513	1043.788086	54.139156	-321.465973	1053.713745	-458.418549	-217.238403	805.645844	87.035660	-262.521095	813.789001	-511.787186	-173.485321	910.160278	-59.396553	-165.021027	907.041748	-367.433899	-394.074158	965.833557	-152.309998	-396.011078	958.694153	-264.026154	-395.042618	962.263855	-208.168076	-375.483887	1119.683838	-212.360519	-84.387878	1082.723755	-212.563049	-226.785095	704.735535	30.950109	-236.103058	470.231995	-49.545799	-277.288422	273.002380	-2.873713	-308.352753	70.461067	-97.889771	-356.210388	61.351536	-156.218628	-178.832169	46.417160	-117.959549	-267.064697	676.113037	-447.543701	-236.441483	469.518860	-345.510742	-276.204834	286.508301	-404.419159	-322.751862	65.058525	-315.592865	-363.369476	57.817429	-262.041931	-184.342514	44.560707	-303.948486
6	0.05000000	-283.233185	1354.397217	-28.393631	-270.492737	1362.878906	-383.464355	-338.868286	1426.279175	-214.424454	-189.402832	1332.315308	-203.879440	-301.474823	1043.826050	54.155708	-321.482056	1053.702148	-458.411591	-217.289452	805.635742	87.082537	-262.478317	813.815704	-511.768326	-173.474716	910.214417	-59.279118	-165.050507	907.093872	-367.355469	-394.099396	965.812622	-152.304703	-396.107056	958.750732	-263.957275	-395.103226	962.281677	-208.130989	-375.491821	1119.681641	-212.356369	-84.436142	1082.709595	-212.496613	-226.931564	704.784485	30.938499	-236.252670	470.306641	-49.442879	-277.286774	272.913269	-2.820130	-308.393402	70.458107	-97.835022	-356.177216	61.341301	-156.216049	-178.908005	46.497158	-117.963257	-267.020477	676.132385	-447.435883	-236.377213	469.505005	-345.449097	-276.183411	286.487274	-404.340118	-322.763123	65.032333	-315.560883	-363.350647	57.819321	-262.059998	-184.315140	44.468704	-304.028442
7	0.06000000	-283.244324	1354.399780	-28.396900	-270.484711	1362.879028	-383.354675	-338.897858	1426.302246	-214.395050	-189.480667	1332.381836	-203.847946	-301.499451	1043.810181	54.186546	-321.454865	1053.660278	-458.333557	-217.405746	805.675568	87.192541	-262.531448	813.803955	-511.749237	-173.238098	910.356201	-59.126637	-165.049728	907.142456	-367.316833	-394.182373	965.815491	-152.211060	-396.145569	958.729004	-263.748840	-395.163971	962.272247	-207.979950	-375.605011	1119.741333	-212.243835	-84.391388	1082.647339	-212.463425	-226.980209	705.034851	31.048038	-236.322281	470.337555	-49.404228	-277.305847	272.956116	-2.729048	-308.356293	70.488663	-97.883713	-356.162598	61.332932	-156.212585	-178.854919	46.424564	-117.931129	-267.081360	676.153076	-447.356781	-236.438873	469.548737	-345.483459	-276.106873	286.509674	-404.425323	-322.722076	65.024658	-315.553253	-363.339050	57.640869	-262.012695	-184.301300	44.517139	-303.931915
8	0.07000000	-283.294067	1354.402588	-28.368959	-270.591614	1362.835693	-383.330902	-338.898468	1426.304932	-214.362259	-189.495438	1332.393555	-203.807037	-301.572815	1043.780762	54.241749	-321.512390	1053.668701	-458.292694	-217.348824	805.589783	87.135244	-262.572006	813.826508	-511.764771	-173.045868	910.430481	-58.994991	-165.110931	907.127686	-367.279358	-394.268829	965.837280	-152.157089	-396.178864	958.716248	-263.765869	-395.223846	962.276764	-207.961479	-375.649384	1119.726562	-212.190918	-84.550835	1082.724609	-212.305771	-226.965302	705.035278	31.000195	-236.324020	470.338501	-49.388226	-277.268158	273.070312	-2.766201	-308.339630	70.486938	-97.895515	-356.153778	61.326881	-156.179779	-178.829193	46.437958	-117.933754	-267.084778	676.192627	-447.316071	-236.384079	469.606079	-345.378937	-276.090851	286.530792	-404.419037	-322.772491	65.077263	-315.522583	-363.349121	57.787308	-262.037354	-184.340897	44.506130	-303.959686
9	0.08000000	-283.404205	1354.436401	-28.312025	-270.565033	1362.848511	-383.301605	-339.016998	1426.384033	-214.272171	-189.584656	1332.338867	-203.687378	-301.633759	1043.812744	54.294083	-321.542450	1053.625366	-458.343079	-217.407646	805.609985	87.218853	-262.562035	813.818054	-511.724945	-173.248795	910.314941	-59.047050	-165.140503	907.171021	-367.253418	-394.210419	965.825928	-152.094513	-396.250793	958.740173	-263.738586	-395.230606	962.283051	-207.916550	-375.719604	1119.755737	-212.151978	-84.489891	1082.799805	-212.169312	-227.278610	704.946228	31.329885	-236.344116	470.352661	-49.372898	-277.278809	273.125946	-2.778745	-308.380463	70.447746	-97.933998	-356.149811	61.378780	-156.177536	-178.829147	46.441559	-117.934937	-267.119019	676.191162	-447.237823	-236.364578	469.554779	-345.334656	-276.024902	286.586761	-404.279694	-322.764832	65.091438	-315.494537	-363.298035	57.860172	-262.073273	-184.289444	44.504471	-303.911591
10	0.09000000	-283.361267	1354.585571	-28.256205	-270.655243	1362.805054	-383.170319	-338.953094	1426.335083	-214.233734	-189.659500	1332.260010	-203.609299	-301.735779	1043.888062	54.373428	-321.506500	1053.661743	-458.215363	-217.380295	805.737793	87.322872	-262.492615	813.826996	-511.663467	-173.531967	910.294312	-59.129280	-165.204727	907.241760	-367.255615	-394.232422	965.805664	-152.046555	-396.267120	958.685059	-263.657593	-395.249771	962.245361	-207.852074	-375.727112	1119.759888	-212.118942	-84.534637	1082.770508	-211.991516	-227.553879	704.959900	31.547424	-236.289001	470.360687	-49.292393	-277.309601	273.086761	-2.730532	-308.348907	70.481155	-97.898140	-356.124329	61.329388	-156.210571	-178.826706	46.447590	-117.996246	-267.136200	676.164490	-447.190826	-236.354813	469.580261	-345.300690	-276.039612	286.646332	-404.311859	-322.675720	65.070068	-315.470062	-363.298492	57.849495	-261.990631	-184.385483	44.547924	-303.895020
11	0.10000000	-283.498047	1354.438721	-28.175472	-270.712006	1362.823242	-383.068756	-339.037354	1426.290894	-214.129608	-189.820114	1332.272095	-203.596207	-301.740967	1043.853516	54.474415	-321.581238	1053.660156	-458.119507	-217.468903	805.614868	87.373962	-262.562820	813.836090	-511.643295	-173.824219	910.348083	-59.114124	-165.289871	907.172729	-367.195282	-394.333374	965.844238	-151.971771	-396.334869	958.687866	-263.610016	-395.334122	962.266052	-207.790894	-375.760132	1119.691284	-211.989197	-84.626091	1082.748291	-211.918228	-227.619873	704.989868	31.617201	-236.284790	470.350800	-49.283066	-277.301880	273.078522	-2.638814	-308.424194	70.507072	-97.790024	-356.116241	61.301319	-156.193863	-178.898926	46.535809	-117.966576	-267.172943	676.206909	-447.131714	-236.277939	469.585358	-345.254669	-276.020905	286.606567	-404.252777	-322.663757	65.041595	-315.481750	-363.299072	57.844345	-261.979309	-184.283310	44.544582	-303.822327
12	0.11000000	-283.609863	1354.414673	-28.045229	-270.724884	1362.784546	-383.114197	-339.144287	1426.341431	-214.062943	-189.925598	1332.254028	-203.474579	-301.794464	1043.825195	54.511971	-321.560059	1053.588013	-458.051331	-217.433098	805.685577	87.489946	-262.556847	813.757751	-511.570938	-174.063705	910.407654	-59.106544	-165.299393	907.208191	-367.170502	-394.330261	965.750183	-152.036301	-396.298859	958.677979	-263.519226	-395.314560	962.214081	-207.777763	-375.855774	1119.741089	-212.006378	-84.755951	1082.732056	-211.958908	-227.730637	705.083618	31.716497	-236.353607	470.310303	-49.255844	-277.459656	272.995819	-2.604861	-308.346313	70.607803	-97.898872	-356.200317	61.215187	-156.188614	-178.901581	46.528709	-117.961655	-267.290100	676.265442	-446.988007	-236.265732	469.576813	-345.247864	-275.954407	286.532227	-404.172241	-322.657104	65.037567	-315.448669	-363.298523	57.844086	-261.984253	-184.280579	44.514172	-303.809723
13	0.12000000	-283.394623	1354.531494	-28.074829	-270.772064	1362.717041	-382.980225	-339.159698	1426.347412	-214.053192	-189.962173	1332.241089	-203.394241	-301.977478	1044.016846	54.815563	-321.559540	1053.571289	-458.039093	-217.503647	805.610413	87.476419	-262.591888	813.718262	-511.505615	-174.055496	910.223389	-59.006325	-165.306580	907.209290	-367.024933	-394.390961	965.733704	-151.944122	-396.316895	958.635071	-263.482056	-395.353928	962.184387	-207.713089	-375.897736	1119.751221	-211.866226	-84.856049	1082.670898	-211.829559	-227.593323	704.934082	31.626026	-236.399307	470.325256	-49.222446	-277.421173	273.052612	-2.619652	-308.400116	70.534966	-97.852257	-356.106689	61.301445	-156.232758	-178.896011	46.524437	-117.964111	-267.191254	676.177063	-447.084930	-236.265808	469.568481	-345.241974	-275.975983	286.512878	-404.274261	-322.654388	65.022888	-315.463074	-363.100800	57.593357	-262.015106	-184.261200	44.457188	-303.873291
14	0.13000000	-283.696472	1354.419800	-27.967318	-270.793640	1362.710327	-382.927765	-339.156525	1426.278076	-214.011627	-190.014465	1332.224854	-203.313065	-302.063904	1044.041870	54.884109	-321.576141	1053.498047	-457.988220	-217.546127	805.560913	87.514633	-262.600098	813.716492	-511.466248	-173.971588	910.190552	-58.921783	-165.298065	907.228210	-366.964325	-394.479065	965.770386	-151.956833	-396.475739	958.611694	-263.324860	-395.477402	962.191040	-207.640846	-375.907166	1119.710205	-211.834137	-84.838181	1082.666138	-211.665985	-227.599762	704.914490	31.789011	-236.435089	470.163635	-49.146137	-277.350098	273.016479	-2.749120	-308.325378	70.445869	-97.877792	-356.114136	61.280895	-156.194168	-178.894867	46.524273	-117.964790	-267.224426	676.176819	-447.048523	-236.271225	469.528412	-345.209137	-276.018646	286.518982	-404.234192	-322.708130	65.093849	-315.465515	-363.301392	57.646519	-261.976990	-184.269226	44.486271	-303.866394
15	0.14000000	-283.754608	1354.404175	-27.898483	-270.884125	1362.678589	-382.866974	-339.272156	1426.301025	-213.927490	-190.013702	1332.154297	-203.144897	-302.011414	1043.817139	54.674507	-321.602844	1053.537476	-457.856140	-217.579826	805.706726	87.726641	-262.542816	813.654083	-511.283142	-174.068298	910.100830	-58.936859	-165.374847	907.183167	-366.918121	-394.493622	965.752563	-151.972137	-396.418243	958.631287	-263.406067	-395.455933	962.191925	-207.689102	-375.977051	1119.695557	-211.800751	-84.836365	1082.679810	-211.554764	-227.548233	704.964111	31.723448	-236.316788	470.293793	-49.167095	-277.356506	272.907257	-2.459003	-308.450745	70.508255	-97.755302	-356.135742	61.324738	-156.178543	-178.895126	46.524441	-117.964668	-267.238647	676.177917	-446.994415	-236.218079	469.654327	-345.191040	-275.926697	286.614899	-404.084229	-322.678619	65.065018	-315.478699	-363.245819	57.811810	-262.010712	-184.309662	44.526798	-303.896851
16	0.15000000	-283.816071	1354.377563	-27.864616	-270.959625	1362.662354	-382.798096	-339.362976	1426.312988	-213.882202	-190.186066	1332.161011	-203.086716	-301.970093	1043.810547	54.775955	-321.638214	1053.505005	-457.748383	-217.577736	805.744263	87.840832	-262.558228	813.732178	-511.288055	-174.100876	910.264404	-58.945038	-165.377701	907.156433	-366.813446	-394.522736	965.765442	-151.913300	-396.480347	958.565247	-263.362122	-395.501541	962.165344	-207.637711	-375.987396	1119.670044	-211.770325	-84.951797	1082.667236	-211.444519	-227.551208	704.910278	31.762691	-236.400070	470.319580	-49.186012	-277.410767	272.810577	-2.488970	-308.343567	70.480789	-97.903091	-356.147980	61.283051	-156.176620	-178.895264	46.524475	-117.964592	-267.167847	676.165161	-446.978851	-236.273438	469.624908	-345.137115	-275.968323	286.531555	-404.147308	-322.669830	65.058258	-315.443237	-363.219574	57.822174	-262.021301	-184.274261	44.502850	-303.891296
17	0.16000000	-283.952484	1354.407349	-27.753946	-271.012512	1362.632080	-382.749451	-339.464355	1426.207275	-213.715530	-190.304993	1332.152954	-202.992401	-301.989014	1043.831665	54.798599	-321.665619	1053.468994	-457.677643	-217.609344	805.796021	87.904993	-262.591454	813.867676	-511.000519	-174.208115	910.205994	-58.817490	-165.439865	907.176331	-366.766510	-394.596344	965.721252	-151.886490	-396.671783	958.600464	-263.134705	-395.634064	962.160858	-207.510597	-376.087280	1119.620850	-211.689392	-85.004631	1082.661987	-211.364090	-227.581360	705.008423	31.760124	-236.376404	470.335876	-49.111343	-277.422699	272.895721	-2.548839	-308.443237	70.412445	-97.795204	-356.140381	61.295944	-156.179306	-178.848663	46.422836	-117.921654	-267.185760	676.208923	-446.952209	-236.291763	469.631958	-345.121185	-275.947754	286.547424	-404.076630	-322.683868	65.053848	-315.463959	-363.318024	57.850475	-261.956879	-184.318649	44.500359	-303.900024
18	0.17000000	-284.030212	1354.444214	-27.713123	-271.083069	1362.652466	-382.626862	-339.569519	1426.248169	-213.696198	-190.441269	1332.088013	-202.979202	-302.195831	1043.824341	54.949623	-321.666779	1053.346069	-457.627594	-217.792122	805.844696	88.054037	-262.619606	813.815613	-510.804443	-174.410034	910.116577	-58.857697	-165.474014	907.242310	-366.720154	-394.696289	965.689026	-151.798233	-396.681671	958.492737	-263.118195	-395.688980	962.090881	-207.458214	-376.219757	1119.681641	-211.594421	-85.059418	1082.715332	-211.253387	-227.520477	704.923340	31.861324	-236.432449	470.089966	-49.001793	-277.426239	272.773743	-2.585407	-308.384308	70.368637	-97.854446	-356.151550	61.325031	-156.177826	-178.838181	46.408188	-117.994690	-267.227997	676.222412	-446.942322	-236.290329	469.624847	-345.111084	-275.984863	286.520386	-404.146088	-322.684296	65.031326	-315.485718	-363.328918	57.815365	-261.959045	-184.355011	44.586903	-303.931000
19	0.18000000	-284.108459	1354.427368	-27.627451	-271.208618	1362.618774	-382.525574	-339.581268	1426.238892	-213.729874	-190.489761	1332.212036	-202.922867	-302.374298	1044.073730	55.180195	-321.712280	1053.367310	-457.445496	-217.757172	805.788147	88.125610	-262.465881	813.613434	-510.945251	-174.651184	910.102356	-58.814404	-165.537262	907.212219	-366.682770	-394.715607	965.691040	-151.797012	-396.733307	958.485657	-263.064026	-395.724457	962.088348	-207.430519	-376.200989	1119.644897	-211.488235	-85.047379	1082.752075	-211.264603	-227.658401	704.959229	31.990356	-236.366699	470.228638	-49.122272	-277.415924	272.844513	-2.632462	-308.348938	70.355286	-97.874947	-356.163330	61.298534	-156.156067	-178.911682	46.511093	-117.965828	-267.213104	676.199646	-446.872681	-236.353699	469.659027	-345.049927	-275.364777	286.599487	-403.476776	-322.683044	65.058144	-315.426666	-363.330994	57.755775	-261.943115	-184.271118	44.541656	-303.847839
20	0.19000000	-284.202637	1354.450806	-27.602583	-271.211121	1362.616455	-382.546692	-339.663513	1426.217041	-213.576447	-190.556107	1332.268188	-202.814423	-302.289215	1043.897217	55.127674	-321.796448	1053.333496	-457.343506	-217.955269	805.968506	88.309231	-262.674683	813.693268	-510.552322	-174.633041	910.179382	-58.737747	-165.564011	907.218872	-366.622131	-394.669922	965.637268	-151.693100	-396.692474	958.431396	-262.984802	-395.681198	962.034332	-207.338951	-376.260468	1119.640625	-211.421326	-85.086205	1082.829712	-211.181046	-227.803589	704.964722	32.070599	-236.363708	470.265503	-49.134377	-277.512390	272.827698	-2.490560	-308.309174	70.404297	-97.891083	-356.153687	61.349796	-156.173431	-178.913193	46.543144	-117.957863	-267.213562	676.242615	-446.888336	-236.381546	469.664001	-345.025665	-275.974823	286.159546	-404.120575	-322.704926	65.079201	-315.394623	-363.316162	57.794762	-261.955688	-184.316956	44.476959	-303.871063
21	0.20000000	-284.267456	1354.493774	-27.527021	-271.281189	1362.629761	-382.436462	-339.681519	1426.253662	-213.563019	-190.562546	1332.247681	-202.807892	-302.295135	1044.066162	55.249172	-321.813965	1053.223022	-457.256897	-217.944077	806.005127	88.457697	-263.330521	813.352783	-510.039490	-174.626236	910.090942	-58.659294	-165.624496	907.241821	-366.539368	-394.735504	965.642883	-151.649689	-396.755890	958.434021	-262.944214	-395.745697	962.038452	-207.296951	-376.342834	1119.652588	-211.382065	-85.175987	1082.829346	-211.058548	-227.773407	705.068848	32.131344	-236.379700	470.251465	-49.098740	-277.533081	272.758331	-2.400438	-308.346008	70.363564	-97.873405	-356.155304	61.358829	-156.177673	-178.964539	46.553066	-117.966774	-267.120941	676.202454	-446.816681	-236.380508	469.717743	-344.975800	-276.204987	286.432739	-404.129974	-322.725098	65.070854	-315.455109	-363.382812	57.684612	-261.925537	-184.323273	44.531937	-303.807434
22	0.21000000	-284.399017	1354.534302	-27.459583	-271.316040	1362.581787	-382.411957	-339.780121	1426.248657	-213.520691	-190.660233	1332.208130	-202.681854	-302.435944	1044.124878	55.351089	-321.823090	1053.268555	-457.108002	-218.027664	806.010468	88.507406	-263.465759	813.252533	-509.931808	-174.589294	910.141785	-58.518982	-165.641449	907.299500	-366.436554	-394.777832	965.693848	-151.619705	-396.766785	958.438477	-262.911011	-395.772308	962.066162	-207.265358	-376.306458	1119.652710	-211.271530	-85.367889	1082.824951	-211.001740	-227.965912	705.038574	32.445736	-236.541229	470.136505	-48.891739	-277.476288	272.757385	-2.370209	-308.423889	70.488289	-97.787453	-356.161560	61.315910	-156.152512	-178.928543	46.501015	-118.010315	-267.091156	676.223450	-446.834534	-236.370377	469.730865	-344.958313	-276.209534	286.552216	-404.037354	-322.694489	65.072571	-315.451721	-363.317902	57.803497	-261.961212	-184.328873	44.552696	-303.948547
23	0.22000000	-284.005493	1354.588013	-27.638155	-271.378998	1362.586304	-382.307404	-339.885712	1426.263062	-213.452911	-190.740509	1332.165039	-202.577499	-302.581055	1044.144897	55.422382	-321.873657	1053.238403	-456.990417	-218.015198	805.905212	88.619499	-263.295708	813.234863	-509.715866	-174.648987	910.116638	-58.522717	-165.635773	907.234314	-366.328461	-394.874542	965.573853	-151.375687	-396.773285	958.366089	-262.893433	-395.823914	961.969971	-207.134560	-376.344147	1119.657959	-211.219330	-85.479721	1082.831909	-210.845764	-227.941574	704.951477	32.348286	-236.532104	470.150513	-48.793755	-277.539307	272.637848	-2.443720	-308.440887	70.449776	-97.803246	-356.158905	61.308453	-156.148117	-178.856720	46.436489	-117.983200	-267.043396	676.222900	-446.804657	-236.296265	469.754669	-344.884552	-276.080688	286.541443	-404.023773	-322.696686	65.092430	-315.402069	-363.303650	57.807316	-261.933350	-184.208008	44.615864	-303.909668
24	0.23000000	-284.523071	1354.603882	-27.297478	-271.368225	1362.566406	-382.216461	-339.921051	1426.225708	-213.405960	-190.775070	1332.184937	-202.546326	-302.572357	1043.951294	55.472725	-321.910004	1053.030151	-456.944550	-218.077545	805.966248	88.706917	-263.330376	813.047302	-509.552658	-174.841568	910.037231	-58.587090	-165.697205	907.205627	-366.285553	-394.834351	965.632812	-151.457809	-396.815125	958.403381	-262.774048	-395.824738	962.018097	-207.115929	-376.371216	1119.638062	-211.106384	-85.460426	1082.824585	-210.698151	-227.923615	704.975281	32.223381	-236.415405	470.025848	-48.806377	-277.591766	272.662506	-2.422048	-308.480408	70.449860	-97.758331	-356.174896	61.320515	-156.122147	-178.788834	46.448460	-117.897758	-266.943573	676.223206	-446.748535	-236.303574	469.791656	-344.804352	-276.021790	286.527557	-404.014099	-322.700592	65.097214	-315.395569	-363.320465	57.752453	-261.903046	-184.287201	44.497383	-303.829651
25	0.24000000	-284.546295	1354.533936	-27.266226	-271.431641	1362.444824	-382.193848	-339.994110	1426.212646	-213.366608	-190.835541	1332.095337	-202.452271	-302.600006	1043.948242	55.534893	-321.992615	1053.054077	-456.808746	-218.164345	806.116913	88.908440	-263.306496	813.006256	-509.419083	-174.919586	910.065063	-58.479347	-165.744705	907.197998	-366.216400	-394.887115	965.599121	-151.286880	-396.804993	958.455811	-262.155853	-395.846054	962.027466	-206.721367	-376.378754	1119.621948	-211.063705	-85.509377	1082.938965	-210.722443	-228.036133	705.049927	32.355953	-236.541718	470.070007	-48.763180	-277.524414	272.807526	-2.301599	-308.372345	70.405365	-97.761871	-356.175903	61.326515	-156.179245	-178.841522	46.524067	-117.924606	-266.911469	676.204041	-446.694336	-236.308243	469.792725	-344.800720	-275.930481	286.571259	-403.905121	-322.706268	65.080193	-315.395447	-363.382782	57.642265	-261.884094	-184.267334	44.485359	-303.876617
26	0.25000000	-284.572144	1354.617798	-27.189964	-271.504669	1362.449585	-382.103821	-339.966614	1426.166748	-213.238281	-190.906769	1332.224487	-202.346680	-302.651489	1044.194092	55.675587	-322.043060	1053.009399	-456.648529	-218.465286	806.032349	89.331715	-263.227364	812.993286	-509.220078	-175.018555	910.081421	-58.380676	-165.869263	907.252991	-366.136169	-394.926361	965.656494	-151.395828	-396.914673	958.403442	-262.611664	-395.920517	962.029968	-207.003746	-376.466980	1119.659058	-211.004517	-85.605156	1082.901489	-210.616852	-228.194336	704.999268	32.497765	-236.502380	469.981659	-48.756618	-277.489960	272.786102	-2.468691	-308.332733	70.388107	-97.772270	-356.164185	61.297531	-156.160629	-178.895813	46.527340	-117.963753	-266.873077	676.218689	-446.704956	-236.305252	469.783600	-344.800751	-275.721649	286.582611	-404.097076	-322.764648	65.036888	-315.329895	-363.325745	57.748501	-261.900177	-184.263412	44.480003	-303.853455
27	0.26000000	-284.672058	1354.622559	-27.124449	-271.479248	1362.515625	-382.024994	-339.976440	1426.265747	-213.225769	-190.896530	1332.258423	-202.373428	-302.730469	1044.249268	55.748215	-321.997375	1053.026733	-456.558960	-218.567474	806.007599	89.469143	-263.233192	813.005920	-509.114517	-174.996872	910.048950	-58.339981	-165.902954	907.259583	-366.096283	-394.965698	965.684814	-151.193756	-396.865967	958.455627	-262.150818	-395.915833	962.070221	-206.672287	-376.436768	1119.690186	-210.895294	-85.622986	1083.085205	-210.597748	-228.318420	704.996216	32.499435	-236.545715	470.032562	-48.729706	-277.577820	272.664215	-2.274874	-308.427399	70.411736	-97.765427	-356.069519	61.226940	-156.131607	-178.898438	46.524830	-117.965240	-266.878632	676.300049	-446.603394	-236.385834	469.795715	-344.689209	-275.667358	286.592468	-404.171265	-322.696075	65.072144	-315.375763	-363.324829	57.755135	-261.896759	-184.304733	44.585411	-303.887726
28	0.27000000	-284.594421	1354.691406	-27.083046	-271.549103	1362.496460	-381.916229	-340.053986	1426.278320	-213.191895	-190.896896	1332.254150	-202.359375	-302.758270	1044.276855	55.862717	-322.072968	1053.040161	-456.437439	-218.844864	805.658447	89.407757	-263.189354	813.029236	-509.019333	-175.108887	909.999695	-58.271915	-165.952240	907.240601	-366.040466	-395.001587	965.697388	-151.054764	-397.005035	958.530212	-262.539032	-396.003311	962.113800	-206.796898	-376.525879	1119.708862	-210.826828	-85.674408	1083.026611	-210.555481	-228.429611	704.985474	32.541004	-236.560394	470.041779	-48.698753	-277.616608	272.677155	-2.289648	-308.492676	70.454437	-97.749489	-356.102722	61.231136	-156.177399	-178.905914	46.551300	-117.974594	-266.904938	676.371399	-446.625824	-236.379807	469.812714	-344.674255	-276.014130	286.628845	-403.917267	-322.695068	65.093430	-315.401215	-363.321075	57.763462	-261.902588	-184.362152	44.586899	-303.861725
29	0.28000000	-284.659576	1354.686157	-27.021353	-271.601562	1362.496216	-381.847961	-340.002502	1426.295044	-213.100174	-190.976547	1332.261475	-202.237793	-302.864563	1044.305542	55.942020	-322.141235	1052.953613	-456.351990	-218.657715	806.000092	89.626068	-263.147369	812.995880	-508.852676	-175.076218	910.061401	-58.201332	-166.041092	907.257202	-365.980286	-395.109131	965.761230	-150.971954	-396.914001	958.559265	-262.042145	-396.011566	962.160248	-206.507050	-376.520538	1119.751343	-210.688766	-85.670891	1082.888184	-210.399307	-228.511673	704.992554	32.620747	-236.665497	470.213104	-48.546196	-277.621735	272.683502	-2.314824	-308.443787	70.442055	-97.806343	-356.140869	61.255737	-156.158615	-178.896454	46.526485	-117.964897	-266.936890	676.388733	-446.610229	-236.377594	469.871185	-344.691467	-275.934967	286.625061	-403.979034	-322.738647	65.048691	-315.376373	-363.322052	57.750168	-261.903198	-184.324738	44.574894	-303.871338
30	0.29000000	-284.617035	1354.699829	-26.947502	-271.655640	1362.474487	-381.810059	-340.060181	1426.255615	-212.937866	-190.977463	1332.340088	-202.170807	-302.857697	1044.338501	56.017521	-322.160187	1052.988892	-456.119476	-218.798439	805.905792	89.483086	-263.194092	812.975342	-508.725708	-175.056946	910.089478	-58.071884	-166.061432	907.287048	-365.861877	-395.212860	965.797241	-150.905121	-396.978912	958.566895	-262.447906	-396.095886	962.182068	-206.676514	-376.621002	1119.748413	-210.595093	-85.917229	1082.065918	-209.816956	-228.732056	705.042603	32.747929	-236.654404	470.087433	-48.514145	-277.674194	272.591461	-2.216504	-308.474854	70.442978	-97.739616	-356.146332	61.289219	-156.153290	-178.881638	46.546181	-117.965813	-266.989044	676.367371	-446.536407	-236.453735	469.862946	-344.609955	-275.974030	286.644135	-403.847809	-322.754883	65.020996	-315.447021	-363.332977	57.754627	-261.885315	-184.369553	44.540901	-303.841461
31	0.30000000	-284.655853	1354.744873	-26.879503	-271.628479	1362.486084	-381.666870	-340.090210	1426.298462	-212.905899	-190.951263	1332.287476	-202.031296	-302.835693	1044.364502	56.131840	-322.208405	1052.992798	-456.078979	-218.897781	805.734222	89.558620	-263.052017	812.962463	-508.556030	-175.222626	910.035156	-58.014809	-166.122345	907.274902	-365.775726	-395.270538	965.854492	-150.844162	-397.050507	958.649658	-262.094910	-396.160522	962.252075	-206.469536	-376.684021	1119.793213	-210.510193	-85.983749	1081.848755	-209.646606	-228.880905	704.981995	32.777634	-236.632263	470.057373	-48.485100	-277.711639	272.591278	-2.141614	-308.540771	70.403435	-97.695450	-356.248596	61.196541	-156.152039	-178.904114	46.540607	-117.961456	-267.142273	676.417480	-446.412598	-236.411331	469.881348	-344.602631	-275.874420	286.578766	-404.016632	-322.804901	65.076431	-315.326569	-363.375519	57.530430	-261.746582	-184.310165	44.563042	-303.869598
32	0.31000000	-284.576019	1354.735107	-26.831244	-271.568542	1362.441895	-381.628967	-340.095978	1426.298706	-212.874374	-190.983231	1332.099976	-201.981689	-302.778137	1044.301514	56.200943	-322.154785	1052.958740	-456.011566	-218.685677	806.120422	89.853737	-263.069923	812.925079	-508.442719	-175.308517	909.979187	-58.006832	-166.115250	907.254028	-365.757629	-395.278809	965.833740	-150.699020	-397.089844	958.707458	-262.373749	-396.184326	962.270599	-206.536385	-376.712433	1119.802856	-210.394531	-85.953453	1081.888306	-209.679657	-229.055054	704.977417	32.843124	-236.632782	470.020660	-48.515671	-277.744629	272.526337	-2.054760	-308.517059	70.405266	-97.751915	-356.268921	61.191589	-156.148331	-178.908310	46.539795	-117.960098	-267.237030	676.406738	-446.390045	-236.386017	469.890076	-344.561035	-275.990356	286.563141	-403.907440	-322.788177	65.081612	-315.382599	-363.328583	57.722031	-261.862213	-184.356888	44.598545	-303.897552
33	0.32000000	-284.628662	1354.750610	-26.784622	-271.555023	1362.467285	-381.520142	-340.090302	1426.260132	-212.877106	-191.017365	1332.073730	-201.945953	-302.742737	1044.381958	56.288536	-322.188080	1052.945679	-455.860779	-218.502007	806.309662	90.044113	-263.133148	812.855286	-508.260681	-174.979797	910.240112	-57.701828	-166.199478	907.279968	-365.688873	-395.338287	965.955444	-150.657730	-397.191956	958.688538	-262.339417	-396.265121	962.321991	-206.498573	-376.714813	1119.784668	-210.388367	-85.790512	1082.787964	-210.024414	-229.236755	705.005981	32.907421	-236.759628	470.008850	-48.411201	-277.921234	272.420502	-2.103320	-308.509155	70.376488	-97.766495	-356.233612	61.271751	-156.126785	-178.863388	46.542160	-117.923569	-267.406067	676.410889	-446.304077	-236.318512	469.873444	-344.484283	-275.832825	286.452026	-403.987183	-322.779327	65.028770	-315.348480	-363.412079	57.747814	-261.873779	-184.366562	44.549393	-303.900604
34	0.33000000	-284.585449	1354.741577	-26.633755	-271.582977	1362.309937	-381.506653	-340.056671	1426.297485	-212.798569	-191.082138	1332.082642	-201.872711	-302.752167	1044.253174	56.486980	-322.207886	1052.908813	-455.720520	-218.671486	806.417297	90.286221	-262.974770	813.198547	-508.089142	-176.196014	909.684753	-58.491013	-166.265289	907.223999	-365.558746	-395.414886	965.906128	-150.632935	-397.143524	958.675964	-262.234955	-396.279205	962.291046	-206.433945	-376.742554	1119.835938	-210.331787	-85.660835	1082.865601	-210.029541	-229.289352	704.960815	32.914604	-236.872025	470.024323	-48.346889	-277.909363	272.363556	-2.157928	-308.510529	70.346626	-97.739021	-356.171509	61.185696	-156.079178	-178.950287	46.496822	-117.931557	-267.531952	676.372864	-446.249237	-236.311844	469.823914	-344.486694	-275.873840	286.490448	-403.775757	-322.841003	65.009727	-315.394287	-363.429596	57.766964	-261.850067	-184.366531	44.541252	-303.886932
35	0.34000000	-284.617310	1354.817383	-26.701735	-271.623505	1362.329346	-381.461304	-340.086975	1426.281616	-212.649094	-191.069321	1332.263306	-201.885941	-302.982269	1044.314087	56.780327	-322.193054	1052.851196	-455.617310	-218.824524	806.442230	90.420345	-263.035164	813.156219	-507.925323	-176.771255	909.758423	-58.265015	-166.287170	907.247253	-365.497528	-395.375824	965.903137	-150.538361	-397.204590	958.681763	-262.190887	-396.290207	962.292450	-206.364624	-376.775177	1119.840332	-210.184204	-85.746918	1082.819214	-209.840607	-229.369751	704.949036	32.994987	-236.889221	470.024261	-48.334732	-277.936066	272.368347	-2.108780	-308.438507	70.329445	-97.726044	-356.197632	61.193829	-156.142044	-178.913925	46.450272	-117.875961	-267.673462	676.395142	-446.167419	-236.187592	469.830750	-344.441162	-275.682648	286.428284	-403.841522	-322.889282	65.098068	-315.368744	-363.371521	57.696743	-261.785675	-184.398163	44.598904	-303.837433
36	0.35000000	-284.627563	1354.873779	-26.610262	-271.808258	1362.311401	-381.168396	-340.094818	1426.281738	-212.638977	-191.122726	1332.261353	-201.760895	-302.881531	1044.450684	56.582745	-322.319489	1052.777344	-455.594666	-218.835052	806.459930	90.587063	-263.041779	813.092133	-507.824097	-177.640686	909.692810	-58.832882	-166.286758	907.221924	-365.506500	-395.457397	965.885681	-150.415756	-397.311188	958.781677	-261.958984	-396.384293	962.333679	-206.187370	-376.807007	1119.830933	-210.144547	-85.910965	1082.791138	-209.832169	-229.526810	704.935608	33.015167	-237.007172	470.011688	-48.258114	-278.051300	272.347168	-2.036380	-308.519592	70.326599	-97.727936	-356.229034	61.172192	-156.133621	-178.919662	46.512714	-117.954254	-267.737885	676.314026	-446.065002	-236.093933	469.807495	-344.387085	-275.490631	286.446716	-403.869690	-322.868103	65.096428	-315.288116	-363.351715	57.685886	-261.790558	-184.369553	44.556950	-303.907837
37	0.36000000	-284.646667	1354.868652	-26.460890	-271.835358	1362.311035	-381.053436	-340.092529	1426.281372	-212.644531	-191.144348	1332.150024	-201.726013	-302.881409	1044.343506	56.927223	-322.257904	1052.763428	-455.479248	-218.811424	806.530853	90.724545	-263.045921	813.109619	-507.744659	-177.285507	909.712219	-58.263645	-166.364288	907.247437	-365.379425	-395.514709	965.912231	-150.401657	-397.355927	958.754333	-261.892609	-396.435318	962.333282	-206.147133	-376.839966	1119.882446	-210.030701	-86.017090	1082.767456	-209.745132	-229.620880	704.884521	33.073677	-237.036469	470.000244	-48.190857	-278.074890	272.284790	-2.001814	-308.587433	70.357117	-97.688293	-356.219574	61.181171	-156.147354	-178.882431	46.444103	-117.871506	-267.840759	676.379150	-446.024231	-235.938828	469.809357	-344.377289	-275.301117	286.475494	-403.819214	-322.879578	65.076347	-315.332855	-363.455200	57.488232	-261.701660	-184.358795	44.524132	-303.830292
38	0.37000000	-284.642975	1354.911865	-26.523708	-271.718475	1362.250732	-381.202423	-340.184326	1426.294312	-212.549957	-191.171539	1332.204224	-201.733658	-302.898651	1044.462524	56.823093	-322.307312	1052.728638	-455.360474	-218.840614	806.543549	90.876671	-263.034828	813.112305	-507.634155	-177.601303	909.527527	-58.580353	-166.441757	907.224609	-365.330292	-395.617920	965.871704	-150.262741	-397.446655	958.714233	-261.790558	-396.532288	962.292969	-206.026649	-376.874817	1119.837646	-209.951447	-86.095688	1082.775146	-209.661591	-229.550690	704.865540	33.138287	-237.013596	470.021637	-48.100563	-278.110840	272.265198	-2.021508	-308.562805	70.364151	-97.683334	-356.263245	61.085270	-156.127914	-178.911972	46.396927	-117.884453	-267.835541	676.321533	-445.959412	-235.830261	469.822205	-344.374786	-275.284149	286.634338	-403.584503	-322.890839	65.093262	-315.339020	-363.373962	57.629009	-261.755798	-184.349228	44.539555	-303.813812
39	0.38000000	-284.571655	1354.875488	-26.471281	-271.760529	1362.195312	-381.202759	-340.202362	1426.265747	-212.559341	-190.960052	1332.089111	-201.958542	-302.814056	1044.465576	56.849895	-322.390900	1052.689453	-455.267609	-218.782845	806.542450	90.952484	-262.906639	812.980652	-507.651398	-178.371567	909.377319	-58.874107	-166.456406	907.157471	-365.247070	-395.566406	965.859680	-150.195938	-397.533051	958.709534	-261.743927	-396.549728	962.284607	-205.969933	-376.947418	1119.842896	-209.913269	-86.182716	1082.721313	-209.557404	-229.570038	704.844055	33.150814	-237.067566	469.981232	-48.059723	-277.939880	272.380249	-2.098599	-308.500153	70.379471	-97.634232	-356.243988	61.162186	-156.100204	-178.867172	46.402275	-117.862694	-267.871490	676.317078	-445.950256	-235.683411	469.869965	-344.327789	-275.475647	286.802826	-403.770355	-322.908447	65.111847	-315.384766	-363.368744	57.641983	-261.763275	-184.419083	44.639519	-303.821136
40	0.39000000	-284.551117	1354.848389	-26.493689	-271.831482	1362.224243	-380.866608	-340.155396	1426.238403	-212.484924	-191.185257	1332.192505	-201.661392	-302.694000	1044.412109	57.141842	-322.334778	1052.671021	-455.180969	-218.336143	806.472839	90.534424	-262.878166	812.938232	-507.601273	-179.102783	909.311584	-59.076015	-166.451935	907.210266	-365.219025	-395.644775	965.876953	-150.108841	-397.488739	958.652100	-261.671112	-396.566757	962.264526	-205.889977	-376.976257	1119.884155	-209.854141	-86.203606	1082.693237	-209.541656	-229.614136	704.844177	33.164314	-236.846375	469.853760	-48.195324	-277.896637	272.261536	-1.982707	-308.528839	70.361984	-97.696815	-356.240570	61.233059	-156.101181	-178.903793	46.478336	-117.940796	-267.771759	676.285950	-445.839233	-235.433075	469.861176	-344.287842	-275.483490	286.688812	-403.935852	-322.865936	65.117798	-315.318024	-363.364380	57.683311	-261.768188	-184.364334	44.553440	-303.782440
41	0.40000000	-284.620789	1354.932495	-26.431391	-271.933807	1362.148682	-380.893982	-340.151459	1426.286011	-212.445694	-191.295670	1332.182617	-201.529617	-302.709351	1044.518677	57.216915	-322.443542	1052.683838	-455.109467	-218.187576	806.710754	90.870949	-262.955040	812.906738	-507.396210	-177.667877	909.813416	-57.853588	-166.459000	907.250610	-365.095703	-395.662231	965.908630	-150.158127	-397.484772	958.665894	-261.618073	-396.573502	962.287262	-205.888100	-376.985229	1119.875244	-209.761246	-86.258926	1082.710083	-209.482346	-229.587372	704.852356	33.223412	-237.020706	469.957825	-48.069695	-277.995941	272.218170	-1.861236	-308.553986	70.466530	-97.716789	-356.232910	61.277557	-156.123199	-178.898193	46.542419	-117.890526	-267.798340	676.344543	-445.799500	-235.336594	469.829773	-344.216705	-275.338104	286.651459	-403.977325	-322.854645	65.124870	-315.269531	-363.355988	57.704777	-261.720917	-184.447006	44.650604	-303.778717
42	0.41000000	-284.604645	1354.916138	-26.348696	-271.908112	1362.092163	-380.847015	-340.200043	1426.293579	-212.422256	-191.263016	1332.170166	-201.469681	-302.837799	1044.605225	57.450951	-322.455566	1052.628296	-454.983948	-218.463364	806.782043	91.127480	-263.076134	812.941101	-507.369263	-175.636414	910.225891	-56.926327	-166.456619	907.287964	-365.026093	-395.697845	965.864746	-150.012009	-397.526001	958.616699	-261.487427	-396.611923	962.240723	-205.749718	-377.040985	1119.892822	-209.656815	-86.286354	1082.693359	-209.440720	-229.516556	704.820618	33.287121	-237.080933	470.038788	-47.920155	-278.031250	272.354248	-1.926757	-308.550354	70.415909	-97.703049	-356.236877	61.242676	-156.104431	-178.880524	46.453510	-117.924141	-267.711792	676.364746	-445.756348	-235.255661	469.852173	-344.213074	-275.196808	286.647461	-403.857819	-322.862976	65.155090	-315.294830	-363.385193	57.810753	-261.696289	-184.362503	44.647251	-303.759125
43	0.42000000	-284.674683	1354.962891	-26.291183	-271.949036	1362.155640	-380.813446	-340.256744	1426.314453	-212.348587	-191.359924	1332.125610	-201.470184	-302.742340	1044.437744	57.434505	-322.470490	1052.563232	-454.954376	-218.206398	806.784607	91.153145	-263.095535	812.906586	-507.281052	-174.735916	910.214478	-56.637894	-166.475449	907.274109	-364.958679	-395.723389	965.849670	-149.904785	-397.544312	958.552307	-261.455353	-396.633850	962.200989	-205.680069	-377.121643	1119.905518	-209.613602	-86.245148	1082.704712	-209.313812	-229.498245	704.822449	33.316311	-236.907272	469.892609	-48.012669	-277.937469	272.373718	-1.873241	-308.473328	70.391548	-97.643196	-356.228943	61.271339	-156.122345	-178.923828	46.517479	-117.864830	-267.557648	676.364136	-445.722931	-235.165756	469.842407	-344.110931	-274.828156	286.506500	-404.003265	-322.824371	65.124031	-315.312256	-363.345093	57.763641	-261.751648	-184.429993	44.677174	-303.793823
44	0.43000000	-284.726715	1354.919434	-26.265955	-271.940857	1362.017456	-380.756042	-340.291443	1426.296143	-212.302963	-191.366470	1332.055420	-201.362915	-302.686096	1044.521973	57.532314	-322.536835	1052.541016	-454.886139	-217.868744	806.772736	91.129532	-263.079422	812.841705	-507.209320	-174.803436	910.235962	-56.667458	-166.419113	907.263611	-365.023407	-395.730133	965.801147	-149.884811	-397.554352	958.530151	-261.337250	-396.642242	962.165649	-205.611031	-377.216583	1119.853149	-209.553650	-86.290977	1082.721069	-209.174988	-229.439804	704.828247	33.352345	-236.746887	469.795776	-48.002968	-277.913391	272.330231	-1.985780	-308.524384	70.362556	-97.604736	-356.184631	61.217182	-156.057632	-178.953384	46.512142	-117.896919	-267.505524	676.351501	-445.670135	-235.020584	469.850922	-344.070496	-274.660339	286.522583	-403.942566	-322.870361	65.123787	-315.323090	-363.277863	57.674412	-261.689026	-184.416840	44.566067	-303.810333
45	0.44000000	-284.821930	1354.943359	-26.193487	-271.989838	1361.964355	-380.874969	-340.363708	1426.255493	-212.314606	-191.287460	1331.923218	-201.777145	-302.826172	1044.541138	57.706970	-322.632080	1052.518921	-454.800446	-217.749420	806.818939	91.231476	-262.951492	812.750916	-507.085571	-175.655426	909.992920	-56.834248	-166.450790	907.368408	-364.924072	-395.743530	965.755676	-149.798813	-397.438904	958.452271	-261.382172	-396.591217	962.103973	-205.590492	-377.218628	1119.821167	-209.524475	-86.319199	1082.713745	-209.144577	-229.384125	704.825378	33.389084	-236.908630	469.966095	-47.851357	-277.905182	272.240326	-1.735213	-308.499817	70.294785	-97.639076	-356.157257	61.167625	-156.070084	-178.956467	46.516140	-117.855904	-267.334717	676.334229	-445.633636	-234.945312	469.835327	-343.971649	-274.665283	286.596771	-403.625702	-322.841797	65.157486	-315.365051	-363.289429	57.764397	-261.660736	-184.406036	44.641335	-303.744720
46	0.45000000	-284.962250	1354.828613	-26.081707	-271.925659	1361.937744	-380.807129	-340.372040	1426.259155	-212.269012	-191.246948	1331.902954	-201.826614	-302.798004	1044.524902	57.780407	-322.647858	1052.437622	-454.766174	-217.811829	806.899200	91.337551	-263.341660	812.711334	-506.748154	-176.507339	909.852966	-57.087948	-166.440918	907.335449	-364.855835	-395.755646	965.705139	-149.744263	-397.358337	958.406372	-261.376465	-396.556992	962.055756	-205.560364	-377.160156	1119.747681	-209.483429	-86.348289	1082.776123	-209.066071	-229.294708	704.794556	33.437569	-236.975464	469.997345	-47.781879	-277.926331	272.146606	-1.691163	-308.481018	70.353500	-97.629402	-356.201965	61.210037	-156.125412	-178.897873	46.440052	-117.801033	-267.125366	675.984985	-445.298645	-234.938202	469.829803	-343.949463	-274.672821	286.631226	-403.507874	-322.805145	65.174255	-315.280396	-363.109741	57.538033	-261.696289	-184.392395	44.591160	-303.712219
47	0.46000000	-285.044800	1354.772339	-26.084850	-272.085114	1362.011230	-380.653809	-340.442780	1426.229736	-212.276932	-191.568481	1331.927612	-201.224228	-302.643188	1044.456299	57.757458	-322.687561	1052.412964	-454.689972	-217.542229	806.850098	91.420380	-263.389427	812.646759	-506.597305	-176.888046	909.863892	-57.075172	-166.383011	907.362671	-364.810425	-395.726746	965.659241	-149.770401	-397.377136	958.364807	-261.302612	-396.551941	962.012024	-205.536507	-377.242462	1119.760254	-209.392273	-86.362305	1082.798828	-209.048691	-229.302887	704.747437	33.492439	-236.875778	469.975128	-47.750652	-277.844147	272.271332	-1.902627	-308.401184	70.328911	-97.699966	-356.228729	61.198853	-156.137573	-178.916183	46.540176	-117.902527	-266.840546	675.935486	-444.860840	-234.869370	469.808441	-343.871368	-274.598267	286.635864	-403.525146	-322.830658	65.210640	-315.278931	-363.305908	57.733910	-261.724792	-184.342300	44.632313	-303.750092
48	0.47000000	-285.133759	1354.820190	-26.048733	-272.068451	1361.946533	-380.668365	-340.462402	1426.204712	-212.207748	-191.693481	1331.912476	-201.137421	-302.722443	1044.512085	57.891579	-322.720032	1052.382080	-454.612366	-217.396240	806.912567	91.490303	-263.441360	812.648651	-506.559799	-176.840073	909.941040	-57.043514	-166.290298	907.303711	-364.705902	-395.657379	965.622375	-149.723663	-397.325684	958.316223	-261.210297	-396.491531	961.969299	-205.466980	-377.261627	1119.739380	-209.385666	-86.412941	1082.797485	-208.993729	-229.350830	704.729736	33.537144	-236.837234	469.924988	-47.769318	-278.179565	272.040955	-1.375126	-308.469330	70.363045	-97.638824	-356.216705	61.236050	-156.152100	-178.849777	46.482162	-117.833183	-266.739899	675.962097	-445.148346	-234.802933	469.805786	-343.871979	-274.634796	286.651520	-403.444397	-322.830566	65.187813	-315.248596	-363.338196	57.807323	-261.666138	-184.356934	44.615326	-303.719788
49	0.48000000	-285.258850	1354.734985	-25.960272	-272.178833	1361.864136	-380.545380	-340.553528	1426.192383	-212.144363	-191.743378	1331.921997	-201.024918	-302.755524	1044.546265	57.987335	-322.759583	1052.349121	-454.525421	-217.335228	806.910065	91.547871	-263.479828	812.564026	-506.504105	-176.563400	909.905823	-56.799561	-166.225281	907.334717	-364.537537	-395.682190	965.539185	-149.647598	-397.341980	958.233704	-261.167847	-396.512085	961.886444	-205.407722	-377.265137	1119.686646	-209.340729	-86.400055	1082.891113	-208.954819	-229.315399	704.734741	33.574974	-236.850250	469.915588	-47.739273	-277.912140	271.997742	-1.567466	-308.521973	70.356621	-97.612854	-356.220917	61.218288	-156.024963	-178.957474	46.490768	-117.851730	-266.539093	676.229675	-444.980011	-234.799866	469.807190	-343.875916	-274.568359	286.615417	-403.401154	-322.817444	65.167244	-315.248260	-363.385834	57.773521	-261.707520	-184.424698	44.685738	-303.729614
50	0.49000000	-285.347473	1354.727783	-25.869978	-272.208069	1361.863037	-380.475952	-340.567017	1426.180542	-212.104294	-191.773178	1331.844238	-201.085800	-302.791412	1044.474609	58.048710	-322.781311	1052.299927	-454.497040	-217.236961	806.875610	91.596107	-263.519264	812.527496	-506.414078	-176.540192	909.776367	-56.910686	-166.055756	907.329895	-364.430634	-395.626282	965.524902	-149.588211	-397.259399	958.168030	-261.141357	-396.442841	961.846466	-205.364784	-377.192139	1119.606323	-209.289291	-86.446442	1082.934692	-208.924026	-229.195084	704.689148	33.643993	-236.778305	469.928802	-47.697849	-277.749908	272.020050	-1.654279	-308.518005	70.306152	-97.616020	-356.179169	61.175022	-156.056946	-178.975311	46.494747	-117.850807	-266.345276	676.315796	-445.301086	-234.796310	469.789185	-343.830139	-274.472565	286.540375	-403.523102	-322.831512	65.201080	-315.226715	-363.323700	57.742279	-261.667664	-184.305588	44.588440	-303.771790
51	0.50000000	-285.389313	1354.749390	-25.859344	-272.269104	1361.783569	-380.478058	-340.658936	1426.157959	-212.029617	-191.827713	1331.830200	-200.964355	-302.750214	1044.497925	58.131538	-322.856567	1052.297852	-454.405731	-217.249794	806.893402	91.646603	-263.516083	812.526642	-506.359909	-176.671799	909.867737	-56.860943	-165.965683	907.327576	-364.354095	-395.600342	965.431091	-149.595673	-397.209015	958.199524	-261.031342	-396.404678	961.815308	-205.313507	-377.289459	1119.573242	-209.171097	-86.369904	1082.896240	-208.808365	-229.023560	704.638916	33.650688	-236.822693	469.948822	-47.620571	-277.739410	272.003296	-1.529344	-308.441803	70.270607	-97.684128	-356.207123	61.110992	-156.065033	-178.976562	46.482777	-117.808922	-266.213379	676.356995	-445.252991	-234.802673	469.798615	-343.810364	-274.620728	286.645203	-403.502014	-322.840851	65.213287	-315.232056	-363.256470	57.677227	-261.704468	-184.320190	44.571335	-303.781555
52	0.51000000	-285.581360	1354.740479	-25.708906	-272.281494	1361.838989	-380.473236	-340.649841	1426.047241	-212.034912	-191.869431	1331.766968	-200.957626	-302.661194	1044.385132	58.188084	-322.825104	1052.238525	-454.361145	-217.164391	806.893188	91.704533	-263.456627	812.613708	-506.321091	-176.810654	909.766663	-56.886623	-165.880173	907.328918	-364.159454	-395.545044	965.361877	-149.526321	-397.210358	958.114746	-261.007050	-396.377701	961.738312	-205.266685	-377.282288	1119.523438	-209.174835	-86.488838	1082.919922	-208.773163	-228.989624	704.613708	33.698410	-236.698090	469.858521	-47.590008	-277.607147	272.015228	-1.567411	-308.511627	70.309227	-97.618347	-356.179718	61.171867	-156.048370	-178.893478	46.418449	-117.810204	-266.114227	676.377686	-445.207428	-234.732056	469.759369	-343.766541	-274.540039	286.615448	-403.594910	-322.816925	65.172310	-315.150269	-363.314880	57.725338	-261.629578	-184.391525	44.562244	-303.682220
53	0.52000000	-285.640900	1354.683472	-25.724794	-272.243164	1361.729980	-380.479675	-340.714325	1426.070190	-211.999313	-191.950409	1331.736450	-200.843109	-302.734222	1044.409302	58.248196	-322.914856	1052.237427	-454.278931	-217.111839	806.880859	91.729053	-263.514305	812.628876	-506.296356	-176.768707	909.788452	-56.802158	-165.727890	907.318359	-364.108002	-395.551727	965.309204	-149.501099	-397.149475	958.094604	-260.957489	-396.350601	961.701904	-205.229294	-377.239258	1119.507080	-209.103500	-86.413429	1083.004639	-208.735519	-228.942444	704.660828	33.774132	-236.665039	469.816132	-47.605991	-277.580139	271.980164	-1.502140	-308.534180	70.316948	-97.604836	-356.175079	61.206772	-156.047684	-178.900711	46.431282	-117.830574	-265.956970	676.402344	-445.112457	-234.707062	469.771240	-343.706909	-274.806152	286.855652	-403.399292	-322.827087	65.171135	-315.122528	-363.329773	57.796047	-261.634430	-184.369446	44.571678	-303.716766
54	0.53000000	-285.584198	1354.681396	-25.628296	-272.295349	1361.694946	-380.356750	-340.749847	1426.010620	-211.958038	-191.955048	1331.802490	-200.797409	-302.698059	1044.428101	58.336880	-322.911560	1052.205933	-454.294006	-217.109985	806.926422	91.799885	-263.551613	812.590454	-506.261810	-176.654572	909.863464	-56.703037	-165.639938	907.406494	-363.987610	-395.418610	965.226562	-149.369537	-397.120789	958.000244	-260.968292	-396.269699	961.613403	-205.168915	-377.236328	1119.507324	-209.098068	-86.350403	1083.108398	-208.691971	-228.851089	704.625183	33.808674	-236.615906	469.863159	-47.512863	-277.602661	271.988159	-1.466534	-308.450775	70.278114	-97.680115	-356.205719	61.269100	-156.019638	-178.962936	46.533768	-117.829521	-265.906219	676.383728	-445.118286	-234.639343	469.790527	-343.602997	-274.809692	286.887329	-403.268890	-322.805054	65.209625	-315.148407	-363.329529	57.802643	-261.641205	-184.346100	44.626266	-303.717499
55	0.54000000	-285.677765	1354.650635	-25.614573	-272.302948	1361.718262	-380.323608	-340.831421	1425.996094	-211.881012	-191.956161	1331.797241	-200.800110	-302.682281	1044.425537	58.337914	-323.011627	1052.203857	-454.161591	-217.105186	806.931519	91.799210	-263.755852	812.594452	-506.345169	-176.729767	909.825256	-56.762589	-165.636978	907.448425	-363.968048	-395.392792	965.165344	-149.358780	-397.044678	958.027832	-260.907532	-396.218735	961.596588	-205.133156	-377.285950	1119.430908	-209.091125	-86.400536	1083.087280	-208.612198	-228.776367	704.582581	33.813786	-236.610687	469.832916	-47.514183	-277.502075	271.988617	-1.373958	-308.418152	70.261620	-97.696869	-356.205811	61.318832	-156.033936	-178.982773	46.498642	-117.866829	-265.781372	676.397583	-445.101013	-234.638779	469.762909	-343.625427	-274.754211	286.896454	-403.192780	-322.788788	65.208824	-315.173035	-363.327576	57.750252	-261.623779	-184.323502	44.581108	-303.748169
56	0.55000000	-285.710510	1354.673950	-25.561609	-272.319580	1361.706665	-380.280121	-340.915131	1426.008667	-211.804260	-192.013901	1331.773071	-200.720062	-302.660400	1044.400513	58.333088	-323.025787	1052.203857	-454.122650	-217.044624	806.874115	91.782589	-263.696098	812.603302	-506.286850	-176.959381	909.729919	-56.846062	-165.596176	907.418518	-363.843323	-395.331024	965.147278	-149.291077	-397.043091	958.119080	-260.748688	-396.187057	961.633179	-205.019882	-377.259644	1119.428955	-208.963806	-86.450325	1083.118286	-208.610382	-228.720383	704.589355	33.853043	-236.512161	469.846771	-47.473629	-277.402863	271.970856	-1.455003	-308.488098	70.366188	-97.631943	-356.204163	61.273956	-155.985931	-178.994492	46.551865	-117.781723	-265.679962	676.355652	-445.009888	-234.479279	469.811066	-343.604919	-274.412140	286.706085	-403.164551	-322.805115	65.249840	-315.172363	-363.117401	57.543819	-261.672729	-184.276718	44.671574	-303.755951
57	0.56000000	-285.642975	1354.639404	-25.509558	-272.361145	1361.670410	-380.283722	-340.922821	1426.006348	-211.832169	-191.965683	1331.701416	-200.657440	-302.606262	1044.337524	58.422546	-323.021332	1052.205566	-454.149506	-217.029579	806.907593	91.872898	-263.728653	812.391449	-506.330566	-176.879166	909.773987	-56.667480	-165.463638	907.532166	-363.720428	-395.265778	965.134216	-149.230011	-397.000916	957.957764	-260.785309	-396.133347	961.545990	-205.007660	-377.259705	1119.416626	-208.952347	-86.354675	1083.197021	-208.430450	-228.662430	704.530518	33.877083	-236.595169	469.899384	-47.384529	-277.440338	271.982880	-1.416995	-308.436829	70.297249	-97.564911	-356.199585	61.283421	-156.029388	-178.917587	46.444500	-117.825974	-265.625458	676.345154	-444.987732	-234.309174	469.816711	-343.623596	-274.293335	286.743591	-403.131805	-322.802277	65.238052	-315.217896	-363.233673	57.731953	-261.674286	-184.281509	44.677799	-303.752686
58	0.57000000	-285.737823	1354.634766	-25.425495	-272.386688	1361.646240	-380.223602	-341.024170	1426.005127	-211.768204	-191.922440	1331.799072	-200.638947	-302.626801	1044.438599	58.451698	-323.108154	1052.168335	-454.046722	-217.009964	806.906464	91.896362	-263.971497	812.347931	-506.396729	-176.981628	909.671814	-56.814529	-165.417099	907.524292	-363.750824	-395.268219	965.152588	-149.199707	-396.896362	958.083984	-260.747833	-396.082291	961.618286	-204.973770	-377.289307	1119.446411	-208.808533	-86.324104	1083.209473	-208.404404	-228.631363	704.497864	33.861088	-236.584412	469.870575	-47.394398	-277.680847	272.014832	-1.166353	-308.523315	70.307526	-97.585976	-356.198425	61.314426	-156.042038	-178.956848	46.503960	-117.883705	-265.496216	676.349121	-444.961121	-234.222122	469.769165	-343.549713	-274.359406	286.956696	-403.180359	-322.799225	65.235626	-315.228241	-363.307037	57.813751	-261.666260	-184.291565	44.604950	-303.759308
59	0.58000000	-285.771301	1354.607544	-25.404593	-272.370117	1361.606567	-380.136169	-341.031372	1425.988403	-211.726151	-191.912949	1331.802368	-200.617050	-302.661072	1044.376953	58.477829	-323.124756	1052.153076	-454.032227	-217.018524	806.858643	91.864353	-264.164230	812.307251	-506.327576	-177.042282	909.609375	-56.725285	-165.370377	907.518494	-363.738739	-395.164368	965.056580	-149.133469	-396.871643	958.054199	-260.755646	-396.018005	961.555389	-204.944557	-377.306244	1119.376709	-208.780334	-86.416809	1083.203369	-208.306747	-228.533844	704.526367	33.857311	-236.588959	469.872650	-47.388691	-277.730194	271.987640	-1.001407	-308.530121	70.413704	-97.605782	-356.122040	61.333027	-156.067642	-178.977539	46.517410	-117.810425	-265.385681	676.311157	-444.901184	-234.154373	469.688416	-343.542603	-274.425018	287.034485	-403.327118	-322.741455	65.246895	-315.205353	-363.186646	57.808689	-261.639191	-184.302750	44.654839	-303.722382
60	0.59000000	-285.651001	1354.592163	-25.350863	-272.322327	1361.578491	-380.140228	-341.003693	1425.985718	-211.649933	-191.999405	1331.786499	-200.540039	-302.615631	1044.375244	58.551159	-323.196381	1052.154175	-453.969757	-217.545258	806.803162	92.404594	-264.010307	812.278961	-506.254730	-177.393387	909.614380	-56.944057	-165.353989	907.500488	-363.708344	-395.089355	965.047302	-149.083252	-396.823151	957.973267	-260.683807	-395.956253	961.510284	-204.883530	-377.231232	1119.326904	-208.733765	-86.311676	1083.276489	-208.275452	-228.426224	704.542847	33.911392	-236.431137	469.820496	-47.361881	-277.560913	271.878601	-1.280402	-308.546173	70.304985	-97.607399	-356.222321	61.196697	-156.027496	-178.982986	46.527519	-117.791031	-265.336517	676.283203	-444.924133	-233.917221	469.777039	-343.497437	-274.364380	287.023071	-403.241943	-322.742798	65.246338	-315.163696	-363.262421	57.852634	-261.556152	-184.317932	44.583782	-303.726532
61	0.60000000	-285.523346	1354.548218	-25.299509	-272.388275	1361.564819	-380.050446	-340.963226	1425.935669	-211.673584	-191.976654	1331.708862	-200.539551	-302.541046	1044.269165	58.577099	-323.196045	1052.117798	-453.881256	-217.800545	806.697815	92.559414	-264.092842	812.454315	-506.147766	-177.846756	909.417786	-57.107140	-165.244751	907.538940	-363.659973	-395.088531	965.032837	-149.050507	-396.762482	957.953491	-260.626343	-395.925507	961.493164	-204.838425	-377.220703	1119.323975	-208.703003	-86.299019	1083.258789	-208.194519	-228.397354	704.596863	33.933647	-236.381927	469.801178	-47.393391	-277.481476	271.967621	-1.370668	-308.372223	70.261261	-97.636711	-356.213867	61.278679	-155.968033	-178.941040	46.474743	-117.795746	-265.273712	676.306213	-444.844940	-233.885666	469.775848	-343.460266	-274.292847	287.038574	-403.232849	-322.741882	65.261765	-315.180634	-363.362488	57.894360	-261.592712	-184.265060	44.618305	-303.745148
62	0.61000000	-285.555542	1354.593506	-25.178383	-272.436737	1361.582275	-380.028168	-340.994873	1425.882324	-211.507904	-192.027557	1331.706665	-200.509125	-302.427094	1044.243896	58.609230	-323.283844	1052.067383	-453.871826	-217.257339	806.690735	91.907635	-264.103065	812.471375	-506.081665	-178.388443	909.366333	-57.312805	-165.173508	907.613586	-363.698639	-395.112762	965.042725	-149.024048	-396.775269	957.958191	-260.601746	-395.944016	961.500458	-204.812897	-377.243713	1119.273804	-208.592804	-86.318954	1083.245239	-208.143829	-228.266693	704.613220	33.875916	-236.396317	469.845612	-47.379971	-277.487946	272.067383	-1.350111	-308.461456	70.354454	-97.629379	-356.162140	61.254082	-156.026459	-178.961121	46.503963	-117.872894	-265.130798	676.306152	-444.871124	-233.816513	469.679901	-343.477875	-274.231812	287.123047	-403.317017	-322.680511	65.295670	-315.172607	-363.069458	57.586376	-261.638550	-184.215454	44.619976	-303.732239
63	0.62000000	-285.521881	1354.576904	-25.171028	-272.496338	1361.546753	-380.056152	-341.016846	1425.893433	-211.470032	-191.937668	1331.715454	-200.408417	-302.481171	1044.327637	58.608425	-323.280212	1052.056396	-453.795715	-217.497238	806.737610	92.360256	-264.730736	811.981354	-505.893036	-178.226685	909.453857	-57.138767	-165.102478	907.669556	-363.724152	-395.001343	964.932861	-149.088074	-396.801056	957.915955	-260.575439	-395.901199	961.424408	-204.831757	-377.250671	1119.257935	-208.582748	-86.207779	1083.240601	-208.115585	-228.208588	704.567200	33.904438	-236.351196	469.880310	-47.379772	-277.743652	271.964264	-1.022212	-308.534973	70.325882	-97.608681	-356.079559	61.231617	-156.099472	-178.978577	46.528374	-117.851089	-265.087372	676.294861	-444.871704	-233.730835	469.703888	-343.458313	-273.831665	286.803253	-403.010559	-322.707214	65.281708	-315.202515	-363.088898	57.736298	-261.636047	-184.262100	44.669434	-303.712891
64	0.63000000	-285.445496	1354.506592	-25.116545	-272.575134	1361.514404	-379.957916	-341.099304	1425.837646	-211.386429	-191.907730	1331.714355	-200.426407	-302.368591	1044.254517	58.690022	-323.372101	1052.074097	-453.702972	-217.761169	806.602844	92.584618	-265.051353	811.883759	-505.812073	-177.800430	909.473450	-57.014328	-165.095108	907.671692	-363.749634	-394.920471	964.881958	-149.050705	-396.698761	957.851379	-260.551819	-395.809616	961.366669	-204.801262	-377.257446	1119.183716	-208.541473	-86.270485	1083.272827	-208.150040	-227.859650	704.654541	34.131207	-236.262512	469.857147	-47.358654	-277.590240	271.912872	-1.227330	-308.440063	70.288353	-97.568344	-356.068176	61.178185	-156.050583	-178.985168	46.524269	-117.844421	-265.041382	676.281677	-444.844177	-233.665939	469.663788	-343.403015	-273.742706	286.774292	-402.949799	-322.690460	65.273972	-315.135498	-363.141693	57.795776	-261.644440	-184.297394	44.624874	-303.733734
65	0.64000000	-285.418701	1354.454346	-25.035322	-272.583130	1361.512817	-379.931976	-341.127899	1425.825684	-211.416336	-191.920334	1331.708862	-200.382477	-302.267365	1044.124634	58.739071	-323.442352	1052.006470	-453.653839	-217.822151	806.512878	92.607204	-265.066689	811.881409	-505.810989	-177.793350	909.455261	-57.138416	-165.021164	907.699158	-363.815369	-394.926605	964.809204	-148.998566	-396.625366	957.766663	-260.499451	-395.775986	961.287933	-204.749008	-377.285980	1119.149048	-208.426331	-86.151398	1083.387085	-208.173019	-227.847504	704.744629	34.187679	-236.286163	469.787262	-47.336403	-277.756012	271.927216	-0.988886	-308.404144	70.278336	-97.571854	-356.224518	61.162285	-156.039597	-178.935349	46.447636	-117.753494	-265.044220	676.270996	-444.794128	-233.667618	469.670807	-343.394104	-273.743134	286.810089	-403.038513	-322.725098	65.272141	-315.103027	-362.992004	57.568401	-261.645660	-184.304886	44.612461	-303.718475
66	0.65000000	-285.317230	1354.396362	-24.986654	-272.640717	1361.450928	-379.939728	-341.146149	1425.754150	-211.290665	-191.930283	1331.706177	-200.372650	-302.259369	1044.117798	58.764614	-323.452637	1051.967529	-453.627502	-217.791870	806.440155	92.592113	-264.422119	811.863464	-506.483154	-178.116669	909.338684	-57.335125	-164.889359	907.755310	-363.904938	-394.843689	964.733765	-148.967102	-396.605682	957.700195	-260.506073	-395.724686	961.216980	-204.736588	-377.239655	1119.051514	-208.347183	-86.043045	1083.410767	-208.254120	-227.732574	704.724365	34.148529	-236.308563	469.806030	-47.331188	-277.916748	271.777039	-0.918202	-308.349701	70.274475	-97.652481	-356.251312	61.116844	-156.046463	-178.943970	46.445496	-117.727882	-264.914429	676.239197	-444.754883	-233.688278	469.667542	-343.388092	-273.815826	286.816467	-403.028870	-322.689880	65.235687	-315.095245	-363.142670	57.754845	-261.595734	-184.215729	44.576302	-303.741608
67	0.66000000	-285.218170	1354.345825	-24.962973	-272.710022	1361.427734	-379.899841	-341.158539	1425.721313	-211.273605	-191.915558	1331.709473	-200.435303	-302.176483	1044.066406	58.774433	-323.467682	1051.863647	-453.326599	-217.771286	806.334290	92.551033	-265.260147	811.717041	-505.968185	-178.265793	909.266724	-57.172123	-164.864319	907.727905	-363.837738	-394.840790	964.638916	-148.921143	-396.563507	957.627747	-260.428711	-395.702148	961.133331	-204.674927	-377.232086	1119.030151	-208.315994	-86.037163	1083.384155	-208.231842	-227.566574	704.654053	34.141708	-236.151688	469.815277	-47.289436	-277.444275	272.059021	-1.437729	-308.416321	70.257034	-97.579437	-356.117065	61.232304	-156.026215	-178.992661	46.513828	-117.802841	-264.857178	676.255798	-444.820831	-233.686951	469.650879	-343.371490	-274.288513	286.988190	-403.158813	-322.642181	65.258400	-315.209076	-362.960236	57.553867	-261.565826	-184.256500	44.569584	-303.784973
68	0.67000000	-285.185242	1354.281128	-24.909794	-272.765564	1361.449463	-379.871002	-341.234985	1425.644043	-211.223541	-191.911575	1331.706299	-200.446960	-302.160858	1044.061279	58.797344	-323.539185	1051.912109	-453.533752	-217.814636	806.299622	92.583694	-265.471985	811.615417	-505.766983	-178.535049	909.218933	-57.432594	-164.708801	907.715393	-363.837494	-394.844727	964.636292	-148.918045	-396.425995	957.602234	-260.403534	-395.635361	961.119263	-204.660789	-377.183899	1118.956177	-208.242294	-86.044037	1083.414551	-208.298325	-227.439789	704.699646	34.125587	-236.126495	469.780731	-47.284241	-277.190155	272.099213	-1.591634	-308.441162	70.253494	-97.551689	-356.183960	61.230232	-156.031372	-178.940887	46.453506	-117.754204	-264.758240	676.219238	-444.790009	-233.621140	469.658081	-343.426605	-274.045868	286.820435	-403.064087	-322.694366	65.276367	-315.217468	-363.046661	57.772778	-261.576294	-184.184158	44.645947	-303.695160
69	0.68000000	-285.230438	1354.291138	-24.836906	-272.863495	1361.411621	-379.879517	-341.243744	1425.652222	-211.195129	-191.907547	1331.636230	-200.409683	-302.205658	1044.094238	58.810707	-323.552490	1051.952881	-453.544800	-217.848312	806.269806	92.645241	-265.560432	811.647552	-505.848785	-178.923401	909.131287	-57.653095	-164.701492	907.771179	-363.868347	-394.693390	964.524170	-148.908310	-396.357239	957.554138	-260.460236	-395.525314	961.039154	-204.684273	-377.149597	1118.909302	-208.265732	-85.902000	1083.500977	-208.254059	-227.537979	704.782959	34.204857	-235.977966	469.741821	-47.298168	-277.348724	271.947906	-1.370419	-308.475342	70.284485	-97.679245	-356.206116	61.287922	-156.035034	-178.991837	46.525261	-117.792244	-264.744049	676.203430	-444.792328	-233.612778	469.650543	-343.444580	-273.902679	286.684052	-403.000854	-322.677673	65.325775	-315.108948	-363.178925	57.865856	-261.624725	-184.243347	44.604042	-303.746674
70	0.69000000	-285.156525	1354.231079	-24.885458	-272.976227	1361.365356	-379.897217	-341.322906	1425.685059	-211.147888	-191.973846	1331.722168	-200.345978	-302.147766	1044.124146	58.895287	-323.612061	1051.919067	-453.496826	-217.836998	806.274902	92.630913	-265.566833	811.631653	-505.841888	-179.199448	909.161621	-57.727394	-164.581848	907.794617	-363.780090	-394.668243	964.509277	-148.912491	-396.320984	957.466736	-260.374237	-395.494614	960.988007	-204.643364	-377.180481	1118.870483	-208.108658	-85.747566	1083.625732	-208.413498	-227.326706	704.582214	34.094528	-235.943634	469.794678	-47.293159	-277.601135	271.842621	-0.993535	-308.519531	70.271820	-97.624954	-356.113586	61.272816	-156.090240	-178.913589	46.423359	-117.835442	-264.667145	676.234436	-444.791534	-233.607758	469.633606	-343.441681	-274.358368	286.991364	-403.187103	-322.676544	65.329597	-315.116302	-363.169250	57.839554	-261.528992	-184.227463	44.575211	-303.717896
71	0.70000000	-285.188995	1354.232056	-24.803894	-273.008911	1361.393433	-379.913025	-341.348877	1425.650513	-211.109070	-191.943115	1331.708984	-200.366501	-302.213715	1044.085815	58.955803	-323.686432	1051.948730	-453.468811	-217.823891	806.280060	92.641460	-265.618126	811.652771	-505.861313	-179.244385	909.132141	-57.734112	-164.481308	907.811707	-363.666931	-394.621460	964.453979	-148.836365	-396.250305	957.477295	-260.394562	-395.435883	960.965637	-204.615463	-377.195709	1118.890015	-208.058777	-85.704689	1083.659912	-208.418640	-227.228638	704.683289	34.175770	-235.969498	469.815674	-47.285072	-277.304077	271.980560	-1.155921	-308.450012	70.296745	-97.559616	-356.102020	61.293354	-156.071548	-178.913849	46.458981	-117.781235	-264.605743	676.254761	-444.745819	-233.594101	469.693024	-343.431946	-274.479309	287.120422	-403.183807	-322.693329	65.312637	-315.100098	-362.984741	57.636265	-261.632172	-184.249405	44.582886	-303.789581
72	0.71000000	-285.125854	1354.232910	-24.740173	-273.180695	1361.344116	-379.671143	-341.398773	1425.584961	-211.027222	-192.078201	1331.770020	-200.353668	-302.252075	1044.097778	58.989323	-323.769897	1051.937500	-453.398438	-217.799591	806.224365	92.690994	-265.664169	811.636230	-505.876541	-178.726898	909.173157	-57.508392	-164.465424	907.796082	-363.609375	-394.519135	964.401489	-148.887253	-396.206909	957.426208	-260.436798	-395.363022	960.913849	-204.662025	-377.136169	1118.827026	-207.994049	-85.664070	1083.775269	-208.456131	-227.163239	704.709167	34.228668	-235.769165	469.821045	-47.306293	-277.124359	271.948303	-1.348671	-308.513641	70.310440	-97.597237	-356.177399	61.333828	-156.004349	-178.901794	46.433586	-117.794128	-264.481140	676.287109	-444.756866	-233.532867	469.680115	-343.356598	-274.433228	287.091431	-403.194611	-322.649811	65.313522	-315.131744	-363.122314	57.852917	-261.625854	-184.319641	44.618206	-303.738953
73	0.72000000	-285.130249	1354.253296	-24.744900	-273.325684	1361.327026	-379.673248	-341.427673	1425.581299	-211.041031	-192.099609	1331.791992	-200.406204	-302.272217	1044.139771	58.993916	-323.761261	1051.939453	-453.393433	-217.784859	806.212555	92.690998	-265.747475	811.595032	-505.824997	-178.318008	909.307190	-57.460865	-164.344086	907.881409	-363.600433	-394.439087	964.391296	-148.823822	-396.136627	957.425415	-260.393677	-395.287857	960.908356	-204.608749	-377.115479	1118.802490	-207.997635	-85.656281	1083.824097	-208.430603	-226.898132	704.519043	34.191017	-235.715576	469.810181	-47.327377	-277.022888	272.053101	-1.322628	-308.402710	70.341957	-97.587547	-356.196289	61.344486	-155.998688	-178.979660	46.552052	-117.807732	-264.475372	676.315552	-444.764008	-233.509003	469.696136	-343.365173	-274.433014	287.089355	-403.243256	-322.652130	65.360405	-315.099426	-362.957611	57.622509	-261.572083	-184.219284	44.688686	-303.729675
74	0.73000000	-285.106445	1354.231201	-24.789892	-273.373260	1361.339966	-379.673859	-341.419098	1425.560913	-210.990189	-192.090408	1331.788940	-200.399139	-302.263550	1044.126709	59.021336	-323.876617	1051.912109	-453.357422	-217.718918	806.227264	92.695671	-265.758011	811.584229	-505.828461	-178.270615	909.293518	-57.526913	-164.316498	907.874878	-363.578857	-394.289429	964.424683	-148.813446	-396.066223	957.411011	-260.420135	-395.177826	960.917847	-204.616791	-377.118652	1118.797241	-207.969467	-85.608215	1083.698608	-208.404373	-226.522842	704.417969	34.114319	-235.641724	469.832367	-47.265015	-276.909729	271.974792	-1.216160	-308.440155	70.343407	-97.636284	-356.206390	61.378052	-155.974579	-178.930450	46.555309	-117.898636	-264.305634	676.271362	-444.764282	-233.502121	469.669434	-343.352173	-274.366638	287.109283	-403.282043	-322.641418	65.327881	-315.108368	-362.929871	57.616848	-261.629181	-184.308105	44.629051	-303.707825
75	0.74000000	-284.613098	1354.042358	-25.183634	-273.484131	1361.327759	-379.655151	-341.513672	1425.575562	-210.971909	-192.085480	1331.797363	-200.387711	-302.118774	1044.109741	58.992970	-324.001526	1051.893188	-453.326447	-217.653954	806.218140	92.677193	-265.789810	811.590118	-505.799500	-177.950226	909.354004	-57.238377	-164.298569	907.874023	-363.527740	-394.243988	964.389893	-148.717453	-395.994843	957.400024	-260.371552	-395.119415	960.894958	-204.544502	-377.060760	1118.773193	-207.911102	-85.478188	1083.854004	-208.522461	-226.346100	704.484314	34.143585	-235.489929	469.820129	-47.330956	-276.825836	271.998230	-1.270404	-308.439575	70.359848	-97.643700	-356.193726	61.346073	-155.999741	-178.930069	46.525448	-117.838844	-264.262726	676.312805	-444.766785	-233.361694	469.656006	-343.302124	-274.331573	287.135681	-403.246704	-322.654419	65.357765	-315.087738	-363.140900	57.918678	-261.619629	-184.266541	44.562916	-303.702423
76	0.75000000	-284.497772	1354.015259	-25.235615	-273.601227	1361.293091	-379.617218	-341.528870	1425.547974	-210.916931	-192.070190	1331.868896	-200.442200	-302.120911	1044.105591	59.022457	-324.056366	1051.845703	-453.249969	-217.613251	806.201172	92.728603	-265.768944	811.549438	-505.777252	-177.608322	909.346497	-57.219158	-164.228012	907.849426	-363.469604	-394.248291	964.448914	-148.700882	-395.963715	957.439331	-260.278534	-395.106003	960.944122	-204.489708	-377.044037	1118.710938	-207.914917	-85.326210	1083.967896	-208.579926	-226.205185	704.471680	34.158329	-235.363922	469.792084	-47.313450	-276.847778	272.032501	-1.246917	-308.429565	70.299751	-97.574043	-356.108276	61.322968	-156.031052	-178.828766	46.484772	-117.840302	-264.189545	676.338623	-444.720093	-233.343948	469.666168	-343.285065	-273.924225	286.858459	-403.024963	-322.629913	65.321068	-315.136871	-363.160645	57.972591	-261.553589	-184.152603	44.649937	-303.715271
77	0.76000000	-285.013489	1354.245972	-24.706659	-273.704620	1361.278442	-379.655701	-341.589966	1425.492798	-210.933792	-192.162308	1331.819824	-200.465042	-302.156708	1044.088989	59.062634	-324.106842	1051.753906	-453.196289	-217.591316	806.215790	92.732971	-265.789070	811.528168	-505.742416	-177.841309	909.275879	-57.357269	-164.158783	907.845825	-363.520264	-394.222229	964.411377	-148.598007	-395.970154	957.429321	-260.268860	-395.096191	960.920349	-204.433434	-376.984894	1118.667847	-207.861099	-85.246864	1083.980835	-208.649857	-226.146332	704.466492	34.197128	-235.354401	469.788757	-47.311840	-276.814087	271.966064	-1.272011	-308.433319	70.299179	-97.565063	-356.038208	61.292686	-155.987091	-178.885269	46.483135	-117.899101	-264.187225	676.320984	-444.715729	-233.334503	469.633057	-343.295410	-274.147980	287.046051	-403.217377	-322.628510	65.306831	-315.140533	-363.151306	57.856213	-261.523590	-184.245316	44.591248	-303.712372
78	0.77000000	-285.074768	1354.220947	-24.674946	-273.814941	1361.211914	-379.640411	-341.613861	1425.454224	-210.862305	-192.174820	1331.903687	-200.509048	-302.100677	1044.112549	59.019001	-324.178192	1051.720093	-453.143738	-217.535110	806.225128	92.734440	-265.715401	811.563141	-505.750229	-178.023727	909.212708	-57.291000	-164.135529	907.873596	-363.476196	-394.125275	964.288208	-148.539642	-395.875275	957.353821	-260.255615	-395.000275	960.821014	-204.397629	-377.059601	1118.601074	-207.775955	-85.245316	1083.994263	-208.669327	-226.039246	704.478821	34.290340	-235.196960	469.745544	-47.321793	-276.800354	271.881958	-1.296917	-308.428589	70.288086	-97.559204	-356.086334	61.255844	-156.021332	-178.906570	46.401863	-117.801201	-264.086395	676.305176	-444.688354	-233.346512	469.600525	-343.326141	-273.945648	286.795990	-403.062012	-322.654388	65.322975	-315.129395	-362.931702	57.574673	-261.564178	-184.219116	44.577549	-303.699615
79	0.78000000	-284.545044	1354.016846	-25.096067	-273.853973	1361.167725	-379.700745	-341.750702	1425.431030	-210.871460	-192.159363	1331.917847	-200.517380	-301.922546	1044.048950	58.999447	-324.260406	1051.675537	-453.114014	-217.395523	806.232391	92.706150	-265.823280	811.471130	-505.668304	-178.009079	909.172302	-57.268303	-164.135254	907.846191	-363.556641	-393.992889	964.350098	-148.486023	-395.788483	957.093506	-260.132660	-394.890686	960.721802	-204.309341	-377.030640	1118.561890	-207.692535	-85.070023	1084.020264	-208.733414	-225.924164	704.448547	34.155746	-235.168152	469.720978	-47.346760	-276.782074	271.829926	-1.288765	-308.430939	70.291985	-97.560249	-356.060272	61.246456	-156.015594	-178.975098	46.471088	-117.829147	-264.108734	676.273254	-444.655792	-233.311661	469.559570	-343.246643	-273.807587	286.703491	-402.957153	-322.664307	65.308090	-315.097778	-363.047119	57.771461	-261.565399	-184.265274	44.557884	-303.743439
80	0.79000000	-284.928345	1354.243286	-24.744118	-274.008636	1361.195068	-379.667053	-341.769135	1425.396729	-210.858353	-192.202667	1331.894287	-200.614395	-301.891998	1044.053467	58.984604	-324.339417	1051.666626	-453.058868	-217.339165	806.242645	92.736431	-265.817520	811.455597	-505.640717	-177.751938	909.234192	-57.225502	-164.067276	907.825134	-363.506500	-393.923981	964.344482	-148.430023	-395.826813	957.113464	-260.069061	-394.875397	960.728973	-204.249542	-377.003815	1118.504883	-207.712219	-85.013390	1084.049561	-208.724731	-225.797470	704.434814	34.199398	-235.107925	469.681488	-47.396709	-276.687469	271.864655	-1.264065	-308.401794	70.317093	-97.583076	-356.132690	61.322262	-156.029907	-178.904099	46.403767	-117.814705	-264.116608	676.299377	-444.655029	-233.271652	469.571594	-343.260956	-274.175934	287.076996	-403.186279	-322.694489	65.303970	-315.052521	-363.153046	57.924194	-261.530731	-184.230026	44.579670	-303.726135
81	0.80000000	-285.013611	1354.291992	-24.710230	-274.010590	1361.247070	-379.672211	-341.737701	1425.377808	-210.878998	-192.192963	1331.936890	-200.629425	-301.805206	1044.061890	59.035229	-324.394257	1051.666992	-453.001709	-217.244156	806.269135	92.646042	-265.682022	811.480927	-505.622574	-177.470322	909.284607	-57.136909	-164.110748	907.828613	-363.554657	-393.861755	964.352783	-148.370605	-395.793152	957.086670	-259.997223	-394.827454	960.719727	-204.183914	-376.930725	1118.439941	-207.740143	-85.027252	1084.018066	-208.769073	-225.748795	704.420898	34.205433	-235.098282	469.748230	-47.386158	-276.674133	271.814545	-1.329572	-308.387634	70.309227	-97.585175	-356.147797	61.335430	-155.999008	-178.875961	46.572811	-117.891609	-264.104919	676.297119	-444.623871	-233.273651	469.577515	-343.274597	-273.978546	286.878998	-403.042419	-322.650269	65.305840	-315.106293	-363.166656	57.957245	-261.514709	-184.192078	44.572319	-303.688080
82	0.81000000	-284.937653	1354.301514	-24.681696	-273.998444	1361.225586	-379.711700	-341.807068	1425.340332	-210.814163	-192.202805	1331.936157	-200.624191	-301.793274	1044.100952	59.046627	-324.414612	1051.591919	-452.733795	-217.120667	806.264465	92.650906	-265.777229	811.411285	-505.510040	-177.359940	909.259033	-57.207016	-164.068039	907.928894	-363.615112	-393.796600	964.340881	-148.313843	-395.692596	957.111755	-259.983887	-394.744598	960.726318	-204.148865	-376.931580	1118.457642	-207.621490	-84.964165	1083.918823	-208.768219	-225.722885	704.451904	34.261364	-235.062180	469.772308	-47.402275	-276.673615	271.891327	-1.327560	-308.311279	70.310905	-97.654694	-356.147400	61.390480	-156.030396	-178.917252	46.541515	-117.884308	-264.103455	676.361938	-444.660522	-233.282562	469.591095	-343.280273	-273.889404	286.860748	-403.024933	-322.583527	65.340393	-315.101318	-363.060577	57.884842	-261.578644	-184.202515	44.611942	-303.698761
83	0.82000000	-284.817291	1354.351196	-24.717793	-274.046722	1361.213135	-379.732941	-341.817291	1425.359741	-210.838730	-192.327179	1331.855103	-200.705276	-301.825439	1044.186035	59.055645	-324.489594	1051.586182	-452.675781	-217.004044	806.285583	92.662434	-265.803635	811.270416	-505.521271	-177.287415	909.235779	-57.321598	-164.071869	907.928345	-363.663147	-393.716675	964.343750	-148.320129	-395.705597	957.080139	-259.914093	-394.711136	960.711945	-204.117111	-376.865967	1118.445435	-207.648254	-84.853973	1084.055908	-208.779907	-225.667267	704.398193	34.236671	-235.048416	469.735748	-47.412518	-276.712006	271.858917	-1.334554	-308.359863	70.339912	-97.607803	-356.088013	61.339485	-155.955841	-178.968048	46.481827	-117.838928	-264.136108	676.326233	-444.582642	-233.335464	469.632202	-343.301941	-273.792847	286.853912	-403.039673	-322.679626	65.366791	-315.085449	-363.055298	57.915451	-261.559937	-184.242020	44.644142	-303.675903
84	0.83000000	-284.851532	1354.349487	-24.737476	-274.056885	1361.215332	-379.749390	-341.812653	1425.356445	-210.845551	-192.226608	1331.925049	-200.684402	-301.712646	1044.196411	59.077946	-324.489288	1051.559692	-452.672607	-216.917824	806.295074	92.610397	-265.759560	811.232330	-505.428589	-177.041962	909.332031	-57.210373	-164.062637	907.913147	-363.692444	-393.645111	964.346008	-148.271393	-395.726776	957.322205	-260.004211	-394.685944	960.834106	-204.137802	-376.852203	1118.455688	-207.659348	-84.745422	1084.078369	-208.880341	-225.524597	704.378540	34.189697	-235.045502	469.734161	-47.420853	-276.708649	271.911194	-1.351661	-308.319092	70.318001	-97.650970	-356.130798	61.351620	-156.022751	-178.877869	46.445827	-117.825790	-264.192566	676.361328	-444.572113	-233.325134	469.657257	-343.300598	-274.230774	287.088379	-403.221405	-322.649689	65.346733	-315.064392	-363.060516	57.938656	-261.568085	-184.234543	44.645592	-303.680664
85	0.84000000	-284.806854	1354.329834	-24.735624	-274.089020	1361.217407	-379.763519	-341.753815	1425.371704	-210.861252	-192.169632	1331.980225	-200.712921	-301.594513	1044.109009	59.025093	-324.439728	1051.473389	-452.658783	-216.708862	806.377106	92.576077	-265.731232	811.215698	-505.375336	-176.833206	909.411194	-57.019905	-163.986862	907.946167	-363.722839	-393.631439	964.309875	-148.241592	-395.660400	957.077148	-259.833923	-394.645920	960.693512	-204.037758	-376.876923	1118.451416	-207.632614	-84.710327	1084.107666	-208.931427	-225.457718	704.448547	34.136196	-235.041534	469.761047	-47.421646	-276.707520	271.962463	-1.264373	-308.337036	70.349709	-97.621414	-356.138763	61.385693	-156.005341	-178.956802	46.490051	-117.853775	-264.231201	676.330872	-444.568939	-233.351242	469.643372	-343.264832	-273.914368	286.967804	-403.061005	-322.656128	65.371796	-315.020294	-362.872223	57.693626	-261.591156	-184.205124	44.657284	-303.709900
86	0.85000000	-284.707092	1354.396240	-24.721596	-274.135223	1361.229248	-379.806366	-341.730347	1425.353882	-210.885300	-192.096512	1332.001587	-200.757477	-301.474457	1044.127930	59.057487	-324.434021	1051.468506	-452.658844	-216.538155	806.364349	92.620754	-265.743866	811.198853	-505.328842	-177.225922	909.285217	-57.337681	-163.978912	907.968018	-363.764526	-393.554199	964.271790	-148.238480	-395.642242	957.040771	-259.813843	-394.598221	960.656281	-204.026161	-376.799194	1118.432861	-207.599518	-84.718948	1084.136353	-208.896652	-225.271439	704.410950	34.149265	-235.042770	469.763885	-47.420525	-276.651672	271.976013	-1.254206	-308.432953	70.339546	-97.661880	-356.136261	61.435741	-156.052277	-178.961823	46.555149	-117.916260	-264.286591	676.331543	-444.627075	-233.430405	469.621826	-343.245697	-274.261902	287.142914	-403.161163	-322.592316	65.317978	-315.053497	-363.007050	57.871197	-261.562531	-184.255814	44.669769	-303.716949
87	0.86000000	-284.582123	1354.370117	-24.760229	-274.130157	1361.174561	-379.831390	-341.804626	1425.357910	-210.847885	-192.147614	1331.937988	-200.720123	-301.325836	1044.191650	59.054684	-324.459351	1051.475220	-452.795685	-216.370140	806.363770	92.532043	-265.692429	811.153381	-505.283432	-177.997879	909.173523	-57.804298	-163.969650	908.013000	-363.746796	-393.569794	964.467896	-148.055649	-395.598114	956.975525	-259.748810	-394.583954	960.721710	-203.902229	-376.872253	1118.393921	-207.541214	-84.646042	1084.082153	-208.881073	-225.214951	704.421631	34.160797	-235.043015	469.763031	-47.420506	-276.624268	272.018799	-1.331229	-308.372345	70.331207	-97.626854	-356.140656	61.395546	-156.003891	-178.856583	46.530674	-117.926704	-264.337128	676.289734	-444.601440	-233.512863	469.595398	-343.329895	-274.060455	287.022949	-403.019592	-322.617584	65.359528	-315.028656	-363.045837	57.912170	-261.598480	-184.239395	44.584969	-303.775818
88	0.87000000	-283.991913	1354.113159	-25.216381	-274.134308	1361.179565	-379.844696	-341.742828	1425.355713	-210.880066	-192.150940	1331.843140	-200.675095	-301.382507	1044.347046	59.462509	-324.467926	1051.411987	-452.589691	-216.211830	806.347076	92.426350	-265.678612	811.099091	-505.152557	-178.577194	909.071533	-57.929085	-163.984238	908.031311	-363.779694	-393.520233	964.399109	-147.982849	-395.557831	956.920898	-259.740570	-394.539032	960.660004	-203.861710	-376.889374	1118.383179	-207.502625	-84.553268	1084.248413	-209.069901	-225.195847	704.380127	34.073494	-234.961960	469.760315	-47.366405	-276.637909	271.967682	-1.341348	-308.332092	70.279175	-97.631882	-356.138153	61.357700	-155.992844	-178.841660	46.525444	-117.929237	-264.412750	676.290710	-444.589966	-233.516266	469.597534	-343.368500	-273.990967	287.037659	-403.010529	-322.648224	65.341743	-315.100098	-363.064880	57.957798	-261.573883	-184.208679	44.559124	-303.711548
89	0.88000000	-284.360168	1354.413330	-24.861492	-274.126221	1361.175781	-379.822571	-341.791718	1425.327759	-210.921432	-192.093903	1331.981323	-200.802353	-301.414276	1044.343750	59.501991	-324.444519	1051.396606	-452.521088	-216.123909	806.336823	92.357422	-265.569107	811.600037	-504.780548	-179.006210	908.977417	-58.199280	-163.982895	908.080444	-363.769379	-393.506073	964.384338	-147.987869	-395.563354	956.870239	-259.724731	-394.534714	960.627289	-203.856300	-376.893799	1118.324219	-207.488480	-84.405930	1084.282837	-209.047409	-225.013092	704.331299	34.140697	-234.876480	469.722443	-47.422928	-276.641327	271.974640	-1.377798	-308.327576	70.302559	-97.626221	-356.136841	61.358585	-155.992401	-178.947067	46.503300	-117.842865	-264.422607	676.314270	-444.585876	-233.612457	469.601105	-343.366821	-274.407349	287.214355	-403.147675	-322.557251	65.334091	-315.105438	-363.038208	57.891678	-261.599976	-184.150635	44.568359	-303.780090
90	0.89000000	-284.476105	1354.434692	-24.719894	-274.153076	1361.178223	-379.880768	-341.821991	1425.319336	-210.826828	-191.996353	1332.005371	-200.869614	-301.124969	1044.232422	59.249542	-324.398346	1051.384766	-452.472656	-215.972534	806.356262	92.344299	-265.569321	811.685120	-504.752686	-179.386169	908.896423	-58.380226	-163.979630	908.092712	-363.726044	-393.504730	964.382263	-147.994583	-395.504150	956.876709	-259.675934	-394.504440	960.629486	-203.835258	-376.847992	1118.318481	-207.411758	-84.380569	1084.272461	-209.059830	-225.009018	704.356384	34.152977	-234.843109	469.735840	-47.444698	-276.506104	271.982391	-1.303426	-308.331848	70.313057	-97.630348	-356.134155	61.383537	-155.997940	-178.959305	46.439098	-117.850945	-264.554779	676.313599	-444.624847	-233.679199	469.579498	-343.363129	-274.444794	287.273499	-403.248291	-322.560272	65.347389	-315.078979	-363.019348	57.886017	-261.608704	-184.089783	44.609615	-303.746124
91	0.90000000	-284.319916	1354.418213	-24.737059	-274.133759	1361.155396	-379.919220	-341.719940	1425.298828	-210.884430	-192.043991	1332.004395	-200.808243	-300.936768	1044.246094	59.167397	-324.411438	1051.368774	-452.469849	-215.776726	806.420013	92.235756	-265.594696	811.640778	-504.684143	-179.375793	908.975159	-58.362228	-163.980713	908.077942	-363.734680	-393.528168	964.147705	-148.085724	-395.510376	956.788269	-259.652985	-394.519272	960.467987	-203.869354	-376.842010	1118.333862	-207.408295	-84.318848	1084.227051	-209.090057	-224.867966	704.377380	34.075527	-234.770309	469.744415	-47.440720	-276.543884	272.032196	-1.316879	-308.342773	70.421379	-97.650772	-356.135712	61.387363	-155.998932	-178.854233	46.458118	-117.833344	-264.561432	676.311035	-444.625336	-233.680069	469.629883	-343.414703	-274.461975	287.215851	-403.242828	-322.557037	65.338257	-315.121338	-363.019043	57.904270	-261.608459	-184.154984	44.563393	-303.744843
92	0.91000000	-284.281830	1354.529541	-24.776968	-274.151062	1361.175903	-379.900757	-341.681519	1425.263672	-210.924744	-191.997437	1332.001709	-200.909897	-300.969818	1044.356689	59.520248	-324.414551	1051.368652	-452.470978	-215.539375	806.446289	92.240658	-265.554733	811.565369	-504.603043	-179.037842	909.014526	-58.297058	-163.978592	908.080994	-363.712158	-393.394379	964.320129	-147.937744	-395.518555	956.873779	-259.644165	-394.456467	960.596954	-203.790955	-376.843842	1118.335205	-207.410675	-84.306244	1084.224609	-209.096634	-224.801132	704.373535	34.109917	-234.708786	469.761688	-47.419258	-276.473755	271.991730	-1.350142	-308.373444	70.349976	-97.599350	-356.106415	61.327354	-156.029327	-178.931534	46.499580	-117.859222	-264.550842	676.331360	-444.644836	-233.668488	469.662201	-343.404541	-274.494019	287.208435	-403.183289	-322.594299	65.317734	-315.083130	-363.023193	57.908882	-261.607269	-184.195404	44.568226	-303.762024
93	0.92000000	-284.111847	1354.508667	-24.846601	-274.179413	1361.169556	-379.951538	-341.693848	1425.356079	-210.915619	-191.973648	1331.893311	-200.883392	-300.798828	1044.364014	59.299198	-324.387695	1051.355835	-452.420837	-215.337196	806.452454	92.096169	-265.438278	811.496033	-504.476517	-178.657196	909.059509	-58.169525	-164.001862	908.088318	-363.728973	-393.378571	964.390381	-147.939896	-395.538361	956.799500	-259.628021	-394.458466	960.594940	-203.783958	-376.915985	1118.343994	-207.374466	-84.309631	1084.329834	-209.163376	-224.803970	704.375183	34.119564	-234.663574	469.737762	-47.420403	-276.443207	271.917847	-1.247147	-308.347443	70.345955	-97.610565	-356.091675	61.340889	-156.035721	-178.801025	46.448532	-117.891754	-264.540771	676.322449	-444.642059	-233.658295	469.658875	-343.382019	-274.471130	287.178619	-403.146271	-322.624817	65.358482	-315.055817	-363.035583	57.915756	-261.589447	-184.142853	44.606895	-303.796234
94	0.93000000	-284.058533	1354.565674	-24.799982	-274.231995	1361.156128	-379.981628	-341.708862	1425.279175	-210.896683	-191.964172	1332.022217	-200.947876	-300.647797	1044.311279	59.170605	-324.353973	1051.248291	-452.563110	-215.168732	806.422668	91.976997	-265.495018	811.481628	-504.426773	-177.825287	909.208374	-57.723701	-164.070816	908.093506	-363.754211	-393.466766	964.349182	-147.890305	-395.468262	956.793335	-259.576874	-394.467514	960.571259	-203.733589	-376.882477	1118.334106	-207.328903	-84.135193	1084.361084	-209.225708	-224.800323	704.348755	34.118805	-234.604340	469.699585	-47.484257	-276.382996	271.898865	-1.313066	-308.369659	70.364120	-97.579018	-356.127472	61.380917	-156.001587	-178.879593	46.518696	-117.967407	-264.568146	676.284912	-444.685638	-233.655746	469.703156	-343.364929	-274.475708	287.187134	-403.166992	-322.602814	65.318062	-315.048676	-363.027679	57.879089	-261.604736	-184.184418	44.582573	-303.793457
95	0.94000000	-284.071869	1354.650391	-24.798048	-274.207397	1361.140625	-380.009705	-341.617401	1425.243286	-210.956635	-191.890503	1332.051270	-201.046951	-300.638519	1044.438965	59.517937	-324.333344	1051.212646	-452.582764	-215.001862	806.429749	91.852047	-265.334633	811.427246	-504.256668	-177.577499	909.183838	-57.793552	-164.057343	908.103699	-363.779388	-393.478302	964.347473	-147.884109	-395.521576	956.805725	-259.630524	-394.499939	960.576599	-203.757317	-376.876404	1118.328003	-207.259064	-84.191658	1084.351196	-209.256180	-224.752365	704.336304	34.136272	-234.575714	469.669342	-47.493412	-276.410004	271.954865	-1.339583	-308.323120	70.412804	-97.635811	-356.139709	61.389542	-155.996323	-178.911606	46.504456	-117.965225	-264.520264	676.249329	-444.707611	-233.688095	469.689453	-343.338501	-274.488953	287.166595	-403.176849	-322.616364	65.294907	-315.027252	-363.021698	57.856621	-261.608795	-184.196777	44.590115	-303.759277
96	0.95000000	-283.930878	1354.661987	-24.761368	-274.239746	1361.114624	-380.066925	-341.599976	1425.275269	-210.978653	-191.868469	1332.063110	-201.040955	-300.580475	1044.381958	59.272640	-324.323120	1051.154541	-452.541992	-214.744194	806.572021	91.633842	-265.266609	811.363312	-504.142517	-177.955811	909.117004	-57.863579	-164.055878	908.104492	-363.795532	-393.495850	964.341003	-147.859741	-395.504669	956.726196	-259.664337	-394.500259	960.533600	-203.762039	-377.172791	1118.486328	-206.952606	-84.061340	1084.331421	-209.280991	-224.646408	704.304016	34.126019	-234.594513	469.688446	-47.468941	-276.362366	271.805359	-1.310513	-308.349457	70.333122	-97.619011	-356.141754	61.333145	-155.994934	-178.911514	46.500988	-117.962440	-264.464813	676.245422	-444.692719	-233.674088	469.683258	-343.365295	-274.551239	287.192108	-403.130676	-322.658112	65.298668	-315.113373	-363.032684	57.863029	-261.590698	-184.221069	44.587002	-303.735718
97	0.96000000	-283.845245	1354.728149	-24.817457	-274.296906	1361.102051	-380.085968	-341.603821	1425.255859	-210.980515	-191.861084	1331.956543	-201.027161	-300.339630	1044.378906	59.172970	-324.288696	1051.115479	-452.468994	-214.576019	806.532501	91.549053	-265.221367	811.333496	-504.046387	-177.953720	909.135803	-57.751534	-164.066269	908.066650	-363.760010	-393.467010	964.383240	-147.902664	-395.513947	956.836304	-259.654785	-394.490479	960.609772	-203.778725	-376.931366	1118.320312	-207.271835	-84.016861	1084.354004	-209.291138	-224.690384	704.311401	34.079311	-234.507248	469.671417	-47.438942	-276.347198	271.799255	-1.358936	-308.378296	70.303062	-97.597382	-356.131805	61.369087	-156.018723	-178.909348	46.501110	-117.962837	-264.495667	676.243469	-444.681854	-233.758881	469.595642	-343.459564	-274.497375	287.153778	-403.176086	-322.640594	65.293343	-315.028381	-363.112122	57.868969	-261.555237	-184.259766	44.571938	-303.798218
98	0.97000000	-283.761444	1354.737549	-24.873722	-274.300201	1361.104492	-380.084015	-341.607483	1425.246826	-210.977081	-191.865799	1332.072510	-201.058838	-299.992859	1044.386475	59.289932	-324.361847	1051.095459	-452.419556	-214.408905	806.604248	91.520908	-265.187241	811.265533	-503.989029	-177.781403	909.216919	-57.633774	-164.060303	908.153076	-363.815735	-393.462189	964.384705	-147.908203	-395.558746	956.869690	-259.611145	-394.510468	960.627197	-203.759674	-376.895020	1118.363892	-207.438171	-84.021996	1084.353271	-209.288834	-224.677811	704.313721	34.053516	-234.448181	469.731323	-47.462524	-276.276093	271.849152	-1.388893	-308.361328	70.267464	-97.637756	-356.136169	61.383991	-156.020905	-178.919678	46.515965	-117.959480	-264.432068	676.281616	-444.624573	-233.709106	469.556305	-343.443756	-274.496857	287.165619	-403.166382	-322.657654	65.290520	-315.137177	-363.132172	57.862484	-261.548615	-184.258102	44.587685	-303.787018
99	0.98000000	-283.631348	1354.774780	-24.906733	-274.314087	1361.115234	-380.146027	-341.601624	1425.278809	-211.065170	-191.635925	1332.181641	-201.158066	-300.068268	1044.411255	59.153160	-324.312744	1051.045532	-452.344940	-214.316277	806.616333	91.395958	-265.179321	811.240875	-503.866302	-178.081650	909.106323	-57.969505	-164.045898	908.153870	-363.762695	-393.492706	964.429260	-147.878494	-395.631073	956.899780	-259.575989	-394.561890	960.664520	-203.727242	-376.906464	1118.330933	-207.298157	-84.030952	1084.365234	-209.294113	-224.583542	704.309631	34.082794	-234.446472	469.737885	-47.457066	-276.295319	271.927338	-1.434702	-308.339142	70.281494	-97.640350	-356.121826	61.346077	-156.046188	-178.921555	46.517223	-117.958649	-264.431976	676.284668	-444.623718	-233.684647	469.615662	-343.437836	-274.458160	287.167847	-403.131836	-322.679962	65.332283	-315.089203	-363.108185	57.847477	-261.532715	-184.327728	44.546093	-303.774170
100	0.99000000	-283.561127	1354.816528	-24.931578	-274.140961	1361.210938	-380.391785	-341.511627	1425.265747	-211.076630	-191.522476	1332.150879	-201.265854	-299.600037	1044.325195	58.903339	-324.351624	1050.966187	-452.259918	-214.315605	806.658264	91.315815	-265.156601	811.195923	-503.828674	-178.211761	909.045593	-57.968864	-164.214203	908.087708	-363.791321	-393.510651	964.382629	-147.854263	-395.648163	956.858704	-259.557037	-394.579407	960.620667	-203.705650	-376.912598	1118.356201	-207.224609	-83.968903	1084.327881	-209.365967	-224.683990	704.364990	34.102615	-234.513458	469.703186	-47.499222	-276.355347	271.969971	-1.383317	-308.339325	70.286766	-97.636703	-356.171906	61.235867	-156.055084	-178.908249	46.526131	-117.945732	-264.446136	676.304565	-444.625244	-233.683426	469.614807	-343.419769	-274.469696	287.092468	-403.134827	-322.659668	65.332596	-315.105713	-363.031616	57.845329	-261.598999	-184.330109	44.554798	-303.757202
101	1.00000000	-283.441437	1354.880005	-24.940580	-274.207275	1361.124146	-380.254791	-341.433411	1425.300171	-210.990631	-191.638062	1332.114868	-201.338547	-299.731659	1044.502808	59.043167	-324.353882	1050.976807	-452.258057	-214.258987	806.663300	91.241562	-265.094635	811.175903	-503.706635	-177.948959	909.238403	-57.821968	-164.240616	908.081665	-363.800964	-393.506683	964.393677	-147.855560	-395.643280	956.864868	-259.528839	-394.574982	960.629272	-203.692200	-376.983185	1118.372559	-207.243988	-83.938301	1084.346558	-209.415054	-224.779358	704.340088	34.080433	-234.572205	469.658661	-47.486221	-276.334503	271.989838	-1.449990	-308.334534	70.314194	-97.633156	-356.023560	61.320232	-156.033478	-178.895859	46.524990	-117.963196	-264.482239	676.333801	-444.617126	-233.686050	469.577576	-343.450562	-274.117798	286.991394	-403.000244	-322.679810	65.283356	-315.059143	-362.942230	57.828686	-261.553162	-184.237900	44.534702	-303.820801
102	1.01000000	-283.212769	1354.936523	-25.115562	-274.227081	1361.132080	-380.266785	-341.429840	1425.316406	-210.985458	-191.561020	1332.024658	-201.265472	-299.344116	1044.395264	58.885677	-324.357239	1050.961182	-452.250916	-213.990051	806.647980	91.084171	-265.060921	811.139374	-503.625305	-177.817749	908.719177	-58.162575	-164.242584	908.094482	-363.824158	-393.523346	964.421082	-147.832947	-395.715485	956.900635	-259.517853	-394.619415	960.660858	-203.675400	-377.007965	1118.407593	-207.169403	-83.826759	1084.249756	-209.308517	-224.801270	704.334412	34.091370	-234.583176	469.693146	-47.468571	-276.312988	271.949188	-1.372118	-308.320343	70.337906	-97.631241	-356.077576	61.317936	-156.029816	-178.893936	46.486393	-117.901794	-264.529724	676.258850	-444.687927	-233.671677	469.629700	-343.420410	-274.092010	286.942932	-403.031525	-322.634491	65.309471	-315.004395	-363.072723	57.876099	-261.571198	-184.233612	44.585167	-303.794678
