TVC12_2_JMP_04_ankle_axis_personalization_task_1_finalErrors.sto
version=1
nRows=271
nColumns=28
inDegrees=no
endheader
time	R_Asis	L_Asis	R_Psis	L_Psis	Sacral	R_Thigh_Lateral	R_Knee_Lateral	R_Shank_Lateral	R_Ankle_Lateral	R_Heel	R_Toe	L_Thigh_Lateral	L_Knee_Lateral	L_Shank_Lateral	L_Ankle_Lateral	L_Heel	L_Toe	R_Shoulder	L_Shoulder	C7	J_Notch	Thoracic	Sternum	R_Elbow	L_Elbow	R_Wrist	L_Wrist
0.40000000	0.00483784	0.01077757	0.00182856	0.00556627	0.00327959	0.01139611	0.01360436	0.01534421	0.00248038	0.00346436	0.00153535	0.02157510	0.00801286	0.01683139	0.00382899	0.00422074	0.00482410	0.00186945	0.00690184	0.00267465	0.00124530	0.00918907	0.00532201	0.00197823	0.00182314	0.00226888	0.00013058
0.41000000	0.00477490	0.01065231	0.00176738	0.00534194	0.00323837	0.01142806	0.01429866	0.01532880	0.00245668	0.00320525	0.00208348	0.02141859	0.00736473	0.01719619	0.00409864	0.00440380	0.00518031	0.00175335	0.00691487	0.00266377	0.00131470	0.00886750	0.00545255	0.00205396	0.00193536	0.00213716	0.00023874
0.42000000	0.00463269	0.01039007	0.00168715	0.00497683	0.00307479	0.01141897	0.01486444	0.01528148	0.00239390	0.00297974	0.00235078	0.02068931	0.00686325	0.01715083	0.00429698	0.00465652	0.00531590	0.00162917	0.00692466	0.00267562	0.00140494	0.00845724	0.00559594	0.00217082	0.00205714	0.00195999	0.00030039
0.43000000	0.00448025	0.01068964	0.00156596	0.00455513	0.00287126	0.01144628	0.01511108	0.01511074	0.00228261	0.00300780	0.00182994	0.01920984	0.00714607	0.01631810	0.00458641	0.00491124	0.00534607	0.00163722	0.00719268	0.00284635	0.00142814	0.00799594	0.00533281	0.00230072	0.00232985	0.00175359	0.00041707
0.44000000	0.00421041	0.01011190	0.00142684	0.00398520	0.00254780	0.01119292	0.01541618	0.01510776	0.00213238	0.00294737	0.00234449	0.01723468	0.00649347	0.01592807	0.00454836	0.00503944	0.00541134	0.00150552	0.00710638	0.00297263	0.00145674	0.00751392	0.00560320	0.00250372	0.00248775	0.00147818	0.00072822
0.45000000	0.00406500	0.01047740	0.00140993	0.00362280	0.00242175	0.01106347	0.01527122	0.01484360	0.00178952	0.00313326	0.00152672	0.01486053	0.00708600	0.01419047	0.00456064	0.00543674	0.00504293	0.00154891	0.00736013	0.00309024	0.00155897	0.00709277	0.00534891	0.00264094	0.00277694	0.00126843	0.00072197
0.46000000	0.00399468	0.01051757	0.00145310	0.00338730	0.00239430	0.01081909	0.01508702	0.01461375	0.00147398	0.00331332	0.00134908	0.01303609	0.00670138	0.01229427	0.00424001	0.00495191	0.00466516	0.00159337	0.00744181	0.00316122	0.00160801	0.00679182	0.00537421	0.00285882	0.00305625	0.00105233	0.00097256
0.47000000	0.00391105	0.01019995	0.00147527	0.00315709	0.00229856	0.01067921	0.01516772	0.01408607	0.00112064	0.00317657	0.00131714	0.01077884	0.00628052	0.01057581	0.00385628	0.00462040	0.00407880	0.00177204	0.00745308	0.00316862	0.00172738	0.00647234	0.00535601	0.00320440	0.00321608	0.00066864	0.00110505
0.48000000	0.00392816	0.00998422	0.00155682	0.00323986	0.00239530	0.01047051	0.01507660	0.01335004	0.00070723	0.00310460	0.00123621	0.00976692	0.00499646	0.00847846	0.00334796	0.00318567	0.00335939	0.00198646	0.00750277	0.00310311	0.00186368	0.00634176	0.00521325	0.00349734	0.00339792	0.00032964	0.00130814
0.49000000	0.00416234	0.00922610	0.00151792	0.00294807	0.00217226	0.01034585	0.01517393	0.01267490	0.00037203	0.00295004	0.00129984	0.00738264	0.00521277	0.00692267	0.00297174	0.00315190	0.00266998	0.00223293	0.00740269	0.00317286	0.00195730	0.00606215	0.00512520	0.00372893	0.00343888	0.00002645	0.00138894
0.50000000	0.00427852	0.00899637	0.00158868	0.00311553	0.00224765	0.01027795	0.01496986	0.01166898	0.00050685	0.00272058	0.00119587	0.00675644	0.00420706	0.00511323	0.00272584	0.00203068	0.00186180	0.00250715	0.00730121	0.00310523	0.00210089	0.00602521	0.00486419	0.00396302	0.00342516	0.00028619	0.00151193
0.51000000	0.00452149	0.00868165	0.00164529	0.00309542	0.00218633	0.01031519	0.01459669	0.01065416	0.00104970	0.00259715	0.00116007	0.00572968	0.00392194	0.00388059	0.00265028	0.00163405	0.00124296	0.00273112	0.00710701	0.00306674	0.00223851	0.00594275	0.00463901	0.00411518	0.00327973	0.00055745	0.00155350
0.52000000	0.00469689	0.00823231	0.00162585	0.00292271	0.00193367	0.01039857	0.01416131	0.00982460	0.00169316	0.00280997	0.00112429	0.00460097	0.00398348	0.00320961	0.00256870	0.00161696	0.00093369	0.00286653	0.00676361	0.00316535	0.00232245	0.00580202	0.00439654	0.00415742	0.00301273	0.00076123	0.00147743
0.53000000	0.00475926	0.00799285	0.00162880	0.00281707	0.00171004	0.01059380	0.01355817	0.00883905	0.00236237	0.00302930	0.00104049	0.00389612	0.00387764	0.00280475	0.00243036	0.00170203	0.00077301	0.00293469	0.00640958	0.00320254	0.00245189	0.00571487	0.00410244	0.00412836	0.00263297	0.00090655	0.00140695
0.54000000	0.00486935	0.00830323	0.00166470	0.00295177	0.00182937	0.01093378	0.01225478	0.00714631	0.00293042	0.00253674	0.00090364	0.00357445	0.00364712	0.00265067	0.00233860	0.00171020	0.00066456	0.00304854	0.00616173	0.00304200	0.00259904	0.00586957	0.00385808	0.00414486	0.00237555	0.00110945	0.00141298
0.55000000	0.00478341	0.00816380	0.00166832	0.00282800	0.00157417	0.01120061	0.01115574	0.00630825	0.00352652	0.00299334	0.00087271	0.00372578	0.00369342	0.00259826	0.00213052	0.00191841	0.00061336	0.00304590	0.00565286	0.00312338	0.00267389	0.00585972	0.00351164	0.00402701	0.00182151	0.00121984	0.00117571
0.56000000	0.00476363	0.00814342	0.00163967	0.00282442	0.00155444	0.01141792	0.00962848	0.00471668	0.00406248	0.00276348	0.00078742	0.00335192	0.00387854	0.00280734	0.00192863	0.00195526	0.00082885	0.00302930	0.00528227	0.00302792	0.00276713	0.00599615	0.00330804	0.00390614	0.00138530	0.00135480	0.00106450
0.57000000	0.00458532	0.00781883	0.00164726	0.00272827	0.00130676	0.01154648	0.00826428	0.00385173	0.00459496	0.00328798	0.00089790	0.00341401	0.00396759	0.00256382	0.00173895	0.00200555	0.00087104	0.00290410	0.00480311	0.00307593	0.00285764	0.00603220	0.00298640	0.00367199	0.00083693	0.00138359	0.00077470
0.58000000	0.00457585	0.00721250	0.00173800	0.00278539	0.00119158	0.01150015	0.00679727	0.00269740	0.00492834	0.00323997	0.00088811	0.00308929	0.00382402	0.00221327	0.00166177	0.00185099	0.00088712	0.00286053	0.00426462	0.00304375	0.00290201	0.00619434	0.00274107	0.00349397	0.00021302	0.00150598	0.00063855
0.59000000	0.00444833	0.00669905	0.00185495	0.00275656	0.00109809	0.01124429	0.00521516	0.00194978	0.00537620	0.00360787	0.00094838	0.00218452	0.00380626	0.00153143	0.00150195	0.00177785	0.00099143	0.00261945	0.00389606	0.00307621	0.00299779	0.00627009	0.00250256	0.00315226	0.00046851	0.00144655	0.00028101
0.60000000	0.00439424	0.00606317	0.00196473	0.00284855	0.00113937	0.01070568	0.00350844	0.00182614	0.00562226	0.00359746	0.00089709	0.00189187	0.00353822	0.00064547	0.00153860	0.00153764	0.00073147	0.00247414	0.00350762	0.00307570	0.00305689	0.00650034	0.00222020	0.00286879	0.00100934	0.00151220	0.00009980
0.61000000	0.00430472	0.00534583	0.00220147	0.00276853	0.00114828	0.01022661	0.00190386	0.00209345	0.00595095	0.00391367	0.00095344	0.00168059	0.00348797	0.00074380	0.00146635	0.00153859	0.00075190	0.00228547	0.00316768	0.00311077	0.00312056	0.00652897	0.00209867	0.00255490	0.00160945	0.00143134	0.00036753
0.62000000	0.00405320	0.00499242	0.00232884	0.00261006	0.00125702	0.00951615	0.00110159	0.00281191	0.00612238	0.00410558	0.00201427	0.00203585	0.00358839	0.00148295	0.00136033	0.00179359	0.00067552	0.00200713	0.00296666	0.00317800	0.00316239	0.00659300	0.00193993	0.00219963	0.00210933	0.00135705	0.00084051
0.63000000	0.00407845	0.00461548	0.00246348	0.00262105	0.00131524	0.00850287	0.00213423	0.00402412	0.00626324	0.00391993	0.00090916	0.00192249	0.00306097	0.00184762	0.00138971	0.00148155	0.00056965	0.00195061	0.00263544	0.00327726	0.00313736	0.00680377	0.00181753	0.00192580	0.00268305	0.00145420	0.00098858
0.64000000	0.00394252	0.00449584	0.00249980	0.00243588	0.00142781	0.00779057	0.00376706	0.00487808	0.00630584	0.00397740	0.00098338	0.00157995	0.00310001	0.00199372	0.00133211	0.00161358	0.00060865	0.00189970	0.00254301	0.00335176	0.00323637	0.00684304	0.00187500	0.00165793	0.00306292	0.00135097	0.00116685
0.65000000	0.00409694	0.00448477	0.00250853	0.00222414	0.00141705	0.00731844	0.00482202	0.00573740	0.00641896	0.00398332	0.00058902	0.00187018	0.00313688	0.00150744	0.00123056	0.00168372	0.00104115	0.00187901	0.00256709	0.00337783	0.00323593	0.00687361	0.00189196	0.00158367	0.00352071	0.00140690	0.00150850
0.66000000	0.00408635	0.00470377	0.00245422	0.00186866	0.00143919	0.00688682	0.00566437	0.00676664	0.00659118	0.00409781	0.00068815	0.00309297	0.00344399	0.00108341	0.00130323	0.00186283	0.00148540	0.00183824	0.00244194	0.00352263	0.00316051	0.00686348	0.00201405	0.00133307	0.00387147	0.00134385	0.00179211
0.67000000	0.00376958	0.00473658	0.00228124	0.00155143	0.00156917	0.00648043	0.00668814	0.00811774	0.00653709	0.00401619	0.00075077	0.00339871	0.00402316	0.00173570	0.00169965	0.00262162	0.00187853	0.00175478	0.00254530	0.00359316	0.00321734	0.00673597	0.00222035	0.00114340	0.00396059	0.00134839	0.00195731
0.68000000	0.00342230	0.00512189	0.00219901	0.00124009	0.00159483	0.00641534	0.00786717	0.00893386	0.00654768	0.00430555	0.00206116	0.00630099	0.00435965	0.00250932	0.00211628	0.00244589	0.00212052	0.00191086	0.00238014	0.00370150	0.00313999	0.00676431	0.00227810	0.00095844	0.00416565	0.00122194	0.00217345
0.69000000	0.00421701	0.00560104	0.00225733	0.00120925	0.00166541	0.00726997	0.00731446	0.00998752	0.00680511	0.00442804	0.00119306	0.00709512	0.00461907	0.00351564	0.00233000	0.00309649	0.00274870	0.00182593	0.00270326	0.00373816	0.00326380	0.00661546	0.00245300	0.00100544	0.00427626	0.00137424	0.00229258
0.70000000	0.00387680	0.00568773	0.00233530	0.00136689	0.00191980	0.00748041	0.00769134	0.01111760	0.00684940	0.00478858	0.00148279	0.00701096	0.00510927	0.00447403	0.00279519	0.00363521	0.00297400	0.00174305	0.00265692	0.00387879	0.00321807	0.00640323	0.00265810	0.00099992	0.00428475	0.00127571	0.00241717
0.71000000	0.00388902	0.00564217	0.00250593	0.00159406	0.00211838	0.00843385	0.00808558	0.01164461	0.00679078	0.00510958	0.00258094	0.00792576	0.00525814	0.00459883	0.00298504	0.00343614	0.00296651	0.00174681	0.00263832	0.00403503	0.00318705	0.00630261	0.00272259	0.00095564	0.00434987	0.00129466	0.00260426
0.72000000	0.00405454	0.00576695	0.00266977	0.00183273	0.00231250	0.00913896	0.00778321	0.01238607	0.00691292	0.00553969	0.00246609	0.00757494	0.00522092	0.00454177	0.00296147	0.00365241	0.00274384	0.00174116	0.00270643	0.00412289	0.00323459	0.00612443	0.00282717	0.00097282	0.00428501	0.00122071	0.00277603
0.73000000	0.00399694	0.00548140	0.00286865	0.00220045	0.00257946	0.00980831	0.00778974	0.01282898	0.00684741	0.00600014	0.00277571	0.00701569	0.00513400	0.00421838	0.00287822	0.00348215	0.00252533	0.00167155	0.00275216	0.00422777	0.00322019	0.00592739	0.00290975	0.00100272	0.00430476	0.00123372	0.00292109
0.74000000	0.00392915	0.00520698	0.00294506	0.00243380	0.00273392	0.01035910	0.00770568	0.01319381	0.00682462	0.00634121	0.00319422	0.00612953	0.00497675	0.00375248	0.00276446	0.00314885	0.00222364	0.00162181	0.00266355	0.00436711	0.00319978	0.00579981	0.00289375	0.00099099	0.00425727	0.00113842	0.00304097
0.75000000	0.00367346	0.00485539	0.00295843	0.00261335	0.00283020	0.01061028	0.00769821	0.01349538	0.00669726	0.00668044	0.00352424	0.00545999	0.00475363	0.00295306	0.00254452	0.00258618	0.00186001	0.00155459	0.00260186	0.00445260	0.00319558	0.00571146	0.00283560	0.00101674	0.00419025	0.00107129	0.00316860
0.76000000	0.00365765	0.00452958	0.00305157	0.00288375	0.00301759	0.01101895	0.00758512	0.01344884	0.00659615	0.00688928	0.00377854	0.00443886	0.00452711	0.00250109	0.00230877	0.00230171	0.00144712	0.00142305	0.00257675	0.00460695	0.00319176	0.00548357	0.00285162	0.00095405	0.00422945	0.00103936	0.00324836
0.77000000	0.00231486	0.00390195	0.00312825	0.00324011	0.00315526	0.01178449	0.00842731	0.01275600	0.00661557	0.00679633	0.00441103	0.00344497	0.00458269	0.00182318	0.00214537	0.00195823	0.00107187	0.00138352	0.00249252	0.00482889	0.00316682	0.00539526	0.00269842	0.00081146	0.00426715	0.00081150	0.00353921
0.78000000	0.00328989	0.00369241	0.00276548	0.00293965	0.00292277	0.01104726	0.00757933	0.01340763	0.00625622	0.00712977	0.00414432	0.00304453	0.00407960	0.00174222	0.00180755	0.00128388	0.00087946	0.00133310	0.00242157	0.00472241	0.00320084	0.00543320	0.00264735	0.00102500	0.00417149	0.00089829	0.00357106
0.79000000	0.00240967	0.00305818	0.00274307	0.00317226	0.00297142	0.01154909	0.00819738	0.01273057	0.00628295	0.00676104	0.00415526	0.00238502	0.00412854	0.00144156	0.00163778	0.00101167	0.00059542	0.00127682	0.00242625	0.00484301	0.00323335	0.00534250	0.00255244	0.00090737	0.00428286	0.00079748	0.00378270
0.80000000	0.00346273	0.00284245	0.00245703	0.00297497	0.00281038	0.01089743	0.00764787	0.01302457	0.00588664	0.00698971	0.00393447	0.00198105	0.00380500	0.00196962	0.00142335	0.00080454	0.00041429	0.00116723	0.00239437	0.00479715	0.00323447	0.00527966	0.00253980	0.00103994	0.00422098	0.00087674	0.00389103
0.81000000	0.00307544	0.00223893	0.00233374	0.00305442	0.00272559	0.01112991	0.00820554	0.01251825	0.00586539	0.00652869	0.00356987	0.00180011	0.00393318	0.00166597	0.00131633	0.00077473	0.00036651	0.00112179	0.00224013	0.00496893	0.00320502	0.00532719	0.00242391	0.00089833	0.00442193	0.00077396	0.00394067
0.82000000	0.00417143	0.00212811	0.00211477	0.00276460	0.00253468	0.01047842	0.00790692	0.01282970	0.00546179	0.00650193	0.00345830	0.00187277	0.00365433	0.00222620	0.00114235	0.00061634	0.00032411	0.00110880	0.00220774	0.00488039	0.00326848	0.00532660	0.00239479	0.00091196	0.00431892	0.00076468	0.00406033
0.83000000	0.00414124	0.00181400	0.00212015	0.00269228	0.00240052	0.01076547	0.00866054	0.01240450	0.00543331	0.00597574	0.00278775	0.00208128	0.00379405	0.00191099	0.00111196	0.00092314	0.00039716	0.00107995	0.00214146	0.00491207	0.00327612	0.00540175	0.00229251	0.00079980	0.00444465	0.00066709	0.00412332
0.84000000	0.00513707	0.00165452	0.00210656	0.00246813	0.00231425	0.01019560	0.00850244	0.01288707	0.00508602	0.00595312	0.00286998	0.00234399	0.00369430	0.00226629	0.00097713	0.00083035	0.00049007	0.00106805	0.00213496	0.00483350	0.00331139	0.00541928	0.00226190	0.00083018	0.00438035	0.00070039	0.00419738
0.85000000	0.00544244	0.00167745	0.00226925	0.00235959	0.00223919	0.01040333	0.00922039	0.01271325	0.00513964	0.00553929	0.00226916	0.00290242	0.00379497	0.00206888	0.00092054	0.00117421	0.00066386	0.00106941	0.00212127	0.00483548	0.00333608	0.00548465	0.00219470	0.00073925	0.00444604	0.00062471	0.00424974
0.86000000	0.00594111	0.00175994	0.00243201	0.00220864	0.00217990	0.01051070	0.00980897	0.01279651	0.00522075	0.00524706	0.00191059	0.00351060	0.00378998	0.00214794	0.00087778	0.00143883	0.00086382	0.00105593	0.00204602	0.00486307	0.00329700	0.00556852	0.00214326	0.00066851	0.00452106	0.00056315	0.00427390
0.87000000	0.00663381	0.00167905	0.00256908	0.00209734	0.00223315	0.01016830	0.00983839	0.01356208	0.00508825	0.00541362	0.00276513	0.00372309	0.00382684	0.00260836	0.00070790	0.00119401	0.00071678	0.00104667	0.00208297	0.00478058	0.00332785	0.00555264	0.00216386	0.00069280	0.00444272	0.00060162	0.00428751
0.88000000	0.00683035	0.00168564	0.00278023	0.00194136	0.00220425	0.01039708	0.01052744	0.01379895	0.00535756	0.00527023	0.00266537	0.00440200	0.00383316	0.00272496	0.00066248	0.00143849	0.00107303	0.00104697	0.00206355	0.00478502	0.00330718	0.00563825	0.00209529	0.00065498	0.00449139	0.00053009	0.00423094
0.89000000	0.00706189	0.00170642	0.00291087	0.00187666	0.00220514	0.01055939	0.01106664	0.01422160	0.00561844	0.00528959	0.00278155	0.00502817	0.00381961	0.00288719	0.00060601	0.00157430	0.00132927	0.00103212	0.00204138	0.00477080	0.00328160	0.00566914	0.00211260	0.00065146	0.00447481	0.00048611	0.00419059
0.90000000	0.00717967	0.00168172	0.00299313	0.00178857	0.00217745	0.01073452	0.01151619	0.01475465	0.00589138	0.00547326	0.00313978	0.00544434	0.00377290	0.00309360	0.00053548	0.00161603	0.00146145	0.00103426	0.00207277	0.00475962	0.00327566	0.00570840	0.00210985	0.00064487	0.00445906	0.00042425	0.00413876
0.91000000	0.00733543	0.00155426	0.00305431	0.00180438	0.00219320	0.01091122	0.01188285	0.01543003	0.00613823	0.00562254	0.00342473	0.00571857	0.00372856	0.00335576	0.00059146	0.00175614	0.00171988	0.00103440	0.00205730	0.00477580	0.00327451	0.00569804	0.00214760	0.00070251	0.00438591	0.00041900	0.00396643
0.92000000	0.00721067	0.00191702	0.00292598	0.00203138	0.00207550	0.01119089	0.01240363	0.01585774	0.00638428	0.00586983	0.00390098	0.00553082	0.00364951	0.00390066	0.00052168	0.00189315	0.00116803	0.00100885	0.00215658	0.00488667	0.00322230	0.00562345	0.00217026	0.00055966	0.00438637	0.00038032	0.00399479
0.93000000	0.00713645	0.00175859	0.00298764	0.00205986	0.00209998	0.01154638	0.01256424	0.01659142	0.00664709	0.00615712	0.00425285	0.00571958	0.00359239	0.00404593	0.00063580	0.00186169	0.00149301	0.00100407	0.00211527	0.00486663	0.00319900	0.00562957	0.00225166	0.00064929	0.00429407	0.00031226	0.00378829
0.94000000	0.00698789	0.00206720	0.00299722	0.00230734	0.00209284	0.01196759	0.01288216	0.01703515	0.00684157	0.00634198	0.00455226	0.00587457	0.00346437	0.00417166	0.00052728	0.00206244	0.00122887	0.00100139	0.00209413	0.00500575	0.00311845	0.00565206	0.00224479	0.00063141	0.00426476	0.00030658	0.00370865
0.95000000	0.00683564	0.00233570	0.00306492	0.00253413	0.00215295	0.01254917	0.01308643	0.01748161	0.00702401	0.00643081	0.00477548	0.00596952	0.00331370	0.00441288	0.00057609	0.00207867	0.00123362	0.00104749	0.00212306	0.00503775	0.00310887	0.00564542	0.00228218	0.00062600	0.00412155	0.00023272	0.00360383
0.96000000	0.00671701	0.00266298	0.00317586	0.00280044	0.00226472	0.01317586	0.01318449	0.01785083	0.00715340	0.00647866	0.00503108	0.00607752	0.00311979	0.00465506	0.00058641	0.00207637	0.00127819	0.00104832	0.00215492	0.00508278	0.00306579	0.00564207	0.00231408	0.00068165	0.00409619	0.00022750	0.00339755
0.97000000	0.00657705	0.00288035	0.00327808	0.00296273	0.00234937	0.01376189	0.01303649	0.01828786	0.00721655	0.00651603	0.00525902	0.00623895	0.00309792	0.00472546	0.00056973	0.00206305	0.00120208	0.00103807	0.00214783	0.00512960	0.00302686	0.00567220	0.00232709	0.00074054	0.00393593	0.00020582	0.00326394
0.98000000	0.00646756	0.00323285	0.00337231	0.00322051	0.00243747	0.01439883	0.01293652	0.01844084	0.00723865	0.00641619	0.00531256	0.00639212	0.00297363	0.00486805	0.00051920	0.00208380	0.00115721	0.00106730	0.00215029	0.00522506	0.00295885	0.00570991	0.00228582	0.00072697	0.00394665	0.00015390	0.00306883
0.99000000	0.00637034	0.00326053	0.00341960	0.00319665	0.00244983	0.01492709	0.01239690	0.01880668	0.00724431	0.00639696	0.00540289	0.00649723	0.00308026	0.00496779	0.00055556	0.00202613	0.00122640	0.00123035	0.00209165	0.00517227	0.00293933	0.00577890	0.00234046	0.00086978	0.00390006	0.00012891	0.00278627
1.00000000	0.00639532	0.00371467	0.00356544	0.00353247	0.00259622	0.01533059	0.01218828	0.01860675	0.00710468	0.00612577	0.00524200	0.00662310	0.00299567	0.00502989	0.00041120	0.00207730	0.00102986	0.00111341	0.00210042	0.00532613	0.00284792	0.00583418	0.00224013	0.00084820	0.00379464	0.00012821	0.00275620
1.01000000	0.00648929	0.00393717	0.00361707	0.00363215	0.00262431	0.01571626	0.01170176	0.01836564	0.00698568	0.00591379	0.00499285	0.00678565	0.00299354	0.00506168	0.00034647	0.00205590	0.00110417	0.00113614	0.00210255	0.00537766	0.00280452	0.00589968	0.00219302	0.00087846	0.00379053	0.00013362	0.00255748
1.02000000	0.00651393	0.00411864	0.00362692	0.00362795	0.00259936	0.01589737	0.01107078	0.01810808	0.00679643	0.00569704	0.00468028	0.00690756	0.00305053	0.00507929	0.00027767	0.00212557	0.00106529	0.00112896	0.00210622	0.00538978	0.00276245	0.00597936	0.00214738	0.00095647	0.00372357	0.00011511	0.00241602
1.03000000	0.00655373	0.00395051	0.00352987	0.00322666	0.00242613	0.01610840	0.00995757	0.01793793	0.00661430	0.00564006	0.00427402	0.00716303	0.00377854	0.00489866	0.00039242	0.00196651	0.00135837	0.00124204	0.00220652	0.00526782	0.00274649	0.00609098	0.00219705	0.00128010	0.00377548	0.00038255	0.00222795
1.04000000	0.00680041	0.00453468	0.00359070	0.00363014	0.00249600	0.01584131	0.00973886	0.01685141	0.00625739	0.00525484	0.00373746	0.00720087	0.00332475	0.00509397	0.00013290	0.00225438	0.00129786	0.00123380	0.00200859	0.00550895	0.00267109	0.00615068	0.00201711	0.00097573	0.00375254	0.00012071	0.00208274
1.05000000	0.00668328	0.00454106	0.00351929	0.00332152	0.00231963	0.01563934	0.00882583	0.01624746	0.00593983	0.00511128	0.00324541	0.00748729	0.00356501	0.00511399	0.00007098	0.00240034	0.00140451	0.00122373	0.00197853	0.00547233	0.00260137	0.00624777	0.00196349	0.00112269	0.00367855	0.00010287	0.00197407
1.06000000	0.00672840	0.00480652	0.00354518	0.00321549	0.00222922	0.01514220	0.00823529	0.01526840	0.00551291	0.00483439	0.00274415	0.00766821	0.00365245	0.00516478	0.00006728	0.00260559	0.00144687	0.00125999	0.00197053	0.00548705	0.00256858	0.00633894	0.00189380	0.00114417	0.00366951	0.00007356	0.00187759
1.07000000	0.00699364	0.00520879	0.00356454	0.00319511	0.00217403	0.01457539	0.00766947	0.01385195	0.00509673	0.00446967	0.00214076	0.00787336	0.00377167	0.00520003	0.00012550	0.00266150	0.00156859	0.00127086	0.00197397	0.00559365	0.00255133	0.00640512	0.00185361	0.00111021	0.00378244	0.00006466	0.00180047
1.08000000	0.00688659	0.00539848	0.00364941	0.00290970	0.00208147	0.01389610	0.00703465	0.01257755	0.00464440	0.00415096	0.00172059	0.00815026	0.00390027	0.00528217	0.00021568	0.00285856	0.00161067	0.00129065	0.00199818	0.00557718	0.00253444	0.00650083	0.00181346	0.00118953	0.00375819	0.00004586	0.00171758
1.09000000	0.00711143	0.00553883	0.00368543	0.00275097	0.00204178	0.01343284	0.00628629	0.01052449	0.00437542	0.00370429	0.00114749	0.00854996	0.00390813	0.00536883	0.00028267	0.00302662	0.00178258	0.00134605	0.00202639	0.00566549	0.00254629	0.00650477	0.00185278	0.00121244	0.00388747	0.00010628	0.00159539
1.10000000	0.00660623	0.00559073	0.00393051	0.00218235	0.00205931	0.01257331	0.00560166	0.00940207	0.00382799	0.00330549	0.00087189	0.00887774	0.00419416	0.00541042	0.00031992	0.00321949	0.00187699	0.00144464	0.00205073	0.00554055	0.00251899	0.00665954	0.00178036	0.00138281	0.00378584	0.00008280	0.00150879
1.11000000	0.00690215	0.00587868	0.00393896	0.00226183	0.00205124	0.01193292	0.00504723	0.00677472	0.00346417	0.00281563	0.00055737	0.00907287	0.00429766	0.00555449	0.00035901	0.00329711	0.00191908	0.00144586	0.00205230	0.00573894	0.00252025	0.00657014	0.00184253	0.00134890	0.00390080	0.00006558	0.00144722
1.12000000	0.00668801	0.00583931	0.00434604	0.00169306	0.00232684	0.01134840	0.00421485	0.00567085	0.00287516	0.00254218	0.00109553	0.00934696	0.00453348	0.00556084	0.00044287	0.00351616	0.00202344	0.00153403	0.00219315	0.00557051	0.00251868	0.00668759	0.00182165	0.00164606	0.00379257	0.00028563	0.00128654
1.13000000	0.00651531	0.00621060	0.00438951	0.00180397	0.00222197	0.01116778	0.00408992	0.00335522	0.00249671	0.00228752	0.00053918	0.00925682	0.00467910	0.00562902	0.00041853	0.00352191	0.00208665	0.00156194	0.00210679	0.00581534	0.00249303	0.00663593	0.00183388	0.00150828	0.00389599	0.00011864	0.00127756
1.14000000	0.00639345	0.00638066	0.00475303	0.00151944	0.00252773	0.01161616	0.00357560	0.00325273	0.00191483	0.00210660	0.00065144	0.00931738	0.00485491	0.00550369	0.00044343	0.00371731	0.00198470	0.00163365	0.00222898	0.00574712	0.00249449	0.00670840	0.00179542	0.00165280	0.00369582	0.00011296	0.00122761
1.15000000	0.00700490	0.00630651	0.00473550	0.00142378	0.00256699	0.01177635	0.00290227	0.00435537	0.00198669	0.00327698	0.00117100	0.00948732	0.00474530	0.00533851	0.00046779	0.00375838	0.00216005	0.00172323	0.00229661	0.00587754	0.00252693	0.00660233	0.00187871	0.00174043	0.00370733	0.00017850	0.00113745
1.16000000	0.00704164	0.00636298	0.00500318	0.00134092	0.00277041	0.01275776	0.00264501	0.00623465	0.00180704	0.00368983	0.00149559	0.00940849	0.00486614	0.00511007	0.00051353	0.00386181	0.00230683	0.00181614	0.00240703	0.00589504	0.00252905	0.00660896	0.00187218	0.00184626	0.00357241	0.00026842	0.00100105
1.17000000	0.00737080	0.00671101	0.00537603	0.00150153	0.00314212	0.01426357	0.00278239	0.00736842	0.00184026	0.00360194	0.00205532	0.00922433	0.00520527	0.00495627	0.00042596	0.00374739	0.00225619	0.00197218	0.00256302	0.00583563	0.00253475	0.00664087	0.00190792	0.00198951	0.00346589	0.00033373	0.00088465
1.18000000	0.00722626	0.00655343	0.00581617	0.00157466	0.00350403	0.01557610	0.00205523	0.00907918	0.00155434	0.00367539	0.00207569	0.00913046	0.00530822	0.00459931	0.00069461	0.00425955	0.00215040	0.00203708	0.00271405	0.00580667	0.00246237	0.00673140	0.00173466	0.00219874	0.00305744	0.00044985	0.00079374
1.19000000	0.00750484	0.00652050	0.00560937	0.00144962	0.00336525	0.01539937	0.00298326	0.01099098	0.00219495	0.00471582	0.00252618	0.00900436	0.00512404	0.00426873	0.00071418	0.00405899	0.00237949	0.00216729	0.00275454	0.00598908	0.00246045	0.00663367	0.00178630	0.00231526	0.00302472	0.00061789	0.00068286
1.20000000	0.00785755	0.00664524	0.00589747	0.00184724	0.00371271	0.01634830	0.00334644	0.01114687	0.00243545	0.00424575	0.00252457	0.00899737	0.00558500	0.00399051	0.00068196	0.00381581	0.00260210	0.00215996	0.00310128	0.00597028	0.00249490	0.00662224	0.00176888	0.00240357	0.00273502	0.00077147	0.00037516
1.21000000	0.00766445	0.00631603	0.00590782	0.00178860	0.00377267	0.01585523	0.00337357	0.01228456	0.00276794	0.00459660	0.00341432	0.00890464	0.00523980	0.00378956	0.00084794	0.00407578	0.00244871	0.00243188	0.00322483	0.00596399	0.00245680	0.00663941	0.00172398	0.00263846	0.00244152	0.00088543	0.00034398
1.22000000	0.00796296	0.00639934	0.00608882	0.00208281	0.00403126	0.01576313	0.00383696	0.01194351	0.00294054	0.00402274	0.00350812	0.00892280	0.00554573	0.00368417	0.00089188	0.00387684	0.00261820	0.00262869	0.00350992	0.00588985	0.00243230	0.00663028	0.00168099	0.00290213	0.00216186	0.00126617	0.00024347
1.23000000	0.00740054	0.00606856	0.00605370	0.00211838	0.00405842	0.01516182	0.00402388	0.01189450	0.00337668	0.00374492	0.00397635	0.00886956	0.00566340	0.00355441	0.00099174	0.00406763	0.00229188	0.00274755	0.00373694	0.00591856	0.00238437	0.00665784	0.00161011	0.00308410	0.00178622	0.00128351	0.00005462
1.24000000	0.00765321	0.00618961	0.00604427	0.00230595	0.00416238	0.01406950	0.00444295	0.01135810	0.00344011	0.00330167	0.00423796	0.00889578	0.00590957	0.00350782	0.00114161	0.00378748	0.00227053	0.00299506	0.00404755	0.00583895	0.00237368	0.00661831	0.00163500	0.00335543	0.00146255	0.00175622	0.00048246
1.25000000	0.00697143	0.00587129	0.00599033	0.00245995	0.00420348	0.01313446	0.00482890	0.01066393	0.00389498	0.00299692	0.00421535	0.00885168	0.00630800	0.00322049	0.00126979	0.00365798	0.00224614	0.00306585	0.00428533	0.00585346	0.00232562	0.00667130	0.00160648	0.00344892	0.00124706	0.00182834	0.00050307
1.26000000	0.00646264	0.00528893	0.00585273	0.00270210	0.00425633	0.01164963	0.00514088	0.01024868	0.00407152	0.00295130	0.00436437	0.00903778	0.00659343	0.00292592	0.00134714	0.00355348	0.00212708	0.00324096	0.00472801	0.00570043	0.00239591	0.00672160	0.00165311	0.00366679	0.00084616	0.00197319	0.00067490
1.27000000	0.00610242	0.00498288	0.00578475	0.00298364	0.00435297	0.01014366	0.00548133	0.00961899	0.00415164	0.00285974	0.00432876	0.00921745	0.00702820	0.00250982	0.00149599	0.00336718	0.00207015	0.00339926	0.00513204	0.00553526	0.00242189	0.00678287	0.00172284	0.00389850	0.00065463	0.00221433	0.00088928
1.28000000	0.00579069	0.00470763	0.00570458	0.00328260	0.00445015	0.00871088	0.00585955	0.00889867	0.00421590	0.00276037	0.00406306	0.00949307	0.00749039	0.00213415	0.00168067	0.00308002	0.00201617	0.00355995	0.00555446	0.00533492	0.00246304	0.00686732	0.00185891	0.00411774	0.00065451	0.00242375	0.00114153
1.29000000	0.00530646	0.00477929	0.00589441	0.00366591	0.00473138	0.00811550	0.00562791	0.00778027	0.00382621	0.00251749	0.00345837	0.00969384	0.00781178	0.00174453	0.00183916	0.00290928	0.00192715	0.00369760	0.00608265	0.00499122	0.00253925	0.00708282	0.00195369	0.00431769	0.00087030	0.00267012	0.00146207
1.30000000	0.00530382	0.00472253	0.00572648	0.00387237	0.00473474	0.00637627	0.00613905	0.00718528	0.00376997	0.00281210	0.00322209	0.01014544	0.00802008	0.00151881	0.00211988	0.00251509	0.00186517	0.00382219	0.00647566	0.00476935	0.00262555	0.00715343	0.00223249	0.00436663	0.00097977	0.00286229	0.00181044
1.31000000	0.00478847	0.00488741	0.00574526	0.00415738	0.00486442	0.00561796	0.00605657	0.00619106	0.00335289	0.00276175	0.00242229	0.01062311	0.00843599	0.00136183	0.00237005	0.00208037	0.00174026	0.00383444	0.00695830	0.00447325	0.00268431	0.00739617	0.00240382	0.00452162	0.00145102	0.00300138	0.00195316
1.32000000	0.00475020	0.00494049	0.00548491	0.00432450	0.00479319	0.00385733	0.00658196	0.00558436	0.00320003	0.00281016	0.00209347	0.01123740	0.00846538	0.00148270	0.00274193	0.00151723	0.00158004	0.00386675	0.00726871	0.00426119	0.00276533	0.00751712	0.00267859	0.00452074	0.00164400	0.00309563	0.00212816
1.33000000	0.00423857	0.00518526	0.00520484	0.00448836	0.00469047	0.00278845	0.00679994	0.00478643	0.00289500	0.00273811	0.00156808	0.01184548	0.00852977	0.00192941	0.00307469	0.00105683	0.00147447	0.00378838	0.00762006	0.00405257	0.00283343	0.00767367	0.00295037	0.00451427	0.00191847	0.00308445	0.00225594
1.34000000	0.00426974	0.00544018	0.00497952	0.00458663	0.00460826	0.00279395	0.00721126	0.00381533	0.00265876	0.00265575	0.00175020	0.01229242	0.00796697	0.00239534	0.00345321	0.00064559	0.00109517	0.00374874	0.00789900	0.00379591	0.00292426	0.00783554	0.00319445	0.00441155	0.00198603	0.00314498	0.00243972
1.35000000	0.00346900	0.00625092	0.00493426	0.00469026	0.00456282	0.00311609	0.00624240	0.00252208	0.00190082	0.00291161	0.00102870	0.01242465	0.00781430	0.00294629	0.00372554	0.00039812	0.00110838	0.00358814	0.00836691	0.00344650	0.00303811	0.00816161	0.00336664	0.00432653	0.00220307	0.00312986	0.00265066
1.36000000	0.00340296	0.00634924	0.00455608	0.00472019	0.00436531	0.00476786	0.00681566	0.00192222	0.00166148	0.00253511	0.00135778	0.01270595	0.00678020	0.00338546	0.00420585	0.00086644	0.00066644	0.00343883	0.00839814	0.00336051	0.00302747	0.00832393	0.00360027	0.00415392	0.00218849	0.00303000	0.00261370
1.37000000	0.00304802	0.00661869	0.00412179	0.00470326	0.00408808	0.00646336	0.00708449	0.00187869	0.00147107	0.00232986	0.00168654	0.01270735	0.00573973	0.00392745	0.00463739	0.00157922	0.00055534	0.00322784	0.00846932	0.00325739	0.00304124	0.00843614	0.00378940	0.00393404	0.00217187	0.00286768	0.00256184
1.38000000	0.00332856	0.00674728	0.00383162	0.00459672	0.00388900	0.00796236	0.00753833	0.00256611	0.00158527	0.00195055	0.00241594	0.01231828	0.00418072	0.00444300	0.00488720	0.00213052	0.00106517	0.00310652	0.00844710	0.00309022	0.00301216	0.00859299	0.00412758	0.00362722	0.00204596	0.00258773	0.00256313
1.39000000	0.00322412	0.00670530	0.00350881	0.00462994	0.00371381	0.00872394	0.00789614	0.00323791	0.00143157	0.00169593	0.00279907	0.01179308	0.00272121	0.00502053	0.00534360	0.00313979	0.00131522	0.00290268	0.00825594	0.00301154	0.00290725	0.00870511	0.00413862	0.00329339	0.00192446	0.00227457	0.00225829
1.40000000	0.00339800	0.00753103	0.00311200	0.00464646	0.00336789	0.00821126	0.00585581	0.00307072	0.00168800	0.00222450	0.00265680	0.01078228	0.00158720	0.00575337	0.00551664	0.00327371	0.00145250	0.00237737	0.00852529	0.00300669	0.00292047	0.00887731	0.00409812	0.00296623	0.00171865	0.00223396	0.00241856
1.41000000	0.00370479	0.00741253	0.00273601	0.00451447	0.00310152	0.00777100	0.00590075	0.00310071	0.00151142	0.00199297	0.00264060	0.00995255	0.00152991	0.00605714	0.00577079	0.00393525	0.00182685	0.00216552	0.00834118	0.00296946	0.00283209	0.00889743	0.00418479	0.00266007	0.00143383	0.00191090	0.00225332
1.42000000	0.00403743	0.00698308	0.00249776	0.00437366	0.00293310	0.00662382	0.00596084	0.00302905	0.00152705	0.00179656	0.00288078	0.00893841	0.00334302	0.00659407	0.00598267	0.00468104	0.00222576	0.00181336	0.00811043	0.00309357	0.00265192	0.00892049	0.00399851	0.00230531	0.00132545	0.00175707	0.00183257
1.43000000	0.00457168	0.00695541	0.00211477	0.00420418	0.00263933	0.00540994	0.00516431	0.00200723	0.00156619	0.00174361	0.00262670	0.00800740	0.00500836	0.00728090	0.00607420	0.00514877	0.00242868	0.00165632	0.00797595	0.00301691	0.00256363	0.00891465	0.00424921	0.00183741	0.00102843	0.00129869	0.00185478
1.44000000	0.00459747	0.00616298	0.00209641	0.00405542	0.00256134	0.00480402	0.00481864	0.00160835	0.00145032	0.00143715	0.00201151	0.00619134	0.00710423	0.00885315	0.00586040	0.00496509	0.00262274	0.00144364	0.00769382	0.00308485	0.00243008	0.00891874	0.00412125	0.00158243	0.00082922	0.00122554	0.00156385
1.45000000	0.00501958	0.00560293	0.00231639	0.00385053	0.00256988	0.00536985	0.00478831	0.00228326	0.00145366	0.00155225	0.00208133	0.00590105	0.00866713	0.00963089	0.00579240	0.00554357	0.00263490	0.00124044	0.00745757	0.00314943	0.00231006	0.00890931	0.00389427	0.00142108	0.00092882	0.00120284	0.00117952
1.46000000	0.00567231	0.00604458	0.00219864	0.00365925	0.00241509	0.00675364	0.00418314	0.00404745	0.00135547	0.00195813	0.00165416	0.00617416	0.00912207	0.01089690	0.00564236	0.00568180	0.00253401	0.00122130	0.00746824	0.00302918	0.00233162	0.00883918	0.00417753	0.00112183	0.00053682	0.00090884	0.00136866
1.47000000	0.00598743	0.00553568	0.00254094	0.00345782	0.00248195	0.00905772	0.00426250	0.00533163	0.00146155	0.00221526	0.00164510	0.00693173	0.00984551	0.01218628	0.00553578	0.00613472	0.00243127	0.00107099	0.00722195	0.00301967	0.00227330	0.00883684	0.00394957	0.00118087	0.00088640	0.00109494	0.00089577
1.48000000	0.00553155	0.00464318	0.00306761	0.00306402	0.00253788	0.00932064	0.00497735	0.00795543	0.00088149	0.00305857	0.00058910	0.00618214	0.01076098	0.01424000	0.00508228	0.00587984	0.00208213	0.00106157	0.00687118	0.00292719	0.00226937	0.00873309	0.00405875	0.00114394	0.00091867	0.00087839	0.00071433
1.49000000	0.00590585	0.00411920	0.00346888	0.00285467	0.00265872	0.01128617	0.00505256	0.00884155	0.00113293	0.00311490	0.00070384	0.00780807	0.01150573	0.01488487	0.00493574	0.00612088	0.00184242	0.00088717	0.00672873	0.00290857	0.00225354	0.00866183	0.00381794	0.00110422	0.00109662	0.00099450	0.00048632
1.50000000	0.00647502	0.00459247	0.00347778	0.00286404	0.00268496	0.01198898	0.00470186	0.01014853	0.00079526	0.00357287	0.00078108	0.00874228	0.01084211	0.01630866	0.00479660	0.00632895	0.00129503	0.00082479	0.00656733	0.00280485	0.00227425	0.00861510	0.00393627	0.00113569	0.00109851	0.00088260	0.00036624
1.51000000	0.00651864	0.00435501	0.00371717	0.00265033	0.00272902	0.01235717	0.00481724	0.01084840	0.00073994	0.00378399	0.00074017	0.00923514	0.01095976	0.01740336	0.00459568	0.00661114	0.00080554	0.00082188	0.00635096	0.00270391	0.00228360	0.00855961	0.00406431	0.00122241	0.00117806	0.00082981	0.00021204
1.52000000	0.00650892	0.00400654	0.00396030	0.00254118	0.00280937	0.01228769	0.00481313	0.01127732	0.00062626	0.00388811	0.00077746	0.00980353	0.01117403	0.01822025	0.00443807	0.00671665	0.00057270	0.00067468	0.00613792	0.00263472	0.00230712	0.00851965	0.00392676	0.00128515	0.00137127	0.00088670	0.00035849
1.53000000	0.00625640	0.00370792	0.00420199	0.00239971	0.00289604	0.01191374	0.00485972	0.01131210	0.00051811	0.00387668	0.00066210	0.01001442	0.01136274	0.01895997	0.00442936	0.00691711	0.00050191	0.00060452	0.00596535	0.00256584	0.00233757	0.00846251	0.00396641	0.00134384	0.00141329	0.00079424	0.00021997
1.54000000	0.00572175	0.00318025	0.00464437	0.00237640	0.00314317	0.01129558	0.00496122	0.01118998	0.00055732	0.00376334	0.00064240	0.01051551	0.01210450	0.01909694	0.00453080	0.00698767	0.00093586	0.00053014	0.00574182	0.00257693	0.00235661	0.00835275	0.00386845	0.00133335	0.00163601	0.00072057	0.00036850
1.55000000	0.00546901	0.00300165	0.00483005	0.00233273	0.00323427	0.01034606	0.00486978	0.01095303	0.00042249	0.00367078	0.00067753	0.01060789	0.01231988	0.01954767	0.00472149	0.00716620	0.00104866	0.00043708	0.00556374	0.00253867	0.00239334	0.00829614	0.00383495	0.00142236	0.00176576	0.00067449	0.00059909
1.56000000	0.00512474	0.00267873	0.00508955	0.00226934	0.00334778	0.00941489	0.00498370	0.01051784	0.00038659	0.00357215	0.00063956	0.01058883	0.01297056	0.01978770	0.00486185	0.00715754	0.00132344	0.00036246	0.00534889	0.00250557	0.00242661	0.00824319	0.00378115	0.00155140	0.00196538	0.00059039	0.00075868
1.57000000	0.00488482	0.00250667	0.00521482	0.00217979	0.00337875	0.00845616	0.00495361	0.01008163	0.00049111	0.00343969	0.00073538	0.01031302	0.01336099	0.02020919	0.00509406	0.00727230	0.00146463	0.00036455	0.00514451	0.00247720	0.00243946	0.00823097	0.00379874	0.00164732	0.00211087	0.00045978	0.00089200
1.58000000	0.00458319	0.00227900	0.00540958	0.00208578	0.00343270	0.00768291	0.00509066	0.00962991	0.00057534	0.00326719	0.00073102	0.01002587	0.01413884	0.02039946	0.00522834	0.00728557	0.00169917	0.00025228	0.00499052	0.00247787	0.00245199	0.00820640	0.00372380	0.00179456	0.00220101	0.00057311	0.00129131
1.59000000	0.00442214	0.00210749	0.00549362	0.00197101	0.00342265	0.00704618	0.00510012	0.00922316	0.00072421	0.00312553	0.00079894	0.00970290	0.01475813	0.02072408	0.00543799	0.00730452	0.00183311	0.00031045	0.00476858	0.00249703	0.00241915	0.00824026	0.00376023	0.00194564	0.00238572	0.00013101	0.00123486
1.60000000	0.00488265	0.00290923	0.00517204	0.00193097	0.00325040	0.00728995	0.00460451	0.00825132	0.00111887	0.00261423	0.00095560	0.00996862	0.01511773	0.02086679	0.00573054	0.00739521	0.00217255	0.00043372	0.00482679	0.00235100	0.00247702	0.00828979	0.00397703	0.00191098	0.00216638	0.00034692	0.00126039
1.61000000	0.00486638	0.00295062	0.00523270	0.00188300	0.00325183	0.00706181	0.00440139	0.00806616	0.00131943	0.00259908	0.00109709	0.01012745	0.01602503	0.02083335	0.00595977	0.00727501	0.00204051	0.00049587	0.00471292	0.00230041	0.00250042	0.00828645	0.00401082	0.00198004	0.00229451	0.00052294	0.00133117
1.62000000	0.00452156	0.00259063	0.00535369	0.00169460	0.00320378	0.00695325	0.00452758	0.00798555	0.00136013	0.00260354	0.00122926	0.01017228	0.01699353	0.02094162	0.00603942	0.00723239	0.00210541	0.00048120	0.00463772	0.00228769	0.00250236	0.00831919	0.00398044	0.00215531	0.00234481	0.00065405	0.00145027
1.63000000	0.00477961	0.00333610	0.00541373	0.00191425	0.00333709	0.00713595	0.00437283	0.00792860	0.00140436	0.00256989	0.00140412	0.01077489	0.01769780	0.02063583	0.00637766	0.00712419	0.00215550	0.00050645	0.00451953	0.00238429	0.00243239	0.00826314	0.00418654	0.00207620	0.00234375	0.00101959	0.00147482
1.64000000	0.00465698	0.00342645	0.00556013	0.00196578	0.00342060	0.00736389	0.00439387	0.00802217	0.00141481	0.00264484	0.00144844	0.01121532	0.01840460	0.02048326	0.00652194	0.00710297	0.00216617	0.00050127	0.00454491	0.00237709	0.00244481	0.00822080	0.00428393	0.00217317	0.00230790	0.00113160	0.00148676
1.65000000	0.00448544	0.00344415	0.00561900	0.00186791	0.00335258	0.00757552	0.00460643	0.00824076	0.00129520	0.00274594	0.00153694	0.01169898	0.01893483	0.02048885	0.00655189	0.00706540	0.00221124	0.00055115	0.00446024	0.00236223	0.00239850	0.00828159	0.00441655	0.00233340	0.00227531	0.00123921	0.00145447
1.66000000	0.00446168	0.00365640	0.00574731	0.00188789	0.00342719	0.00805208	0.00459882	0.00846509	0.00115593	0.00271885	0.00152946	0.01217030	0.01917065	0.02036515	0.00676120	0.00711497	0.00228475	0.00044639	0.00459419	0.00240946	0.00240092	0.00827421	0.00438440	0.00232273	0.00211858	0.00141734	0.00153640
1.67000000	0.00443465	0.00384829	0.00590822	0.00195381	0.00351579	0.00849878	0.00458603	0.00887983	0.00108926	0.00288310	0.00140214	0.01272943	0.01926018	0.02013146	0.00688241	0.00706253	0.00227350	0.00044466	0.00459120	0.00246376	0.00235431	0.00825888	0.00451852	0.00236044	0.00197942	0.00154836	0.00153425
1.68000000	0.00470266	0.00389709	0.00628739	0.00233449	0.00387123	0.00887438	0.00428858	0.00962046	0.00100595	0.00313073	0.00097279	0.01334137	0.01925443	0.01957466	0.00688639	0.00679618	0.00215241	0.00054382	0.00459653	0.00255979	0.00232369	0.00814322	0.00464590	0.00227619	0.00193359	0.00174881	0.00150559
1.69000000	0.00466297	0.00414556	0.00634317	0.00226410	0.00383543	0.00950520	0.00473149	0.00990769	0.00077954	0.00308321	0.00102560	0.01387953	0.01887088	0.01937176	0.00693295	0.00680660	0.00212135	0.00054237	0.00468866	0.00256379	0.00227445	0.00822523	0.00473851	0.00233724	0.00168882	0.00178639	0.00144804
1.70000000	0.00465566	0.00429147	0.00649173	0.00227785	0.00388873	0.01006526	0.00493343	0.01047623	0.00069804	0.00315581	0.00105828	0.01436527	0.01825669	0.01913914	0.00687470	0.00676703	0.00211195	0.00059623	0.00472522	0.00257448	0.00221450	0.00825785	0.00490818	0.00238539	0.00145967	0.00183006	0.00142718
1.71000000	0.00472124	0.00417764	0.00673342	0.00232982	0.00402169	0.01061374	0.00491743	0.01116460	0.00072012	0.00333375	0.00080375	0.01480102	0.01758122	0.01879766	0.00665955	0.00655321	0.00206265	0.00060961	0.00484264	0.00263761	0.00217406	0.00829869	0.00492082	0.00233973	0.00123103	0.00193229	0.00138236
1.72000000	0.00493563	0.00394037	0.00711081	0.00257618	0.00430886	0.01111496	0.00501414	0.01192984	0.00068693	0.00348929	0.00033864	0.01520132	0.01680657	0.01819114	0.00628938	0.00633152	0.00192427	0.00076375	0.00489641	0.00271540	0.00211371	0.00829604	0.00499398	0.00229683	0.00115676	0.00201353	0.00124992
1.73000000	0.00492177	0.00423242	0.00715073	0.00246393	0.00425820	0.01170804	0.00545900	0.01244484	0.00078314	0.00349346	0.00083221	0.01561233	0.01567359	0.01784104	0.00598870	0.00620355	0.00180507	0.00075604	0.00506397	0.00267274	0.00209401	0.00838214	0.00512111	0.00238788	0.00087375	0.00196504	0.00114711
1.74000000	0.00510892	0.00390637	0.00740736	0.00252398	0.00439023	0.01201277	0.00553071	0.01326066	0.00084354	0.00363606	0.00061127	0.01590740	0.01467744	0.01718459	0.00545037	0.00599035	0.00170217	0.00089081	0.00509779	0.00273118	0.00198203	0.00851290	0.00516619	0.00224355	0.00063086	0.00215196	0.00115195
1.75000000	0.00517751	0.00371861	0.00763022	0.00250955	0.00447317	0.01242479	0.00589039	0.01384078	0.00092174	0.00379170	0.00071721	0.01621282	0.01356195	0.01641163	0.00489041	0.00576460	0.00147955	0.00097904	0.00522177	0.00271766	0.00195592	0.00859777	0.00516014	0.00227339	0.00064740	0.00214867	0.00100141
1.76000000	0.00521632	0.00411155	0.00751993	0.00224725	0.00429030	0.01280629	0.00646435	0.01422396	0.00105462	0.00373901	0.00107284	0.01647770	0.01207813	0.01594783	0.00425144	0.00569994	0.00134898	0.00092201	0.00542234	0.00267015	0.00191950	0.00877364	0.00523835	0.00232926	0.00063192	0.00213243	0.00085540
1.77000000	0.00526259	0.00349017	0.00778116	0.00223133	0.00437032	0.01290244	0.00658049	0.01487794	0.00115735	0.00401894	0.00080312	0.01658336	0.01105010	0.01498153	0.00353696	0.00539167	0.00108718	0.00106682	0.00548017	0.00263213	0.00186587	0.00891555	0.00524275	0.00225603	0.00055403	0.00224284	0.00085493
1.78000000	0.00526730	0.00325428	0.00786056	0.00206525	0.00429868	0.01303317	0.00700435	0.01531356	0.00128908	0.00407351	0.00079790	0.01668889	0.00985038	0.01404339	0.00282755	0.00517335	0.00083204	0.00110705	0.00554040	0.00260657	0.00179949	0.00908161	0.00528192	0.00229088	0.00063646	0.00225426	0.00080005
1.79000000	0.00525943	0.00344729	0.00766193	0.00168010	0.00401878	0.01316115	0.00749070	0.01555371	0.00137717	0.00413454	0.00098097	0.01673275	0.00847116	0.01331005	0.00215114	0.00501397	0.00061593	0.00105402	0.00574552	0.00253982	0.00177498	0.00930477	0.00528520	0.00233168	0.00081296	0.00226269	0.00072995
1.80000000	0.00525019	0.00285185	0.00776825	0.00158030	0.00394318	0.01309083	0.00788517	0.01592349	0.00157506	0.00424428	0.00081597	0.01656360	0.00758833	0.01203310	0.00156758	0.00469357	0.00041472	0.00115416	0.00579682	0.00246991	0.00172928	0.00948979	0.00528899	0.00229512	0.00090700	0.00235106	0.00069400
1.81000000	0.00526741	0.00259153	0.00775591	0.00144367	0.00381469	0.01309511	0.00864829	0.01608011	0.00174516	0.00417108	0.00098095	0.01630904	0.00662874	0.01059976	0.00117637	0.00434623	0.00037384	0.00123567	0.00588603	0.00243936	0.00167638	0.00966743	0.00528234	0.00229321	0.00105533	0.00241232	0.00059728
1.82000000	0.00518731	0.00285784	0.00731767	0.00110081	0.00332972	0.01312427	0.00920098	0.01618297	0.00197705	0.00422325	0.00106189	0.01590652	0.00548793	0.00958946	0.00117820	0.00403717	0.00059433	0.00111324	0.00608376	0.00233426	0.00168527	0.00991687	0.00533269	0.00240115	0.00123982	0.00236499	0.00057506
1.83000000	0.00519492	0.00269808	0.00730778	0.00117441	0.00328332	0.01273690	0.01036216	0.01649192	0.00226329	0.00426714	0.00123344	0.01540454	0.00452053	0.00740575	0.00117896	0.00342214	0.00054198	0.00127859	0.00614072	0.00233807	0.00162444	0.01000551	0.00540238	0.00236092	0.00134092	0.00246859	0.00048446
1.84000000	0.00515967	0.00272619	0.00692602	0.00128720	0.00287819	0.01268947	0.01117690	0.01657090	0.00256244	0.00418234	0.00138691	0.01468716	0.00391727	0.00581052	0.00135421	0.00277278	0.00074221	0.00124453	0.00627171	0.00225187	0.00161376	0.01023125	0.00541620	0.00236754	0.00145623	0.00251207	0.00047980
1.85000000	0.00515773	0.00300068	0.00649648	0.00159641	0.00250432	0.01255717	0.01211749	0.01667000	0.00286535	0.00416888	0.00154402	0.01406062	0.00330775	0.00413566	0.00139255	0.00219609	0.00085996	0.00121665	0.00637721	0.00218979	0.00160006	0.01041409	0.00546702	0.00243259	0.00157373	0.00250038	0.00045201
1.86000000	0.00519415	0.00405060	0.00593684	0.00181727	0.00218914	0.01222414	0.01296264	0.01698349	0.00315479	0.00438297	0.00143241	0.01341569	0.00253264	0.00324288	0.00132530	0.00229260	0.00099149	0.00119689	0.00652518	0.00215124	0.00162804	0.01044523	0.00563641	0.00248707	0.00173789	0.00248977	0.00037596
1.87000000	0.00516069	0.00460962	0.00543967	0.00231110	0.00190040	0.01212756	0.01354216	0.01714702	0.00340105	0.00426179	0.00162466	0.01340579	0.00264382	0.00447179	0.00143667	0.00260641	0.00132705	0.00112504	0.00660687	0.00210578	0.00162885	0.01055302	0.00560044	0.00251446	0.00182382	0.00248657	0.00036720
1.88000000	0.00530702	0.00578091	0.00476971	0.00271704	0.00176510	0.01200016	0.01413614	0.01723848	0.00350971	0.00431831	0.00170077	0.01363796	0.00361916	0.00680654	0.00185469	0.00367142	0.00168773	0.00107583	0.00670602	0.00208900	0.00164339	0.01058313	0.00572041	0.00261120	0.00194624	0.00241127	0.00027038
1.89000000	0.00535306	0.00682363	0.00416044	0.00319598	0.00178000	0.01195891	0.01464182	0.01722567	0.00361183	0.00420113	0.00173763	0.01475122	0.00487295	0.00950868	0.00250320	0.00469741	0.00211844	0.00094835	0.00678500	0.00204826	0.00168614	0.01058000	0.00573324	0.00273280	0.00204108	0.00228236	0.00024155
1.90000000	0.00550677	0.00806980	0.00351149	0.00376223	0.00207651	0.01191740	0.01492814	0.01709193	0.00353817	0.00416294	0.00167975	0.01641936	0.00613108	0.01219422	0.00329838	0.00564695	0.00263659	0.00087214	0.00689215	0.00204184	0.00171669	0.01061360	0.00570809	0.00281923	0.00216603	0.00218286	0.00019836
1.91000000	0.00561381	0.00967465	0.00295497	0.00456702	0.00264522	0.01180229	0.01505486	0.01693280	0.00341418	0.00422112	0.00156547	0.01925069	0.00622519	0.01453591	0.00392072	0.00599129	0.00357122	0.00074598	0.00696216	0.00197366	0.00178790	0.01067577	0.00566232	0.00302863	0.00232688	0.00196508	0.00018787
1.92000000	0.00572169	0.01070252	0.00271779	0.00500582	0.00310067	0.01162773	0.01509281	0.01678692	0.00325537	0.00407346	0.00150446	0.02171925	0.00690216	0.01658303	0.00472737	0.00649104	0.00458109	0.00078701	0.00702894	0.00196887	0.00185121	0.01057976	0.00561203	0.00321923	0.00243674	0.00174269	0.00020448
1.93000000	0.00573024	0.01152474	0.00279324	0.00543555	0.00352529	0.01127455	0.01495800	0.01670129	0.00298039	0.00422033	0.00124372	0.02495881	0.00718890	0.01781045	0.00550434	0.00634402	0.00566898	0.00078949	0.00684367	0.00195731	0.00190339	0.01039055	0.00554480	0.00348447	0.00240964	0.00139432	0.00030000
1.94000000	0.00585904	0.01261358	0.00296232	0.00562880	0.00396680	0.01174785	0.01479749	0.01587861	0.00257686	0.00379679	0.00143306	0.02530030	0.00858064	0.01870950	0.00647641	0.00653552	0.00652834	0.00090025	0.00701448	0.00194535	0.00202354	0.01020760	0.00548791	0.00356920	0.00262956	0.00121160	0.00019385
1.95000000	0.00576857	0.01283838	0.00308913	0.00560380	0.00406961	0.01137904	0.01450732	0.01579171	0.00219620	0.00391051	0.00129147	0.02647199	0.00834575	0.01927516	0.00683253	0.00623188	0.00700048	0.00115396	0.00695585	0.00208161	0.00211206	0.00986275	0.00534738	0.00387027	0.00270653	0.00074000	0.00037544
1.96000000	0.00568067	0.01296696	0.00323695	0.00554711	0.00417052	0.01152109	0.01422870	0.01512899	0.00185882	0.00377228	0.00109952	0.02601872	0.00833912	0.01918145	0.00717068	0.00613509	0.00710331	0.00149040	0.00699518	0.00230250	0.00218318	0.00954341	0.00506433	0.00402691	0.00279156	0.00052928	0.00033230
1.97000000	0.00544947	0.01265354	0.00320906	0.00511600	0.00395277	0.01130746	0.01400396	0.01489791	0.00139356	0.00378661	0.00073088	0.02459235	0.00813960	0.01887785	0.00720164	0.00551175	0.00687739	0.00172445	0.00684953	0.00252387	0.00228891	0.00905301	0.00508200	0.00431301	0.00287140	0.00028207	0.00060619
1.98000000	0.00547551	0.01206064	0.00341627	0.00486389	0.00396707	0.01186249	0.01319172	0.01348729	0.00076644	0.00277273	0.00151775	0.02207705	0.00837383	0.01765323	0.00712069	0.00534754	0.00646520	0.00179451	0.00675205	0.00271200	0.00238531	0.00876976	0.00494616	0.00435903	0.00286635	0.00019925	0.00053710
1.99000000	0.00518741	0.01115519	0.00329798	0.00426757	0.00361364	0.01168283	0.01286834	0.01309610	0.00047399	0.00288203	0.00117977	0.01858246	0.00862609	0.01614053	0.00688652	0.00507139	0.00580793	0.00207810	0.00671853	0.00299878	0.00252275	0.00828341	0.00474583	0.00459219	0.00291230	0.00058967	0.00061270
2.00000000	0.00491573	0.01019880	0.00315255	0.00358407	0.00320006	0.01152457	0.01278149	0.01261320	0.00049343	0.00310673	0.00093988	0.01417460	0.00884697	0.01432812	0.00641803	0.00483821	0.00523383	0.00230164	0.00668055	0.00321264	0.00272730	0.00777019	0.00471396	0.00477738	0.00296318	0.00117620	0.00094111
2.01000000	0.00481711	0.00930978	0.00328584	0.00359568	0.00328849	0.01139975	0.01279037	0.01190227	0.00064681	0.00272925	0.00104260	0.01185035	0.00749676	0.01150088	0.00584013	0.00344430	0.00432560	0.00278140	0.00660830	0.00325443	0.00282566	0.00774745	0.00441581	0.00518925	0.00307094	0.00151300	0.00095606
2.02000000	0.00475812	0.00841276	0.00336147	0.00344491	0.00324109	0.01123842	0.01300174	0.01129331	0.00087015	0.00264005	0.00102051	0.00861744	0.00689879	0.00860915	0.00532003	0.00234287	0.00344688	0.00318282	0.00657665	0.00328437	0.00299559	0.00760493	0.00414011	0.00551612	0.00310035	0.00202931	0.00108201
2.03000000	0.00485007	0.00752567	0.00345920	0.00336500	0.00321680	0.01105245	0.01325181	0.01076139	0.00114561	0.00265509	0.00119083	0.00562763	0.00631202	0.00585930	0.00492456	0.00140060	0.00253581	0.00351014	0.00653864	0.00328384	0.00316622	0.00751034	0.00391325	0.00576871	0.00309241	0.00245916	0.00126279
2.04000000	0.00506106	0.00672379	0.00356641	0.00332005	0.00318560	0.01104687	0.01367669	0.01006069	0.00137409	0.00255348	0.00103660	0.00313956	0.00617070	0.00340615	0.00445971	0.00109398	0.00179382	0.00377730	0.00649538	0.00328403	0.00332459	0.00742222	0.00365720	0.00598655	0.00306008	0.00278392	0.00127735
2.05000000	0.00526273	0.00586811	0.00364759	0.00316574	0.00307063	0.01103900	0.01406235	0.00934314	0.00192645	0.00281980	0.00130258	0.00300622	0.00618838	0.00178666	0.00423648	0.00124786	0.00137477	0.00395781	0.00631940	0.00336756	0.00338214	0.00735800	0.00351583	0.00609094	0.00294966	0.00309492	0.00123593
2.06000000	0.00552666	0.00562375	0.00366125	0.00317492	0.00300130	0.01119343	0.01383240	0.00875493	0.00225946	0.00314271	0.00096275	0.00443106	0.00605103	0.00081481	0.00390748	0.00171482	0.00197504	0.00412253	0.00625530	0.00329729	0.00357501	0.00728865	0.00336348	0.00610534	0.00271664	0.00341102	0.00142312
2.07000000	0.00583079	0.00607494	0.00368379	0.00365405	0.00319519	0.01116506	0.01365687	0.00803635	0.00254580	0.00310451	0.00124795	0.00331271	0.00459563	0.00199629	0.00377764	0.00290465	0.00107490	0.00434162	0.00609582	0.00314127	0.00363630	0.00756949	0.00312678	0.00623089	0.00253328	0.00361479	0.00141908
2.08000000	0.00607916	0.00611241	0.00362380	0.00367340	0.00310421	0.01138774	0.01306113	0.00753185	0.00290649	0.00352479	0.00144928	0.00323985	0.00439372	0.00228046	0.00346772	0.00295744	0.00149345	0.00435726	0.00595860	0.00308827	0.00373415	0.00760029	0.00301434	0.00611422	0.00221680	0.00371052	0.00146299
2.09000000	0.00628236	0.00602458	0.00358049	0.00364462	0.00300310	0.01158853	0.01259129	0.00699680	0.00333924	0.00398095	0.00137633	0.00261649	0.00412015	0.00230625	0.00322626	0.00317793	0.00115903	0.00427120	0.00571551	0.00308212	0.00369347	0.00766772	0.00299310	0.00598996	0.00188639	0.00363244	0.00126515
2.10000000	0.00645426	0.00597156	0.00348613	0.00363852	0.00294388	0.01179728	0.01173460	0.00606594	0.00370567	0.00389240	0.00141687	0.00238629	0.00396040	0.00177296	0.00308255	0.00305628	0.00113022	0.00411934	0.00574111	0.00296598	0.00378246	0.00778043	0.00297802	0.00572618	0.00171600	0.00352404	0.00129281
2.11000000	0.00657471	0.00601656	0.00341143	0.00359793	0.00283367	0.01191421	0.01066577	0.00556389	0.00408099	0.00436161	0.00139929	0.00157950	0.00393671	0.00171361	0.00294877	0.00301374	0.00104559	0.00388945	0.00554881	0.00294083	0.00375183	0.00790743	0.00299949	0.00541426	0.00134902	0.00320659	0.00115644
2.12000000	0.00658508	0.00585377	0.00328728	0.00350761	0.00272608	0.01193362	0.00933785	0.00466641	0.00444020	0.00429216	0.00137906	0.00171422	0.00412437	0.00124399	0.00286853	0.00275564	0.00083947	0.00366694	0.00553932	0.00282174	0.00376818	0.00805043	0.00305207	0.00510511	0.00112554	0.00303064	0.00107258
2.13000000	0.00661245	0.00559130	0.00320444	0.00333803	0.00250265	0.01182743	0.00801857	0.00414168	0.00478599	0.00466430	0.00133164	0.00157656	0.00415847	0.00115747	0.00284153	0.00269787	0.00075312	0.00338166	0.00538341	0.00280880	0.00372330	0.00816212	0.00309391	0.00474690	0.00076821	0.00262059	0.00088192
2.14000000	0.00659961	0.00525415	0.00315660	0.00312684	0.00225830	0.01156177	0.00661510	0.00351613	0.00511279	0.00491903	0.00131367	0.00170015	0.00416376	0.00110136	0.00278253	0.00262361	0.00070779	0.00305115	0.00526697	0.00283319	0.00366431	0.00827611	0.00310027	0.00433573	0.00040766	0.00226156	0.00074042
2.15000000	0.00645928	0.00498853	0.00314004	0.00291117	0.00209502	0.01122201	0.00492719	0.00281945	0.00533573	0.00508526	0.00131400	0.00189924	0.00432706	0.00124707	0.00277621	0.00249662	0.00087025	0.00275039	0.00508082	0.00283203	0.00354671	0.00841522	0.00326234	0.00396349	0.00014137	0.00182685	0.00056931
2.16000000	0.00623402	0.00490004	0.00313713	0.00270622	0.00194033	0.01060062	0.00332708	0.00203999	0.00550672	0.00464870	0.00141202	0.00210959	0.00418179	0.00155415	0.00263761	0.00250415	0.00071882	0.00233708	0.00512925	0.00281375	0.00347695	0.00852370	0.00306777	0.00346406	0.00025355	0.00159146	0.00036924
2.17000000	0.00553724	0.00447145	0.00305260	0.00229415	0.00176512	0.00999328	0.00133214	0.00185248	0.00568869	0.00430090	0.00125743	0.00246652	0.00479014	0.00220118	0.00273137	0.00248221	0.00056647	0.00196902	0.00502408	0.00286503	0.00333856	0.00861633	0.00308358	0.00307750	0.00051784	0.00121821	0.00014412
2.18000000	0.00516470	0.00459790	0.00290995	0.00199851	0.00151942	0.00948194	0.00080055	0.00218430	0.00577156	0.00426582	0.00102953	0.00393472	0.00479007	0.00311800	0.00291944	0.00259135	0.00103538	0.00176079	0.00472463	0.00299576	0.00320156	0.00872431	0.00312239	0.00278647	0.00085541	0.00090918	0.00033760
2.19000000	0.00459699	0.00491534	0.00277471	0.00188561	0.00153984	0.00899553	0.00210411	0.00314608	0.00585790	0.00437200	0.00128513	0.00636036	0.00477894	0.00403019	0.00310098	0.00274402	0.00153551	0.00160808	0.00461046	0.00289489	0.00305701	0.00884923	0.00312143	0.00246419	0.00108969	0.00053812	0.00040417
2.20000000	0.00462882	0.00511149	0.00260287	0.00170466	0.00138836	0.00898081	0.00282696	0.00447130	0.00591885	0.00420383	0.00072756	0.00828036	0.00463047	0.00562949	0.00329156	0.00320187	0.00183714	0.00136083	0.00461565	0.00290293	0.00302845	0.00888062	0.00287697	0.00234140	0.00127442	0.00041338	0.00070836
2.21000000	0.00394969	0.00475644	0.00223394	0.00122481	0.00118364	0.00879764	0.00425635	0.00630770	0.00585706	0.00353739	0.00068834	0.00778270	0.00619712	0.00756497	0.00357872	0.00403971	0.00134573	0.00110471	0.00456948	0.00298202	0.00295104	0.00869125	0.00291463	0.00201980	0.00135688	0.00023900	0.00069316
2.22000000	0.00405150	0.00514591	0.00196686	0.00123388	0.00109470	0.00908481	0.00527275	0.00776634	0.00579140	0.00373122	0.00124641	0.01045360	0.00594221	0.00859397	0.00387672	0.00418781	0.00185332	0.00104370	0.00445236	0.00293536	0.00289531	0.00871795	0.00274015	0.00187308	0.00153060	0.00016281	0.00089298
2.23000000	0.00461789	0.00569848	0.00162891	0.00123667	0.00094256	0.01000031	0.00509081	0.00962119	0.00590230	0.00390344	0.00067146	0.01113357	0.00603728	0.00965103	0.00400226	0.00470182	0.00208398	0.00096827	0.00427959	0.00294920	0.00290858	0.00864969	0.00268775	0.00185615	0.00160687	0.00016130	0.00094407
2.24000000	0.00492287	0.00542772	0.00146918	0.00113205	0.00080818	0.01095474	0.00553470	0.01113716	0.00597646	0.00432636	0.00112836	0.01217584	0.00594219	0.01015517	0.00415557	0.00480753	0.00238748	0.00087261	0.00406560	0.00299644	0.00282904	0.00849784	0.00252016	0.00178498	0.00187006	0.00012203	0.00116055
2.25000000	0.00534417	0.00564679	0.00115847	0.00110296	0.00064107	0.01184310	0.00567472	0.01282413	0.00597398	0.00471930	0.00122383	0.01182426	0.00597670	0.01023250	0.00417302	0.00502297	0.00212168	0.00079994	0.00389925	0.00301868	0.00286155	0.00833203	0.00245679	0.00173118	0.00184492	0.00013550	0.00132313
2.26000000	0.00562235	0.00549577	0.00095548	0.00114973	0.00056124	0.01272256	0.00589428	0.01426128	0.00597772	0.00520956	0.00159669	0.01105860	0.00579997	0.00982980	0.00409477	0.00499512	0.00190070	0.00081415	0.00362999	0.00304475	0.00285281	0.00816940	0.00235817	0.00166974	0.00196543	0.00012557	0.00151894
2.27000000	0.00595463	0.00477607	0.00095550	0.00160855	0.00088041	0.01390863	0.00681533	0.01481994	0.00604192	0.00557543	0.00296300	0.01009726	0.00593211	0.00886650	0.00409182	0.00472333	0.00138973	0.00088909	0.00330462	0.00323855	0.00279510	0.00783550	0.00227453	0.00147738	0.00221580	0.00016854	0.00177264
2.28000000	0.00603505	0.00492294	0.00089996	0.00140157	0.00083687	0.01428680	0.00607023	0.01647921	0.00601355	0.00602129	0.00248517	0.00826079	0.00497739	0.00780324	0.00366154	0.00440457	0.00115857	0.00081663	0.00310827	0.00317897	0.00290129	0.00771026	0.00215901	0.00158430	0.00224689	0.00011807	0.00190430
2.29000000	0.00609787	0.00468213	0.00108747	0.00166264	0.00116712	0.01477702	0.00616483	0.01723520	0.00600729	0.00631261	0.00298481	0.00634561	0.00441111	0.00647579	0.00337378	0.00391256	0.00086456	0.00087938	0.00286880	0.00328202	0.00295300	0.00743400	0.00205363	0.00151821	0.00244783	0.00013853	0.00207158
2.30000000	0.00608757	0.00460454	0.00127276	0.00192809	0.00147056	0.01509740	0.00628792	0.01775513	0.00600406	0.00653304	0.00346294	0.00436032	0.00381961	0.00501268	0.00310518	0.00332469	0.00075282	0.00094064	0.00258276	0.00336693	0.00301250	0.00718392	0.00201848	0.00149613	0.00263896	0.00011646	0.00226455
2.31000000	0.00618010	0.00425140	0.00166672	0.00281673	0.00211447	0.01556212	0.00745728	0.01733850	0.00606089	0.00649168	0.00423007	0.00190987	0.00412413	0.00367191	0.00305404	0.00304256	0.00092825	0.00120843	0.00215474	0.00371631	0.00298868	0.00678622	0.00203755	0.00126992	0.00290362	0.00014462	0.00259597
2.32000000	0.00588560	0.00508530	0.00157732	0.00237006	0.00194268	0.01504709	0.00691527	0.01812908	0.00592897	0.00667296	0.00437891	0.00127805	0.00261281	0.00266607	0.00281393	0.00241564	0.00156063	0.00111142	0.00200520	0.00353456	0.00313989	0.00679996	0.00190469	0.00144626	0.00302008	0.00006569	0.00271341
2.33000000	0.00569039	0.00520400	0.00186627	0.00299255	0.00239412	0.01499790	0.00763712	0.01775235	0.00598846	0.00653332	0.00455653	0.00171007	0.00276492	0.00238973	0.00277881	0.00245952	0.00177260	0.00132746	0.00175678	0.00377435	0.00320744	0.00645931	0.00188315	0.00130855	0.00337030	0.00012717	0.00291641
2.34000000	0.00570463	0.00577854	0.00186987	0.00276844	0.00234695	0.01428651	0.00756288	0.01798965	0.00582206	0.00646839	0.00476612	0.00233976	0.00198510	0.00340680	0.00271266	0.00261975	0.00234430	0.00132897	0.00150818	0.00372032	0.00329933	0.00642090	0.00186072	0.00140219	0.00341676	0.00007044	0.00314587
2.35000000	0.00553396	0.00596132	0.00197872	0.00296804	0.00251726	0.01386899	0.00799279	0.01773258	0.00579036	0.00631824	0.00471470	0.00364170	0.00193007	0.00404978	0.00260195	0.00279370	0.00249739	0.00142259	0.00131315	0.00378667	0.00338426	0.00622956	0.00189559	0.00136664	0.00364482	0.00010004	0.00331750
2.36000000	0.00587557	0.00609135	0.00229540	0.00325358	0.00270857	0.01334442	0.00945703	0.01703483	0.00553983	0.00588588	0.00488513	0.00460430	0.00236462	0.00454226	0.00228550	0.00241268	0.00285932	0.00173971	0.00133153	0.00394197	0.00351687	0.00602692	0.00176471	0.00114250	0.00384534	0.00024173	0.00369615
2.37000000	0.00504546	0.00620343	0.00212606	0.00334539	0.00273507	0.01295936	0.00948947	0.01694124	0.00564843	0.00581638	0.00424213	0.00446778	0.00212244	0.00421101	0.00262685	0.00340392	0.00279577	0.00165664	0.00098952	0.00395597	0.00349041	0.00597946	0.00180937	0.00129947	0.00410219	0.00012617	0.00375820
2.38000000	0.00535797	0.00586925	0.00201773	0.00294205	0.00251431	0.01231428	0.00949873	0.01707889	0.00551270	0.00584354	0.00422718	0.00410002	0.00206675	0.00467992	0.00228660	0.00331208	0.00289145	0.00163454	0.00084492	0.00386610	0.00357404	0.00600728	0.00179280	0.00138880	0.00410726	0.00013116	0.00392550
2.39000000	0.00525493	0.00571769	0.00207955	0.00290060	0.00247574	0.01197122	0.01024879	0.01678344	0.00542343	0.00566335	0.00385012	0.00298602	0.00208807	0.00427748	0.00227688	0.00363369	0.00294326	0.00170038	0.00075382	0.00386407	0.00362116	0.00601219	0.00171438	0.00138384	0.00425454	0.00018773	0.00408141
2.40000000	0.00530479	0.00542691	0.00211055	0.00272906	0.00236272	0.01175948	0.01088713	0.01658577	0.00536066	0.00555951	0.00349234	0.00167464	0.00213885	0.00381733	0.00218541	0.00384859	0.00293218	0.00168849	0.00066534	0.00382271	0.00364518	0.00606153	0.00165044	0.00141859	0.00435091	0.00017420	0.00425515
2.41000000	0.00544842	0.00505627	0.00212750	0.00249792	0.00222613	0.01164647	0.01145681	0.01647806	0.00531055	0.00552207	0.00321717	0.00054324	0.00228599	0.00337232	0.00200608	0.00390153	0.00290706	0.00163964	0.00054684	0.00377213	0.00365722	0.00615686	0.00159335	0.00146336	0.00440824	0.00023284	0.00438723
2.42000000	0.00564337	0.00395763	0.00227073	0.00262590	0.00227599	0.01134181	0.01179017	0.01656840	0.00536998	0.00581901	0.00343777	0.00051452	0.00352160	0.00298791	0.00141447	0.00300088	0.00227162	0.00170032	0.00058355	0.00380990	0.00371627	0.00599769	0.00166585	0.00145975	0.00441907	0.00026936	0.00436914
2.43000000	0.00578262	0.00362468	0.00236709	0.00239203	0.00213015	0.01140751	0.01238297	0.01643497	0.00544758	0.00582608	0.00306887	0.00146970	0.00356330	0.00284759	0.00140217	0.00316996	0.00241144	0.00172369	0.00050368	0.00378843	0.00373034	0.00616806	0.00152389	0.00142504	0.00451610	0.00043057	0.00434730
2.44000000	0.00616466	0.00319923	0.00263445	0.00225699	0.00214780	0.01144385	0.01287261	0.01641724	0.00544773	0.00579978	0.00288518	0.00299399	0.00381434	0.00274344	0.00149074	0.00340259	0.00271274	0.00160587	0.00064059	0.00365807	0.00373601	0.00626397	0.00143796	0.00168345	0.00460248	0.00022851	0.00429088
2.45000000	0.00643226	0.00302776	0.00245849	0.00242540	0.00211274	0.01140812	0.01298229	0.01646689	0.00565611	0.00611762	0.00324059	0.00272049	0.00426400	0.00352849	0.00113658	0.00281958	0.00171566	0.00161352	0.00054278	0.00380108	0.00370265	0.00620128	0.00146829	0.00154707	0.00449622	0.00032421	0.00442928
2.46000000	0.00657369	0.00267308	0.00258658	0.00230203	0.00203287	0.01166883	0.01331406	0.01639696	0.00587024	0.00613680	0.00318939	0.00388100	0.00451227	0.00361059	0.00126694	0.00283660	0.00196813	0.00150076	0.00061166	0.00372243	0.00369422	0.00635912	0.00137208	0.00163108	0.00454013	0.00031739	0.00433334
2.47000000	0.00677316	0.00260586	0.00263269	0.00227732	0.00199361	0.01195877	0.01343067	0.01636967	0.00613215	0.00619954	0.00329661	0.00456757	0.00462703	0.00382032	0.00137420	0.00286159	0.00202126	0.00144197	0.00062462	0.00370793	0.00367289	0.00649614	0.00129107	0.00166925	0.00447452	0.00034168	0.00425974
2.48000000	0.00731535	0.00253822	0.00275098	0.00202493	0.00189727	0.01241180	0.01335791	0.01648926	0.00643669	0.00646312	0.00354446	0.00489652	0.00557479	0.00326336	0.00162180	0.00259010	0.00234113	0.00131773	0.00082844	0.00357253	0.00374688	0.00666186	0.00127566	0.00179703	0.00451204	0.00050067	0.00409529
2.49000000	0.00711592	0.00334042	0.00264405	0.00264026	0.00208196	0.01248291	0.01326062	0.01660069	0.00645579	0.00616323	0.00369130	0.00473507	0.00461128	0.00440390	0.00154154	0.00293771	0.00144142	0.00134369	0.00070503	0.00378264	0.00357385	0.00668466	0.00118696	0.00167935	0.00436000	0.00036872	0.00413991
2.50000000	0.00733699	0.00327759	0.00268935	0.00267787	0.00208443	0.01308657	0.01294040	0.01681983	0.00675168	0.00621099	0.00401767	0.00451928	0.00497174	0.00448494	0.00164912	0.00275459	0.00168644	0.00123490	0.00079986	0.00373138	0.00355498	0.00677597	0.00117775	0.00177428	0.00430538	0.00033819	0.00391492
2.51000000	0.00744631	0.00355122	0.00270774	0.00280586	0.00212527	0.01374565	0.01256664	0.01715026	0.00690555	0.00610570	0.00426283	0.00422343	0.00519071	0.00460282	0.00165260	0.00283132	0.00160538	0.00116230	0.00090048	0.00371846	0.00351493	0.00687429	0.00116441	0.00182021	0.00419329	0.00035877	0.00378015
2.52000000	0.00749282	0.00419422	0.00275495	0.00306842	0.00223009	0.01429189	0.01208757	0.01755406	0.00696311	0.00601977	0.00448175	0.00384331	0.00509376	0.00489080	0.00170111	0.00308022	0.00134572	0.00119833	0.00089695	0.00375770	0.00343797	0.00698204	0.00109179	0.00173988	0.00409417	0.00044143	0.00364306
2.53000000	0.00770889	0.00514520	0.00287602	0.00340443	0.00239394	0.01484755	0.01162002	0.01784651	0.00693475	0.00593526	0.00458238	0.00370634	0.00499301	0.00491560	0.00181843	0.00322162	0.00127684	0.00123654	0.00098755	0.00384282	0.00332387	0.00711736	0.00102704	0.00169036	0.00416081	0.00040339	0.00348032
2.54000000	0.00790970	0.00481907	0.00287860	0.00316925	0.00229942	0.01618917	0.01053228	0.01841573	0.00715246	0.00630077	0.00474972	0.00347587	0.00688964	0.00417218	0.00203654	0.00277874	0.00178194	0.00106680	0.00108818	0.00369712	0.00334565	0.00721264	0.00109961	0.00192702	0.00411818	0.00041509	0.00317628
2.55000000	0.00803020	0.00609743	0.00307977	0.00359869	0.00252146	0.01633786	0.01025695	0.01873707	0.00673007	0.00591383	0.00478161	0.00339066	0.00545582	0.00532679	0.00195690	0.00349416	0.00136691	0.00119144	0.00110289	0.00376154	0.00318577	0.00736699	0.00097841	0.00171022	0.00393892	0.00046713	0.00320540
2.56000000	0.00838592	0.00665567	0.00319664	0.00349797	0.00247466	0.01714621	0.00949258	0.01888990	0.00666524	0.00579798	0.00452395	0.00411066	0.00517203	0.00542930	0.00212402	0.00372802	0.00173856	0.00119062	0.00120603	0.00371963	0.00313441	0.00755448	0.00101018	0.00171478	0.00391677	0.00043169	0.00298556
2.57000000	0.00835527	0.00697977	0.00326254	0.00341131	0.00243735	0.01750290	0.00867430	0.01918343	0.00632826	0.00581699	0.00452367	0.00417549	0.00565429	0.00587727	0.00217801	0.00386116	0.00165571	0.00121180	0.00116955	0.00367220	0.00304704	0.00770330	0.00095735	0.00169687	0.00374599	0.00049241	0.00288257
2.58000000	0.00841198	0.00723044	0.00338048	0.00333110	0.00239360	0.01774464	0.00796384	0.01898483	0.00605621	0.00564717	0.00417566	0.00451600	0.00603911	0.00642451	0.00230677	0.00400007	0.00183444	0.00121228	0.00124261	0.00364393	0.00297085	0.00782368	0.00100138	0.00169675	0.00367774	0.00049960	0.00275485
2.59000000	0.00831414	0.00753413	0.00346304	0.00312236	0.00230671	0.01758864	0.00725897	0.01856625	0.00568187	0.00544542	0.00390800	0.00505922	0.00644690	0.00691864	0.00237455	0.00414222	0.00181296	0.00129300	0.00122246	0.00360808	0.00287454	0.00797291	0.00101638	0.00165494	0.00361606	0.00054344	0.00265296
2.60000000	0.00823786	0.00765380	0.00364980	0.00288758	0.00228332	0.01715190	0.00664767	0.01759739	0.00527212	0.00523918	0.00363203	0.00559979	0.00673498	0.00759283	0.00252899	0.00436450	0.00188337	0.00127810	0.00131684	0.00354547	0.00283990	0.00806341	0.00110431	0.00167195	0.00353104	0.00055439	0.00253536
2.61000000	0.00764232	0.00751344	0.00380858	0.00232590	0.00225291	0.01642064	0.00582667	0.01667247	0.00496863	0.00486728	0.00329783	0.00632148	0.00747484	0.00788201	0.00258628	0.00451946	0.00188804	0.00132012	0.00121229	0.00343486	0.00279414	0.00820066	0.00105179	0.00168893	0.00338143	0.00057008	0.00231849
2.62000000	0.00714714	0.00754394	0.00401448	0.00185053	0.00236207	0.01521210	0.00513374	0.01530791	0.00456915	0.00443231	0.00305441	0.00681925	0.00792706	0.00836271	0.00264619	0.00462153	0.00190228	0.00117880	0.00135787	0.00339240	0.00276472	0.00827028	0.00116370	0.00178295	0.00327127	0.00046739	0.00229682
2.63000000	0.00722509	0.00788102	0.00419873	0.00195202	0.00245368	0.01357393	0.00506881	0.01283849	0.00410571	0.00374412	0.00260331	0.00721202	0.00778500	0.00917088	0.00281630	0.00469960	0.00205990	0.00150083	0.00129902	0.00357551	0.00266655	0.00817763	0.00125578	0.00154734	0.00327585	0.00065186	0.00229362
2.64000000	0.00654109	0.00763857	0.00444625	0.00142005	0.00273019	0.01212530	0.00422723	0.01102609	0.00383559	0.00338259	0.00276679	0.00746206	0.00829035	0.00931071	0.00288771	0.00480840	0.00213550	0.00135368	0.00136389	0.00355066	0.00265562	0.00817804	0.00124994	0.00169715	0.00324040	0.00053264	0.00215056
2.65000000	0.00577324	0.00760216	0.00475394	0.00131643	0.00306049	0.01054087	0.00421570	0.00910757	0.00336428	0.00253620	0.00231493	0.00773466	0.00843287	0.00932334	0.00287573	0.00502681	0.00198258	0.00144511	0.00121724	0.00357187	0.00256627	0.00815132	0.00116250	0.00159098	0.00299587	0.00065774	0.00208357
2.66000000	0.00532195	0.00763297	0.00493644	0.00138755	0.00327871	0.00941635	0.00402987	0.00695103	0.00301851	0.00176408	0.00189284	0.00769813	0.00852161	0.00925879	0.00286660	0.00507219	0.00209684	0.00159480	0.00126952	0.00372070	0.00251874	0.00796869	0.00124365	0.00148775	0.00296234	0.00072079	0.00204845
2.67000000	0.00572403	0.00777970	0.00482604	0.00156632	0.00334854	0.00895680	0.00356922	0.00450052	0.00287856	0.00141770	0.00101840	0.00801147	0.00777269	0.00897884	0.00278678	0.00506591	0.00239407	0.00178024	0.00135853	0.00408763	0.00253490	0.00755728	0.00126308	0.00136598	0.00300832	0.00076028	0.00204566
2.68000000	0.00533092	0.00774562	0.00496698	0.00186058	0.00364765	0.00889064	0.00342454	0.00435481	0.00247610	0.00107538	0.00125772	0.00763175	0.00799800	0.00843947	0.00265225	0.00507038	0.00244136	0.00182500	0.00143773	0.00420128	0.00255512	0.00734319	0.00127403	0.00134058	0.00292518	0.00076150	0.00190134
2.69000000	0.00527057	0.00785159	0.00497242	0.00206684	0.00377945	0.00928537	0.00345510	0.00503356	0.00216849	0.00147074	0.00049131	0.00785449	0.00718268	0.00748719	0.00258913	0.00512796	0.00283057	0.00198234	0.00141388	0.00450762	0.00249447	0.00702961	0.00127665	0.00122597	0.00278704	0.00082505	0.00192406
2.70000000	0.00482627	0.00787168	0.00506889	0.00229408	0.00395613	0.01010140	0.00338725	0.00601161	0.00177054	0.00134729	0.00043333	0.00763159	0.00730396	0.00656817	0.00245980	0.00516696	0.00290461	0.00212377	0.00144486	0.00472427	0.00245927	0.00676136	0.00132853	0.00113097	0.00258657	0.00086641	0.00185470
2.71000000	0.00442774	0.00781101	0.00515755	0.00245694	0.00409714	0.01096156	0.00318303	0.00682763	0.00145746	0.00133571	0.00061255	0.00769648	0.00714539	0.00554498	0.00245288	0.00532265	0.00308971	0.00226138	0.00151471	0.00494903	0.00244006	0.00646856	0.00139799	0.00106180	0.00233444	0.00087205	0.00175613
2.72000000	0.00453535	0.00802618	0.00497940	0.00264392	0.00411927	0.01127470	0.00334445	0.00753295	0.00120707	0.00168644	0.00086242	0.00785784	0.00584592	0.00455526	0.00251367	0.00531019	0.00357733	0.00237426	0.00167101	0.00526694	0.00243373	0.00611566	0.00153437	0.00103311	0.00231102	0.00084754	0.00162549
2.73000000	0.00437208	0.00833858	0.00482988	0.00285124	0.00415056	0.01179102	0.00322480	0.00727152	0.00109174	0.00119648	0.00118659	0.00804697	0.00571074	0.00398166	0.00252467	0.00501762	0.00366926	0.00250991	0.00183802	0.00548156	0.00241750	0.00580545	0.00177173	0.00097376	0.00212938	0.00083060	0.00143378
2.74000000	0.00394313	0.00794817	0.00488088	0.00283030	0.00418491	0.01165846	0.00322525	0.00737172	0.00136929	0.00148465	0.00162266	0.00834509	0.00509070	0.00279494	0.00273103	0.00541625	0.00388198	0.00259396	0.00203763	0.00571411	0.00239031	0.00552517	0.00190390	0.00094123	0.00179719	0.00076778	0.00129165
2.75000000	0.00337171	0.00778244	0.00492925	0.00287925	0.00423929	0.01162849	0.00293915	0.00673586	0.00164330	0.00105657	0.00197279	0.00873344	0.00495806	0.00218816	0.00283485	0.00544648	0.00401318	0.00265556	0.00222040	0.00585281	0.00231366	0.00532331	0.00221847	0.00090042	0.00135345	0.00077445	0.00123631
2.76000000	0.00278912	0.00771569	0.00482148	0.00278642	0.00413908	0.01133138	0.00269325	0.00598859	0.00205707	0.00087612	0.00227065	0.00901653	0.00480931	0.00182487	0.00303985	0.00541507	0.00398563	0.00284757	0.00263948	0.00605373	0.00232021	0.00507138	0.00246352	0.00083484	0.00106777	0.00067040	0.00089791
2.77000000	0.00250605	0.00747765	0.00464713	0.00269842	0.00399921	0.01038713	0.00273169	0.00564607	0.00261399	0.00130334	0.00261307	0.00907902	0.00419685	0.00166789	0.00332433	0.00543501	0.00418548	0.00300207	0.00301515	0.00625878	0.00233771	0.00480521	0.00275332	0.00080364	0.00080657	0.00059665	0.00065333
2.78000000	0.00224516	0.00734663	0.00452390	0.00264020	0.00389775	0.00980317	0.00287196	0.00469555	0.00308330	0.00123226	0.00261374	0.00932742	0.00398602	0.00182015	0.00358011	0.00534378	0.00419008	0.00312810	0.00337321	0.00639053	0.00228777	0.00464002	0.00312859	0.00073704	0.00044999	0.00054130	0.00035919
2.79000000	0.00214983	0.00714600	0.00438401	0.00255996	0.00377128	0.00920723	0.00299776	0.00394909	0.00340017	0.00152697	0.00252359	0.00952066	0.00384075	0.00210507	0.00387999	0.00519790	0.00422994	0.00329271	0.00380534	0.00648757	0.00226770	0.00451678	0.00350702	0.00071518	0.00016554	0.00043938	0.00016112
2.80000000	0.00184855	0.00658711	0.00441845	0.00253297	0.00372956	0.00828741	0.00309649	0.00389397	0.00361675	0.00200137	0.00272638	0.00971729	0.00381378	0.00243492	0.00405585	0.00531217	0.00426301	0.00336512	0.00423432	0.00651290	0.00226221	0.00441633	0.00387903	0.00071676	0.00037554	0.00030913	0.00022126
2.81000000	0.00188404	0.00626297	0.00428663	0.00250472	0.00359766	0.00715530	0.00353608	0.00412611	0.00383471	0.00247008	0.00269462	0.00962836	0.00351414	0.00294508	0.00429178	0.00542691	0.00433359	0.00349386	0.00467148	0.00660085	0.00227811	0.00428284	0.00415788	0.00071855	0.00067891	0.00021504	0.00045263
2.82000000	0.00234291	0.00612864	0.00404108	0.00241008	0.00339965	0.00658924	0.00393792	0.00402192	0.00383481	0.00295645	0.00236841	0.00969419	0.00343073	0.00333097	0.00471532	0.00511068	0.00439575	0.00365950	0.00502428	0.00665966	0.00229292	0.00420303	0.00465051	0.00069952	0.00088715	0.00018585	0.00085279
2.83000000	0.00238620	0.00572431	0.00389935	0.00227928	0.00321257	0.00605071	0.00439377	0.00412210	0.00375675	0.00318761	0.00217529	0.00988862	0.00323632	0.00364683	0.00491335	0.00499592	0.00438768	0.00383870	0.00538488	0.00668362	0.00234583	0.00413404	0.00510318	0.00050597	0.00116968	0.00033190	0.00111154
2.84000000	0.00233674	0.00527733	0.00386682	0.00223541	0.00311264	0.00519887	0.00481553	0.00449562	0.00355197	0.00350595	0.00207417	0.01000977	0.00308608	0.00398498	0.00508232	0.00490525	0.00430565	0.00395075	0.00568744	0.00672310	0.00233341	0.00408391	0.00540691	0.00050868	0.00141046	0.00038012	0.00129204
2.85000000	0.00243693	0.00477410	0.00405720	0.00247339	0.00327134	0.00469116	0.00485475	0.00450335	0.00312851	0.00358207	0.00158768	0.00985651	0.00305244	0.00454528	0.00508579	0.00516075	0.00407098	0.00396849	0.00610155	0.00657047	0.00235238	0.00421938	0.00550904	0.00063484	0.00178102	0.00015053	0.00137659
2.86000000	0.00221441	0.00428094	0.00402232	0.00247846	0.00318696	0.00332564	0.00521498	0.00482738	0.00294399	0.00368635	0.00170438	0.00968044	0.00306051	0.00478354	0.00542363	0.00493540	0.00381176	0.00403843	0.00626368	0.00656502	0.00240265	0.00420933	0.00581391	0.00058448	0.00182171	0.00030879	0.00152545
2.87000000	0.00204282	0.00388774	0.00411503	0.00248869	0.00319207	0.00220495	0.00564054	0.00463106	0.00272062	0.00357180	0.00134447	0.00970856	0.00275548	0.00513844	0.00536013	0.00472332	0.00371456	0.00409688	0.00642529	0.00655531	0.00242727	0.00421764	0.00590020	0.00054998	0.00189966	0.00018248	0.00162688
2.88000000	0.00239528	0.00374298	0.00419183	0.00250069	0.00324114	0.00210759	0.00527833	0.00349229	0.00203938	0.00377356	0.00104768	0.00954446	0.00256331	0.00529693	0.00540431	0.00446369	0.00338012	0.00413872	0.00665127	0.00636483	0.00247990	0.00444198	0.00615652	0.00051023	0.00202660	0.00015281	0.00171009
2.89000000	0.00190674	0.00326330	0.00418575	0.00251056	0.00320333	0.00063774	0.00574556	0.00326451	0.00207793	0.00336576	0.00139696	0.00925171	0.00240499	0.00553881	0.00556286	0.00417831	0.00314627	0.00412854	0.00667759	0.00632923	0.00253392	0.00446572	0.00621408	0.00047760	0.00197003	0.00014762	0.00165929
2.90000000	0.00155197	0.00287088	0.00417680	0.00256633	0.00320451	0.00067178	0.00611152	0.00282134	0.00211064	0.00306256	0.00151640	0.00901164	0.00242672	0.00580224	0.00560288	0.00393104	0.00296634	0.00403282	0.00666420	0.00622849	0.00261984	0.00453735	0.00626910	0.00042144	0.00184395	0.00014267	0.00155296
2.91000000	0.00200521	0.00324200	0.00423040	0.00243260	0.00318136	0.00062410	0.00523449	0.00216490	0.00166495	0.00341850	0.00140585	0.00879079	0.00224151	0.00612471	0.00560064	0.00372594	0.00235778	0.00407766	0.00670371	0.00613121	0.00260239	0.00474494	0.00632108	0.00030735	0.00172514	0.00022878	0.00158901
2.92000000	0.00160819	0.00302945	0.00407656	0.00240081	0.00311050	0.00074330	0.00545558	0.00179125	0.00164497	0.00316478	0.00125772	0.00850389	0.00277511	0.00639851	0.00563590	0.00341370	0.00223962	0.00394412	0.00660802	0.00606444	0.00264398	0.00483182	0.00621602	0.00036120	0.00152908	0.00020435	0.00139924
2.93000000	0.00157485	0.00309160	0.00390870	0.00233123	0.00302661	0.00049220	0.00519671	0.00168772	0.00153428	0.00310934	0.00107731	0.00825104	0.00335992	0.00684686	0.00562620	0.00336070	0.00188652	0.00380656	0.00651605	0.00595319	0.00267545	0.00498600	0.00611509	0.00033778	0.00128287	0.00039432	0.00133036
2.94000000	0.00164850	0.00323381	0.00360529	0.00215929	0.00283254	0.00075353	0.00491189	0.00169354	0.00146220	0.00305263	0.00087903	0.00793863	0.00409353	0.00745192	0.00554112	0.00339783	0.00175689	0.00370236	0.00645866	0.00588391	0.00270311	0.00510226	0.00595197	0.00043791	0.00100291	0.00046303	0.00115159
2.95000000	0.00182546	0.00331195	0.00327148	0.00205217	0.00265447	0.00214236	0.00465755	0.00177685	0.00145189	0.00303612	0.00077393	0.00768444	0.00498290	0.00819352	0.00546040	0.00351365	0.00174837	0.00355426	0.00635743	0.00580066	0.00271675	0.00525719	0.00572106	0.00053691	0.00075130	0.00061788	0.00089992
2.96000000	0.00220419	0.00377205	0.00292372	0.00181812	0.00239662	0.00339300	0.00427841	0.00244590	0.00160501	0.00288388	0.00073457	0.00755918	0.00550565	0.00908054	0.00530841	0.00415519	0.00063601	0.00339873	0.00619191	0.00575019	0.00269585	0.00536757	0.00568819	0.00057222	0.00043089	0.00081653	0.00075638
2.97000000	0.00231227	0.00364432	0.00250008	0.00174679	0.00219409	0.00542678	0.00437647	0.00271625	0.00168901	0.00305608	0.00073246	0.00765882	0.00663236	0.01008270	0.00507225	0.00425498	0.00179806	0.00314964	0.00608962	0.00566075	0.00273120	0.00550723	0.00538102	0.00067853	0.00025485	0.00093161	0.00051721
2.98000000	0.00209010	0.00337530	0.00207489	0.00172470	0.00196058	0.00575881	0.00479202	0.00447022	0.00234894	0.00290395	0.00083249	0.00735402	0.00746855	0.01152858	0.00484423	0.00510262	0.00087560	0.00287354	0.00581554	0.00566701	0.00273419	0.00547535	0.00517014	0.00071606	0.00030345	0.00106827	0.00024578
2.99000000	0.00250905	0.00349959	0.00165070	0.00167118	0.00173343	0.00766591	0.00484947	0.00507002	0.00243216	0.00309451	0.00085774	0.00800285	0.00832323	0.01265456	0.00466724	0.00534226	0.00160724	0.00265512	0.00575613	0.00556536	0.00277133	0.00557374	0.00493629	0.00080001	0.00051082	0.00119685	0.00014338
3.00000000	0.00305689	0.00389234	0.00132745	0.00168462	0.00155000	0.00892788	0.00493085	0.00606849	0.00251608	0.00335396	0.00117267	0.00875854	0.00860275	0.01404595	0.00454527	0.00598435	0.00107312	0.00247489	0.00561591	0.00557641	0.00274084	0.00562143	0.00470985	0.00085933	0.00075019	0.00129672	0.00017453
3.01000000	0.00322940	0.00368484	0.00119760	0.00180884	0.00146464	0.01034717	0.00507608	0.00672779	0.00244183	0.00347850	0.00123351	0.00968698	0.00975285	0.01519861	0.00433864	0.00621051	0.00247495	0.00227239	0.00556682	0.00556832	0.00276138	0.00563497	0.00430190	0.00099085	0.00095835	0.00134222	0.00044016
3.02000000	0.00357527	0.00363294	0.00118434	0.00188933	0.00141566	0.01035793	0.00515206	0.00809311	0.00267647	0.00363755	0.00146770	0.00961392	0.00986842	0.01730391	0.00414248	0.00692666	0.00117861	0.00201923	0.00541239	0.00540802	0.00281234	0.00574143	0.00420529	0.00086415	0.00105303	0.00141682	0.00059900
3.03000000	0.00378948	0.00379925	0.00148439	0.00207626	0.00154447	0.01085395	0.00512015	0.00888197	0.00247116	0.00373357	0.00156736	0.01057245	0.01027331	0.01862303	0.00404046	0.00728892	0.00121759	0.00181668	0.00524452	0.00541576	0.00279736	0.00572116	0.00400653	0.00091226	0.00126706	0.00138560	0.00075579
3.04000000	0.00404152	0.00410123	0.00181565	0.00226129	0.00173194	0.01086107	0.00504239	0.00969707	0.00222192	0.00378983	0.00167517	0.01178053	0.01056674	0.01976150	0.00399811	0.00748319	0.00138459	0.00172579	0.00510905	0.00540939	0.00278194	0.00565413	0.00387980	0.00088720	0.00142956	0.00144132	0.00089787
3.05000000	0.00431942	0.00421868	0.00207429	0.00239057	0.00186944	0.01074970	0.00494975	0.01012009	0.00190606	0.00373449	0.00162899	0.01243384	0.01079103	0.02104853	0.00392639	0.00778378	0.00156186	0.00159376	0.00504255	0.00534355	0.00279727	0.00566165	0.00369800	0.00091373	0.00149267	0.00139795	0.00103919
3.06000000	0.00438924	0.00403585	0.00234137	0.00246304	0.00198277	0.01069430	0.00476809	0.01019474	0.00151903	0.00350745	0.00136317	0.01285444	0.01122590	0.02213844	0.00390309	0.00806548	0.00176970	0.00142649	0.00497992	0.00525082	0.00281609	0.00572706	0.00347723	0.00083997	0.00152201	0.00137153	0.00119919
3.07000000	0.00401156	0.00403573	0.00300850	0.00273948	0.00243503	0.01009731	0.00477414	0.01058101	0.00124067	0.00338975	0.00169662	0.01397497	0.01197797	0.02242375	0.00408093	0.00796663	0.00247659	0.00139812	0.00480232	0.00534483	0.00276565	0.00553213	0.00331259	0.00090232	0.00177158	0.00138383	0.00130089
3.08000000	0.00449451	0.00431442	0.00294303	0.00275585	0.00242235	0.00935534	0.00459696	0.01044046	0.00144999	0.00313143	0.00138353	0.01390959	0.01160095	0.02362550	0.00407047	0.00834651	0.00246903	0.00125109	0.00467293	0.00522433	0.00279200	0.00558842	0.00331547	0.00084713	0.00168474	0.00125625	0.00139337
3.09000000	0.00445630	0.00412200	0.00310653	0.00274434	0.00248886	0.00901548	0.00431778	0.00989341	0.00138701	0.00295444	0.00104952	0.01403157	0.01201824	0.02418331	0.00418161	0.00852058	0.00267036	0.00113541	0.00467869	0.00512820	0.00282376	0.00563982	0.00314161	0.00080294	0.00164555	0.00125093	0.00150977
3.10000000	0.00462142	0.00465549	0.00399739	0.00344434	0.00316898	0.00802445	0.00448636	0.01008849	0.00189590	0.00285184	0.00122078	0.01454360	0.01364928	0.02357886	0.00434094	0.00801872	0.00341033	0.00126597	0.00408796	0.00534408	0.00262503	0.00536992	0.00336291	0.00072040	0.00202163	0.00132948	0.00176217
