Model Marker Errors from IK
version=1
nRows=272
nColumns=4
inDegrees=no
endheader
time	total_squared_error	marker_error_RMS	marker_error_max
      0.23000000	      0.00138481	      0.00744261	      0.01844658
      0.24000000	      0.00138500	      0.00744311	      0.01817867
      0.25000000	      0.00138103	      0.00743244	      0.01801120
      0.26000000	      0.00137740	      0.00742266	      0.01791315
      0.27000000	      0.00138171	      0.00743426	      0.01789147
      0.28000000	      0.00142525	      0.00755050	      0.01782043
      0.29000000	      0.00149283	      0.00772742	      0.01763730
      0.30000000	      0.00161171	      0.00802922	      0.01768231
      0.31000000	      0.00173184	      0.00832307	      0.01774679
      0.32000000	      0.00182879	      0.00855288	      0.01786832
      0.33000000	      0.00188325	      0.00867929	      0.01802686
      0.34000000	      0.00189527	      0.00870694	      0.01819023
      0.35000000	      0.00187130	      0.00865171	      0.01827356
      0.36000000	      0.00182603	      0.00854642	      0.01830412
      0.37000000	      0.00176913	      0.00841221	      0.01832562
      0.38000000	      0.00171141	      0.00827384	      0.01819466
      0.39000000	      0.00165461	      0.00813537	      0.01789243
      0.40000000	      0.00161762	      0.00804392	      0.01763736
      0.41000000	      0.00158763	      0.00796902	      0.01721965
      0.42000000	      0.00158110	      0.00795261	      0.01728224
      0.43000000	      0.00154051	      0.00784987	      0.01644491
      0.44000000	      0.00150873	      0.00776847	      0.01547380
      0.45000000	      0.00148874	      0.00771685	      0.01492066
      0.46000000	      0.00145976	      0.00764136	      0.01501057
      0.47000000	      0.00143502	      0.00757632	      0.01517214
      0.48000000	      0.00140071	      0.00748522	      0.01496892
      0.49000000	      0.00137823	      0.00742490	      0.01503246
      0.50000000	      0.00135989	      0.00737534	      0.01508830
      0.51000000	      0.00134206	      0.00732683	      0.01510656
      0.52000000	      0.00131532	      0.00725348	      0.01501564
      0.53000000	      0.00130867	      0.00723511	      0.01518455
      0.54000000	      0.00131717	      0.00725858	      0.01542547
      0.55000000	      0.00132875	      0.00729041	      0.01597340
      0.56000000	      0.00135893	      0.00737273	      0.01629265
      0.57000000	      0.00140499	      0.00749665	      0.01664754
      0.58000000	      0.00145665	      0.00763322	      0.01699501
      0.59000000	      0.00150978	      0.00777118	      0.01716452
      0.60000000	      0.00155421	      0.00788469	      0.01709360
      0.61000000	      0.00157491	      0.00793704	      0.01610566
      0.62000000	      0.00158742	      0.00796850	      0.01525574
      0.63000000	      0.00158248	      0.00795608	      0.01322552
      0.64000000	      0.00157750	      0.00794354	      0.01301472
      0.65000000	      0.00157833	      0.00794564	      0.01345295
      0.66000000	      0.00160773	      0.00801929	      0.01489654
      0.67000000	      0.00166271	      0.00815526	      0.01631663
      0.68000000	      0.00173863	      0.00833939	      0.01826240
      0.69000000	      0.00181529	      0.00852126	      0.02020023
      0.70000000	      0.00186012	      0.00862583	      0.02133745
      0.71000000	      0.00184718	      0.00859577	      0.02150738
      0.72000000	      0.00178171	      0.00844206	      0.02057974
      0.73000000	      0.00165524	      0.00813692	      0.01837375
      0.74000000	      0.00153591	      0.00783813	      0.01598474
      0.75000000	      0.00143558	      0.00757780	      0.01357962
      0.76000000	      0.00134718	      0.00734080	      0.01306324
      0.77000000	      0.00128405	      0.00716672	      0.01291211
      0.78000000	      0.00122190	      0.00699115	      0.01266383
      0.79000000	      0.00113772	      0.00674601	      0.01198498
      0.80000000	      0.00105928	      0.00650933	      0.01175246
      0.81000000	      0.00098067	      0.00626314	      0.01117096
      0.82000000	      0.00093583	      0.00611828	      0.01103939
      0.83000000	      0.00092886	      0.00609545	      0.01095624
      0.84000000	      0.00095547	      0.00618213	      0.01113664
      0.85000000	      0.00099972	      0.00632368	      0.01112652
      0.86000000	      0.00106960	      0.00654093	      0.01141490
      0.87000000	      0.00114285	      0.00676123	      0.01173605
      0.88000000	      0.00120835	      0.00695226	      0.01255960
      0.89000000	      0.00125379	      0.00708177	      0.01299209
      0.90000000	      0.00127037	      0.00712845	      0.01301590
      0.91000000	      0.00126948	      0.00712596	      0.01272320
      0.92000000	      0.00124703	      0.00706267	      0.01232162
      0.93000000	      0.00123372	      0.00702488	      0.01257187
      0.94000000	      0.00118470	      0.00688388	      0.01202377
      0.95000000	      0.00115300	      0.00679118	      0.01185055
      0.96000000	      0.00111771	      0.00668644	      0.01154337
      0.97000000	      0.00108814	      0.00659738	      0.01118053
      0.98000000	      0.00106183	      0.00651714	      0.01078903
      0.99000000	      0.00104225	      0.00645678	      0.01074537
      1.00000000	      0.00102915	      0.00641609	      0.01088909
      1.01000000	      0.00099608	      0.00631215	      0.01088777
      1.02000000	      0.00099253	      0.00630088	      0.01112258
      1.03000000	      0.00099706	      0.00631525	      0.01128038
      1.04000000	      0.00100482	      0.00633978	      0.01146581
      1.05000000	      0.00103814	      0.00644403	      0.01151772
      1.06000000	      0.00103464	      0.00643315	      0.01162234
      1.07000000	      0.00104972	      0.00647987	      0.01167581
      1.08000000	      0.00103973	      0.00644896	      0.01181939
      1.09000000	      0.00105581	      0.00649863	      0.01184633
      1.10000000	      0.00108265	      0.00658074	      0.01269122
      1.11000000	      0.00111739	      0.00668547	      0.01271051
      1.12000000	      0.00116261	      0.00681941	      0.01361195
      1.13000000	      0.00121507	      0.00697157	      0.01373492
      1.14000000	      0.00127494	      0.00714126	      0.01419206
      1.15000000	      0.00133283	      0.00730159	      0.01491191
      1.16000000	      0.00137902	      0.00742704	      0.01488504
      1.17000000	      0.00140849	      0.00750597	      0.01500820
      1.18000000	      0.00141212	      0.00751565	      0.01607929
      1.19000000	      0.00139520	      0.00747048	      0.01585699
      1.20000000	      0.00137834	      0.00742521	      0.01606852
      1.21000000	      0.00136502	      0.00738923	      0.01637574
      1.22000000	      0.00137213	      0.00740845	      0.01785437
      1.23000000	      0.00141025	      0.00751066	      0.01749055
      1.24000000	      0.00148138	      0.00769775	      0.01752974
      1.25000000	      0.00155911	      0.00789712	      0.01839751
      1.26000000	      0.00161949	      0.00804859	      0.01859211
      1.27000000	      0.00164303	      0.00810686	      0.01887291
      1.28000000	      0.00161374	      0.00803428	      0.01850937
      1.29000000	      0.00155063	      0.00787561	      0.01806387
      1.30000000	      0.00148741	      0.00771338	      0.01835319
      1.31000000	      0.00141897	      0.00753384	      0.01899899
      1.32000000	      0.00137517	      0.00741667	      0.01871795
      1.33000000	      0.00135941	      0.00737404	      0.01844220
      1.34000000	      0.00134756	      0.00734183	      0.01850000
      1.35000000	      0.00133751	      0.00731441	      0.01837093
      1.36000000	      0.00136126	      0.00737906	      0.01820700
      1.37000000	      0.00141053	      0.00751139	      0.01815635
      1.38000000	      0.00149712	      0.00773853	      0.01830354
      1.39000000	      0.00158743	      0.00796851	      0.01837698
      1.40000000	      0.00164951	      0.00812284	      0.01789410
      1.41000000	      0.00171838	      0.00829068	      0.01804355
      1.42000000	      0.00175958	      0.00838946	      0.01833115
      1.43000000	      0.00176595	      0.00840465	      0.01836705
      1.44000000	      0.00174531	      0.00835539	      0.01808268
      1.45000000	      0.00172970	      0.00831792	      0.01841603
      1.46000000	      0.00164936	      0.00812247	      0.01785007
      1.47000000	      0.00162378	      0.00805924	      0.01791375
      1.48000000	      0.00157075	      0.00792653	      0.01769099
      1.49000000	      0.00148604	      0.00770984	      0.01689490
      1.50000000	      0.00144499	      0.00760259	      0.01651991
      1.51000000	      0.00141048	      0.00751128	      0.01607068
      1.52000000	      0.00137650	      0.00742024	      0.01555664
      1.53000000	      0.00135549	      0.00736340	      0.01527022
      1.54000000	      0.00132988	      0.00729351	      0.01538317
      1.55000000	      0.00131722	      0.00725871	      0.01562876
      1.56000000	      0.00129656	      0.00720157	      0.01563195
      1.57000000	      0.00128680	      0.00717441	      0.01584724
      1.58000000	      0.00128394	      0.00716643	      0.01620453
      1.59000000	      0.00128039	      0.00715651	      0.01648867
      1.60000000	      0.00126193	      0.00710473	      0.01657862
      1.61000000	      0.00125204	      0.00707685	      0.01671193
      1.62000000	      0.00124213	      0.00704878	      0.01701483
      1.63000000	      0.00124002	      0.00704279	      0.01706594
      1.64000000	      0.00124736	      0.00706359	      0.01712756
      1.65000000	      0.00125920	      0.00709705	      0.01761310
      1.66000000	      0.00128282	      0.00716328	      0.01774773
      1.67000000	      0.00131282	      0.00724658	      0.01778604
      1.68000000	      0.00133612	      0.00731061	      0.01779602
      1.69000000	      0.00135254	      0.00735537	      0.01754584
      1.70000000	      0.00135353	      0.00735806	      0.01685461
      1.71000000	      0.00132762	      0.00728729	      0.01477677
      1.72000000	      0.00129947	      0.00720964	      0.01342125
      1.73000000	      0.00127285	      0.00713540	      0.01168594
      1.74000000	      0.00126128	      0.00710291	      0.01201556
      1.75000000	      0.00128028	      0.00715620	      0.01293383
      1.76000000	      0.00132633	      0.00728377	      0.01425544
      1.77000000	      0.00140108	      0.00748619	      0.01656470
      1.78000000	      0.00147637	      0.00768470	      0.01780144
      1.79000000	      0.00154354	      0.00785757	      0.01912568
      1.80000000	      0.00156753	      0.00791840	      0.01989331
      1.81000000	      0.00152486	      0.00780990	      0.01856188
      1.82000000	      0.00146275	      0.00764919	      0.01710312
      1.83000000	      0.00138719	      0.00744900	      0.01504678
      1.84000000	      0.00131775	      0.00726017	      0.01412094
      1.85000000	      0.00126865	      0.00712362	      0.01424360
      1.86000000	      0.00122016	      0.00698617	      0.01353469
      1.87000000	      0.00118990	      0.00689899	      0.01366211
      1.88000000	      0.00114479	      0.00676695	      0.01315208
      1.89000000	      0.00109885	      0.00662977	      0.01309994
      1.90000000	      0.00105709	      0.00650259	      0.01306929
      1.91000000	      0.00101152	      0.00636088	      0.01243099
      1.92000000	      0.00100866	      0.00635187	      0.01246447
      1.93000000	      0.00103008	      0.00641896	      0.01250287
      1.94000000	      0.00107472	      0.00655658	      0.01257724
      1.95000000	      0.00113829	      0.00674771	      0.01283953
      1.96000000	      0.00121580	      0.00697366	      0.01322484
      1.97000000	      0.00128164	      0.00715999	      0.01340412
      1.98000000	      0.00134098	      0.00732387	      0.01369228
      1.99000000	      0.00137340	      0.00741187	      0.01396482
      2.00000000	      0.00137364	      0.00741254	      0.01385571
      2.01000000	      0.00135299	      0.00735659	      0.01397187
      2.02000000	      0.00130879	      0.00723544	      0.01377468
      2.03000000	      0.00125457	      0.00708400	      0.01303532
      2.04000000	      0.00122414	      0.00699753	      0.01304915
      2.05000000	      0.00115867	      0.00680786	      0.01257655
      2.06000000	      0.00112146	      0.00669764	      0.01218286
      2.07000000	      0.00108612	      0.00659126	      0.01169565
      2.08000000	      0.00105893	      0.00650824	      0.01107583
      2.09000000	      0.00104321	      0.00645974	      0.01115387
      2.10000000	      0.00103865	      0.00644562	      0.01137119
      2.11000000	      0.00101488	      0.00637144	      0.01138956
      2.12000000	      0.00101976	      0.00638675	      0.01166765
      2.13000000	      0.00103419	      0.00643177	      0.01179302
      2.14000000	      0.00105120	      0.00648444	      0.01191857
      2.15000000	      0.00106052	      0.00651312	      0.01190332
      2.16000000	      0.00107494	      0.00655727	      0.01217463
      2.17000000	      0.00108525	      0.00658862	      0.01267059
      2.18000000	      0.00108970	      0.00660213	      0.01305019
      2.19000000	      0.00109417	      0.00661566	      0.01330254
      2.20000000	      0.00109703	      0.00662430	      0.01362042
      2.21000000	      0.00109690	      0.00662391	      0.01369409
      2.22000000	      0.00110477	      0.00664763	      0.01385263
      2.23000000	      0.00111859	      0.00668906	      0.01380749
      2.24000000	      0.00111602	      0.00668137	      0.01396687
      2.25000000	      0.00111443	      0.00667661	      0.01369914
      2.26000000	      0.00110769	      0.00665639	      0.01297144
      2.27000000	      0.00108840	      0.00659818	      0.01284112
      2.28000000	      0.00106311	      0.00652109	      0.01296572
      2.29000000	      0.00104214	      0.00645643	      0.01325969
      2.30000000	      0.00103613	      0.00643778	      0.01423698
      2.31000000	      0.00105476	      0.00649540	      0.01417945
      2.32000000	      0.00110663	      0.00665320	      0.01477788
      2.33000000	      0.00117472	      0.00685483	      0.01580668
      2.34000000	      0.00125657	      0.00708962	      0.01782327
      2.35000000	      0.00128373	      0.00716584	      0.01791813
      2.36000000	      0.00128482	      0.00716887	      0.01801755
      2.37000000	      0.00124370	      0.00705324	      0.01710347
      2.38000000	      0.00117752	      0.00686300	      0.01563050
      2.39000000	      0.00111172	      0.00666849	      0.01489080
      2.40000000	      0.00105478	      0.00649548	      0.01467042
      2.41000000	      0.00100526	      0.00634116	      0.01535265
      2.42000000	      0.00099087	      0.00629561	      0.01516803
      2.43000000	      0.00097887	      0.00625738	      0.01536853
      2.44000000	      0.00100324	      0.00633478	      0.01512667
      2.45000000	      0.00102095	      0.00639047	      0.01515331
      2.46000000	      0.00106487	      0.00652648	      0.01515884
      2.47000000	      0.00110441	      0.00664654	      0.01524396
      2.48000000	      0.00116846	      0.00683656	      0.01515959
      2.49000000	      0.00122691	      0.00700545	      0.01511624
      2.50000000	      0.00127300	      0.00713583	      0.01499087
      2.51000000	      0.00132882	      0.00729060	      0.01510536
      2.52000000	      0.00131338	      0.00724812	      0.01469203
      2.53000000	      0.00130746	      0.00723178	      0.01424083
      2.54000000	      0.00129598	      0.00719993	      0.01407458
      2.55000000	      0.00131581	      0.00725483	      0.01417597
      2.56000000	      0.00126907	      0.00712479	      0.01465922
      2.57000000	      0.00127254	      0.00713453	      0.01532943
      2.58000000	      0.00128574	      0.00717146	      0.01622121
      2.59000000	      0.00129744	      0.00720400	      0.01709698
      2.60000000	      0.00131265	      0.00724610	      0.01787724
      2.61000000	      0.00131308	      0.00724728	      0.01814826
      2.62000000	      0.00131855	      0.00726238	      0.01823777
      2.63000000	      0.00130219	      0.00721716	      0.01783397
      2.64000000	      0.00129781	      0.00720502	      0.01760421
      2.65000000	      0.00129367	      0.00719354	      0.01733796
      2.66000000	      0.00127850	      0.00715124	      0.01686215
      2.67000000	      0.00128988	      0.00718299	      0.01673810
      2.68000000	      0.00127418	      0.00713913	      0.01657205
      2.69000000	      0.00126992	      0.00712718	      0.01651076
      2.70000000	      0.00125529	      0.00708600	      0.01633747
      2.71000000	      0.00124916	      0.00706870	      0.01637248
      2.72000000	      0.00125675	      0.00709013	      0.01643982
      2.73000000	      0.00127155	      0.00713176	      0.01664085
      2.74000000	      0.00129680	      0.00720222	      0.01685565
      2.75000000	      0.00132871	      0.00729028	      0.01704147
      2.76000000	      0.00135654	      0.00736624	      0.01712345
      2.77000000	      0.00137561	      0.00741785	      0.01693925
      2.78000000	      0.00137991	      0.00742943	      0.01629867
      2.79000000	      0.00135904	      0.00737303	      0.01434439
      2.80000000	      0.00133599	      0.00731024	      0.01282891
      2.81000000	      0.00131500	      0.00725260	      0.01217743
      2.82000000	      0.00131410	      0.00725011	      0.01250974
      2.83000000	      0.00134422	      0.00733273	      0.01343962
      2.84000000	      0.00141655	      0.00752741	      0.01595390
      2.85000000	      0.00151615	      0.00778754	      0.01833022
      2.86000000	      0.00162922	      0.00807272	      0.02035210
      2.87000000	      0.00168609	      0.00821241	      0.02036874
      2.88000000	      0.00171770	      0.00828902	      0.02066305
      2.89000000	      0.00169460	      0.00823311	      0.01955374
      2.90000000	      0.00163432	      0.00808533	      0.01772766
      2.91000000	      0.00157879	      0.00794679	      0.01537539
      2.92000000	      0.00152449	      0.00780896	      0.01426684
      2.93000000	      0.00148407	      0.00770473	      0.01425629
      2.94000000	      0.00143861	      0.00758580	      0.01399641
