SUBJ59_1_JMP_08_wrist_axis_personalization_task_1_finalErrors.sto
version=1
nRows=292
nColumns=26
inDegrees=no
endheader
time	R_Asis	L_Asis	Sacral	R_Thigh_Lateral	R_Knee_Lateral	R_Shank_Lateral	R_Ankle_Lateral	R_Heel	R_Toe	L_Thigh_Lateral	L_Knee_Lateral	L_Shank_Lateral	L_Ankle_Lateral	L_Heel	L_Toe	R_Shoulder	L_Shoulder	C7	J_Notch	Thoracic	Sternum	R_Elbow	L_Elbow	R_Wrist	L_Wrist
0.00000000	0.00395707	0.00218867	0.00306070	0.01068574	0.00312732	0.01084575	0.00205596	0.00487784	0.00096142	0.00655273	0.00246330	0.00422064	0.00171293	0.00368365	0.00284537	0.00191308	0.00225033	0.00149355	0.00153087	0.00124788	0.00177903	0.00010707	0.00160334	0.00032350	0.00136601
0.01000000	0.00395931	0.00208182	0.00286108	0.01099926	0.00271410	0.01119465	0.00205379	0.00486998	0.00104409	0.00656037	0.00255521	0.00422544	0.00175019	0.00377436	0.00279606	0.00171683	0.00229713	0.00152472	0.00152848	0.00119049	0.00199498	0.00024082	0.00155007	0.00059319	0.00164323
0.02000000	0.00393364	0.00186508	0.00284285	0.01127203	0.00277567	0.01154058	0.00183803	0.00475645	0.00080104	0.00667082	0.00257838	0.00401542	0.00183979	0.00351611	0.00286378	0.00151250	0.00217972	0.00161021	0.00162057	0.00117820	0.00231521	0.00036306	0.00167215	0.00070228	0.00169049
0.03000000	0.00386940	0.00187438	0.00306250	0.01166831	0.00259836	0.01142019	0.00195426	0.00458284	0.00100551	0.00657309	0.00264191	0.00411104	0.00173143	0.00351001	0.00281400	0.00134911	0.00208881	0.00162082	0.00177829	0.00104626	0.00266604	0.00052395	0.00187005	0.00084222	0.00198985
0.04000000	0.00397107	0.00190276	0.00278757	0.01182510	0.00155635	0.01161442	0.00268777	0.00482014	0.00182637	0.00661427	0.00286282	0.00417194	0.00166844	0.00387783	0.00272737	0.00141364	0.00261606	0.00184002	0.00167212	0.00123690	0.00258682	0.00083702	0.00166928	0.00132172	0.00250700
0.05000000	0.00378305	0.00179714	0.00308078	0.01194353	0.00234113	0.01120415	0.00212422	0.00420873	0.00098767	0.00663064	0.00286243	0.00410888	0.00176644	0.00346731	0.00277930	0.00095344	0.00208652	0.00172303	0.00198859	0.00100055	0.00322108	0.00095666	0.00214972	0.00129998	0.00244177
0.06000000	0.00379742	0.00173242	0.00271057	0.01186527	0.00215103	0.01087513	0.00225156	0.00402190	0.00081246	0.00680284	0.00301635	0.00404499	0.00194259	0.00339270	0.00282090	0.00085862	0.00223826	0.00183065	0.00201695	0.00122047	0.00339663	0.00119046	0.00207597	0.00169785	0.00270461
0.07000000	0.00418343	0.00169689	0.00258341	0.01134262	0.00193568	0.01022941	0.00226858	0.00379053	0.00071774	0.00686910	0.00309189	0.00419589	0.00207985	0.00342429	0.00277928	0.00075956	0.00243318	0.00194488	0.00211467	0.00150732	0.00372752	0.00141551	0.00220228	0.00201089	0.00288944
0.08000000	0.00351184	0.00170421	0.00286135	0.01054264	0.00223966	0.00880423	0.00259355	0.00352766	0.00108528	0.00680640	0.00323358	0.00447681	0.00197010	0.00341424	0.00278989	0.00082355	0.00270638	0.00200680	0.00233417	0.00180801	0.00394077	0.00148099	0.00274351	0.00196963	0.00303175
0.09000000	0.00389479	0.00154910	0.00247169	0.00972816	0.00207168	0.00755240	0.00263633	0.00336510	0.00098403	0.00696563	0.00334537	0.00463095	0.00217545	0.00337159	0.00279375	0.00100603	0.00297842	0.00214077	0.00236387	0.00218442	0.00420027	0.00164385	0.00266970	0.00233297	0.00334607
0.10000000	0.00402812	0.00146150	0.00228531	0.00880624	0.00206899	0.00593375	0.00273094	0.00322359	0.00108070	0.00702176	0.00350869	0.00481631	0.00230498	0.00334659	0.00280147	0.00121642	0.00329276	0.00222977	0.00244878	0.00256004	0.00449321	0.00181355	0.00298837	0.00253247	0.00349729
0.11000000	0.00344735	0.00134432	0.00244639	0.00813035	0.00222097	0.00403304	0.00290279	0.00317360	0.00134658	0.00695827	0.00351942	0.00509054	0.00233460	0.00344696	0.00273034	0.00127158	0.00350673	0.00227703	0.00260760	0.00280253	0.00478185	0.00184992	0.00329016	0.00256258	0.00370533
0.12000000	0.00393049	0.00120050	0.00237706	0.00797606	0.00208050	0.00234242	0.00286849	0.00312910	0.00137876	0.00700464	0.00351475	0.00515708	0.00257929	0.00337063	0.00275272	0.00153585	0.00369066	0.00236642	0.00261981	0.00307407	0.00499630	0.00196808	0.00329094	0.00282685	0.00392844
0.13000000	0.00360238	0.00110979	0.00253282	0.00829729	0.00208711	0.00082135	0.00294854	0.00314459	0.00160283	0.00693222	0.00354674	0.00515634	0.00267485	0.00341358	0.00274445	0.00164165	0.00382283	0.00236284	0.00271059	0.00320927	0.00528172	0.00206661	0.00359889	0.00289656	0.00404776
0.14000000	0.00401846	0.00090316	0.00311024	0.00892494	0.00188297	0.00146019	0.00293394	0.00308690	0.00175453	0.00690638	0.00329759	0.00516738	0.00291756	0.00335009	0.00272818	0.00185791	0.00394328	0.00248121	0.00266241	0.00337389	0.00535068	0.00212452	0.00348048	0.00305346	0.00428955
0.15000000	0.00361427	0.00094164	0.00322356	0.00958580	0.00180079	0.00294325	0.00287724	0.00314833	0.00177179	0.00684654	0.00333437	0.00499766	0.00297469	0.00330844	0.00281426	0.00197525	0.00397446	0.00242386	0.00275923	0.00340343	0.00570625	0.00221901	0.00379055	0.00314443	0.00441066
0.16000000	0.00375282	0.00093231	0.00369925	0.00999627	0.00163706	0.00394075	0.00272505	0.00303675	0.00179987	0.00683788	0.00314377	0.00489029	0.00317061	0.00322996	0.00280943	0.00218357	0.00398554	0.00243185	0.00276299	0.00345118	0.00594309	0.00230723	0.00388979	0.00333182	0.00457271
0.17000000	0.00397538	0.00094442	0.00439866	0.01028395	0.00121500	0.00425283	0.00275460	0.00273074	0.00199607	0.00676694	0.00297298	0.00490073	0.00345146	0.00322625	0.00279731	0.00247581	0.00416108	0.00260316	0.00268518	0.00363522	0.00591175	0.00245863	0.00323601	0.00353389	0.00524982
0.18000000	0.00384391	0.00084503	0.00474958	0.00973799	0.00142683	0.00462008	0.00251110	0.00246520	0.00189692	0.00695821	0.00274314	0.00477805	0.00351780	0.00320907	0.00263968	0.00252530	0.00385121	0.00246648	0.00276633	0.00342669	0.00635239	0.00250474	0.00398798	0.00364472	0.00483450
0.19000000	0.00408803	0.00091858	0.00504164	0.00895394	0.00107013	0.00428008	0.00228495	0.00185096	0.00198273	0.00688696	0.00247236	0.00478047	0.00385892	0.00319329	0.00254713	0.00295832	0.00406786	0.00263182	0.00269957	0.00371233	0.00640391	0.00284130	0.00333881	0.00398666	0.00544341
0.20000000	0.00254659	0.00151314	0.00467594	0.00815270	0.00124291	0.00375889	0.00237794	0.00160279	0.00195046	0.00701851	0.00256147	0.00468254	0.00363156	0.00300148	0.00263575	0.00292325	0.00375681	0.00235157	0.00282721	0.00345001	0.00686624	0.00279523	0.00424803	0.00386462	0.00497182
0.21000000	0.00264823	0.00157590	0.00523585	0.00688881	0.00115815	0.00314695	0.00232793	0.00104879	0.00199198	0.00696730	0.00217857	0.00464303	0.00392879	0.00302908	0.00238194	0.00317594	0.00356153	0.00239886	0.00279815	0.00347187	0.00688488	0.00288854	0.00412332	0.00403544	0.00489480
0.22000000	0.00305067	0.00152055	0.00545097	0.00553563	0.00098993	0.00247757	0.00258565	0.00159439	0.00220199	0.00675845	0.00163488	0.00453892	0.00447045	0.00292315	0.00215400	0.00367649	0.00365368	0.00249100	0.00269211	0.00374917	0.00681696	0.00327916	0.00357670	0.00445710	0.00511945
0.23000000	0.00234890	0.00286095	0.00542074	0.00481234	0.00168645	0.00257545	0.00276280	0.00119101	0.00187202	0.00684757	0.00195276	0.00408303	0.00418455	0.00273107	0.00212943	0.00366487	0.00318288	0.00235073	0.00275513	0.00346951	0.00687366	0.00326522	0.00380634	0.00432629	0.00459118
0.24000000	0.00264308	0.00362461	0.00560190	0.00422890	0.00163116	0.00247110	0.00286476	0.00194855	0.00166752	0.00628885	0.00182958	0.00410118	0.00444499	0.00255792	0.00171804	0.00390422	0.00295807	0.00225771	0.00269209	0.00340154	0.00673793	0.00338685	0.00350187	0.00440019	0.00445113
0.25000000	0.00285186	0.00413280	0.00599132	0.00353425	0.00240322	0.00294153	0.00327675	0.00273866	0.00163211	0.00599370	0.00162547	0.00354433	0.00481325	0.00233846	0.00142852	0.00413622	0.00281320	0.00216768	0.00262593	0.00335517	0.00658624	0.00357946	0.00332329	0.00464831	0.00417468
0.26000000	0.00318016	0.00474158	0.00632433	0.00325431	0.00316345	0.00378519	0.00342522	0.00341023	0.00145633	0.00565736	0.00170487	0.00291832	0.00505341	0.00193817	0.00113598	0.00426726	0.00270684	0.00207868	0.00255971	0.00327035	0.00638192	0.00369405	0.00304710	0.00478699	0.00396834
0.27000000	0.00334877	0.00527208	0.00648316	0.00342921	0.00386643	0.00474595	0.00347139	0.00383927	0.00138785	0.00523205	0.00207531	0.00225601	0.00519509	0.00135231	0.00065117	0.00433203	0.00271500	0.00195775	0.00247920	0.00323016	0.00619190	0.00372127	0.00286210	0.00486961	0.00380931
0.28000000	0.00362892	0.00651246	0.00637112	0.00442580	0.00267408	0.00483052	0.00297245	0.00390474	0.00114487	0.00453630	0.00220296	0.00178980	0.00503222	0.00091580	0.00018203	0.00418083	0.00268741	0.00187064	0.00246735	0.00302836	0.00606286	0.00364158	0.00264030	0.00467998	0.00359682
0.29000000	0.00352333	0.00645091	0.00636463	0.00456485	0.00291871	0.00538983	0.00290027	0.00398053	0.00095408	0.00383146	0.00263898	0.00123524	0.00517414	0.00110091	0.00088370	0.00415021	0.00276076	0.00178374	0.00232261	0.00305579	0.00576413	0.00349249	0.00257198	0.00453574	0.00346660
0.30000000	0.00327996	0.00649996	0.00614210	0.00448197	0.00295833	0.00542530	0.00263624	0.00371830	0.00082713	0.00307228	0.00304391	0.00083794	0.00507336	0.00179770	0.00169317	0.00398810	0.00280583	0.00167116	0.00221022	0.00300850	0.00554388	0.00325098	0.00254716	0.00428679	0.00339196
0.31000000	0.00300358	0.00691795	0.00601168	0.00413743	0.00259023	0.00487316	0.00212822	0.00316927	0.00075616	0.00239562	0.00313580	0.00090533	0.00468154	0.00250807	0.00258155	0.00369132	0.00274540	0.00162208	0.00209496	0.00284978	0.00527951	0.00293277	0.00243459	0.00384569	0.00328985
0.32000000	0.00290045	0.00650857	0.00570609	0.00355741	0.00245932	0.00435305	0.00188284	0.00276532	0.00059212	0.00150825	0.00348457	0.00117437	0.00444827	0.00336247	0.00345959	0.00321404	0.00274646	0.00153108	0.00203560	0.00276909	0.00503883	0.00237696	0.00242326	0.00328612	0.00328178
0.33000000	0.00263252	0.00651147	0.00537122	0.00292776	0.00230299	0.00363477	0.00149378	0.00220183	0.00064309	0.00144433	0.00341760	0.00157622	0.00393756	0.00404540	0.00414658	0.00281403	0.00267694	0.00150015	0.00188176	0.00271397	0.00476679	0.00193857	0.00245169	0.00275936	0.00317352
0.34000000	0.00270739	0.00602144	0.00503579	0.00245118	0.00224304	0.00308107	0.00134504	0.00182498	0.00060611	0.00218435	0.00353656	0.00166635	0.00350409	0.00454610	0.00471258	0.00222749	0.00270312	0.00142877	0.00183226	0.00269467	0.00448594	0.00129552	0.00255022	0.00208562	0.00308177
0.35000000	0.00274427	0.00581958	0.00475780	0.00215402	0.00212132	0.00266637	0.00122619	0.00153037	0.00068713	0.00329472	0.00355502	0.00177081	0.00290808	0.00476199	0.00501051	0.00168363	0.00274281	0.00145398	0.00169817	0.00269845	0.00410058	0.00074451	0.00256484	0.00145835	0.00295437
0.36000000	0.00293731	0.00578317	0.00453999	0.00210196	0.00225158	0.00228164	0.00121382	0.00136296	0.00077143	0.00450869	0.00366948	0.00187587	0.00193822	0.00478663	0.00490375	0.00116715	0.00265395	0.00171366	0.00148293	0.00272346	0.00380613	0.00039887	0.00238297	0.00102995	0.00264567
0.37000000	0.00283201	0.00553151	0.00436609	0.00225539	0.00206185	0.00217975	0.00133412	0.00131732	0.00084365	0.00568394	0.00396270	0.00199874	0.00127519	0.00466341	0.00474477	0.00077067	0.00283102	0.00178614	0.00149767	0.00268605	0.00335339	0.00024529	0.00233592	0.00041722	0.00237218
0.38000000	0.00279791	0.00561798	0.00418354	0.00244975	0.00225177	0.00216619	0.00147053	0.00139342	0.00090569	0.00664772	0.00428096	0.00200696	0.00080412	0.00474125	0.00425463	0.00064932	0.00283031	0.00203485	0.00140711	0.00263286	0.00295975	0.00048661	0.00207919	0.00016182	0.00192996
0.39000000	0.00250072	0.00491449	0.00405138	0.00283258	0.00206906	0.00220319	0.00177691	0.00138780	0.00100071	0.00772592	0.00464818	0.00267971	0.00109180	0.00477742	0.00375908	0.00105165	0.00292578	0.00210941	0.00160120	0.00245704	0.00243174	0.00079005	0.00191935	0.00042834	0.00156119
0.40000000	0.00203470	0.00506939	0.00408441	0.00306870	0.00215578	0.00249433	0.00185015	0.00163425	0.00092029	0.00834881	0.00485195	0.00245564	0.00190508	0.00481303	0.00314832	0.00120585	0.00279542	0.00221651	0.00156210	0.00223805	0.00187932	0.00076845	0.00149367	0.00037511	0.00100560
0.41000000	0.00173088	0.00450004	0.00395071	0.00341240	0.00227924	0.00291721	0.00207746	0.00177994	0.00092802	0.00903151	0.00483402	0.00259638	0.00248174	0.00505373	0.00247287	0.00145391	0.00258792	0.00219656	0.00168574	0.00193459	0.00142422	0.00065613	0.00114467	0.00033629	0.00056957
0.42000000	0.00171109	0.00348883	0.00353774	0.00396211	0.00259683	0.00321259	0.00227311	0.00179014	0.00106057	0.00965585	0.00463590	0.00320024	0.00295035	0.00542403	0.00228406	0.00163378	0.00233436	0.00217960	0.00193842	0.00171109	0.00092979	0.00055400	0.00097315	0.00028739	0.00039752
0.43000000	0.00195323	0.00283935	0.00326831	0.00415111	0.00260109	0.00381853	0.00234646	0.00191181	0.00103969	0.01030150	0.00420364	0.00434775	0.00307910	0.00556651	0.00138783	0.00180231	0.00201109	0.00196603	0.00196433	0.00134973	0.00061996	0.00060667	0.00065679	0.00018791	0.00032449
0.44000000	0.00215598	0.00238585	0.00353994	0.00421472	0.00287393	0.00409607	0.00231220	0.00201747	0.00102235	0.01083929	0.00380854	0.00600970	0.00309974	0.00548584	0.00129197	0.00187614	0.00160400	0.00178280	0.00194295	0.00105544	0.00070674	0.00036656	0.00037303	0.00024893	0.00048048
0.45000000	0.00266977	0.00164112	0.00312476	0.00422332	0.00316110	0.00424851	0.00225127	0.00202817	0.00111552	0.01118411	0.00345009	0.00789553	0.00302912	0.00572168	0.00110961	0.00193805	0.00129451	0.00167834	0.00193092	0.00094724	0.00097025	0.00033578	0.00023664	0.00039133	0.00076394
0.46000000	0.00277147	0.00119158	0.00304242	0.00428219	0.00334672	0.00408727	0.00218712	0.00199155	0.00115471	0.01191849	0.00282342	0.00921993	0.00273141	0.00564996	0.00118876	0.00203612	0.00103852	0.00153175	0.00174951	0.00081626	0.00136042	0.00041197	0.00041222	0.00028037	0.00079924
0.47000000	0.00301731	0.00095464	0.00227484	0.00422327	0.00384583	0.00394486	0.00197120	0.00190799	0.00135561	0.01176673	0.00282150	0.01099350	0.00245151	0.00591367	0.00131280	0.00190893	0.00101860	0.00156867	0.00166784	0.00090336	0.00162324	0.00043992	0.00016789	0.00025397	0.00110906
0.48000000	0.00290161	0.00116300	0.00233535	0.00424339	0.00358550	0.00349463	0.00180851	0.00176204	0.00146772	0.01253921	0.00211629	0.01139301	0.00213640	0.00562375	0.00082401	0.00179198	0.00108427	0.00147763	0.00143762	0.00078883	0.00206931	0.00033366	0.00033911	0.00030713	0.00100625
0.49000000	0.00260705	0.00123198	0.00173977	0.00429404	0.00370070	0.00321666	0.00159621	0.00178890	0.00153008	0.01220610	0.00204827	0.01224362	0.00188491	0.00584734	0.00066792	0.00152811	0.00122808	0.00154955	0.00125240	0.00087972	0.00243254	0.00045555	0.00031869	0.00062862	0.00111545
0.50000000	0.00219569	0.00134282	0.00119253	0.00435362	0.00383194	0.00306182	0.00140842	0.00180791	0.00162358	0.01195078	0.00197427	0.01255748	0.00174565	0.00590347	0.00067719	0.00126559	0.00134832	0.00169555	0.00114471	0.00094465	0.00276367	0.00072778	0.00049945	0.00101635	0.00120689
0.51000000	0.00174304	0.00148319	0.00095473	0.00444674	0.00399656	0.00301518	0.00121802	0.00177537	0.00170740	0.01173321	0.00187410	0.01240334	0.00175256	0.00583424	0.00061276	0.00120341	0.00138292	0.00185534	0.00106222	0.00099533	0.00314058	0.00098162	0.00067593	0.00142855	0.00133470
0.52000000	0.00146217	0.00215726	0.00091645	0.00450061	0.00373836	0.00263252	0.00112249	0.00157958	0.00187916	0.01194127	0.00170866	0.01147583	0.00192722	0.00553818	0.00028352	0.00138867	0.00163246	0.00203563	0.00106569	0.00085328	0.00337038	0.00126571	0.00045339	0.00193351	0.00117961
0.53000000	0.00139137	0.00185622	0.00101624	0.00455205	0.00422668	0.00294331	0.00079265	0.00184706	0.00185760	0.01180786	0.00192540	0.01092423	0.00217183	0.00539654	0.00058830	0.00174039	0.00170449	0.00217275	0.00105101	0.00084899	0.00362640	0.00150879	0.00070778	0.00234213	0.00139090
0.54000000	0.00104634	0.00247871	0.00109053	0.00452254	0.00374164	0.00264598	0.00107826	0.00159004	0.00205402	0.01134830	0.00191591	0.01055540	0.00240261	0.00564349	0.00032649	0.00190495	0.00171575	0.00234315	0.00120101	0.00088602	0.00392579	0.00173789	0.00072126	0.00248826	0.00133561
0.55000000	0.00101345	0.00215223	0.00145827	0.00462685	0.00385737	0.00284301	0.00111170	0.00160830	0.00212050	0.01132315	0.00213499	0.01024186	0.00265339	0.00568501	0.00061349	0.00212296	0.00172253	0.00238999	0.00130245	0.00087800	0.00423501	0.00191101	0.00093368	0.00268461	0.00154194
0.56000000	0.00106420	0.00275513	0.00165891	0.00458502	0.00372524	0.00276203	0.00118486	0.00159383	0.00222804	0.01122596	0.00211465	0.01019688	0.00292453	0.00573402	0.00058435	0.00236471	0.00186023	0.00251379	0.00141036	0.00078447	0.00444945	0.00193571	0.00123676	0.00277863	0.00159196
0.57000000	0.00126140	0.00188480	0.00210523	0.00476832	0.00408071	0.00301745	0.00105135	0.00175990	0.00223994	0.01190258	0.00232397	0.01018642	0.00312646	0.00556717	0.00066494	0.00254093	0.00191349	0.00251211	0.00151603	0.00069543	0.00481969	0.00181524	0.00163135	0.00297397	0.00189129
0.58000000	0.00137239	0.00264333	0.00221448	0.00494743	0.00392958	0.00263652	0.00126536	0.00152290	0.00244548	0.01185979	0.00214016	0.01074650	0.00322149	0.00575924	0.00117665	0.00254794	0.00196947	0.00247757	0.00167633	0.00067745	0.00514662	0.00211064	0.00181239	0.00279718	0.00203623
0.59000000	0.00155807	0.00180324	0.00261470	0.00519309	0.00432241	0.00270862	0.00109964	0.00169526	0.00248218	0.01275293	0.00239767	0.01107156	0.00326716	0.00560114	0.00098701	0.00281830	0.00218627	0.00253918	0.00175872	0.00052854	0.00552543	0.00190409	0.00223645	0.00301186	0.00234488
0.60000000	0.00184428	0.00171402	0.00302339	0.00556836	0.00456065	0.00268781	0.00095207	0.00195620	0.00257660	0.01343352	0.00254841	0.01154182	0.00322383	0.00554450	0.00112657	0.00305070	0.00250406	0.00267939	0.00183199	0.00058842	0.00590185	0.00189312	0.00262770	0.00307394	0.00270501
0.61000000	0.00166572	0.00369059	0.00309731	0.00542728	0.00418203	0.00233453	0.00119901	0.00139447	0.00266473	0.01305463	0.00132109	0.01207534	0.00329787	0.00539239	0.00141750	0.00294442	0.00274117	0.00265866	0.00193559	0.00064259	0.00604550	0.00211207	0.00261550	0.00287006	0.00250712
0.62000000	0.00187708	0.00262934	0.00323761	0.00574111	0.00442025	0.00240977	0.00105552	0.00150664	0.00274317	0.01329464	0.00148882	0.01244664	0.00319986	0.00518748	0.00150339	0.00312479	0.00301484	0.00269142	0.00207392	0.00098334	0.00665011	0.00223523	0.00287005	0.00314198	0.00289873
0.63000000	0.00216496	0.00252840	0.00346607	0.00601886	0.00446509	0.00236400	0.00117962	0.00135722	0.00275095	0.01297656	0.00123319	0.01270222	0.00309053	0.00484742	0.00163519	0.00311741	0.00329614	0.00278056	0.00220897	0.00123655	0.00708239	0.00240828	0.00312079	0.00319077	0.00310637
0.64000000	0.00215608	0.00290570	0.00365922	0.00613630	0.00449596	0.00233319	0.00111192	0.00134077	0.00272514	0.01246350	0.00143558	0.01214881	0.00296539	0.00440989	0.00152709	0.00332275	0.00345649	0.00288958	0.00234817	0.00165988	0.00753034	0.00281561	0.00325608	0.00345440	0.00319359
0.65000000	0.00239384	0.00243897	0.00377399	0.00636822	0.00459127	0.00247281	0.00105804	0.00133659	0.00275574	0.01153924	0.00181613	0.01151355	0.00293447	0.00393721	0.00130181	0.00358379	0.00374662	0.00308075	0.00250178	0.00212728	0.00796990	0.00312139	0.00334866	0.00381916	0.00350301
0.66000000	0.00253278	0.00228185	0.00389276	0.00652572	0.00466793	0.00246086	0.00110039	0.00135532	0.00267023	0.01027293	0.00217980	0.01043984	0.00280587	0.00342558	0.00106447	0.00380074	0.00402309	0.00321561	0.00263761	0.00249601	0.00839987	0.00348756	0.00350440	0.00417616	0.00377647
0.67000000	0.00269533	0.00223476	0.00408248	0.00667336	0.00476387	0.00244571	0.00104994	0.00131253	0.00264966	0.00877714	0.00254342	0.00894760	0.00268812	0.00289477	0.00076970	0.00405191	0.00418882	0.00344832	0.00280413	0.00286043	0.00876289	0.00383989	0.00360509	0.00448629	0.00395216
0.68000000	0.00273160	0.00243501	0.00413044	0.00664517	0.00486296	0.00250422	0.00094079	0.00135441	0.00251672	0.00721606	0.00292539	0.00673494	0.00279281	0.00227542	0.00028784	0.00446950	0.00439175	0.00366635	0.00289028	0.00328225	0.00892025	0.00436288	0.00360825	0.00480728	0.00394186
0.69000000	0.00290141	0.00207065	0.00426941	0.00679675	0.00498000	0.00252420	0.00096160	0.00133777	0.00247425	0.00598809	0.00302881	0.00472901	0.00270267	0.00183656	0.00033943	0.00469398	0.00458205	0.00382043	0.00302645	0.00350102	0.00925221	0.00467822	0.00372600	0.00505411	0.00412411
0.70000000	0.00316423	0.00199559	0.00465764	0.00709553	0.00496743	0.00264808	0.00104467	0.00137778	0.00237641	0.00553822	0.00296037	0.00301651	0.00253321	0.00168488	0.00077213	0.00467287	0.00466280	0.00390824	0.00321506	0.00349375	0.00968218	0.00480898	0.00379720	0.00520857	0.00436924
0.71000000	0.00313211	0.00160959	0.00475769	0.00712733	0.00501439	0.00249057	0.00108020	0.00133213	0.00239475	0.00612392	0.00299295	0.00092402	0.00262310	0.00186591	0.00115970	0.00494463	0.00489876	0.00403192	0.00326439	0.00365407	0.00989842	0.00511706	0.00395786	0.00537178	0.00444323
0.72000000	0.00324892	0.00194491	0.00531143	0.00741662	0.00502653	0.00240734	0.00124351	0.00133471	0.00234046	0.00761235	0.00296842	0.00180928	0.00259345	0.00216280	0.00149250	0.00479104	0.00496989	0.00406339	0.00338862	0.00348143	0.01027562	0.00513056	0.00407582	0.00540678	0.00464134
0.73000000	0.00314240	0.00216876	0.00571520	0.00758531	0.00506410	0.00222401	0.00133677	0.00126928	0.00239423	0.00927328	0.00295197	0.00352193	0.00263593	0.00261858	0.00175177	0.00475650	0.00507128	0.00409348	0.00349829	0.00335319	0.01066350	0.00515973	0.00422915	0.00549376	0.00481096
0.74000000	0.00304915	0.00242069	0.00626223	0.00782695	0.00508266	0.00208742	0.00143770	0.00128932	0.00236387	0.01082742	0.00293810	0.00512249	0.00274345	0.00305117	0.00201301	0.00464119	0.00509814	0.00418747	0.00361431	0.00320192	0.01096337	0.00517863	0.00423893	0.00540534	0.00488682
0.75000000	0.00284080	0.00195604	0.00624499	0.00786233	0.00481012	0.00183183	0.00149587	0.00124263	0.00244911	0.01148925	0.00216545	0.00699940	0.00315916	0.00390726	0.00238128	0.00483996	0.00538875	0.00427103	0.00353580	0.00325810	0.01110931	0.00537348	0.00441584	0.00533118	0.00489041
0.76000000	0.00271394	0.00223393	0.00669484	0.00804087	0.00474644	0.00162830	0.00166903	0.00128546	0.00238103	0.01212329	0.00209894	0.00771573	0.00316683	0.00395229	0.00240665	0.00464702	0.00543220	0.00424469	0.00359801	0.00302755	0.01143903	0.00525158	0.00448667	0.00529291	0.00501263
0.77000000	0.00242403	0.00247488	0.00712540	0.00820853	0.00469594	0.00150544	0.00175779	0.00139178	0.00233314	0.01210320	0.00194852	0.00779873	0.00324908	0.00369455	0.00242259	0.00448123	0.00547043	0.00419688	0.00364304	0.00286240	0.01177147	0.00538303	0.00447033	0.00512835	0.00522766
0.78000000	0.00234328	0.00264266	0.00743724	0.00830430	0.00455136	0.00145093	0.00195181	0.00155170	0.00224742	0.01120198	0.00180111	0.00748921	0.00310777	0.00335474	0.00245001	0.00431385	0.00559715	0.00416959	0.00364456	0.00280043	0.01203449	0.00551136	0.00447103	0.00490140	0.00547991
0.79000000	0.00222471	0.00223793	0.00736162	0.00830183	0.00429717	0.00129290	0.00211679	0.00144407	0.00217283	0.00999888	0.00142286	0.00647355	0.00324202	0.00330145	0.00219415	0.00435386	0.00561931	0.00414665	0.00365680	0.00271611	0.01215334	0.00509408	0.00461847	0.00511639	0.00525485
0.80000000	0.00211977	0.00209176	0.00736715	0.00834129	0.00410904	0.00119062	0.00227043	0.00155635	0.00201372	0.00813473	0.00136063	0.00526566	0.00341526	0.00288696	0.00193084	0.00417423	0.00568682	0.00403841	0.00367471	0.00268657	0.01233838	0.00499740	0.00456506	0.00504996	0.00538632
0.81000000	0.00200004	0.00191941	0.00695429	0.00819147	0.00384834	0.00138823	0.00229850	0.00157914	0.00184443	0.00635196	0.00142042	0.00402877	0.00346698	0.00255773	0.00178577	0.00426054	0.00587457	0.00408056	0.00359571	0.00283436	0.01222722	0.00494867	0.00461921	0.00476290	0.00531118
0.82000000	0.00203493	0.00217020	0.00708558	0.00818959	0.00361896	0.00132252	0.00255622	0.00168277	0.00165458	0.00430513	0.00180700	0.00302506	0.00384783	0.00234549	0.00146213	0.00414945	0.00607865	0.00397822	0.00356715	0.00287049	0.01222188	0.00473292	0.00472864	0.00460516	0.00546813
0.83000000	0.00221969	0.00276967	0.00699953	0.00815448	0.00354847	0.00114672	0.00269409	0.00167671	0.00145694	0.00274823	0.00234586	0.00266302	0.00406044	0.00249043	0.00121845	0.00395540	0.00630172	0.00381647	0.00352587	0.00284714	0.01215152	0.00447545	0.00494506	0.00436942	0.00562101
0.84000000	0.00247662	0.00387449	0.00720207	0.00801706	0.00356256	0.00110759	0.00275809	0.00148721	0.00111693	0.00246976	0.00206241	0.00250302	0.00383438	0.00272027	0.00081845	0.00367554	0.00639310	0.00367134	0.00348529	0.00281380	0.01195285	0.00416068	0.00488818	0.00408049	0.00576506
0.85000000	0.00265255	0.00399648	0.00754405	0.00785630	0.00344584	0.00067443	0.00307186	0.00154610	0.00083895	0.00213931	0.00278975	0.00340315	0.00394864	0.00339979	0.00086147	0.00356434	0.00659986	0.00355452	0.00342339	0.00278503	0.01175340	0.00383294	0.00498561	0.00381338	0.00594139
0.86000000	0.00306820	0.00432965	0.00766668	0.00768086	0.00353130	0.00079400	0.00317207	0.00138150	0.00070336	0.00284498	0.00321549	0.00462232	0.00376410	0.00393797	0.00105005	0.00338359	0.00674610	0.00343188	0.00336480	0.00270509	0.01153850	0.00351486	0.00506948	0.00352805	0.00601681
0.87000000	0.00353268	0.00468677	0.00785772	0.00740856	0.00363240	0.00166476	0.00327177	0.00136958	0.00072741	0.00396170	0.00323350	0.00579286	0.00335529	0.00432831	0.00113798	0.00321772	0.00676929	0.00326036	0.00325878	0.00254514	0.01125467	0.00323006	0.00507854	0.00329079	0.00605351
0.88000000	0.00359218	0.00472429	0.00785785	0.00693371	0.00371765	0.00279662	0.00346154	0.00190140	0.00075781	0.00506128	0.00335217	0.00677104	0.00317007	0.00455072	0.00118081	0.00317713	0.00686537	0.00312168	0.00307037	0.00242952	0.01094643	0.00318951	0.00495184	0.00318593	0.00608744
0.89000000	0.00375540	0.00473908	0.00783693	0.00652345	0.00381021	0.00410448	0.00362146	0.00249763	0.00129059	0.00576874	0.00317441	0.00728999	0.00291075	0.00458527	0.00115880	0.00312325	0.00675681	0.00302348	0.00295245	0.00225217	0.01068574	0.00316025	0.00476558	0.00313330	0.00591546
0.90000000	0.00493793	0.00458134	0.00770854	0.00674604	0.00360003	0.00514694	0.00371591	0.00297754	0.00189704	0.00634064	0.00236901	0.00672312	0.00233559	0.00433329	0.00090473	0.00303024	0.00650217	0.00292362	0.00284899	0.00192622	0.01040198	0.00299991	0.00458136	0.00308512	0.00567520
0.91000000	0.00490121	0.00461679	0.00770491	0.00658364	0.00350832	0.00635909	0.00388860	0.00365386	0.00239962	0.00628213	0.00195973	0.00638744	0.00222420	0.00415515	0.00088624	0.00324046	0.00620753	0.00288239	0.00267451	0.00180561	0.01001554	0.00326398	0.00416695	0.00319508	0.00531360
0.92000000	0.00531226	0.00449934	0.00760527	0.00665753	0.00343527	0.00740716	0.00399810	0.00410268	0.00277165	0.00597450	0.00160107	0.00571251	0.00213022	0.00388599	0.00091029	0.00347185	0.00585006	0.00288362	0.00257713	0.00174983	0.00968041	0.00354674	0.00374273	0.00333061	0.00489016
0.93000000	0.00577497	0.00433157	0.00740442	0.00681663	0.00344006	0.00815644	0.00386616	0.00431770	0.00306208	0.00558666	0.00138996	0.00484148	0.00206255	0.00364935	0.00085620	0.00390107	0.00547142	0.00284641	0.00246864	0.00190111	0.00936832	0.00391067	0.00339905	0.00356015	0.00453083
0.94000000	0.00659488	0.00410050	0.00714828	0.00678616	0.00316991	0.00865965	0.00376061	0.00434211	0.00315557	0.00516716	0.00132735	0.00395975	0.00201180	0.00345932	0.00089650	0.00424440	0.00510795	0.00283239	0.00241206	0.00212048	0.00909150	0.00421632	0.00307313	0.00374332	0.00421866
0.95000000	0.00719904	0.00407419	0.00704883	0.00667312	0.00316958	0.00857701	0.00352147	0.00422731	0.00317999	0.00493823	0.00133236	0.00321873	0.00203123	0.00333922	0.00094845	0.00466234	0.00478114	0.00289062	0.00234884	0.00244187	0.00872054	0.00447647	0.00273613	0.00385074	0.00394729
0.96000000	0.00717624	0.00430137	0.00726533	0.00654355	0.00339815	0.00803191	0.00321359	0.00405527	0.00319976	0.00491459	0.00122215	0.00273182	0.00210003	0.00316350	0.00113925	0.00510339	0.00451098	0.00298920	0.00231853	0.00279343	0.00826227	0.00469040	0.00247238	0.00398127	0.00366853
0.97000000	0.00691894	0.00440796	0.00780205	0.00628007	0.00398364	0.00716545	0.00263905	0.00404554	0.00325860	0.00511067	0.00142252	0.00236555	0.00222691	0.00304966	0.00118026	0.00547979	0.00437212	0.00309710	0.00228491	0.00310286	0.00774504	0.00481683	0.00243348	0.00402780	0.00347977
0.98000000	0.00812886	0.00431836	0.00712431	0.00565972	0.00326195	0.00643058	0.00237405	0.00378294	0.00333052	0.00510877	0.00133178	0.00237919	0.00212059	0.00324922	0.00114079	0.00549774	0.00449350	0.00321357	0.00222635	0.00323110	0.00737733	0.00454206	0.00231549	0.00365295	0.00356467
0.99000000	0.00755714	0.00445406	0.00740530	0.00557802	0.00332311	0.00557427	0.00204460	0.00368616	0.00348243	0.00547223	0.00113324	0.00259326	0.00222470	0.00312517	0.00126557	0.00559753	0.00461395	0.00325689	0.00220518	0.00338065	0.00687149	0.00430542	0.00249441	0.00343360	0.00357486
1.00000000	0.00674598	0.00461720	0.00782587	0.00552282	0.00341261	0.00484002	0.00174615	0.00367172	0.00366207	0.00599090	0.00139448	0.00268990	0.00229553	0.00309770	0.00133933	0.00550416	0.00479340	0.00336746	0.00231082	0.00351131	0.00636921	0.00400989	0.00273980	0.00307456	0.00364693
1.01000000	0.00768929	0.00451388	0.00734635	0.00520450	0.00241167	0.00404662	0.00184855	0.00347548	0.00378406	0.00601709	0.00135217	0.00329415	0.00224634	0.00331561	0.00128422	0.00520548	0.00497687	0.00311171	0.00226058	0.00327746	0.00597008	0.00346117	0.00257630	0.00255557	0.00381451
1.02000000	0.00648428	0.00460211	0.00746203	0.00528340	0.00246552	0.00355809	0.00177003	0.00340264	0.00394065	0.00642279	0.00168447	0.00349590	0.00226312	0.00331697	0.00147567	0.00505546	0.00522942	0.00310436	0.00234386	0.00343473	0.00552798	0.00313077	0.00294125	0.00209157	0.00392114
1.03000000	0.00582324	0.00486486	0.00742272	0.00521685	0.00208483	0.00330962	0.00189004	0.00338953	0.00392088	0.00660029	0.00160322	0.00372206	0.00217216	0.00325710	0.00152654	0.00465123	0.00536700	0.00301650	0.00242570	0.00338253	0.00518755	0.00258183	0.00320594	0.00167274	0.00392021
1.04000000	0.00631268	0.00463833	0.00720423	0.00487373	0.00111256	0.00278361	0.00192185	0.00309808	0.00387296	0.00660436	0.00166713	0.00405433	0.00207698	0.00325623	0.00145467	0.00423790	0.00533189	0.00256293	0.00235170	0.00297869	0.00489229	0.00215684	0.00285209	0.00135178	0.00393208
1.05000000	0.00550435	0.00467701	0.00678646	0.00494972	0.00117824	0.00262760	0.00187485	0.00294566	0.00386927	0.00659285	0.00201367	0.00404521	0.00189564	0.00335616	0.00159668	0.00411730	0.00538169	0.00249796	0.00236070	0.00307788	0.00452515	0.00196012	0.00300624	0.00107155	0.00383645
1.06000000	0.00524565	0.00462210	0.00656980	0.00485281	0.00076073	0.00256448	0.00187466	0.00295017	0.00362785	0.00650448	0.00186281	0.00396075	0.00175734	0.00319893	0.00167418	0.00382814	0.00526256	0.00222581	0.00218648	0.00292116	0.00415760	0.00161197	0.00294412	0.00086735	0.00355802
1.07000000	0.00487842	0.00456562	0.00592774	0.00497547	0.00079440	0.00262505	0.00185857	0.00286514	0.00345505	0.00636704	0.00216502	0.00375225	0.00154011	0.00324747	0.00180699	0.00378982	0.00511870	0.00201481	0.00207772	0.00296438	0.00381242	0.00156152	0.00292909	0.00077272	0.00328530
1.08000000	0.00480172	0.00452274	0.00547932	0.00501634	0.00058850	0.00275364	0.00181863	0.00289944	0.00318602	0.00616061	0.00205579	0.00354348	0.00136600	0.00315274	0.00199836	0.00362128	0.00488334	0.00178936	0.00187918	0.00287243	0.00334280	0.00144623	0.00281186	0.00069557	0.00289173
1.09000000	0.00481774	0.00458444	0.00488898	0.00519021	0.00062821	0.00307468	0.00148642	0.00265232	0.00352646	0.00584561	0.00277108	0.00335871	0.00100515	0.00366744	0.00217091	0.00353678	0.00467605	0.00167814	0.00167859	0.00294120	0.00274176	0.00143214	0.00282459	0.00065962	0.00257923
1.10000000	0.00407465	0.00431690	0.00502486	0.00534605	0.00079104	0.00307263	0.00153530	0.00274140	0.00287700	0.00587778	0.00214584	0.00313254	0.00110938	0.00307182	0.00231111	0.00334058	0.00416279	0.00119035	0.00152646	0.00266948	0.00266122	0.00133344	0.00162804	0.00068015	0.00208445
1.11000000	0.00421218	0.00411565	0.00442462	0.00548565	0.00079379	0.00354436	0.00142041	0.00281605	0.00262838	0.00581703	0.00224832	0.00305715	0.00101526	0.00314054	0.00241382	0.00325255	0.00383858	0.00097334	0.00132365	0.00264140	0.00227849	0.00133899	0.00138957	0.00067472	0.00159750
1.12000000	0.00452846	0.00391481	0.00372255	0.00575910	0.00082140	0.00397218	0.00125109	0.00275885	0.00255073	0.00574241	0.00262036	0.00320927	0.00097025	0.00335155	0.00248391	0.00315570	0.00349085	0.00075313	0.00111072	0.00264509	0.00194366	0.00137736	0.00126258	0.00066067	0.00110198
1.13000000	0.00376221	0.00377365	0.00371105	0.00593683	0.00122669	0.00455881	0.00120350	0.00294497	0.00223100	0.00571102	0.00236098	0.00309175	0.00112311	0.00307549	0.00267193	0.00301978	0.00310979	0.00073313	0.00103895	0.00264462	0.00176778	0.00120064	0.00078401	0.00064705	0.00071946
1.14000000	0.00421406	0.00355886	0.00298241	0.00629959	0.00116531	0.00506342	0.00113638	0.00303669	0.00207932	0.00565892	0.00277366	0.00333565	0.00120878	0.00335943	0.00267657	0.00281421	0.00273918	0.00067351	0.00089353	0.00258837	0.00152920	0.00113014	0.00064392	0.00063285	0.00027549
1.15000000	0.00468956	0.00330312	0.00243211	0.00671824	0.00118999	0.00556178	0.00115167	0.00311933	0.00196161	0.00568273	0.00308534	0.00349150	0.00152480	0.00342445	0.00275860	0.00259856	0.00237875	0.00062919	0.00078349	0.00248710	0.00145002	0.00108621	0.00051241	0.00058973	0.00036188
1.16000000	0.00347846	0.00316085	0.00273120	0.00673621	0.00167948	0.00638800	0.00110407	0.00329753	0.00168798	0.00562415	0.00269944	0.00329764	0.00160908	0.00306066	0.00289444	0.00246887	0.00212407	0.00090800	0.00091123	0.00249904	0.00122836	0.00083653	0.00050134	0.00030729	0.00045264
1.17000000	0.00401090	0.00298042	0.00212400	0.00738190	0.00134977	0.00679311	0.00149883	0.00354201	0.00156482	0.00564514	0.00321564	0.00339227	0.00176207	0.00333390	0.00289903	0.00217322	0.00188669	0.00099333	0.00089315	0.00222633	0.00137215	0.00069099	0.00034042	0.00040927	0.00089542
1.18000000	0.00322932	0.00273045	0.00240737	0.00763036	0.00190657	0.00760873	0.00137075	0.00359378	0.00138393	0.00556830	0.00281853	0.00329029	0.00186845	0.00298978	0.00306478	0.00200762	0.00168665	0.00116384	0.00108453	0.00220598	0.00144963	0.00035873	0.00063858	0.00022737	0.00099877
1.19000000	0.00334068	0.00238106	0.00204047	0.00835579	0.00191406	0.00821330	0.00156395	0.00376135	0.00130848	0.00570176	0.00296094	0.00318512	0.00203251	0.00291076	0.00317835	0.00176071	0.00160716	0.00127923	0.00117282	0.00194716	0.00183238	0.00029711	0.00080168	0.00047089	0.00119842
1.20000000	0.00300588	0.00219210	0.00239239	0.00893255	0.00204662	0.00883920	0.00176208	0.00387813	0.00108673	0.00558475	0.00289860	0.00320282	0.00200489	0.00289382	0.00323146	0.00158918	0.00155728	0.00145714	0.00134052	0.00172280	0.00218406	0.00024947	0.00091102	0.00064542	0.00141631
1.21000000	0.00315676	0.00196341	0.00203657	0.00971550	0.00186514	0.00945885	0.00197899	0.00402337	0.00096349	0.00577650	0.00299270	0.00313839	0.00211403	0.00286283	0.00327947	0.00141639	0.00166810	0.00160674	0.00148322	0.00139770	0.00275214	0.00062178	0.00105523	0.00098681	0.00160972
1.22000000	0.00295632	0.00207792	0.00246000	0.01026532	0.00193349	0.00978000	0.00222334	0.00397955	0.00099597	0.00571765	0.00302526	0.00311402	0.00205800	0.00279938	0.00331747	0.00136914	0.00187580	0.00176748	0.00166888	0.00112920	0.00329673	0.00089664	0.00138465	0.00114685	0.00181051
1.23000000	0.00333468	0.00252127	0.00225024	0.01072606	0.00062987	0.01001786	0.00302037	0.00424395	0.00183928	0.00594275	0.00323477	0.00319030	0.00197738	0.00313612	0.00324353	0.00172179	0.00260713	0.00213401	0.00167552	0.00092456	0.00373600	0.00123797	0.00157495	0.00155506	0.00215823
1.24000000	0.00296333	0.00261492	0.00254355	0.01078468	0.00172945	0.00989536	0.00256431	0.00376536	0.00084498	0.00594849	0.00317210	0.00311439	0.00200382	0.00275577	0.00324395	0.00161949	0.00262589	0.00220021	0.00200176	0.00085620	0.00448932	0.00151817	0.00194268	0.00165852	0.00219433
1.25000000	0.00293088	0.00284586	0.00256567	0.01044795	0.00166620	0.00951297	0.00263089	0.00354852	0.00078603	0.00607696	0.00326503	0.00322850	0.00196411	0.00278859	0.00311703	0.00184231	0.00303011	0.00243615	0.00217012	0.00105698	0.00508628	0.00180165	0.00220636	0.00192954	0.00239496
1.26000000	0.00288058	0.00290903	0.00251104	0.00975233	0.00158058	0.00869311	0.00267138	0.00329161	0.00083612	0.00623408	0.00334402	0.00338772	0.00196445	0.00274852	0.00304722	0.00208544	0.00342541	0.00265949	0.00233442	0.00139004	0.00567282	0.00210751	0.00248779	0.00220137	0.00257459
1.27000000	0.00303727	0.00282563	0.00231871	0.00879856	0.00144341	0.00756808	0.00257041	0.00298481	0.00066829	0.00648791	0.00338823	0.00348249	0.00206374	0.00274262	0.00292782	0.00237492	0.00375118	0.00287007	0.00247912	0.00172042	0.00622359	0.00241166	0.00265936	0.00259241	0.00274038
1.28000000	0.00336569	0.00264231	0.00253428	0.00765169	0.00137700	0.00605568	0.00244225	0.00268434	0.00066984	0.00666827	0.00330250	0.00368217	0.00221602	0.00273365	0.00279587	0.00255562	0.00399278	0.00307449	0.00266317	0.00197305	0.00679298	0.00266836	0.00279464	0.00289945	0.00290034
1.29000000	0.00328699	0.00231010	0.00284616	0.00679452	0.00151253	0.00413681	0.00238976	0.00249854	0.00079823	0.00678844	0.00342943	0.00365063	0.00226573	0.00267067	0.00278109	0.00282765	0.00423633	0.00320417	0.00280235	0.00221695	0.00729106	0.00293907	0.00299726	0.00317752	0.00304153
1.30000000	0.00349080	0.00210356	0.00367201	0.00668408	0.00145472	0.00224536	0.00246948	0.00228240	0.00116299	0.00689283	0.00325747	0.00384922	0.00238224	0.00279029	0.00258901	0.00295173	0.00437890	0.00338203	0.00294240	0.00232428	0.00771485	0.00307696	0.00308145	0.00337899	0.00314826
1.31000000	0.00255297	0.00171430	0.00386346	0.00736919	0.00154179	0.00078794	0.00250783	0.00252502	0.00131002	0.00689901	0.00341339	0.00370724	0.00230334	0.00271920	0.00268634	0.00318948	0.00479017	0.00348123	0.00296095	0.00252034	0.00810898	0.00328413	0.00348227	0.00352370	0.00323714
1.32000000	0.00270434	0.00178404	0.00518283	0.00864421	0.00091641	0.00196639	0.00297177	0.00243814	0.00238697	0.00689110	0.00314129	0.00377780	0.00247969	0.00279258	0.00258147	0.00345732	0.00507898	0.00358729	0.00293081	0.00259041	0.00831615	0.00340389	0.00349040	0.00378801	0.00353588
1.33000000	0.00308110	0.00152453	0.00530731	0.00959520	0.00177064	0.00342073	0.00223872	0.00243102	0.00149427	0.00719274	0.00326624	0.00344393	0.00266019	0.00259998	0.00258725	0.00359342	0.00500542	0.00361010	0.00316454	0.00247788	0.00886918	0.00361985	0.00355483	0.00408111	0.00348847
1.34000000	0.00242257	0.00130873	0.00557820	0.01012880	0.00140189	0.00478750	0.00237563	0.00259059	0.00184584	0.00719274	0.00330961	0.00344603	0.00266113	0.00262801	0.00256323	0.00377429	0.00523720	0.00365858	0.00320985	0.00250345	0.00918673	0.00371326	0.00378000	0.00415179	0.00358236
1.35000000	0.00273908	0.00133271	0.00644588	0.01026082	0.00123755	0.00483338	0.00235642	0.00215638	0.00183153	0.00720288	0.00313385	0.00334111	0.00300086	0.00254320	0.00248855	0.00405419	0.00546963	0.00370093	0.00318259	0.00250187	0.00931738	0.00378483	0.00374119	0.00444024	0.00382780
1.36000000	0.00314538	0.00137853	0.00706012	0.00956547	0.00121278	0.00448302	0.00225865	0.00158970	0.00191180	0.00712817	0.00282719	0.00331817	0.00342881	0.00249270	0.00237420	0.00436162	0.00566494	0.00373437	0.00317670	0.00252983	0.00944305	0.00390122	0.00372888	0.00477505	0.00402237
1.37000000	0.00237637	0.00110532	0.00634438	0.00840795	0.00107127	0.00411105	0.00238366	0.00155055	0.00196073	0.00729505	0.00308652	0.00303575	0.00320762	0.00238844	0.00242718	0.00440291	0.00552453	0.00367233	0.00337302	0.00238447	0.00982315	0.00404743	0.00405149	0.00472775	0.00372900
1.38000000	0.00281011	0.00141691	0.00688447	0.00686332	0.00100455	0.00294681	0.00255303	0.00115494	0.00186445	0.00720700	0.00272429	0.00281649	0.00369791	0.00213137	0.00234878	0.00453722	0.00551814	0.00364060	0.00338006	0.00228557	0.00984798	0.00406596	0.00391053	0.00493213	0.00386561
1.39000000	0.00295250	0.00180154	0.00701182	0.00519223	0.00132583	0.00208027	0.00285273	0.00112501	0.00181873	0.00700322	0.00251060	0.00264231	0.00400423	0.00194887	0.00228397	0.00481723	0.00553306	0.00358066	0.00332856	0.00230476	0.00980746	0.00421732	0.00395662	0.00514651	0.00377020
1.40000000	0.00319823	0.00249313	0.00701568	0.00381868	0.00200256	0.00202287	0.00314510	0.00131782	0.00173442	0.00671062	0.00248867	0.00231609	0.00423156	0.00183740	0.00222710	0.00493733	0.00543527	0.00354742	0.00336584	0.00225655	0.00978640	0.00432565	0.00385458	0.00525402	0.00360245
1.41000000	0.00374817	0.00350324	0.00670278	0.00295789	0.00244625	0.00238895	0.00319307	0.00179095	0.00153474	0.00630148	0.00257927	0.00193042	0.00432540	0.00169149	0.00207546	0.00500582	0.00530894	0.00343429	0.00337812	0.00222832	0.00979435	0.00435532	0.00372295	0.00532449	0.00351692
1.42000000	0.00450780	0.00441259	0.00681740	0.00253072	0.00183016	0.00226829	0.00289644	0.00267084	0.00103040	0.00566534	0.00252515	0.00178437	0.00462713	0.00115207	0.00156650	0.00517455	0.00518461	0.00332484	0.00324021	0.00219455	0.00953299	0.00438283	0.00347300	0.00531805	0.00346621
1.43000000	0.00462017	0.00473540	0.00701878	0.00195126	0.00304999	0.00294126	0.00294328	0.00343386	0.00099947	0.00510309	0.00252841	0.00114781	0.00501922	0.00103842	0.00125115	0.00536215	0.00517932	0.00318411	0.00311023	0.00219303	0.00938328	0.00441185	0.00341606	0.00548139	0.00333266
1.44000000	0.00497535	0.00573202	0.00726323	0.00245508	0.00245343	0.00322532	0.00254679	0.00395621	0.00110332	0.00449907	0.00259642	0.00056331	0.00508917	0.00092452	0.00078103	0.00533148	0.00491519	0.00301219	0.00306582	0.00202460	0.00924952	0.00437102	0.00317326	0.00537973	0.00331075
1.45000000	0.00496169	0.00600379	0.00733537	0.00290392	0.00321080	0.00445347	0.00245287	0.00430311	0.00130417	0.00378156	0.00295266	0.00080585	0.00521103	0.00148890	0.00071153	0.00538066	0.00492001	0.00289693	0.00290203	0.00203207	0.00902822	0.00422448	0.00321793	0.00533624	0.00325286
1.46000000	0.00479806	0.00668840	0.00753065	0.00360408	0.00305637	0.00512061	0.00208490	0.00441201	0.00138037	0.00312110	0.00310705	0.00171720	0.00509667	0.00229931	0.00116336	0.00532413	0.00477925	0.00271193	0.00277337	0.00191699	0.00882479	0.00412113	0.00312848	0.00516180	0.00331102
1.47000000	0.00464689	0.00633155	0.00736448	0.00423882	0.00359767	0.00563902	0.00197878	0.00430758	0.00171194	0.00213891	0.00389799	0.00264399	0.00486142	0.00347635	0.00194317	0.00531949	0.00505071	0.00260159	0.00249462	0.00212807	0.00852517	0.00382491	0.00336819	0.00500082	0.00343812
1.48000000	0.00419646	0.00692754	0.00732505	0.00439531	0.00288815	0.00578988	0.00175730	0.00422621	0.00156650	0.00131743	0.00347915	0.00314439	0.00495623	0.00426339	0.00316586	0.00503367	0.00500586	0.00254081	0.00247244	0.00212092	0.00837147	0.00358343	0.00331923	0.00458599	0.00343696
1.49000000	0.00412198	0.00659532	0.00717887	0.00435547	0.00281568	0.00592860	0.00164098	0.00401693	0.00154620	0.00106974	0.00370697	0.00355650	0.00485997	0.00512447	0.00411481	0.00471098	0.00524681	0.00238712	0.00228052	0.00227610	0.00812041	0.00313930	0.00352752	0.00415903	0.00355408
1.50000000	0.00400377	0.00648388	0.00698986	0.00417542	0.00270376	0.00586007	0.00161804	0.00370060	0.00155709	0.00196332	0.00362993	0.00378649	0.00468965	0.00569915	0.00495234	0.00437911	0.00553602	0.00222519	0.00206726	0.00249404	0.00781294	0.00272396	0.00377271	0.00367806	0.00361290
1.51000000	0.00359054	0.00680957	0.00695789	0.00394635	0.00259066	0.00543006	0.00148235	0.00328015	0.00164334	0.00295626	0.00314087	0.00420133	0.00428777	0.00592050	0.00544897	0.00405274	0.00568594	0.00214170	0.00194583	0.00271980	0.00755470	0.00243664	0.00382385	0.00325554	0.00351294
1.52000000	0.00372677	0.00641472	0.00673748	0.00372638	0.00249923	0.00517657	0.00168670	0.00312259	0.00161841	0.00441871	0.00313743	0.00380773	0.00406654	0.00592256	0.00569783	0.00355987	0.00600235	0.00192603	0.00180943	0.00288427	0.00731110	0.00195648	0.00397161	0.00275744	0.00357836
1.53000000	0.00366514	0.00646382	0.00670857	0.00347780	0.00233286	0.00499757	0.00185488	0.00294335	0.00166042	0.00561667	0.00305210	0.00356562	0.00363069	0.00552421	0.00571955	0.00316346	0.00615028	0.00179368	0.00168040	0.00298489	0.00694574	0.00163515	0.00398009	0.00234257	0.00339288
1.54000000	0.00364509	0.00646299	0.00665719	0.00337723	0.00218918	0.00485896	0.00215995	0.00287066	0.00167551	0.00666871	0.00321061	0.00325580	0.00307628	0.00503020	0.00546757	0.00276941	0.00627101	0.00164063	0.00156322	0.00295429	0.00660257	0.00139469	0.00387881	0.00203987	0.00324965
1.55000000	0.00352507	0.00654070	0.00661294	0.00344986	0.00230589	0.00474208	0.00235118	0.00273610	0.00174866	0.00725807	0.00363416	0.00323363	0.00237052	0.00457474	0.00500261	0.00268536	0.00613940	0.00155376	0.00149009	0.00300382	0.00627030	0.00144627	0.00355517	0.00199294	0.00291994
1.56000000	0.00370022	0.00603211	0.00646763	0.00367858	0.00210183	0.00480737	0.00279058	0.00291653	0.00168288	0.00812950	0.00397142	0.00289782	0.00173576	0.00431114	0.00445857	0.00251443	0.00611993	0.00141138	0.00144595	0.00281481	0.00590214	0.00141513	0.00334358	0.00184272	0.00269699
1.57000000	0.00364307	0.00501123	0.00626874	0.00417510	0.00236007	0.00488328	0.00311970	0.00304078	0.00186863	0.00878686	0.00431492	0.00253933	0.00132855	0.00458958	0.00427039	0.00266906	0.00614538	0.00133872	0.00142880	0.00279633	0.00557609	0.00168383	0.00321993	0.00190810	0.00243129
1.58000000	0.00386439	0.00555623	0.00634898	0.00442475	0.00207152	0.00528922	0.00317257	0.00291414	0.00176749	0.00881474	0.00432830	0.00280123	0.00130103	0.00402591	0.00317644	0.00267351	0.00561208	0.00130251	0.00133415	0.00233529	0.00504409	0.00166531	0.00263452	0.00194399	0.00195279
1.59000000	0.00429424	0.00472563	0.00595161	0.00492189	0.00250869	0.00573081	0.00321156	0.00295249	0.00176230	0.00904937	0.00424906	0.00289326	0.00167933	0.00421242	0.00278091	0.00285272	0.00529992	0.00122536	0.00134548	0.00214096	0.00471672	0.00195813	0.00234827	0.00201313	0.00168538
1.60000000	0.00430000	0.00482610	0.00599944	0.00526097	0.00263639	0.00611354	0.00317192	0.00294302	0.00162964	0.00916440	0.00395417	0.00343035	0.00179291	0.00429296	0.00191111	0.00297093	0.00474364	0.00114295	0.00116747	0.00176133	0.00419824	0.00189352	0.00185879	0.00215757	0.00128522
1.61000000	0.00452363	0.00417808	0.00548648	0.00549550	0.00295457	0.00665053	0.00306036	0.00289677	0.00155493	0.00925739	0.00366212	0.00435469	0.00193315	0.00453037	0.00141370	0.00304107	0.00436825	0.00108820	0.00107082	0.00153204	0.00382095	0.00199229	0.00162671	0.00208962	0.00097471
1.62000000	0.00459306	0.00361708	0.00489534	0.00567949	0.00340956	0.00688234	0.00285053	0.00270209	0.00167826	0.00938507	0.00337356	0.00555694	0.00195682	0.00473306	0.00111535	0.00301407	0.00403575	0.00102932	0.00095760	0.00138700	0.00336986	0.00200555	0.00151206	0.00197207	0.00065697
1.63000000	0.00427765	0.00321880	0.00491112	0.00566085	0.00329936	0.00674064	0.00272812	0.00264247	0.00168976	0.00998336	0.00278245	0.00633792	0.00177398	0.00463051	0.00092086	0.00280012	0.00363778	0.00097686	0.00074193	0.00112395	0.00284057	0.00182953	0.00118209	0.00170414	0.00052538
1.64000000	0.00400491	0.00281390	0.00426345	0.00537758	0.00352836	0.00671695	0.00248350	0.00257010	0.00169288	0.01005426	0.00258121	0.00765183	0.00169048	0.00500630	0.00059995	0.00253555	0.00338694	0.00096921	0.00056465	0.00099373	0.00239235	0.00166490	0.00105706	0.00132489	0.00028969
1.65000000	0.00373199	0.00247705	0.00393064	0.00519395	0.00338961	0.00625796	0.00228595	0.00255415	0.00180337	0.01077828	0.00201403	0.00831592	0.00161893	0.00501129	0.00059417	0.00210203	0.00315724	0.00101622	0.00050661	0.00085328	0.00185830	0.00134561	0.00090807	0.00085866	0.00022664
1.66000000	0.00315305	0.00206794	0.00299964	0.00487591	0.00375517	0.00606744	0.00200976	0.00242319	0.00195860	0.01089270	0.00205894	0.00965569	0.00163500	0.00545864	0.00046950	0.00184811	0.00307163	0.00096650	0.00051794	0.00088976	0.00151194	0.00120338	0.00086533	0.00041125	0.00035115
1.67000000	0.00253935	0.00180850	0.00246234	0.00460779	0.00399026	0.00589839	0.00187536	0.00246008	0.00207483	0.01115231	0.00193526	0.01084855	0.00173267	0.00586710	0.00050938	0.00154027	0.00288160	0.00113980	0.00064905	0.00092339	0.00108207	0.00098775	0.00083037	0.00021851	0.00039734
1.68000000	0.00244360	0.00159597	0.00175372	0.00437872	0.00453564	0.00607996	0.00132564	0.00290766	0.00204045	0.01139276	0.00243178	0.01217584	0.00203869	0.00621289	0.00153562	0.00127195	0.00285166	0.00095972	0.00080294	0.00108071	0.00100090	0.00069113	0.00124157	0.00081686	0.00094750
1.69000000	0.00171052	0.00200502	0.00175052	0.00444659	0.00399530	0.00552993	0.00189751	0.00268985	0.00236917	0.01244482	0.00144899	0.01220516	0.00221051	0.00621769	0.00023607	0.00112286	0.00261247	0.00115805	0.00093091	0.00102430	0.00060901	0.00075505	0.00040994	0.00090256	0.00060211
1.70000000	0.00144757	0.00141340	0.00119699	0.00445913	0.00454016	0.00563344	0.00168932	0.00280617	0.00242531	0.01297343	0.00168162	0.01312277	0.00241332	0.00635316	0.00032656	0.00104704	0.00246146	0.00130126	0.00109303	0.00105268	0.00068904	0.00062336	0.00053231	0.00131525	0.00101442
1.71000000	0.00116447	0.00220106	0.00115009	0.00456518	0.00418177	0.00540114	0.00202242	0.00271007	0.00276845	0.01328764	0.00161238	0.01371961	0.00256779	0.00652281	0.00024104	0.00116829	0.00230974	0.00126551	0.00123300	0.00115702	0.00105992	0.00097456	0.00038909	0.00148905	0.00108629
1.72000000	0.00119325	0.00255950	0.00090871	0.00462665	0.00425977	0.00530096	0.00208575	0.00275304	0.00285044	0.01369495	0.00152955	0.01408992	0.00271100	0.00649090	0.00040365	0.00121042	0.00226791	0.00133430	0.00135903	0.00122254	0.00137666	0.00100079	0.00058498	0.00172519	0.00127074
1.73000000	0.00152456	0.00178501	0.00121073	0.00473104	0.00482182	0.00539669	0.00173361	0.00314989	0.00276773	0.01421376	0.00182692	0.01425335	0.00277358	0.00637421	0.00052774	0.00132322	0.00223002	0.00152273	0.00149742	0.00117739	0.00175728	0.00078019	0.00105779	0.00214323	0.00172238
1.74000000	0.00144645	0.00281138	0.00109896	0.00481752	0.00453391	0.00508647	0.00207983	0.00269846	0.00309111	0.01413157	0.00128709	0.01430122	0.00278368	0.00620645	0.00072079	0.00149094	0.00223464	0.00148492	0.00163665	0.00127417	0.00228652	0.00125498	0.00113805	0.00212299	0.00175516
1.75000000	0.00186733	0.00213083	0.00158854	0.00491719	0.00489547	0.00517359	0.00177895	0.00309156	0.00289514	0.01425723	0.00136868	0.01408166	0.00281819	0.00598943	0.00079924	0.00173791	0.00227296	0.00163487	0.00179930	0.00126688	0.00282865	0.00106973	0.00138966	0.00255933	0.00220775
1.76000000	0.00222688	0.00191549	0.00213934	0.00507740	0.00519199	0.00506221	0.00158460	0.00329986	0.00291939	0.01418811	0.00119011	0.01368552	0.00273126	0.00572049	0.00091167	0.00195698	0.00235319	0.00184676	0.00200603	0.00139030	0.00337767	0.00134306	0.00164158	0.00275534	0.00266721
1.77000000	0.00206848	0.00301991	0.00178620	0.00513630	0.00480311	0.00502674	0.00188870	0.00268418	0.00303894	0.01330843	0.00042720	0.01332400	0.00268876	0.00546859	0.00063383	0.00207441	0.00259857	0.00179996	0.00211631	0.00159245	0.00382673	0.00152312	0.00172593	0.00273242	0.00246935
1.78000000	0.00238580	0.00232395	0.00217529	0.00531482	0.00512166	0.00510512	0.00156571	0.00304596	0.00289956	0.01292021	0.00060913	0.01252013	0.00260109	0.00529684	0.00116558	0.00237775	0.00273759	0.00200563	0.00232565	0.00181701	0.00445814	0.00165669	0.00174889	0.00312696	0.00291942
1.79000000	0.00260761	0.00201947	0.00248973	0.00548492	0.00523941	0.00512972	0.00152865	0.00287876	0.00294320	0.01223364	0.00109077	0.01185948	0.00247108	0.00482060	0.00101139	0.00256265	0.00287184	0.00214981	0.00254495	0.00205084	0.00509468	0.00197759	0.00190408	0.00335781	0.00327490
1.80000000	0.00258995	0.00246662	0.00223923	0.00564333	0.00516345	0.00540782	0.00156782	0.00267549	0.00293757	0.01130132	0.00192077	0.01082152	0.00238071	0.00440258	0.00033821	0.00274049	0.00313229	0.00228955	0.00267146	0.00233643	0.00541510	0.00225145	0.00213139	0.00345461	0.00310523
1.81000000	0.00277622	0.00197191	0.00243806	0.00587556	0.00534496	0.00548032	0.00151849	0.00264814	0.00290098	0.01046734	0.00234244	0.00979586	0.00228196	0.00401891	0.00026635	0.00292573	0.00330488	0.00248027	0.00285776	0.00262953	0.00593448	0.00256451	0.00217965	0.00371266	0.00337939
1.82000000	0.00283128	0.00193717	0.00263502	0.00600555	0.00545477	0.00570077	0.00140365	0.00274964	0.00279063	0.00955111	0.00270005	0.00845166	0.00226570	0.00365409	0.00098052	0.00316998	0.00335247	0.00273551	0.00309175	0.00291408	0.00656228	0.00300223	0.00214059	0.00405453	0.00365329
1.83000000	0.00297925	0.00199585	0.00273818	0.00625486	0.00553517	0.00559585	0.00150928	0.00263428	0.00274315	0.00876264	0.00333632	0.00714955	0.00213308	0.00317764	0.00062371	0.00324761	0.00354597	0.00283585	0.00322791	0.00315478	0.00692799	0.00330810	0.00226837	0.00419048	0.00364631
1.84000000	0.00296380	0.00207273	0.00273336	0.00636676	0.00551011	0.00567384	0.00155569	0.00257304	0.00262775	0.00804589	0.00378247	0.00546771	0.00215222	0.00274772	0.00095564	0.00343244	0.00358513	0.00304767	0.00336466	0.00336033	0.00735112	0.00363865	0.00229250	0.00449211	0.00372055
1.85000000	0.00284110	0.00160941	0.00241488	0.00641905	0.00543092	0.00576020	0.00146418	0.00249248	0.00260607	0.00760166	0.00426137	0.00348641	0.00238726	0.00240676	0.00136037	0.00373739	0.00370287	0.00328500	0.00344827	0.00366844	0.00762737	0.00404978	0.00223307	0.00467692	0.00362261
1.86000000	0.00284535	0.00230043	0.00278400	0.00654793	0.00539037	0.00561636	0.00156851	0.00238613	0.00248359	0.00783156	0.00439185	0.00186977	0.00259171	0.00220020	0.00168543	0.00372785	0.00362787	0.00338351	0.00361528	0.00377119	0.00820458	0.00432799	0.00217487	0.00482870	0.00381311
1.87000000	0.00281088	0.00289390	0.00305306	0.00672594	0.00539959	0.00531158	0.00164020	0.00225033	0.00247817	0.00864189	0.00462591	0.00069610	0.00278444	0.00215445	0.00189925	0.00383366	0.00366004	0.00347269	0.00369851	0.00390559	0.00864910	0.00458940	0.00218992	0.00500265	0.00388609
1.88000000	0.00268245	0.00216096	0.00283616	0.00678170	0.00514863	0.00526208	0.00163039	0.00227483	0.00242867	0.00975713	0.00471063	0.00227233	0.00319127	0.00261033	0.00233677	0.00418245	0.00380142	0.00362373	0.00365805	0.00412305	0.00888914	0.00497473	0.00215196	0.00508185	0.00379278
1.89000000	0.00264629	0.00290015	0.00326502	0.00696974	0.00497975	0.00500743	0.00176136	0.00225153	0.00239572	0.01112627	0.00465990	0.00374659	0.00340514	0.00297874	0.00256746	0.00425396	0.00383561	0.00364085	0.00372208	0.00417479	0.00935764	0.00514619	0.00220594	0.00517414	0.00390025
1.90000000	0.00261837	0.00343490	0.00371335	0.00719344	0.00478373	0.00480814	0.00186127	0.00226190	0.00237699	0.01235766	0.00459736	0.00506975	0.00359018	0.00335542	0.00270496	0.00431036	0.00387337	0.00366203	0.00380498	0.00421415	0.00980050	0.00527255	0.00219873	0.00522127	0.00397937
1.91000000	0.00256008	0.00358045	0.00403275	0.00738421	0.00454849	0.00463692	0.00197298	0.00230529	0.00233547	0.01327223	0.00447257	0.00613264	0.00371796	0.00378384	0.00279227	0.00445677	0.00394992	0.00366170	0.00386047	0.00420867	0.01018577	0.00540766	0.00225939	0.00526302	0.00407256
1.92000000	0.00221111	0.00419755	0.00506842	0.00763863	0.00416489	0.00455251	0.00199888	0.00247812	0.00224795	0.01403119	0.00375440	0.00639249	0.00431084	0.00397231	0.00328008	0.00438312	0.00399971	0.00352031	0.00390180	0.00409811	0.01057851	0.00574863	0.00217222	0.00522482	0.00410094
1.93000000	0.00239807	0.00378770	0.00486585	0.00782403	0.00404675	0.00435943	0.00219391	0.00237535	0.00216789	0.01385801	0.00401573	0.00696752	0.00380332	0.00399125	0.00267203	0.00455351	0.00421729	0.00360679	0.00402930	0.00416311	0.01087004	0.00550820	0.00239783	0.00524343	0.00427328
1.94000000	0.00216220	0.00402883	0.00558706	0.00798211	0.00367890	0.00429041	0.00231301	0.00243906	0.00209329	0.01345572	0.00349459	0.00661812	0.00384723	0.00365595	0.00277701	0.00452629	0.00440213	0.00351061	0.00405966	0.00411984	0.01110577	0.00573586	0.00239493	0.00513592	0.00442224
1.95000000	0.00207045	0.00225096	0.00506571	0.00807630	0.00363211	0.00441826	0.00226049	0.00227896	0.00193067	0.01238706	0.00321378	0.00659610	0.00394944	0.00394227	0.00262360	0.00462435	0.00464138	0.00351848	0.00409442	0.00410604	0.01116911	0.00567266	0.00250945	0.00506164	0.00435035
1.96000000	0.00204472	0.00246851	0.00562228	0.00815424	0.00333337	0.00415268	0.00252767	0.00226612	0.00176707	0.01117194	0.00275288	0.00565085	0.00387701	0.00342330	0.00240923	0.00445069	0.00484867	0.00337263	0.00416528	0.00400493	0.01128329	0.00565312	0.00252853	0.00493227	0.00454419
1.97000000	0.00205092	0.00271820	0.00604883	0.00801760	0.00275123	0.00397990	0.00297918	0.00238835	0.00169882	0.00936086	0.00222369	0.00513614	0.00385940	0.00277508	0.00267715	0.00443528	0.00506956	0.00339415	0.00423326	0.00412399	0.01125281	0.00568859	0.00255740	0.00465996	0.00484418
1.98000000	0.00235966	0.00152135	0.00573526	0.00799918	0.00291252	0.00373967	0.00275274	0.00210299	0.00130533	0.00806918	0.00206089	0.00446377	0.00395934	0.00300199	0.00197111	0.00409107	0.00518304	0.00310408	0.00426959	0.00373126	0.01109337	0.00516689	0.00286900	0.00462174	0.00473761
1.99000000	0.00259231	0.00165995	0.00602748	0.00773352	0.00261478	0.00331250	0.00307664	0.00212727	0.00098210	0.00647187	0.00170742	0.00423837	0.00399603	0.00295595	0.00165462	0.00390593	0.00533368	0.00294027	0.00424307	0.00356701	0.01083277	0.00489525	0.00300530	0.00438261	0.00484716
2.00000000	0.00295694	0.00185832	0.00619266	0.00745512	0.00246611	0.00262802	0.00335333	0.00190977	0.00079925	0.00509137	0.00177292	0.00439076	0.00382582	0.00309979	0.00159584	0.00366624	0.00546558	0.00275696	0.00415326	0.00339188	0.01050566	0.00458213	0.00301990	0.00414498	0.00498819
2.01000000	0.00358373	0.00242509	0.00606954	0.00698807	0.00254944	0.00225392	0.00337175	0.00181921	0.00028236	0.00495662	0.00137637	0.00421657	0.00306090	0.00296764	0.00084911	0.00329542	0.00534287	0.00254210	0.00412212	0.00304554	0.01012132	0.00403215	0.00306207	0.00380895	0.00496757
2.02000000	0.00368650	0.00238907	0.00594386	0.00642065	0.00266313	0.00157936	0.00364714	0.00190678	0.00058104	0.00423945	0.00177821	0.00479805	0.00275998	0.00311300	0.00092046	0.00325636	0.00538078	0.00243497	0.00391437	0.00291837	0.00972897	0.00380038	0.00296927	0.00359708	0.00500269
2.03000000	0.00399478	0.00246758	0.00578055	0.00581657	0.00287289	0.00152317	0.00389726	0.00238122	0.00095815	0.00378995	0.00232821	0.00532441	0.00234432	0.00318983	0.00082511	0.00325996	0.00517814	0.00235374	0.00376131	0.00271968	0.00928695	0.00351977	0.00291041	0.00330535	0.00484752
2.04000000	0.00405693	0.00241690	0.00560026	0.00518664	0.00389637	0.00261225	0.00371824	0.00249778	0.00155360	0.00373906	0.00291305	0.00536836	0.00188195	0.00320802	0.00144690	0.00337884	0.00506727	0.00230036	0.00343549	0.00259788	0.00880630	0.00345591	0.00258754	0.00317382	0.00479368
2.05000000	0.00503999	0.00257954	0.00538099	0.00486269	0.00330386	0.00318025	0.00409326	0.00316195	0.00213096	0.00420128	0.00141724	0.00443776	0.00098302	0.00291092	0.00080196	0.00322456	0.00446346	0.00210506	0.00342021	0.00222748	0.00860848	0.00307621	0.00240665	0.00307750	0.00452301
2.06000000	0.00478945	0.00250533	0.00513651	0.00435176	0.00385346	0.00460540	0.00417125	0.00383914	0.00253186	0.00403682	0.00134811	0.00432173	0.00083526	0.00282670	0.00097878	0.00348374	0.00414196	0.00213602	0.00316085	0.00208132	0.00826820	0.00319614	0.00203093	0.00307360	0.00426321
2.07000000	0.00492538	0.00244539	0.00502530	0.00427281	0.00429791	0.00592495	0.00411541	0.00428231	0.00284076	0.00395475	0.00107442	0.00399996	0.00066358	0.00274614	0.00114502	0.00372251	0.00378300	0.00216271	0.00292022	0.00191077	0.00794267	0.00328456	0.00183250	0.00312773	0.00388218
2.08000000	0.00503826	0.00237723	0.00493861	0.00447440	0.00463857	0.00694202	0.00399443	0.00459016	0.00301338	0.00408654	0.00072019	0.00369672	0.00058309	0.00271470	0.00120300	0.00399870	0.00340251	0.00220680	0.00272638	0.00180217	0.00765740	0.00341916	0.00164503	0.00324090	0.00351413
2.09000000	0.00588461	0.00204248	0.00488916	0.00484567	0.00438864	0.00753511	0.00379289	0.00464390	0.00299628	0.00427242	0.00054842	0.00343359	0.00064488	0.00269103	0.00125360	0.00414295	0.00303612	0.00221533	0.00256712	0.00178268	0.00739029	0.00358325	0.00127009	0.00327592	0.00324709
2.10000000	0.00594544	0.00207251	0.00499943	0.00513791	0.00458276	0.00757032	0.00343287	0.00453774	0.00284491	0.00465572	0.00031936	0.00339521	0.00067313	0.00275697	0.00128631	0.00433845	0.00278533	0.00230609	0.00234404	0.00187684	0.00703870	0.00375562	0.00114711	0.00335697	0.00292530
2.11000000	0.00647066	0.00201019	0.00509373	0.00504945	0.00434916	0.00738882	0.00292860	0.00421375	0.00262892	0.00501945	0.00027852	0.00347326	0.00082958	0.00287372	0.00131208	0.00445543	0.00259574	0.00236470	0.00218023	0.00199299	0.00666764	0.00381371	0.00094383	0.00332791	0.00271569
2.12000000	0.00655166	0.00209481	0.00532205	0.00506980	0.00429263	0.00671834	0.00235191	0.00386696	0.00248329	0.00543922	0.00027825	0.00361627	0.00091564	0.00302254	0.00129053	0.00445486	0.00253331	0.00248865	0.00200777	0.00211685	0.00626999	0.00379333	0.00096904	0.00324449	0.00251352
2.13000000	0.00682102	0.00211367	0.00542932	0.00500341	0.00409132	0.00596322	0.00182420	0.00361734	0.00241663	0.00581167	0.00010016	0.00376671	0.00111429	0.00317021	0.00132657	0.00442457	0.00260806	0.00259173	0.00182417	0.00222494	0.00584150	0.00367418	0.00089808	0.00305843	0.00246650
2.14000000	0.00612030	0.00234236	0.00578598	0.00537483	0.00424582	0.00528706	0.00131904	0.00354280	0.00255168	0.00629189	0.00035552	0.00384228	0.00136726	0.00318305	0.00139348	0.00427337	0.00267961	0.00278581	0.00166505	0.00225599	0.00547152	0.00348649	0.00118845	0.00290056	0.00237048
2.15000000	0.00594185	0.00255419	0.00595161	0.00556710	0.00402185	0.00486630	0.00108795	0.00353022	0.00270030	0.00652890	0.00044148	0.00409115	0.00156725	0.00322791	0.00147262	0.00397924	0.00285796	0.00285721	0.00158052	0.00218722	0.00509439	0.00309155	0.00142850	0.00250066	0.00239626
2.16000000	0.00638659	0.00242770	0.00587017	0.00562699	0.00348158	0.00425318	0.00104736	0.00350954	0.00295022	0.00657844	0.00063649	0.00426975	0.00157857	0.00348978	0.00139859	0.00374267	0.00304978	0.00277004	0.00141633	0.00207332	0.00469019	0.00272947	0.00125369	0.00207384	0.00264126
2.17000000	0.00613757	0.00253838	0.00596543	0.00572641	0.00310098	0.00386210	0.00105097	0.00349172	0.00308819	0.00667143	0.00097718	0.00445930	0.00172782	0.00354702	0.00145856	0.00329126	0.00320106	0.00272430	0.00143527	0.00184643	0.00449953	0.00230438	0.00118706	0.00168512	0.00277701
2.18000000	0.00520742	0.00273769	0.00588441	0.00587366	0.00295089	0.00364509	0.00122775	0.00355861	0.00314762	0.00683413	0.00135165	0.00451925	0.00191287	0.00349649	0.00154557	0.00293859	0.00335288	0.00272374	0.00146988	0.00178004	0.00441126	0.00186690	0.00162591	0.00133934	0.00287677
2.19000000	0.00487332	0.00274779	0.00575726	0.00592617	0.00257149	0.00352749	0.00143869	0.00344787	0.00324617	0.00675942	0.00128443	0.00475459	0.00189735	0.00359649	0.00154689	0.00255474	0.00353649	0.00255885	0.00142060	0.00165024	0.00418231	0.00142953	0.00188429	0.00093337	0.00293915
2.20000000	0.00391446	0.00271221	0.00537299	0.00617863	0.00256731	0.00387060	0.00167319	0.00339368	0.00340789	0.00684525	0.00197511	0.00471828	0.00197275	0.00362189	0.00173473	0.00242318	0.00366408	0.00252502	0.00147055	0.00177914	0.00420133	0.00121226	0.00222198	0.00071651	0.00307574
2.21000000	0.00431506	0.00268482	0.00542659	0.00621117	0.00188263	0.00384489	0.00175940	0.00316697	0.00329549	0.00680425	0.00163438	0.00469381	0.00173492	0.00361826	0.00169472	0.00178196	0.00361434	0.00212242	0.00147706	0.00131137	0.00401540	0.00088517	0.00176604	0.00042551	0.00284912
2.22000000	0.00373643	0.00265410	0.00483783	0.00642007	0.00186726	0.00446773	0.00208440	0.00324580	0.00319694	0.00677010	0.00207925	0.00465147	0.00168641	0.00372262	0.00190098	0.00176371	0.00360752	0.00204717	0.00144489	0.00154790	0.00387376	0.00075612	0.00189198	0.00031656	0.00274076
2.23000000	0.00354915	0.00249824	0.00457243	0.00663533	0.00173981	0.00501702	0.00220610	0.00329168	0.00303557	0.00667738	0.00167723	0.00453499	0.00150399	0.00364886	0.00190566	0.00141614	0.00356287	0.00174527	0.00126751	0.00149853	0.00348847	0.00054231	0.00195302	0.00027146	0.00245361
2.24000000	0.00344829	0.00266806	0.00409035	0.00682313	0.00165948	0.00588382	0.00192473	0.00308000	0.00359971	0.00641133	0.00226132	0.00438227	0.00133826	0.00410917	0.00224162	0.00128593	0.00344073	0.00171366	0.00106408	0.00177791	0.00315525	0.00067542	0.00217056	0.00041958	0.00233655
2.25000000	0.00327910	0.00216143	0.00356340	0.00703345	0.00161464	0.00609378	0.00219284	0.00345035	0.00276048	0.00649699	0.00162958	0.00409210	0.00113860	0.00367366	0.00218750	0.00114616	0.00320179	0.00140743	0.00102765	0.00174128	0.00291537	0.00073412	0.00211021	0.00039991	0.00184460
2.26000000	0.00345457	0.00225776	0.00280967	0.00715526	0.00143915	0.00659505	0.00201011	0.00361519	0.00273313	0.00625500	0.00223172	0.00387534	0.00098230	0.00413601	0.00232878	0.00110111	0.00287737	0.00144366	0.00098258	0.00200955	0.00298760	0.00105568	0.00241658	0.00047905	0.00173592
2.27000000	0.00258809	0.00164860	0.00330146	0.00757389	0.00179081	0.00586332	0.00180676	0.00339489	0.00261312	0.00629331	0.00174242	0.00369983	0.00075615	0.00371930	0.00228589	0.00077684	0.00264716	0.00128831	0.00084194	0.00157027	0.00254044	0.00036951	0.00080375	0.00023587	0.00089093
2.28000000	0.00290047	0.00154241	0.00252030	0.00764258	0.00160808	0.00598085	0.00165791	0.00348571	0.00252023	0.00622690	0.00198442	0.00358938	0.00057770	0.00384792	0.00244875	0.00064093	0.00242024	0.00127291	0.00072684	0.00157978	0.00247088	0.00056839	0.00117669	0.00040157	0.00066088
2.29000000	0.00288340	0.00119450	0.00221215	0.00752247	0.00164242	0.00617862	0.00158811	0.00371105	0.00227928	0.00625855	0.00170482	0.00342540	0.00036789	0.00355561	0.00249630	0.00057269	0.00226614	0.00134614	0.00065446	0.00157930	0.00258594	0.00069752	0.00118040	0.00037785	0.00045202
2.30000000	0.00337933	0.00110705	0.00175258	0.00764519	0.00149780	0.00620839	0.00140317	0.00371113	0.00227848	0.00626657	0.00230734	0.00340546	0.00053557	0.00377921	0.00263261	0.00053098	0.00226557	0.00144394	0.00068375	0.00140078	0.00282215	0.00106342	0.00157530	0.00066821	0.00074264
2.31000000	0.00242471	0.00087953	0.00181843	0.00751867	0.00198425	0.00634396	0.00123708	0.00375793	0.00206837	0.00618296	0.00202163	0.00349999	0.00036919	0.00337286	0.00252142	0.00067718	0.00224250	0.00167554	0.00076124	0.00138698	0.00322326	0.00069653	0.00141521	0.00051620	0.00060374
2.32000000	0.00228488	0.00068793	0.00155546	0.00755042	0.00207780	0.00666926	0.00117320	0.00382067	0.00185620	0.00622745	0.00218300	0.00354920	0.00048601	0.00330144	0.00254583	0.00087060	0.00243098	0.00185332	0.00085830	0.00122516	0.00353139	0.00084543	0.00158310	0.00061454	0.00080623
2.33000000	0.00264183	0.00064864	0.00134329	0.00797838	0.00171053	0.00680905	0.00153127	0.00398482	0.00169095	0.00637293	0.00281297	0.00354676	0.00066767	0.00360115	0.00272847	0.00124590	0.00288813	0.00206116	0.00094873	0.00081720	0.00379917	0.00121858	0.00175498	0.00097125	0.00117030
2.34000000	0.00222552	0.00073844	0.00145082	0.00809362	0.00225912	0.00738072	0.00133070	0.00380950	0.00147568	0.00633897	0.00254994	0.00373459	0.00065430	0.00324600	0.00270659	0.00120152	0.00279858	0.00213254	0.00123599	0.00084601	0.00434546	0.00135016	0.00197602	0.00102893	0.00122733
2.35000000	0.00256136	0.00104404	0.00150656	0.00882813	0.00167726	0.00773000	0.00186349	0.00390063	0.00143479	0.00650885	0.00310277	0.00374190	0.00072864	0.00349884	0.00295532	0.00171445	0.00335580	0.00238073	0.00133353	0.00037837	0.00460458	0.00171828	0.00205775	0.00149721	0.00155984
2.36000000	0.00316815	0.00143072	0.00177239	0.00970741	0.00153381	0.00822272	0.00203655	0.00379907	0.00125722	0.00664091	0.00314364	0.00379624	0.00090784	0.00353823	0.00309279	0.00185863	0.00341122	0.00243302	0.00162928	0.00039164	0.00513822	0.00203352	0.00210539	0.00191421	0.00183351
2.37000000	0.00232266	0.00184999	0.00190438	0.00980164	0.00221838	0.00890131	0.00193861	0.00361059	0.00099276	0.00652941	0.00309603	0.00391719	0.00066161	0.00317062	0.00304421	0.00193033	0.00348992	0.00260271	0.00183032	0.00040698	0.00555676	0.00218555	0.00245803	0.00186887	0.00165487
2.38000000	0.00237980	0.00218607	0.00215433	0.01028955	0.00215632	0.00943100	0.00209408	0.00350454	0.00084670	0.00660837	0.00329306	0.00394396	0.00063695	0.00309919	0.00306251	0.00220630	0.00369130	0.00277314	0.00200686	0.00067617	0.00594289	0.00246015	0.00257803	0.00219310	0.00180190
2.39000000	0.00245949	0.00252290	0.00216679	0.01085716	0.00176802	0.00975925	0.00227860	0.00344808	0.00062769	0.00682511	0.00342998	0.00389615	0.00074541	0.00303996	0.00306524	0.00261275	0.00396379	0.00295531	0.00215648	0.00108005	0.00627689	0.00278779	0.00259674	0.00266264	0.00198320
2.40000000	0.00258322	0.00285364	0.00253356	0.01096693	0.00177816	0.00959676	0.00237486	0.00324761	0.00085080	0.00681197	0.00356618	0.00397497	0.00064838	0.00285729	0.00300808	0.00274299	0.00412139	0.00309768	0.00238534	0.00140832	0.00682450	0.00303771	0.00293378	0.00286090	0.00210069
2.41000000	0.00277175	0.00320308	0.00277656	0.01084642	0.00064627	0.00939049	0.00297207	0.00336781	0.00157767	0.00695466	0.00367905	0.00408281	0.00079666	0.00290043	0.00301334	0.00326543	0.00475740	0.00346367	0.00238986	0.00203063	0.00694876	0.00325050	0.00280502	0.00334540	0.00254668
2.42000000	0.00244872	0.00325593	0.00304651	0.01042674	0.00138667	0.00852873	0.00254934	0.00296080	0.00078597	0.00695221	0.00385027	0.00401928	0.00074813	0.00254277	0.00287290	0.00327021	0.00461958	0.00343683	0.00264807	0.00212941	0.00754474	0.00347572	0.00323841	0.00346074	0.00250746
2.43000000	0.00252240	0.00340788	0.00301012	0.00975271	0.00107943	0.00767593	0.00241603	0.00279401	0.00054883	0.00710289	0.00376073	0.00412107	0.00097153	0.00248344	0.00277400	0.00358358	0.00487666	0.00356244	0.00279472	0.00244464	0.00786456	0.00367914	0.00313898	0.00393933	0.00278548
2.44000000	0.00206506	0.00338673	0.00331726	0.00873760	0.00120025	0.00619676	0.00244107	0.00256919	0.00087658	0.00711174	0.00403228	0.00405711	0.00095674	0.00223791	0.00275369	0.00368804	0.00501865	0.00359494	0.00291893	0.00264108	0.00829965	0.00387948	0.00342189	0.00403385	0.00298061
2.45000000	0.00226029	0.00345477	0.00352218	0.00792657	0.00113833	0.00473590	0.00226081	0.00234946	0.00089824	0.00726642	0.00394955	0.00410192	0.00119538	0.00215592	0.00269854	0.00390495	0.00513193	0.00366021	0.00306702	0.00279251	0.00856538	0.00399418	0.00330465	0.00433488	0.00319288
2.46000000	0.00164153	0.00330577	0.00374295	0.00727739	0.00113834	0.00283084	0.00228242	0.00230506	0.00114138	0.00721997	0.00411302	0.00402902	0.00126381	0.00199202	0.00269428	0.00403409	0.00528587	0.00364610	0.00314448	0.00287730	0.00891318	0.00416343	0.00355121	0.00440047	0.00337717
2.47000000	0.00154969	0.00317609	0.00402885	0.00723669	0.00113387	0.00115316	0.00222770	0.00225581	0.00133957	0.00728128	0.00414454	0.00394941	0.00145437	0.00190802	0.00268148	0.00416821	0.00536908	0.00363924	0.00324896	0.00288682	0.00917853	0.00426906	0.00361765	0.00451092	0.00357259
2.48000000	0.00202137	0.00312160	0.00459170	0.00769950	0.00140858	0.00108757	0.00216992	0.00216607	0.00145724	0.00740829	0.00401417	0.00388838	0.00175715	0.00193272	0.00261749	0.00425875	0.00539622	0.00365308	0.00336486	0.00280927	0.00931547	0.00428602	0.00351000	0.00463921	0.00378258
2.49000000	0.00250766	0.00292563	0.00527434	0.00840868	0.00136096	0.00225838	0.00245667	0.00185055	0.00224556	0.00737418	0.00385521	0.00374847	0.00210411	0.00196329	0.00255757	0.00455520	0.00597241	0.00382807	0.00327763	0.00279912	0.00912478	0.00445285	0.00304482	0.00476155	0.00434862
2.50000000	0.00182583	0.00252097	0.00500847	0.00883302	0.00141010	0.00367266	0.00209959	0.00221351	0.00181618	0.00746319	0.00411416	0.00358745	0.00212169	0.00179122	0.00259208	0.00440799	0.00538528	0.00356987	0.00352809	0.00254577	0.00970030	0.00446134	0.00381826	0.00468762	0.00410249
2.51000000	0.00241021	0.00243476	0.00568756	0.00918889	0.00144553	0.00388983	0.00220492	0.00176643	0.00189543	0.00746489	0.00393415	0.00334146	0.00258531	0.00185035	0.00256939	0.00449774	0.00577006	0.00375088	0.00351716	0.00236323	0.00950071	0.00443458	0.00306976	0.00477496	0.00491100
2.52000000	0.00248885	0.00223578	0.00573097	0.00850558	0.00163654	0.00423038	0.00210493	0.00153080	0.00187896	0.00760022	0.00382960	0.00329629	0.00275921	0.00185734	0.00251596	0.00447676	0.00532456	0.00360056	0.00367178	0.00223089	0.00974398	0.00443224	0.00403653	0.00487292	0.00423256
2.53000000	0.00253275	0.00201611	0.00566873	0.00768946	0.00152750	0.00374659	0.00220117	0.00116989	0.00188576	0.00755529	0.00379569	0.00305946	0.00302302	0.00185141	0.00252183	0.00453462	0.00523737	0.00357038	0.00371339	0.00206122	0.00982130	0.00448440	0.00412599	0.00496493	0.00440348
2.54000000	0.00278551	0.00217329	0.00586093	0.00619306	0.00161585	0.00320063	0.00255916	0.00134704	0.00194046	0.00729305	0.00340982	0.00286309	0.00365895	0.00205079	0.00240750	0.00472014	0.00565056	0.00376088	0.00370103	0.00200453	0.00954829	0.00452419	0.00338375	0.00516187	0.00511396
2.55000000	0.00289228	0.00209369	0.00575335	0.00493300	0.00207045	0.00246085	0.00282459	0.00115547	0.00175860	0.00735723	0.00353305	0.00260730	0.00365817	0.00191381	0.00249412	0.00457168	0.00493444	0.00354114	0.00373007	0.00179890	0.00972659	0.00442465	0.00425524	0.00517225	0.00456001
2.56000000	0.00308384	0.00243857	0.00525161	0.00360887	0.00244401	0.00249939	0.00306804	0.00174811	0.00175899	0.00707224	0.00367370	0.00237416	0.00374557	0.00181933	0.00250162	0.00452081	0.00456100	0.00350747	0.00379710	0.00178934	0.00976828	0.00439513	0.00434890	0.00514565	0.00451263
2.57000000	0.00298260	0.00251331	0.00551324	0.00223806	0.00321051	0.00258469	0.00383306	0.00367981	0.00143475	0.00643779	0.00361648	0.00212815	0.00445416	0.00186030	0.00225975	0.00470326	0.00478789	0.00361125	0.00371117	0.00184059	0.00941989	0.00441840	0.00381155	0.00536819	0.00490460
2.58000000	0.00465969	0.00351905	0.00523272	0.00231006	0.00216911	0.00258899	0.00320687	0.00357509	0.00118148	0.00612619	0.00352385	0.00183808	0.00427455	0.00178981	0.00178699	0.00459886	0.00410562	0.00351833	0.00354162	0.00162924	0.00922915	0.00425977	0.00398839	0.00503474	0.00462179
2.59000000	0.00500281	0.00410573	0.00543055	0.00208654	0.00246361	0.00294576	0.00322108	0.00428701	0.00122307	0.00566605	0.00346881	0.00144867	0.00450932	0.00164465	0.00152203	0.00466020	0.00382094	0.00340912	0.00343193	0.00146628	0.00900169	0.00423502	0.00387229	0.00507905	0.00456297
2.60000000	0.00511773	0.00435115	0.00563424	0.00210272	0.00340234	0.00397369	0.00327740	0.00477134	0.00128550	0.00505604	0.00351949	0.00124764	0.00480055	0.00182707	0.00122067	0.00466076	0.00359322	0.00328614	0.00321507	0.00127022	0.00874246	0.00405310	0.00384657	0.00506609	0.00454788
2.61000000	0.00529430	0.00518092	0.00575700	0.00303911	0.00285957	0.00442005	0.00301280	0.00488016	0.00148718	0.00437965	0.00351398	0.00158536	0.00491557	0.00209795	0.00117877	0.00461353	0.00344209	0.00316181	0.00307608	0.00100750	0.00842415	0.00390912	0.00377634	0.00486458	0.00446311
2.62000000	0.00512251	0.00514982	0.00574543	0.00352802	0.00330617	0.00526337	0.00290196	0.00487981	0.00143304	0.00343019	0.00387251	0.00228854	0.00515997	0.00288355	0.00152221	0.00446107	0.00341125	0.00300532	0.00285966	0.00064370	0.00817818	0.00356621	0.00384644	0.00462295	0.00446975
2.63000000	0.00481122	0.00528040	0.00565482	0.00380525	0.00340840	0.00577201	0.00265054	0.00456816	0.00154788	0.00243635	0.00421246	0.00329925	0.00530152	0.00377493	0.00232026	0.00424435	0.00344861	0.00277799	0.00267083	0.00029414	0.00789115	0.00317873	0.00398571	0.00427547	0.00445234
2.64000000	0.00449640	0.00504756	0.00557027	0.00402495	0.00382661	0.00568763	0.00233623	0.00403960	0.00190383	0.00147231	0.00498205	0.00449471	0.00521230	0.00479905	0.00287544	0.00397936	0.00377051	0.00253579	0.00240320	0.00037127	0.00759510	0.00272234	0.00415593	0.00385162	0.00462727
2.65000000	0.00412029	0.00495871	0.00523948	0.00377290	0.00378384	0.00560461	0.00215146	0.00374014	0.00186249	0.00131690	0.00519897	0.00535312	0.00542337	0.00556894	0.00371598	0.00365433	0.00411943	0.00223119	0.00225216	0.00094325	0.00739575	0.00222688	0.00445788	0.00334542	0.00466502
2.66000000	0.00358153	0.00623411	0.00529642	0.00347282	0.00241743	0.00484051	0.00193433	0.00337080	0.00197449	0.00201994	0.00439745	0.00573967	0.00590854	0.00582236	0.00478859	0.00320785	0.00439486	0.00199579	0.00235286	0.00144904	0.00698667	0.00173641	0.00456452	0.00259713	0.00434824
2.67000000	0.00348041	0.00596475	0.00498666	0.00297374	0.00252920	0.00464403	0.00194911	0.00320007	0.00205414	0.00343889	0.00467213	0.00606389	0.00600821	0.00598743	0.00526298	0.00274108	0.00494314	0.00171010	0.00224579	0.00197257	0.00678859	0.00112482	0.00485362	0.00201776	0.00436646
2.68000000	0.00338565	0.00594775	0.00487136	0.00252932	0.00263052	0.00444650	0.00200838	0.00303002	0.00225443	0.00485430	0.00471494	0.00606727	0.00601147	0.00575243	0.00553342	0.00227655	0.00542880	0.00147364	0.00222879	0.00241281	0.00659515	0.00060661	0.00502805	0.00148566	0.00427180
2.69000000	0.00324042	0.00634132	0.00495979	0.00230008	0.00266254	0.00419141	0.00205044	0.00288793	0.00241816	0.00595922	0.00437158	0.00597407	0.00582730	0.00513783	0.00564472	0.00195678	0.00581914	0.00135408	0.00225526	0.00277257	0.00632166	0.00025012	0.00500682	0.00110673	0.00405774
2.70000000	0.00332197	0.00613494	0.00496718	0.00226151	0.00265932	0.00401167	0.00232596	0.00299951	0.00251655	0.00711011	0.00445989	0.00498030	0.00551363	0.00465631	0.00565690	0.00159354	0.00612152	0.00133295	0.00220111	0.00291509	0.00611467	0.00024472	0.00493332	0.00075904	0.00389905
2.71000000	0.00325826	0.00526649	0.00515882	0.00254471	0.00326000	0.00367016	0.00256927	0.00314138	0.00262486	0.00826638	0.00487740	0.00368437	0.00467186	0.00483194	0.00560777	0.00163930	0.00640775	0.00165960	0.00211374	0.00307632	0.00581462	0.00040681	0.00487038	0.00053114	0.00358903
2.72000000	0.00347485	0.00604300	0.00519563	0.00247162	0.00256458	0.00378198	0.00283457	0.00313189	0.00270303	0.00834054	0.00434263	0.00290708	0.00422804	0.00362743	0.00555909	0.00143119	0.00618466	0.00157168	0.00207133	0.00275571	0.00547579	0.00050412	0.00427130	0.00056591	0.00324157
2.73000000	0.00367294	0.00567302	0.00507966	0.00285633	0.00267061	0.00361430	0.00307705	0.00338736	0.00265374	0.00858675	0.00434908	0.00244803	0.00345644	0.00343836	0.00526074	0.00150892	0.00607500	0.00160110	0.00189616	0.00245196	0.00513015	0.00064127	0.00373160	0.00053675	0.00288166
2.74000000	0.00395865	0.00560027	0.00520701	0.00318122	0.00257703	0.00378688	0.00328733	0.00346915	0.00260774	0.00846293	0.00420429	0.00252351	0.00267851	0.00323557	0.00486336	0.00159542	0.00560731	0.00160435	0.00178012	0.00205483	0.00463607	0.00054090	0.00299963	0.00078484	0.00236481
2.75000000	0.00420714	0.00562400	0.00531412	0.00367884	0.00283005	0.00397254	0.00333963	0.00345527	0.00264464	0.00813166	0.00400976	0.00242061	0.00207937	0.00311651	0.00435442	0.00172736	0.00497515	0.00149994	0.00162831	0.00162298	0.00415217	0.00050959	0.00216158	0.00112806	0.00182501
2.76000000	0.00473772	0.00487570	0.00466348	0.00435557	0.00328395	0.00418481	0.00340880	0.00356281	0.00270508	0.00791300	0.00379459	0.00218837	0.00162127	0.00329127	0.00374427	0.00186738	0.00440571	0.00156256	0.00150874	0.00127374	0.00380040	0.00095729	0.00174649	0.00137907	0.00115092
2.77000000	0.00521628	0.00467908	0.00426383	0.00476913	0.00335105	0.00467424	0.00346089	0.00357777	0.00261265	0.00744202	0.00335201	0.00188569	0.00148244	0.00329960	0.00293635	0.00198908	0.00361827	0.00142212	0.00128841	0.00073839	0.00325363	0.00117166	0.00095708	0.00154962	0.00065291
2.78000000	0.00538587	0.00436002	0.00366006	0.00514610	0.00357329	0.00497777	0.00348596	0.00349209	0.00257996	0.00713435	0.00291991	0.00138704	0.00153039	0.00331113	0.00228558	0.00210622	0.00291923	0.00142054	0.00113793	0.00039865	0.00273330	0.00141490	0.00076587	0.00173997	0.00047137
2.79000000	0.00507224	0.00394513	0.00337742	0.00537557	0.00369275	0.00511911	0.00351934	0.00335680	0.00270644	0.00700335	0.00247590	0.00143041	0.00172278	0.00318632	0.00189188	0.00231218	0.00234924	0.00141268	0.00089337	0.00040404	0.00199257	0.00163124	0.00104666	0.00191335	0.00055511
2.80000000	0.00495893	0.00358117	0.00209131	0.00560902	0.00424175	0.00506888	0.00335006	0.00322685	0.00266805	0.00699833	0.00230744	0.00237225	0.00161784	0.00338778	0.00141208	0.00236589	0.00203533	0.00167767	0.00089398	0.00062073	0.00191211	0.00170366	0.00155929	0.00181265	0.00161554
2.81000000	0.00466669	0.00339451	0.00124229	0.00559322	0.00427168	0.00502984	0.00321341	0.00307216	0.00264173	0.00703878	0.00210763	0.00346136	0.00150151	0.00370528	0.00084959	0.00231013	0.00205327	0.00193310	0.00084659	0.00084095	0.00167801	0.00163163	0.00201050	0.00154575	0.00202654
2.82000000	0.00426039	0.00241029	0.00134307	0.00563705	0.00405166	0.00450602	0.00326196	0.00296510	0.00281684	0.00745083	0.00159010	0.00434048	0.00152612	0.00363065	0.00087094	0.00212760	0.00243316	0.00221973	0.00084000	0.00097954	0.00163284	0.00137547	0.00235400	0.00125680	0.00210607
2.83000000	0.00364570	0.00221471	0.00097060	0.00570916	0.00429563	0.00450278	0.00306315	0.00275192	0.00282536	0.00778209	0.00154569	0.00569085	0.00133108	0.00400138	0.00075385	0.00199911	0.00275374	0.00254363	0.00100316	0.00111864	0.00206395	0.00112913	0.00239384	0.00083252	0.00267567
2.84000000	0.00301290	0.00201802	0.00159982	0.00580019	0.00454631	0.00456183	0.00286160	0.00260978	0.00282151	0.00820925	0.00145429	0.00710056	0.00124488	0.00425958	0.00076896	0.00178335	0.00306105	0.00288942	0.00123384	0.00122177	0.00260477	0.00082519	0.00264601	0.00042764	0.00321723
2.85000000	0.00281673	0.00138373	0.00207745	0.00583860	0.00422107	0.00412212	0.00298637	0.00260620	0.00300970	0.00903906	0.00111662	0.00792980	0.00097817	0.00443759	0.00068928	0.00137488	0.00354363	0.00300587	0.00148324	0.00126758	0.00332455	0.00044824	0.00256682	0.00025045	0.00302417
2.86000000	0.00252808	0.00145461	0.00263944	0.00590459	0.00402548	0.00399320	0.00290206	0.00255661	0.00313654	0.00972110	0.00107823	0.00910931	0.00086119	0.00474809	0.00058410	0.00109493	0.00386310	0.00323487	0.00173787	0.00137765	0.00388280	0.00050063	0.00248624	0.00073974	0.00321418
2.87000000	0.00241428	0.00181144	0.00302629	0.00593056	0.00413212	0.00407961	0.00278204	0.00256049	0.00318012	0.01034825	0.00104842	0.01025957	0.00090352	0.00506584	0.00036334	0.00103370	0.00412432	0.00336717	0.00205567	0.00144990	0.00457748	0.00095945	0.00242118	0.00128481	0.00343370
2.88000000	0.00238920	0.00099475	0.00417203	0.00613956	0.00476014	0.00427386	0.00221925	0.00282139	0.00320298	0.01140166	0.00117428	0.01118667	0.00111508	0.00516060	0.00037659	0.00128366	0.00434429	0.00363363	0.00219488	0.00166383	0.00497589	0.00158650	0.00239610	0.00185155	0.00422234
2.89000000	0.00271061	0.00188667	0.00418222	0.00620354	0.00431623	0.00414805	0.00262080	0.00231984	0.00344388	0.01183012	0.00104098	0.01217599	0.00129946	0.00547356	0.00084066	0.00156365	0.00449276	0.00362251	0.00267197	0.00149995	0.00586292	0.00179072	0.00296696	0.00225390	0.00410229
2.90000000	0.00275409	0.00323593	0.00459096	0.00606632	0.00425507	0.00413734	0.00238458	0.00252739	0.00333558	0.01247298	0.00082803	0.01270694	0.00164876	0.00541027	0.00038900	0.00215885	0.00496805	0.00376450	0.00279005	0.00193537	0.00620832	0.00224005	0.00216493	0.00254478	0.00389616
2.91000000	0.00317824	0.00366295	0.00476638	0.00608405	0.00438770	0.00413138	0.00226839	0.00245155	0.00325539	0.01309362	0.00078771	0.01320019	0.00186313	0.00537910	0.00058643	0.00269980	0.00526252	0.00389077	0.00303296	0.00214181	0.00693635	0.00275600	0.00226210	0.00287651	0.00413782
