TVC04_3_JMP_07_upper_limb_body_marker_personalization_task_1_initialErrors.sto
version=1
nRows=211
nColumns=28
inDegrees=no
endheader
time	R_Asis	L_Asis	R_Psis	L_Psis	Sacral	R_Thigh_Lateral	R_Knee_Lateral	R_Shank_Lateral	R_Ankle_Lateral	R_Heel	R_Toe	L_Thigh_Lateral	L_Knee_Lateral	L_Shank_Lateral	L_Ankle_Lateral	L_Heel	L_Toe	R_Shoulder	L_Shoulder	C7	J_Notch	Thoracic	Sternum	R_Elbow	L_Elbow	R_Wrist	L_Wrist
0.40000000	0.00317661	0.00370805	0.00120481	0.00270786	0.00195329	0.00505398	0.00261000	0.00671129	0.00159519	0.00180653	0.00202205	0.01491879	0.01035534	0.01836835	0.00479397	0.00543623	0.00648955	0.00056079	0.00111146	0.00075730	0.00103542	0.00153326	0.00118545	0.00149927	0.00212538	0.00249140	0.00371947
0.41000000	0.00307148	0.00343042	0.00111093	0.00289184	0.00203265	0.00421643	0.00273183	0.00576939	0.00153872	0.00165367	0.00197549	0.01476528	0.01057990	0.01758503	0.00487202	0.00538127	0.00639827	0.00043707	0.00102103	0.00081439	0.00109423	0.00119287	0.00112771	0.00148616	0.00202248	0.00274142	0.00349211
0.42000000	0.00316906	0.00348598	0.00102266	0.00296851	0.00207566	0.00366645	0.00270021	0.00532104	0.00166787	0.00181509	0.00172049	0.01459900	0.01064147	0.01671405	0.00496240	0.00528646	0.00623196	0.00053844	0.00079487	0.00085155	0.00107325	0.00102677	0.00114170	0.00175322	0.00234629	0.00291475	0.00304137
0.43000000	0.00311090	0.00341700	0.00110961	0.00332100	0.00227497	0.00362015	0.00280630	0.00494810	0.00171276	0.00168915	0.00192372	0.01437572	0.01078852	0.01527026	0.00502861	0.00518873	0.00602876	0.00095101	0.00084413	0.00112605	0.00124592	0.00094736	0.00095011	0.00187659	0.00173356	0.00317629	0.00306930
0.44000000	0.00320932	0.00372703	0.00108394	0.00342511	0.00232586	0.00376169	0.00296073	0.00486864	0.00189113	0.00168523	0.00185451	0.01415292	0.01065951	0.01407889	0.00497408	0.00507547	0.00589515	0.00140698	0.00078493	0.00123478	0.00126250	0.00130485	0.00087100	0.00217807	0.00181890	0.00344050	0.00270176
0.45000000	0.00320770	0.00388272	0.00113012	0.00354009	0.00239443	0.00404866	0.00311807	0.00490831	0.00201086	0.00166751	0.00199631	0.01385069	0.01044616	0.01285991	0.00498762	0.00492906	0.00574764	0.00192395	0.00097264	0.00153368	0.00141990	0.00172280	0.00074668	0.00237854	0.00147677	0.00363478	0.00257976
0.46000000	0.00331169	0.00467928	0.00111173	0.00344205	0.00238201	0.00444286	0.00328174	0.00528146	0.00219066	0.00188457	0.00185888	0.01389614	0.00990008	0.01181548	0.00497108	0.00480456	0.00536198	0.00241808	0.00132829	0.00170244	0.00139550	0.00241245	0.00102017	0.00277364	0.00186315	0.00370565	0.00212149
0.47000000	0.00326770	0.00436510	0.00125825	0.00356198	0.00246543	0.00476309	0.00315736	0.00551017	0.00242707	0.00167124	0.00199086	0.01335574	0.00959544	0.01059255	0.00467578	0.00447922	0.00520259	0.00313030	0.00147650	0.00201070	0.00158887	0.00281649	0.00097507	0.00309977	0.00118265	0.00393826	0.00205723
0.48000000	0.00332147	0.00490492	0.00115755	0.00347663	0.00236887	0.00534576	0.00351388	0.00559430	0.00250164	0.00154632	0.00195136	0.01306084	0.00889105	0.00970427	0.00435878	0.00421832	0.00503092	0.00372242	0.00188211	0.00217145	0.00167297	0.00337755	0.00130744	0.00337707	0.00123193	0.00413421	0.00169046
0.49000000	0.00328575	0.00547605	0.00118811	0.00324584	0.00228355	0.00593300	0.00372588	0.00586644	0.00260954	0.00162405	0.00177434	0.01294240	0.00806514	0.00888016	0.00409310	0.00391661	0.00443474	0.00426076	0.00246595	0.00224179	0.00171647	0.00403022	0.00190115	0.00363317	0.00141192	0.00430237	0.00146606
0.50000000	0.00321062	0.00495835	0.00128032	0.00327175	0.00228354	0.00644015	0.00379619	0.00621261	0.00262022	0.00142933	0.00196236	0.01226729	0.00776812	0.00773831	0.00356933	0.00336484	0.00413293	0.00503976	0.00270191	0.00254361	0.00193540	0.00444487	0.00207698	0.00404907	0.00086802	0.00441273	0.00120641
0.51000000	0.00322490	0.00556481	0.00139618	0.00302668	0.00221358	0.00716855	0.00405343	0.00645712	0.00267805	0.00138485	0.00167647	0.01189320	0.00679153	0.00708204	0.00320707	0.00300336	0.00326409	0.00553208	0.00335805	0.00255455	0.00195123	0.00505791	0.00267860	0.00425061	0.00136733	0.00450915	0.00088492
0.52000000	0.00322667	0.00494498	0.00146149	0.00305208	0.00221073	0.00770965	0.00392045	0.00701625	0.00270472	0.00123093	0.00178726	0.01104266	0.00670611	0.00575286	0.00262458	0.00250376	0.00284781	0.00630462	0.00365789	0.00279332	0.00214556	0.00548726	0.00287326	0.00461777	0.00085208	0.00460365	0.00066669
0.53000000	0.00319835	0.00480504	0.00161110	0.00300075	0.00220743	0.00844635	0.00419930	0.00732396	0.00268129	0.00108642	0.00165236	0.01048783	0.00659340	0.00450780	0.00216159	0.00206533	0.00231139	0.00677715	0.00410195	0.00283625	0.00227591	0.00589593	0.00325967	0.00475916	0.00087614	0.00468690	0.00046191
0.54000000	0.00316094	0.00473628	0.00182829	0.00300516	0.00227707	0.00920500	0.00455376	0.00768574	0.00264713	0.00094699	0.00149841	0.00995171	0.00656836	0.00319143	0.00168978	0.00167328	0.00182528	0.00724865	0.00451271	0.00285397	0.00239390	0.00625363	0.00365534	0.00496453	0.00103970	0.00476483	0.00031824
0.55000000	0.00313082	0.00447469	0.00205568	0.00306443	0.00239164	0.00986036	0.00474574	0.00822054	0.00258365	0.00092316	0.00137139	0.00963656	0.00673474	0.00223854	0.00134709	0.00132684	0.00137899	0.00767620	0.00491726	0.00290778	0.00252063	0.00662879	0.00397629	0.00509258	0.00114385	0.00479469	0.00029866
0.56000000	0.00309096	0.00434430	0.00233335	0.00318464	0.00257437	0.01049714	0.00505920	0.00864415	0.00252807	0.00089132	0.00118854	0.00972663	0.00695870	0.00256753	0.00101303	0.00098598	0.00106012	0.00797760	0.00527618	0.00291988	0.00265142	0.00693383	0.00435554	0.00516356	0.00132809	0.00481564	0.00040998
0.57000000	0.00322935	0.00418741	0.00261096	0.00329260	0.00275903	0.01102250	0.00508522	0.00918381	0.00247951	0.00100850	0.00108499	0.01015868	0.00718881	0.00420539	0.00093441	0.00096997	0.00090285	0.00829469	0.00555199	0.00294640	0.00271261	0.00715408	0.00447019	0.00526465	0.00137334	0.00485254	0.00039617
0.58000000	0.00300149	0.00493596	0.00313094	0.00354870	0.00315528	0.01155030	0.00572835	0.00924754	0.00241304	0.00080648	0.00075632	0.01117791	0.00747152	0.00553030	0.00095387	0.00066755	0.00121908	0.00826987	0.00603282	0.00286016	0.00266937	0.00740217	0.00470250	0.00505676	0.00185259	0.00483526	0.00089771
0.59000000	0.00309948	0.00453001	0.00306404	0.00341948	0.00305193	0.01181980	0.00538330	0.00961098	0.00238910	0.00112457	0.00088710	0.01177043	0.00761564	0.00793501	0.00121495	0.00188346	0.00121609	0.00854105	0.00607164	0.00294375	0.00282560	0.00754078	0.00482598	0.00522085	0.00166484	0.00485145	0.00058206
0.60000000	0.00287176	0.00506314	0.00328142	0.00347211	0.00319035	0.01207038	0.00616086	0.00945749	0.00223733	0.00085193	0.00109493	0.01289049	0.00792972	0.00884886	0.00169758	0.00143656	0.00209601	0.00850760	0.00646554	0.00296204	0.00274696	0.00777496	0.00483516	0.00490251	0.00201704	0.00486151	0.00110696
0.61000000	0.00285633	0.00453476	0.00336137	0.00344361	0.00321841	0.01200772	0.00563032	0.00968126	0.00237905	0.00116572	0.00075554	0.01317503	0.00795129	0.01072795	0.00201186	0.00260826	0.00179456	0.00826294	0.00627876	0.00286014	0.00287114	0.00756929	0.00493371	0.00502184	0.00184077	0.00474574	0.00067333
0.62000000	0.00264409	0.00438591	0.00351919	0.00351307	0.00333078	0.01186365	0.00583819	0.00953378	0.00237329	0.00105981	0.00061928	0.01379287	0.00800502	0.01124065	0.00246807	0.00242041	0.00203167	0.00790600	0.00632902	0.00279742	0.00281859	0.00745567	0.00475474	0.00471945	0.00191640	0.00469373	0.00078648
0.63000000	0.00241798	0.00410614	0.00338272	0.00326522	0.00314711	0.01159348	0.00556514	0.00927632	0.00256432	0.00109717	0.00078382	0.01334940	0.00793372	0.01187917	0.00306522	0.00275459	0.00247626	0.00751131	0.00623531	0.00269891	0.00284208	0.00730479	0.00480582	0.00470625	0.00192137	0.00454017	0.00066598
0.64000000	0.00216823	0.00373569	0.00326170	0.00307211	0.00300017	0.01107609	0.00551982	0.00907055	0.00275862	0.00137223	0.00106639	0.01297687	0.00740777	0.01207992	0.00348545	0.00290364	0.00292455	0.00700503	0.00620318	0.00272557	0.00275663	0.00713923	0.00459605	0.00417162	0.00209488	0.00452431	0.00097572
0.65000000	0.00204890	0.00313538	0.00305264	0.00287233	0.00279218	0.01054998	0.00532223	0.00867037	0.00289377	0.00128606	0.00091638	0.01221903	0.00741129	0.01173430	0.00384890	0.00264393	0.00296124	0.00659481	0.00594507	0.00267721	0.00271322	0.00681928	0.00399945	0.00405040	0.00179538	0.00443321	0.00069069
0.66000000	0.00174469	0.00334509	0.00290403	0.00264513	0.00261824	0.01017485	0.00523317	0.00767091	0.00307657	0.00125182	0.00097093	0.01095410	0.00721716	0.01122861	0.00401400	0.00247636	0.00300671	0.00575519	0.00580270	0.00245856	0.00265768	0.00651987	0.00404691	0.00394087	0.00185057	0.00409897	0.00073072
0.67000000	0.00177502	0.00280441	0.00259076	0.00234712	0.00233441	0.00942311	0.00479813	0.00707335	0.00318351	0.00133813	0.00103866	0.00943444	0.00690398	0.01104532	0.00390526	0.00247356	0.00294975	0.00517166	0.00543380	0.00248668	0.00263119	0.00614163	0.00359985	0.00367970	0.00166189	0.00395149	0.00060978
0.68000000	0.00174739	0.00252383	0.00227207	0.00205489	0.00205583	0.00871783	0.00445358	0.00600345	0.00312195	0.00145056	0.00088896	0.00786589	0.00660160	0.01070311	0.00358307	0.00239121	0.00265710	0.00452986	0.00515833	0.00240551	0.00258098	0.00580151	0.00326392	0.00345314	0.00155636	0.00379674	0.00054723
0.69000000	0.00219992	0.00215311	0.00227898	0.00203325	0.00210310	0.00759523	0.00299480	0.00519745	0.00325511	0.00256594	0.00257127	0.00606357	0.00595943	0.01069228	0.00288146	0.00322280	0.00328534	0.00392248	0.00464720	0.00254403	0.00263356	0.00537412	0.00287317	0.00299578	0.00141573	0.00373294	0.00044689
0.70000000	0.00182077	0.00260164	0.00207106	0.00193199	0.00190748	0.00699944	0.00366585	0.00324615	0.00257112	0.00213188	0.00103622	0.00615170	0.00582186	0.00893417	0.00222267	0.00202363	0.00150474	0.00300931	0.00454243	0.00214598	0.00247916	0.00486902	0.00258971	0.00275567	0.00126291	0.00335976	0.00036146
0.71000000	0.00230496	0.00211038	0.00195498	0.00173994	0.00181374	0.00580431	0.00314444	0.00183100	0.00216656	0.00262477	0.00212330	0.00479210	0.00553797	0.00885854	0.00157510	0.00196254	0.00157861	0.00269707	0.00410265	0.00221552	0.00254402	0.00447709	0.00231274	0.00262981	0.00094817	0.00327258	0.00020425
0.72000000	0.00241256	0.00229290	0.00198723	0.00178511	0.00184890	0.00577431	0.00319900	0.00180285	0.00142518	0.00309574	0.00200521	0.00391048	0.00507964	0.00828221	0.00084627	0.00198562	0.00148545	0.00192897	0.00377098	0.00198109	0.00248992	0.00399394	0.00235580	0.00243935	0.00087629	0.00295529	0.00023289
0.73000000	0.00247179	0.00273158	0.00207476	0.00178365	0.00187694	0.00648352	0.00349682	0.00335655	0.00126775	0.00369918	0.00298392	0.00391130	0.00473685	0.00726740	0.00044121	0.00170699	0.00097448	0.00137242	0.00340087	0.00189215	0.00248297	0.00353872	0.00245215	0.00214875	0.00077134	0.00277011	0.00028030
0.74000000	0.00298163	0.00293781	0.00224835	0.00181319	0.00199043	0.00721824	0.00341606	0.00565968	0.00170243	0.00404921	0.00348225	0.00384887	0.00424252	0.00688672	0.00028161	0.00172543	0.00102078	0.00102005	0.00300615	0.00184628	0.00254132	0.00314430	0.00272177	0.00203711	0.00063098	0.00257175	0.00035149
0.75000000	0.00340492	0.00333475	0.00240223	0.00182326	0.00206867	0.00858135	0.00340644	0.00815373	0.00246174	0.00430508	0.00372415	0.00409402	0.00370868	0.00639938	0.00035095	0.00167916	0.00086064	0.00073847	0.00269059	0.00176816	0.00257375	0.00281472	0.00304203	0.00187474	0.00055666	0.00242809	0.00049293
0.76000000	0.00413433	0.00371058	0.00266127	0.00188655	0.00224071	0.01008729	0.00342083	0.01060482	0.00294668	0.00440835	0.00397347	0.00485095	0.00334048	0.00572979	0.00063644	0.00150640	0.00066238	0.00058769	0.00235687	0.00175514	0.00263777	0.00256674	0.00334517	0.00169750	0.00053258	0.00228883	0.00065904
0.77000000	0.00389463	0.00427960	0.00270116	0.00182756	0.00220256	0.01194331	0.00334558	0.01291538	0.00390399	0.00435785	0.00329295	0.00512280	0.00280322	0.00551051	0.00071203	0.00158334	0.00050867	0.00049567	0.00216045	0.00165818	0.00259156	0.00237657	0.00354425	0.00161249	0.00057132	0.00209561	0.00074184
0.78000000	0.00417368	0.00462634	0.00277524	0.00179457	0.00224205	0.01340282	0.00315286	0.01494077	0.00426010	0.00432518	0.00285693	0.00588563	0.00244361	0.00527741	0.00119653	0.00166221	0.00027657	0.00049033	0.00202859	0.00160041	0.00258798	0.00230037	0.00375198	0.00149748	0.00055540	0.00200323	0.00084882
0.79000000	0.00405088	0.00452236	0.00285188	0.00170560	0.00225710	0.01490520	0.00317835	0.01654466	0.00464130	0.00437686	0.00232024	0.00613217	0.00241860	0.00547113	0.00133252	0.00170928	0.00008567	0.00050781	0.00194249	0.00156757	0.00251482	0.00227971	0.00371751	0.00139539	0.00074678	0.00191640	0.00081526
0.80000000	0.00423847	0.00495519	0.00291627	0.00168192	0.00229990	0.01553651	0.00294360	0.01766318	0.00467259	0.00426346	0.00181245	0.00682166	0.00225386	0.00585809	0.00169089	0.00183791	0.00008063	0.00048382	0.00181359	0.00150593	0.00253380	0.00220649	0.00386142	0.00136567	0.00070459	0.00185279	0.00094964
0.81000000	0.00427894	0.00519106	0.00287573	0.00162142	0.00227432	0.01578327	0.00276654	0.01836236	0.00443995	0.00415424	0.00152329	0.00751521	0.00233612	0.00637316	0.00203958	0.00192463	0.00014524	0.00049170	0.00171113	0.00140774	0.00254771	0.00220429	0.00398833	0.00137155	0.00075661	0.00177562	0.00103919
0.82000000	0.00422433	0.00538114	0.00283097	0.00156715	0.00224126	0.01563245	0.00269123	0.01860457	0.00409721	0.00404168	0.00137025	0.00810120	0.00258510	0.00703737	0.00222926	0.00199333	0.00016751	0.00052204	0.00158223	0.00132337	0.00256005	0.00217919	0.00406541	0.00129245	0.00084055	0.00179001	0.00114192
0.83000000	0.00394252	0.00552251	0.00276997	0.00144199	0.00216127	0.01516197	0.00270373	0.01854189	0.00361928	0.00404014	0.00127077	0.00843110	0.00288746	0.00778610	0.00224650	0.00207823	0.00020536	0.00039523	0.00164856	0.00124306	0.00247987	0.00223155	0.00401561	0.00129807	0.00095842	0.00175213	0.00116362
0.84000000	0.00371697	0.00556717	0.00271708	0.00130810	0.00206094	0.01447584	0.00275044	0.01823987	0.00298704	0.00407484	0.00150113	0.00860560	0.00331334	0.00841622	0.00217731	0.00211448	0.00028179	0.00034703	0.00160408	0.00113778	0.00242921	0.00223378	0.00400013	0.00133917	0.00108795	0.00171079	0.00122188
0.85000000	0.00349242	0.00543799	0.00269052	0.00121012	0.00200421	0.01386038	0.00301800	0.01764915	0.00230103	0.00406439	0.00184183	0.00872583	0.00369870	0.00889076	0.00207980	0.00212558	0.00019510	0.00033346	0.00154283	0.00104724	0.00238286	0.00221546	0.00397135	0.00138095	0.00120575	0.00172478	0.00133326
0.86000000	0.00282873	0.00526118	0.00261779	0.00100070	0.00180031	0.01356750	0.00335975	0.01706946	0.00180789	0.00429872	0.00193876	0.00854122	0.00419410	0.00876056	0.00183037	0.00205013	0.00016085	0.00029503	0.00155798	0.00099403	0.00220756	0.00221534	0.00376298	0.00125275	0.00135162	0.00175858	0.00124342
0.87000000	0.00290615	0.00500372	0.00264618	0.00087263	0.00175432	0.01298540	0.00376680	0.01642230	0.00118810	0.00427109	0.00278463	0.00830652	0.00431339	0.00891601	0.00171094	0.00208258	0.00022854	0.00029079	0.00128241	0.00088998	0.00228176	0.00202652	0.00384834	0.00145461	0.00135945	0.00178917	0.00157817
0.88000000	0.00258903	0.00471288	0.00269203	0.00087469	0.00170748	0.01299865	0.00425559	0.01585856	0.00081118	0.00431904	0.00283466	0.00802796	0.00441750	0.00837875	0.00159253	0.00194441	0.00029421	0.00038257	0.00121396	0.00086580	0.00212767	0.00193614	0.00356087	0.00136581	0.00145216	0.00179945	0.00148828
0.89000000	0.00268270	0.00446646	0.00275821	0.00075425	0.00170447	0.01290325	0.00481768	0.01536432	0.00051636	0.00425077	0.00335728	0.00767868	0.00436066	0.00801417	0.00143063	0.00194427	0.00035535	0.00040340	0.00094411	0.00080175	0.00210136	0.00172002	0.00345460	0.00167742	0.00153712	0.00172613	0.00173478
0.90000000	0.00287534	0.00420990	0.00287678	0.00087559	0.00171769	0.01312049	0.00532663	0.01498454	0.00058787	0.00433766	0.00326980	0.00733349	0.00427959	0.00732689	0.00136952	0.00182911	0.00044022	0.00060494	0.00064286	0.00076761	0.00205906	0.00150843	0.00325620	0.00143956	0.00151125	0.00186998	0.00182490
0.91000000	0.00307131	0.00428812	0.00280197	0.00096153	0.00161274	0.01331529	0.00554766	0.01484897	0.00083354	0.00509069	0.00394156	0.00686082	0.00422826	0.00689644	0.00112572	0.00191364	0.00102142	0.00072892	0.00052931	0.00058453	0.00213674	0.00122168	0.00324092	0.00212486	0.00128475	0.00177405	0.00257418
0.92000000	0.00362840	0.00424073	0.00302528	0.00062340	0.00177301	0.01391650	0.00630557	0.01462709	0.00078241	0.00449084	0.00304926	0.00683407	0.00406895	0.00637935	0.00101480	0.00178485	0.00089639	0.00096839	0.00019231	0.00087931	0.00176079	0.00137594	0.00262389	0.00240050	0.00200275	0.00140642	0.00230683
0.93000000	0.00377036	0.00400477	0.00323052	0.00090640	0.00184215	0.01400929	0.00653571	0.01456426	0.00088757	0.00450466	0.00285766	0.00669988	0.00396639	0.00612476	0.00119664	0.00158278	0.00069289	0.00099651	0.00078385	0.00086164	0.00197377	0.00118970	0.00265093	0.00147356	0.00165179	0.00188077	0.00252562
0.94000000	0.00416248	0.00407572	0.00318174	0.00076275	0.00177160	0.01455292	0.00659871	0.01445582	0.00132168	0.00488345	0.00258750	0.00669166	0.00398442	0.00593670	0.00106736	0.00161699	0.00073957	0.00120095	0.00110977	0.00094551	0.00184450	0.00140079	0.00233153	0.00187684	0.00167623	0.00161910	0.00285051
0.95000000	0.00438622	0.00395878	0.00344454	0.00090348	0.00192735	0.01468254	0.00686074	0.01410901	0.00127567	0.00469390	0.00268992	0.00689690	0.00427076	0.00577036	0.00111045	0.00134566	0.00084657	0.00133167	0.00165727	0.00099594	0.00186418	0.00159292	0.00223337	0.00140025	0.00174316	0.00179496	0.00311834
0.96000000	0.00508314	0.00424849	0.00335644	0.00066709	0.00190208	0.01515599	0.00645715	0.01349658	0.00173883	0.00507156	0.00232402	0.00707995	0.00426041	0.00592942	0.00105331	0.00142810	0.00090302	0.00165761	0.00196031	0.00116303	0.00162385	0.00205357	0.00180352	0.00203211	0.00198912	0.00128256	0.00330473
0.97000000	0.00542312	0.00398152	0.00354805	0.00065364	0.00192823	0.01496686	0.00627033	0.01258590	0.00169435	0.00486756	0.00278071	0.00745504	0.00462033	0.00602149	0.00103054	0.00132017	0.00084986	0.00170103	0.00242679	0.00123274	0.00167327	0.00228704	0.00186059	0.00158499	0.00202527	0.00147617	0.00358533
0.98000000	0.00503803	0.00426833	0.00360368	0.00070993	0.00204583	0.01443760	0.00606270	0.01136115	0.00160331	0.00443983	0.00234918	0.00769442	0.00455370	0.00656373	0.00121251	0.00142337	0.00078659	0.00177523	0.00305375	0.00136303	0.00177041	0.00265581	0.00197481	0.00136535	0.00236290	0.00147093	0.00376551
0.99000000	0.00557636	0.00418063	0.00353885	0.00050425	0.00196154	0.01405286	0.00521163	0.00995705	0.00160158	0.00427074	0.00273744	0.00824489	0.00491331	0.00652255	0.00109779	0.00133566	0.00080491	0.00200438	0.00337137	0.00144419	0.00168444	0.00306007	0.00203214	0.00149124	0.00236939	0.00123374	0.00402869
1.00000000	0.00571567	0.00407389	0.00352818	0.00042034	0.00194193	0.01328215	0.00456281	0.00836698	0.00145554	0.00390020	0.00298210	0.00877077	0.00515819	0.00666745	0.00112420	0.00129457	0.00092140	0.00217688	0.00378872	0.00154289	0.00166975	0.00344221	0.00216579	0.00148075	0.00260556	0.00111813	0.00418289
1.01000000	0.00594676	0.00417866	0.00337517	0.00029986	0.00190092	0.01246836	0.00367525	0.00678039	0.00131231	0.00339327	0.00297433	0.00932591	0.00529661	0.00675156	0.00106942	0.00130756	0.00098171	0.00246231	0.00403973	0.00162801	0.00158803	0.00385894	0.00232594	0.00182084	0.00278767	0.00067447	0.00427453
1.02000000	0.00505794	0.00412946	0.00319545	0.00022020	0.00179078	0.01095562	0.00351077	0.00548239	0.00121275	0.00286533	0.00265086	0.00950172	0.00523066	0.00745324	0.00113555	0.00159505	0.00071515	0.00255102	0.00452323	0.00170260	0.00166751	0.00419696	0.00245882	0.00161662	0.00290619	0.00070504	0.00453376
1.03000000	0.00643861	0.00452155	0.00251591	0.00073575	0.00154926	0.00999252	0.00216889	0.00473708	0.00201850	0.00321913	0.00145163	0.00992195	0.00502873	0.00761402	0.00142608	0.00166087	0.00126793	0.00321502	0.00485068	0.00185270	0.00139592	0.00485294	0.00235366	0.00219660	0.00271225	0.00066458	0.00476530
1.04000000	0.00478688	0.00397471	0.00281092	0.00043685	0.00156502	0.00847527	0.00272321	0.00255800	0.00115306	0.00232227	0.00238761	0.01024872	0.00554067	0.00779357	0.00106317	0.00169784	0.00066809	0.00291121	0.00504641	0.00179766	0.00168222	0.00483700	0.00285534	0.00190472	0.00315288	0.00032807	0.00477795
1.05000000	0.00533976	0.00360857	0.00256001	0.00086265	0.00145156	0.00756949	0.00244021	0.00136677	0.00128527	0.00252924	0.00233853	0.01076034	0.00607356	0.00740803	0.00101358	0.00147735	0.00081984	0.00317208	0.00511501	0.00183310	0.00165078	0.00514100	0.00309312	0.00223169	0.00319495	0.00032505	0.00482980
1.06000000	0.00463583	0.00371987	0.00249592	0.00079492	0.00146846	0.00686653	0.00247817	0.00217958	0.00138433	0.00275859	0.00216366	0.01094028	0.00626218	0.00765305	0.00096159	0.00151779	0.00085353	0.00321205	0.00533858	0.00185878	0.00170058	0.00530992	0.00325823	0.00235375	0.00352334	0.00014963	0.00477575
1.07000000	0.00466989	0.00351878	0.00224697	0.00107671	0.00136233	0.00709264	0.00262372	0.00360303	0.00156649	0.00311675	0.00194740	0.01089104	0.00634950	0.00782198	0.00089642	0.00163423	0.00074823	0.00339603	0.00548651	0.00182344	0.00169011	0.00552675	0.00340864	0.00255531	0.00342871	0.00025473	0.00496589
1.08000000	0.00491420	0.00333069	0.00209436	0.00124603	0.00133974	0.00783465	0.00294711	0.00514081	0.00173648	0.00347128	0.00194083	0.01098654	0.00668973	0.00757727	0.00082657	0.00160750	0.00084783	0.00358178	0.00554274	0.00182095	0.00167409	0.00572029	0.00357204	0.00284064	0.00348263	0.00045781	0.00497927
1.09000000	0.00502158	0.00324753	0.00198859	0.00134105	0.00133055	0.00886671	0.00336593	0.00647439	0.00189501	0.00365760	0.00193581	0.01093151	0.00688157	0.00741461	0.00079636	0.00153833	0.00101767	0.00373598	0.00557996	0.00182193	0.00163530	0.00585895	0.00363965	0.00309048	0.00355533	0.00061757	0.00495399
1.10000000	0.00492842	0.00340857	0.00189791	0.00145475	0.00137940	0.00984282	0.00359740	0.00749918	0.00197499	0.00366370	0.00196850	0.01074881	0.00690025	0.00718361	0.00079794	0.00156468	0.00107521	0.00376134	0.00552378	0.00179644	0.00164809	0.00587285	0.00372095	0.00322295	0.00348722	0.00060000	0.00501921
1.11000000	0.00532846	0.00352442	0.00173876	0.00151642	0.00136121	0.01039360	0.00421387	0.00772054	0.00225711	0.00305264	0.00228064	0.01047683	0.00682421	0.00696153	0.00089264	0.00144680	0.00165598	0.00383790	0.00550129	0.00180832	0.00166132	0.00596737	0.00385944	0.00351208	0.00296199	0.00079494	0.00538831
1.12000000	0.00548756	0.00363549	0.00171784	0.00149147	0.00138343	0.01042449	0.00421407	0.00782906	0.00249834	0.00243658	0.00287894	0.01026895	0.00671519	0.00660572	0.00110334	0.00140872	0.00197886	0.00398497	0.00539174	0.00185782	0.00154656	0.00601116	0.00373070	0.00382903	0.00276980	0.00117737	0.00552103
1.13000000	0.00458138	0.00349752	0.00176299	0.00148163	0.00144058	0.01027864	0.00412162	0.00783924	0.00301868	0.00292762	0.00276610	0.01012730	0.00685209	0.00577045	0.00123628	0.00137159	0.00128598	0.00373944	0.00511518	0.00170608	0.00150694	0.00569692	0.00358404	0.00360034	0.00344335	0.00074411	0.00497129
1.14000000	0.00382921	0.00347636	0.00175348	0.00134727	0.00138289	0.00987674	0.00388451	0.00776910	0.00339679	0.00267744	0.00313026	0.00981674	0.00653842	0.00511839	0.00137713	0.00126549	0.00138986	0.00360072	0.00491925	0.00166524	0.00150400	0.00555701	0.00353439	0.00355943	0.00352324	0.00071660	0.00489988
1.15000000	0.00329178	0.00368211	0.00173010	0.00130720	0.00141866	0.00923073	0.00370577	0.00794064	0.00365858	0.00261981	0.00333533	0.00943969	0.00613454	0.00435666	0.00150327	0.00115082	0.00130076	0.00342690	0.00471531	0.00164216	0.00145946	0.00538008	0.00334780	0.00346486	0.00354403	0.00049800	0.00486112
1.16000000	0.00325983	0.00360509	0.00171142	0.00130756	0.00145990	0.00846741	0.00372182	0.00817788	0.00366750	0.00266672	0.00331823	0.00918524	0.00579633	0.00305963	0.00155093	0.00091677	0.00118026	0.00336477	0.00436313	0.00157809	0.00140486	0.00526515	0.00324965	0.00347233	0.00357081	0.00047175	0.00475708
1.17000000	0.00258712	0.00395728	0.00164885	0.00129953	0.00149627	0.00783985	0.00357283	0.00899288	0.00337685	0.00312555	0.00407215	0.00864096	0.00515929	0.00226828	0.00164986	0.00154588	0.00099193	0.00302510	0.00432088	0.00164651	0.00140397	0.00508468	0.00297392	0.00317889	0.00337625	0.00041837	0.00490476
1.18000000	0.00282451	0.00383108	0.00167248	0.00142179	0.00162724	0.00699623	0.00408085	0.00964057	0.00282018	0.00312709	0.00338334	0.00830953	0.00540382	0.00068353	0.00170038	0.00090908	0.00032537	0.00290452	0.00381048	0.00150360	0.00130014	0.00487754	0.00277576	0.00308348	0.00350079	0.00031802	0.00471324
1.19000000	0.00266921	0.00371677	0.00159986	0.00141481	0.00161854	0.00652217	0.00447533	0.01019652	0.00216741	0.00318415	0.00351469	0.00780840	0.00555025	0.00112017	0.00164698	0.00145116	0.00047340	0.00273995	0.00355701	0.00143363	0.00118171	0.00474122	0.00250414	0.00295797	0.00346398	0.00017779	0.00464597
1.20000000	0.00252331	0.00366192	0.00156084	0.00153816	0.00167951	0.00604547	0.00479910	0.01072828	0.00146886	0.00331817	0.00376239	0.00722118	0.00596790	0.00266637	0.00180356	0.00203537	0.00105951	0.00248204	0.00330076	0.00137289	0.00110048	0.00456369	0.00222393	0.00271227	0.00344296	0.00012226	0.00458284
1.21000000	0.00243669	0.00350803	0.00151288	0.00167735	0.00172127	0.00562063	0.00499760	0.01094598	0.00097924	0.00343250	0.00388169	0.00664257	0.00657003	0.00436614	0.00206191	0.00265183	0.00165272	0.00221614	0.00303328	0.00129313	0.00102992	0.00437945	0.00196856	0.00244365	0.00334052	0.00022769	0.00456008
1.22000000	0.00201745	0.00329170	0.00146060	0.00181082	0.00176356	0.00529313	0.00476595	0.01086560	0.00080288	0.00357193	0.00397991	0.00639163	0.00727335	0.00571839	0.00253834	0.00328278	0.00230075	0.00186389	0.00288712	0.00125590	0.00095686	0.00418503	0.00168419	0.00209909	0.00330782	0.00045654	0.00451349
1.23000000	0.00239180	0.00311389	0.00135873	0.00195556	0.00174214	0.00492484	0.00464932	0.01002191	0.00077726	0.00337691	0.00347009	0.00572921	0.00774362	0.00797185	0.00293473	0.00374009	0.00213008	0.00173712	0.00256947	0.00107555	0.00086156	0.00403887	0.00149128	0.00192316	0.00315414	0.00050131	0.00446702
1.24000000	0.00223568	0.00281893	0.00132231	0.00207486	0.00176592	0.00480761	0.00398050	0.00911057	0.00073622	0.00331186	0.00308446	0.00579455	0.00812205	0.00959847	0.00356869	0.00405035	0.00197417	0.00147049	0.00236766	0.00098135	0.00076722	0.00381899	0.00124649	0.00165299	0.00307353	0.00065176	0.00438584
1.25000000	0.00217416	0.00258081	0.00131123	0.00219666	0.00182153	0.00511477	0.00296123	0.00807857	0.00070425	0.00319078	0.00287445	0.00720418	0.00855144	0.01034427	0.00452649	0.00431793	0.00227188	0.00112615	0.00221484	0.00090866	0.00064061	0.00355161	0.00096612	0.00135907	0.00306784	0.00087681	0.00428016
1.26000000	0.00233949	0.00236121	0.00133618	0.00228331	0.00187100	0.00561042	0.00198581	0.00732537	0.00082140	0.00301083	0.00261700	0.00872061	0.00876090	0.01116031	0.00546307	0.00448898	0.00258374	0.00089116	0.00193955	0.00089424	0.00058724	0.00329204	0.00071657	0.00112180	0.00302435	0.00115570	0.00412235
1.27000000	0.00248406	0.00175019	0.00120661	0.00214642	0.00169129	0.00609503	0.00170374	0.00685034	0.00110797	0.00320673	0.00166129	0.00851826	0.00806694	0.01334519	0.00575854	0.00459767	0.00159047	0.00095564	0.00175331	0.00074997	0.00039202	0.00321452	0.00049201	0.00115691	0.00271591	0.00114799	0.00404027
1.28000000	0.00251310	0.00205641	0.00119692	0.00216702	0.00169775	0.00723625	0.00137047	0.00706368	0.00120525	0.00307565	0.00185334	0.01070243	0.00818178	0.01317097	0.00670903	0.00440055	0.00246681	0.00087792	0.00157744	0.00069105	0.00036274	0.00285421	0.00043401	0.00090295	0.00271063	0.00150139	0.00391084
1.29000000	0.00284986	0.00192895	0.00119942	0.00202738	0.00156553	0.00807570	0.00140747	0.00766758	0.00126439	0.00329918	0.00137287	0.01110818	0.00759595	0.01445595	0.00684067	0.00457103	0.00301481	0.00096111	0.00124594	0.00055618	0.00032935	0.00268338	0.00036166	0.00097435	0.00241810	0.00149749	0.00374817
1.30000000	0.00309808	0.00230116	0.00119299	0.00197567	0.00150720	0.00911805	0.00144841	0.00869324	0.00119078	0.00344643	0.00157458	0.01220501	0.00738708	0.01475501	0.00719691	0.00465744	0.00372951	0.00101139	0.00105209	0.00052534	0.00030554	0.00243300	0.00046589	0.00101282	0.00232158	0.00165609	0.00353747
1.31000000	0.00332161	0.00258759	0.00115598	0.00188602	0.00141262	0.01005501	0.00186063	0.00971402	0.00105355	0.00345763	0.00164027	0.01285541	0.00722299	0.01524515	0.00721081	0.00483464	0.00439117	0.00103395	0.00086610	0.00046194	0.00032825	0.00224518	0.00057038	0.00105611	0.00215362	0.00177491	0.00335149
1.32000000	0.00364068	0.00293339	0.00106384	0.00195471	0.00133236	0.01076185	0.00287478	0.01083491	0.00079314	0.00358421	0.00110166	0.01308401	0.00740908	0.01554494	0.00687074	0.00527834	0.00579964	0.00106196	0.00099392	0.00040945	0.00018757	0.00203284	0.00030064	0.00107718	0.00281640	0.00207835	0.00296864
1.33000000	0.00296516	0.00249806	0.00097984	0.00172626	0.00126684	0.01092149	0.00290594	0.01145521	0.00078920	0.00337257	0.00185525	0.01352866	0.00758523	0.01608542	0.00654267	0.00499392	0.00546045	0.00099114	0.00059977	0.00038705	0.00034137	0.00191813	0.00062004	0.00110666	0.00229268	0.00208377	0.00278358
1.34000000	0.00318357	0.00278897	0.00074844	0.00158666	0.00104062	0.01050881	0.00341365	0.01176832	0.00055968	0.00322125	0.00183820	0.01309813	0.00760163	0.01675951	0.00600110	0.00539295	0.00614605	0.00100442	0.00060004	0.00031182	0.00032266	0.00178329	0.00048829	0.00117507	0.00240282	0.00211086	0.00254520
1.35000000	0.00354392	0.00310978	0.00097593	0.00169246	0.00114700	0.00983189	0.00351386	0.01111195	0.00075150	0.00305790	0.00212943	0.01339988	0.00813878	0.01683875	0.00575198	0.00511929	0.00611775	0.00082968	0.00027735	0.00037091	0.00045409	0.00156506	0.00076957	0.00126323	0.00140700	0.00213968	0.00252292
1.36000000	0.00323129	0.00312621	0.00074934	0.00151833	0.00096511	0.00878720	0.00382935	0.01052310	0.00070797	0.00297499	0.00183117	0.01267002	0.00840526	0.01734648	0.00507615	0.00521545	0.00646774	0.00076109	0.00024579	0.00020510	0.00047591	0.00142528	0.00067242	0.00133556	0.00181799	0.00214082	0.00213810
1.37000000	0.00310527	0.00304603	0.00090438	0.00188795	0.00126599	0.00808816	0.00313819	0.00947279	0.00100531	0.00264345	0.00206321	0.01294599	0.00928521	0.01652434	0.00490536	0.00461665	0.00597676	0.00064562	0.00023564	0.00039079	0.00036230	0.00116651	0.00057544	0.00136254	0.00134233	0.00228775	0.00208205
1.38000000	0.00288770	0.00302736	0.00075688	0.00168652	0.00110670	0.00689063	0.00329957	0.00844404	0.00097405	0.00252867	0.00176459	0.01222914	0.00951334	0.01666631	0.00439540	0.00456327	0.00600117	0.00053106	0.00034792	0.00034762	0.00042848	0.00104537	0.00060312	0.00138679	0.00160315	0.00230167	0.00173321
1.39000000	0.00266330	0.00276226	0.00099963	0.00187479	0.00130323	0.00606520	0.00332771	0.00751882	0.00092426	0.00226643	0.00194150	0.01215682	0.01012988	0.01586567	0.00424054	0.00415248	0.00545842	0.00039556	0.00051621	0.00050683	0.00046359	0.00089923	0.00065008	0.00126950	0.00095628	0.00247442	0.00170739
1.40000000	0.00261270	0.00275878	0.00122888	0.00208268	0.00150702	0.00551641	0.00331431	0.00685518	0.00092316	0.00222876	0.00200276	0.01190012	0.01058283	0.01494342	0.00405250	0.00376797	0.00484726	0.00020665	0.00062365	0.00060514	0.00048018	0.00088719	0.00059309	0.00137040	0.00090287	0.00252384	0.00151148
1.41000000	0.00256808	0.00304351	0.00118563	0.00193831	0.00142403	0.00515492	0.00334419	0.00638309	0.00096583	0.00222627	0.00179625	0.01152875	0.01068937	0.01431555	0.00382087	0.00360608	0.00453009	0.00013279	0.00089636	0.00062245	0.00056072	0.00095431	0.00068545	0.00150355	0.00116382	0.00250627	0.00119849
1.42000000	0.00246955	0.00273285	0.00158653	0.00219935	0.00173747	0.00513187	0.00294512	0.00629854	0.00116289	0.00220209	0.00203460	0.01128542	0.01090986	0.01292841	0.00380164	0.00323022	0.00389878	0.00026572	0.00101805	0.00082920	0.00050952	0.00116852	0.00054592	0.00161001	0.00090590	0.00262753	0.00105047
1.43000000	0.00249277	0.00303676	0.00163763	0.00211082	0.00170324	0.00538105	0.00326158	0.00611740	0.00127368	0.00202700	0.00192900	0.01094849	0.01069605	0.01193345	0.00364914	0.00318493	0.00359990	0.00044089	0.00129882	0.00093082	0.00061039	0.00142680	0.00064731	0.00158708	0.00084220	0.00273926	0.00084565
1.44000000	0.00243627	0.00317593	0.00177204	0.00210275	0.00176364	0.00571469	0.00343195	0.00624647	0.00141899	0.00199199	0.00196904	0.01057893	0.01042763	0.01071135	0.00353795	0.00306942	0.00330409	0.00072852	0.00157927	0.00105337	0.00069751	0.00176257	0.00077179	0.00167468	0.00071679	0.00284991	0.00067914
1.45000000	0.00235466	0.00332379	0.00186342	0.00207423	0.00181166	0.00607474	0.00340259	0.00654328	0.00161836	0.00200707	0.00196483	0.01020422	0.00999526	0.00942331	0.00346891	0.00292372	0.00296553	0.00106343	0.00189474	0.00119717	0.00078548	0.00216965	0.00094170	0.00182505	0.00062483	0.00292226	0.00046771
1.46000000	0.00235048	0.00409939	0.00177974	0.00192288	0.00173942	0.00651671	0.00362484	0.00675026	0.00175326	0.00201308	0.00180817	0.00995761	0.00927005	0.00818755	0.00344429	0.00295331	0.00268892	0.00144129	0.00232625	0.00127359	0.00093934	0.00263165	0.00131314	0.00192572	0.00083648	0.00309306	0.00046319
1.47000000	0.00216685	0.00380925	0.00195586	0.00195380	0.00183761	0.00700176	0.00372958	0.00692598	0.00191748	0.00191549	0.00194640	0.00960239	0.00881783	0.00671413	0.00312851	0.00261613	0.00259285	0.00188417	0.00257055	0.00146887	0.00099784	0.00305934	0.00150331	0.00216409	0.00048734	0.00315472	0.00023681
1.48000000	0.00209800	0.00400900	0.00194989	0.00188464	0.00181619	0.00740687	0.00368904	0.00713320	0.00203396	0.00184929	0.00195160	0.00935700	0.00819336	0.00537528	0.00288997	0.00233599	0.00230293	0.00233039	0.00290842	0.00162387	0.00110685	0.00353358	0.00179842	0.00235489	0.00035584	0.00323959	0.00028155
1.49000000	0.00210335	0.00476901	0.00176898	0.00174549	0.00168480	0.00784826	0.00387443	0.00717425	0.00213052	0.00182761	0.00178442	0.00923231	0.00736946	0.00426031	0.00263171	0.00211516	0.00195879	0.00272067	0.00335583	0.00167675	0.00128059	0.00399291	0.00223164	0.00254524	0.00055142	0.00332162	0.00065221
1.50000000	0.00187924	0.00421665	0.00189681	0.00168851	0.00169308	0.00819376	0.00385078	0.00738156	0.00219190	0.00176352	0.00186151	0.00910124	0.00711827	0.00298259	0.00220049	0.00176032	0.00185813	0.00324983	0.00358102	0.00185912	0.00131708	0.00440763	0.00244998	0.00276748	0.00038963	0.00343537	0.00050798
1.51000000	0.00186290	0.00423761	0.00186123	0.00158072	0.00161773	0.00851461	0.00366957	0.00752547	0.00228514	0.00172211	0.00181178	0.00907799	0.00674667	0.00207829	0.00176289	0.00138450	0.00150106	0.00372364	0.00387670	0.00198607	0.00139885	0.00481480	0.00273931	0.00299147	0.00041648	0.00350727	0.00060166
1.52000000	0.00176643	0.00419858	0.00179427	0.00139753	0.00145183	0.00888778	0.00388733	0.00749922	0.00228143	0.00162696	0.00172512	0.00921104	0.00663376	0.00155295	0.00129196	0.00103944	0.00130279	0.00412498	0.00419253	0.00204969	0.00150548	0.00515942	0.00305257	0.00314862	0.00060421	0.00357829	0.00073336
1.53000000	0.00172102	0.00438917	0.00172389	0.00122668	0.00127245	0.00925376	0.00422661	0.00738357	0.00225819	0.00153110	0.00163421	0.00949913	0.00664565	0.00154303	0.00073555	0.00076178	0.00107620	0.00443433	0.00449702	0.00205470	0.00164487	0.00543878	0.00341568	0.00325847	0.00084073	0.00365279	0.00090613
1.54000000	0.00182413	0.00415174	0.00176168	0.00112581	0.00121757	0.00942633	0.00375974	0.00764782	0.00237916	0.00156181	0.00156251	0.00979161	0.00676844	0.00270859	0.00060368	0.00073166	0.00096130	0.00488433	0.00473250	0.00217424	0.00164593	0.00577388	0.00358846	0.00347185	0.00092728	0.00370018	0.00093316
1.55000000	0.00181977	0.00397074	0.00182567	0.00104785	0.00115701	0.00970888	0.00417295	0.00766006	0.00225732	0.00142291	0.00142843	0.01035030	0.00703428	0.00396082	0.00060505	0.00092502	0.00081689	0.00511890	0.00490901	0.00217137	0.00175201	0.00593714	0.00389954	0.00358079	0.00112553	0.00373464	0.00102774
1.56000000	0.00183091	0.00382781	0.00191967	0.00110156	0.00118184	0.00985448	0.00437369	0.00781175	0.00225133	0.00136282	0.00127443	0.01105409	0.00731114	0.00537258	0.00086202	0.00129905	0.00075329	0.00531291	0.00510189	0.00215875	0.00182787	0.00609388	0.00415963	0.00362062	0.00131356	0.00380204	0.00112717
1.57000000	0.00174124	0.00448830	0.00218889	0.00147218	0.00153205	0.01009601	0.00466297	0.00773598	0.00221012	0.00132060	0.00114798	0.01191127	0.00751366	0.00661852	0.00122446	0.00154113	0.00084698	0.00532066	0.00533535	0.00205333	0.00195394	0.00614916	0.00445796	0.00360304	0.00159898	0.00380407	0.00132780
1.58000000	0.00210094	0.00357089	0.00228130	0.00159951	0.00160183	0.01010574	0.00478674	0.00803928	0.00226997	0.00132471	0.00110105	0.01254544	0.00771814	0.00848708	0.00146401	0.00221194	0.00087596	0.00549069	0.00533579	0.00212857	0.00189160	0.00623002	0.00450466	0.00366527	0.00161332	0.00385568	0.00121209
1.59000000	0.00227830	0.00443001	0.00254408	0.00209417	0.00203828	0.01017843	0.00524814	0.00803950	0.00227825	0.00107234	0.00094992	0.01328062	0.00799084	0.00932645	0.00193578	0.00208069	0.00185727	0.00534873	0.00557585	0.00203471	0.00201813	0.00624838	0.00474217	0.00365077	0.00189877	0.00375889	0.00138457
1.60000000	0.00228292	0.00482915	0.00288555	0.00257353	0.00247242	0.01018645	0.00553305	0.00797023	0.00230794	0.00091955	0.00082611	0.01385800	0.00808845	0.01030687	0.00228460	0.00221223	0.00218767	0.00514108	0.00567981	0.00190539	0.00205210	0.00614573	0.00485316	0.00362517	0.00211114	0.00373737	0.00147318
1.61000000	0.00228706	0.00399317	0.00283348	0.00228987	0.00230976	0.01016991	0.00479199	0.00782344	0.00242336	0.00122880	0.00095584	0.01311550	0.00814195	0.01196269	0.00267873	0.00346437	0.00145201	0.00524368	0.00546086	0.00209498	0.00194978	0.00619116	0.00483775	0.00355185	0.00195454	0.00379611	0.00125231
1.62000000	0.00230384	0.00395098	0.00302269	0.00260881	0.00257863	0.01002536	0.00505979	0.00762382	0.00239099	0.00120941	0.00093963	0.01313381	0.00802942	0.01224353	0.00300095	0.00334700	0.00170352	0.00489098	0.00542009	0.00197825	0.00197881	0.00599608	0.00489306	0.00347008	0.00206427	0.00373549	0.00123013
1.63000000	0.00229685	0.00359876	0.00310863	0.00275688	0.00270470	0.00982258	0.00506371	0.00746517	0.00243497	0.00124138	0.00090884	0.01285655	0.00779273	0.01221552	0.00334175	0.00329651	0.00191829	0.00448039	0.00526222	0.00199317	0.00204882	0.00578399	0.00488690	0.00331588	0.00204016	0.00359296	0.00115844
1.64000000	0.00210462	0.00326954	0.00298767	0.00264214	0.00259409	0.00951813	0.00497161	0.00728485	0.00256039	0.00143071	0.00097211	0.01210099	0.00707387	0.01219368	0.00363513	0.00349953	0.00233600	0.00386966	0.00530478	0.00178174	0.00228852	0.00549757	0.00514695	0.00314121	0.00230343	0.00339386	0.00143889
1.65000000	0.00199634	0.00268259	0.00314677	0.00289012	0.00280827	0.00926709	0.00475528	0.00664821	0.00264196	0.00201874	0.00122907	0.01147691	0.00685260	0.01133591	0.00388339	0.00347151	0.00261758	0.00346207	0.00485560	0.00178646	0.00206966	0.00517806	0.00473938	0.00293206	0.00201299	0.00355238	0.00098056
1.66000000	0.00206578	0.00225266	0.00287208	0.00267531	0.00257531	0.00895958	0.00439777	0.00635075	0.00270792	0.00164331	0.00105047	0.01013406	0.00677446	0.01035954	0.00413647	0.00268933	0.00265158	0.00308225	0.00479028	0.00180919	0.00203453	0.00500653	0.00442680	0.00274727	0.00199818	0.00338655	0.00102449
1.67000000	0.00167286	0.00223171	0.00274757	0.00258538	0.00248472	0.00865145	0.00402308	0.00551218	0.00281636	0.00181694	0.00100391	0.00873422	0.00627411	0.00952623	0.00417337	0.00258660	0.00271221	0.00256638	0.00464862	0.00176152	0.00211552	0.00473925	0.00423351	0.00247061	0.00199519	0.00319460	0.00099577
1.68000000	0.00147509	0.00193342	0.00260443	0.00250521	0.00239162	0.00805141	0.00315517	0.00491735	0.00291402	0.00229300	0.00164235	0.00753207	0.00561891	0.00886424	0.00405346	0.00283932	0.00277646	0.00203468	0.00432603	0.00170053	0.00207704	0.00439358	0.00388661	0.00220355	0.00186319	0.00314763	0.00085032
1.69000000	0.00109605	0.00177012	0.00241641	0.00234349	0.00223444	0.00768306	0.00323367	0.00387742	0.00262535	0.00206958	0.00069001	0.00614360	0.00537467	0.00836041	0.00375469	0.00248802	0.00232468	0.00151717	0.00416231	0.00161383	0.00217034	0.00407655	0.00356589	0.00206471	0.00180114	0.00285989	0.00082498
1.70000000	0.00092831	0.00200959	0.00226336	0.00235705	0.00217477	0.00703321	0.00317024	0.00280322	0.00234841	0.00222565	0.00049619	0.00556454	0.00501461	0.00763894	0.00335354	0.00229542	0.00184586	0.00108131	0.00397162	0.00142899	0.00222540	0.00366475	0.00316415	0.00183955	0.00177731	0.00263349	0.00082148
1.71000000	0.00100003	0.00168342	0.00210970	0.00221735	0.00205600	0.00610429	0.00300543	0.00196386	0.00195356	0.00256273	0.00079918	0.00487906	0.00476228	0.00770943	0.00280351	0.00237404	0.00154525	0.00089751	0.00365481	0.00134645	0.00214306	0.00332646	0.00256298	0.00179529	0.00159063	0.00238367	0.00069402
1.72000000	0.00159183	0.00146238	0.00190402	0.00209211	0.00192734	0.00497576	0.00342374	0.00129292	0.00156040	0.00287709	0.00179829	0.00456342	0.00473802	0.00787420	0.00235640	0.00233263	0.00131410	0.00093715	0.00329615	0.00125278	0.00211576	0.00299403	0.00209852	0.00151882	0.00142425	0.00226974	0.00058882
1.73000000	0.00154114	0.00213342	0.00183072	0.00211490	0.00189911	0.00483637	0.00351257	0.00305561	0.00135883	0.00347622	0.00243966	0.00470300	0.00472253	0.00747415	0.00169370	0.00230520	0.00093050	0.00138727	0.00310152	0.00106176	0.00219271	0.00254720	0.00151902	0.00144557	0.00133959	0.00188868	0.00052558
1.74000000	0.00193814	0.00257103	0.00179170	0.00206324	0.00186595	0.00521284	0.00383872	0.00466043	0.00207308	0.00401212	0.00337189	0.00493056	0.00467457	0.00745373	0.00132092	0.00217538	0.00054815	0.00169987	0.00273228	0.00084261	0.00213384	0.00219801	0.00104397	0.00120568	0.00116932	0.00180011	0.00049887
1.75000000	0.00268265	0.00273218	0.00182823	0.00196431	0.00186560	0.00603968	0.00392290	0.00698010	0.00281899	0.00432184	0.00399684	0.00518175	0.00455862	0.00771794	0.00113844	0.00222358	0.00058545	0.00185894	0.00237059	0.00079893	0.00198903	0.00208023	0.00047893	0.00116533	0.00094018	0.00158995	0.00026861
1.76000000	0.00315089	0.00322048	0.00189382	0.00193647	0.00189164	0.00785426	0.00402795	0.00951202	0.00378991	0.00450643	0.00425238	0.00553555	0.00452851	0.00758585	0.00103618	0.00216039	0.00052111	0.00209333	0.00207385	0.00071211	0.00193989	0.00192611	0.00029807	0.00115631	0.00079795	0.00132678	0.00026422
1.77000000	0.00365323	0.00387016	0.00200001	0.00187500	0.00192668	0.00987856	0.00399469	0.01203114	0.00464363	0.00463659	0.00405209	0.00588276	0.00427885	0.00754059	0.00107351	0.00216938	0.00036722	0.00216718	0.00189036	0.00055917	0.00185239	0.00189397	0.00060419	0.00102432	0.00071296	0.00123006	0.00021247
1.78000000	0.00416823	0.00434990	0.00209084	0.00183465	0.00197199	0.01185430	0.00397692	0.01451951	0.00500133	0.00457469	0.00370403	0.00641553	0.00403265	0.00737625	0.00129789	0.00215732	0.00034460	0.00224658	0.00167519	0.00055261	0.00180159	0.00191985	0.00091014	0.00101263	0.00066338	0.00103280	0.00020962
1.79000000	0.00426447	0.00494433	0.00225514	0.00184940	0.00206406	0.01376966	0.00387439	0.01650652	0.00554022	0.00437813	0.00304962	0.00675901	0.00381152	0.00727248	0.00142038	0.00213958	0.00020168	0.00228337	0.00151085	0.00049508	0.00176509	0.00192168	0.00110994	0.00100323	0.00060213	0.00087276	0.00020057
1.80000000	0.00464775	0.00526805	0.00234184	0.00192434	0.00217173	0.01525373	0.00377080	0.01792952	0.00555064	0.00444273	0.00247695	0.00738366	0.00366175	0.00722547	0.00177733	0.00213958	0.00030778	0.00217885	0.00136778	0.00046895	0.00166747	0.00203546	0.00130502	0.00096200	0.00063790	0.00078865	0.00031715
1.81000000	0.00457949	0.00579054	0.00241615	0.00190578	0.00221167	0.01606802	0.00359896	0.01902419	0.00538106	0.00426322	0.00191680	0.00768761	0.00340323	0.00749674	0.00189736	0.00222674	0.00034865	0.00209818	0.00135198	0.00047229	0.00166351	0.00208643	0.00136994	0.00099533	0.00066985	0.00067725	0.00028936
1.82000000	0.00448308	0.00607527	0.00232558	0.00191279	0.00215747	0.01617727	0.00350468	0.01980268	0.00500253	0.00427253	0.00141844	0.00796530	0.00361122	0.00762392	0.00185630	0.00216231	0.00024624	0.00209032	0.00142047	0.00059357	0.00174049	0.00209565	0.00130240	0.00106953	0.00068049	0.00055088	0.00024412
1.83000000	0.00463060	0.00616445	0.00227672	0.00202383	0.00221045	0.01622262	0.00342254	0.01975731	0.00424383	0.00431519	0.00145067	0.00832879	0.00358844	0.00817869	0.00205629	0.00224435	0.00039305	0.00187600	0.00138416	0.00060942	0.00165225	0.00223848	0.00134662	0.00110197	0.00078669	0.00051722	0.00033073
1.84000000	0.00431351	0.00604938	0.00198845	0.00205399	0.00205715	0.01567045	0.00346893	0.01994658	0.00359139	0.00456052	0.00141394	0.00849612	0.00416874	0.00825869	0.00189019	0.00214014	0.00019146	0.00182671	0.00153009	0.00081932	0.00174306	0.00230306	0.00122816	0.00115238	0.00084339	0.00050011	0.00027878
1.85000000	0.00442571	0.00618714	0.00189124	0.00210050	0.00203040	0.01530760	0.00361162	0.01961684	0.00276255	0.00469882	0.00190506	0.00855708	0.00425310	0.00877908	0.00177219	0.00222409	0.00031596	0.00169263	0.00149208	0.00090291	0.00172173	0.00237499	0.00119871	0.00123467	0.00084667	0.00046801	0.00037122
1.86000000	0.00442797	0.00605103	0.00171013	0.00212742	0.00195031	0.01507395	0.00395263	0.01936631	0.00197886	0.00483754	0.00259925	0.00857756	0.00444028	0.00905856	0.00166146	0.00223009	0.00039442	0.00160475	0.00143839	0.00100415	0.00172590	0.00244628	0.00114516	0.00136390	0.00083877	0.00055658	0.00056236
1.87000000	0.00473140	0.00597561	0.00159513	0.00222343	0.00192849	0.01473066	0.00437892	0.01931702	0.00113646	0.00498167	0.00349383	0.00838594	0.00456378	0.00932123	0.00144940	0.00227651	0.00033749	0.00144716	0.00135946	0.00107030	0.00167765	0.00251730	0.00113030	0.00139360	0.00090038	0.00049068	0.00071562
1.88000000	0.00499314	0.00582381	0.00153906	0.00235106	0.00194482	0.01450619	0.00477801	0.01935909	0.00078293	0.00529908	0.00438068	0.00813253	0.00461193	0.00935741	0.00126289	0.00231725	0.00031535	0.00126453	0.00131334	0.00109458	0.00162498	0.00257959	0.00111670	0.00137469	0.00117796	0.00056401	0.00082753
1.89000000	0.00493456	0.00559196	0.00133890	0.00235299	0.00181201	0.01473186	0.00534763	0.01944357	0.00065467	0.00538581	0.00487669	0.00784346	0.00459512	0.00905557	0.00115723	0.00224872	0.00042954	0.00134022	0.00116780	0.00115403	0.00167057	0.00252817	0.00101369	0.00153015	0.00114870	0.00054930	0.00105452
1.90000000	0.00531342	0.00528890	0.00099551	0.00247740	0.00160300	0.01562041	0.00598499	0.01912775	0.00093506	0.00549027	0.00470444	0.00763193	0.00474505	0.00824624	0.00106468	0.00198079	0.00034631	0.00160365	0.00094700	0.00127239	0.00170990	0.00240902	0.00092886	0.00158907	0.00075717	0.00063316	0.00107806
1.91000000	0.00509362	0.00545682	0.00089517	0.00265458	0.00164769	0.01557909	0.00628353	0.01939410	0.00109694	0.00626672	0.00557188	0.00702183	0.00477062	0.00804442	0.00065508	0.00232399	0.00057746	0.00166172	0.00033902	0.00139501	0.00162536	0.00248146	0.00099760	0.00182384	0.00100811	0.00090751	0.00189466
1.92000000	0.00534848	0.00504831	0.00083425	0.00263797	0.00152918	0.01590791	0.00672163	0.01933821	0.00096213	0.00550827	0.00462115	0.00699779	0.00441819	0.00756914	0.00089318	0.00188994	0.00022518	0.00182769	0.00050432	0.00136254	0.00173648	0.00240342	0.00078721	0.00181913	0.00115091	0.00058527	0.00170587
1.93000000	0.00592686	0.00500733	0.00077919	0.00275197	0.00142313	0.01637346	0.00718232	0.01883627	0.00104238	0.00533534	0.00390598	0.00694012	0.00435961	0.00710987	0.00097537	0.00170885	0.00030614	0.00205228	0.00069619	0.00136108	0.00167981	0.00252458	0.00079259	0.00172617	0.00103676	0.00067605	0.00171291
1.94000000	0.00599335	0.00493857	0.00080309	0.00279901	0.00136666	0.01645597	0.00736123	0.01858614	0.00109529	0.00524615	0.00345371	0.00697506	0.00434395	0.00671164	0.00098914	0.00154017	0.00039141	0.00232829	0.00096695	0.00138196	0.00173428	0.00263194	0.00091082	0.00183727	0.00112186	0.00061312	0.00198812
1.95000000	0.00554325	0.00511578	0.00081383	0.00265043	0.00132079	0.01664894	0.00728868	0.01815760	0.00141759	0.00541364	0.00276372	0.00704199	0.00423653	0.00649270	0.00092628	0.00156776	0.00055997	0.00277139	0.00118546	0.00156836	0.00191843	0.00265076	0.00111335	0.00229301	0.00168706	0.00038233	0.00216681
1.96000000	0.00602536	0.00505798	0.00099961	0.00278887	0.00133755	0.01626683	0.00733483	0.01697041	0.00140465	0.00498777	0.00245607	0.00726596	0.00421718	0.00666917	0.00109459	0.00145633	0.00040613	0.00284163	0.00187664	0.00144971	0.00177946	0.00308637	0.00131108	0.00192123	0.00162903	0.00049108	0.00240214
1.97000000	0.00563580	0.00508805	0.00102806	0.00261336	0.00133593	0.01609813	0.00676677	0.01574857	0.00178090	0.00512229	0.00197502	0.00773081	0.00432058	0.00646009	0.00104865	0.00145861	0.00068110	0.00331352	0.00214750	0.00159928	0.00204736	0.00323121	0.00184007	0.00234732	0.00192224	0.00038978	0.00257183
1.98000000	0.00595806	0.00476084	0.00112828	0.00268549	0.00135054	0.01536744	0.00626741	0.01397237	0.00168086	0.00473216	0.00228588	0.00830613	0.00464327	0.00643516	0.00106714	0.00129504	0.00085816	0.00357336	0.00257128	0.00169123	0.00218243	0.00355489	0.00228009	0.00229390	0.00193881	0.00047877	0.00282783
1.99000000	0.00587320	0.00466799	0.00123677	0.00264424	0.00137240	0.01436634	0.00566662	0.01171068	0.00157561	0.00431935	0.00254262	0.00883289	0.00484239	0.00674386	0.00115844	0.00128178	0.00103350	0.00379962	0.00320666	0.00162740	0.00217958	0.00396007	0.00264196	0.00237272	0.00201768	0.00029338	0.00307449
2.00000000	0.00517333	0.00480035	0.00124454	0.00251703	0.00144509	0.01292645	0.00495088	0.00956264	0.00146941	0.00369322	0.00196672	0.00913858	0.00491024	0.00754918	0.00121208	0.00162753	0.00053782	0.00409652	0.00387352	0.00175742	0.00212225	0.00441374	0.00277762	0.00232955	0.00243600	0.00019561	0.00315001
2.01000000	0.00519446	0.00456338	0.00122439	0.00247756	0.00145417	0.01173036	0.00393135	0.00715430	0.00141450	0.00334508	0.00257972	0.00986713	0.00537136	0.00758687	0.00122757	0.00147302	0.00085010	0.00440832	0.00428559	0.00183299	0.00229903	0.00474709	0.00330446	0.00257933	0.00241040	0.00039062	0.00341642
2.02000000	0.00539046	0.00453915	0.00121503	0.00241050	0.00152427	0.01040953	0.00275516	0.00515455	0.00144522	0.00314100	0.00266888	0.01054604	0.00557998	0.00775797	0.00117268	0.00164411	0.00115987	0.00475473	0.00459457	0.00197589	0.00253570	0.00503827	0.00383872	0.00291118	0.00248516	0.00084394	0.00354446
2.03000000	0.00660905	0.00503767	0.00149100	0.00219573	0.00173500	0.00933489	0.00142136	0.00377699	0.00240496	0.00353014	0.00162405	0.01110975	0.00552881	0.00801826	0.00157510	0.00158784	0.00148861	0.00538359	0.00501710	0.00226449	0.00274673	0.00545315	0.00416725	0.00347735	0.00264147	0.00157166	0.00374210
2.04000000	0.00439561	0.00450697	0.00113936	0.00242349	0.00162021	0.00791101	0.00237923	0.00196877	0.00142999	0.00259070	0.00287222	0.01132591	0.00591012	0.00864339	0.00143807	0.00181344	0.00108614	0.00512976	0.00544560	0.00229079	0.00255262	0.00568630	0.00423499	0.00304243	0.00272994	0.00095779	0.00388334
2.05000000	0.00434716	0.00445061	0.00121444	0.00237156	0.00169400	0.00714727	0.00206380	0.00162223	0.00134608	0.00227550	0.00264565	0.01185052	0.00638944	0.00847543	0.00128096	0.00167595	0.00105029	0.00536141	0.00573251	0.00238967	0.00271406	0.00590116	0.00457317	0.00333469	0.00281323	0.00128834	0.00384183
2.06000000	0.00350317	0.00436815	0.00120985	0.00229904	0.00170824	0.00688911	0.00210878	0.00272814	0.00138574	0.00245323	0.00218618	0.01181921	0.00638240	0.00912558	0.00131819	0.00193762	0.00084828	0.00548220	0.00615707	0.00246800	0.00267463	0.00612595	0.00463703	0.00340632	0.00305563	0.00151467	0.00383322
2.07000000	0.00439478	0.00428162	0.00151573	0.00249994	0.00198997	0.00717632	0.00211660	0.00369813	0.00158790	0.00269863	0.00179081	0.01221355	0.00680006	0.00856617	0.00115237	0.00180813	0.00089445	0.00564629	0.00617999	0.00261407	0.00288831	0.00620924	0.00503762	0.00376642	0.00284117	0.00175876	0.00400678
2.08000000	0.00363583	0.00400959	0.00153917	0.00254743	0.00203537	0.00797147	0.00217342	0.00506081	0.00184681	0.00320959	0.00194104	0.01214985	0.00683741	0.00885586	0.00119068	0.00195495	0.00106126	0.00558964	0.00642720	0.00266185	0.00285449	0.00630520	0.00513336	0.00378157	0.00294781	0.00170115	0.00410158
2.09000000	0.00438975	0.00413174	0.00180076	0.00270617	0.00225754	0.00856093	0.00250208	0.00575143	0.00196560	0.00351304	0.00161220	0.01219806	0.00709807	0.00837409	0.00093590	0.00181209	0.00070361	0.00564600	0.00654017	0.00270100	0.00293566	0.00637477	0.00537625	0.00400350	0.00291332	0.00194090	0.00417676
2.10000000	0.00361612	0.00412059	0.00177430	0.00269963	0.00224515	0.00931154	0.00238644	0.00629754	0.00206146	0.00364826	0.00168085	0.01185228	0.00701661	0.00853267	0.00080775	0.00186131	0.00068047	0.00557833	0.00672423	0.00269353	0.00283408	0.00637948	0.00534404	0.00405564	0.00302691	0.00187479	0.00425672
2.11000000	0.00411845	0.00448305	0.00185833	0.00266892	0.00229188	0.00932253	0.00306681	0.00605670	0.00232507	0.00341304	0.00158068	0.01139626	0.00689026	0.00851526	0.00066240	0.00189281	0.00157823	0.00549242	0.00686335	0.00253994	0.00291100	0.00646112	0.00572561	0.00423155	0.00259203	0.00210796	0.00471143
2.12000000	0.00349052	0.00392942	0.00188161	0.00286917	0.00238348	0.00901108	0.00290433	0.00609248	0.00234161	0.00351245	0.00198666	0.01141715	0.00728426	0.00785629	0.00059747	0.00165876	0.00058000	0.00535950	0.00675460	0.00263519	0.00285807	0.00628342	0.00553038	0.00419226	0.00302671	0.00197235	0.00434754
2.13000000	0.00324140	0.00409432	0.00198663	0.00298525	0.00249798	0.00832536	0.00284223	0.00560148	0.00243060	0.00326604	0.00272479	0.01099436	0.00717521	0.00764100	0.00064463	0.00181875	0.00091763	0.00517854	0.00676638	0.00260112	0.00279919	0.00620112	0.00540869	0.00417243	0.00266601	0.00186976	0.00455370
2.14000000	0.00254521	0.00411813	0.00200242	0.00308363	0.00255151	0.00744957	0.00294055	0.00510236	0.00268319	0.00301286	0.00306939	0.01059416	0.00704257	0.00734316	0.00083293	0.00175979	0.00078413	0.00490582	0.00675803	0.00252130	0.00265825	0.00607267	0.00522383	0.00403888	0.00274857	0.00165675	0.00458543
2.15000000	0.00246935	0.00441054	0.00203586	0.00304697	0.00253948	0.00653691	0.00274703	0.00451183	0.00274913	0.00251107	0.00264466	0.01031259	0.00669853	0.00629388	0.00104257	0.00129949	0.00117051	0.00480161	0.00635380	0.00252418	0.00281078	0.00591015	0.00543716	0.00410061	0.00305394	0.00165360	0.00437997
2.16000000	0.00183030	0.00467705	0.00205978	0.00307625	0.00257406	0.00550010	0.00276118	0.00471741	0.00262794	0.00250438	0.00320888	0.00985123	0.00621066	0.00589985	0.00127620	0.00132890	0.00115849	0.00454005	0.00639847	0.00241797	0.00261643	0.00584714	0.00511673	0.00391327	0.00305446	0.00144406	0.00443334
2.17000000	0.00142218	0.00498152	0.00216653	0.00312827	0.00267006	0.00457896	0.00293342	0.00522311	0.00236091	0.00250025	0.00375549	0.00943925	0.00580359	0.00524400	0.00142043	0.00122419	0.00117109	0.00425756	0.00635641	0.00231265	0.00247825	0.00577621	0.00486077	0.00370406	0.00304443	0.00122713	0.00446539
2.18000000	0.00121678	0.00532383	0.00228533	0.00314949	0.00276053	0.00387509	0.00316838	0.00591709	0.00194155	0.00275151	0.00452449	0.00903730	0.00533193	0.00436542	0.00154033	0.00131204	0.00105690	0.00399531	0.00629465	0.00221808	0.00233776	0.00572785	0.00459391	0.00348648	0.00298681	0.00103191	0.00454254
2.19000000	0.00109615	0.00541560	0.00237393	0.00304414	0.00279003	0.00334956	0.00365385	0.00649994	0.00166607	0.00303979	0.00460049	0.00889100	0.00519673	0.00298629	0.00153639	0.00099552	0.00084859	0.00388595	0.00585906	0.00216334	0.00245083	0.00556018	0.00460913	0.00344313	0.00315783	0.00102262	0.00436685
2.20000000	0.00101267	0.00566149	0.00244799	0.00293608	0.00281155	0.00280029	0.00409058	0.00719428	0.00157713	0.00328814	0.00514968	0.00851724	0.00511040	0.00155044	0.00154453	0.00095169	0.00049085	0.00375523	0.00566120	0.00212187	0.00242124	0.00553163	0.00442823	0.00328840	0.00305901	0.00087619	0.00439247
2.21000000	0.00070497	0.00596290	0.00258222	0.00297679	0.00293720	0.00214308	0.00433843	0.00809750	0.00164842	0.00348411	0.00544722	0.00784708	0.00508439	0.00065495	0.00162996	0.00139474	0.00053198	0.00345969	0.00569273	0.00196591	0.00223809	0.00556297	0.00414097	0.00297267	0.00299992	0.00065662	0.00449018
2.22000000	0.00088815	0.00617046	0.00264390	0.00295300	0.00297389	0.00139673	0.00448341	0.00848915	0.00178332	0.00364183	0.00545739	0.00708984	0.00537449	0.00112092	0.00172816	0.00206519	0.00144879	0.00319389	0.00575650	0.00185397	0.00200881	0.00561720	0.00378153	0.00265684	0.00303370	0.00045499	0.00457811
2.23000000	0.00115796	0.00518271	0.00251693	0.00282901	0.00284502	0.00102094	0.00388628	0.00854794	0.00171668	0.00356664	0.00542320	0.00677328	0.00628686	0.00279974	0.00210070	0.00241383	0.00188448	0.00308189	0.00538800	0.00176125	0.00207100	0.00545136	0.00369400	0.00253653	0.00319262	0.00060534	0.00432441
2.24000000	0.00203231	0.00531751	0.00250836	0.00275204	0.00276193	0.00140151	0.00359668	0.00804633	0.00146266	0.00327770	0.00445186	0.00594547	0.00695939	0.00376095	0.00243943	0.00311031	0.00277643	0.00285861	0.00541752	0.00176868	0.00184015	0.00552348	0.00331342	0.00222541	0.00320512	0.00027814	0.00446959
2.25000000	0.00219640	0.00343330	0.00223575	0.00250788	0.00248679	0.00196715	0.00247133	0.00758847	0.00111993	0.00315967	0.00403764	0.00580280	0.00787503	0.00589309	0.00299703	0.00320439	0.00266079	0.00284146	0.00480137	0.00181663	0.00204756	0.00523276	0.00330250	0.00217940	0.00304474	0.00028737	0.00421206
2.26000000	0.00239643	0.00286375	0.00210878	0.00236573	0.00231598	0.00327029	0.00181939	0.00690619	0.00071097	0.00278065	0.00332841	0.00568796	0.00855700	0.00686923	0.00344794	0.00371278	0.00320560	0.00268762	0.00457943	0.00187039	0.00199122	0.00517576	0.00312968	0.00196380	0.00300984	0.00017950	0.00419570
2.27000000	0.00262440	0.00210816	0.00189269	0.00211324	0.00204089	0.00438531	0.00104242	0.00669635	0.00060449	0.00270124	0.00288369	0.00587343	0.00897505	0.00802300	0.00401884	0.00398209	0.00317725	0.00253622	0.00441741	0.00191552	0.00188545	0.00508963	0.00286655	0.00176951	0.00304273	0.00020888	0.00406045
2.28000000	0.00288559	0.00199957	0.00190555	0.00179771	0.00178932	0.00537399	0.00113834	0.00674048	0.00073098	0.00286952	0.00202650	0.00491288	0.00870963	0.01011993	0.00398281	0.00379934	0.00215553	0.00253462	0.00415845	0.00203814	0.00182440	0.00498850	0.00265449	0.00172786	0.00276325	0.00016169	0.00408765
2.29000000	0.00289204	0.00230201	0.00185216	0.00167607	0.00165268	0.00659794	0.00104508	0.00737310	0.00096830	0.00292214	0.00193312	0.00581471	0.00866823	0.01083993	0.00429646	0.00370335	0.00202720	0.00236511	0.00393498	0.00207409	0.00172868	0.00481003	0.00249758	0.00157886	0.00273458	0.00012356	0.00401264
2.30000000	0.00259099	0.00279832	0.00181135	0.00160939	0.00157272	0.00785636	0.00123417	0.00833449	0.00109534	0.00289314	0.00212293	0.00760315	0.00872569	0.01084975	0.00486111	0.00379592	0.00255189	0.00215794	0.00377440	0.00202278	0.00157825	0.00460673	0.00235591	0.00137291	0.00283183	0.00035095	0.00389528
2.31000000	0.00238674	0.00329851	0.00174497	0.00149979	0.00145697	0.00877968	0.00152507	0.00946703	0.00112858	0.00295693	0.00239667	0.00882410	0.00856833	0.01142369	0.00504583	0.00380951	0.00268319	0.00201800	0.00356450	0.00193986	0.00147646	0.00431095	0.00227214	0.00128110	0.00270928	0.00051966	0.00380887
2.32000000	0.00238743	0.00361346	0.00186978	0.00144794	0.00143061	0.00939878	0.00211094	0.01032013	0.00111834	0.00302203	0.00241199	0.00957292	0.00823924	0.01239076	0.00495695	0.00385289	0.00282453	0.00193316	0.00328991	0.00194393	0.00141181	0.00400961	0.00218254	0.00123843	0.00248392	0.00062374	0.00369851
2.33000000	0.00213700	0.00375796	0.00189529	0.00138990	0.00133503	0.00975394	0.00291203	0.01106736	0.00104716	0.00301385	0.00235570	0.01048302	0.00824333	0.01308527	0.00479832	0.00390824	0.00337017	0.00182762	0.00307567	0.00189034	0.00128534	0.00374987	0.00211836	0.00113592	0.00254340	0.00081542	0.00353581
2.34000000	0.00230846	0.00393364	0.00220074	0.00132070	0.00136868	0.00952856	0.00337847	0.01116755	0.00107862	0.00294516	0.00245570	0.01081773	0.00799763	0.01441477	0.00462531	0.00413199	0.00385835	0.00174535	0.00272089	0.00197202	0.00126864	0.00341045	0.00206422	0.00121559	0.00220949	0.00078896	0.00343684
2.35000000	0.00171865	0.00385624	0.00217314	0.00119653	0.00118850	0.00905028	0.00398924	0.01124825	0.00104659	0.00292724	0.00229569	0.01125488	0.00828087	0.01531400	0.00429439	0.00428147	0.00458750	0.00165973	0.00258992	0.00182270	0.00109978	0.00314934	0.00200441	0.00113801	0.00240465	0.00101510	0.00323538
2.36000000	0.00157834	0.00410287	0.00238199	0.00120080	0.00117630	0.00815697	0.00396813	0.01062583	0.00124528	0.00278289	0.00264656	0.01169109	0.00854949	0.01621615	0.00425546	0.00444580	0.00494180	0.00156450	0.00230541	0.00177033	0.00104753	0.00278519	0.00199242	0.00120791	0.00197160	0.00103544	0.00318821
2.37000000	0.00126321	0.00432679	0.00241449	0.00124859	0.00101090	0.00728003	0.00386148	0.00974447	0.00132807	0.00259838	0.00246240	0.01205114	0.00912368	0.01668458	0.00407598	0.00441015	0.00519595	0.00147597	0.00212818	0.00159574	0.00088351	0.00245127	0.00191739	0.00116112	0.00189836	0.00119102	0.00308349
2.38000000	0.00085201	0.00406945	0.00249275	0.00108368	0.00085042	0.00605932	0.00403368	0.00878154	0.00127435	0.00255543	0.00220837	0.01183201	0.00943574	0.01742324	0.00380713	0.00459050	0.00557863	0.00144177	0.00195062	0.00147489	0.00078482	0.00222820	0.00192680	0.00110692	0.00209811	0.00138466	0.00280285
2.39000000	0.00073776	0.00396327	0.00253896	0.00101632	0.00069407	0.00492015	0.00411114	0.00771304	0.00123189	0.00253570	0.00202947	0.01175697	0.00988615	0.01773952	0.00362518	0.00456512	0.00574416	0.00136922	0.00167521	0.00143067	0.00078801	0.00198741	0.00203090	0.00130911	0.00238158	0.00140031	0.00244726
2.40000000	0.00094196	0.00431719	0.00235511	0.00161724	0.00050725	0.00414728	0.00369376	0.00667538	0.00130014	0.00235228	0.00260418	0.01229415	0.01061934	0.01684071	0.00381259	0.00434351	0.00533385	0.00118867	0.00172846	0.00112625	0.00053293	0.00167079	0.00178347	0.00113954	0.00142174	0.00165858	0.00272374
2.41000000	0.00128195	0.00432362	0.00224935	0.00180748	0.00035049	0.00352657	0.00343362	0.00586323	0.00137501	0.00230570	0.00257774	0.01230262	0.01102750	0.01623861	0.00385642	0.00426553	0.00516536	0.00117610	0.00153021	0.00095048	0.00040320	0.00143637	0.00170315	0.00114847	0.00141452	0.00183862	0.00259003
2.42000000	0.00145110	0.00400556	0.00215098	0.00177924	0.00020439	0.00334961	0.00362974	0.00528342	0.00138030	0.00236196	0.00226575	0.01223992	0.01110898	0.01580300	0.00386384	0.00428951	0.00510059	0.00111141	0.00129975	0.00088849	0.00040905	0.00127822	0.00178767	0.00124448	0.00171165	0.00198838	0.00223003
2.43000000	0.00157099	0.00400850	0.00195936	0.00186662	0.00028739	0.00354633	0.00390707	0.00496199	0.00142729	0.00243010	0.00217865	0.01227439	0.01114711	0.01508556	0.00392772	0.00429132	0.00497848	0.00113025	0.00119120	0.00078818	0.00042891	0.00115796	0.00191159	0.00145281	0.00186948	0.00209647	0.00199062
2.44000000	0.00155366	0.00441200	0.00176464	0.00182745	0.00037244	0.00402946	0.00432935	0.00500195	0.00144838	0.00281244	0.00195057	0.01246038	0.01078770	0.01442494	0.00402440	0.00475403	0.00514859	0.00132397	0.00114667	0.00073055	0.00041695	0.00117565	0.00202750	0.00167360	0.00242862	0.00254596	0.00174556
2.45000000	0.00185452	0.00410125	0.00161068	0.00229386	0.00084870	0.00420576	0.00445905	0.00490598	0.00162370	0.00236369	0.00263831	0.01225817	0.01076616	0.01302051	0.00396277	0.00431873	0.00473538	0.00156677	0.00120559	0.00059856	0.00046205	0.00131412	0.00188306	0.00144512	0.00138003	0.00264020	0.00182679
2.46000000	0.00216925	0.00398515	0.00124616	0.00248962	0.00120877	0.00415603	0.00337179	0.00521983	0.00201204	0.00235474	0.00264210	0.01225240	0.01036559	0.01182884	0.00401609	0.00422935	0.00430117	0.00216682	0.00118936	0.00074877	0.00044851	0.00164122	0.00189830	0.00183570	0.00105087	0.00270920	0.00161815
2.47000000	0.00217880	0.00394024	0.00119530	0.00242967	0.00134767	0.00470844	0.00375745	0.00538616	0.00207895	0.00235393	0.00259316	0.01227706	0.00981771	0.01085746	0.00386271	0.00413190	0.00423757	0.00253865	0.00148988	0.00082863	0.00058404	0.00193227	0.00207481	0.00202944	0.00087100	0.00289811	0.00139689
2.48000000	0.00231292	0.00397651	0.00122696	0.00235042	0.00149829	0.00519971	0.00371233	0.00577727	0.00217816	0.00239791	0.00252563	0.01220226	0.00906763	0.00989887	0.00364110	0.00397285	0.00394386	0.00302196	0.00178181	0.00100220	0.00069536	0.00230943	0.00224316	0.00230391	0.00080230	0.00305844	0.00116309
2.49000000	0.00239411	0.00437678	0.00124393	0.00219483	0.00150400	0.00587391	0.00403398	0.00590053	0.00212349	0.00236660	0.00241234	0.01206268	0.00814214	0.00902200	0.00322741	0.00372315	0.00379754	0.00348119	0.00219747	0.00115907	0.00083106	0.00269240	0.00251562	0.00253823	0.00090509	0.00320874	0.00087236
2.50000000	0.00241339	0.00412137	0.00135921	0.00202971	0.00155790	0.00636894	0.00388271	0.00615576	0.00219529	0.00241101	0.00234005	0.01179439	0.00744666	0.00787795	0.00278285	0.00340316	0.00329237	0.00402148	0.00258079	0.00135660	0.00098866	0.00309812	0.00274252	0.00279245	0.00076376	0.00334883	0.00064493
