Model Marker Errors from IK
version=1
nRows=443
nColumns=4
inDegrees=no
endheader
time	total_squared_error	marker_error_RMS	marker_error_max
      0.16000000	      0.04145422	      0.04072062	      0.09433841
      0.17000000	      0.04101558	      0.04050461	      0.09396206
      0.18000000	      0.04062903	      0.04031329	      0.09375023
      0.19000000	      0.04030087	      0.04015016	      0.09375175
      0.20000000	      0.03986312	      0.03993150	      0.09352290
      0.21000000	      0.03944616	      0.03972212	      0.09347085
      0.22000000	      0.03897463	      0.03948399	      0.09345701
      0.23000000	      0.03848001	      0.03923265	      0.09347516
      0.24000000	      0.03792706	      0.03894974	      0.09332084
      0.25000000	      0.03739357	      0.03867484	      0.09318433
      0.26000000	      0.03687719	      0.03840687	      0.09294991
      0.27000000	      0.03646784	      0.03819311	      0.09266888
      0.28000000	      0.03605323	      0.03797537	      0.09200375
      0.29000000	      0.03580526	      0.03784455	      0.09144944
      0.30000000	      0.03568181	      0.03777926	      0.09079241
      0.31000000	      0.03571839	      0.03779862	      0.09014478
      0.32000000	      0.03586276	      0.03787493	      0.08952247
      0.33000000	      0.03607184	      0.03798517	      0.08882012
      0.34000000	      0.03628505	      0.03809727	      0.08838030
      0.35000000	      0.03628912	      0.03809941	      0.08789703
      0.36000000	      0.03615505	      0.03802896	      0.08760248
      0.37000000	      0.03584614	      0.03786616	      0.08726364
      0.38000000	      0.03542020	      0.03764051	      0.08705781
      0.39000000	      0.03502040	      0.03742747	      0.08691597
      0.40000000	      0.03466842	      0.03723892	      0.08673324
      0.41000000	      0.03444624	      0.03711940	      0.08659536
      0.42000000	      0.03431122	      0.03704658	      0.08647245
      0.43000000	      0.03428819	      0.03703414	      0.08619349
      0.44000000	      0.03435012	      0.03706757	      0.08584240
      0.45000000	      0.03452248	      0.03716045	      0.08566696
      0.46000000	      0.03473534	      0.03727484	      0.08532320
      0.47000000	      0.03505433	      0.03744560	      0.08496751
      0.48000000	      0.03544899	      0.03765581	      0.08474597
      0.49000000	      0.03592349	      0.03790699	      0.08472700
      0.50000000	      0.03641234	      0.03816404	      0.08463418
      0.51000000	      0.03692953	      0.03843411	      0.08483901
      0.52000000	      0.03744163	      0.03869968	      0.08472150
      0.53000000	      0.03800753	      0.03899104	      0.08485177
      0.54000000	      0.03869554	      0.03934236	      0.08522885
      0.55000000	      0.03937299	      0.03968526	      0.08554669
      0.56000000	      0.04009596	      0.04004795	      0.08581312
      0.57000000	      0.04083290	      0.04041430	      0.08605966
      0.58000000	      0.04159095	      0.04078772	      0.08627119
      0.59000000	      0.04227327	      0.04112093	      0.08642916
      0.60000000	      0.04281260	      0.04138241	      0.08645117
      0.61000000	      0.04316450	      0.04155213	      0.08641342
      0.62000000	      0.04334071	      0.04163686	      0.08636046
      0.63000000	      0.04332155	      0.04162766	      0.08612636
      0.64000000	      0.04318448	      0.04156175	      0.08577565
      0.65000000	      0.04297916	      0.04146283	      0.08550590
      0.66000000	      0.04270696	      0.04133133	      0.08518804
      0.67000000	      0.04242890	      0.04119655	      0.08503916
      0.68000000	      0.04207077	      0.04102232	      0.08446612
      0.69000000	      0.04169796	      0.04084016	      0.08427566
      0.70000000	      0.04123192	      0.04061129	      0.08369693
      0.71000000	      0.04075250	      0.04037450	      0.08361173
      0.72000000	      0.04014665	      0.04007326	      0.08276281
      0.73000000	      0.03963047	      0.03981480	      0.08256225
      0.74000000	      0.03899201	      0.03949279	      0.08202377
      0.75000000	      0.03848557	      0.03923548	      0.08170535
      0.76000000	      0.03800545	      0.03898998	      0.08145407
      0.77000000	      0.03756878	      0.03876534	      0.08131017
      0.78000000	      0.03706896	      0.03850660	      0.08105607
      0.79000000	      0.03666464	      0.03829603	      0.08115000
      0.80000000	      0.03625371	      0.03808081	      0.08116990
      0.81000000	      0.03591640	      0.03790324	      0.08113685
      0.82000000	      0.03564272	      0.03775856	      0.08122275
      0.83000000	      0.03549244	      0.03767887	      0.08123867
      0.84000000	      0.03524669	      0.03754820	      0.08134762
      0.85000000	      0.03508987	      0.03746458	      0.08140106
      0.86000000	      0.03495413	      0.03739205	      0.08156974
      0.87000000	      0.03486665	      0.03734523	      0.08166240
      0.88000000	      0.03474466	      0.03727984	      0.08178727
      0.89000000	      0.03456540	      0.03718355	      0.08215345
      0.90000000	      0.03453216	      0.03716566	      0.08249237
      0.91000000	      0.03455883	      0.03718001	      0.08266460
      0.92000000	      0.03454888	      0.03717466	      0.08317806
      0.93000000	      0.03466301	      0.03723601	      0.08348671
      0.94000000	      0.03478158	      0.03729964	      0.08392355
      0.95000000	      0.03497478	      0.03740309	      0.08430221
      0.96000000	      0.03521163	      0.03752952	      0.08472179
      0.97000000	      0.03550277	      0.03768436	      0.08531054
      0.98000000	      0.03574979	      0.03781523	      0.08549240
      0.99000000	      0.03604368	      0.03797035	      0.08606675
      1.00000000	      0.03631614	      0.03811359	      0.08635170
      1.01000000	      0.03663126	      0.03827859	      0.08701533
      1.02000000	      0.03686849	      0.03840234	      0.08726299
      1.03000000	      0.03712054	      0.03853339	      0.08763848
      1.04000000	      0.03739378	      0.03867494	      0.08806280
      1.05000000	      0.03765747	      0.03881107	      0.08837803
      1.06000000	      0.03800774	      0.03899115	      0.08881364
      1.07000000	      0.03835139	      0.03916702	      0.08916383
      1.08000000	      0.03876942	      0.03937990	      0.08959462
      1.09000000	      0.03929526	      0.03964607	      0.09023320
      1.10000000	      0.03981807	      0.03990893	      0.09080198
      1.11000000	      0.04035273	      0.04017598	      0.09138336
      1.12000000	      0.04093833	      0.04046644	      0.09206957
      1.13000000	      0.04148151	      0.04073402	      0.09265156
      1.14000000	      0.04208858	      0.04103100	      0.09339389
      1.15000000	      0.04264151	      0.04129964	      0.09395054
      1.16000000	      0.04317333	      0.04155638	      0.09449921
      1.17000000	      0.04364746	      0.04178395	      0.09489877
      1.18000000	      0.04406209	      0.04198195	      0.09522687
      1.19000000	      0.04439647	      0.04214094	      0.09555341
      1.20000000	      0.04462652	      0.04224998	      0.09576682
      1.21000000	      0.04475223	      0.04230945	      0.09595301
      1.22000000	      0.04473355	      0.04230061	      0.09579801
      1.23000000	      0.04466597	      0.04226865	      0.09596720
      1.24000000	      0.04442834	      0.04215606	      0.09587165
      1.25000000	      0.04411375	      0.04200655	      0.09577945
      1.26000000	      0.04375144	      0.04183369	      0.09559038
      1.27000000	      0.04332759	      0.04163056	      0.09537387
      1.28000000	      0.04285218	      0.04140153	      0.09507586
      1.29000000	      0.04233977	      0.04115326	      0.09476864
      1.30000000	      0.04186113	      0.04091998	      0.09460784
      1.31000000	      0.04126310	      0.04062664	      0.09390491
      1.32000000	      0.04080973	      0.04040284	      0.09378552
      1.33000000	      0.04028738	      0.04014343	      0.09308806
      1.34000000	      0.03989440	      0.03994717	      0.09318655
      1.35000000	      0.03929687	      0.03964688	      0.09254105
      1.36000000	      0.03879107	      0.03939090	      0.09242300
      1.37000000	      0.03829763	      0.03913956	      0.09238468
      1.38000000	      0.03776220	      0.03886499	      0.09219729
      1.39000000	      0.03728286	      0.03861754	      0.09204941
      1.40000000	      0.03682033	      0.03837725	      0.09185008
      1.41000000	      0.03642689	      0.03817166	      0.09168890
      1.42000000	      0.03605462	      0.03797611	      0.09139804
      1.43000000	      0.03574831	      0.03781444	      0.09100614
      1.44000000	      0.03547295	      0.03766853	      0.09061389
      1.45000000	      0.03522849	      0.03753851	      0.09016367
      1.46000000	      0.03507248	      0.03745530	      0.08980965
      1.47000000	      0.03481224	      0.03731608	      0.08922061
      1.48000000	      0.03467154	      0.03724059	      0.08877395
      1.49000000	      0.03459897	      0.03720160	      0.08829721
      1.50000000	      0.03445554	      0.03712441	      0.08778300
      1.51000000	      0.03442412	      0.03710748	      0.08739402
      1.52000000	      0.03445340	      0.03712325	      0.08709196
      1.53000000	      0.03451197	      0.03715480	      0.08677069
      1.54000000	      0.03463903	      0.03722313	      0.08643757
      1.55000000	      0.03475660	      0.03728624	      0.08611472
      1.56000000	      0.03494500	      0.03738716	      0.08609667
      1.57000000	      0.03514033	      0.03749151	      0.08581073
      1.58000000	      0.03533072	      0.03759294	      0.08567902
      1.59000000	      0.03555913	      0.03771426	      0.08551286
      1.60000000	      0.03573969	      0.03780989	      0.08517833
      1.61000000	      0.03604457	      0.03797082	      0.08535185
      1.62000000	      0.03632472	      0.03811809	      0.08535193
      1.63000000	      0.03668205	      0.03830512	      0.08537632
      1.64000000	      0.03706389	      0.03850397	      0.08550283
      1.65000000	      0.03751312	      0.03873661	      0.08572250
      1.66000000	      0.03804178	      0.03900860	      0.08596081
      1.67000000	      0.03863540	      0.03931178	      0.08625922
      1.68000000	      0.03928889	      0.03964285	      0.08665209
      1.69000000	      0.04004201	      0.04002100	      0.08701945
      1.70000000	      0.04084118	      0.04041840	      0.08740614
      1.71000000	      0.04168778	      0.04083517	      0.08779530
      1.72000000	      0.04254483	      0.04125280	      0.08810483
      1.73000000	      0.04330688	      0.04162061	      0.08834649
      1.74000000	      0.04391035	      0.04190959	      0.08845863
      1.75000000	      0.04430110	      0.04209565	      0.08837678
      1.76000000	      0.04450240	      0.04219118	      0.08820848
      1.77000000	      0.04448933	      0.04218499	      0.08785770
      1.78000000	      0.04433322	      0.04211091	      0.08757517
      1.79000000	      0.04395270	      0.04192980	      0.08721777
      1.80000000	      0.04343029	      0.04167987	      0.08659857
      1.81000000	      0.04273694	      0.04134583	      0.08596233
      1.82000000	      0.04201079	      0.04099307	      0.08553483
      1.83000000	      0.04111237	      0.04055237	      0.08460715
      1.84000000	      0.04025077	      0.04012519	      0.08392895
      1.85000000	      0.03954091	      0.03976979	      0.08356816
      1.86000000	      0.03872624	      0.03935797	      0.08272569
      1.87000000	      0.03815161	      0.03906487	      0.08235848
      1.88000000	      0.03766106	      0.03881292	      0.08200905
      1.89000000	      0.03732790	      0.03864086	      0.08189270
      1.90000000	      0.03709421	      0.03851971	      0.08181177
      1.91000000	      0.03696426	      0.03845218	      0.08178380
      1.92000000	      0.03689418	      0.03841572	      0.08170526
      1.93000000	      0.03694088	      0.03844002	      0.08173365
      1.94000000	      0.03690916	      0.03842351	      0.08169545
      1.95000000	      0.03688413	      0.03841048	      0.08160878
      1.96000000	      0.03676463	      0.03834821	      0.08150209
      1.97000000	      0.03654081	      0.03823130	      0.08136025
      1.98000000	      0.03625485	      0.03808142	      0.08116647
      1.99000000	      0.03583166	      0.03785850	      0.08107666
      2.00000000	      0.03547954	      0.03767203	      0.08100136
      2.01000000	      0.03514670	      0.03749490	      0.08101098
      2.02000000	      0.03487254	      0.03734838	      0.08122031
      2.03000000	      0.03475303	      0.03728433	      0.08139613
      2.04000000	      0.03471364	      0.03726319	      0.08179108
      2.05000000	      0.03480219	      0.03731069	      0.08218077
      2.06000000	      0.03497398	      0.03740266	      0.08265334
      2.07000000	      0.03514938	      0.03749634	      0.08310359
      2.08000000	      0.03537384	      0.03761587	      0.08367373
      2.09000000	      0.03554459	      0.03770655	      0.08412196
      2.10000000	      0.03567611	      0.03777624	      0.08444207
      2.11000000	      0.03577662	      0.03782942	      0.08472182
      2.12000000	      0.03586448	      0.03787584	      0.08513448
      2.13000000	      0.03595862	      0.03792551	      0.08533482
      2.14000000	      0.03604607	      0.03797161	      0.08537248
      2.15000000	      0.03627449	      0.03809173	      0.08593318
      2.16000000	      0.03652856	      0.03822489	      0.08618994
      2.17000000	      0.03688025	      0.03840846	      0.08657321
      2.18000000	      0.03732126	      0.03863742	      0.08712005
      2.19000000	      0.03782848	      0.03889909	      0.08773704
      2.20000000	      0.03838640	      0.03918490	      0.08844281
      2.21000000	      0.03898101	      0.03948722	      0.08927768
      2.22000000	      0.03956356	      0.03978118	      0.08991499
      2.23000000	      0.04016112	      0.04008048	      0.09075685
      2.24000000	      0.04070632	      0.04035162	      0.09147847
      2.25000000	      0.04123319	      0.04061191	      0.09206015
      2.26000000	      0.04173099	      0.04085633	      0.09248579
      2.27000000	      0.04218346	      0.04107722	      0.09296919
      2.28000000	      0.04260427	      0.04128160	      0.09317644
      2.29000000	      0.04292851	      0.04143839	      0.09316563
      2.30000000	      0.04320980	      0.04157393	      0.09346371
      2.31000000	      0.04331044	      0.04162232	      0.09333435
      2.32000000	      0.04325248	      0.04159446	      0.09321148
      2.33000000	      0.04307939	      0.04151115	      0.09309402
      2.34000000	      0.04276548	      0.04135963	      0.09287322
      2.35000000	      0.04230007	      0.04113396	      0.09266491
      2.36000000	      0.04184628	      0.04091273	      0.09229027
      2.37000000	      0.04126002	      0.04062512	      0.09181102
      2.38000000	      0.04070937	      0.04035313	      0.09126126
      2.39000000	      0.04018558	      0.04009268	      0.09077215
      2.40000000	      0.03967236	      0.03983584	      0.09008378
      2.41000000	      0.03926668	      0.03963164	      0.08974309
      2.42000000	      0.03885229	      0.03942197	      0.08930993
      2.43000000	      0.03858119	      0.03928419	      0.08956244
      2.44000000	      0.03813229	      0.03905498	      0.08907955
      2.45000000	      0.03777863	      0.03887345	      0.08923780
      2.46000000	      0.03738207	      0.03866889	      0.08940219
      2.47000000	      0.03697909	      0.03845990	      0.08948983
      2.48000000	      0.03658275	      0.03825324	      0.08972913
      2.49000000	      0.03620527	      0.03805536	      0.08980855
      2.50000000	      0.03586859	      0.03787801	      0.08988997
      2.51000000	      0.03553947	      0.03770383	      0.08965231
      2.52000000	      0.03533982	      0.03759778	      0.08948962
      2.53000000	      0.03501946	      0.03742697	      0.08893640
      2.54000000	      0.03478436	      0.03730113	      0.08853190
      2.55000000	      0.03455256	      0.03717664	      0.08804440
      2.56000000	      0.03432841	      0.03705586	      0.08751398
      2.57000000	      0.03413223	      0.03694982	      0.08703848
      2.58000000	      0.03396238	      0.03685777	      0.08657038
      2.59000000	      0.03386582	      0.03680534	      0.08619995
      2.60000000	      0.03378388	      0.03676078	      0.08578318
      2.61000000	      0.03375474	      0.03674493	      0.08553073
      2.62000000	      0.03377325	      0.03675500	      0.08526492
      2.63000000	      0.03383233	      0.03678713	      0.08490821
      2.64000000	      0.03392384	      0.03683685	      0.08494245
      2.65000000	      0.03404941	      0.03690496	      0.08477480
      2.66000000	      0.03419774	      0.03698526	      0.08466240
      2.67000000	      0.03435429	      0.03706982	      0.08466778
      2.68000000	      0.03453666	      0.03716808	      0.08461623
      2.69000000	      0.03474217	      0.03727850	      0.08469108
      2.70000000	      0.03496921	      0.03740011	      0.08474512
      2.71000000	      0.03525160	      0.03755082	      0.08478581
      2.72000000	      0.03559457	      0.03773305	      0.08489639
      2.73000000	      0.03589069	      0.03788968	      0.08489940
      2.74000000	      0.03636025	      0.03813673	      0.08508880
      2.75000000	      0.03683645	      0.03838565	      0.08526687
      2.76000000	      0.03738780	      0.03867185	      0.08547204
      2.77000000	      0.03799267	      0.03898342	      0.08575212
      2.78000000	      0.03868644	      0.03933774	      0.08615398
      2.79000000	      0.03936870	      0.03968310	      0.08663841
      2.80000000	      0.04011653	      0.04005822	      0.08708289
      2.81000000	      0.04093546	      0.04046503	      0.08762894
      2.82000000	      0.04163980	      0.04081167	      0.08807317
      2.83000000	      0.04235556	      0.04116093	      0.08825786
      2.84000000	      0.04287500	      0.04141256	      0.08837909
      2.85000000	      0.04324095	      0.04158892	      0.08838597
      2.86000000	      0.04344586	      0.04168734	      0.08827779
      2.87000000	      0.04352166	      0.04172369	      0.08811652
      2.88000000	      0.04340835	      0.04166934	      0.08788234
      2.89000000	      0.04320486	      0.04157156	      0.08765798
      2.90000000	      0.04288686	      0.04141829	      0.08727160
      2.91000000	      0.04241049	      0.04118761	      0.08695528
      2.92000000	      0.04184513	      0.04091217	      0.08671801
      2.93000000	      0.04109431	      0.04054346	      0.08592413
      2.94000000	      0.04030820	      0.04015381	      0.08545830
      2.95000000	      0.03948832	      0.03974334	      0.08480473
      2.96000000	      0.03869953	      0.03934439	      0.08413777
      2.97000000	      0.03803025	      0.03900269	      0.08364133
      2.98000000	      0.03740437	      0.03868042	      0.08309317
      2.99000000	      0.03680507	      0.03836930	      0.08265918
      3.00000000	      0.03628127	      0.03809528	      0.08226263
      3.01000000	      0.03581041	      0.03784728	      0.08192057
      3.02000000	      0.03552734	      0.03769740	      0.08167125
      3.03000000	      0.03514548	      0.03749425	      0.08136161
      3.04000000	      0.03498730	      0.03740979	      0.08121365
      3.05000000	      0.03492598	      0.03737699	      0.08109538
      3.06000000	      0.03494387	      0.03738656	      0.08106597
      3.07000000	      0.03499031	      0.03741139	      0.08109403
      3.08000000	      0.03501424	      0.03742418	      0.08118162
      3.09000000	      0.03496676	      0.03739880	      0.08120520
      3.10000000	      0.03485649	      0.03733978	      0.08159395
      3.11000000	      0.03472390	      0.03726870	      0.08185484
      3.12000000	      0.03458883	      0.03719614	      0.08213115
      3.13000000	      0.03451244	      0.03715505	      0.08234223
      3.14000000	      0.03452022	      0.03715924	      0.08267300
      3.15000000	      0.03454495	      0.03717254	      0.08310489
      3.16000000	      0.03468250	      0.03724648	      0.08349765
      3.17000000	      0.03487111	      0.03734762	      0.08410034
      3.18000000	      0.03506531	      0.03745147	      0.08467287
      3.19000000	      0.03529824	      0.03757565	      0.08539597
      3.20000000	      0.03553626	      0.03770213	      0.08598627
      3.21000000	      0.03576811	      0.03782492	      0.08648562
      3.22000000	      0.03604632	      0.03797174	      0.08709854
      3.23000000	      0.03628624	      0.03809790	      0.08772165
      3.24000000	      0.03650019	      0.03821005	      0.08808802
      3.25000000	      0.03674366	      0.03833727	      0.08839769
      3.26000000	      0.03697663	      0.03845862	      0.08869753
      3.27000000	      0.03726568	      0.03860864	      0.08912048
      3.28000000	      0.03759584	      0.03877929	      0.08942257
      3.29000000	      0.03797920	      0.03897651	      0.08990685
      3.30000000	      0.03842036	      0.03920223	      0.09040985
      3.31000000	      0.03895050	      0.03947176	      0.09103988
      3.32000000	      0.03954112	      0.03976990	      0.09184389
      3.33000000	      0.04012394	      0.04006192	      0.09257310
      3.34000000	      0.04072952	      0.04036311	      0.09331786
      3.35000000	      0.04132911	      0.04065912	      0.09412407
      3.36000000	      0.04191021	      0.04094397	      0.09478356
      3.37000000	      0.04247587	      0.04121935	      0.09534610
      3.38000000	      0.04302849	      0.04148662	      0.09584306
      3.39000000	      0.04354675	      0.04173572	      0.09607343
      3.40000000	      0.04404730	      0.04197490	      0.09640225
      3.41000000	      0.04445806	      0.04217016	      0.09645715
      3.42000000	      0.04475318	      0.04230989	      0.09657236
      3.43000000	      0.04483127	      0.04234679	      0.09624411
      3.44000000	      0.04473131	      0.04229956	      0.09627739
      3.45000000	      0.04443501	      0.04215923	      0.09592406
      3.46000000	      0.04397163	      0.04193883	      0.09545269
      3.47000000	      0.04324791	      0.04159226	      0.09511035
      3.48000000	      0.04248803	      0.04122525	      0.09443235
      3.49000000	      0.04169443	      0.04083843	      0.09382127
      3.50000000	      0.04087867	      0.04043695	      0.09298023
      3.51000000	      0.04013987	      0.04006987	      0.09231481
      3.52000000	      0.03943073	      0.03971434	      0.09158928
      3.53000000	      0.03880749	      0.03939924	      0.09102081
      3.54000000	      0.03824225	      0.03911125	      0.09067614
      3.55000000	      0.03767802	      0.03882165	      0.09036053
      3.56000000	      0.03718096	      0.03856473	      0.09034838
      3.57000000	      0.03672469	      0.03832737	      0.09046593
      3.58000000	      0.03632467	      0.03811807	      0.09052808
      3.59000000	      0.03595026	      0.03792111	      0.09066179
      3.60000000	      0.03565116	      0.03776303	      0.09076512
      3.61000000	      0.03545582	      0.03765943	      0.09100081
      3.62000000	      0.03525775	      0.03755410	      0.09114353
      3.63000000	      0.03492259	      0.03737517	      0.09066020
      3.64000000	      0.03480327	      0.03731127	      0.09071632
      3.65000000	      0.03450556	      0.03715135	      0.09008333
      3.66000000	      0.03432983	      0.03705662	      0.08984768
      3.67000000	      0.03423107	      0.03700328	      0.08955560
      3.68000000	      0.03402291	      0.03689060	      0.08883033
      3.69000000	      0.03391156	      0.03683019	      0.08832135
      3.70000000	      0.03383812	      0.03679028	      0.08800944
      3.71000000	      0.03376824	      0.03675227	      0.08729831
      3.72000000	      0.03379150	      0.03676493	      0.08693429
      3.73000000	      0.03382721	      0.03678435	      0.08650637
      3.74000000	      0.03390364	      0.03682588	      0.08618872
      3.75000000	      0.03399887	      0.03687756	      0.08582919
      3.76000000	      0.03410898	      0.03693723	      0.08552854
      3.77000000	      0.03422384	      0.03699937	      0.08510868
      3.78000000	      0.03437950	      0.03708342	      0.08493177
      3.79000000	      0.03453512	      0.03716725	      0.08467340
      3.80000000	      0.03469841	      0.03725502	      0.08453281
      3.81000000	      0.03489071	      0.03735811	      0.08433056
      3.82000000	      0.03512551	      0.03748360	      0.08428046
      3.83000000	      0.03542845	      0.03764489	      0.08431813
      3.84000000	      0.03575999	      0.03782062	      0.08433709
      3.85000000	      0.03613604	      0.03801896	      0.08444797
      3.86000000	      0.03660345	      0.03826406	      0.08465995
      3.87000000	      0.03712297	      0.03853465	      0.08487013
      3.88000000	      0.03767550	      0.03882035	      0.08512035
      3.89000000	      0.03837965	      0.03918145	      0.08538445
      3.90000000	      0.03910961	      0.03955230	      0.08562824
      3.91000000	      0.03989071	      0.03994532	      0.08587696
      3.92000000	      0.04066218	      0.04032973	      0.08602381
      3.93000000	      0.04136150	      0.04067505	      0.08613747
      3.94000000	      0.04186525	      0.04092200	      0.08606824
      3.95000000	      0.04220834	      0.04108934	      0.08597741
      3.96000000	      0.04231714	      0.04114226	      0.08567400
      3.97000000	      0.04222418	      0.04109705	      0.08533369
      3.98000000	      0.04195584	      0.04096625	      0.08475827
      3.99000000	      0.04155859	      0.04077185	      0.08437593
      4.00000000	      0.04109460	      0.04054361	      0.08367033
      4.01000000	      0.04056079	      0.04027942	      0.08314736
      4.02000000	      0.04000472	      0.04000236	      0.08262473
      4.03000000	      0.03927189	      0.03963427	      0.08170428
      4.04000000	      0.03862735	      0.03930768	      0.08104418
      4.05000000	      0.03800895	      0.03899177	      0.08044853
      4.06000000	      0.03744834	      0.03870315	      0.07994019
      4.07000000	      0.03695062	      0.03844509	      0.07953205
      4.08000000	      0.03652896	      0.03822510	      0.07919833
      4.09000000	      0.03612547	      0.03801340	      0.07908983
      4.10000000	      0.03572154	      0.03780029	      0.07883973
      4.11000000	      0.03536001	      0.03760852	      0.07886343
      4.12000000	      0.03501297	      0.03742350	      0.07878214
      4.13000000	      0.03473331	      0.03727375	      0.07873298
      4.14000000	      0.03452545	      0.03716205	      0.07884578
      4.15000000	      0.03436055	      0.03707320	      0.07894696
      4.16000000	      0.03427747	      0.03702835	      0.07896634
      4.17000000	      0.03421224	      0.03699310	      0.07915716
      4.18000000	      0.03416979	      0.03697015	      0.07914602
      4.19000000	      0.03413013	      0.03694868	      0.07955496
      4.20000000	      0.03412053	      0.03694349	      0.07951928
      4.21000000	      0.03413106	      0.03694919	      0.07982525
      4.22000000	      0.03409429	      0.03692928	      0.08007186
      4.23000000	      0.03402020	      0.03688913	      0.08047560
      4.24000000	      0.03405228	      0.03690652	      0.08087528
      4.25000000	      0.03411335	      0.03693960	      0.08132728
      4.26000000	      0.03424706	      0.03701192	      0.08194100
      4.27000000	      0.03443347	      0.03711252	      0.08223631
      4.28000000	      0.03465607	      0.03723228	      0.08282080
      4.29000000	      0.03496024	      0.03739531	      0.08332787
      4.30000000	      0.03526286	      0.03755682	      0.08385699
      4.31000000	      0.03561963	      0.03774632	      0.08453532
      4.32000000	      0.03591312	      0.03790151	      0.08492399
      4.33000000	      0.03624320	      0.03807529	      0.08528773
      4.34000000	      0.03652224	      0.03822158	      0.08572443
      4.35000000	      0.03685928	      0.03839754	      0.08624582
      4.36000000	      0.03717274	      0.03856047	      0.08678626
      4.37000000	      0.03753897	      0.03874995	      0.08735677
      4.38000000	      0.03795476	      0.03896396	      0.08799968
      4.39000000	      0.03841887	      0.03920146	      0.08867782
      4.40000000	      0.03894644	      0.03946971	      0.08947243
      4.41000000	      0.03950621	      0.03975234	      0.09020154
      4.42000000	      0.04012276	      0.04006133	      0.09100739
      4.43000000	      0.04071139	      0.04035413	      0.09179294
      4.44000000	      0.04129388	      0.04064179	      0.09252686
      4.45000000	      0.04184792	      0.04091353	      0.09318529
      4.46000000	      0.04239880	      0.04118194	      0.09403441
      4.47000000	      0.04286938	      0.04140984	      0.09448783
      4.48000000	      0.04333727	      0.04163521	      0.09496510
      4.49000000	      0.04375630	      0.04183601	      0.09523105
      4.50000000	      0.04413239	      0.04201542	      0.09534943
      4.51000000	      0.04446134	      0.04217172	      0.09557551
      4.52000000	      0.04467756	      0.04227413	      0.09555402
      4.53000000	      0.04474787	      0.04230738	      0.09526365
      4.54000000	      0.04464640	      0.04225939	      0.09493379
      4.55000000	      0.04443636	      0.04215987	      0.09504718
      4.56000000	      0.04410693	      0.04200330	      0.09475670
      4.57000000	      0.04355321	      0.04173881	      0.09432767
      4.58000000	      0.04295807	      0.04145266	      0.09383025
