Coordinates
version=1
nRows=121
nColumns=42
inDegrees=yes

Units are S.I. units (second, meters, Newtons, ...)
If the header above contains a line with 'inDegrees', this indicates whether rotational values are in degrees (yes) or radians (no).

endheader
time	pelvis_tilt	pelvis_list	pelvis_rotation	pelvis_tx	pelvis_ty	pelvis_tz	hip_flexion_r	hip_adduction_r	hip_rotation_r	knee_angle_r	knee_adduction_r	knee_angle_r_beta	ankle_angle_r	subtalar_angle_r	mtp_angle_r	hip_flexion_l	hip_adduction_l	hip_rotation_l	knee_angle_l	knee_adduction_l	knee_angle_l_beta	ankle_angle_l	subtalar_angle_l	mtp_angle_l	lumbar_extension	lumbar_bending	lumbar_rotation	arm_flex_r	arm_add_r	arm_rot_r	elbow_flex_r	pro_sup_r	wrist_flex_r	wrist_dev_r	arm_flex_l	arm_add_l	arm_rot_l	elbow_flex_l	pro_sup_l	wrist_flex_l	wrist_dev_l
      0.30000000	     22.18776802	      1.93901913	     -0.92885402	     -0.90602393	      1.00627044	     -0.14558868	      1.82099958	     -2.69456221	    -10.09273802	     44.85093637	     -3.58254036	      0.78279651	      7.69352358	     -1.68566045	     -9.59187056	    -21.90296650	      4.45718028	    -25.18381145	     14.49127850	     -4.61090925	      0.25292052	     14.73386440	     36.62733328	     -9.59187056	    -43.86330476	     -2.25386334	      1.36652353	     -0.94770247	    -18.40078653	     -5.91532365	     66.59836568	     90.00000001	      0.00000000	      0.00000000	      4.27481419	    -19.42378465	      0.98876798	     65.82962563	     90.00000001	      0.00000000	      0.00000000
      0.31000000	     22.22929217	      2.20908391	     -0.73081172	     -0.89320480	      1.00447547	     -0.14594510	      2.70155773	     -2.92198000	    -11.00692318	     42.14536837	     -3.82276381	      0.73557544	      7.77348339	     -0.82728271	     -9.51524029	    -23.00509070	      4.64317910	    -25.10050110	     14.14779789	     -4.39951670	      0.24692566	     15.36658770	     36.89993394	     -9.51524029	    -43.89839185	     -2.32422856	      1.20586666	     -1.33168989	    -18.34070974	     -6.50340282	     66.59749472	     90.00000001	      0.00000000	      0.00000000	      4.96578517	    -19.87349941	      1.44913582	     66.58175056	     90.00000001	      0.00000000	      0.00000000
      0.32000000	     22.26593056	      2.50315706	     -0.48065946	     -0.88030160	      1.00238630	     -0.14634301	      3.54643333	     -3.22134035	    -12.76412138	     39.35337884	     -4.48324241	      0.68684603	      8.09822144	      1.45180280	     -9.41656792	    -24.02701457	      4.83662138	    -24.94719814	     13.94255411	     -4.28139805	      0.24334348	     16.02034581	     37.05185198	     -9.41656792	    -43.92305989	     -2.38039246	      1.02064972	     -1.74214143	    -18.28152766	     -7.06936382	     66.62717309	     90.00000001	      0.00000000	      0.00000000	      5.71001955	    -20.31958798	      1.98301565	     67.23505613	     90.00000001	      0.00000000	      0.00000000
      0.33000000	     22.17795427	      3.01237291	     -0.28774427	     -0.86744577	      0.99980520	     -0.14671756	      4.59998367	     -3.83603979	    -15.13178255	     36.72528792	     -5.38850822	      0.64097719	      8.72133672	      5.01318287	     -9.26058214	    -24.84054090	      5.29706825	    -24.61258784	     13.85006085	     -4.23918007	      0.24172916	     16.79663357	     37.15600613	     -9.26058214	    -43.82571122	     -2.67383313	      0.70036963	     -2.06635089	    -18.17691818	     -7.55032045	     66.51720248	     90.00000001	      0.00000000	      0.00000000	      6.44853461	    -20.78885076	      2.47962332	     67.87072517	     90.00000001	      0.00000000	      0.00000000
      0.34000000	     22.15751102	      3.31780475	     -0.03254262	     -0.85456632	      0.99727145	     -0.14691434	      5.41812608	     -4.16076535	    -17.48069008	     33.88196171	     -6.12886546	      0.59135179	      8.80183232	      7.75001369	     -9.17983159	    -25.66045863	      5.46528237	    -24.32123036	     13.93228340	     -4.21065310	      0.24316422	     17.58258863	     37.18677541	     -9.17983159	    -43.81509125	     -2.75228399	      0.53636860	     -2.44865665	    -18.05104036	     -8.15307945	     66.52033013	     90.00000001	      0.00000000	      0.00000000	      7.29004441	    -21.24751910	      3.18504552	     68.38421770	     90.00000001	      0.00000000	      0.00000000
      0.35000000	     22.02017866	      3.82650425	      0.16760407	     -0.84161495	      0.99430190	     -0.14718026	      6.47226800	     -4.86809430	    -20.55185706	     31.35848990	     -6.97690237	      0.54730890	      9.20240333	     12.31972640	     -9.07382148	    -26.30038598	      5.90824700	    -23.93575963	     14.08680803	     -4.30833501	      0.24586118	     18.39266223	     37.21165854	     -9.07382148	    -43.67440882	     -3.03836088	      0.23482889	     -2.75046035	    -17.92468643	     -8.61132082	     66.39778150	     90.00000001	      0.00000000	      0.00000000	      8.06953736	    -21.69145839	      3.78425330	     68.87520242	     90.00000001	      0.00000000	      0.00000000
      0.36000000	     21.87404378	      4.27968374	      0.39943356	     -0.82860403	      0.99127689	     -0.14732921	      7.44822407	     -5.50030893	    -23.57506196	     28.91217188	     -7.61334949	      0.50461259	      9.28019141	     16.42799567	     -8.97567030	    -26.88884762	      6.24185782	    -23.53923380	     14.35544456	     -4.39706459	      0.25054977	     19.22155828	     37.19272900	     -8.97567030	    -43.53358130	     -3.26601162	     -0.02355059	     -3.04383570	    -17.77631353	     -9.07862412	     66.26083318	     90.00000001	      0.00000000	      0.00000000	      8.89068979	    -22.11502868	      4.44583122	     69.30249851	     90.00000001	      0.00000000	      0.00000000
      0.37000000	     21.72457529	      4.62580195	      0.69235260	     -0.81561221	      0.98825688	     -0.14736432	      8.32965239	     -6.02007504	    -26.52622891	     26.58486638	     -7.97760772	      0.46399345	      9.06537833	     20.08369761	     -8.90181641	    -27.41866546	      6.41599804	    -23.15548942	     14.73162864	     -4.53175570	      0.25711542	     20.07144315	     37.12626188	     -8.90181641	    -43.41114721	     -3.38308957	     -0.23145966	     -3.31683996	    -17.60341377	     -9.57036423	     66.10326867	     90.00000001	      0.00000000	      0.00000000	      9.74797060	    -22.52745461	      5.18173473	     69.66232044	     90.00000001	      0.00000000	      0.00000000
      0.38000000	     21.53220824	      4.99859226	      0.98170173	     -0.80239635	      0.98513372	     -0.14744324	      9.21894463	     -6.61878328	    -29.43240998	     24.57615401	     -8.18336753	      0.42893480	      8.87338923	     23.89678253	     -8.82932085	    -27.88765985	      6.60538444	    -22.81235851	     15.18475656	     -4.68869814	      0.26502400	     20.85018922	     37.13760578	     -8.82932085	    -43.22042549	     -3.50551061	     -0.46770307	     -3.57543585	    -17.44538954	     -9.97830938	     65.90916845	     90.00000001	      0.00000000	      0.00000000	     10.52332330	    -22.87395787	      5.83127556	     69.98520473	     90.00000001	      0.00000000	      0.00000000
      0.39000000	     21.31158277	      5.29856506	      1.29705041	     -0.78911968	      0.98203871	     -0.14740027	     10.01397707	     -7.08205144	    -31.78704407	     22.79053033	     -8.11707676	      0.39776979	      8.52256552	     26.74892752	     -8.76396505	    -28.30425509	      6.68454584	    -22.49625852	     15.68949945	     -4.85203456	      0.27383342	     21.58454150	     37.12235545	     -8.76396505	    -43.00629771	     -3.55880048	     -0.67385559	     -3.80027587	    -17.27299742	    -10.36079253	     65.68594673	     90.00000001	      0.00000000	      0.00000000	     11.26249336	    -23.18621758	      6.45536164	     70.24955218	     90.00000001	      0.00000000	      0.00000000
      0.40000000	     21.04931351	      5.53337531	      1.64669831	     -0.77575264	      0.97898908	     -0.14730263	     10.73095025	     -7.40040485	    -33.48296189	     21.25850840	     -7.85782197	      0.37103097	      8.04705250	     28.52887816	     -8.71887922	    -28.66610542	      6.64057408	    -22.21353705	     16.24801328	     -4.97169233	      0.28358133	     22.31601709	     37.14845001	     -8.71887922	    -42.75326474	     -3.54020677	     -0.85564140	     -3.96772209	    -17.09695107	    -10.72000046	     65.35126389	     90.00000001	      0.00000000	      0.00000000	     11.96682634	    -23.47525205	      7.06506858	     70.51091848	     90.00000001	      0.00000000	      0.00000000
      0.41000000	     20.73199621	      5.76853677	      2.02394663	     -0.76213916	      0.97591125	     -0.14727359	     11.43622554	     -7.72471110	    -34.88635594	     20.10798551	     -7.57763452	      0.35095055	      7.87283092	     30.26153927	     -8.66002813	    -28.93491167	      6.57007620	    -22.12694183	     16.88338328	     -5.17357389	      0.29467063	     22.90126831	     37.28941673	     -8.66002813	    -42.42437560	     -3.49078518	     -1.06010777	     -4.16896761	    -16.92633840	    -11.03871965	     65.08902343	     90.00000001	      0.00000000	      0.00000000	     12.56012242	    -23.66938374	      7.54538941	     70.70698469	     90.00000001	      0.00000000	      0.00000000
      0.42000000	     20.36731222	      5.94039821	      2.42818307	     -0.74834637	      0.97288489	     -0.14725534	     12.10336654	     -7.88695953	    -35.65761741	     19.26298064	     -7.32718126	      0.33620244	      7.69275412	     30.84237812	     -8.61724037	    -29.15166389	      6.40707571	    -22.02927148	     17.55248200	     -5.36337231	      0.30634860	     23.42630112	     37.39406183	     -8.61724037	    -42.02787029	     -3.35895458	     -1.25639200	     -4.31778034	    -16.76336029	    -11.35104081	     64.74207862	     90.00000001	      0.00000000	      0.00000000	     13.03354885	    -23.83045955	      7.98626719	     70.89719196	     90.00000001	      0.00000000	      0.00000000
      0.43000000	     19.94175374	      6.16966979	      2.89352426	     -0.73438392	      0.96993646	     -0.14727023	     12.74016680	     -8.08736640	    -35.88523680	     18.78144569	     -7.07437532	      0.32779807	      7.70617423	     30.81216793	     -8.59877453	    -29.31420622	      6.27318147	    -21.83335996	     18.21273726	     -5.57720986	      0.31787223	     23.77225623	     37.54256597	     -8.59877453	    -41.57029495	     -3.26452305	     -1.53892142	     -4.42012729	    -16.56255921	    -11.56831907	     64.28308180	     90.00000001	      0.00000000	      0.00000000	     13.41667174	    -23.97087032	      8.27613987	     71.09564402	     90.00000001	      0.00000000	      0.00000000
      0.44000000	     19.46691827	      6.31397820	      3.28989697	     -0.72007348	      0.96696101	     -0.14724887	     13.45902758	     -8.16461446	    -35.91248425	     18.75279691	     -7.08585185	      0.32729805	      7.72385385	     30.77989820	     -8.59303731	    -29.43089890	      6.07165698	    -21.77491596	     18.89548252	     -5.77513652	      0.32978838	     23.90329089	     37.64662682	     -8.59303731	    -41.01733642	     -3.10842441	     -1.69122481	     -4.61736275	    -16.46842107	    -11.71489006	     63.97315396	     90.00000001	      0.00000000	      0.00000000	     13.63780161	    -23.96871019	      8.38875162	     71.27119773	     90.00000001	      0.00000000	      0.00000000
      0.45000000	     19.00886026	      6.39437554	      3.80055734	     -0.70547236	      0.96419724	     -0.14726439	     14.09132478	     -8.17876005	    -35.82594721	     19.13063701	     -7.24006341	      0.33389260	      7.76942506	     30.54950081	     -8.58630556	    -29.52150479	      5.70191374	    -21.70760367	     19.70914482	     -5.99883932	      0.34398947	     24.07688125	     37.80191353	     -8.58630556	    -40.45257781	     -2.83312100	     -1.91310277	     -4.73777799	    -16.28631671	    -11.96224413	     63.53202451	     90.00000001	      0.00000000	      0.00000000	     13.73614144	    -24.00250658	      8.54761278	     71.41700310	     90.00000001	      0.00000000	      0.00000000
      0.46000000	     18.54431767	      6.42203577	      4.34991163	     -0.69054776	      0.96159304	     -0.14727917	     14.68277222	     -8.15029025	    -35.60712675	     19.87377843	     -7.49887335	      0.34686287	      7.78456343	     30.06473826	     -8.57913728	    -29.59432773	      5.24015379	    -21.65520656	     20.54119581	     -6.24388647	      0.35851150	     24.15403188	     37.96508051	     -8.57913728	    -39.84304015	     -2.50031544	     -2.10350967	     -4.87941336	    -16.08439833	    -12.22838173	     63.06454604	     90.00000001	      0.00000000	      0.00000000	     13.70940403	    -23.99641247	      8.62909395	     71.57352803	     90.00000001	      0.00000000	      0.00000000
      0.47000000	     18.08047690	      6.41361855	      4.89667438	     -0.67528051	      0.95917911	     -0.14731167	     15.24689232	     -8.10666660	    -35.26080598	     20.98325902	     -7.83091457	      0.36622696	      7.70598795	     29.16392042	     -8.57017005	    -29.64379453	      4.71252981	    -21.61338842	     21.43712641	     -6.47569407	      0.37414844	     24.05384376	     38.11665277	     -8.57017005	    -39.18465103	     -2.12640808	     -2.27875652	     -5.03579247	    -15.89195306	    -12.52959970	     62.55230062	     90.00000001	      0.00000000	      0.00000000	     13.51923883	    -23.93208926	      8.59422607	     71.74845821	     90.00000001	      0.00000000	      0.00000000
      0.48000000	     17.62568613	      6.35687718	      5.34906512	     -0.66004891	      0.95710328	     -0.14734454	     15.66936289	     -7.84967014	    -33.64757925	     22.14208511	     -7.88331575	      0.38645229	      7.25438688	     25.85325757	     -8.51106543	    -29.66409912	      4.26836259	    -21.44763591	     22.29361738	     -6.83202055	      0.38909703	     23.60208045	     38.23356740	     -8.51106543	    -38.56469374	     -1.72078207	     -2.39793721	     -5.08384997	    -15.75661492	    -12.77768871	     62.05692345	     90.00000001	      0.00000000	      0.00000000	     13.15488651	    -23.75961862	      8.33063293	     71.94131437	     90.00000001	      0.00000000	      0.00000000
      0.49000000	     17.23893923	      6.22432459	      5.83396452	     -0.64438342	      0.95529134	     -0.14725856	     16.11149725	     -7.66000157	    -33.13290466	     23.69368955	     -8.33466047	      0.41353289	      6.69670247	     24.77949359	     -8.49758525	    -29.68765531	      3.65244282	    -21.25015184	     23.30966152	     -7.11856640	      0.40683034	     22.86117240	     38.25510458	     -8.49758525	    -37.95317663	     -1.24534007	     -2.46504540	     -5.20337117	    -15.61801650	    -13.01361489	     61.58143477	     90.00000001	      0.00000000	      0.00000000	     12.70766296	    -23.57910923	      8.05277596	     72.08345663	     90.00000001	      0.00000000	      0.00000000
      0.50000000	     16.90868408	      6.01929179	      6.15512043	     -0.62889530	      0.95398016	     -0.14701230	     16.35149951	     -7.20322730	    -31.20368809	     25.14794947	     -8.29154263	      0.43891452	      5.65366090	     21.20806931	     -8.44314599	    -29.70354474	      3.07440076	    -20.89354707	     24.35927167	     -7.35900437	      0.42514949	     21.63525957	     38.20268967	     -8.44314599	    -37.45174103	     -0.74382295	     -2.42384424	     -5.16498536	    -15.57058189	    -13.11912353	     61.08820355	     90.00000001	      0.00000000	      0.00000000	     12.12037540	    -23.28580984	      7.53475483	     72.24776104	     90.00000001	      0.00000000	      0.00000000
      0.51000000	     16.69565701	      5.74668035	      6.54419835	     -0.61312837	      0.95309993	     -0.14680791	     16.48599225	     -6.78190302	    -30.11215626	     26.75825334	     -8.48533663	      0.46701962	      4.72297483	     19.14453870	     -8.41089786	    -29.71494369	      2.36128884	    -20.51032916	     25.59264922	     -7.63546926	      0.44667599	     19.92585240	     38.09887030	     -8.41089786	    -37.04020866	     -0.13711150	     -2.37731976	     -5.15583427	    -15.49735850	    -13.29832182	     60.63387403	     90.00000001	      0.00000000	      0.00000000	     11.46804518	    -22.96546797	      6.99973088	     72.37959485	     90.00000001	      0.00000000	      0.00000000
      0.52000000	     16.57999483	      5.42043199	      6.79981661	     -0.59714118	      0.95253612	     -0.14643284	     16.56313836	     -6.36874467	    -29.43360417	     28.50531619	     -8.77585170	      0.49751162	      4.14434733	     18.47703257	     -8.40441495	    -29.71311803	      1.64417179	    -20.03427551	     27.05548138	     -7.85636728	      0.47220723	     18.50328351	     37.88078331	     -8.40441495	    -36.69296002	      0.48470990	     -2.11463465	     -5.22253703	    -15.51809178	    -13.46512943	     60.27209005	     90.00000001	      0.00000000	      0.00000000	     10.82218734	    -22.68105637	      6.72538983	     72.36265814	     90.00000001	      0.00000000	      0.00000000
      0.53000000	     16.60762051	      4.93504580	      6.89940378	     -0.58150635	      0.95281476	     -0.14567687	     16.25080019	     -5.43871494	    -26.85852586	     29.87172841	     -8.26537515	      0.52136001	      2.93903746	     13.36155465	     -8.35538850	    -29.70495699	      0.87816178	    -19.63752648	     28.55551796	     -8.15339814	      0.49838781	     15.36611652	     37.32253814	     -8.35538850	    -36.58616970	      1.18155605	     -1.80568788	     -4.99360799	    -15.57209008	    -13.46794204	     59.81320155	     90.00000001	      0.00000000	      0.00000000	      9.97961174	    -22.19565463	      5.84792404	     72.48552805	     90.00000001	      0.00000000	      0.00000000
      0.54000000	     16.79441400	      4.47398603	      7.13860506	     -0.56554145	      0.95343302	     -0.14520596	     15.82323566	     -4.77992266	    -26.09356445	     31.37336563	     -8.34357924	      0.54756853	      2.91245588	     12.23235049	     -8.34181429	    -29.69264664	      0.05787362	    -19.00240155	     30.36771989	     -8.46108638	      0.53001670	     12.30891353	     36.50249333	     -8.34181429	    -36.60024946	      1.96678328	     -1.50223952	     -4.91883646	    -15.61806539	    -13.67562771	     59.55901267	     90.00000001	      0.00000000	      0.00000000	      9.20082021	    -21.80706554	      5.33789694	     72.47343463	     90.00000001	      0.00000000	      0.00000000
      0.55000000	     17.06305780	      4.00605641	      7.10149561	     -0.54994163	      0.95470599	     -0.14415284	     15.13927757	     -3.89335268	    -23.83745146	     32.61372459	     -7.66310325	      0.56921688	      2.36556612	      8.61310950	     -8.29380011	    -29.66654594	     -0.57629179	    -17.89492005	     32.29482655	     -8.49151949	      0.56365105	      9.06061637	     34.57237598	     -8.29380011	    -36.79167622	      2.58956934	     -1.00552513	     -4.67901141	    -15.70283581	    -13.63219022	     59.22184787	     90.00000001	      0.00000000	      0.00000000	      8.43729354	    -21.36618966	      4.68268299	     72.41457158	     90.00000001	      0.00000000	      0.00000000
      0.56000000	     17.53121786	      3.47929282	      7.20630524	     -0.53404909	      0.95634903	     -0.14332140	     14.18466746	     -3.06088672	    -23.11674491	     33.72960172	     -7.53870948	      0.58869261	      3.05936709	      7.84344846	     -8.28170338	    -29.62982370	     -1.35200398	    -16.96459735	     34.48796142	     -8.72022145	      0.60192848	      5.48008953	     32.86945145	     -8.28170338	    -37.14937426	      3.36111801	     -0.53481356	     -4.54471614	    -15.78496447	    -13.73551685	     59.08285394	     90.00000001	      0.00000000	      0.00000000	      7.65125659	    -20.97285942	      4.17566320	     72.33683325	     90.00000001	      0.00000000	      0.00000000
      0.57000000	     18.08232914	      2.98773170	      7.20541683	     -0.51836394	      0.95849566	     -0.14225607	     12.99053194	     -2.18845043	    -22.25192398	     34.53165311	     -7.27704273	      0.60269104	      3.76794566	      6.84133892	     -8.26851692	    -29.55534349	     -1.97081195	    -15.54570174	     36.84871899	     -8.69431506	      0.64313147	      1.88392964	     30.02801726	     -8.26851692	    -37.64214781	      4.02298828	     -0.01234914	     -4.32853199	    -15.89408555	    -13.71136506	     58.94633137	     90.00000001	      0.00000000	      0.00000000	      6.88290771	    -20.57403982	      3.60961663	     72.20452787	     90.00000001	      0.00000000	      0.00000000
      0.58000000	     18.64228623	      2.90946324	      7.01992249	     -0.50333370	      0.96121304	     -0.14121133	     11.67792555	     -1.76424198	    -21.08350964	     35.19262501	     -6.85675851	      0.61422718	      4.09985513	      5.25489996	     -8.22901517	    -29.47470666	     -1.85761661	    -12.30850962	     39.34072400	     -7.71296614	      0.68662516	     -0.90701460	     23.88821133	     -8.22901517	    -38.29278357	      4.20589371	      0.41446471	     -3.95526220	    -16.00052628	    -13.60411190	     58.74954232	     90.00000001	      0.00000000	      0.00000000	      6.25207530	    -20.20658059	      3.13975052	     71.94456388	     90.00000001	      0.00000000	      0.00000000
      0.59000000	     19.31648227	      2.65275489	      6.89452822	     -0.48805062	      0.96406829	     -0.14017626	     10.11567277	     -1.19051336	    -21.00264095	     35.51261592	     -6.84004749	      0.61981207	      5.15224890	      5.46394804	     -8.19459177	    -29.27370510	     -2.03077475	    -10.06408317	     41.99626869	     -7.11348426	      0.73297316	     -3.65403103	     19.68186286	     -8.19459177	    -38.99923097	      4.56890462	      0.92176846	     -3.67281338	    -16.15035682	    -13.52535098	     58.73946363	     90.00000001	      0.00000000	      0.00000000	      5.56527754	    -19.86605036	      2.74142299	     71.67733930	     90.00000001	      0.00000000	      0.00000000
      0.60000000	     19.92157666	      2.33155051	      6.74799781	     -0.47290880	      0.96675941	     -0.13896787	      8.54509693	     -0.55758253	    -21.01889682	     35.69625446	     -6.81293474	      0.62301717	      6.57541064	      5.70572806	     -8.18142915	    -28.71906304	     -2.29751023	     -8.90018859	     44.86505242	     -7.11073221	      0.78304288	     -5.64108273	     17.87445666	     -8.18142915	    -39.61919565	      4.94214436	      1.48385173	     -3.42150710	    -16.25002518	    -13.46636479	     58.86609375	     90.00000001	      0.00000000	      0.00000000	      4.91516803	    -19.56689704	      2.45433799	     71.34126342	     90.00000001	      0.00000000	      0.00000000
      0.61000000	     20.46814297	      2.42213507	      6.62773276	     -0.45833988	      0.96987603	     -0.13797813	      6.96601367	     -0.45015236	    -22.00118751	     35.61390706	     -7.32974291	      0.62157994	      7.70449928	      7.67183608	     -8.14275853	    -28.07856283	     -1.98096095	     -5.79125794	     47.76948626	     -5.83277893	      0.83373482	     -7.37978479	     11.99828399	     -8.14275853	    -40.29752850	      4.89835217	      1.76788498	     -3.07157710	    -16.37995518	    -13.26767233	     58.86831685	     90.00000001	      0.00000000	      0.00000000	      4.36971632	    -19.32508557	      2.12254879	     70.92207376	     90.00000001	      0.00000000	      0.00000000
      0.62000000	     20.66968488	      2.31125281	      6.46591656	     -0.44400925	      0.97228921	     -0.13676209	      5.76521193	     -0.16424880	    -22.79795478	     35.47375101	     -7.69276491	      0.61913375	      9.00807859	      9.19252536	     -8.11137685	    -26.72140006	     -1.90161362	     -4.40242114	     50.88804245	     -5.49716653	      0.88816389	     -8.17007318	      9.23336120	     -8.11137685	    -40.59845218	      4.95658907	      2.19685566	     -2.74477617	    -16.50259447	    -13.11268243	     58.96591436	     90.00000001	      0.00000000	      0.00000000	      3.83465005	    -19.07506082	      1.88152908	     70.38004154	     90.00000001	      0.00000000	      0.00000000
      0.63000000	     20.78151012	      2.34241089	      6.34304732	     -0.43006472	      0.97472006	     -0.13561249	      4.61056481	     -0.10133127	    -23.69157930	     35.26234199	     -8.01814436	      0.61544397	     10.23511932	     10.97984930	     -8.07502024	    -25.14984541	     -1.65213200	     -3.08659339	     53.88198890	     -5.19598795	      0.94041811	     -8.49497530	      6.65407320	     -8.07502024	    -40.84895167	      4.87288530	      2.48170135	     -2.37801939	    -16.57738671	    -12.93246797	     59.10702870	     90.00000001	      0.00000000	      0.00000000	      3.38885786	    -18.88102482	      1.71786051	     69.76989682	     90.00000001	      0.00000000	      0.00000000
      0.64000000	     20.84571283	      2.32750704	      6.18826932	     -0.41632463	      0.97716269	     -0.13430668	      3.44918411	      0.03296387	    -24.39417184	     34.89440898	     -8.23409082	      0.60902233	     11.33916020	     12.48560313	     -8.03422476	    -23.43632536	     -1.46881862	     -2.33577596	     56.64547729	     -5.13335014	      0.98865009	     -8.28847686	      4.74892941	     -8.03422476	    -41.06309793	      4.77535880	      2.81762823	     -2.02608222	    -16.67215987	    -12.71656970	     59.31176369	     90.00000001	      0.00000000	      0.00000000	      2.99483818	    -18.70483837	      1.58625871	     69.08414287	     90.00000001	      0.00000000	      0.00000000
      0.65000000	     20.94251234	      2.24444922	      5.97865350	     -0.40281728	      0.97979575	     -0.13285483	      2.15026621	      0.29788374	    -24.42615164	     34.33969599	     -8.08056693	      0.59934076	     12.09330695	     13.00869158	     -8.02260844	    -21.70318054	     -1.36991423	     -2.30551167	     59.03860455	     -5.48791435	      1.03041804	     -7.55033707	      3.79865187	     -8.02260844	    -41.32525697	      4.69134964	      3.22246874	     -1.66335333	    -16.79533400	    -12.47717381	     59.59990401	     90.00000001	      0.00000000	      0.00000000	      2.66189017	    -18.53073221	      1.50668669	     68.31198916	     90.00000001	      0.00000000	      0.00000000
      0.66000000	     20.93913202	      2.16677989	      5.77163874	     -0.38950184	      0.98231837	     -0.13127286	      0.99772471	      0.56028736	    -24.71111674	     33.73449149	     -8.14360294	      0.58877795	     12.72087543	     14.04552215	     -8.00350890	    -19.82791153	     -1.30102161	     -2.10234408	     61.13335770	     -5.53953017	      1.06697837	     -6.69904629	      2.45981853	     -8.00350890	    -41.50485258	      4.56217442	      3.59984537	     -1.30005415	    -16.91173694	    -12.16232735	     59.90856476	     90.00000001	      0.00000000	      0.00000000	      2.36669104	    -18.38031919	      1.41983399	     67.47807608	     90.00000001	      0.00000000	      0.00000000
      0.67000000	     21.03830343	      2.19569959	      5.51311071	     -0.37632118	      0.98510446	     -0.12972355	     -0.34164637	      0.69467197	    -24.66674444	     33.05469232	     -7.97994475	      0.57691321	     13.31844395	     14.72690300	     -7.98827455	    -18.11010450	     -1.08297209	     -2.21827941	     62.68810472	     -5.81906468	      1.09411383	     -5.66810307	      1.56209140	     -7.98827455	    -41.79734388	      4.31007982	      3.91781330	     -0.93335390	    -17.02247916	    -11.85832164	     60.28001784	     90.00000001	      0.00000000	      0.00000000	      2.10370816	    -18.27510106	      1.37225759	     66.60445515	     90.00000001	      0.00000000	      0.00000000
      0.68000000	     21.12279144	      2.31653602	      5.24628884	     -0.36332584	      0.98790922	     -0.12822725	     -1.70890551	      0.71058253	    -24.44257554	     32.30805375	     -7.67768023	      0.56388191	     13.75403071	     15.10110718	     -7.97983857	    -16.38762524	     -0.74537009	     -2.48170403	     63.78808266	     -6.20339578	      1.11331207	     -4.59942285	      1.00058167	     -7.97983857	    -42.09500487	      3.96207148	      4.13290340	     -0.52931848	    -17.09089660	    -11.59099248	     60.68029419	     90.00000001	      0.00000000	      0.00000000	      1.84838798	    -18.20469401	      1.35738928	     65.73964098	     90.00000001	      0.00000000	      0.00000000
      0.69000000	     21.16020159	      2.31284838	      4.92689546	     -0.35040793	      0.99052380	     -0.12654548	     -2.99592540	      0.89295522	    -24.25048937	     31.49832137	     -7.48826796	      0.54974942	     14.19559754	     15.64195045	     -7.97033407	    -14.62150657	     -0.57876643	     -2.88500437	     64.54127641	     -6.48914163	      1.12645778	     -3.35063575	      0.43511194	     -7.97033407	    -42.32366777	      3.67455694	      4.46363562	     -0.17920204	    -17.23394391	    -11.20803900	     61.14723730	     90.00000001	      0.00000000	      0.00000000	      1.63870989	    -18.09270644	      1.31760875	     64.75744488	     90.00000001	      0.00000000	      0.00000000
      0.70000000	     21.16310861	      2.30154301	      4.57569387	     -0.33762939	      0.99296466	     -0.12476621	     -4.23666384	      1.11005581	    -24.13040661	     30.61264357	     -7.42926498	      0.53429142	     14.57321484	     16.33030408	     -7.95949966	    -12.83886084	     -0.41249290	     -3.37303269	     64.90541865	     -6.78796899	      1.13281326	     -2.12508665	      0.10489090	     -7.95949966	    -42.52999354	      3.35996166	      4.78076625	      0.16443219	    -17.38199581	    -10.78904581	     61.68458895	     90.00000001	      0.00000000	      0.00000000	      1.43977246	    -18.00200298	      1.27175498	     63.76919294	     90.00000001	      0.00000000	      0.00000000
      0.71000000	     21.04151173	      2.42640236	      4.23345807	     -0.32504387	      0.99511657	     -0.12305866	     -5.33640040	      1.16020357	    -24.05073685	     29.72366725	     -7.39156002	      0.51877586	     14.84786074	     16.66430093	     -7.95294173	    -10.94862409	     -0.05664954	     -3.74298001	     64.89192063	     -7.00967304	      1.13257767	     -1.16873268	     -0.08726032	     -7.95294173	    -42.61283659	      2.90456842	      4.93977378	      0.56007688	    -17.41000322	    -10.48556469	     62.21910669	     90.00000001	      0.00000000	      0.00000000	      1.16384271	    -18.01171587	      1.24642424	     62.94341086	     90.00000001	      0.00000000	      0.00000000
      0.72000000	     20.90098014	      2.46188413	      3.87509281	     -0.31244648	      0.99703660	     -0.12130284	     -6.43333276	      1.31202381	    -24.02007169	     28.75407990	     -7.37749487	      0.50185337	     15.16848536	     17.19045916	     -7.94648225	     -9.08101894	      0.18967422	     -4.19482276	     64.56210491	     -7.21922232	      1.12682130	     -0.03675307	     -0.31398004	     -7.94648225	    -42.65755747	      2.52159215	      5.14005455	      0.87598024	    -17.50365264	    -10.07873950	     62.78761563	     90.00000001	      0.00000000	      0.00000000	      0.92191374	    -17.97129687	      1.19052844	     61.95325194	     90.00000001	      0.00000000	      0.00000000
      0.73000000	     21.11741365	      2.27464910	      3.45619412	     -0.29944428	      0.99917931	     -0.11955069	     -7.95631498	      1.63157622	    -24.88292026	     27.57781625	     -7.66667379	      0.48132369	     15.65565850	     20.17073593	     -7.92308606	     -7.74537841	      0.10702691	     -5.27358982	     63.72964417	     -7.81048462	      1.11229212	      1.41819811	      0.51746795	     -7.92308606	    -42.99996140	      2.35946779	      5.53740961	      1.08901615	    -17.83145870	     -9.42834099	     63.57105767	     90.00000001	      0.00000000	      0.00000000	      0.67689260	    -17.81232185	      1.08682578	     60.93802072	     90.00000001	      0.00000000	      0.00000000
      0.74000000	     20.87746351	      2.30063599	      3.08588023	     -0.28708492	      1.00050090	     -0.11791567	     -8.91236432	      1.75873709	    -24.96293910	     26.63061764	     -7.70311047	      0.46479196	     16.00344495	     20.58531318	     -7.91614180	     -5.86425181	      0.38990755	     -5.46866896	     62.83194779	     -7.78613143	      1.09662436	      2.40211373	      0.22618617	     -7.91614180	    -42.94399842	      1.99023777	      5.69071573	      1.45494153	    -17.94093405	     -9.03628504	     64.14582507	     90.00000001	      0.00000000	      0.00000000	      0.44842472	    -17.75999026	      1.02239339	     59.94663389	     90.00000001	      0.00000000	      0.00000000
      0.75000000	     21.02382228	      2.18322223	      2.67073603	     -0.27426806	      1.00214834	     -0.11618617	    -10.39605167	      2.00722728	    -25.64381098	     25.39182133	     -7.88551534	      0.44317089	     16.31165249	     22.74694051	     -7.89974170	     -4.60216907	      0.42467845	     -5.62616523	     61.48557402	     -7.55090873	      1.07312571	      3.33511032	      0.09089012	     -7.89974170	    -43.22075996	      1.75324354	      5.96087066	      1.69053765	    -18.19933133	     -8.39954958	     64.92710930	     90.00000001	      0.00000000	      0.00000000	      0.16283670	    -17.64251970	      0.85187113	     58.98852610	     90.00000001	      0.00000000	      0.00000000
      0.76000000	     20.81703945	      2.11881530	      2.36166934	     -0.26180352	      1.00295963	     -0.11476134	    -11.45953981	      2.19390730	    -25.85404959	     24.32447603	     -7.83590728	      0.42454220	     16.73809604	     23.47503257	     -7.89222456	     -2.89766233	      0.61641876	     -5.56502002	     60.08665090	     -7.34353184	      1.04870989	      4.18289527	     -0.25504103	     -7.89222456	    -43.14741325	      1.53733058	      6.08052237	      2.03642517	    -18.34264104	     -7.93926778	     65.54854940	     90.00000001	      0.00000000	      0.00000000	     -0.08852636	    -17.55496255	      0.77807579	     57.98915125	     90.00000001	      0.00000000	      0.00000000
      0.77000000	     20.44175709	      1.91692296	      1.98576383	     -0.24939672	      1.00314142	     -0.11315535	    -12.16738681	      2.41209478	    -26.13634285	     23.68108299	     -7.73015306	      0.41331287	     16.94935303	     23.53182759	     -7.88812452	     -1.05182416	      0.55649275	     -5.56496750	     58.49952581	     -6.95224110	      1.02100934	      4.53963738	     -0.38151066	     -7.88812452	    -42.91718296	      1.37216022	      6.29158954	      2.39743945	    -18.36256362	     -7.70823207	     66.09750145	     90.00000001	      0.00000000	      0.00000000	     -0.59051817	    -17.51435599	      0.78589771	     57.52856979	     90.00000001	      0.00000000	      0.00000000
      0.78000000	     21.02710202	      2.02913809	      1.70376795	     -0.23627748	      1.00467671	     -0.11206478	    -14.35185872	      2.35376267	    -27.51701321	     22.01234046	     -7.92021750	      0.38418782	     17.55370644	     27.62499468	     -7.86058829	     -0.66991729	      1.01976133	     -4.65128619	     56.25897660	     -6.17421037	      0.98190438	      5.01449966	     -1.66975951	     -7.86058829	    -43.59632285	      1.09079245	      6.24542012	      2.59796698	    -18.78325696	     -6.80304655	     66.97309371	     90.00000001	      0.00000000	      0.00000000	     -0.81278620	    -17.41876943	      0.47077720	     56.40911532	     90.00000001	      0.00000000	      0.00000000
      0.79000000	     20.59215536	      1.73673434	      1.37938628	     -0.22375627	      1.00401116	     -0.11060569	    -15.02591517	      2.68042249	    -27.68795174	     21.33572925	     -7.79114763	      0.37237872	     17.84032535	     27.55157332	     -7.85652190	      1.12302190	      0.87437024	     -4.54202425	     54.36871045	     -5.80261154	      0.94891301	      5.30644966	     -1.75636857	     -7.85652190	    -43.25371499	      1.06033316	      6.48645828	      2.90992592	    -18.86746503	     -6.55275442	     67.52347957	     90.00000001	      0.00000000	      0.00000000	     -1.31984327	    -17.37608131	      0.45292909	     55.92788935	     90.00000001	      0.00000000	      0.00000000
      0.80000000	     21.16800651	      1.60707128	      1.06262601	     -0.21077622	      1.00493136	     -0.10943307	    -17.31475359	      2.97125351	    -27.92253671	     19.49901742	     -7.58734615	      0.34032205	     17.99952936	     29.56440907	     -7.84282659	      1.36839307	      0.98736980	     -3.61566298	     51.78173934	     -4.88214306	      0.90376184	      5.51156435	     -2.60251369	     -7.84282659	    -43.94899398	      0.97550928	      6.58788940	      3.17640550	    -19.29656461	     -5.67961227	     68.37549833	     90.00000001	      0.00000000	      0.00000000	     -1.58296261	    -17.17626298	      0.09038568	     55.01060513	     90.00000001	      0.00000000	      0.00000000
      0.81000000	     21.24959274	      1.45326494	      0.74314423	     -0.19794002	      1.00454279	     -0.10834821	    -18.76546052	      3.12099726	    -28.25289635	     18.41993640	     -7.36735424	      0.32148854	     18.39480455	     30.71499889	     -7.82896171	      2.22774068	      1.05092576	     -3.15037613	     49.23143427	     -4.30959376	      0.85925062	      5.44867170	     -3.01526032	     -7.82896171	    -44.11730554	      0.89696871	      6.70926493	      3.47659321	    -19.56947078	     -5.11385138	     69.01686993	     90.00000001	      0.00000000	      0.00000000	     -2.00390425	    -17.04564559	     -0.09750015	     54.39892213	     90.00000001	      0.00000000	      0.00000000
      0.82000000	     21.18682261	      1.16532339	      0.45545815	     -0.18517206	      1.00353488	     -0.10728644	    -20.02014443	      3.44735067	    -28.27012091	     17.42546875	     -7.13364286	      0.30413180	     18.93602083	     31.35739990	     -7.82102523	      3.23614766	      0.91191710	     -2.83423460	     46.65981354	     -3.82171190	      0.81436737	      5.38397796	     -2.86695158	     -7.82102523	    -44.13930610	      0.96207714	      6.91611035	      3.77084354	    -19.87416751	     -4.55371231	     69.61077600	     90.00000001	      0.00000000	      0.00000000	     -2.37952668	    -16.86900100	     -0.26551608	     53.72056246	     90.00000001	      0.00000000	      0.00000000
      0.83000000	     21.34184015	      1.01991399	      0.08590703	     -0.17218275	      1.00256605	     -0.10634509	    -21.49372104	      3.50323545	    -28.51028422	     16.53748782	     -6.86848402	      0.28863361	     19.20026015	     32.34798212	     -7.80637541	      3.81779685	      0.95545846	     -3.00760473	     43.72492233	     -3.63903119	      0.76314386	      5.17616274	     -2.39621406	     -7.80637541	    -44.36326684	      0.86598289	      7.05150498	      4.09874110	    -20.16463201	     -4.00051195	     70.19242765	     90.00000001	      0.00000000	      0.00000000	     -2.92465812	    -16.71936347	     -0.51970686	     53.42696487	     90.00000001	      0.00000000	      0.00000000
      0.84000000	     21.37342688	      0.75840245	     -0.27670155	     -0.15928383	      1.00105536	     -0.10539922	    -22.75454857	      3.70536154	    -28.51545554	     15.78867413	     -6.64511364	      0.27556435	     19.59960045	     32.95125629	     -7.79426333	      4.52124871	      0.82675447	     -3.48026608	     40.79985486	     -3.59692081	      0.71209180	      5.04006678	     -1.26148998	     -7.79426333	    -44.47472196	      0.88208065	      7.27496001	      4.43517775	    -20.50293033	     -3.43629925	     70.72131067	     90.00000001	      0.00000000	      0.00000000	     -3.42098582	    -16.53359906	     -0.78975461	     53.05354580	     90.00000001	      0.00000000	      0.00000000
      0.85000000	     21.37757561	      0.47608304	     -0.63561927	     -0.14629833	      0.99914380	     -0.10450565	    -23.89735344	      3.90439355	    -28.43485648	     15.26447383	     -6.46887773	      0.26641533	     20.03794866	     33.37862468	     -7.78211776	      5.20820574	      0.64176724	     -4.52536877	     37.82477433	     -3.82993135	      0.66016685	      4.94814102	      0.65860351	     -7.78211776	    -44.53554491	      0.92423214	      7.53197914	      4.76861752	    -20.85446154	     -2.88322112	     71.17264267	     90.00000001	      0.00000000	      0.00000000	     -3.94565860	    -16.32575958	     -1.08706067	     52.79956831	     90.00000001	      0.00000000	      0.00000000
      0.86000000	     21.23132221	      0.00405077	     -1.01677795	     -0.13331086	      0.99668165	     -0.10355081	    -24.75400294	      4.27281226	    -28.29456551	     14.97094879	     -6.37461188	      0.26129235	     20.69014127	     33.74936625	     -7.76042196	      6.12303123	      0.14161343	     -6.50766356	     35.02042949	     -4.38020145	      0.61122180	      5.18631943	      4.37654548	     -7.76042196	    -44.45254271	      1.12577845	      7.90942081	      5.12665499	    -21.14726038	     -2.37226308	     71.61010069	     90.00000001	      0.00000000	      0.00000000	     -4.51868050	    -16.07548905	     -1.30445360	     52.59717529	     90.00000001	      0.00000000	      0.00000000
      0.87000000	     21.16756660	     -0.33538165	     -1.47388849	     -0.12024197	      0.99421399	     -0.10269238	    -25.65489140	      4.44645853	    -28.10101826	     14.79316873	     -6.29675925	      0.25818950	     21.17917706	     33.81169484	     -7.74800027	      6.77436583	     -0.17352634	     -8.42582488	     32.07482116	     -4.73332810	      0.55981124	      4.98756799	      7.20719522	     -7.74800027	    -44.44884884	      1.17380349	      8.27154896	      5.50504847	    -21.51260214	     -1.80060025	     71.93032750	     90.00000001	      0.00000000	      0.00000000	     -5.10513401	    -15.78621506	     -1.68961308	     52.50200235	     90.00000001	      0.00000000	      0.00000000
      0.88000000	     20.98546493	     -0.87290317	     -1.91924924	     -0.10705955	      0.99126091	     -0.10172925	    -26.31915281	      4.83213173	    -27.83112535	     14.85533323	     -6.33892151	      0.25927448	     21.85163030	     33.92726721	     -7.73113942	      7.65972145	     -0.83873163	    -11.26432937	     29.50195028	     -5.29189860	      0.51490617	      5.16916164	     11.78315203	     -7.73113942	    -44.31561720	      1.39670292	      8.77769003	      5.84089019	    -21.85441290	     -1.31699211	     72.19855991	     90.00000001	      0.00000000	      0.00000000	     -5.71797017	    -15.50096661	     -1.96688058	     52.46405821	     90.00000001	      0.00000000	      0.00000000
      0.89000000	     20.56785686	     -1.45386910	     -2.16300867	     -0.09432545	      0.98798850	     -0.10120567	    -26.59065528	      5.42858739	    -27.59100534	     15.05523737	     -6.64414998	      0.26276346	     22.56793025	     33.67687151	     -7.72690024	      8.65463975	     -1.38227719	    -12.39740926	     26.95461523	     -5.18238488	      0.47044678	      4.73958007	     12.97602409	     -7.72690024	    -44.00951499	      1.82465133	      9.22844669	      6.22957181	    -22.17336983	     -0.95391414	     72.34395588	     90.00000001	      0.00000000	      0.00000000	     -6.14982310	    -15.19324679	     -2.08917907	     52.33271688	     90.00000001	      0.00000000	      0.00000000
      0.90000000	     20.73074545	     -1.65935339	     -2.95079224	     -0.08045648	      0.98541932	     -0.10017112	    -27.59050828	      5.11434637	    -27.41207436	     15.41233696	     -6.54075865	      0.26899603	     23.21537061	     33.93121715	     -7.71489856	      9.01128724	     -1.77752650	    -16.91259984	     24.70814220	     -5.89689770	      0.43123843	      4.92173126	     19.05914155	     -7.71489856	    -44.17118190	      1.55064520	      9.63486833	      6.63603501	    -22.49533407	     -0.27207317	     72.47949364	     90.00000001	      0.00000000	      0.00000000	     -6.93413728	    -14.84951811	     -2.70172772	     52.45031438	     90.00000001	      0.00000000	      0.00000000
      0.91000000	     20.49104790	     -2.15933718	     -3.50649786	     -0.06699073	      0.98224630	     -0.09931040	    -28.05409645	      5.34016709	    -27.10144935	     15.81669108	     -6.75214977	      0.27605334	     23.87287272	     34.07086381	     -7.70246348	      9.81457059	     -2.49169330	    -19.99134719	     22.96201910	     -6.00130210	      0.40076284	      5.09287565	     22.98921185	     -7.70246348	    -43.98373853	      1.70264540	     10.20839573	      6.96965087	    -22.80608343	      0.11376168	     72.53090479	     90.00000001	      0.00000000	      0.00000000	     -7.49951895	    -14.54737444	     -2.91082377	     52.43778576	     90.00000001	      0.00000000	      0.00000000
      0.92000000	     20.27689562	     -2.48174695	     -4.09772977	     -0.05345698	      0.97923489	     -0.09862199	    -28.48657984	      5.28682062	    -26.96481550	     16.36552044	     -6.96994060	      0.28563222	     24.53263989	     34.26051702	     -7.69214317	     10.42771305	     -2.89887742	    -22.48755329	     21.36861783	     -5.94327848	      0.37295274	      5.13343347	     25.39941421	     -7.69214317	    -43.82532037	      1.68620837	     10.65307394	      7.33926095	    -23.05011874	      0.54255979	     72.48106736	     90.00000001	      0.00000000	      0.00000000	     -8.04497585	    -14.22481965	     -3.19388348	     52.40866635	     90.00000001	      0.00000000	      0.00000000
      0.93000000	     19.83829187	     -2.89308692	     -4.23076744	     -0.03999644	      0.97597326	     -0.09852274	    -28.76017020	      5.54857559	    -26.96732051	     16.73125983	     -7.07233716	      0.29201557	     24.72275383	     34.11399719	     -7.69045769	     11.30481494	     -3.25607031	    -23.32866008	     20.26178163	     -5.58833742	      0.35363480	      5.33602695	     25.27513537	     -7.69045769	    -43.46702720	      2.04742340	     10.89049339	      7.62248957	    -23.11051123	      0.58856085	     72.48074362	     90.00000001	      0.00000000	      0.00000000	     -8.47305886	    -14.01590347	     -3.15596866	     52.33443008	     90.00000001	      0.00000000	      0.00000000
      0.94000000	     19.69009340	     -2.99847744	     -5.28889677	     -0.02604225	      0.97323498	     -0.09737239	    -29.05636075	      4.87872482	    -27.00713235	     17.75947162	     -7.49214778	      0.30996125	     25.67253672	     35.30038946	     -7.68022836	     11.65707890	     -3.53468153	    -26.73532917	     19.35668457	     -5.76744976	      0.33783788	      5.74473779	     28.88565184	     -7.68022836	    -43.32989206	      1.54587799	     11.46345666	      8.01602471	    -23.37865524	      1.18960704	     72.15428575	     90.00000001	      0.00000000	      0.00000000	     -8.99351879	    -13.63292262	     -3.61141592	     52.30322131	     90.00000001	      0.00000000	      0.00000000
      0.95000000	     19.28238165	     -3.28216382	     -5.83402486	     -0.01229245	      0.97033761	     -0.09677949	    -29.20780628	      4.74209108	    -26.76404032	     18.46999190	     -7.78833202	      0.32236217	     25.91517727	     35.57518775	     -7.67838742	     12.26003513	     -3.77486116	    -27.76384232	     18.85927596	     -5.63949019	      0.32915646	      6.17879905	     28.83340552	     -7.67838742	    -42.97734220	      1.53035457	     11.89329668	      8.29209581	    -23.45625789	      1.34915680	     71.85858680	     90.00000001	      0.00000000	      0.00000000	     -9.31649707	    -13.39856184	     -3.60777318	     52.12566223	     90.00000001	      0.00000000	      0.00000000
      0.96000000	     18.83977170	     -3.49151228	     -6.23890720	      0.00172057	      0.96751507	     -0.09633565	    -29.34785605	      4.55185071	    -26.60284164	     19.16103121	     -7.99249035	      0.33442308	     26.01089128	     35.83894039	     -7.67739802	     12.87989014	     -3.86604413	    -28.49106797	     18.70961427	     -5.69315112	      0.32654437	      6.43149260	     28.73697349	     -7.67739802	    -42.57000372	      1.52540410	     12.12240314	      8.49142699	    -23.41687473	      1.44448036	     71.68283413	     90.00000001	      0.00000000	      0.00000000	     -9.65688371	    -13.22802955	     -3.61491345	     51.93888439	     90.00000001	      0.00000000	      0.00000000
      0.97000000	     18.53036355	     -3.48016440	     -7.07695124	      0.01612381	      0.96494485	     -0.09539985	    -29.44355255	      3.79194959	    -26.56458340	     20.24480895	     -8.34211233	      0.35333857	     26.44972579	     36.75842440	     -7.67066811	     13.36635189	     -3.91734465	    -30.25214431	     19.23620953	     -6.01861294	      0.33573519	      6.87581814	     29.50362170	     -7.67066811	    -42.21203675	      1.05158047	     12.48267155	      8.68837864	    -23.46341573	      1.75002882	     71.30946884	     90.00000001	      0.00000000	      0.00000000	     -9.94544076	    -12.99525428	     -3.85200196	     51.70730865	     90.00000001	      0.00000000	      0.00000000
      0.98000000	     18.10904873	     -3.59005539	     -7.51555280	      0.03062362	      0.96251094	     -0.09497104	    -29.51254014	      3.40790973	    -26.23892589	     21.14880367	     -8.53139561	      0.36911626	     26.16485192	     36.99212340	     -7.66938034	     13.91783028	     -3.87161458	    -30.50971660	     19.89553610	     -6.36058559	      0.34724261	      6.86549871	     29.07298503	     -7.66938034	    -41.75534919	      0.94057030	     12.66512602	      8.78687191	    -23.33264916	      1.73493855	     70.94517205	     90.00000001	      0.00000000	      0.00000000	    -10.13566744	    -12.86543024	     -3.75993745	     51.40264891	     90.00000001	      0.00000000	      0.00000000
      0.99000000	     17.73769905	     -3.60295416	     -8.01477104	      0.04535432	      0.96034264	     -0.09437225	    -29.56225039	      2.91057207	    -25.79827950	     22.15151229	     -8.79670851	      0.38661682	     25.73802049	     37.22874601	     -7.66823812	     14.38703336	     -3.73113727	    -30.59303215	     20.87877393	     -6.79277240	      0.36440335	      6.66952780	     28.44505242	     -7.66823812	    -41.31474607	      0.68748621	     12.81745626	      8.81864097	    -23.17001706	      1.72708589	     70.59937923	     90.00000001	      0.00000000	      0.00000000	    -10.25618716	    -12.76488971	     -3.67730888	     51.07601391	     90.00000001	      0.00000000	      0.00000000
      1.00000000	     17.41076436	     -3.56412306	     -8.52936288	      0.06039452	      0.95847751	     -0.09367201	    -29.59027727	      2.33180116	    -25.32710115	     23.26533557	     -9.05942175	      0.40605671	     24.99713285	     37.38223006	     -7.66682972	     14.78097027	     -3.54502610	    -30.56679830	     22.11674303	     -7.30107404	      0.38600999	      6.20154878	     27.42097858	     -7.66682972	    -40.86568280	      0.35992706	     12.92741796	      8.75830261	    -22.93005786	      1.68685654	     70.22293820	     90.00000001	      0.00000000	      0.00000000	    -10.33485673	    -12.74283095	     -3.57467166	     50.67417821	     90.00000001	      0.00000000	      0.00000000
      1.01000000	     17.14968641	     -3.40067425	     -8.93527093	      0.07536886	      0.95714719	     -0.09315992	    -29.59997564	      1.73484445	    -24.71817559	     24.42366502	     -9.36441664	      0.42627337	     23.75213067	     37.28654933	     -7.65766388	     14.92762497	     -2.98112095	    -28.97919894	     23.18426542	     -7.45605536	      0.40464177	      5.09096662	     23.59595528	     -7.65766388	    -40.49545557	     -0.03684989	     12.92848393	      8.64875993	    -22.65597833	      1.44921624	     69.88992106	     90.00000001	      0.00000000	      0.00000000	    -10.24226654	    -12.80321512	     -3.29522942	     50.20631491	     90.00000001	      0.00000000	      0.00000000
      1.02000000	     16.98299514	     -3.24700024	     -9.25552991	      0.09076735	      0.95606453	     -0.09274872	    -29.61045876	      1.10096856	    -24.20433742	     25.84448845	     -9.57526407	      0.45107142	     22.32871826	     37.22001891	     -7.65638111	     15.13370124	     -2.59445189	    -28.48801685	     24.68885084	     -7.99406205	      0.43090174	      4.34680608	     22.88411876	     -7.65638111	    -40.16614068	     -0.37953594	     12.77918675	      8.51443282	    -22.36241962	      1.34483604	     69.54629522	     90.00000001	      0.00000000	      0.00000000	    -10.20928186	    -12.84974753	     -3.18467750	     49.83966549	     90.00000001	      0.00000000	      0.00000000
      1.03000000	     16.92315155	     -2.96166647	     -9.60647619	      0.10613073	      0.95568634	     -0.09219316	    -29.60962803	      0.46138816	    -23.52564485	     27.24933758	    -10.01284331	      0.47559066	     19.69211878	     36.65405095	     -7.65276573	     15.09214606	     -1.93243409	    -27.43868718	     25.97985674	     -8.38789638	      0.45343404	      3.13581788	     20.20979178	     -7.65276573	    -39.94092070	     -0.90049941	     12.65372251	      8.29155003	    -21.95864959	      1.01063925	     69.19718242	     90.00000001	      0.00000000	      0.00000000	     -9.97165648	    -12.99960449	     -2.84605503	     49.38104906	     90.00000001	      0.00000000	      0.00000000
      1.04000000	     16.97486233	     -2.61615979	     -9.63620447	      0.12129746	      0.95588912	     -0.09221947	    -29.59788415	     -0.14470532	    -22.71179669	     28.97797895	    -10.14813772	      0.50576114	     17.44995009	     35.49681274	     -7.64520294	     14.76343514	     -1.00846367	    -24.70436806	     27.11536956	     -8.09923000	      0.47325248	      1.97562057	     15.97140886	     -7.64520294	    -39.88396883	     -1.31071622	     12.20649496	      8.09259022	    -21.59190918	      0.65914201	     68.93674693	     90.00000001	      0.00000000	      0.00000000	     -9.63721792	    -13.20982663	     -2.47722043	     49.00168353	     90.00000001	      0.00000000	      0.00000000
      1.05000000	     17.15670268	     -2.22658305	     -9.72047546	      0.13672329	      0.95660248	     -0.09211284	    -29.56920847	     -0.78836264	    -21.78672465	     30.93118853	    -10.32757842	      0.53985108	     14.67413299	     33.72664979	     -7.63794476	     14.31885698	     -0.16001502	    -22.95005312	     28.35460267	     -8.03411846	      0.49488117	      1.31006790	     13.30223328	     -7.63794476	    -39.91570347	     -1.80946548	     11.73523973	      7.86633390	    -21.19262820	      0.36864348	     68.65580753	     90.00000001	      0.00000000	      0.00000000	     -9.29987556	    -13.42592157	     -2.21477245	     48.66388344	     90.00000001	      0.00000000	      0.00000000
      1.06000000	     17.47599545	     -1.81976062	     -9.77869564	      0.15208858	      0.95795929	     -0.09201107	    -29.53493615	     -1.38894630	    -20.49780026	     33.12979783	    -10.36683534	      0.57822405	     11.71688270	     30.93253069	     -7.63112501	     13.61025793	      0.70333308	    -21.15106568	     29.46334417	     -7.77562716	      0.51423236	      0.98472160	     10.76951995	     -7.63112501	    -40.10069049	     -2.32746634	     11.22512598	      7.62189211	    -20.79407660	      0.04392724	     68.41619470	     90.00000001	      0.00000000	      0.00000000	     -8.88905837	    -13.67367286	     -1.90835690	     48.38148563	     90.00000001	      0.00000000	      0.00000000
      1.07000000	     17.90058769	     -1.44548831	     -9.81248989	      0.16734714	      0.95989625	     -0.09188182	    -29.47283156	     -1.87665462	    -18.75360175	     35.56020421	    -10.20518155	      0.62064265	      8.75466239	     27.12369076	     -7.62300423	     12.66597376	      1.50956536	    -19.34642351	     30.45126459	     -7.32624327	      0.53147483	      1.04813258	      8.22723089	     -7.62300423	    -40.41392536	     -2.81592084	     10.71791232	      7.36954009	    -20.44225196	     -0.23499936	     68.19297557	     90.00000001	      0.00000000	      0.00000000	     -8.40542247	    -13.92437092	     -1.66696435	     48.15973692	     90.00000001	      0.00000000	      0.00000000
      1.08000000	     18.44765876	     -1.06551966	     -9.84028623	      0.18248979	      0.96234997	     -0.09170252	    -29.37081307	     -2.32525388	    -16.73452166	     38.24796911	     -9.85213983	      0.66755299	      5.91172742	     22.67994567	     -7.61578127	     11.43837473	      2.28744229	    -17.94289195	     31.13640806	     -6.88035632	      0.54343284	      1.38031094	      6.52005057	     -7.61578127	    -40.86662742	     -3.31254703	     10.17965484	      7.10964917	    -20.08429378	     -0.55484100	     68.03192818	     90.00000001	      0.00000000	      0.00000000	     -7.88622776	    -14.21904166	     -1.38576567	     48.03701283	     90.00000001	      0.00000000	      0.00000000
      1.09000000	     19.05115788	     -0.74008511	     -9.85013465	      0.19754710	      0.96518289	     -0.09147761	    -29.17846648	     -2.66466628	    -14.53400637	     41.12304523	     -9.32888036	      0.71773254	      3.29530381	     17.83511172	     -7.60887156	     10.00608780	      2.97044157	    -17.05423577	     31.55710538	     -6.54334274	      0.55077539	      2.04960559	      5.63197001	     -7.60887156	    -41.38477418	     -3.74927764	      9.65177921	      6.83828271	    -19.75315350	     -0.85513321	     67.91830539	     90.00000001	      0.00000000	      0.00000000	     -7.36837474	    -14.52706789	     -1.14613200	     48.01660853	     90.00000001	      0.00000000	      0.00000000
      1.10000000	     19.64665853	     -0.41239121	     -9.84833617	      0.21245530	      0.96817136	     -0.09124669	    -28.79938084	     -2.97670180	    -12.37921398	     44.17381196	     -8.70044108	      0.77097846	      1.15000730	     13.05117819	     -7.60371637	      8.48276055	      3.61791005	    -16.85989726	     31.69303771	     -6.47139186	      0.55314786	      2.89440090	      5.79634817	     -7.60371637	    -41.88984760	     -4.15968882	      9.11880046	      6.55216834	    -19.44281710	     -1.15944430	     67.82748805	     90.00000001	      0.00000000	      0.00000000	     -6.85275213	    -14.86416511	     -0.90017253	     48.12464680	     90.00000001	      0.00000000	      0.00000000
      1.11000000	     20.05195824	     -0.33659249	     -9.80393671	      0.22705017	      0.97105410	     -0.09091843	    -28.06074941	     -2.90568332	    -10.07902074	     47.33912264	     -7.97924408	      0.82622356	     -0.71174766	      8.19623852	     -7.59643486	      7.11829413	      3.83589373	    -17.40633322	     31.80369990	     -6.61874079	      0.55507928	      4.22392347	      6.94764682	     -7.59643486	    -42.24304996	     -4.28091920	      8.74624945	      6.24766928	    -19.23292615	     -1.38814708	     67.78437580	     90.00000001	      0.00000000	      0.00000000	     -6.31259377	    -15.12682296	     -0.78531513	     48.25607187	     90.00000001	      0.00000000	      0.00000000
      1.12000000	     20.23242606	     -0.23034138	     -9.73394173	      0.24137208	      0.97363485	     -0.09068059	    -26.85143456	     -2.83896842	     -8.23827941	     50.63759976	     -7.37707415	      0.88379284	     -1.95853028	      4.04461340	     -7.58888442	      5.96707915	      4.01403803	    -18.56803909	     31.70772348	     -7.02777675	      0.55340417	      5.58920720	      9.03504910	     -7.58888442	    -42.37335055	     -4.36698264	      8.37497686	      5.93494795	    -19.03680048	     -1.62454139	     67.74772555	     90.00000001	      0.00000000	      0.00000000	     -5.77090540	    -15.39956935	     -0.69334083	     48.49162462	     90.00000001	      0.00000000	      0.00000000
      1.13000000	     20.21816165	     -0.07508050	     -9.65398834	      0.25542735	      0.97594845	     -0.09056715	    -25.24387559	     -2.81562983	     -6.88689180	     53.92608319	     -6.96415200	      0.94118770	     -2.52930318	      0.85386428	     -7.58378234	      4.98435075	      4.21691255	    -19.89594186	     31.43212899	     -7.50908814	      0.54859414	      6.66720453	     11.29038922	     -7.58378234	    -42.29812194	     -4.43181173	      7.98534481	      5.64522386	    -18.84541979	     -1.86710575	     67.67181784	     90.00000001	      0.00000000	      0.00000000	     -5.24415124	    -15.67330967	     -0.61745883	     48.79006700	     90.00000001	      0.00000000	      0.00000000
      1.14000000	     20.24373501	     -0.09773542	     -9.56279301	      0.26929120	      0.97847838	     -0.09034430	    -23.64208621	     -2.59501139	     -5.85046947	     56.86697857	     -6.70130576	      0.99251601	     -2.77622384	     -1.95491352	     -7.57770876	      3.88786630	      4.15457535	    -21.48761021	     31.09490324	     -7.98274755	      0.54270844	      8.11662191	     13.98294739	     -7.57770876	    -42.30258188	     -4.33763848	      7.74105346	      5.30139018	    -18.77285809	     -2.02602104	     67.73782997	     90.00000001	      0.00000000	      0.00000000	     -4.67696794	    -15.89883809	     -0.66459113	     49.17498099	     90.00000001	      0.00000000	      0.00000000
      1.15000000	     20.23872340	      0.10743903	     -9.39071323	      0.28309124	      0.98101706	     -0.09060228	    -21.88305003	     -2.68388102	     -5.83845269	     59.51950067	     -6.98174277	      1.03881126	     -2.23197403	     -3.00205212	     -7.57593236	      2.64415731	      4.52020950	    -21.87515468	     30.35553947	     -7.99388753	      0.52980411	      8.81147362	     14.97889536	     -7.57593236	    -42.24389261	     -4.33536811	      7.26744607	      5.00446182	    -18.69452934	     -2.22080152	     67.74728960	     90.00000001	      0.00000000	      0.00000000	     -4.22075858	    -16.14303467	     -0.72015193	     49.69077668	     90.00000001	      0.00000000	      0.00000000
      1.16000000	     20.27194159	      0.20188449	     -9.24877821	      0.29675290	      0.98372341	     -0.09074806	    -20.16423907	     -2.68435949	     -5.81095314	     61.74645234	     -7.18400973	      1.07767889	     -1.48107499	     -4.06183066	     -7.57419605	      1.33342332	      4.72706886	    -22.36334788	     29.59713092	     -7.98142713	      0.51656738	      9.48391904	     16.20321785	     -7.57419605	    -42.24215795	     -4.25346737	      6.91543314	      4.70127299	    -18.65604755	     -2.40440472	     67.76919241	     90.00000001	      0.00000000	      0.00000000	     -3.72300401	    -16.36417856	     -0.79971792	     50.22528514	     90.00000001	      0.00000000	      0.00000000
      1.17000000	     20.39333118	      0.00450868	     -8.99553950	      0.31017391	      0.98679927	     -0.09101409	    -18.60931719	     -2.34204824	     -5.98596937	     63.35903099	     -7.49172655	      1.10582370	     -0.80033627	     -4.44021228	     -7.57324035	     -0.12498876	      4.61591007	    -22.45449195	     28.90051873	     -7.79718692	      0.50440921	      9.85192632	     16.68893398	     -7.57324035	    -42.39823657	     -3.81875467	      6.63635183	      4.52293058	    -18.71965427	     -2.52757783	     67.76685505	     90.00000001	      0.00000000	      0.00000000	     -3.19845909	    -16.50502554	     -0.88469871	     50.71105636	     90.00000001	      0.00000000	      0.00000000
      1.18000000	     20.47339805	      0.17133273	     -8.93115370	      0.32378775	      0.98949079	     -0.09102549	    -16.90879508	     -2.52132083	     -6.28765649	     64.75268196	     -7.76550271	      1.13014750	      0.50715699	     -5.18047318	     -7.57166276	     -1.60537356	      4.93870325	    -22.60150368	     27.89380995	     -7.56965976	      0.48683882	     10.50543787	     17.98889690	     -7.57166276	    -42.39827575	     -3.85276460	      6.37048936	      4.11853303	    -18.70754296	     -2.75113996	     67.88545255	     90.00000001	      0.00000000	      0.00000000	     -2.74858038	    -16.73905577	     -1.03964150	     51.44794310	     90.00000001	      0.00000000	      0.00000000
      1.19000000	     20.53080203	      0.07455574	     -8.76421216	      0.33716223	      0.99225169	     -0.09115288	    -15.25246808	     -2.33145434	     -6.62701366	     65.58359251	     -8.08546756	      1.14464962	      1.62700742	     -5.40088077	     -7.57040280	     -3.06504343	      4.94879755	    -22.59600522	     26.96331601	     -7.30253146	      0.47059864	     10.85762724	     18.77395829	     -7.57040280	    -42.45444770	     -3.56197051	      6.18482640	      3.81259728	    -18.80171052	     -2.92086441	     67.92477751	     90.00000001	      0.00000000	      0.00000000	     -2.27186099	    -16.91510029	     -1.17624352	     52.13165058	     90.00000001	      0.00000000	      0.00000000
      1.20000000	     20.54272739	     -0.03852564	     -8.54494158	      0.35038280	      0.99477442	     -0.09137035	    -13.55887569	     -2.11176378	     -7.01705349	     66.01730175	     -8.34510061	      1.15221928	      2.75753730	     -5.47715509	     -7.56932448	     -4.45884531	      4.95737396	    -22.53977125	     26.00946135	     -7.10329071	      0.45395074	     11.15738060	     19.40584313	     -7.56932448	    -42.47080829	     -3.20997716	      5.99029772	      3.54268404	    -18.90085086	     -3.10258522	     67.98658436	     90.00000001	      0.00000000	      0.00000000	     -1.78976599	    -17.08347546	     -1.31192367	     52.85314166	     90.00000001	      0.00000000	      0.00000000
      1.21000000	     20.82774328	      0.02804185	     -8.30077452	      0.36393665	      0.99735728	     -0.09171372	    -12.24744668	     -2.24006566	     -7.97517001	     65.92447077	     -8.87342384	      1.15059907	      4.31906308	     -4.31804408	     -7.56583773	     -6.16529502	      5.14864423	    -23.10844659	     24.90173321	     -7.06526709	      0.43461723	     11.46035503	     21.66287497	     -7.56583773	    -42.70649879	     -3.03299520	      5.64370995	      3.21999532	    -18.95430045	     -3.37227953	     68.14712363	     90.00000001	      0.00000000	      0.00000000	     -1.40366011	    -17.34189075	     -1.41119108	     53.78467427	     90.00000001	      0.00000000	      0.00000000
      1.22000000	     20.81993860	     -0.02511860	     -7.92943640	      0.37714749	      0.99932094	     -0.09214403	    -10.63899645	     -2.06632419	     -8.41542448	     65.60598461	     -8.94273634	      1.14504044	      5.46684854	     -4.12449408	     -7.56349500	     -7.48437251	      5.18024383	    -23.36817252	     23.93849036	     -7.04491493	      0.41780547	     11.82155877	     22.85006108	     -7.56349500	    -42.68408203	     -2.64353784	      5.33773115	      2.89383065	    -19.02470857	     -3.66780243	     68.23256025	     90.00000001	      0.00000000	      0.00000000	     -0.96738190	    -17.54829859	     -1.54076264	     54.62051498	     90.00000001	      0.00000000	      0.00000000
      1.23000000	     20.80378101	     -0.16325709	     -7.64318838	      0.39029020	      1.00098473	     -0.09230897	     -9.06230998	     -1.77729703	     -8.79397941	     64.93521034	     -9.05731877	      1.13333322	      6.46276998	     -3.74168680	     -7.55989828	     -8.75755560	      5.02528358	    -24.17227140	     23.05780883	     -7.06425383	      0.40243468	     12.12688428	     24.86947495	     -7.55989828	    -42.65547892	     -2.25027297	      5.17967390	      2.58695735	    -19.14220818	     -3.89523114	     68.31921858	     90.00000001	      0.00000000	      0.00000000	     -0.50798033	    -17.76692794	     -1.60263571	     55.48554994	     90.00000001	      0.00000000	      0.00000000
      1.24000000	     20.53996605	     -0.20029386	     -7.29745692	      0.40310806	      1.00198989	     -0.09258855	     -7.19380531	     -1.55551784	     -8.87460104	     64.13568266	     -8.83754979	      1.11937883	      7.20272973	     -3.91189722	     -7.55900570	     -9.73056660	      5.01304798	    -24.29267159	     22.19269904	     -6.96287436	      0.38733567	     12.40733902	     25.26889439	     -7.55900570	    -42.39626577	     -1.89190866	      4.94419630	      2.33675748	    -19.23219786	     -4.12942582	     68.32302281	     90.00000001	      0.00000000	      0.00000000	      0.03148219	    -17.96927932	     -1.69458199	     56.28895425	     90.00000001	      0.00000000	      0.00000000
      1.25000000	     20.72834558	     -0.16075151	     -6.97266403	      0.41634340	      1.00332661	     -0.09275128	     -6.02070157	     -1.52662309	     -8.73424304	     62.89834002	     -8.30716919	      1.09778313	      7.87730122	     -4.15870607	     -7.55709987	    -11.29159223	      5.07337760	    -24.93846394	     21.13729752	     -6.86062492	      0.36891544	     12.76240046	     27.45924864	     -7.55709987	    -42.55580855	     -1.68483506	      4.65424609	      2.01416022	    -19.21476593	     -4.58676916	     68.46003166	     90.00000001	      0.00000000	      0.00000000	      0.47663592	    -18.29501729	     -1.67651595	     57.33946933	     90.00000001	      0.00000000	      0.00000000
      1.26000000	     20.59400913	     -0.18234146	     -6.70106857	      0.42931745	      1.00380610	     -0.09273232	     -4.44425981	     -1.32203304	     -8.51859076	     61.58932107	     -7.90019258	      1.07493644	      8.40188978	     -4.48788268	     -7.55577093	    -12.42786394	      5.03323872	    -25.27139099	     20.27537087	     -6.67619738	      0.35387198	     13.21587275	     28.63007339	     -7.55577093	    -42.39803419	     -1.44082791	      4.49874925	      1.72978080	    -19.27340074	     -4.92406378	     68.46541595	     90.00000001	      0.00000000	      0.00000000	      1.00590658	    -18.56557734	     -1.67260912	     58.27210985	     90.00000001	      0.00000000	      0.00000000
      1.27000000	     20.70109634	     -0.25968312	     -6.40355192	      0.44238812	      1.00434891	     -0.09266908	     -3.29788009	     -1.07754758	     -8.00283841	     59.92994072	     -7.20405015	      1.04597479	      8.50735582	     -5.18070960	     -7.55358938	    -13.78441479	      4.90167502	    -26.08577244	     19.49289587	     -6.62591556	      0.34021521	     13.58210837	     30.48803880	     -7.55358938	    -42.49522564	     -1.16345603	      4.34967414	      1.42056207	    -19.32716136	     -5.30579494	     68.59467650	     90.00000001	      0.00000000	      0.00000000	      1.57860605	    -18.87816157	     -1.52654633	     59.19399881	     90.00000001	      0.00000000	      0.00000000
      1.28000000	     20.43423461	     -0.16283498	     -6.15656055	      0.45527605	      1.00393772	     -0.09254786	     -1.65467095	     -1.02046147	     -7.72657231	     58.27724838	     -6.74696866	      1.01712986	      8.81358971	     -5.40632831	     -7.55275654	    -14.67427852	      5.02518380	    -26.13335653	     18.79451394	     -6.51235589	      0.32802615	     14.07359602	     30.80878066	     -7.55275654	    -42.20155282	     -1.05639493	      4.13044189	      1.19171144	    -19.31091138	     -5.58378230	     68.55117448	     90.00000001	      0.00000000	      0.00000000	      2.15676935	    -19.15931357	     -1.49505992	     60.02766644	     90.00000001	      0.00000000	      0.00000000
      1.29000000	     20.76480020	     -0.22436507	     -5.90704271	      0.46850775	      1.00419716	     -0.09212591	     -0.95509683	     -0.86893445	     -7.03556285	     56.15899683	     -5.84413465	      0.98015940	      8.70085912	     -6.45413477	     -7.55080001	    -16.37615518	      4.89519422	    -26.49890422	     17.95530718	     -6.16220706	      0.31337923	     14.50994224	     32.28182478	     -7.55080001	    -42.50917331	     -0.89829481	      4.05543879	      0.85926225	    -19.25391273	     -6.10397020	     68.73273070	     90.00000001	      0.00000000	      0.00000000	      2.80663533	    -19.55159349	     -1.15983102	     60.99322484	     90.00000001	      0.00000000	      0.00000000
      1.30000000	     20.79141350	     -0.16664594	     -5.64646443	      0.48146200	      1.00357477	     -0.09174870	      0.14635843	     -0.77438000	     -6.54043467	     54.06376266	     -5.25785631	      0.94359066	      8.70473511	     -7.01724598	     -7.54917663	    -17.60870429	      4.90997527	    -26.59421107	     17.29777553	     -5.92094846	      0.30190314	     15.13991210	     33.01973048	     -7.54917663	    -42.52931120	     -0.81698427	      3.87267205	      0.60870889	    -19.18738700	     -6.55443530	     68.74058423	     90.00000001	      0.00000000	      0.00000000	      3.49395162	    -19.92384428	     -0.90919746	     61.87448969	     90.00000001	      0.00000000	      0.00000000
      1.31000000	     20.85681493	     -0.17904452	     -5.40340219	      0.49447402	      1.00271842	     -0.09121827	      1.11199732	     -0.63087334	     -6.23967515	     51.73955219	     -4.79819361	      0.90302554	      8.57729063	     -7.46434890	     -7.54698614	    -18.86756298	      4.82735995	    -26.72627750	     16.72888836	     -5.68637587	      0.29197418	     15.64317128	     33.67327573	     -7.54698614	    -42.58435401	     -0.69854067	      3.78150618	      0.32222429	    -19.12223467	     -6.99283504	     68.81114245	     90.00000001	      0.00000000	      0.00000000	      4.23269289	    -20.29109964	     -0.55096074	     62.68074055	     90.00000001	      0.00000000	      0.00000000
      1.32000000	     20.90758622	     -0.07284803	     -5.14065868	      0.50749017	      1.00152351	     -0.09069671	      2.04843224	     -0.65879520	     -6.20825221	     49.29797798	     -4.51587907	      0.86041203	      8.63164147	     -7.34204685	     -7.54528476	    -20.07346860	      4.86740971	    -26.66183919	     16.20811458	     -5.45765357	      0.28288496	     16.26422353	     34.08244040	     -7.54528476	    -42.62399366	     -0.69789826	      3.59839249	      0.06520560	    -18.99805700	     -7.46441516	     68.83366986	     90.00000001	      0.00000000	      0.00000000	      5.01099337	    -20.68947253	     -0.14510866	     63.47187969	     90.00000001	      0.00000000	      0.00000000
      1.33000000	     20.94857597	      0.02698089	     -4.87655340	      0.52049015	      1.00002782	     -0.09007960	      2.94003973	     -0.68606960	     -6.56620807	     46.69780160	     -4.51642396	      0.81503039	      8.68217889	     -6.63881306	     -7.54331345	    -21.21818502	      4.87512462	    -26.59283929	     15.80402211	     -5.25589907	      0.27583222	     16.87223421	     34.44515457	     -7.54331345	    -42.65676108	     -0.69987597	      3.43568412	     -0.20206769	    -18.85468638	     -7.93345883	     68.86366801	     90.00000001	      0.00000000	      0.00000000	      5.84601968	    -21.08878070	      0.34328268	     64.18819334	     90.00000001	      0.00000000	      0.00000000
      1.34000000	     20.97372592	      0.16374917	     -4.60502861	      0.53348713	      0.99823720	     -0.08943283	      3.80674972	     -0.78698144	     -7.35237713	     43.99121168	     -4.74926188	      0.76779149	      8.80751558	     -5.28045667	     -7.54149616	    -22.29459009	      4.91181793	    -26.45754135	     15.48529600	     -5.10116007	      0.27026940	     17.51449481	     34.72015507	     -7.54149616	    -42.67710126	     -0.73459108	      3.26018938	     -0.47752721	    -18.68643047	     -8.42521637	     68.89822636	     90.00000001	      0.00000000	      0.00000000	      6.72165228	    -21.50201766	      0.92304170	     64.85058683	     90.00000001	      0.00000000	      0.00000000
      1.35000000	     20.96595320	      0.36353013	     -4.34151285	      0.54648083	      0.99615114	     -0.08870345	      4.68668360	     -0.97302905	     -8.58998698	     41.21989207	     -5.23533498	      0.71942283	      8.95019823	     -3.18164213	     -7.53979504	    -23.27997381	      4.98379567	    -26.25461859	     15.28569693	     -4.94571236	      0.26678574	     18.22299227	     34.96388420	     -7.53979504	    -42.66202195	     -0.83905426	      3.06232818	     -0.74955781	    -18.47922583	     -8.92330695	     68.90063092	     90.00000001	      0.00000000	      0.00000000	      7.64208917	    -21.91585049	      1.58804085	     65.44649849	     90.00000001	      0.00000000	      0.00000000
      1.36000000	     20.88511619	      0.64329213	     -4.06676179	      0.55951522	      0.99369581	     -0.08805554	      5.65559742	     -1.31255515	    -10.54835488	     38.42989556	     -6.01460615	      0.67072821	      9.26316768	      0.38461577	     -7.53761596	    -24.09274099	      5.13654584	    -26.08739874	     15.22364995	     -4.92184965	      0.26570282	     18.87033771	     35.18788593	     -7.53761596	    -42.56547033	     -0.99415142	      2.80771485	     -1.04435719	    -18.28395182	     -9.37733324	     68.92027667	     90.00000001	      0.00000000	      0.00000000	      8.58583012	    -22.31239089	      2.27091284	     65.97411294	     90.00000001	      0.00000000	      0.00000000
      1.37000000	     20.69976958	      1.08702871	     -3.85375067	      0.57256561	      0.99084607	     -0.08735161	      6.81731564	     -1.90556569	    -12.93825008	     35.81854017	     -6.87337460	      0.62515146	      9.56549287	      4.85002076	     -7.53470961	    -24.73741274	      5.49359080	    -25.78663413	     15.23081201	     -4.95491478	      0.26582782	     19.58069236	     35.32200643	     -7.53470961	    -42.34450785	     -1.33593201	      2.46941635	     -1.27304826	    -18.03814937	     -9.74936729	     68.80809556	     90.00000001	      0.00000000	      0.00000000	      9.48560904	    -22.70043334	      2.92307436	     66.46244233	     90.00000001	      0.00000000	      0.00000000
      1.38000000	     20.55704391	      1.44853668	     -3.57088324	      0.58563225	      0.98802131	     -0.08655801	      7.81951488	     -2.40411750	    -15.48607876	     33.11841828	     -7.60604823	      0.57802544	      9.42707880	      9.17761768	     -7.53237847	    -25.39155110	      5.68408326	    -25.48585722	     15.35555337	     -4.97936185	      0.26800496	     20.23184959	     35.42940528	     -7.53237847	    -42.20608688	     -1.57765268	      2.19051896	     -1.58145687	    -17.78129746	    -10.18699808	     68.80109856	     90.00000001	      0.00000000	      0.00000000	     10.47200918	    -23.08710601	      3.73434770	     66.85183440	     90.00000001	      0.00000000	      0.00000000
      1.39000000	     20.40060243	      1.79862710	     -3.27040054	      0.59882777	      0.98512830	     -0.08586387	      8.79267974	     -2.96166516	    -18.28923744	     30.52814219	     -8.19473220	      0.53281660	      9.00785491	     13.62058687	     -7.53055405	    -26.00863244	      5.84585077	    -25.13903076	     15.56185657	     -4.99705988	      0.27160563	     20.89642902	     35.51414441	     -7.53055405	    -42.02850066	     -1.77487642	      1.91853195	     -1.87465223	    -17.54192518	    -10.64354088	     68.74482564	     90.00000001	      0.00000000	      0.00000000	     11.44330075	    -23.42725122	      4.65253398	     67.17746284	     90.00000001	      0.00000000	      0.00000000
      1.40000000	     20.19804278	      2.24652016	     -2.97046399	      0.61210872	      0.98209782	     -0.08509591	      9.81876563	     -3.69095778	    -21.23048015	     28.19985259	     -8.61673252	      0.49218028	      8.48391726	     18.52134919	     -7.52874147	    -26.53885170	      6.09978232	    -24.76911204	     15.81062366	     -5.09448898	      0.27594744	     21.49855075	     35.63760838	     -7.52874147	    -41.80047860	     -2.06705352	      1.55435213	     -2.14406577	    -17.27435831	    -10.97027694	     68.62230756	     90.00000001	      0.00000000	      0.00000000	     12.36151488	    -23.74604219	      5.45164755	     67.49159855	     90.00000001	      0.00000000	      0.00000000
      1.41000000	     19.98706400	      2.64899669	     -2.63964995	      0.62553113	      0.97910111	     -0.08427394	     10.77199917	     -4.40600943	    -24.06311510	     26.10920044	     -8.77763127	      0.45569151	      7.77584107	     22.98096525	     -7.52686008	    -27.05084541	      6.26565503	    -24.38791154	     16.11279747	     -5.18736774	      0.28122137	     22.00975337	     35.71856176	     -7.52686008	    -41.57899129	     -2.30185138	      1.19728199	     -2.42483009	    -17.02500036	    -11.26325334	     68.46510654	     90.00000001	      0.00000000	      0.00000000	     13.22961454	    -24.03285152	      6.23512545	     67.76063259	     90.00000001	      0.00000000	      0.00000000
      1.42000000	     19.82184142	      2.90794471	     -2.24083034	      0.63908759	      0.97632800	     -0.08340703	     11.48240303	     -4.92115422	    -26.48932066	     24.12210178	     -8.63872781	      0.42101010	      6.78669488	     26.32669194	     -7.52548547	    -27.59353022	      6.19507425	    -24.08535674	     16.52389959	     -5.24670712	      0.28839645	     22.45953922	     35.78786712	     -7.52548547	    -41.40875197	     -2.36294334	      0.91486708	     -2.71416443	    -16.77145035	    -11.59263352	     68.31390766	     90.00000001	      0.00000000	      0.00000000	     14.10021723	    -24.26535182	      7.12506109	     67.94531766	     90.00000001	      0.00000000	      0.00000000
      1.43000000	     19.63218171	      3.13762777	     -1.82384047	      0.65282265	      0.97363299	     -0.08248470	     12.10141935	     -5.37494770	    -28.53962972	     22.39192660	     -8.34120473	      0.39081285	      5.78470975	     28.87272809	     -7.52450548	    -28.09557118	      6.06606294	    -23.78864693	     16.97940506	     -5.33193071	      0.29634652	     22.83501536	     35.97462790	     -7.52450548	    -41.20457375	     -2.37817428	      0.61743745	     -2.96343617	    -16.51906428	    -11.84331622	     68.07249010	     90.00000001	      0.00000000	      0.00000000	     14.85168374	    -24.47367311	      7.95868962	     68.12356791	     90.00000001	      0.00000000	      0.00000000
      1.44000000	     19.40693289	      3.37577674	     -1.38505972	      0.66668669	      0.97100504	     -0.08159167	     12.63732790	     -5.78996259	    -30.03205285	     20.93304874	     -7.89912891	      0.36535062	      4.99376235	     30.61455155	     -7.52377865	    -28.55190419	      5.90508104	    -23.49934320	     17.45424604	     -5.39888408	      0.30463406	     23.13733799	     36.19078348	     -7.52377865	    -40.97336537	     -2.38172443	      0.29277227	     -3.20580303	    -16.30282537	    -12.04871446	     67.77368151	     90.00000001	      0.00000000	      0.00000000	     15.54097890	    -24.63681102	      8.69498727	     68.31414246	     90.00000001	      0.00000000	      0.00000000
      1.45000000	     19.13556606	      3.61106432	     -0.89983229	      0.68089963	      0.96835433	     -0.08085255	     13.19306321	     -6.24176473	    -31.62179633	     19.92807876	     -7.60318840	      0.34781059	      4.69692301	     32.51746201	     -7.52254537	    -28.88905377	      5.70672498	    -23.39712052	     18.08877510	     -5.60591183	      0.31570868	     23.35713301	     36.46229713	     -7.52254537	    -40.65728027	     -2.31920832	     -0.06769971	     -3.48986693	    -16.10701807	    -12.24330035	     67.57090019	     90.00000001	      0.00000000	      0.00000000	     16.06624012	    -24.68341125	      9.29474559	     68.44552711	     90.00000001	      0.00000000	      0.00000000
      1.46000000	     18.80153328	      3.78765689	     -0.38615675	      0.69524418	      0.96578759	     -0.07994290	     13.66927662	     -6.49698005	    -32.45566928	     19.13279072	     -7.28639730	      0.33393019	      4.38329687	     32.85848012	     -7.52187318	    -29.15840778	      5.40202970	    -23.20670768	     18.72918713	     -5.78224173	      0.32688598	     23.43641751	     36.68072544	     -7.52187318	    -40.27941712	     -2.21150954	     -0.41322938	     -3.73543938	    -15.85585406	    -12.38661906	     67.22743020	     90.00000001	      0.00000000	      0.00000000	     16.51553114	    -24.75375163	      9.89059614	     68.60383602	     90.00000001	      0.00000000	      0.00000000
      1.47000000	     18.35544117	      4.03140442	     -0.03161596	      0.70979151	      0.96310039	     -0.07907835	     14.28754971	     -6.76771769	    -32.77146418	     18.74869826	     -7.12217751	      0.32722652	      4.39912133	     32.81217201	     -7.52175795	    -29.30530858	      5.25582331	    -23.07848978	     19.37393559	     -5.97011881	      0.33813897	     23.35372130	     36.83717070	     -7.52175795	    -39.76186946	     -2.20327618	     -0.69861400	     -3.99898649	    -15.73385783	    -12.42253918	     66.95229484	     90.00000001	      0.00000000	      0.00000000	     16.74497658	    -24.63593954	     10.13547446	     68.77318887	     90.00000001	      0.00000000	      0.00000000
      1.48000000	     17.97365969	      4.17387677	      0.61368035	      0.72469465	      0.96071755	     -0.07836647	     14.72021705	     -6.98929791	    -33.34060707	     18.77326631	     -7.14277388	      0.32765531	      4.40038226	     32.52496089	     -7.52154235	    -29.44544478	      4.78344128	    -22.85038650	     20.22892174	     -6.16612787	      0.35306129	     23.14781903	     37.14506517	     -7.52154235	    -39.29165619	     -1.96056694	     -1.14114717	     -4.20864608	    -15.49229853	    -12.58102131	     66.51158409	     90.00000001	      0.00000000	      0.00000000	     16.90908732	    -24.67900737	     10.63086497	     68.91346356	     90.00000001	      0.00000000	      0.00000000
      1.49000000	     17.50274630	      4.31099892	      0.97717826	      0.73996462	      0.95829806	     -0.07749351	     15.19473820	     -7.04126109	    -33.16246635	     18.89837323	     -7.32502395	      0.32983884	      4.33110821	     32.45898461	     -7.52151205	    -29.59520451	      4.57899790	    -22.71525968	     20.75269732	     -6.52681201	      0.36220290	     23.03275685	     37.22180749	     -7.52151205	    -38.67898042	     -1.82408535	     -1.35195426	     -4.58395219	    -15.37650558	    -12.58488670	     66.31007257	     90.00000001	      0.00000000	      0.00000000	     16.84586381	    -24.45217257	     10.76119938	     69.02898349	     90.00000001	      0.00000000	      0.00000000
      1.50000000	     17.09045718	      4.34384736	      1.59957872	      0.75534764	      0.95603721	     -0.07674158	     15.77014617	     -7.19591775	    -33.59285514	     20.02122586	     -7.72847192	      0.34943631	      4.22738238	     31.43162796	     -7.52133932	    -29.60651776	      3.89164817	    -22.42714938	     21.90071848	     -6.55891160	      0.38223965	     22.36644254	     37.55898544	     -7.52133932	    -38.12981183	     -1.46794087	     -1.70552193	     -4.76344902	    -15.21628620	    -12.78556475	     65.81566578	     90.00000001	      0.00000000	      0.00000000	     16.72822105	    -24.40944322	     11.04542054	     69.23331219	     90.00000001	      0.00000000	      0.00000000
