PathFileType	4	(X/Y/Z)	SUBJ62_0_static_RCNL2025.trc
DataRate	CameraRate	NumFrames	NumMarkers	Units	OrigDataRate	OrigDataStartFrame	OrigNumFrames
100	100	85	25	mm	100	1	85
Frame#	Time	R_Shoulder			L_Shoulder			C7			J_Notch			R_Elbow			L_Elbow			R_Wrist			L_Wrist			R_Asis			L_Asis			Sacral			Thoracic			Sternum			R_Thigh_Lateral			R_Knee_Lateral			R_Shank_Lateral			R_Ankle_Lateral			R_Heel			R_Toe			L_Thigh_Lateral			L_Knee_Lateral			L_Shank_Lateral			L_Ankle_Lateral			L_Heel			L_Toe		
		X1	Y1	Z1	X2	Y2	Z2	X3	Y3	Z3	X4	Y4	Z4	X5	Y5	Z5	X6	Y6	Z6	X7	Y7	Z7	X8	Y8	Z8	X9	Y9	Z9	X10	Y10	Z10	X11	Y11	Z11	X12	Y12	Z12	X13	Y13	Z13	X14	Y14	Z14	X15	Y15	Z15	X16	Y16	Z16	X17	Y17	Z17	X18	Y18	Z18	X19	Y19	Z19	X20	Y20	Z20	X21	Y21	Z21	X22	Y22	Z22	X23	Y23	Z23	X24	Y24	Z24	X25	Y25	Z25
1	0.00000000	-298.502930	1299.411133	-69.442978	-307.422882	1301.385132	-407.315002	-369.039093	1359.175537	-241.405121	-236.301224	1275.984131	-243.573471	-358.525208	1014.044922	13.441868	-328.035492	1014.507874	-505.997986	-292.300232	802.476440	23.116353	-273.807663	802.090973	-509.209335	-241.190598	877.983948	-96.470543	-235.393890	866.653870	-356.268921	-412.110687	884.500732	-233.230957	-422.541077	1162.179199	-239.229675	-213.734238	1076.968994	-240.456100	-351.022827	500.223602	-17.529560	-361.271851	435.286133	-91.137512	-375.304443	260.284302	-47.285816	-373.360107	64.979668	-119.790863	-418.467041	47.209816	-165.960312	-267.407410	47.974354	-122.959740	-356.697723	479.899750	-408.955322	-378.526855	416.954407	-360.190765	-380.242920	224.141190	-394.686218	-370.240234	54.950008	-326.042694	-420.583649	51.142498	-274.798370	-259.702209	39.242714	-328.988770
2	0.01000000	-298.361572	1299.423218	-69.563408	-307.416199	1301.415894	-407.400482	-368.942505	1359.158203	-241.479401	-236.271774	1276.013672	-243.601395	-358.525208	1014.044922	13.441868	-328.029266	1014.529968	-506.015442	-292.349640	802.470978	23.054100	-273.893463	802.092926	-509.203613	-241.215927	877.963257	-96.396530	-235.425400	866.591797	-356.223022	-412.096161	884.580688	-233.255905	-422.546417	1162.183228	-239.237595	-213.870621	1076.951660	-240.479065	-350.987732	500.220428	-17.542343	-360.779053	435.454651	-90.996849	-375.226807	260.299957	-47.445927	-373.387726	65.017776	-119.789497	-418.503357	47.228188	-165.973648	-267.407410	47.974354	-122.959740	-356.699188	479.875458	-408.956421	-378.519318	416.951599	-360.106659	-380.244049	224.142868	-394.692841	-370.165466	54.881180	-326.067413	-420.596771	51.156063	-274.776215	-259.272522	39.485233	-328.948669
3	0.02000000	-298.347534	1299.424683	-69.577332	-307.388245	1301.417480	-407.445007	-368.952789	1359.164673	-241.460846	-235.826416	1276.004761	-243.901337	-358.542053	1014.076050	13.451967	-328.066376	1014.497986	-505.999969	-292.417084	802.473877	23.000219	-273.892609	802.077362	-509.239029	-241.318497	877.956299	-96.509537	-235.510468	866.637329	-356.289581	-412.079834	884.542786	-233.268555	-422.608337	1162.231201	-239.303665	-213.863922	1076.999878	-240.511749	-351.006836	500.227600	-17.535652	-355.792725	437.636169	-89.858719	-375.341156	260.289062	-47.353664	-373.401031	65.032913	-119.747940	-418.555634	47.243782	-166.035217	-267.408722	47.975430	-122.948814	-356.759827	479.873108	-408.920898	-378.526489	416.957397	-360.149780	-380.278839	224.132584	-394.723480	-370.232971	54.966122	-326.064362	-420.656952	51.214546	-274.748535	-259.642853	39.261196	-329.013000
4	0.03000000	-298.348572	1299.416748	-69.576202	-307.359894	1301.416382	-407.477753	-368.914734	1359.113159	-241.509445	-236.141647	1275.948242	-243.754578	-358.514404	1014.149353	13.433454	-328.038208	1014.491455	-506.069153	-292.434509	802.465790	23.005887	-273.910141	802.039948	-509.209030	-241.346603	877.937866	-96.506897	-235.528107	866.610901	-356.330841	-412.148621	884.549561	-233.227005	-422.565521	1162.217529	-239.359985	-213.793701	1076.981689	-240.555618	-351.009521	500.309418	-17.551062	-355.130371	437.649475	-89.910324	-375.308716	260.291595	-47.363708	-373.429596	65.053436	-119.751022	-418.521790	47.193584	-166.005859	-267.408081	47.974621	-122.958580	-356.794250	479.918213	-408.894073	-378.603210	416.897766	-360.063995	-380.274139	224.102966	-394.758179	-370.173828	54.888626	-326.066193	-420.651550	51.257233	-274.864380	-259.677490	39.244366	-329.029663
5	0.04000000	-298.302155	1299.409790	-69.617432	-307.348633	1301.412964	-407.484711	-368.898651	1359.181885	-241.536346	-236.234314	1275.933594	-243.708817	-358.596649	1014.156982	13.375355	-327.972504	1014.449829	-506.064423	-292.509918	802.486328	22.952348	-273.829926	802.029205	-509.202332	-241.261917	877.973694	-96.573830	-235.525055	866.612000	-356.307831	-412.076355	884.536499	-233.297745	-422.467133	1162.184570	-239.435242	-213.759918	1077.015015	-240.621078	-351.054413	500.297729	-17.626204	-355.415741	437.583008	-89.872566	-375.330170	260.302673	-47.359890	-373.353912	65.037674	-119.787209	-418.513672	47.169693	-166.049179	-267.387787	47.960281	-122.993324	-356.765137	479.890808	-408.907227	-378.605499	416.898132	-360.097198	-380.275757	224.109650	-394.754700	-370.168640	54.888943	-326.058899	-420.574677	51.222427	-274.815247	-259.677948	39.233395	-329.016083
6	0.05000000	-298.293671	1299.380615	-69.684631	-307.269470	1301.411987	-407.558838	-368.825378	1359.170410	-241.583969	-235.636032	1276.006470	-244.057098	-358.570160	1014.124634	13.340603	-328.062439	1014.424011	-506.148712	-292.528992	802.473785	22.945794	-273.900421	802.043396	-509.236191	-241.279709	877.858704	-96.565132	-235.523499	866.629395	-356.303406	-412.029572	884.535828	-233.308441	-422.446411	1162.245239	-239.465073	-213.757095	1077.000854	-240.603531	-351.080444	500.301697	-17.624041	-355.475128	437.640717	-89.891457	-375.290802	260.328278	-47.390495	-373.381592	64.998497	-119.761230	-418.475708	47.185211	-166.104416	-267.404266	47.973442	-122.953293	-356.865662	479.941010	-408.969116	-378.607544	416.918518	-360.109589	-380.280304	224.101654	-394.752838	-370.239716	54.957481	-326.046967	-420.651001	51.213310	-274.749695	-259.730194	39.222336	-328.977509
7	0.06000000	-298.225159	1299.382080	-69.753304	-307.268555	1301.415405	-407.560913	-368.801605	1359.158325	-241.611465	-235.466873	1276.065552	-244.132858	-358.561462	1014.164673	13.307400	-328.043640	1014.432739	-506.219788	-292.622849	802.499969	22.907728	-273.890945	802.021454	-509.222870	-241.304672	877.870667	-96.535835	-235.522888	866.592224	-356.326447	-412.049530	884.502441	-233.280792	-422.451324	1162.180664	-239.469925	-213.794006	1076.974609	-240.547592	-351.067322	500.304718	-17.624912	-355.430542	437.628296	-89.936798	-375.240509	260.294159	-47.430069	-373.402313	64.952339	-119.768333	-418.547424	47.194248	-166.086792	-267.410767	47.976376	-122.946121	-356.855377	479.935028	-408.990906	-378.671295	416.947662	-360.221069	-380.244812	224.140732	-394.783783	-370.175659	54.871872	-326.064178	-420.722534	51.224689	-274.831757	-259.664856	39.200943	-329.045319
8	0.07000000	-298.192932	1299.369141	-69.773949	-307.239044	1301.398315	-407.602814	-368.727631	1359.150879	-241.658722	-235.524689	1276.058472	-244.209457	-358.556305	1014.165161	13.301906	-328.039825	1014.425293	-506.223206	-292.707275	802.452179	22.932717	-273.884232	801.966461	-509.144836	-241.250137	878.009949	-96.585587	-235.441589	866.647278	-356.391937	-412.158630	884.589050	-233.327789	-422.450104	1162.213867	-239.466171	-213.726746	1076.959717	-240.624344	-351.081909	500.313934	-17.620148	-355.493225	437.616547	-89.866493	-375.221649	260.278839	-47.450951	-373.366760	64.979164	-119.785042	-418.506744	47.218460	-165.979263	-267.437347	48.029671	-122.920174	-356.914032	479.925476	-408.922729	-378.685333	416.938995	-360.221344	-380.313202	224.113220	-394.783417	-370.232239	54.943199	-326.045227	-420.663361	51.155712	-274.833710	-259.696899	39.240421	-328.993530
9	0.08000000	-298.246765	1299.371582	-69.763992	-307.178650	1301.350708	-407.651062	-368.749725	1359.173462	-241.777100	-235.499603	1275.994995	-244.280396	-358.576935	1014.105896	13.220319	-328.046967	1014.400879	-506.201141	-292.730057	802.482758	22.940489	-273.880768	801.937714	-509.177795	-241.208008	877.969055	-96.642784	-235.416397	866.645630	-356.404449	-412.152985	884.586548	-233.353470	-422.466797	1162.297485	-239.449585	-213.703735	1076.948608	-240.642349	-351.098846	500.328003	-17.607128	-355.494812	437.594818	-89.868126	-375.289032	260.307648	-47.377007	-373.402008	64.964874	-119.771774	-418.570251	47.261719	-165.987106	-267.413574	47.979813	-122.954475	-356.965515	479.909607	-408.972260	-378.682587	416.935455	-360.213928	-380.326202	224.125458	-394.785919	-370.253052	54.958885	-326.040771	-420.593658	51.139023	-274.785034	-259.746552	39.240337	-328.964905
10	0.09000000	-298.087341	1299.420166	-69.864029	-307.149506	1301.340332	-407.684570	-368.785706	1359.157349	-241.740189	-235.410782	1275.994507	-244.236435	-358.550262	1014.097473	13.187338	-328.026520	1014.370239	-506.270111	-292.890320	802.511841	22.933734	-273.937347	801.893921	-509.206665	-241.244919	877.914734	-96.641296	-235.429611	866.645386	-356.388062	-412.113678	884.606750	-233.394211	-422.364594	1162.233643	-239.529129	-213.722168	1076.921509	-240.685379	-351.084991	500.306000	-17.617928	-355.510803	437.628235	-89.854752	-375.262268	260.324646	-47.430244	-373.395203	64.975586	-119.784492	-418.434631	47.178082	-166.037094	-267.412689	47.983032	-122.957733	-356.928833	479.881836	-409.086182	-378.690186	416.934845	-360.198090	-380.367859	224.075119	-394.764771	-370.184967	54.881428	-326.065216	-420.590485	51.139423	-274.781128	-259.689087	39.274090	-328.994690
11	0.10000000	-298.071198	1299.422974	-69.874153	-307.120117	1301.368164	-407.739258	-368.687164	1359.239136	-241.823639	-235.471619	1275.994141	-244.269409	-358.540710	1014.158203	13.184318	-328.004913	1014.421631	-506.387482	-292.985184	802.538849	22.978978	-273.947174	801.896698	-509.224442	-241.286972	877.885559	-96.587563	-235.441650	866.572693	-356.446686	-412.083069	884.616089	-233.408234	-422.367310	1162.234985	-239.515411	-213.697998	1077.002930	-240.687515	-351.141266	500.314484	-17.688803	-355.518768	437.620178	-89.964020	-375.309021	260.364685	-47.386246	-373.396057	64.981766	-119.784637	-418.529083	47.204304	-165.930176	-267.414703	47.998341	-122.969032	-356.909271	479.873535	-409.125854	-378.758636	416.953644	-360.246826	-380.318695	224.115295	-394.801270	-370.178772	54.863438	-326.046234	-420.725800	51.225800	-274.787720	-259.683868	39.238007	-328.997314
12	0.11000000	-298.132050	1299.418457	-69.867905	-307.074615	1301.343140	-407.751007	-368.664154	1359.178589	-241.842178	-235.403381	1276.043335	-244.382675	-358.602356	1014.229980	13.120594	-328.012756	1014.383484	-506.315948	-293.037888	802.556091	22.922847	-273.941467	801.895935	-509.223068	-241.209274	877.940552	-96.684280	-235.464600	866.565735	-356.418427	-412.082123	884.615784	-233.407974	-422.362061	1162.312134	-239.531876	-213.792770	1077.008423	-240.749130	-351.171661	500.318726	-17.678938	-355.605804	437.643463	-89.892120	-375.299561	260.347595	-47.377754	-373.379333	64.993591	-119.776726	-418.472473	47.159855	-165.979828	-267.390045	47.963169	-122.980812	-356.897552	479.879639	-409.141724	-378.693024	416.956543	-360.255341	-380.356873	224.086258	-394.791565	-370.242767	54.962143	-326.040710	-420.673096	51.224979	-274.748230	-259.665131	39.247482	-329.029327
13	0.12000000	-298.056183	1299.465698	-69.885605	-307.024994	1301.305542	-407.763336	-368.574524	1359.168091	-241.909439	-235.349976	1276.032593	-244.312134	-358.674469	1014.245544	13.149283	-327.855377	1014.219910	-506.031189	-293.158539	802.539825	22.891416	-273.896591	801.875488	-509.251221	-241.160629	877.947083	-96.733513	-235.424622	866.599609	-356.438416	-412.111786	884.619507	-233.393097	-422.347168	1162.316406	-239.554367	-213.701431	1076.999023	-240.689224	-351.145050	500.362122	-17.683350	-355.590881	437.692566	-89.911339	-375.294189	260.328552	-47.378105	-373.410492	65.053909	-119.756508	-418.433807	47.187016	-166.020050	-267.385559	47.959087	-122.983170	-356.896942	479.879669	-409.134399	-378.732971	416.957214	-360.263580	-380.317291	224.084335	-394.788361	-370.238556	54.975845	-326.062561	-420.601410	51.174217	-274.767090	-259.639587	39.239990	-329.057068
14	0.13000000	-297.957489	1299.461426	-69.972641	-307.067505	1301.309692	-407.865601	-368.566071	1359.166992	-241.915802	-235.385757	1276.051880	-244.397995	-358.684875	1014.247986	13.156727	-327.815094	1014.254333	-506.040222	-293.222641	802.557922	22.899195	-273.929779	801.865448	-509.307983	-241.146042	877.978271	-96.760025	-235.377335	866.537781	-356.519318	-412.072266	884.619141	-233.425842	-422.334015	1162.314087	-239.672501	-213.687347	1077.000977	-240.685394	-351.151215	500.322357	-17.687099	-355.565552	437.698212	-89.956665	-375.344147	260.385773	-47.407799	-373.435822	65.037529	-119.743355	-418.460022	47.166542	-165.988510	-267.399109	47.977200	-122.967400	-356.901764	479.887604	-409.126038	-378.739777	416.986694	-360.269531	-380.348083	224.055023	-394.796143	-370.169678	54.885864	-326.067749	-420.664215	51.187580	-274.837982	-259.714447	39.212746	-329.006836
15	0.14000000	-297.999847	1299.464233	-69.986946	-306.992004	1301.310791	-407.882050	-368.631439	1359.174805	-241.984039	-235.374619	1276.009399	-244.352066	-358.838562	1014.330994	13.136337	-327.944427	1014.370239	-506.299957	-293.289673	802.539215	22.789132	-273.920837	801.859283	-509.319870	-241.160187	877.982300	-96.757393	-235.448776	866.568848	-356.428009	-412.157227	884.619995	-233.490936	-422.331116	1162.312866	-239.680389	-213.699661	1077.004761	-240.675125	-351.157074	500.325348	-17.675186	-355.603271	437.721802	-89.925758	-375.312073	260.291504	-47.412460	-373.417969	65.056381	-119.752838	-418.488556	47.204151	-166.077759	-267.407471	47.987812	-122.972710	-356.909546	479.884888	-409.131195	-378.685211	416.937012	-360.273743	-380.332062	224.051575	-394.819244	-370.238342	54.959965	-326.043274	-420.739105	51.205299	-274.811462	-259.702942	39.223568	-328.987091
16	0.15000000	-297.969055	1299.475342	-69.971016	-306.976746	1301.286011	-407.907593	-368.593414	1359.247192	-242.054611	-235.324646	1276.015625	-244.432938	-358.815674	1014.425293	13.078083	-327.939453	1014.363647	-506.391449	-293.303101	802.590424	22.833154	-273.911194	801.808258	-509.338165	-241.158112	877.944397	-96.796432	-235.403168	866.575745	-356.494843	-412.077789	884.662415	-233.564728	-422.302612	1162.357178	-239.726944	-213.605957	1077.012085	-240.789536	-351.240906	500.320923	-17.740744	-355.556641	437.713379	-89.948425	-375.306000	260.341156	-47.520565	-373.494263	65.031738	-119.804359	-418.514160	47.173386	-166.056549	-267.443054	47.954403	-123.027481	-356.920502	479.892395	-409.114960	-378.752045	416.967010	-360.273529	-380.302429	224.074295	-394.836395	-370.174561	54.899719	-326.096771	-420.663605	51.259041	-274.879608	-259.666016	39.248470	-329.028168
17	0.16000000	-297.956146	1299.524048	-70.021149	-306.837952	1301.321045	-407.922516	-368.511444	1359.241577	-242.106720	-235.139648	1276.019531	-244.389282	-358.760895	1014.447998	13.042798	-327.820435	1014.158997	-506.131927	-293.362900	802.581360	22.772874	-273.890701	801.811859	-509.352570	-241.166138	877.958862	-96.758682	-235.359406	866.541809	-356.550537	-412.065826	884.661255	-233.570541	-422.300262	1162.358521	-239.730194	-213.666885	1077.025635	-240.710800	-351.253235	500.353943	-17.755579	-355.504730	437.731293	-89.968399	-375.243225	260.410492	-47.440792	-373.371033	65.041046	-119.771385	-418.519958	47.297562	-166.077576	-267.409546	47.985756	-122.977119	-356.845856	480.059082	-409.345490	-378.692017	416.871582	-360.289368	-380.257751	224.069260	-394.839294	-370.202240	54.987667	-326.076080	-420.630035	51.228977	-274.901764	-259.639618	39.323997	-329.040161
18	0.17000000	-298.063141	1299.483887	-70.038193	-306.862396	1301.286011	-407.993103	-368.464966	1359.255371	-242.164474	-235.103714	1276.005981	-244.406769	-358.837006	1014.411865	12.974644	-327.861542	1014.304016	-506.457733	-293.447861	802.593048	22.795907	-273.915726	801.819366	-509.380783	-241.180450	877.957458	-96.727715	-235.353729	866.579529	-356.556458	-412.052124	884.649841	-233.591446	-422.227692	1162.348633	-239.774292	-213.653595	1076.910889	-240.775131	-351.254822	500.358673	-17.746174	-355.513245	437.770447	-89.964127	-375.297455	260.334625	-47.507565	-373.367737	65.062721	-119.761848	-418.481537	47.189095	-166.010086	-267.399200	47.979095	-122.975151	-356.891968	479.941376	-409.234833	-378.659393	416.895691	-360.405762	-380.232452	224.040802	-394.908173	-370.226624	54.972931	-326.097107	-420.687256	51.280689	-274.873138	-259.663055	39.252815	-329.031464
19	0.18000000	-297.952423	1299.452515	-70.095787	-306.803162	1301.271118	-407.992126	-368.488403	1359.239624	-242.132950	-235.189377	1275.958740	-244.409225	-358.814545	1014.380859	12.992222	-327.891571	1014.266052	-506.481995	-293.517868	802.606384	22.842991	-274.005402	801.752472	-509.389313	-241.176407	877.924316	-96.764931	-235.356995	866.546631	-356.574646	-412.056885	884.654968	-233.603317	-422.205078	1162.346802	-239.800415	-213.624695	1076.933472	-240.826233	-351.234863	500.370392	-17.760370	-355.650696	437.708160	-90.015190	-375.410706	260.372742	-47.452530	-373.399109	65.041702	-119.795799	-418.473633	47.182251	-166.099045	-267.386383	47.960041	-122.993996	-356.811615	479.847412	-409.231445	-378.596863	416.880585	-360.340973	-380.221191	224.038025	-394.914978	-370.157288	54.848827	-326.106049	-420.643585	51.329411	-275.040680	-259.682007	39.215988	-329.022491
20	0.19000000	-297.950134	1299.468872	-70.092545	-306.748779	1301.228516	-408.015900	-368.388672	1359.177490	-242.208450	-235.177765	1275.884033	-244.442307	-358.837616	1014.270752	13.006116	-327.761658	1014.134033	-506.173157	-293.626648	802.601562	22.825555	-274.050354	801.736023	-509.404129	-241.262955	877.969299	-96.836411	-235.356827	866.544800	-356.563507	-412.058044	884.619751	-233.710907	-422.206207	1162.347168	-239.800385	-213.739639	1076.937134	-240.858597	-351.231415	500.346802	-17.779308	-355.633209	437.618378	-90.051796	-375.379883	260.367645	-47.468967	-373.390442	65.018333	-119.790474	-418.548706	47.239605	-166.044739	-267.411133	47.983196	-122.959206	-356.732849	479.789337	-409.270203	-378.589813	416.875092	-360.325409	-380.210144	224.041473	-394.947083	-370.147186	54.838795	-326.106934	-420.659546	51.266827	-275.026062	-259.639496	39.226994	-329.055267
21	0.20000000	-298.012695	1299.463257	-70.092949	-306.684235	1301.239502	-408.024689	-368.374756	1359.180420	-242.218262	-235.128540	1275.884033	-244.453217	-358.888672	1014.374695	13.013700	-327.857666	1014.280884	-506.463928	-293.602142	802.564423	22.781242	-274.047424	801.713623	-509.387894	-241.188995	877.949585	-96.764297	-235.367371	866.530151	-356.560364	-412.061218	884.622559	-233.729706	-422.269958	1162.356567	-239.870163	-213.684753	1076.853638	-240.755478	-351.243896	500.320465	-17.746096	-355.536865	437.657318	-89.992683	-375.359863	260.363190	-47.490257	-373.372681	64.999420	-119.795692	-418.434113	47.177658	-166.037048	-267.470062	47.921505	-122.908730	-356.773712	479.807007	-409.211914	-378.591553	416.898956	-360.379150	-380.226257	224.036377	-394.919525	-370.125824	54.908375	-326.106873	-420.658661	51.165771	-274.873535	-259.630432	39.241665	-329.038452
22	0.21000000	-297.975098	1299.456787	-70.118607	-306.624207	1301.229736	-408.072540	-368.379547	1359.183105	-242.214752	-235.070099	1275.879517	-244.420120	-358.881653	1014.439209	12.992267	-327.948608	1014.235352	-506.606842	-293.627716	802.579163	22.802561	-274.035294	801.663757	-509.399521	-241.194366	877.966980	-96.875046	-235.290817	866.583740	-356.621460	-412.056305	884.618103	-233.716354	-422.211639	1162.348755	-239.802734	-213.669998	1076.848022	-240.742325	-351.124512	500.316650	-17.846706	-355.492706	437.730957	-89.990135	-375.358093	260.351990	-47.499149	-373.399353	65.040756	-119.797729	-418.383453	47.149967	-166.028687	-267.404938	47.954456	-122.969246	-356.760101	479.804321	-409.235413	-378.584534	416.882812	-360.382629	-380.229767	224.049301	-394.910156	-370.230469	54.962280	-326.061951	-420.657013	51.160233	-274.861420	-259.655701	39.208965	-329.048187
23	0.22000000	-297.965942	1299.463257	-70.134109	-306.595825	1301.195923	-408.114777	-368.295624	1359.239746	-242.283615	-235.100266	1275.901733	-244.505020	-358.968811	1014.452087	12.933836	-327.763184	1014.094910	-506.205536	-293.740219	802.603760	22.892062	-274.043503	801.694550	-509.438736	-241.280396	877.960754	-96.808907	-235.292419	866.503662	-356.684357	-412.056030	884.617798	-233.714737	-422.255737	1162.420044	-239.892715	-213.649506	1076.882080	-240.783722	-351.140198	500.368958	-17.848757	-355.462280	437.748352	-90.155510	-375.368622	260.355469	-47.489594	-373.416656	64.944580	-119.889374	-418.434326	47.165218	-166.089691	-267.401733	47.987789	-122.977112	-356.718994	479.834900	-409.287567	-378.591461	416.890350	-360.364929	-380.227844	224.048035	-394.904388	-370.163086	54.851379	-326.100739	-420.690186	51.280041	-274.869690	-259.707916	39.243248	-329.008667
24	0.23000000	-297.937683	1299.505737	-70.154060	-306.588593	1301.187744	-408.121399	-368.271942	1359.232666	-242.312057	-235.027985	1275.889526	-244.480911	-358.953979	1014.431641	12.920634	-327.856140	1014.151001	-506.493866	-293.740265	802.596558	22.891690	-274.075256	801.636597	-509.437958	-241.225998	877.961304	-96.873581	-235.306015	866.490173	-356.684753	-412.048035	884.625610	-233.745712	-422.170776	1162.405273	-239.968719	-213.674622	1076.835693	-240.742050	-351.138580	500.353455	-17.841154	-355.524780	437.668243	-90.125610	-375.300751	260.409302	-47.543018	-373.376648	65.084312	-119.818390	-418.425110	47.171089	-166.045990	-267.405975	47.988541	-122.974518	-356.714081	479.889740	-409.309052	-378.581390	416.854065	-360.405884	-380.228271	224.036423	-394.915833	-369.983948	54.702339	-326.203430	-420.698059	51.291687	-274.869781	-259.679199	39.231731	-329.018646
25	0.24000000	-297.964447	1299.512695	-70.218346	-306.585907	1301.180786	-408.131744	-368.273163	1359.231201	-242.311462	-235.061462	1275.902344	-244.492126	-358.976837	1014.506836	12.943808	-327.802521	1014.258423	-506.594696	-293.778610	802.626312	22.808534	-274.075348	801.631073	-509.422028	-241.195099	877.970032	-96.894585	-235.309311	866.476196	-356.679077	-412.046783	884.625549	-233.748260	-422.160004	1162.400269	-239.973740	-213.666855	1076.874878	-240.768585	-351.174469	500.385590	-17.819887	-355.472260	437.676025	-90.170181	-375.351074	260.353912	-47.503662	-373.338928	65.067162	-119.802422	-418.525879	47.193672	-166.071411	-267.407867	47.988869	-122.972618	-356.745819	479.804504	-409.267609	-378.585510	416.846985	-360.430237	-380.217926	224.039307	-394.926483	-370.203766	54.946732	-326.092804	-420.700500	51.338413	-275.013123	-259.663879	39.247871	-329.030457
26	0.25000000	-297.958923	1299.503174	-70.224892	-306.534119	1301.184814	-408.153259	-368.274811	1359.231812	-242.309921	-235.077728	1275.866821	-244.558304	-359.079681	1014.475464	12.885983	-327.787537	1014.203491	-506.620483	-293.859528	802.613739	22.889686	-274.056396	801.604889	-509.475388	-241.221939	877.901184	-96.918259	-235.317337	866.463928	-356.663879	-412.080719	884.576477	-233.814560	-422.163452	1162.401367	-239.970642	-213.665390	1076.871216	-240.732529	-351.235870	500.389221	-17.895697	-355.532501	437.729706	-90.124153	-375.362091	260.350861	-47.496613	-373.406677	65.055038	-119.793167	-418.448364	47.172401	-166.089386	-267.388000	47.960926	-122.993286	-356.766693	479.843048	-409.322327	-378.636505	416.918610	-360.491333	-380.209869	224.010773	-394.903381	-370.022644	54.760670	-326.163422	-420.662506	51.173706	-274.879150	-259.663910	39.249111	-329.030914
27	0.26000000	-297.981018	1299.515503	-70.209671	-306.512939	1301.182129	-408.180756	-368.260101	1359.230713	-242.429840	-235.129349	1275.905029	-244.463531	-359.093231	1014.476440	12.885856	-327.661713	1014.008850	-506.326263	-293.936554	802.634521	22.902393	-274.061478	801.617889	-509.464584	-241.237106	877.902893	-96.917587	-235.318054	866.499268	-356.641937	-412.022064	884.568237	-233.759506	-422.164398	1162.401733	-239.970016	-213.606796	1076.815308	-240.877609	-351.282867	500.442200	-17.883928	-355.512482	437.702576	-90.120827	-375.353119	260.351837	-47.512115	-373.388123	65.098351	-119.805573	-418.469330	47.183605	-166.106537	-267.403900	47.985470	-122.966255	-356.686646	479.799042	-409.303772	-378.575073	416.897949	-360.544098	-380.207764	223.998245	-394.930603	-370.127747	54.821201	-326.134003	-420.663788	51.173817	-274.869720	-259.675812	39.208607	-329.016571
28	0.27000000	-297.998260	1299.526367	-70.202362	-306.507294	1301.202393	-408.217926	-368.255493	1359.229126	-242.439957	-235.063599	1275.816284	-244.588226	-359.081573	1014.472656	12.881413	-327.646820	1014.030273	-506.295227	-293.953445	802.661285	22.938063	-274.070526	801.612396	-509.460098	-241.213760	877.954529	-96.962822	-235.224121	866.505432	-356.769012	-412.083191	884.580505	-233.825104	-422.122131	1162.353149	-240.120651	-213.552414	1076.934448	-240.900604	-351.270020	500.417969	-17.872517	-355.545654	437.671295	-90.229927	-375.358002	260.351685	-47.499752	-373.381287	65.031380	-119.907051	-418.475311	47.186768	-166.105789	-267.417786	47.988049	-122.943092	-356.729919	479.854706	-409.394287	-378.652557	416.861237	-360.469574	-380.209412	224.039764	-394.948608	-369.998993	54.711842	-326.211243	-420.690979	51.281006	-274.870056	-259.695709	39.218742	-329.008453
29	0.28000000	-297.929108	1299.564819	-70.267372	-306.471436	1301.185303	-408.237915	-368.203064	1359.239502	-242.511292	-235.044205	1275.853027	-244.583893	-359.063232	1014.549683	12.872727	-327.651367	1014.040955	-506.311249	-293.923065	802.669403	22.921879	-274.039505	801.650177	-509.499924	-241.218979	877.950928	-96.965500	-235.219330	866.480103	-356.752716	-412.067657	884.640808	-233.846283	-422.162537	1162.375366	-240.077164	-213.635300	1076.873169	-240.852463	-351.291077	500.438416	-17.886694	-355.527679	437.722595	-90.109238	-375.307587	260.406311	-47.529461	-373.317749	65.051979	-119.815773	-418.526611	47.194199	-166.073013	-267.410522	47.989479	-122.969513	-356.712036	479.867249	-409.479736	-378.670013	416.865784	-360.497925	-380.178131	224.036957	-394.938782	-370.054688	54.866371	-326.161591	-420.700562	51.245705	-274.867737	-259.693359	39.214260	-329.008484
30	0.29000000	-297.920288	1299.587158	-70.263603	-306.431702	1301.195557	-408.252350	-368.181976	1359.239746	-242.538239	-235.015549	1275.831421	-244.535706	-359.058014	1014.608887	12.874537	-327.694946	1014.238831	-506.693878	-293.984802	802.682922	22.894458	-273.996231	801.644836	-509.551147	-241.242813	877.882874	-96.918228	-235.212067	866.473999	-356.776978	-412.027008	884.666199	-233.896057	-422.125031	1162.455811	-240.136658	-213.571777	1076.908936	-240.879379	-351.305542	500.453247	-17.860384	-355.503448	437.714905	-90.106010	-375.285614	260.401276	-47.550846	-373.309418	65.033417	-119.813637	-418.482208	47.188244	-166.102814	-267.406860	47.988705	-122.973969	-356.712555	479.838318	-409.389496	-378.654022	416.868744	-360.500916	-380.154297	224.016876	-394.941559	-370.213348	54.933746	-326.103668	-420.694092	51.283352	-274.869873	-259.665619	39.247765	-329.029510
31	0.30000000	-297.983185	1299.558838	-70.214928	-306.398651	1301.149170	-408.243042	-368.221497	1359.222290	-242.483475	-234.921494	1275.859863	-244.632919	-359.051819	1014.602966	12.872548	-327.549866	1014.243530	-506.584595	-293.958588	802.694702	22.911712	-274.030457	801.617249	-509.515839	-241.241821	877.886841	-96.910278	-235.208679	866.491272	-356.783173	-412.039490	884.675598	-233.875916	-422.102081	1162.355469	-240.150696	-213.555038	1076.916260	-240.879684	-351.243774	500.401520	-17.893042	-355.498169	437.705231	-90.124634	-375.376312	260.330414	-47.489136	-373.363373	65.015373	-119.794411	-418.464935	47.154579	-166.058182	-267.458069	47.921764	-122.939529	-356.660675	479.877960	-409.426025	-378.564575	416.865753	-360.458740	-380.196289	224.009384	-394.960693	-369.992981	54.712997	-326.216278	-420.699310	51.256989	-274.862396	-259.681580	39.224079	-328.989380
32	0.31000000	-297.926117	1299.510498	-70.268806	-306.399200	1301.169678	-408.243500	-368.197784	1359.186157	-242.508789	-234.906006	1275.864990	-244.651291	-359.083893	1014.533752	12.891007	-327.557373	1014.050842	-506.402802	-294.009155	802.680389	22.881020	-273.987106	801.612640	-509.491623	-241.232544	877.940186	-96.953323	-235.207108	866.514832	-356.762878	-412.048553	884.643921	-233.867676	-422.130280	1162.396484	-240.117035	-213.584930	1076.857178	-240.901703	-351.194427	500.363464	-17.937250	-355.525726	437.747009	-90.231873	-375.366272	260.326752	-47.520813	-373.501984	65.048561	-119.851166	-418.465912	47.152649	-166.053299	-267.474304	47.915890	-122.907219	-356.780762	479.844177	-409.405151	-378.625793	416.879608	-360.475983	-380.214966	224.009842	-394.933899	-369.967163	54.704327	-326.207336	-420.786011	51.251324	-274.802917	-259.690613	39.220840	-329.005920
33	0.32000000	-297.932831	1299.529541	-70.255455	-306.391937	1301.139526	-408.242310	-368.160736	1359.213867	-242.410660	-234.993835	1275.808472	-244.645554	-359.120483	1014.592163	12.919046	-327.537231	1014.176453	-506.545715	-293.998032	802.692535	22.864638	-273.938065	801.630707	-509.605026	-241.219803	877.905884	-96.964111	-235.207458	866.515991	-356.759735	-412.042938	884.674561	-233.871994	-422.152954	1162.411987	-240.088333	-213.502884	1076.799683	-240.824509	-351.193542	500.367371	-17.930902	-355.502777	437.716034	-90.140305	-375.354156	260.359772	-47.500614	-373.420685	65.056458	-119.775070	-418.474976	47.195354	-166.100235	-267.395050	47.958942	-122.987267	-356.727844	479.827332	-409.316956	-378.639984	416.881500	-360.481842	-380.166809	224.007217	-394.938507	-370.178192	54.794521	-326.056274	-420.749512	51.210651	-274.802887	-259.630707	39.246464	-329.054596
34	0.33000000	-297.935455	1299.493286	-70.267693	-306.393463	1301.138184	-408.251129	-368.077057	1359.273071	-242.471420	-234.840286	1275.810059	-244.474243	-359.075287	1014.611328	12.888212	-327.682251	1014.210938	-506.735474	-293.964859	802.670654	22.922599	-273.873764	801.620422	-509.616135	-241.225418	877.864807	-96.979469	-235.209045	866.477905	-356.779297	-412.026215	884.666077	-233.896561	-422.019287	1162.398560	-240.217316	-213.521454	1076.776245	-240.941147	-351.211761	500.368561	-17.923611	-355.488770	437.699829	-90.136238	-375.275635	260.378632	-47.565987	-373.379089	65.097649	-119.803825	-418.391388	47.156441	-166.031479	-267.398987	47.974018	-122.966919	-356.727417	479.816315	-409.399078	-378.647675	416.875000	-360.528381	-380.144775	223.987839	-394.961395	-370.171661	54.841305	-326.073853	-420.696686	51.236118	-274.865570	-259.712555	39.249805	-329.003479
35	0.34000000	-297.885376	1299.565918	-70.298927	-306.323639	1301.176270	-408.233307	-368.039581	1359.218018	-242.514526	-234.850586	1275.850098	-244.657730	-359.066376	1014.562256	12.871117	-327.504700	1014.102539	-506.490662	-294.021286	802.675201	22.932236	-273.906876	801.635071	-509.623215	-241.207031	877.958191	-97.008125	-235.210190	866.489502	-356.782532	-411.990875	884.612488	-233.934677	-421.941132	1162.384277	-240.159927	-213.412476	1076.778564	-240.922302	-351.189392	500.351379	-17.946068	-355.469177	437.677887	-90.160179	-375.279968	260.397858	-47.555271	-373.343201	65.049454	-119.809387	-418.466888	47.171829	-166.104324	-267.388092	47.961040	-122.992233	-356.774231	479.826172	-409.365662	-378.656677	416.848755	-360.496399	-380.133392	223.976532	-395.000305	-369.999023	54.718777	-326.188171	-420.690948	51.284203	-274.872864	-259.686737	39.221264	-329.004700
36	0.35000000	-297.901001	1299.479126	-70.298027	-306.353760	1301.196167	-408.303223	-368.038025	1359.213501	-242.516312	-234.787903	1275.819580	-244.576981	-359.054901	1014.552002	12.862738	-327.418579	1014.022095	-506.410400	-293.995193	802.679901	22.930481	-273.844391	801.628601	-509.638992	-241.099838	878.001587	-97.102837	-235.208893	866.492798	-356.782227	-412.006805	884.573792	-233.912415	-422.052673	1162.420288	-240.167572	-213.481888	1076.851074	-240.990662	-351.200256	500.372894	-17.948067	-355.592712	437.657349	-90.215126	-375.379120	260.377960	-47.588650	-373.513336	65.043884	-119.839813	-418.476318	47.177105	-166.110428	-267.400330	47.968269	-122.975105	-356.747131	479.812866	-409.397186	-378.666107	416.866821	-360.501678	-380.203735	223.995148	-394.953217	-369.963776	54.684818	-326.232086	-420.755890	51.286407	-274.845642	-259.736023	39.208931	-328.993225
37	0.36000000	-297.858337	1299.551270	-70.330078	-306.256897	1301.158691	-408.298401	-368.040588	1359.215332	-242.514053	-234.862854	1275.772583	-244.592392	-359.056244	1014.552002	12.865324	-327.509521	1014.203308	-506.686676	-293.990128	802.668518	22.961134	-273.829117	801.627411	-509.684204	-241.174545	877.966248	-97.009377	-235.208984	866.477051	-356.780914	-412.043213	884.625427	-233.873337	-421.972137	1162.368042	-240.129379	-213.386642	1076.870361	-240.940338	-351.201385	500.353180	-17.937763	-355.617218	437.654449	-90.195419	-375.293793	260.396881	-47.571434	-373.462341	65.048927	-119.863556	-418.462738	47.167767	-166.126877	-267.415283	47.985336	-122.955376	-356.755096	479.819885	-409.385590	-378.593994	416.860229	-360.510132	-380.216675	224.014389	-394.941803	-370.132446	54.824799	-326.135284	-420.712952	51.246223	-274.877808	-259.738983	39.210136	-328.985168
38	0.37000000	-297.843872	1299.523438	-70.330635	-306.211700	1301.170898	-408.278717	-368.041077	1359.215576	-242.513672	-234.834030	1275.755615	-244.517059	-359.064331	1014.558594	12.869120	-327.495819	1014.217590	-506.778198	-293.996170	802.680206	22.947736	-273.846390	801.664276	-509.679855	-241.130203	877.983032	-97.093742	-235.138290	866.502380	-356.830536	-411.989868	884.588623	-233.915695	-421.974518	1162.432129	-240.116943	-213.377228	1076.818726	-240.913147	-351.220215	500.368439	-17.927427	-355.617950	437.657196	-90.187042	-375.299286	260.419556	-47.558601	-373.335907	65.018036	-119.832436	-418.462982	47.132870	-166.065735	-267.411041	47.976955	-122.946915	-356.689362	479.786163	-409.434570	-378.659546	416.809418	-360.534485	-380.166748	224.012970	-394.937500	-370.041382	54.718166	-326.250183	-420.702148	51.239376	-274.883301	-259.694489	39.213882	-329.007568
39	0.38000000	-297.740143	1299.525513	-70.281235	-306.214722	1301.165649	-408.267365	-368.040955	1359.215576	-242.513763	-234.913788	1275.407104	-244.760391	-359.052277	1014.551575	12.860589	-327.425171	1014.036072	-506.450378	-294.009033	802.634766	22.918551	-273.806763	801.655823	-509.747131	-241.096405	878.012329	-97.105377	-235.030746	866.442810	-356.830322	-412.011597	884.659668	-234.015610	-421.979767	1162.437378	-240.115662	-213.376282	1076.833496	-240.948380	-351.244293	500.411774	-17.923210	-355.562256	437.682159	-90.215988	-375.315216	260.368805	-47.537636	-373.445496	65.092125	-119.869713	-418.473419	47.173069	-166.104340	-267.364746	47.957523	-122.990959	-356.749664	479.817627	-409.381409	-378.674347	416.795990	-360.552765	-380.189758	223.975662	-394.957336	-369.973938	54.700474	-326.242767	-420.704010	51.241039	-274.882111	-259.666321	39.204800	-329.035278
40	0.39000000	-297.737793	1299.550537	-70.280228	-306.215302	1301.162109	-408.253479	-368.040924	1359.215454	-242.513794	-234.817215	1275.733643	-244.729050	-359.046936	1014.599060	12.868277	-327.393066	1014.239624	-506.689178	-293.975327	802.678009	22.938927	-273.786392	801.666687	-509.742477	-241.118500	877.966492	-97.071655	-234.993225	866.525269	-356.802368	-411.973999	884.632019	-233.919968	-421.980316	1162.446167	-240.113983	-213.393982	1076.786621	-240.921936	-351.235962	500.389893	-17.917898	-355.605438	437.670471	-90.199005	-375.304749	260.404572	-47.531448	-373.395233	65.104919	-119.808044	-418.441162	47.170334	-166.092896	-267.401123	47.986607	-122.967155	-356.747742	479.846436	-409.418091	-378.669678	416.807526	-360.524597	-380.212799	224.016357	-394.940826	-369.938904	54.748573	-326.223328	-420.709747	51.252293	-274.847260	-259.686127	39.241028	-329.034210
41	0.40000000	-297.690033	1299.502563	-70.317482	-306.212860	1301.175171	-408.277039	-367.965088	1359.225952	-242.560257	-234.488358	1275.537354	-245.014114	-358.960327	1014.610291	12.927670	-327.369354	1014.260315	-506.745361	-293.975876	802.654907	22.924280	-273.762024	801.684357	-509.716125	-241.139969	877.907227	-97.042046	-235.018204	866.449280	-356.826202	-411.948608	884.649780	-233.938705	-421.980286	1162.446533	-240.113892	-213.414841	1076.792236	-240.891510	-351.210999	500.382111	-17.921989	-355.561462	437.701477	-90.229797	-375.327728	260.386536	-47.517658	-373.262512	65.004135	-119.857124	-418.466309	47.154987	-166.059906	-267.403046	47.979424	-122.974617	-356.708130	479.794769	-409.497498	-378.659729	416.823059	-360.521240	-380.205353	223.996033	-394.935791	-369.983124	54.713398	-326.196564	-420.713196	51.268494	-274.837860	-259.666382	39.249763	-329.030243
42	0.41000000	-297.741028	1299.557495	-70.273460	-306.224579	1301.178223	-408.242096	-367.896057	1359.218140	-242.493896	-234.731094	1275.732544	-244.733673	-358.936249	1014.600769	12.918653	-327.389679	1014.216553	-506.696442	-293.908859	802.661377	22.931078	-273.770737	801.712830	-509.768509	-241.141190	877.948914	-97.057243	-235.033722	866.414185	-356.846588	-411.874298	884.684631	-234.014862	-421.980865	1162.456909	-240.111954	-213.403854	1076.798462	-240.912552	-351.215546	500.391418	-17.919785	-355.564056	437.694214	-90.196686	-375.322540	260.380493	-47.527596	-373.336060	65.074730	-119.810890	-418.470337	47.155201	-166.056854	-267.408051	47.975163	-122.949989	-356.706726	479.797913	-409.487518	-378.649353	416.849243	-360.507538	-380.206055	224.005753	-394.938599	-370.224213	54.950710	-326.064850	-420.643311	51.341007	-275.034210	-259.700378	39.215107	-329.011658
43	0.42000000	-297.681213	1299.540039	-70.245506	-306.180542	1301.176025	-408.205170	-367.910095	1359.225342	-242.466187	-234.938843	1275.476685	-244.698410	-358.992523	1014.627380	12.959245	-327.367767	1014.319641	-506.725372	-293.922516	802.638672	22.952886	-273.766342	801.705933	-509.770294	-241.130478	877.975281	-97.047035	-235.033112	866.434753	-356.828125	-411.867706	884.683960	-234.021210	-421.997772	1162.467041	-240.087631	-213.388504	1076.844971	-240.938492	-351.204010	500.378998	-17.921278	-355.597992	437.737152	-90.178253	-375.293671	260.421783	-47.552940	-373.368225	65.103104	-119.805466	-418.391357	47.163799	-166.025162	-267.409851	47.975571	-122.946999	-356.654999	479.865112	-409.495850	-378.656891	416.834778	-360.505554	-380.168365	224.043808	-394.945343	-370.048645	54.695595	-326.148346	-420.701263	51.315235	-274.859222	-259.733307	39.214191	-328.994202
44	0.43000000	-297.682281	1299.525635	-70.217178	-306.206665	1301.199707	-408.176880	-367.990509	1359.225098	-242.418121	-234.763672	1275.765015	-244.528763	-359.014099	1014.583801	12.963914	-327.452881	1014.293457	-506.769745	-293.912506	802.662720	22.968969	-273.758621	801.709900	-509.770950	-241.127991	877.976257	-97.044624	-235.004333	866.526062	-356.798950	-411.950165	884.693298	-233.945633	-421.982483	1162.447632	-240.111664	-213.358612	1076.905151	-240.916550	-351.248932	500.424164	-17.905460	-355.572479	437.698395	-90.215607	-375.318665	260.393005	-47.540859	-373.512177	65.060028	-119.835915	-418.583679	47.233189	-165.983414	-267.402313	47.978634	-122.964478	-356.708466	479.793976	-409.441589	-378.660065	416.841461	-360.554901	-380.138519	223.999603	-394.993500	-370.124603	54.825157	-326.116272	-420.656189	51.341137	-275.013550	-259.721283	39.249073	-328.997925
45	0.44000000	-297.685242	1299.548950	-70.235565	-306.216095	1301.210205	-408.159302	-367.922485	1359.210449	-242.462540	-234.828751	1275.824463	-244.543320	-358.915771	1014.568970	13.012342	-327.390259	1014.294678	-506.692352	-293.919449	802.621826	23.023355	-273.767365	801.736755	-509.822220	-241.131271	877.959167	-97.062515	-235.020340	866.449219	-356.825470	-411.866852	884.706787	-234.008392	-421.933319	1162.446289	-240.020218	-213.226349	1076.916748	-240.889435	-351.226166	500.412842	-17.944170	-355.564423	437.697723	-90.221527	-375.319763	260.442871	-47.545483	-373.432861	65.060425	-119.790359	-418.492096	47.194881	-166.094849	-267.406128	47.974403	-122.961075	-356.733582	479.801208	-409.457275	-378.661835	416.805939	-360.507141	-380.134521	223.970291	-395.019958	-369.969482	54.743370	-326.202454	-420.640717	51.247845	-274.917908	-259.736176	39.212265	-328.986328
46	0.45000000	-297.644379	1299.542603	-70.206055	-306.222534	1301.205688	-408.141174	-367.910187	1359.206909	-242.470947	-234.789764	1275.791992	-244.464035	-358.898254	1014.562195	13.011295	-327.377228	1014.354919	-506.692841	-293.799728	802.585724	22.996499	-273.728043	801.746918	-509.773270	-241.133194	877.940674	-97.064156	-235.006348	866.506042	-356.799957	-411.852295	884.702820	-234.019470	-421.915741	1162.437256	-240.037476	-213.249649	1076.797974	-240.882660	-351.282074	500.391022	-18.003489	-355.588562	437.709412	-90.181335	-375.264160	260.398163	-47.526836	-373.345215	65.055260	-119.820137	-418.387299	47.152397	-166.036545	-267.388031	47.946522	-122.979446	-356.668304	479.807220	-409.501953	-378.580292	416.852509	-360.499878	-380.160248	224.019653	-394.950134	-370.154938	54.842735	-326.035980	-420.688690	51.279587	-274.868713	-259.657043	39.191715	-329.023285
47	0.46000000	-297.641052	1299.541748	-70.205635	-306.182312	1301.236572	-408.136993	-367.957275	1359.255005	-242.316742	-234.715042	1275.800293	-244.477112	-358.832977	1014.555725	12.971391	-327.339783	1014.383789	-506.725220	-293.748367	802.629822	22.975202	-273.758438	801.754913	-509.768906	-241.024246	877.912476	-97.006882	-235.023697	866.445679	-356.824799	-411.860138	884.669922	-234.013382	-421.914001	1162.426270	-240.044052	-213.268616	1076.817993	-240.816376	-351.253815	500.442993	-18.048389	-355.564697	437.674469	-90.196548	-375.248901	260.388397	-47.538521	-373.327728	65.080559	-119.817406	-418.407318	47.124413	-165.995911	-267.403564	47.971455	-122.962852	-356.677216	479.782166	-409.457489	-378.507935	416.795105	-360.473724	-380.145599	223.987137	-394.971771	-369.987488	54.670540	-326.187134	-420.710602	51.259895	-274.872253	-259.664917	39.171459	-329.001129
48	0.47000000	-297.635376	1299.531738	-70.207321	-306.177277	1301.195312	-408.136505	-367.967316	1359.260254	-242.302170	-234.764679	1275.789551	-244.440491	-358.841003	1014.568054	12.975223	-327.331390	1014.404846	-506.744843	-293.732254	802.631744	22.995248	-273.722412	801.755371	-509.824722	-241.107254	877.940613	-97.036766	-235.032425	866.435120	-356.827118	-411.823090	884.650269	-234.052170	-421.930786	1162.435669	-240.020203	-213.288712	1076.783447	-240.845657	-351.258240	500.451355	-18.027433	-355.538910	437.673218	-90.243095	-375.310120	260.365784	-47.539524	-373.416931	65.044762	-119.868980	-418.472961	47.182606	-166.099716	-267.356750	47.960312	-123.019012	-356.674225	479.807495	-409.495728	-378.583740	416.827393	-360.544830	-380.134399	223.944107	-395.007996	-370.231964	54.914066	-326.176880	-420.646973	51.245346	-274.904816	-259.691833	39.181820	-329.011749
49	0.48000000	-297.675049	1299.476196	-70.186462	-306.226379	1301.233276	-408.126740	-367.964081	1359.258423	-242.307709	-234.734177	1275.829468	-244.409302	-358.762573	1014.516663	13.023832	-327.395874	1014.299744	-506.676727	-293.694733	802.589325	23.092148	-273.718414	801.770813	-509.892838	-241.139740	877.956787	-97.062767	-234.918808	866.455811	-356.788025	-411.871857	884.665710	-233.994949	-421.916931	1162.427368	-240.041336	-213.290146	1076.779663	-240.853149	-351.209137	500.393372	-17.962242	-355.509857	437.677979	-90.256302	-375.241791	260.383514	-47.584267	-373.352509	65.045151	-119.812157	-418.476562	47.178997	-166.111450	-267.361115	47.964783	-123.006805	-356.650726	479.791260	-409.507416	-378.525055	416.810425	-360.486847	-380.153931	223.986649	-394.965912	-370.237122	54.932884	-326.087921	-420.697449	51.238770	-274.885040	-259.679016	39.214600	-329.023987
50	0.49000000	-297.635468	1299.488403	-70.124268	-306.240601	1301.258301	-408.117676	-367.987305	1359.210571	-242.265274	-234.717438	1275.820679	-244.387009	-358.782013	1014.571472	13.063476	-327.381042	1014.360901	-506.692413	-293.684784	802.575439	23.069013	-273.773148	801.805573	-509.827835	-241.021591	877.961792	-97.028038	-234.892822	866.444397	-356.809052	-411.800079	884.661255	-234.059937	-421.960083	1162.349976	-239.974670	-213.274002	1076.802368	-240.877579	-351.199829	500.386505	-17.960230	-355.510590	437.681610	-90.255791	-375.315369	260.436432	-47.536171	-373.462860	65.108398	-119.861076	-418.474579	47.185913	-166.105927	-267.339691	47.941723	-123.038963	-356.600616	479.831665	-409.417419	-378.502075	416.842682	-360.525330	-380.147186	224.018356	-394.997803	-370.002716	54.720413	-326.185425	-420.696533	51.284950	-274.869598	-259.667053	39.205723	-329.035400
51	0.50000000	-297.644775	1299.492310	-70.107773	-306.233521	1301.246704	-408.049866	-367.914062	1359.195068	-242.210999	-234.752777	1275.815552	-244.537079	-358.734650	1014.450623	13.063165	-327.402008	1014.371460	-506.644318	-293.641693	802.614624	23.060645	-273.787109	801.812683	-509.812424	-240.993622	877.921875	-97.006813	-234.899445	866.425598	-356.811859	-411.782806	884.687378	-233.951431	-421.935791	1162.443848	-240.012314	-213.166702	1076.803467	-240.820099	-351.101074	500.401123	-17.999853	-355.498535	437.699921	-90.122971	-375.328949	260.452362	-47.525452	-373.413330	65.134293	-119.777565	-418.500977	47.172474	-166.070160	-267.354034	47.952709	-123.010803	-356.618073	479.796112	-409.400238	-378.492737	416.854431	-360.456818	-380.142517	224.002716	-394.990784	-370.191101	54.912815	-326.113190	-420.648376	51.263046	-274.898102	-259.642944	39.230995	-329.047089
52	0.51000000	-297.606415	1299.448486	-70.129066	-306.240784	1301.253906	-408.050720	-367.967682	1359.209717	-242.281708	-234.765167	1275.798828	-244.531204	-358.715302	1014.435791	13.053236	-327.401550	1014.433960	-506.675964	-293.536270	802.545563	23.081232	-273.804916	801.818817	-509.818771	-240.999069	877.960999	-97.023506	-234.880219	866.476074	-356.781158	-411.790009	884.703918	-233.936371	-421.870544	1162.439819	-239.946106	-213.129044	1076.805054	-240.850998	-351.096863	500.388763	-18.005917	-355.490204	437.712311	-90.130867	-375.256470	260.397400	-47.572544	-373.446960	65.129120	-119.855438	-418.469910	47.155056	-166.053207	-267.387299	47.937523	-123.089561	-356.669098	479.871002	-409.432220	-378.496094	416.887451	-360.473114	-380.158966	224.009979	-394.941040	-370.010162	54.726830	-326.186462	-420.637268	51.351414	-275.033508	-259.662842	39.213226	-329.035400
53	0.52000000	-297.633270	1299.474731	-70.108238	-306.219971	1301.230225	-407.998352	-367.989258	1359.219238	-242.265457	-234.763092	1275.814087	-244.501770	-358.678650	1014.506714	13.109119	-327.394897	1014.405945	-506.661713	-293.524857	802.553131	23.112528	-273.807129	801.846405	-509.810287	-241.128952	877.882812	-96.756577	-234.871704	866.521545	-356.759369	-411.731415	884.660767	-233.986191	-421.850372	1162.427368	-239.965546	-213.124344	1076.859985	-240.797058	-351.151581	500.424683	-17.960218	-355.485046	437.705017	-90.147255	-375.250183	260.409851	-47.547005	-373.465179	65.121117	-119.865044	-418.441345	47.251644	-166.139572	-267.391235	47.954071	-122.986488	-356.564056	479.836212	-409.451965	-378.497772	416.841827	-360.480896	-380.147736	224.008881	-395.003174	-369.931702	54.724724	-326.205200	-420.656494	51.278259	-274.890869	-259.701752	39.256641	-329.006042
54	0.53000000	-297.598328	1299.424316	-70.106407	-306.209778	1301.228271	-408.015320	-367.929352	1359.204224	-242.190277	-234.752151	1275.856323	-244.501587	-358.645691	1014.377136	13.142227	-327.454529	1014.470276	-506.748962	-293.498871	802.554443	23.098625	-273.869934	801.866058	-509.871597	-241.055389	877.908752	-96.935555	-234.893570	866.449097	-356.744659	-411.780579	884.685852	-233.948669	-421.866577	1162.436279	-239.945206	-213.115143	1076.867676	-240.811111	-351.181061	500.450989	-17.942957	-355.485962	437.698547	-90.141708	-375.283417	260.373199	-47.513573	-373.346497	65.116402	-119.823074	-418.479767	47.285793	-166.073273	-267.408234	47.974640	-122.956245	-356.649353	479.827057	-409.367493	-378.499817	416.865631	-360.457153	-380.159058	224.027878	-394.947906	-369.936462	54.749752	-326.223328	-420.694275	51.297012	-274.859436	-259.647278	39.254601	-329.001160
55	0.54000000	-297.578979	1299.453857	-70.008766	-306.220367	1301.250488	-407.998871	-367.924011	1359.193604	-242.187744	-234.454773	1275.580200	-244.844681	-358.670410	1014.414368	13.139041	-327.445923	1014.439819	-506.745911	-293.413376	802.537201	23.088717	-273.873840	801.843353	-509.858047	-240.886353	877.906311	-96.955994	-234.904404	866.456848	-356.719208	-411.791138	884.691650	-233.941208	-421.898315	1162.341919	-239.899292	-213.124985	1076.864746	-240.794006	-351.138641	500.425476	-17.979088	-355.470795	437.667603	-90.143440	-375.199829	260.390411	-47.484077	-373.338745	65.051498	-119.807281	-418.471893	47.215034	-165.963287	-267.409546	47.975605	-122.957527	-356.640625	479.858154	-409.375702	-378.501343	416.838684	-360.449036	-380.069977	224.001221	-394.901215	-369.942383	54.738235	-326.224365	-420.709137	51.300945	-274.847107	-259.682739	39.221298	-328.957642
56	0.55000000	-297.585449	1299.457764	-69.993813	-306.218658	1301.220947	-407.997375	-367.925385	1359.193604	-242.189957	-234.667633	1275.797363	-244.401352	-358.711853	1014.418457	13.132584	-327.399139	1014.446899	-506.700012	-293.393784	802.506683	23.073442	-273.904282	801.832703	-509.843658	-240.856857	877.928101	-96.971466	-234.903519	866.441406	-356.739075	-411.785339	884.641357	-233.936325	-421.882446	1162.359375	-239.918121	-213.108856	1076.894531	-240.827591	-351.198425	500.361176	-17.941587	-355.547485	437.686371	-90.097588	-375.252411	260.393707	-47.527355	-373.335175	65.041924	-119.822449	-418.543518	47.196522	-165.986282	-267.363312	47.970318	-123.015724	-356.600006	479.791412	-409.355133	-378.487732	416.886658	-360.430023	-380.055481	223.998398	-394.913239	-370.167236	54.920853	-326.118988	-420.641998	51.327854	-275.040466	-259.641022	39.211246	-328.980347
57	0.56000000	-297.608490	1299.477905	-69.991356	-306.244873	1301.289795	-407.977997	-368.001465	1359.201416	-242.142044	-234.717667	1275.874634	-244.359909	-358.651825	1014.356079	13.106251	-327.479492	1014.465088	-506.706573	-293.306564	802.534821	23.091187	-273.951752	801.872650	-509.918320	-240.868271	877.910706	-96.949181	-234.879425	866.512512	-356.736908	-411.696014	884.684509	-233.882324	-421.863647	1162.352051	-239.945099	-213.121307	1076.882690	-240.797974	-351.166168	500.414673	-17.954525	-355.472321	437.669556	-90.158150	-375.206390	260.398987	-47.484196	-373.349884	65.055412	-119.807518	-418.558044	47.242165	-166.035400	-267.406128	47.983318	-122.963318	-356.550964	479.840485	-409.408722	-378.497772	416.888763	-360.487213	-380.069763	223.999619	-394.908539	-370.202881	54.961212	-326.065369	-420.685150	51.272575	-274.892059	-259.687622	39.212330	-328.998932
58	0.57000000	-297.595581	1299.447998	-69.993568	-306.227875	1301.322144	-407.990814	-368.010010	1359.203735	-242.136124	-234.719971	1275.916260	-244.368027	-358.504486	1014.288513	13.146402	-327.453857	1014.513489	-506.577332	-293.348328	802.520325	23.063637	-273.992996	801.878693	-509.928925	-240.883591	877.888977	-96.982704	-234.870575	866.504150	-356.779968	-411.716125	884.677246	-233.869217	-421.878479	1162.360474	-239.922897	-213.108505	1076.907837	-240.827713	-351.112305	500.453735	-17.904068	-355.469421	437.678253	-90.153152	-375.177155	260.379791	-47.487640	-373.342804	65.079391	-119.829788	-418.513947	47.260723	-166.034470	-267.404114	47.938705	-123.053772	-356.609741	479.798828	-409.327698	-378.502716	416.868256	-360.474365	-380.109314	224.013779	-394.934570	-370.187134	54.958260	-326.086823	-420.647186	51.244656	-274.899139	-259.703278	39.207123	-329.010284
59	0.58000000	-297.576080	1299.448242	-70.005768	-306.251373	1301.306763	-407.956146	-367.945923	1359.196533	-242.066360	-234.731064	1275.894165	-244.357452	-358.484344	1014.281372	13.142643	-327.532349	1014.495789	-506.679443	-293.315689	802.498383	23.061495	-273.989105	801.872284	-509.954269	-240.879715	877.903442	-96.949005	-234.870850	866.520569	-356.764374	-411.736938	884.612183	-233.842255	-421.788147	1162.304688	-239.882645	-213.122406	1076.866089	-240.796432	-351.091370	500.428558	-17.885151	-355.468536	437.666656	-90.144646	-375.199554	260.334625	-47.495468	-373.354034	65.061363	-119.805206	-418.348083	47.197067	-166.087570	-267.357971	47.951836	-123.012764	-356.546906	479.835052	-409.324829	-378.502838	416.856842	-360.484650	-380.090057	224.006332	-394.893066	-369.989014	54.713875	-326.230499	-420.688385	51.281731	-274.872253	-259.693237	39.213509	-329.009155
60	0.59000000	-297.587769	1299.451782	-69.994469	-306.256866	1301.313477	-407.962708	-367.950470	1359.131592	-242.041153	-234.730560	1275.887085	-244.432419	-358.494080	1014.285400	13.144711	-327.551239	1014.485535	-506.657593	-293.310547	802.457245	23.082334	-274.013840	801.878082	-509.892654	-240.893784	877.861023	-96.941895	-234.783218	866.433105	-356.705292	-411.671509	884.596497	-233.769867	-421.826721	1162.326416	-239.828568	-213.130768	1076.875610	-240.789139	-351.065155	500.422638	-17.900076	-355.467712	437.676270	-90.161041	-375.201355	260.398682	-47.464451	-373.379211	65.095947	-119.807480	-418.401154	47.123699	-166.003647	-267.344299	47.938808	-123.021713	-356.562744	479.800415	-409.263336	-378.491333	416.906219	-360.480682	-380.073456	224.022461	-394.891357	-370.083527	54.826103	-326.150879	-420.642517	51.328537	-275.040833	-259.681610	39.219833	-329.007233
61	0.60000000	-297.501312	1299.363159	-69.919678	-306.252502	1301.302979	-407.941376	-367.967377	1359.136597	-242.020309	-234.694962	1275.801758	-244.227081	-358.518219	1014.341309	13.178125	-327.540619	1014.515625	-506.666138	-293.273239	802.444702	23.086643	-274.043686	801.891235	-509.916992	-240.893600	877.911377	-96.922218	-234.770050	866.443726	-356.701447	-411.660950	884.584717	-233.749023	-421.893311	1162.372437	-239.797089	-213.108582	1076.906494	-240.805374	-351.043335	500.374664	-17.802671	-355.364655	437.655060	-90.119049	-375.158844	260.389191	-47.455826	-373.369720	65.083694	-119.812614	-418.550201	47.245949	-166.031113	-267.357178	47.954472	-122.997528	-356.591461	479.836884	-409.220245	-378.424225	416.863281	-360.389343	-380.069916	224.011078	-394.901093	-370.158356	54.840714	-326.067261	-420.658478	51.302513	-274.870483	-259.620300	39.221527	-329.051666
62	0.61000000	-297.537323	1299.383301	-69.907234	-306.324585	1301.311890	-407.886719	-367.969635	1359.147949	-242.018097	-234.302124	1275.607056	-244.687744	-358.546387	1014.326721	13.187851	-327.770416	1014.206177	-506.513672	-293.255829	802.417175	23.109195	-274.064850	801.899597	-509.940887	-240.815063	877.846191	-96.835907	-234.772812	866.448669	-356.704865	-411.658661	884.629700	-233.751465	-421.898102	1162.375122	-239.795425	-213.199982	1076.874634	-240.713867	-351.054718	500.380219	-17.796684	-355.392578	437.702332	-90.090637	-375.150391	260.383636	-47.463985	-373.333649	65.066986	-119.805946	-418.540253	47.221260	-165.940201	-267.368988	47.967945	-122.989311	-356.588715	479.822235	-409.208893	-378.413147	416.866211	-360.321075	-380.123169	224.024384	-394.868652	-370.022888	54.743996	-326.110291	-420.659241	51.273418	-274.870575	-259.681641	39.235695	-328.997070
63	0.62000000	-297.527863	1299.368042	-69.897820	-306.323212	1301.297241	-407.897339	-367.968994	1359.148193	-242.018829	-234.684326	1275.905762	-244.484726	-358.546356	1014.360107	13.193178	-327.570862	1014.545349	-506.600769	-293.215591	802.426636	23.067901	-274.106171	801.932434	-509.946121	-240.784836	877.866455	-96.825310	-234.845169	866.461853	-356.612671	-411.595398	884.620239	-233.680618	-421.911591	1162.383057	-239.773132	-213.115707	1076.863525	-240.654739	-351.059174	500.372498	-17.790834	-355.429932	437.720398	-90.028419	-375.159943	260.401947	-47.449661	-373.370178	65.091530	-119.774269	-418.471649	47.220985	-165.952194	-267.368317	47.967361	-123.000336	-356.504211	479.856750	-409.266113	-378.490845	416.869751	-360.311249	-380.098694	224.057495	-394.807892	-369.991852	54.743359	-326.178192	-420.732574	51.381248	-274.801788	-259.642548	39.219410	-329.000763
64	0.63000000	-297.491364	1299.451172	-69.921715	-306.366577	1301.350220	-407.902100	-367.998444	1359.184937	-241.987411	-234.757812	1275.888184	-244.351135	-358.546234	1014.326477	13.187334	-327.667175	1014.598450	-506.644836	-293.241592	802.417725	23.059039	-274.100861	801.917603	-509.949417	-240.774704	877.878601	-96.856026	-234.880280	866.429688	-356.571808	-411.648132	884.646545	-233.632797	-421.912262	1162.373535	-239.773514	-213.202942	1076.866699	-240.673721	-351.012756	500.412048	-17.798109	-355.424011	437.713715	-90.055542	-375.210083	260.365295	-47.470112	-373.320984	65.062614	-119.819450	-418.464081	47.209354	-165.961227	-267.404816	47.974430	-122.952309	-356.614349	479.864777	-409.183655	-378.458618	416.877594	-360.320557	-380.070496	224.001312	-394.883362	-370.002747	54.746822	-326.161377	-420.744415	51.380169	-274.799866	-259.631622	39.222324	-329.022858
65	0.64000000	-297.477478	1299.423828	-69.924416	-306.331055	1301.332886	-407.902069	-368.078400	1359.195312	-241.935760	-234.689056	1275.897461	-244.284576	-358.503479	1014.288879	13.149518	-327.889587	1014.237549	-506.543671	-293.315079	802.428955	23.022680	-274.143433	801.906036	-509.979095	-240.746948	877.950378	-96.837158	-234.882431	866.423462	-356.571442	-411.657684	884.650940	-233.629440	-421.911224	1162.372559	-239.774612	-213.012650	1076.924805	-240.753616	-350.998474	500.426697	-17.814777	-355.442780	437.644653	-90.028603	-375.155762	260.372772	-47.466133	-373.361023	65.081406	-119.817474	-418.517517	47.298676	-166.075714	-267.403900	47.978298	-122.972816	-356.669861	479.870331	-409.180359	-378.438843	416.934570	-360.269836	-380.074371	224.041840	-394.869232	-369.938232	54.751122	-326.237274	-420.699982	51.291607	-274.866211	-259.659668	39.187511	-329.002319
66	0.65000000	-297.471436	1299.416626	-69.931564	-306.394592	1301.360229	-407.882751	-368.100250	1359.204102	-241.910004	-234.757767	1275.893799	-244.366821	-358.469025	1014.266052	13.130501	-327.714172	1014.555664	-506.670319	-293.313095	802.437958	23.021328	-274.175262	801.984528	-510.022644	-240.859497	877.822571	-96.705772	-234.877335	866.425842	-356.575348	-411.727051	884.661743	-233.589111	-421.848785	1162.363647	-239.703522	-212.999939	1076.988403	-240.683319	-350.962555	500.355621	-17.717817	-355.462799	437.666229	-90.031258	-375.084198	260.364166	-47.406429	-373.335480	65.025604	-119.798653	-418.506134	47.234623	-165.981537	-267.362061	47.956593	-123.004616	-356.567810	479.884949	-409.175385	-378.441528	416.926300	-360.295807	-380.078033	224.075623	-394.879944	-370.138306	54.871872	-326.115295	-420.690521	51.281879	-274.873138	-259.636230	39.235744	-329.012878
67	0.66000000	-297.484528	1299.369995	-69.830528	-306.449493	1301.343262	-407.830963	-368.083710	1359.196411	-241.931732	-234.831619	1275.862427	-244.233063	-358.402252	1014.277283	13.197609	-327.781860	1014.572510	-506.793121	-293.325516	802.383575	23.015088	-274.203094	801.991821	-509.994141	-240.814514	877.846619	-96.741112	-234.874908	866.428955	-356.576691	-411.684845	884.587341	-233.486633	-421.857513	1162.298828	-239.675583	-213.043762	1076.965454	-240.631348	-350.939819	500.308807	-17.739700	-355.325653	437.678650	-90.004990	-375.079315	260.336212	-47.386276	-373.350372	65.054893	-119.804184	-418.521057	47.258041	-165.949066	-267.379974	47.957470	-122.998940	-356.596069	479.865417	-409.113037	-378.427673	416.947296	-360.229767	-380.068695	224.060699	-394.787750	-370.181183	54.948082	-326.097351	-420.681641	51.272781	-274.851440	-259.732330	39.221172	-328.977997
68	0.67000000	-297.479675	1299.365601	-69.829391	-306.465118	1301.352905	-407.810974	-368.089691	1359.122070	-241.914337	-234.829163	1275.883911	-244.265488	-358.421539	1014.281128	13.227263	-327.803162	1014.512329	-506.731262	-293.353745	802.375000	23.037954	-274.185226	802.012085	-510.052322	-240.765457	877.883606	-96.788536	-234.945938	866.423035	-356.507324	-411.693878	884.592163	-233.458313	-421.859558	1162.296509	-239.675812	-213.055695	1076.947510	-240.622650	-350.968262	500.335449	-17.715105	-355.364624	437.695404	-89.937172	-375.190704	260.349396	-47.383095	-373.381622	65.013916	-119.791573	-418.548645	47.236893	-165.917770	-267.407227	47.974449	-122.950798	-356.554932	479.915161	-409.153778	-378.493744	416.919556	-360.251465	-380.127380	224.075592	-394.725952	-370.248199	54.957409	-326.027863	-420.693176	51.285088	-274.868439	-259.672455	39.180649	-328.988312
69	0.68000000	-297.479767	1299.373535	-69.835907	-306.509674	1301.353027	-407.807953	-368.180817	1359.134155	-241.843216	-234.911102	1275.837036	-244.300781	-358.431274	1014.283752	13.230453	-327.723938	1014.633362	-506.684448	-293.312180	802.388763	23.003023	-274.195053	802.000641	-510.063934	-240.679108	877.923828	-96.724106	-234.828049	866.490723	-356.428162	-411.671082	884.605957	-233.469315	-421.933167	1162.307129	-239.631195	-213.003113	1077.041870	-240.711700	-350.991241	500.344116	-17.690681	-355.438934	437.600861	-89.895973	-375.167419	260.316925	-47.344509	-373.414185	65.034225	-119.761482	-418.473206	47.211693	-165.955887	-267.366302	47.957870	-122.999344	-356.483826	479.896881	-409.084991	-378.433075	416.893463	-360.141418	-380.038818	224.095551	-394.821564	-370.192932	54.901325	-326.031891	-420.699585	51.244476	-274.837708	-259.703430	39.180946	-328.977631
70	0.69000000	-297.482025	1299.366455	-69.787209	-306.521210	1301.353882	-407.778656	-368.191742	1359.139038	-241.835449	-234.921936	1275.851196	-244.260269	-358.430542	1014.283447	13.229388	-327.795197	1014.617554	-506.752197	-293.316467	802.374023	22.999148	-274.267303	802.038147	-510.039551	-240.687103	877.919617	-96.705902	-234.903641	866.502930	-356.469116	-411.668243	884.605652	-233.471786	-421.939758	1162.299561	-239.628372	-213.022629	1076.989258	-240.658569	-350.914673	500.332825	-17.626944	-355.318268	437.662811	-90.004860	-375.072266	260.323792	-47.421417	-373.399567	65.035271	-119.796654	-418.559784	47.253487	-165.994324	-267.399597	47.971695	-122.966164	-356.499176	479.851135	-409.025085	-378.355927	416.926605	-360.160919	-380.083893	224.107910	-394.773163	-370.182007	54.895729	-326.036835	-420.604187	51.277050	-274.770813	-259.629150	39.170280	-328.988129
71	0.70000000	-297.438141	1299.441284	-69.815475	-306.608887	1301.391724	-407.756653	-368.202515	1359.145630	-241.817413	-234.947342	1275.852661	-244.292435	-358.429199	1014.282898	13.228701	-327.777588	1014.686584	-506.765900	-293.237900	802.348846	23.031797	-274.209625	802.057251	-510.102814	-240.701279	877.892761	-96.679192	-234.819489	866.495483	-356.412018	-411.589447	884.656799	-233.426880	-421.952759	1162.307739	-239.606903	-213.099121	1077.016602	-240.592575	-351.018555	500.356995	-17.651760	-355.424652	437.673401	-89.912025	-375.068604	260.342224	-47.414047	-373.345612	65.053452	-119.823952	-418.441467	47.263191	-166.003983	-267.359283	47.961174	-123.007065	-356.426636	479.881256	-409.107544	-378.435028	416.900848	-360.144592	-380.129700	224.076370	-394.720764	-370.207672	54.991283	-326.086639	-420.698669	51.328739	-274.808258	-259.567352	39.145130	-328.953979
72	0.71000000	-297.556183	1299.392456	-69.758987	-306.607178	1301.397217	-407.773926	-368.279114	1359.153687	-241.768036	-234.852158	1275.911865	-244.217224	-358.479431	1014.333008	13.247480	-327.936218	1014.626770	-506.733307	-293.254868	802.400238	23.023361	-274.195282	802.115143	-510.119339	-240.717407	877.885376	-96.670288	-234.795624	866.501648	-356.429840	-411.599152	884.594543	-233.397491	-421.970978	1162.287109	-239.584015	-213.136002	1076.985962	-240.544647	-350.971832	500.363068	-17.585466	-355.423920	437.649353	-89.914337	-375.089386	260.356598	-47.383480	-373.333099	65.039070	-119.814095	-418.426788	47.267967	-166.004044	-267.370270	47.930470	-123.017624	-356.499359	479.895203	-408.989990	-378.455292	416.904785	-360.128265	-380.080780	224.064438	-394.736084	-370.125183	54.883575	-326.074921	-420.637451	51.324142	-275.026550	-259.585144	39.184818	-328.929596
73	0.72000000	-297.575592	1299.411011	-69.744408	-306.719330	1301.359985	-407.721527	-368.286957	1359.164551	-241.762100	-234.935181	1275.885864	-244.231705	-358.583435	1014.274841	13.351935	-327.949829	1014.630127	-506.727386	-293.268066	802.422546	23.038985	-274.265717	802.107513	-510.126968	-240.716751	877.884338	-96.647713	-234.796692	866.518372	-356.437012	-411.617340	884.600891	-233.373520	-422.058563	1162.273071	-239.508255	-213.090973	1077.085938	-240.556274	-351.005157	500.361267	-17.654085	-355.435425	437.642731	-89.900108	-375.124695	260.290985	-47.387917	-373.411591	64.994049	-119.759773	-418.606445	47.270012	-165.960251	-267.403503	47.970543	-122.964249	-356.494507	479.948120	-408.978424	-378.452606	416.906067	-360.127625	-380.139648	224.078278	-394.694672	-370.130646	54.862896	-325.985443	-420.672760	51.409573	-274.995667	-259.606476	39.228592	-328.952301
74	0.73000000	-297.569763	1299.404297	-69.758194	-306.755188	1301.396118	-407.677856	-368.327026	1359.074829	-241.698868	-234.999237	1275.921387	-244.246658	-358.512146	1014.269592	13.418433	-327.959534	1014.699585	-506.755951	-293.328934	802.406830	23.110728	-274.272842	802.115509	-510.122894	-240.696167	877.917419	-96.712395	-234.813004	866.511536	-356.389404	-411.662445	884.529175	-233.334290	-422.062469	1162.201538	-239.501694	-213.059128	1077.121948	-240.556320	-351.072418	500.316437	-17.624912	-355.437714	437.634033	-89.906616	-375.162476	260.293304	-47.382923	-373.430298	65.000946	-119.751190	-418.558044	47.228867	-165.913010	-267.469666	47.934483	-122.930977	-356.548492	479.902863	-408.918091	-378.436188	416.915863	-360.106293	-380.049133	224.090149	-394.701202	-370.195221	54.998352	-326.022705	-420.636414	51.336861	-274.891693	-259.601318	39.153225	-328.923065
75	0.74000000	-297.583832	1299.401001	-69.743141	-306.755585	1301.400391	-407.679932	-368.405121	1359.078491	-241.646881	-235.177551	1275.970459	-244.152405	-358.491577	1014.265503	13.412660	-327.943726	1014.637512	-506.734161	-293.263306	802.367950	23.161933	-274.276108	802.154938	-510.147247	-240.702301	877.865906	-96.666313	-234.898315	866.491150	-356.298767	-411.695160	884.611755	-233.326736	-422.060272	1162.260376	-239.508026	-213.057632	1077.126831	-240.603485	-351.085480	500.323608	-17.616920	-355.508301	437.637451	-89.864685	-375.204987	260.334381	-47.306190	-373.424194	65.020195	-119.749054	-418.579498	47.256653	-165.907043	-267.380096	47.965721	-122.993355	-356.450500	479.926941	-408.956879	-378.372070	416.944427	-360.156036	-380.092377	224.090530	-394.717102	-370.150574	54.920490	-325.996674	-420.601288	51.292011	-274.764557	-259.577637	39.203972	-328.943573
76	0.75000000	-297.605530	1299.454224	-69.615845	-306.801270	1301.438110	-407.643494	-368.412048	1359.082275	-241.643326	-235.166824	1275.906860	-244.035278	-358.371338	1014.328979	13.444150	-327.933868	1014.715210	-506.745789	-293.234695	802.400299	23.183585	-274.264572	802.174927	-510.160095	-240.794250	877.836548	-96.559319	-234.913147	866.493896	-356.297577	-411.757690	884.661560	-233.280029	-422.061554	1162.265015	-239.507935	-213.135712	1077.097778	-240.529541	-351.022858	500.356750	-17.665596	-355.458954	437.683533	-89.880539	-375.135468	260.293579	-47.380432	-373.378906	65.064651	-119.764542	-418.511047	47.242458	-165.967453	-267.452332	47.980484	-123.014030	-356.463989	479.898529	-408.937866	-378.365112	416.948364	-360.163269	-380.012207	224.092941	-394.655426	-370.250671	55.025597	-326.027588	-420.587952	51.278484	-274.779572	-259.618774	39.241474	-328.942719
77	0.76000000	-297.611267	1299.445312	-69.608162	-306.815155	1301.465210	-407.612030	-368.437897	1359.127197	-241.613998	-235.082382	1275.999878	-243.929153	-358.401886	1014.345642	13.480205	-327.989990	1014.747437	-506.802063	-293.240051	802.409058	23.190534	-274.260605	802.217529	-510.217926	-240.833969	877.812683	-96.517014	-234.903824	866.497864	-356.305664	-411.698364	884.651550	-233.204346	-422.134918	1162.273071	-239.462326	-213.161743	1077.101318	-240.460587	-351.021667	500.371582	-17.657244	-355.431030	437.676239	-89.905861	-375.174011	260.300964	-47.373413	-373.338745	65.043015	-119.809418	-418.466125	47.285107	-166.016632	-267.413940	47.975636	-122.960739	-356.478058	479.924713	-408.921204	-378.364471	416.963043	-360.134705	-380.039795	224.108566	-394.741760	-370.157349	55.001160	-326.074127	-420.677917	51.313751	-274.844635	-259.626831	39.243858	-328.971436
78	0.77000000	-297.661957	1299.441040	-69.661102	-306.856232	1301.431152	-407.577087	-368.516541	1359.137573	-241.563614	-235.064377	1275.929688	-243.954193	-358.413269	1014.349487	13.486088	-327.964996	1014.778931	-506.752319	-293.250580	802.413086	23.240549	-274.291458	802.186066	-510.183701	-240.731644	877.776550	-96.481194	-234.873993	866.554565	-356.279816	-411.754791	884.659729	-233.273605	-422.153809	1162.201172	-239.435318	-213.162186	1077.105225	-240.446762	-351.048187	500.322418	-17.630186	-355.384583	437.688049	-89.937546	-375.190582	260.307678	-47.316368	-373.360352	65.069954	-119.802681	-418.481812	47.285515	-166.066513	-267.410675	47.953499	-123.041351	-356.474731	479.889496	-408.932709	-378.430450	416.890137	-360.088287	-380.085693	224.094772	-394.755981	-370.229523	54.992954	-326.078430	-420.725342	51.346478	-274.834839	-259.661041	39.258091	-329.009430
79	0.78000000	-297.664978	1299.462646	-69.661011	-306.940704	1301.426147	-407.558746	-368.506348	1359.155029	-241.581100	-235.238342	1275.937866	-244.165924	-358.476715	1014.281494	13.520086	-327.942963	1014.773254	-506.716858	-293.252457	802.412933	23.317345	-274.297638	802.185120	-510.190430	-240.695068	877.816467	-96.442314	-234.866318	866.577026	-356.278961	-411.749664	884.561401	-233.132004	-422.150879	1162.197021	-239.436096	-213.121078	1077.181396	-240.446762	-350.982635	500.288971	-17.570200	-355.490051	437.612915	-89.848038	-375.185425	260.306000	-47.318787	-373.414246	65.039680	-119.761040	-418.502136	47.229946	-165.979584	-267.403503	47.971413	-122.968109	-356.468231	479.899994	-408.890106	-378.375275	416.969513	-360.115814	-380.132782	224.081573	-394.728149	-370.186981	54.911057	-326.020966	-420.718384	51.288212	-274.809875	-259.588440	39.164124	-328.930603
80	0.79000000	-297.740997	1299.470215	-69.597221	-306.910828	1301.422363	-407.543945	-368.527588	1359.073975	-241.541992	-235.279694	1275.914185	-244.070023	-358.375610	1014.256226	13.568419	-327.864014	1014.794983	-506.647583	-293.186630	802.422058	23.397291	-274.302841	802.219574	-510.165604	-240.702499	877.786865	-96.481293	-234.938751	866.570129	-356.210968	-411.726471	884.590210	-233.145645	-422.237061	1162.153931	-239.365311	-213.197174	1077.162354	-240.373199	-350.978546	500.295654	-17.565422	-355.475372	437.641693	-89.865471	-375.189362	260.307526	-47.315170	-373.413940	64.997261	-119.775482	-418.505310	47.226963	-165.971252	-267.401062	47.978325	-122.973297	-356.436005	479.880249	-408.895813	-378.361603	416.966919	-360.134277	-380.051208	224.087769	-394.692017	-370.165009	54.878811	-326.062714	-420.648193	51.240726	-274.873383	-259.576996	39.161884	-328.928436
81	0.80000000	-297.787720	1299.428101	-69.562027	-306.978516	1301.442383	-407.503845	-368.587952	1359.094116	-241.512375	-235.315292	1275.956299	-244.045593	-358.398682	1014.271423	13.600137	-327.949585	1014.750977	-506.666260	-293.203110	802.401611	23.432235	-274.285782	802.222656	-510.209152	-240.670197	877.889709	-96.469276	-234.960678	866.562317	-356.196960	-411.723328	884.580994	-233.154984	-422.244568	1162.143799	-239.360687	-213.206161	1077.159302	-240.385651	-350.978058	500.266357	-17.557051	-355.494141	437.649628	-89.714165	-375.205322	260.327698	-47.295879	-373.417938	64.992668	-119.758339	-418.503662	47.228127	-165.973145	-267.406494	47.974606	-122.960793	-356.456390	479.904236	-408.891022	-378.363678	416.963348	-360.133789	-380.010620	224.088745	-394.631226	-370.175659	54.956459	-326.109833	-420.686066	51.280087	-274.873840	-259.587769	39.154453	-328.929779
82	0.81000000	-297.738098	1299.485352	-69.601021	-306.981232	1301.503418	-407.496521	-368.626495	1359.080811	-241.466827	-235.262238	1275.993042	-244.168945	-358.480072	1014.309753	13.655254	-327.940796	1014.792908	-506.732117	-293.228271	802.441986	23.478448	-274.265121	802.247314	-510.213730	-240.659912	877.888855	-96.424011	-234.956650	866.563049	-356.200470	-411.795258	884.591736	-233.112686	-422.241089	1162.143433	-239.363571	-213.207565	1077.177734	-240.375183	-350.889282	500.260864	-17.503336	-355.456940	437.682251	-89.739830	-375.196960	260.300873	-47.312309	-373.383942	64.989731	-119.794609	-418.485504	47.242889	-165.938171	-267.394135	47.941162	-122.989098	-356.446869	479.916290	-408.864807	-378.363129	416.971130	-360.114838	-380.056152	224.089951	-394.653534	-369.936829	54.741169	-326.098785	-420.722626	51.344547	-274.833679	-259.612823	39.218597	-328.934723
83	0.82000000	-297.864716	1299.500488	-69.531410	-307.034790	1301.548584	-407.462189	-368.627625	1359.080078	-241.464401	-235.299210	1275.961670	-244.018829	-358.497894	1014.317322	13.664752	-327.950470	1014.919373	-506.687897	-293.172089	802.452515	23.534779	-274.335129	802.309296	-510.256180	-240.762497	877.866821	-96.327560	-234.951614	866.582275	-356.204285	-411.778076	884.605591	-233.117142	-422.256836	1162.153198	-239.340286	-213.180939	1077.250000	-240.349289	-350.910156	500.283752	-17.477160	-355.427704	437.659271	-89.773659	-375.198578	260.318634	-47.292690	-373.350494	65.053513	-119.807503	-418.502869	47.228985	-165.971054	-267.359497	47.953136	-123.006813	-356.466888	479.903625	-408.877197	-378.362701	416.971436	-360.112915	-380.014954	224.109711	-394.647156	-369.944153	54.730042	-326.166779	-420.753143	51.292133	-274.816193	-259.586639	39.162556	-328.947845
84	0.83000000	-297.883392	1299.517212	-69.530426	-307.038879	1301.542114	-407.453674	-368.700439	1359.087158	-241.419250	-236.012939	1275.969727	-243.666061	-358.367950	1014.393494	13.694987	-327.922913	1014.911621	-506.690399	-293.077316	802.513062	23.618433	-274.343643	802.354187	-510.248611	-240.899292	877.852905	-96.345245	-235.063309	866.563660	-356.242035	-411.788177	884.614929	-233.097168	-422.332581	1162.163574	-239.292511	-213.151276	1077.321777	-240.383575	-350.914276	500.279022	-17.477711	-355.509521	437.670563	-89.709236	-375.122559	260.314850	-47.289108	-373.407532	64.991730	-119.762276	-418.503601	47.227848	-165.974747	-267.393066	47.975773	-122.981583	-356.413940	479.898193	-408.829071	-378.429260	416.949402	-360.071289	-380.102783	224.122803	-394.631592	-370.093445	54.817753	-326.073212	-420.666870	51.336018	-274.743256	-259.646362	39.201839	-328.903534
85	0.84000000	-297.963898	1299.482788	-69.461571	-307.028595	1301.502563	-407.373047	-368.708496	1359.089355	-241.413879	-236.162857	1275.944092	-243.602020	-358.490997	1014.374207	13.798051	-327.953491	1014.932190	-506.656647	-293.167145	802.485535	23.687910	-274.329941	802.367493	-510.256500	-240.924149	877.807617	-96.369820	-235.159363	866.583984	-356.129395	-411.833344	884.541077	-233.056976	-422.351837	1162.101562	-239.264099	-213.240158	1077.315674	-240.252197	-350.974670	500.236755	-17.425507	-355.493683	437.709259	-89.717171	-375.257874	260.247955	-47.250423	-373.428436	65.000160	-119.752701	-418.495514	47.187180	-165.932709	-267.364624	47.957722	-123.002144	-356.482697	479.916443	-408.891632	-378.440125	416.978790	-360.001068	-380.081604	224.096146	-394.590179	-370.082092	54.878632	-326.046173	-420.633087	51.282520	-274.774811	-259.613708	39.229141	-328.988464
