Model Marker Errors from IK
version=1
nRows=341
nColumns=4
inDegrees=no
endheader
time	total_squared_error	marker_error_RMS	marker_error_max
      0.07000000	      0.00189268	      0.00870100	      0.01687769
      0.08000000	      0.00184107	      0.00858155	      0.01663098
      0.09000000	      0.00179781	      0.00848012	      0.01662720
      0.10000000	      0.00173355	      0.00832719	      0.01628091
      0.11000000	      0.00170766	      0.00826477	      0.01613045
      0.12000000	      0.00168473	      0.00820908	      0.01586689
      0.13000000	      0.00166554	      0.00816220	      0.01561161
      0.14000000	      0.00165541	      0.00813733	      0.01527530
      0.15000000	      0.00165765	      0.00814286	      0.01505805
      0.16000000	      0.00165934	      0.00814700	      0.01542767
      0.17000000	      0.00167079	      0.00817505	      0.01581135
      0.18000000	      0.00170151	      0.00824987	      0.01631373
      0.19000000	      0.00173450	      0.00832947	      0.01657688
      0.20000000	      0.00173192	      0.00832327	      0.01647487
      0.21000000	      0.00175944	      0.00838913	      0.01653301
      0.22000000	      0.00175785	      0.00838535	      0.01635772
      0.23000000	      0.00175624	      0.00838149	      0.01665261
      0.24000000	      0.00175489	      0.00837827	      0.01712200
      0.25000000	      0.00174442	      0.00835324	      0.01737910
      0.26000000	      0.00172931	      0.00831701	      0.01774358
      0.27000000	      0.00171419	      0.00828055	      0.01786210
      0.28000000	      0.00170913	      0.00826832	      0.01807421
      0.29000000	      0.00170830	      0.00826632	      0.01820266
      0.30000000	      0.00172083	      0.00829658	      0.01832499
      0.31000000	      0.00176582	      0.00840433	      0.01862323
      0.32000000	      0.00178273	      0.00844447	      0.01877482
      0.33000000	      0.00186131	      0.00862858	      0.01905132
      0.34000000	      0.00188836	      0.00869106	      0.01927754
      0.35000000	      0.00192292	      0.00877021	      0.01950054
      0.36000000	      0.00198486	      0.00891035	      0.01969561
      0.37000000	      0.00204426	      0.00904270	      0.01985250
      0.38000000	      0.00210128	      0.00916794	      0.02036068
      0.39000000	      0.00216056	      0.00929636	      0.02102644
      0.40000000	      0.00220566	      0.00939290	      0.02159942
      0.41000000	      0.00225814	      0.00950397	      0.02241931
      0.42000000	      0.00229715	      0.00958571	      0.02295826
      0.43000000	      0.00232957	      0.00965312	      0.02407983
      0.44000000	      0.00241443	      0.00982738	      0.02467497
      0.45000000	      0.00250792	      0.01001582	      0.02525995
      0.46000000	      0.00261937	      0.01023595	      0.02585701
      0.47000000	      0.00271612	      0.01042328	      0.02622752
      0.48000000	      0.00279761	      0.01057848	      0.02669275
      0.49000000	      0.00285522	      0.01068685	      0.02687116
      0.50000000	      0.00287629	      0.01072622	      0.02714311
      0.51000000	      0.00283919	      0.01065681	      0.02678422
      0.52000000	      0.00277432	      0.01053436	      0.02670265
      0.53000000	      0.00267535	      0.01034476	      0.02631376
      0.54000000	      0.00255495	      0.01010930	      0.02574404
      0.55000000	      0.00243232	      0.00986372	      0.02526719
      0.56000000	      0.00231681	      0.00962665	      0.02479326
      0.57000000	      0.00222204	      0.00942771	      0.02433102
      0.58000000	      0.00212726	      0.00922446	      0.02378504
      0.59000000	      0.00203331	      0.00901845	      0.02291372
      0.60000000	      0.00198197	      0.00890385	      0.02247269
      0.61000000	      0.00186311	      0.00863276	      0.02128658
      0.62000000	      0.00180728	      0.00850242	      0.02081406
      0.63000000	      0.00175795	      0.00838559	      0.02036788
      0.64000000	      0.00170714	      0.00826350	      0.01979480
      0.65000000	      0.00167503	      0.00818543	      0.01939687
      0.66000000	      0.00165276	      0.00813082	      0.01902243
      0.67000000	      0.00163111	      0.00807739	      0.01869442
      0.68000000	      0.00165312	      0.00813170	      0.01862012
      0.69000000	      0.00163318	      0.00808251	      0.01827848
      0.70000000	      0.00165852	      0.00814498	      0.01816803
      0.71000000	      0.00166005	      0.00814873	      0.01780372
      0.72000000	      0.00167388	      0.00818260	      0.01777297
      0.73000000	      0.00165823	      0.00814427	      0.01735750
      0.74000000	      0.00165383	      0.00813346	      0.01718597
      0.75000000	      0.00163736	      0.00809285	      0.01719042
      0.76000000	      0.00163107	      0.00807730	      0.01692958
      0.77000000	      0.00160734	      0.00801833	      0.01656888
      0.78000000	      0.00160768	      0.00801919	      0.01649213
      0.79000000	      0.00157462	      0.00793631	      0.01601417
      0.80000000	      0.00156374	      0.00790883	      0.01549578
      0.81000000	      0.00154951	      0.00787277	      0.01517310
      0.82000000	      0.00155374	      0.00788351	      0.01487396
      0.83000000	      0.00155655	      0.00789063	      0.01499153
      0.84000000	      0.00154970	      0.00787323	      0.01522061
      0.85000000	      0.00155647	      0.00789043	      0.01553135
      0.86000000	      0.00156199	      0.00790441	      0.01591024
      0.87000000	      0.00155234	      0.00787995	      0.01600928
      0.88000000	      0.00151580	      0.00778664	      0.01604126
      0.89000000	      0.00149319	      0.00772837	      0.01588377
      0.90000000	      0.00146035	      0.00764291	      0.01552632
      0.91000000	      0.00144537	      0.00760362	      0.01511137
      0.92000000	      0.00143799	      0.00758417	      0.01465595
      0.93000000	      0.00145819	      0.00763724	      0.01436467
      0.94000000	      0.00150451	      0.00775760	      0.01435095
      0.95000000	      0.00156230	      0.00790518	      0.01445421
      0.96000000	      0.00163383	      0.00808414	      0.01522928
      0.97000000	      0.00170072	      0.00824796	      0.01583582
      0.98000000	      0.00174813	      0.00836213	      0.01629438
      0.99000000	      0.00177272	      0.00842074	      0.01683458
      1.00000000	      0.00177503	      0.00842622	      0.01787307
      1.01000000	      0.00170736	      0.00826405	      0.01662917
      1.02000000	      0.00165219	      0.00812942	      0.01720870
      1.03000000	      0.00158505	      0.00796254	      0.01739287
      1.04000000	      0.00151988	      0.00779711	      0.01735606
      1.05000000	      0.00145724	      0.00763477	      0.01695395
      1.06000000	      0.00141739	      0.00752964	      0.01726892
      1.07000000	      0.00137467	      0.00741531	      0.01712791
      1.08000000	      0.00136135	      0.00737930	      0.01726755
      1.09000000	      0.00136062	      0.00737733	      0.01729632
      1.10000000	      0.00135132	      0.00735207	      0.01694632
      1.11000000	      0.00137611	      0.00741918	      0.01695748
      1.12000000	      0.00140092	      0.00748576	      0.01680205
      1.13000000	      0.00144920	      0.00761366	      0.01669018
      1.14000000	      0.00149605	      0.00773575	      0.01658227
      1.15000000	      0.00155493	      0.00788651	      0.01630996
      1.16000000	      0.00160925	      0.00802308	      0.01600381
      1.17000000	      0.00166687	      0.00816546	      0.01581182
      1.18000000	      0.00169178	      0.00822625	      0.01635924
      1.19000000	      0.00171475	      0.00828192	      0.01707388
      1.20000000	      0.00170665	      0.00826232	      0.01758477
      1.21000000	      0.00169035	      0.00822278	      0.01796432
      1.22000000	      0.00166399	      0.00815841	      0.01808659
      1.23000000	      0.00161954	      0.00804869	      0.01825011
      1.24000000	      0.00157646	      0.00794094	      0.01817887
      1.25000000	      0.00153495	      0.00783569	      0.01811190
      1.26000000	      0.00150549	      0.00776013	      0.01808643
      1.27000000	      0.00148113	      0.00769708	      0.01802270
      1.28000000	      0.00146370	      0.00765166	      0.01791482
      1.29000000	      0.00147025	      0.00766876	      0.01791963
      1.30000000	      0.00148588	      0.00770942	      0.01790821
      1.31000000	      0.00152055	      0.00779886	      0.01800680
      1.32000000	      0.00156451	      0.00791078	      0.01809413
      1.33000000	      0.00162289	      0.00805703	      0.01820912
      1.34000000	      0.00169392	      0.00823144	      0.01845318
      1.35000000	      0.00177556	      0.00842747	      0.01862433
      1.36000000	      0.00186630	      0.00864015	      0.01882849
      1.37000000	      0.00195340	      0.00883946	      0.01894614
      1.38000000	      0.00207439	      0.00910910	      0.01908768
      1.39000000	      0.00219779	      0.00937612	      0.01923163
      1.40000000	      0.00231827	      0.00962968	      0.01926341
      1.41000000	      0.00245697	      0.00991357	      0.01950915
      1.42000000	      0.00262377	      0.01024455	      0.02017319
      1.43000000	      0.00278107	      0.01054717	      0.02065636
      1.44000000	      0.00292136	      0.01080991	      0.02135913
      1.45000000	      0.00305389	      0.01105241	      0.02191126
      1.46000000	      0.00313278	      0.01119426	      0.02204203
      1.47000000	      0.00318362	      0.01128472	      0.02241613
      1.48000000	      0.00318932	      0.01129482	      0.02235887
      1.49000000	      0.00315682	      0.01123712	      0.02255674
      1.50000000	      0.00303308	      0.01101467	      0.02180668
      1.51000000	      0.00291864	      0.01080490	      0.02156193
      1.52000000	      0.00279018	      0.01056443	      0.02134652
      1.53000000	      0.00264959	      0.01029483	      0.02098328
      1.54000000	      0.00249993	      0.00999987	      0.02033336
      1.55000000	      0.00236430	      0.00972481	      0.01990103
      1.56000000	      0.00223159	      0.00944794	      0.01925168
      1.57000000	      0.00211445	      0.00919663	      0.01875455
      1.58000000	      0.00201536	      0.00897856	      0.01840548
      1.59000000	      0.00189899	      0.00871548	      0.01745008
      1.60000000	      0.00181964	      0.00853144	      0.01709501
      1.61000000	      0.00175008	      0.00836679	      0.01676407
      1.62000000	      0.00168956	      0.00822086	      0.01645182
      1.63000000	      0.00165769	      0.00814294	      0.01620831
      1.64000000	      0.00162671	      0.00806649	      0.01608857
      1.65000000	      0.00161725	      0.00804301	      0.01583133
      1.66000000	      0.00164270	      0.00810605	      0.01577812
      1.67000000	      0.00162666	      0.00806639	      0.01560187
      1.68000000	      0.00165113	      0.00812682	      0.01544709
      1.69000000	      0.00164914	      0.00812192	      0.01522562
      1.70000000	      0.00165444	      0.00813497	      0.01515403
      1.71000000	      0.00165020	      0.00812453	      0.01494850
      1.72000000	      0.00163656	      0.00809087	      0.01501637
      1.73000000	      0.00161015	      0.00802532	      0.01554847
      1.74000000	      0.00159130	      0.00797822	      0.01539929
      1.75000000	      0.00156693	      0.00791688	      0.01497129
      1.76000000	      0.00156700	      0.00791706	      0.01506672
      1.77000000	      0.00152378	      0.00780712	      0.01496472
      1.78000000	      0.00152694	      0.00781521	      0.01506949
      1.79000000	      0.00146739	      0.00766132	      0.01511302
      1.80000000	      0.00145556	      0.00763037	      0.01477712
      1.81000000	      0.00145443	      0.00762739	      0.01442481
      1.82000000	      0.00143238	      0.00756935	      0.01438285
      1.83000000	      0.00143196	      0.00756824	      0.01403549
      1.84000000	      0.00142490	      0.00754957	      0.01368139
      1.85000000	      0.00142862	      0.00755941	      0.01331738
      1.86000000	      0.00143063	      0.00756474	      0.01368225
      1.87000000	      0.00143872	      0.00758610	      0.01449192
      1.88000000	      0.00145809	      0.00763699	      0.01594294
      1.89000000	      0.00149504	      0.00773314	      0.01679666
      1.90000000	      0.00152240	      0.00780360	      0.01600849
      1.91000000	      0.00157676	      0.00794170	      0.01637057
      1.92000000	      0.00164515	      0.00811208	      0.01743103
      1.93000000	      0.00171429	      0.00828081	      0.01705229
      1.94000000	      0.00177848	      0.00843440	      0.01785716
      1.95000000	      0.00182862	      0.00855247	      0.01836582
      1.96000000	      0.00183612	      0.00857000	      0.01745840
      1.97000000	      0.00182695	      0.00854857	      0.01779225
      1.98000000	      0.00179478	      0.00847298	      0.01756329
      1.99000000	      0.00173694	      0.00833532	      0.01790182
      2.00000000	      0.00167478	      0.00818481	      0.01754101
      2.01000000	      0.00160700	      0.00801747	      0.01738059
      2.02000000	      0.00154330	      0.00785698	      0.01705617
      2.03000000	      0.00148835	      0.00771583	      0.01683979
      2.04000000	      0.00144848	      0.00761178	      0.01626060
      2.05000000	      0.00142106	      0.00753940	      0.01578554
      2.06000000	      0.00138917	      0.00745431	      0.01595222
      2.07000000	      0.00138756	      0.00744999	      0.01491190
      2.08000000	      0.00138950	      0.00745520	      0.01479052
      2.09000000	      0.00140665	      0.00750107	      0.01492234
      2.10000000	      0.00144301	      0.00759741	      0.01492565
      2.11000000	      0.00148314	      0.00770230	      0.01498115
      2.12000000	      0.00153760	      0.00784246	      0.01492652
      2.13000000	      0.00159272	      0.00798179	      0.01513468
      2.14000000	      0.00165811	      0.00814399	      0.01558323
      2.15000000	      0.00172466	      0.00830580	      0.01570166
      2.16000000	      0.00175371	      0.00837546	      0.01624649
      2.17000000	      0.00178318	      0.00844553	      0.01703907
      2.18000000	      0.00178494	      0.00844971	      0.01763436
      2.19000000	      0.00177927	      0.00843628	      0.01800144
      2.20000000	      0.00175621	      0.00838144	      0.01839576
      2.21000000	      0.00171992	      0.00829439	      0.01845342
      2.22000000	      0.00168350	      0.00820609	      0.01860979
      2.23000000	      0.00164813	      0.00811943	      0.01848764
      2.24000000	      0.00162450	      0.00806101	      0.01857489
      2.25000000	      0.00160357	      0.00800892	      0.01859839
      2.26000000	      0.00158935	      0.00797334	      0.01843150
      2.27000000	      0.00159603	      0.00799007	      0.01850947
      2.28000000	      0.00161261	      0.00803145	      0.01845484
      2.29000000	      0.00164523	      0.00811228	      0.01847307
      2.30000000	      0.00168934	      0.00822032	      0.01862864
      2.31000000	      0.00174864	      0.00836335	      0.01868402
      2.32000000	      0.00179446	      0.00847222	      0.01855854
      2.33000000	      0.00184209	      0.00858391	      0.01850420
      2.34000000	      0.00189865	      0.00871471	      0.01844684
      2.35000000	      0.00196783	      0.00887204	      0.01842226
      2.36000000	      0.00202908	      0.00900906	      0.01828246
      2.37000000	      0.00209562	      0.00915558	      0.01856343
      2.38000000	      0.00215627	      0.00928713	      0.01896556
      2.39000000	      0.00223323	      0.00945140	      0.01956851
      2.40000000	      0.00232195	      0.00963732	      0.02009242
      2.41000000	      0.00241194	      0.00982230	      0.02065280
      2.42000000	      0.00248198	      0.00996390	      0.02122392
      2.43000000	      0.00254535	      0.01009030	      0.02159058
      2.44000000	      0.00257852	      0.01015583	      0.02200524
      2.45000000	      0.00256004	      0.01011936	      0.02187280
      2.46000000	      0.00250601	      0.01001201	      0.02187665
      2.47000000	      0.00241695	      0.00983249	      0.02172534
      2.48000000	      0.00230390	      0.00959979	      0.02139686
      2.49000000	      0.00217891	      0.00933575	      0.02103431
      2.50000000	      0.00205354	      0.00906320	      0.02054250
      2.51000000	      0.00193631	      0.00880071	      0.02001565
      2.52000000	      0.00183285	      0.00856237	      0.01951053
      2.53000000	      0.00174268	      0.00834909	      0.01897309
      2.54000000	      0.00166891	      0.00817046	      0.01844846
      2.55000000	      0.00160151	      0.00800377	      0.01782691
      2.56000000	      0.00152897	      0.00782041	      0.01704328
      2.57000000	      0.00149506	      0.00773321	      0.01672783
      2.58000000	      0.00147767	      0.00768809	      0.01627925
      2.59000000	      0.00146697	      0.00766022	      0.01592263
      2.60000000	      0.00148160	      0.00769831	      0.01567690
      2.61000000	      0.00150274	      0.00775303	      0.01552419
      2.62000000	      0.00154476	      0.00786068	      0.01525022
      2.63000000	      0.00158768	      0.00796915	      0.01511308
      2.64000000	      0.00161054	      0.00802630	      0.01500809
      2.65000000	      0.00161258	      0.00803139	      0.01527350
      2.66000000	      0.00162032	      0.00805065	      0.01510665
      2.67000000	      0.00161659	      0.00804138	      0.01514082
      2.68000000	      0.00160113	      0.00800282	      0.01536578
      2.69000000	      0.00157261	      0.00793123	      0.01538478
      2.70000000	      0.00154647	      0.00786503	      0.01529678
      2.71000000	      0.00152360	      0.00780667	      0.01513735
      2.72000000	      0.00149059	      0.00772163	      0.01528639
      2.73000000	      0.00146912	      0.00766582	      0.01513270
      2.74000000	      0.00144945	      0.00761433	      0.01501722
      2.75000000	      0.00144008	      0.00758968	      0.01468576
      2.76000000	      0.00143339	      0.00757202	      0.01450757
      2.77000000	      0.00143532	      0.00757713	      0.01418189
      2.78000000	      0.00142604	      0.00755259	      0.01410533
      2.79000000	      0.00143085	      0.00756532	      0.01424730
      2.80000000	      0.00143936	      0.00758777	      0.01445074
      2.81000000	      0.00142538	      0.00755085	      0.01449275
      2.82000000	      0.00142634	      0.00755338	      0.01459342
      2.83000000	      0.00142699	      0.00755511	      0.01456711
      2.84000000	      0.00142625	      0.00755313	      0.01438752
      2.85000000	      0.00143596	      0.00757882	      0.01431072
      2.86000000	      0.00146795	      0.00766278	      0.01427972
      2.87000000	      0.00151459	      0.00778355	      0.01435237
      2.88000000	      0.00157775	      0.00794417	      0.01466378
      2.89000000	      0.00165114	      0.00812684	      0.01511059
      2.90000000	      0.00171920	      0.00829264	      0.01542052
      2.91000000	      0.00177499	      0.00842613	      0.01582110
      2.92000000	      0.00180214	      0.00849033	      0.01601536
      2.93000000	      0.00179711	      0.00847846	      0.01606571
      2.94000000	      0.00176222	      0.00839577	      0.01583782
      2.95000000	      0.00170292	      0.00825329	      0.01531416
      2.96000000	      0.00162651	      0.00806599	      0.01541359
      2.97000000	      0.00154352	      0.00785753	      0.01557993
      2.98000000	      0.00145685	      0.00763374	      0.01489232
      2.99000000	      0.00138278	      0.00743716	      0.01499607
      3.00000000	      0.00132843	      0.00728953	      0.01507531
      3.01000000	      0.00127089	      0.00712991	      0.01472767
      3.02000000	      0.00124861	      0.00706713	      0.01485145
      3.03000000	      0.00122658	      0.00700451	      0.01456801
      3.04000000	      0.00122393	      0.00699693	      0.01437156
      3.05000000	      0.00122949	      0.00701282	      0.01419493
      3.06000000	      0.00125989	      0.00709897	      0.01405833
      3.07000000	      0.00129894	      0.00720816	      0.01384373
      3.08000000	      0.00135232	      0.00735479	      0.01368233
      3.09000000	      0.00142314	      0.00754492	      0.01383389
      3.10000000	      0.00150528	      0.00775959	      0.01411779
      3.11000000	      0.00159818	      0.00799546	      0.01504243
      3.12000000	      0.00167559	      0.00818680	      0.01655216
      3.13000000	      0.00175138	      0.00836991	      0.01742757
      3.14000000	      0.00179448	      0.00847226	      0.01829681
      3.15000000	      0.00182323	      0.00853987	      0.01885779
      3.16000000	      0.00183118	      0.00855846	      0.01911965
      3.17000000	      0.00181807	      0.00852776	      0.01921945
      3.18000000	      0.00179571	      0.00847516	      0.01917076
      3.19000000	      0.00176508	      0.00840258	      0.01902435
      3.20000000	      0.00172564	      0.00830817	      0.01869634
      3.21000000	      0.00171022	      0.00827096	      0.01858991
      3.22000000	      0.00168696	      0.00821453	      0.01839856
      3.23000000	      0.00167084	      0.00817517	      0.01807563
      3.24000000	      0.00168263	      0.00820397	      0.01801498
      3.25000000	      0.00171104	      0.00827294	      0.01793583
      3.26000000	      0.00174819	      0.00836227	      0.01773023
      3.27000000	      0.00181976	      0.00853172	      0.01788854
      3.28000000	      0.00185240	      0.00860790	      0.01850796
      3.29000000	      0.00191846	      0.00876003	      0.01900222
      3.30000000	      0.00199590	      0.00893511	      0.01956670
      3.31000000	      0.00204518	      0.00904474	      0.01991420
      3.32000000	      0.00210069	      0.00916666	      0.02039298
      3.33000000	      0.00215243	      0.00927887	      0.02086906
      3.34000000	      0.00222062	      0.00942469	      0.02168877
      3.35000000	      0.00227050	      0.00952994	      0.02179101
      3.36000000	      0.00231605	      0.00962507	      0.02247087
      3.37000000	      0.00238602	      0.00976937	      0.02285006
      3.38000000	      0.00244422	      0.00988781	      0.02302483
      3.39000000	      0.00249327	      0.00998653	      0.02339415
      3.40000000	      0.00251750	      0.01003493	      0.02345849
      3.41000000	      0.00251196	      0.01002390	      0.02365671
      3.42000000	      0.00246546	      0.00993068	      0.02320330
      3.43000000	      0.00239313	      0.00978392	      0.02294736
      3.44000000	      0.00229868	      0.00958890	      0.02271302
      3.45000000	      0.00219973	      0.00938026	      0.02222523
      3.46000000	      0.00210277	      0.00917119	      0.02186257
      3.47000000	      0.00199985	      0.00894394	      0.02125631
