Model Marker Errors from IK
version=1
nRows=171
nColumns=4
inDegrees=no
endheader
time	total_squared_error	marker_error_RMS	marker_error_max
      0.19000000	      0.00184242	      0.00858469	      0.01823290
      0.20000000	      0.00189233	      0.00870019	      0.01783464
      0.21000000	      0.00202644	      0.00900321	      0.01789657
      0.22000000	      0.00220477	      0.00939100	      0.01814959
      0.23000000	      0.00240128	      0.00980058	      0.01805922
      0.24000000	      0.00260227	      0.01020248	      0.01840674
      0.25000000	      0.00281911	      0.01061905	      0.01838496
      0.26000000	      0.00301758	      0.01098650	      0.02007365
      0.27000000	      0.00323019	      0.01136696	      0.02176292
      0.28000000	      0.00341389	      0.01168570	      0.02322285
      0.29000000	      0.00357245	      0.01195400	      0.02437281
      0.30000000	      0.00369205	      0.01215245	      0.02551356
      0.31000000	      0.00377866	      0.01229417	      0.02601350
      0.32000000	      0.00382670	      0.01237207	      0.02664821
      0.33000000	      0.00383866	      0.01239139	      0.02721444
      0.34000000	      0.00383301	      0.01238226	      0.02816390
      0.35000000	      0.00381348	      0.01235067	      0.02839216
      0.36000000	      0.00378555	      0.01230536	      0.02902244
      0.37000000	      0.00377629	      0.01229030	      0.02955349
      0.38000000	      0.00377639	      0.01229047	      0.03005691
      0.39000000	      0.00372423	      0.01220529	      0.03045830
      0.40000000	      0.00372255	      0.01220254	      0.03080843
      0.41000000	      0.00367290	      0.01212089	      0.03107370
      0.42000000	      0.00364069	      0.01206763	      0.03114443
      0.43000000	      0.00355408	      0.01192321	      0.03103759
      0.44000000	      0.00347087	      0.01178282	      0.03069771
      0.45000000	      0.00339699	      0.01165674	      0.03009639
      0.46000000	      0.00327536	      0.01144616	      0.02935891
      0.47000000	      0.00317428	      0.01126815	      0.02830576
      0.48000000	      0.00305744	      0.01105883	      0.02703198
      0.49000000	      0.00294020	      0.01084472	      0.02554961
      0.50000000	      0.00282615	      0.01063231	      0.02395303
      0.51000000	      0.00273775	      0.01046470	      0.02240447
      0.52000000	      0.00264336	      0.01028272	      0.02061132
      0.53000000	      0.00260278	      0.01020348	      0.01983422
      0.54000000	      0.00261001	      0.01021765	      0.02060596
      0.55000000	      0.00269842	      0.01038926	      0.02125578
      0.56000000	      0.00274458	      0.01047774	      0.02190229
      0.57000000	      0.00282932	      0.01063827	      0.02242714
      0.58000000	      0.00288980	      0.01075138	      0.02281426
      0.59000000	      0.00291784	      0.01080340	      0.02307311
      0.60000000	      0.00291548	      0.01079903	      0.02326644
      0.61000000	      0.00285191	      0.01068066	      0.02304035
      0.62000000	      0.00283578	      0.01065041	      0.02298305
      0.63000000	      0.00283526	      0.01064943	      0.02281957
      0.64000000	      0.00284957	      0.01067628	      0.02275671
      0.65000000	      0.00286879	      0.01071222	      0.02257171
      0.66000000	      0.00288797	      0.01074796	      0.02234592
      0.67000000	      0.00292348	      0.01081384	      0.02215720
      0.68000000	      0.00298470	      0.01092648	      0.02215106
      0.69000000	      0.00305548	      0.01105528	      0.02229650
      0.70000000	      0.00312444	      0.01117934	      0.02223646
      0.71000000	      0.00320578	      0.01132392	      0.02218388
      0.72000000	      0.00326266	      0.01142395	      0.02195472
      0.73000000	      0.00330533	      0.01149840	      0.02164849
      0.74000000	      0.00333043	      0.01154197	      0.02170114
      0.75000000	      0.00335553	      0.01158539	      0.02211750
      0.76000000	      0.00337931	      0.01162636	      0.02257313
      0.77000000	      0.00340705	      0.01167399	      0.02308668
      0.78000000	      0.00345470	      0.01175534	      0.02378524
      0.79000000	      0.00350690	      0.01184381	      0.02524563
      0.80000000	      0.00355681	      0.01192780	      0.02694598
      0.81000000	      0.00358108	      0.01196842	      0.02845424
      0.82000000	      0.00361332	      0.01202218	      0.02995302
      0.83000000	      0.00359293	      0.01198821	      0.03096378
      0.84000000	      0.00355214	      0.01191996	      0.03160156
      0.85000000	      0.00351072	      0.01185026	      0.03224094
      0.86000000	      0.00339175	      0.01164775	      0.03171409
      0.87000000	      0.00327394	      0.01144366	      0.03116684
      0.88000000	      0.00316980	      0.01126019	      0.03079412
      0.89000000	      0.00300996	      0.01097261	      0.02958644
      0.90000000	      0.00288621	      0.01074470	      0.02894423
      0.91000000	      0.00268785	      0.01036890	      0.02712032
      0.92000000	      0.00252901	      0.01005786	      0.02614262
      0.93000000	      0.00228752	      0.00956561	      0.02337682
      0.94000000	      0.00211637	      0.00920080	      0.02200727
      0.95000000	      0.00185487	      0.00861365	      0.01845093
      0.96000000	      0.00168384	      0.00820693	      0.01734672
      0.97000000	      0.00156757	      0.00791850	      0.01637784
      0.98000000	      0.00151425	      0.00778266	      0.01704668
      0.99000000	      0.00151428	      0.00778274	      0.01882524
      1.00000000	      0.00151580	      0.00778665	      0.01957989
      1.01000000	      0.00151446	      0.00778320	      0.01923473
      1.02000000	      0.00152030	      0.00779820	      0.01800516
      1.03000000	      0.00156259	      0.00790591	      0.01615636
      1.04000000	      0.00167327	      0.00818114	      0.01654511
      1.05000000	      0.00182333	      0.00854009	      0.01676718
      1.06000000	      0.00204402	      0.00904217	      0.01768887
      1.07000000	      0.00226808	      0.00952488	      0.01829338
      1.08000000	      0.00248625	      0.00997247	      0.01875866
      1.09000000	      0.00267465	      0.01034341	      0.01870822
      1.10000000	      0.00284622	      0.01066999	      0.01851958
      1.11000000	      0.00300589	      0.01096520	      0.01992485
      1.12000000	      0.00317029	      0.01126106	      0.02136603
      1.13000000	      0.00331623	      0.01151734	      0.02271187
      1.14000000	      0.00344864	      0.01174502	      0.02377365
      1.15000000	      0.00355886	      0.01193124	      0.02471134
      1.16000000	      0.00364655	      0.01207733	      0.02552212
      1.17000000	      0.00371011	      0.01218214	      0.02629143
      1.18000000	      0.00374353	      0.01223689	      0.02705015
      1.19000000	      0.00375809	      0.01226065	      0.02779759
      1.20000000	      0.00375787	      0.01226030	      0.02865370
      1.21000000	      0.00375254	      0.01225159	      0.02927394
      1.22000000	      0.00373203	      0.01221806	      0.02979549
      1.23000000	      0.00374095	      0.01223266	      0.03023830
      1.24000000	      0.00373011	      0.01221492	      0.03073271
      1.25000000	      0.00366495	      0.01210776	      0.03105795
      1.26000000	      0.00363971	      0.01206601	      0.03123444
      1.27000000	      0.00360452	      0.01200754	      0.03130429
      1.28000000	      0.00356482	      0.01194123	      0.03120773
      1.29000000	      0.00351506	      0.01185759	      0.03090859
      1.30000000	      0.00345719	      0.01175958	      0.03041426
      1.31000000	      0.00340833	      0.01167618	      0.02960883
      1.32000000	      0.00334010	      0.01155873	      0.02862967
      1.33000000	      0.00319994	      0.01131361	      0.02741462
      1.34000000	      0.00307222	      0.01108552	      0.02597968
      1.35000000	      0.00292923	      0.01082448	      0.02440192
      1.36000000	      0.00283668	      0.01065210	      0.02293821
      1.37000000	      0.00269682	      0.01038618	      0.02108016
      1.38000000	      0.00266617	      0.01032700	      0.02007418
      1.39000000	      0.00261198	      0.01022151	      0.02101365
      1.40000000	      0.00263899	      0.01027422	      0.02151972
      1.41000000	      0.00268094	      0.01035556	      0.02199003
      1.42000000	      0.00269325	      0.01037930	      0.02226547
      1.43000000	      0.00260207	      0.01020210	      0.02255534
      1.44000000	      0.00257330	      0.01014555	      0.02256699
      1.45000000	      0.00255836	      0.01011605	      0.02255833
      1.46000000	      0.00252842	      0.01005669	      0.02245647
      1.47000000	      0.00256247	      0.01012417	      0.02240127
      1.48000000	      0.00259490	      0.01018804	      0.02218124
      1.49000000	      0.00265392	      0.01030325	      0.02207927
      1.50000000	      0.00272254	      0.01043559	      0.02185484
      1.51000000	      0.00279872	      0.01058058	      0.02183037
      1.52000000	      0.00290591	      0.01078130	      0.02181973
      1.53000000	      0.00302989	      0.01100889	      0.02189687
      1.54000000	      0.00317084	      0.01126204	      0.02201149
      1.55000000	      0.00331224	      0.01151041	      0.02211010
      1.56000000	      0.00344168	      0.01173317	      0.02209094
      1.57000000	      0.00354690	      0.01191118	      0.02210494
      1.58000000	      0.00362463	      0.01204098	      0.02230313
      1.59000000	      0.00369025	      0.01214949	      0.02272998
      1.60000000	      0.00372816	      0.01221174	      0.02362063
      1.61000000	      0.00377056	      0.01228097	      0.02478272
      1.62000000	      0.00380050	      0.01232963	      0.02606493
      1.63000000	      0.00388096	      0.01245947	      0.02768911
      1.64000000	      0.00388334	      0.01246330	      0.02933278
      1.65000000	      0.00392251	      0.01252599	      0.03096406
      1.66000000	      0.00393096	      0.01253947	      0.03213240
      1.67000000	      0.00391496	      0.01251393	      0.03302747
      1.68000000	      0.00388683	      0.01246889	      0.03368834
      1.69000000	      0.00377522	      0.01228857	      0.03335201
      1.70000000	      0.00365767	      0.01209574	      0.03288699
      1.71000000	      0.00354041	      0.01190027	      0.03229130
      1.72000000	      0.00338795	      0.01164122	      0.03122842
      1.73000000	      0.00324388	      0.01139102	      0.03026895
      1.74000000	      0.00312170	      0.01117444	      0.02955495
      1.75000000	      0.00295656	      0.01087485	      0.02830659
      1.76000000	      0.00279885	      0.01058083	      0.02730171
      1.77000000	      0.00261090	      0.01021939	      0.02572785
      1.78000000	      0.00241135	      0.00982111	      0.02380263
      1.79000000	      0.00221045	      0.00940309	      0.02138893
      1.80000000	      0.00206043	      0.00907840	      0.01970260
      1.81000000	      0.00189682	      0.00871051	      0.01826626
      1.82000000	      0.00183951	      0.00857791	      0.01766835
      1.83000000	      0.00178360	      0.00844655	      0.01728219
      1.84000000	      0.00178106	      0.00844052	      0.01864018
      1.85000000	      0.00178091	      0.00844017	      0.01916814
      1.86000000	      0.00176710	      0.00840738	      0.01860491
      1.87000000	      0.00176040	      0.00839143	      0.01730117
      1.88000000	      0.00178941	      0.00846029	      0.01681139
      1.89000000	      0.00186998	      0.00864865	      0.01701700
