Model Marker Errors from IK
version=1
nRows=221
nColumns=4
inDegrees=no
endheader
time	total_squared_error	marker_error_RMS	marker_error_max
      0.00000000	      0.00094217	      0.00613897	      0.01458176
      0.01000000	      0.00097558	      0.00624685	      0.01487838
      0.02000000	      0.00103832	      0.00644461	      0.01460615
      0.03000000	      0.00108787	      0.00659657	      0.01445059
      0.04000000	      0.00112862	      0.00671898	      0.01365721
      0.05000000	      0.00114674	      0.00677272	      0.01388412
      0.06000000	      0.00114109	      0.00675602	      0.01410849
      0.07000000	      0.00113300	      0.00673202	      0.01443950
      0.08000000	      0.00111873	      0.00668948	      0.01469727
      0.09000000	      0.00111123	      0.00666703	      0.01489260
      0.10000000	      0.00107875	      0.00656887	      0.01513995
      0.11000000	      0.00106331	      0.00652169	      0.01523177
      0.12000000	      0.00102926	      0.00641641	      0.01514334
      0.13000000	      0.00099948	      0.00632292	      0.01499174
      0.14000000	      0.00095954	      0.00619528	      0.01481118
      0.15000000	      0.00091529	      0.00605074	      0.01446194
      0.16000000	      0.00089292	      0.00597636	      0.01428329
      0.17000000	      0.00087387	      0.00591224	      0.01392355
      0.18000000	      0.00088845	      0.00596137	      0.01366018
      0.19000000	      0.00092649	      0.00608764	      0.01358734
      0.20000000	      0.00096502	      0.00621297	      0.01342275
      0.21000000	      0.00101188	      0.00636201	      0.01334719
      0.22000000	      0.00104955	      0.00647934	      0.01337707
      0.23000000	      0.00105972	      0.00651066	      0.01323253
      0.24000000	      0.00105278	      0.00648932	      0.01321314
      0.25000000	      0.00102605	      0.00640639	      0.01307222
      0.26000000	      0.00098104	      0.00626433	      0.01282086
      0.27000000	      0.00092922	      0.00609663	      0.01247904
      0.28000000	      0.00086792	      0.00589210	      0.01205381
      0.29000000	      0.00080793	      0.00568481	      0.01169653
      0.30000000	      0.00071952	      0.00536478	      0.01093609
      0.31000000	      0.00064349	      0.00507343	      0.01029787
      0.32000000	      0.00057397	      0.00479152	      0.00965011
      0.33000000	      0.00052229	      0.00457072	      0.00912227
      0.34000000	      0.00048650	      0.00441134	      0.00837948
      0.35000000	      0.00047589	      0.00436297	      0.00853703
      0.36000000	      0.00048322	      0.00439647	      0.00947118
      0.37000000	      0.00049370	      0.00444388	      0.01041104
      0.38000000	      0.00051106	      0.00452133	      0.01129474
      0.39000000	      0.00052541	      0.00458438	      0.01227408
      0.40000000	      0.00054676	      0.00467659	      0.01323235
      0.41000000	      0.00057351	      0.00478962	      0.01409697
      0.42000000	      0.00059065	      0.00486065	      0.01456187
      0.43000000	      0.00063523	      0.00504076	      0.01581774
      0.44000000	      0.00065916	      0.00513484	      0.01606707
      0.45000000	      0.00069673	      0.00527913	      0.01672586
      0.46000000	      0.00073626	      0.00542683	      0.01714122
      0.47000000	      0.00076584	      0.00553478	      0.01717672
      0.48000000	      0.00078046	      0.00558733	      0.01699490
      0.49000000	      0.00077563	      0.00557001	      0.01643620
      0.50000000	      0.00076013	      0.00551409	      0.01544370
      0.51000000	      0.00073259	      0.00541328	      0.01397856
      0.52000000	      0.00069841	      0.00528550	      0.01220001
      0.53000000	      0.00066917	      0.00517365	      0.01050601
      0.54000000	      0.00063199	      0.00502790	      0.01049058
      0.55000000	      0.00062288	      0.00499152	      0.01096954
      0.56000000	      0.00063646	      0.00504564	      0.01132474
      0.57000000	      0.00068348	      0.00522870	      0.01175904
      0.58000000	      0.00075251	      0.00548640	      0.01208394
      0.59000000	      0.00082317	      0.00573819	      0.01258880
      0.60000000	      0.00088047	      0.00593454	      0.01306382
      0.61000000	      0.00092547	      0.00608432	      0.01355120
      0.62000000	      0.00092677	      0.00608859	      0.01385226
      0.63000000	      0.00092265	      0.00607504	      0.01396682
      0.64000000	      0.00090584	      0.00601944	      0.01454497
      0.65000000	      0.00089278	      0.00597590	      0.01463728
      0.66000000	      0.00088940	      0.00596458	      0.01465667
      0.67000000	      0.00088323	      0.00594385	      0.01458013
      0.68000000	      0.00089168	      0.00597219	      0.01421457
      0.69000000	      0.00089789	      0.00599296	      0.01384739
      0.70000000	      0.00088209	      0.00593999	      0.01339964
      0.71000000	      0.00086988	      0.00589875	      0.01282062
      0.72000000	      0.00085135	      0.00583557	      0.01226162
      0.73000000	      0.00082504	      0.00574469	      0.01178871
      0.74000000	      0.00080479	      0.00567378	      0.01142352
      0.75000000	      0.00077504	      0.00556790	      0.01103008
      0.76000000	      0.00075736	      0.00550405	      0.01070673
      0.77000000	      0.00075109	      0.00548119	      0.01052413
      0.78000000	      0.00074807	      0.00547018	      0.01029508
      0.79000000	      0.00074714	      0.00546677	      0.01015510
      0.80000000	      0.00073703	      0.00542965	      0.00983678
      0.81000000	      0.00071741	      0.00535690	      0.00953349
      0.82000000	      0.00068619	      0.00523906	      0.00921314
      0.83000000	      0.00065222	      0.00510772	      0.00870768
      0.84000000	      0.00061873	      0.00497486	      0.00871905
      0.85000000	      0.00058771	      0.00484853	      0.00873389
      0.86000000	      0.00056265	      0.00474405	      0.00876153
      0.87000000	      0.00054615	      0.00467395	      0.00895152
      0.88000000	      0.00053040	      0.00460607	      0.00875214
      0.89000000	      0.00052145	      0.00456704	      0.00844055
      0.90000000	      0.00051420	      0.00453518	      0.00919278
      0.91000000	      0.00050380	      0.00448909	      0.00983466
      0.92000000	      0.00049348	      0.00444290	      0.01049340
      0.93000000	      0.00048348	      0.00439763	      0.01107901
      0.94000000	      0.00048233	      0.00439239	      0.01196676
      0.95000000	      0.00047468	      0.00435741	      0.01220724
      0.96000000	      0.00049232	      0.00443765	      0.01319415
      0.97000000	      0.00049241	      0.00443805	      0.01318637
      0.98000000	      0.00050587	      0.00449832	      0.01353121
      0.99000000	      0.00052699	      0.00459124	      0.01403067
      1.00000000	      0.00056251	      0.00474347	      0.01460626
      1.01000000	      0.00060814	      0.00493210	      0.01521827
      1.02000000	      0.00066225	      0.00514686	      0.01584101
      1.03000000	      0.00072741	      0.00539410	      0.01657447
      1.04000000	      0.00077944	      0.00558370	      0.01695869
      1.05000000	      0.00082751	      0.00575330	      0.01721466
      1.06000000	      0.00088088	      0.00593593	      0.01779302
      1.07000000	      0.00086892	      0.00589550	      0.01665756
      1.08000000	      0.00085487	      0.00584764	      0.01565289
      1.09000000	      0.00082277	      0.00573679	      0.01426610
      1.10000000	      0.00078630	      0.00560823	      0.01254867
      1.11000000	      0.00074479	      0.00545817	      0.01172053
      1.12000000	      0.00073030	      0.00540481	      0.01232855
      1.13000000	      0.00074840	      0.00547137	      0.01293730
      1.14000000	      0.00079721	      0.00564698	      0.01353685
      1.15000000	      0.00086894	      0.00589554	      0.01409476
      1.16000000	      0.00093347	      0.00611056	      0.01455137
      1.17000000	      0.00098641	      0.00628144	      0.01501773
      1.18000000	      0.00100916	      0.00635344	      0.01537497
      1.19000000	      0.00101763	      0.00638006	      0.01555030
      1.20000000	      0.00100311	      0.00633438	      0.01598072
      1.21000000	      0.00099265	      0.00630127	      0.01602009
      1.22000000	      0.00096720	      0.00621997	      0.01611046
      1.23000000	      0.00095805	      0.00619046	      0.01590154
      1.24000000	      0.00093782	      0.00612478	      0.01576590
      1.25000000	      0.00092102	      0.00606965	      0.01547247
      1.26000000	      0.00088934	      0.00596437	      0.01509929
      1.27000000	      0.00089062	      0.00596865	      0.01467738
      1.28000000	      0.00090143	      0.00600478	      0.01436043
      1.29000000	      0.00091048	      0.00603484	      0.01406182
      1.30000000	      0.00093838	      0.00612659	      0.01383251
      1.31000000	      0.00097184	      0.00623487	      0.01372236
      1.32000000	      0.00100266	      0.00633297	      0.01369867
      1.33000000	      0.00102413	      0.00640039	      0.01374264
      1.34000000	      0.00103071	      0.00642093	      0.01378620
      1.35000000	      0.00102200	      0.00639375	      0.01383945
      1.36000000	      0.00099567	      0.00631085	      0.01372776
      1.37000000	      0.00095618	      0.00618444	      0.01351333
      1.38000000	      0.00090429	      0.00601430	      0.01326234
      1.39000000	      0.00085077	      0.00583360	      0.01273536
      1.40000000	      0.00079281	      0.00563139	      0.01213814
      1.41000000	      0.00072810	      0.00539666	      0.01151332
      1.42000000	      0.00067028	      0.00517794	      0.01080487
      1.43000000	      0.00061072	      0.00494256	      0.01012156
      1.44000000	      0.00056683	      0.00476164	      0.00950437
      1.45000000	      0.00054242	      0.00465799	      0.00889721
      1.46000000	      0.00053316	      0.00461807	      0.00856467
      1.47000000	      0.00054765	      0.00468037	      0.00968905
      1.48000000	      0.00056610	      0.00475857	      0.01090422
      1.49000000	      0.00057744	      0.00480598	      0.01206896
      1.50000000	      0.00058291	      0.00482869	      0.01287390
      1.51000000	      0.00058480	      0.00483655	      0.01363786
      1.52000000	      0.00057836	      0.00480984	      0.01405490
      1.53000000	      0.00057189	      0.00478284	      0.01449590
      1.54000000	      0.00057312	      0.00478798	      0.01489768
      1.55000000	      0.00057179	      0.00478241	      0.01506378
      1.56000000	      0.00058103	      0.00482092	      0.01523313
      1.57000000	      0.00059068	      0.00486077	      0.01546316
      1.58000000	      0.00061333	      0.00495308	      0.01550807
      1.59000000	      0.00062978	      0.00501910	      0.01531138
      1.60000000	      0.00065037	      0.00510047	      0.01490660
      1.61000000	      0.00066904	      0.00517318	      0.01419976
      1.62000000	      0.00069621	      0.00527718	      0.01364057
      1.63000000	      0.00070990	      0.00532878	      0.01227584
      1.64000000	      0.00070560	      0.00531264	      0.01118730
      1.65000000	      0.00072198	      0.00537394	      0.01214333
      1.66000000	      0.00076051	      0.00551546	      0.01313880
      1.67000000	      0.00080456	      0.00567296	      0.01385841
      1.68000000	      0.00088207	      0.00593994	      0.01462214
      1.69000000	      0.00096052	      0.00619844	      0.01522860
      1.70000000	      0.00103941	      0.00644799	      0.01577660
      1.71000000	      0.00110226	      0.00664005	      0.01608352
      1.72000000	      0.00113467	      0.00673696	      0.01672475
      1.73000000	      0.00114330	      0.00676254	      0.01696472
      1.74000000	      0.00113950	      0.00675128	      0.01696184
      1.75000000	      0.00112348	      0.00670368	      0.01713543
      1.76000000	      0.00110499	      0.00664827	      0.01682931
      1.77000000	      0.00106136	      0.00651570	      0.01678954
      1.78000000	      0.00102631	      0.00640723	      0.01638533
      1.79000000	      0.00098947	      0.00629118	      0.01566759
      1.80000000	      0.00094049	      0.00613349	      0.01510293
      1.81000000	      0.00088864	      0.00596202	      0.01429980
      1.82000000	      0.00084047	      0.00579819	      0.01357407
      1.83000000	      0.00080174	      0.00566300	      0.01286558
      1.84000000	      0.00077208	      0.00555726	      0.01234704
      1.85000000	      0.00074804	      0.00547006	      0.01206246
      1.86000000	      0.00075025	      0.00547815	      0.01181211
      1.87000000	      0.00076619	      0.00553602	      0.01170983
      1.88000000	      0.00079271	      0.00563104	      0.01170811
      1.89000000	      0.00081922	      0.00572439	      0.01173655
      1.90000000	      0.00083333	      0.00577350	      0.01167075
      1.91000000	      0.00082784	      0.00575444	      0.01153012
      1.92000000	      0.00080157	      0.00566241	      0.01135789
      1.93000000	      0.00076155	      0.00551925	      0.01103679
      1.94000000	      0.00072332	      0.00537892	      0.01070951
      1.95000000	      0.00066979	      0.00517607	      0.01018147
      1.96000000	      0.00063362	      0.00503434	      0.00967267
      1.97000000	      0.00061065	      0.00494227	      0.00909089
      1.98000000	      0.00060801	      0.00493157	      0.00916326
      1.99000000	      0.00062718	      0.00500871	      0.00958497
      2.00000000	      0.00065665	      0.00512503	      0.01084682
      2.01000000	      0.00068953	      0.00525178	      0.01179304
      2.02000000	      0.00070642	      0.00531570	      0.01231816
      2.03000000	      0.00069070	      0.00525622	      0.01215318
      2.04000000	      0.00065968	      0.00513686	      0.01255470
      2.05000000	      0.00062860	      0.00501440	      0.01284333
      2.06000000	      0.00061404	      0.00495597	      0.01323161
      2.07000000	      0.00061867	      0.00497462	      0.01380788
      2.08000000	      0.00066080	      0.00514120	      0.01443671
      2.09000000	      0.00071907	      0.00536311	      0.01529381
      2.10000000	      0.00077543	      0.00556932	      0.01610255
      2.11000000	      0.00081731	      0.00571774	      0.01683547
      2.12000000	      0.00084759	      0.00582269	      0.01747109
      2.13000000	      0.00087464	      0.00591486	      0.01795762
      2.14000000	      0.00090542	      0.00601802	      0.01821816
      2.15000000	      0.00093414	      0.00611275	      0.01814834
      2.16000000	      0.00095950	      0.00619515	      0.01794003
      2.17000000	      0.00094776	      0.00615714	      0.01660656
      2.18000000	      0.00092749	      0.00609095	      0.01543281
      2.19000000	      0.00087239	      0.00590725	      0.01314216
      2.20000000	      0.00082820	      0.00575569	      0.01111888
