global_scaled_errors.sto
version=1
nRows=256
nColumns=28
inDegrees=no
endheader
time	R_Asis	L_Asis	R_Psis	L_Psis	Sacral	R_Thigh_Lateral	R_Knee_Lateral	R_Shank_Lateral	R_Ankle_Lateral	R_Heel	R_Toe	L_Thigh_Lateral	L_Knee_Lateral	L_Shank_Lateral	L_Ankle_Lateral	L_Heel	L_Toe	R_Shoulder	L_Shoulder	C7	J_Notch	Thoracic	Sternum	R_Elbow	L_Elbow	R_Wrist	L_Wrist
0.40000000	0.01466350	0.00989546	0.00625553	0.00754544	0.00670133	0.01939896	0.02338610	0.01945845	0.03432556	0.03500057	0.01867307	0.02789104	0.01771650	0.00889155	0.00565443	0.00718932	0.00292916	0.00660815	0.00423994	0.00327497	0.00676395	0.00644134	0.00967901	0.00531496	0.01128772	0.00391229	0.00686794
0.41000000	0.01433277	0.01019517	0.00580418	0.00706194	0.00624779	0.01898554	0.02341972	0.01942589	0.03432693	0.03494091	0.01909801	0.02792736	0.01805828	0.00919750	0.00541707	0.00688663	0.00237134	0.00690158	0.00416508	0.00344536	0.00668299	0.00634085	0.00936133	0.00536313	0.01132007	0.00398822	0.00728419
0.42000000	0.01432189	0.00996271	0.00585034	0.00690622	0.00621478	0.01912650	0.02315442	0.01969905	0.03484589	0.03407798	0.01900402	0.02732119	0.01811958	0.00928941	0.00545514	0.00679208	0.00216494	0.00658322	0.00471925	0.00328241	0.00693117	0.00653632	0.00943959	0.00521410	0.01122450	0.00403215	0.00778130
0.43000000	0.01393629	0.00982086	0.00596729	0.00682132	0.00623977	0.01901179	0.02333619	0.01939269	0.03510746	0.03370532	0.01915026	0.02618716	0.01827988	0.00911514	0.00550449	0.00668012	0.00226300	0.00664801	0.00491321	0.00329660	0.00709374	0.00646203	0.00934028	0.00516486	0.01119592	0.00405862	0.00840882
0.44000000	0.01342238	0.00994109	0.00604227	0.00674826	0.00623355	0.01883146	0.02339398	0.01927818	0.03530089	0.03330368	0.01939601	0.02497612	0.01846148	0.00861385	0.00553829	0.00618380	0.00264368	0.00690585	0.00488229	0.00329770	0.00720222	0.00635585	0.00927797	0.00521106	0.01121260	0.00396576	0.00919412
0.45000000	0.01294406	0.00987713	0.00614114	0.00665089	0.00623840	0.01874900	0.02352440	0.01914682	0.03560636	0.03278685	0.01951012	0.02365215	0.01875510	0.00789782	0.00561155	0.00586378	0.00255465	0.00708253	0.00508065	0.00330304	0.00729597	0.00630671	0.00925601	0.00522974	0.01109461	0.00389939	0.00963411
0.46000000	0.01239816	0.00977998	0.00625816	0.00656569	0.00625894	0.01866152	0.02348273	0.01924070	0.03592736	0.03222028	0.01966810	0.02224571	0.01921265	0.00726503	0.00571661	0.00568587	0.00235576	0.00726565	0.00525232	0.00325290	0.00733513	0.00625295	0.00928744	0.00517132	0.01096839	0.00388359	0.00956104
0.47000000	0.01178345	0.00977066	0.00635469	0.00650666	0.00627313	0.01849746	0.02370114	0.01930301	0.03623255	0.03163268	0.01970366	0.02099371	0.01961410	0.00682627	0.00575891	0.00537165	0.00256984	0.00760048	0.00524494	0.00325536	0.00727796	0.00615734	0.00930668	0.00522242	0.01092268	0.00375094	0.00903352
0.48000000	0.01068851	0.00913830	0.00614326	0.00593612	0.00587316	0.01823883	0.02390307	0.01967227	0.03636282	0.03118265	0.01985797	0.02070092	0.02000287	0.00614291	0.00545211	0.00417339	0.00182854	0.00821853	0.00516877	0.00334794	0.00711142	0.00620568	0.00946565	0.00545857	0.01092331	0.00344922	0.00845165
0.49000000	0.01006616	0.00887284	0.00629620	0.00592887	0.00595371	0.01794741	0.02425379	0.01991123	0.03672225	0.03063699	0.01967735	0.01937849	0.02051880	0.00679192	0.00547408	0.00410832	0.00190036	0.00849839	0.00516716	0.00333208	0.00706981	0.00614861	0.00968480	0.00541617	0.01093620	0.00335459	0.00755257
0.50000000	0.00927398	0.00858192	0.00639865	0.00587880	0.00597806	0.01748263	0.02467661	0.02030822	0.03697861	0.03015191	0.01964118	0.01816521	0.02099132	0.00756846	0.00554878	0.00392128	0.00193927	0.00890154	0.00516567	0.00335014	0.00698196	0.00607945	0.00993711	0.00545679	0.01093480	0.00320810	0.00694377
0.51000000	0.00848491	0.00816744	0.00645977	0.00579245	0.00596342	0.01706534	0.02522379	0.02093102	0.03723294	0.02959450	0.01943671	0.01697841	0.02143235	0.00815213	0.00562540	0.00373486	0.00191671	0.00938865	0.00526152	0.00338862	0.00692170	0.00601708	0.01025717	0.00565376	0.01084058	0.00291958	0.00645049
0.52000000	0.00750566	0.00766785	0.00655868	0.00574841	0.00597678	0.01647611	0.02591509	0.02166060	0.03754321	0.02891691	0.01927534	0.01582333	0.02176270	0.00844203	0.00579018	0.00360330	0.00179467	0.00987441	0.00529055	0.00347999	0.00680197	0.00598423	0.01059398	0.00585095	0.01086525	0.00266706	0.00613472
0.53000000	0.00661028	0.00712070	0.00669104	0.00575882	0.00603565	0.01586551	0.02680749	0.02245825	0.03787490	0.02821426	0.01898949	0.01473047	0.02194617	0.00841918	0.00602960	0.00363620	0.00169369	0.01035618	0.00539309	0.00352462	0.00671578	0.00590286	0.01096943	0.00606532	0.01079998	0.00238758	0.00595065
0.54000000	0.00582446	0.00634584	0.00681590	0.00573828	0.00608037	0.01516897	0.02784476	0.02330890	0.03807238	0.02785847	0.01838408	0.01404645	0.02188956	0.00840764	0.00621186	0.00319896	0.00152765	0.01087829	0.00542799	0.00362069	0.00665176	0.00586125	0.01138260	0.00642165	0.01079612	0.00191171	0.00564233
0.55000000	0.00547976	0.00581223	0.00710419	0.00602149	0.00636052	0.01444652	0.02911880	0.02414216	0.03831600	0.02752075	0.01758620	0.01324684	0.02171317	0.00839270	0.00647770	0.00318539	0.00190340	0.01120377	0.00574769	0.00352806	0.00672457	0.00573286	0.01187889	0.00664738	0.01048797	0.00156619	0.00551958
0.56000000	0.00481259	0.00556764	0.00738416	0.00637180	0.00664226	0.01359721	0.03048533	0.02523509	0.03853625	0.02665471	0.01730904	0.01269049	0.02158805	0.00833198	0.00668135	0.00303901	0.00198821	0.01164523	0.00577331	0.00359860	0.00664387	0.00556889	0.01217013	0.00695872	0.01042112	0.00124171	0.00559018
0.57000000	0.00447260	0.00523690	0.00770166	0.00672096	0.00695124	0.01277537	0.03205098	0.02629787	0.03862352	0.02613376	0.01664744	0.01260561	0.02128009	0.00866225	0.00682589	0.00279038	0.00212080	0.01203911	0.00601195	0.00355699	0.00672500	0.00539888	0.01256665	0.00731975	0.01007708	0.00076536	0.00549266
0.58000000	0.00419465	0.00483227	0.00801622	0.00693640	0.00719878	0.01193696	0.03378887	0.02727021	0.03870999	0.02560630	0.01575331	0.01294158	0.02089962	0.00921147	0.00672575	0.00276483	0.00184915	0.01243992	0.00624133	0.00359523	0.00678085	0.00528491	0.01295712	0.00768871	0.00981627	0.00029242	0.00538518
0.59000000	0.00431441	0.00487206	0.00832730	0.00740915	0.00758106	0.01116447	0.03570305	0.02823451	0.03893290	0.02506851	0.01438523	0.01293773	0.02093459	0.00958845	0.00643955	0.00278146	0.00206742	0.01267316	0.00665308	0.00347919	0.00700557	0.00508957	0.01338383	0.00799622	0.00928877	0.00021058	0.00518213
0.60000000	0.00441556	0.00503703	0.00853378	0.00767017	0.00780876	0.01021511	0.03764246	0.02927452	0.03879859	0.02455858	0.01383855	0.01298739	0.02084128	0.01012348	0.00632448	0.00273144	0.00202396	0.01303342	0.00697131	0.00352283	0.00707167	0.00488095	0.01360271	0.00845152	0.00890756	0.00072275	0.00501074
0.61000000	0.00468462	0.00527365	0.00871273	0.00789396	0.00802374	0.00946973	0.03967711	0.03019168	0.03883742	0.02398474	0.01282688	0.01271830	0.02092691	0.01043266	0.00606853	0.00280178	0.00183637	0.01327225	0.00741730	0.00352317	0.00726946	0.00470547	0.01392862	0.00883099	0.00842713	0.00122292	0.00473382
0.62000000	0.00506588	0.00558300	0.00880710	0.00800946	0.00814651	0.00884362	0.04169051	0.03110619	0.03887975	0.02345890	0.01185193	0.01212782	0.02113089	0.01055081	0.00576532	0.00290725	0.00176111	0.01353277	0.00791327	0.00356290	0.00749629	0.00454293	0.01424009	0.00926525	0.00788464	0.00176186	0.00445733
0.63000000	0.00552563	0.00604253	0.00887589	0.00799628	0.00821178	0.00869987	0.04369909	0.03195402	0.03900557	0.02276892	0.01112461	0.01134327	0.02138232	0.01050523	0.00561151	0.00300001	0.00158275	0.01369518	0.00837236	0.00364792	0.00775049	0.00441215	0.01457821	0.00966107	0.00739636	0.00231190	0.00422882
0.64000000	0.00625471	0.00641488	0.00877152	0.00789704	0.00816127	0.00926854	0.04571875	0.03260645	0.03946061	0.02181001	0.01007698	0.01057897	0.02169960	0.01026336	0.00548400	0.00300237	0.00118928	0.01389270	0.00901173	0.00366100	0.00799867	0.00430642	0.01490251	0.01017715	0.00678507	0.00280598	0.00392539
0.65000000	0.00654929	0.00676714	0.00851197	0.00779729	0.00802936	0.01040636	0.04758827	0.03346378	0.03970260	0.02127578	0.00961042	0.00982014	0.02196648	0.01004116	0.00539466	0.00316892	0.00104810	0.01399052	0.00942841	0.00384914	0.00833316	0.00437050	0.01535898	0.01059162	0.00628847	0.00330923	0.00373988
0.66000000	0.00695793	0.00719657	0.00834818	0.00770708	0.00793118	0.01146936	0.04932767	0.03425873	0.03983932	0.02109003	0.00891698	0.00917327	0.02220019	0.00971496	0.00534608	0.00327626	0.00088698	0.01408730	0.00984281	0.00403010	0.00861535	0.00444002	0.01576909	0.01104922	0.00580032	0.00385438	0.00359010
0.67000000	0.00733683	0.00764941	0.00819252	0.00761327	0.00782778	0.01250865	0.05093473	0.03508268	0.03990077	0.02116165	0.00831156	0.00864438	0.02230132	0.00950936	0.00539921	0.00337831	0.00075603	0.01413075	0.01020106	0.00422340	0.00891032	0.00457188	0.01618915	0.01148754	0.00534505	0.00436522	0.00341099
0.68000000	0.00768600	0.00807005	0.00799572	0.00754878	0.00770809	0.01352971	0.05246311	0.03588100	0.03991740	0.02133487	0.00794620	0.00821825	0.02239735	0.00920326	0.00536282	0.00338411	0.00077502	0.01417438	0.01049246	0.00445490	0.00914259	0.00477556	0.01657266	0.01192212	0.00499585	0.00492022	0.00325664
0.69000000	0.00834752	0.00850530	0.00788388	0.00756214	0.00766440	0.01444833	0.05391542	0.03652664	0.04005567	0.02164503	0.00704505	0.00788896	0.02242978	0.00892943	0.00526612	0.00316290	0.00116807	0.01418484	0.01082722	0.00459278	0.00940639	0.00492091	0.01697879	0.01233160	0.00457022	0.00545292	0.00299007
0.70000000	0.00929483	0.00887893	0.00780104	0.00792508	0.00778945	0.01560977	0.05533862	0.03711666	0.04006736	0.02214074	0.00660224	0.00749005	0.02228346	0.00878395	0.00534913	0.00371894	0.00067942	0.01395466	0.01100742	0.00483368	0.00985286	0.00517432	0.01750966	0.01239972	0.00415109	0.00582443	0.00301549
0.71000000	0.00943980	0.00938106	0.00770517	0.00743603	0.00750464	0.01562818	0.05660102	0.03854402	0.04004147	0.02228559	0.00626810	0.00725251	0.02213796	0.00865797	0.00561502	0.00335389	0.00110774	0.01413793	0.01117602	0.00494859	0.00979318	0.00536365	0.01767705	0.01307519	0.00404229	0.00645850	0.00262267
0.72000000	0.00932882	0.00949075	0.00736887	0.00733671	0.00726441	0.01633870	0.05771524	0.04006768	0.03980494	0.02264170	0.00668285	0.00712006	0.02207621	0.00824977	0.00556879	0.00328985	0.00085464	0.01412862	0.01105077	0.00527266	0.00992492	0.00583437	0.01811909	0.01345323	0.00399280	0.00694366	0.00256138
0.73000000	0.01000225	0.00958293	0.00715509	0.00743410	0.00717861	0.01676129	0.05884231	0.04135052	0.03991612	0.02266393	0.00649176	0.00695611	0.02192449	0.00798754	0.00544175	0.00318372	0.00090619	0.01415922	0.01123225	0.00533514	0.01004571	0.00605361	0.01838610	0.01384313	0.00366914	0.00749265	0.00238425
0.74000000	0.01058620	0.00970300	0.00703517	0.00756663	0.00714853	0.01728619	0.05978535	0.04281058	0.03985392	0.02290079	0.00638406	0.00679638	0.02179975	0.00764381	0.00531710	0.00330330	0.00078090	0.01409279	0.01118610	0.00555750	0.01014998	0.00636454	0.01863283	0.01407181	0.00361554	0.00790203	0.00235683
0.75000000	0.01086221	0.00986180	0.00696566	0.00751808	0.00707277	0.01761294	0.06061551	0.04434185	0.03976560	0.02305734	0.00643304	0.00647478	0.02172264	0.00721693	0.00527154	0.00331189	0.00076038	0.01403662	0.01116374	0.00560802	0.01018681	0.00662042	0.01894373	0.01437742	0.00352825	0.00837059	0.00202756
0.76000000	0.01103418	0.00988459	0.00684471	0.00751367	0.00698689	0.01800122	0.06127460	0.04583053	0.03958574	0.02332271	0.00656221	0.00636325	0.02160365	0.00680387	0.00521243	0.00343703	0.00066245	0.01400782	0.01115325	0.00569177	0.01018766	0.00686077	0.01919737	0.01465785	0.00347586	0.00880502	0.00175986
0.77000000	0.01111978	0.00981032	0.00671965	0.00757985	0.00692142	0.01851709	0.06175058	0.04714851	0.03950293	0.02348326	0.00659781	0.00663308	0.02151097	0.00641136	0.00500567	0.00329047	0.00079579	0.01395978	0.01102552	0.00582396	0.01014867	0.00714836	0.01941064	0.01481323	0.00349570	0.00934110	0.00157555
0.78000000	0.01103882	0.00985732	0.00663379	0.00751725	0.00684058	0.01893158	0.06203507	0.04827951	0.03942957	0.02355628	0.00683481	0.00660267	0.02137994	0.00595828	0.00492358	0.00350375	0.00076545	0.01393995	0.01104156	0.00587833	0.01010991	0.00729765	0.01969702	0.01505623	0.00345236	0.00969465	0.00120006
0.79000000	0.01100370	0.00973839	0.00652880	0.00758923	0.00679277	0.01944855	0.06211424	0.04910628	0.03935857	0.02377064	0.00705662	0.00691858	0.02129447	0.00558012	0.00467673	0.00335828	0.00112791	0.01391928	0.01099583	0.00591618	0.00997850	0.00745905	0.01980500	0.01522902	0.00344003	0.01020032	0.00090042
0.80000000	0.01065576	0.00975681	0.00649822	0.00759955	0.00678526	0.01987464	0.06208497	0.04961158	0.03942592	0.02369615	0.00724945	0.00699934	0.02114405	0.00521184	0.00452200	0.00331741	0.00115573	0.01385589	0.01104607	0.00594869	0.00988971	0.00754337	0.02005021	0.01537936	0.00340486	0.01051080	0.00052128
0.81000000	0.01078595	0.00948835	0.00616664	0.00760732	0.00658889	0.02039240	0.06178764	0.04980011	0.03953953	0.02369276	0.00755286	0.00709609	0.02077814	0.00538607	0.00463615	0.00448720	0.00156229	0.01368187	0.01121376	0.00587380	0.01002725	0.00763295	0.02053055	0.01511138	0.00311965	0.01109669	0.00033853
0.82000000	0.01015376	0.00963435	0.00634088	0.00763715	0.00670639	0.02071505	0.06173553	0.04952613	0.03945764	0.02367277	0.00752648	0.00726470	0.02078769	0.00479498	0.00417163	0.00338231	0.00175959	0.01381474	0.01115233	0.00600959	0.00951141	0.00759115	0.02026896	0.01553473	0.00337037	0.01146692	0.00029866
0.83000000	0.00971581	0.00983344	0.00646028	0.00773766	0.00686363	0.02088196	0.06142654	0.04897743	0.03961683	0.02343974	0.00776088	0.00696614	0.02062347	0.00447598	0.00409048	0.00319075	0.00147669	0.01362869	0.01137919	0.00586211	0.00945652	0.00747353	0.02056818	0.01566001	0.00310474	0.01153546	0.00076285
0.84000000	0.00961615	0.00976747	0.00633177	0.00770185	0.00678085	0.02118716	0.06098276	0.04829846	0.03959398	0.02347234	0.00783332	0.00690487	0.02043751	0.00443386	0.00405030	0.00366226	0.00160588	0.01357521	0.01160895	0.00594102	0.00926717	0.00738670	0.02065681	0.01550187	0.00308121	0.01206595	0.00114032
0.85000000	0.00973760	0.01020105	0.00672535	0.00817899	0.00726482	0.02124966	0.06042240	0.04731903	0.03964622	0.02359248	0.00745519	0.00618676	0.02033415	0.00421481	0.00406373	0.00329703	0.00128455	0.01325041	0.01185789	0.00575656	0.00923518	0.00717925	0.02085986	0.01543266	0.00289817	0.01207109	0.00154687
0.86000000	0.00935996	0.00996366	0.00655306	0.00811334	0.00715231	0.02152404	0.05981642	0.04647707	0.03977465	0.02346603	0.00753088	0.00641997	0.02026905	0.00406670	0.00389425	0.00321105	0.00148592	0.01316073	0.01208348	0.00581071	0.00905947	0.00708671	0.02095814	0.01536206	0.00279941	0.01239120	0.00201885
0.87000000	0.00976187	0.01019021	0.00674622	0.00843529	0.00743558	0.02165535	0.05919712	0.04531862	0.03990525	0.02329575	0.00750022	0.00625250	0.02021795	0.00392058	0.00383929	0.00314390	0.00144696	0.01290620	0.01235278	0.00573645	0.00894141	0.00689197	0.02106574	0.01525812	0.00273139	0.01251740	0.00244007
0.88000000	0.00954061	0.00997294	0.00658767	0.00829714	0.00730158	0.02195948	0.05848643	0.04451594	0.03995985	0.02322546	0.00757644	0.00666199	0.02019995	0.00382148	0.00377529	0.00326424	0.00141051	0.01279843	0.01260777	0.00581895	0.00875020	0.00676559	0.02110249	0.01505145	0.00262611	0.01293252	0.00285779
0.89000000	0.01012845	0.01017727	0.00680304	0.00869631	0.00762993	0.02213706	0.05774482	0.04333398	0.04015720	0.02296547	0.00751822	0.00667799	0.02018188	0.00380678	0.00371089	0.00301466	0.00153183	0.01249752	0.01290793	0.00574437	0.00866941	0.00660851	0.02118154	0.01494381	0.00263243	0.01294971	0.00318634
0.90000000	0.01018954	0.01013324	0.00679935	0.00869213	0.00764808	0.02239257	0.05693179	0.04249291	0.04025492	0.02274340	0.00772303	0.00695508	0.02020059	0.00376261	0.00369103	0.00291064	0.00161763	0.01228753	0.01314690	0.00573028	0.00852845	0.00649089	0.02123191	0.01491141	0.00249523	0.01304249	0.00356693
0.91000000	0.01065215	0.01009871	0.00690116	0.00893253	0.00783206	0.02259939	0.05613960	0.04132919	0.04044590	0.02258116	0.00739023	0.00711462	0.02023622	0.00385979	0.00372135	0.00294311	0.00164665	0.01204058	0.01342071	0.00578208	0.00843779	0.00635549	0.02121449	0.01460151	0.00248322	0.01325026	0.00380945
0.92000000	0.01060742	0.00996344	0.00675994	0.00869799	0.00766362	0.02287161	0.05524996	0.04059120	0.04028168	0.02258669	0.00788996	0.00730332	0.02025407	0.00397733	0.00383752	0.00301603	0.00154021	0.01188220	0.01353683	0.00581118	0.00827270	0.00629049	0.02122879	0.01446772	0.00241255	0.01350633	0.00402998
0.93000000	0.01125454	0.01004526	0.00690805	0.00905628	0.00792420	0.02297745	0.05428495	0.03911703	0.04064400	0.02187636	0.00798948	0.00745588	0.02032912	0.00381819	0.00364583	0.00273042	0.00147680	0.01160935	0.01382831	0.00583668	0.00823385	0.00623892	0.02124101	0.01427486	0.00255097	0.01354980	0.00415588
0.94000000	0.01112457	0.00994401	0.00671408	0.00874629	0.00769281	0.02313661	0.05329733	0.03818634	0.04044712	0.02179472	0.00858066	0.00745294	0.02029174	0.00409428	0.00390384	0.00277619	0.00143612	0.01139478	0.01392444	0.00583292	0.00806518	0.00624881	0.02126198	0.01417431	0.00249966	0.01378626	0.00433268
0.95000000	0.01182027	0.01013595	0.00698833	0.00909038	0.00800949	0.02301341	0.05203609	0.03632311	0.04081016	0.02145542	0.00769876	0.00735021	0.02042564	0.00395340	0.00378248	0.00257218	0.00138532	0.01118649	0.01417472	0.00594616	0.00804889	0.00617115	0.02115598	0.01395204	0.00256718	0.01376683	0.00442469
0.96000000	0.01192991	0.01020461	0.00691670	0.00904016	0.00795893	0.02299064	0.05065266	0.03487201	0.04080704	0.02114261	0.00808119	0.00731508	0.02046286	0.00390166	0.00384063	0.00253044	0.00130311	0.01094566	0.01428287	0.00599803	0.00798989	0.00623941	0.02118362	0.01380436	0.00259760	0.01383234	0.00453463
0.97000000	0.01191493	0.01020917	0.00664547	0.00874839	0.00768581	0.02315232	0.04924110	0.03350517	0.04062032	0.02075979	0.00908517	0.00715191	0.02057679	0.00408879	0.00392699	0.00218504	0.00135106	0.01080473	0.01425069	0.00612321	0.00784046	0.00628190	0.02116158	0.01376776	0.00251972	0.01391085	0.00455214
0.98000000	0.01205228	0.01058493	0.00666599	0.00877021	0.00771369	0.02302468	0.04750263	0.03175503	0.04046131	0.02109585	0.00853933	0.00708073	0.02063182	0.00394311	0.00395622	0.00226827	0.00117631	0.01066055	0.01435577	0.00616740	0.00778404	0.00631030	0.02109289	0.01360356	0.00275650	0.01404550	0.00454642
0.99000000	0.01184215	0.01065887	0.00622379	0.00837211	0.00729354	0.02361286	0.04585813	0.03028882	0.04008305	0.02101506	0.00965504	0.00697712	0.02075790	0.00401437	0.00402498	0.00200891	0.00120110	0.01054504	0.01425476	0.00626440	0.00762905	0.00642480	0.02110709	0.01363756	0.00257665	0.01414709	0.00457218
1.00000000	0.01152614	0.01110399	0.00593457	0.00813673	0.00701937	0.02436936	0.04410106	0.02876929	0.03952440	0.02161647	0.00999131	0.00686332	0.02081342	0.00399480	0.00410498	0.00204451	0.00113810	0.01046408	0.01418056	0.00630684	0.00758677	0.00654707	0.02115195	0.01358284	0.00260601	0.01421943	0.00455186
1.01000000	0.01147077	0.01147027	0.00562681	0.00778185	0.00665973	0.02562256	0.04236591	0.02729965	0.03894207	0.02223237	0.01050776	0.00678930	0.02088012	0.00414874	0.00422193	0.00193739	0.00118369	0.01037867	0.01398776	0.00635987	0.00746121	0.00668264	0.02120443	0.01358898	0.00260268	0.01435256	0.00444022
1.02000000	0.01206596	0.01180559	0.00546943	0.00738391	0.00632876	0.02718403	0.04056645	0.02594132	0.03861161	0.02255597	0.01116684	0.00660828	0.02101398	0.00427755	0.00436832	0.00203043	0.00128569	0.01029666	0.01373860	0.00628280	0.00735184	0.00677591	0.02133298	0.01360970	0.00299005	0.01454738	0.00426026
1.03000000	0.01164056	0.01216030	0.00525199	0.00716362	0.00604161	0.02915373	0.03918440	0.02447496	0.03758296	0.02392497	0.01179907	0.00666060	0.02104052	0.00443993	0.00435647	0.00177460	0.00130715	0.01030354	0.01349427	0.00640902	0.00721591	0.00702407	0.02138040	0.01374652	0.00233856	0.01463463	0.00425582
1.04000000	0.01277446	0.01279752	0.00554297	0.00713700	0.00606984	0.03113347	0.03761889	0.02321053	0.03737569	0.02434352	0.01211920	0.00659325	0.02116941	0.00447822	0.00441275	0.00201089	0.00132588	0.01024388	0.01322599	0.00639770	0.00708501	0.00710952	0.02145345	0.01376862	0.00297267	0.01483678	0.00380866
1.05000000	0.01234150	0.01323759	0.00574620	0.00710917	0.00606033	0.03340537	0.03661046	0.02195873	0.03610817	0.02616438	0.01288552	0.00653782	0.02103927	0.00483634	0.00443774	0.00189226	0.00131778	0.01027740	0.01291898	0.00647590	0.00698811	0.00745162	0.02161335	0.01396594	0.00206942	0.01493257	0.00389860
1.06000000	0.01317115	0.01355399	0.00629920	0.00724105	0.00631040	0.03552302	0.03569175	0.02085583	0.03541577	0.02738865	0.01323894	0.00656818	0.02104496	0.00526845	0.00448814	0.00182022	0.00141039	0.01028162	0.01256339	0.00648712	0.00690132	0.00768883	0.02178608	0.01405032	0.00210891	0.01510221	0.00361478
1.07000000	0.01330646	0.01415070	0.00690109	0.00752713	0.00667514	0.03773170	0.03508935	0.01981366	0.03462801	0.02858725	0.01396382	0.00645729	0.02102920	0.00532884	0.00437693	0.00188069	0.00134836	0.01036077	0.01234086	0.00656587	0.00679043	0.00796690	0.02182326	0.01423164	0.00183756	0.01527776	0.00341059
1.08000000	0.01433218	0.01432634	0.00754264	0.00780094	0.00707948	0.03954445	0.03452818	0.01909485	0.03396936	0.02984306	0.01428392	0.00654253	0.02100683	0.00575323	0.00446181	0.00183328	0.00136585	0.01035013	0.01200302	0.00660203	0.00668895	0.00818402	0.02200923	0.01434490	0.00182056	0.01551039	0.00315831
1.09000000	0.01434462	0.01468871	0.00818242	0.00814057	0.00752955	0.04115791	0.03429574	0.01846126	0.03331762	0.03084496	0.01495872	0.00649680	0.02096571	0.00573473	0.00438386	0.00183638	0.00128496	0.01040199	0.01179167	0.00668889	0.00659096	0.00849423	0.02204533	0.01458282	0.00152891	0.01566722	0.00298620
1.10000000	0.01557220	0.01467048	0.00880852	0.00848744	0.00798725	0.04209854	0.03359402	0.01847961	0.03303514	0.03157268	0.01477977	0.00671846	0.02097512	0.00601658	0.00455941	0.00187123	0.00107638	0.01038036	0.01158438	0.00669660	0.00657471	0.00859240	0.02217584	0.01441337	0.00193428	0.01604986	0.00258984
1.11000000	0.01461414	0.01494345	0.00919767	0.00872701	0.00829200	0.04226171	0.03358694	0.01818002	0.03249746	0.03244022	0.01546359	0.00664176	0.02089375	0.00552378	0.00449292	0.00193701	0.00114901	0.01041242	0.01138547	0.00682075	0.00647806	0.00887768	0.02217082	0.01493874	0.00148439	0.01595308	0.00253194
1.12000000	0.01329172	0.01469627	0.00930509	0.00874986	0.00838276	0.04172760	0.03321957	0.01835305	0.03219307	0.03308932	0.01577964	0.00678461	0.02086041	0.00532021	0.00452095	0.00190889	0.00087494	0.01041652	0.01127313	0.00683484	0.00652677	0.00901795	0.02220688	0.01474007	0.00165330	0.01627221	0.00226801
1.13000000	0.01340247	0.01425258	0.00944765	0.00882582	0.00850378	0.03971001	0.03230573	0.01912141	0.03210284	0.03331811	0.01568184	0.00710788	0.02102639	0.00539324	0.00474282	0.00176504	0.00093995	0.01039564	0.01126494	0.00687135	0.00655835	0.00894624	0.02219075	0.01454388	0.00168339	0.01663913	0.00211030
1.14000000	0.01231408	0.01407142	0.00934486	0.00874485	0.00841752	0.03698011	0.03149465	0.01990832	0.03231948	0.03301574	0.01538110	0.00699921	0.02121070	0.00527444	0.00492024	0.00226102	0.00079612	0.01045533	0.01133916	0.00683818	0.00661359	0.00885415	0.02211160	0.01479130	0.00171037	0.01664498	0.00203321
1.15000000	0.00968818	0.01373975	0.00887926	0.00856894	0.00812931	0.03367164	0.03064689	0.02064329	0.03229963	0.03310951	0.01542220	0.00707862	0.02132393	0.00560487	0.00504353	0.00245480	0.00088626	0.01032277	0.01134966	0.00678004	0.00673092	0.00881515	0.02211897	0.01477869	0.00182422	0.01670534	0.00189541
1.16000000	0.00866423	0.01338149	0.00865560	0.00844242	0.00798334	0.02976148	0.02915642	0.02205095	0.03271720	0.03218092	0.01540878	0.00719333	0.02182614	0.00628428	0.00522050	0.00236971	0.00153428	0.01035352	0.01169269	0.00672744	0.00689481	0.00853983	0.02198551	0.01461245	0.00168128	0.01692582	0.00205352
1.17000000	0.00733472	0.01338305	0.00851352	0.00849729	0.00796388	0.02584141	0.02791803	0.02318621	0.03325606	0.03113750	0.01516849	0.00714762	0.02232622	0.00749886	0.00552294	0.00305742	0.00207829	0.01032319	0.01202201	0.00665581	0.00711701	0.00823187	0.02187625	0.01443568	0.00181083	0.01699571	0.00212687
1.18000000	0.00566685	0.01326911	0.00804976	0.00864609	0.00783096	0.02210392	0.02743667	0.02341088	0.03338514	0.03113540	0.01451975	0.00738129	0.02303142	0.00912614	0.00565110	0.00400496	0.00171138	0.01028347	0.01201787	0.00661171	0.00719906	0.00796198	0.02179142	0.01464908	0.00213373	0.01692331	0.00198272
1.19000000	0.00526357	0.01344537	0.00796707	0.00885274	0.00791123	0.01912853	0.02670485	0.02393711	0.03375743	0.03034777	0.01434214	0.00786000	0.02388039	0.01118581	0.00580173	0.00468608	0.00202689	0.01037204	0.01227568	0.00655996	0.00738082	0.00763371	0.02169059	0.01468977	0.00222392	0.01691879	0.00221764
1.20000000	0.00539754	0.01377835	0.00817840	0.00922017	0.00820772	0.01691300	0.02619310	0.02426922	0.03409732	0.02965066	0.01407580	0.00882397	0.02488119	0.01351291	0.00598061	0.00540304	0.00213915	0.01042963	0.01247789	0.00652912	0.00757900	0.00734668	0.02159289	0.01468479	0.00239501	0.01683708	0.00247960
1.21000000	0.00594395	0.01420170	0.00841552	0.00953109	0.00845645	0.01538646	0.02592118	0.02440286	0.03437731	0.02909966	0.01385620	0.01015238	0.02585401	0.01601073	0.00622130	0.00606745	0.00202263	0.01058011	0.01266089	0.00649762	0.00775922	0.00709164	0.02153797	0.01482443	0.00260354	0.01670645	0.00275506
1.22000000	0.00653002	0.01471439	0.00876793	0.00989320	0.00878583	0.01466611	0.02603244	0.02426976	0.03467348	0.02853043	0.01365882	0.01188780	0.02686639	0.01827138	0.00649261	0.00653460	0.00188200	0.01072016	0.01289339	0.00642816	0.00792690	0.00682644	0.02144185	0.01483759	0.00277834	0.01661079	0.00305727
1.23000000	0.00697212	0.01476877	0.00899490	0.01004771	0.00892886	0.01441307	0.02623849	0.02414783	0.03478080	0.02837394	0.01336546	0.01365881	0.02779197	0.02072920	0.00692638	0.00677721	0.00153410	0.01094807	0.01287632	0.00645446	0.00810512	0.00671393	0.02142656	0.01497151	0.00315838	0.01637353	0.00310278
1.24000000	0.00715840	0.01477516	0.00912201	0.00992381	0.00881261	0.01431219	0.02615608	0.02437440	0.03482598	0.02814849	0.01372201	0.01431603	0.02822076	0.02371386	0.00701180	0.00700367	0.00133168	0.01136917	0.01284883	0.00655015	0.00816127	0.00672643	0.02138020	0.01543899	0.00349641	0.01606701	0.00308474
1.25000000	0.00703313	0.01482299	0.00935976	0.00977121	0.00877949	0.01480740	0.02666952	0.02399857	0.03482454	0.02815282	0.01375020	0.01551671	0.02868587	0.02550049	0.00738713	0.00704273	0.00187918	0.01169766	0.01279131	0.00650978	0.00823626	0.00675152	0.02135600	0.01570560	0.00369076	0.01578687	0.00313279
1.26000000	0.00660841	0.01464677	0.00952945	0.00938746	0.00859496	0.01545092	0.02708843	0.02368821	0.03474240	0.02825034	0.01394780	0.01661839	0.02890140	0.02691919	0.00782850	0.00701483	0.00265942	0.01208883	0.01267798	0.00649950	0.00829479	0.00687144	0.02136114	0.01603137	0.00391335	0.01543092	0.00307443
1.27000000	0.00657216	0.01382966	0.00957102	0.00915665	0.00844426	0.01595638	0.02738158	0.02349984	0.03467011	0.02847006	0.01392284	0.01802477	0.02949439	0.02751727	0.00810150	0.00695394	0.00354736	0.01238598	0.01249647	0.00639858	0.00829136	0.00694514	0.02122371	0.01627228	0.00419579	0.01498757	0.00285956
1.28000000	0.00633195	0.01298516	0.00961381	0.00887394	0.00830333	0.01636834	0.02753967	0.02326406	0.03462742	0.02872918	0.01383312	0.01942927	0.02996818	0.02772995	0.00842021	0.00681596	0.00405089	0.01263550	0.01225519	0.00634431	0.00831228	0.00705568	0.02111022	0.01641029	0.00452463	0.01448227	0.00254333
1.29000000	0.00603028	0.01214871	0.00963029	0.00856291	0.00815156	0.01655973	0.02750750	0.02308575	0.03450367	0.02906188	0.01382414	0.02082504	0.03034569	0.02771891	0.00863749	0.00681083	0.00444239	0.01290991	0.01204931	0.00627343	0.00828647	0.00713696	0.02093879	0.01651737	0.00485144	0.01397517	0.00214312
1.30000000	0.00560869	0.01127290	0.00961956	0.00822663	0.00800208	0.01654928	0.02736132	0.02290589	0.03443947	0.02923996	0.01397296	0.02223796	0.03069865	0.02757721	0.00880660	0.00687353	0.00460458	0.01313942	0.01180892	0.00618046	0.00821574	0.00727951	0.02076561	0.01669510	0.00514248	0.01330931	0.00177234
1.31000000	0.00536310	0.01138334	0.00981441	0.00811323	0.00808463	0.01661856	0.02729619	0.02231339	0.03428971	0.02951721	0.01435178	0.02367871	0.03108785	0.02675095	0.00928242	0.00674409	0.00449083	0.01329643	0.01163755	0.00599439	0.00822650	0.00734457	0.02065105	0.01669556	0.00535101	0.01259487	0.00139430
1.32000000	0.00524236	0.01000274	0.00973581	0.00791178	0.00797925	0.01622346	0.02676293	0.02248569	0.03428837	0.02983706	0.01395869	0.02509082	0.03138229	0.02675334	0.00917314	0.00697427	0.00475286	0.01348022	0.01133504	0.00592729	0.00808922	0.00750297	0.02037543	0.01664608	0.00572887	0.01195658	0.00091512
1.33000000	0.00504768	0.00985837	0.00978315	0.00778607	0.00798779	0.01628379	0.02656461	0.02198201	0.03412412	0.03011829	0.01447470	0.02637211	0.03168038	0.02598979	0.00946842	0.00695466	0.00470186	0.01359833	0.01112466	0.00580287	0.00798247	0.00765066	0.02022190	0.01670427	0.00603550	0.01104461	0.00055131
1.34000000	0.00515965	0.00941982	0.00973316	0.00767696	0.00794343	0.01639611	0.02625477	0.02161946	0.03408506	0.03042505	0.01461249	0.02771174	0.03182574	0.02534435	0.00962056	0.00692118	0.00482128	0.01376407	0.01089809	0.00566935	0.00787369	0.00772567	0.02002556	0.01652146	0.00628471	0.01040537	0.00036438
1.35000000	0.00547473	0.01011494	0.01001724	0.00781534	0.00811785	0.01671116	0.02574298	0.02131188	0.03412153	0.03017881	0.01578893	0.02869018	0.03185411	0.02449731	0.00997253	0.00729399	0.00471638	0.01376042	0.01083180	0.00540314	0.00775880	0.00789727	0.01997337	0.01670387	0.00645085	0.00905610	0.00033777
1.36000000	0.00546061	0.00878796	0.00978819	0.00767471	0.00804449	0.01732034	0.02564202	0.02077119	0.03384474	0.03117196	0.01518943	0.03009514	0.03182511	0.02396680	0.00990081	0.00688193	0.00522931	0.01383008	0.01050146	0.00551565	0.00760986	0.00804595	0.01968371	0.01608007	0.00692786	0.00860372	0.00081234
1.37000000	0.00578765	0.00785453	0.00967202	0.00769286	0.00802909	0.01766375	0.02527281	0.02059636	0.03380310	0.03146799	0.01498213	0.03143083	0.03134586	0.02382052	0.00976744	0.00707437	0.00508782	0.01386166	0.01015760	0.00547566	0.00738432	0.00828351	0.01943491	0.01580781	0.00727362	0.00774957	0.00072006
1.38000000	0.00607492	0.00787872	0.00947362	0.00760638	0.00787762	0.01833730	0.02501427	0.02012452	0.03390250	0.03131487	0.01587359	0.03221634	0.03124619	0.02341922	0.00986234	0.00682085	0.00504310	0.01399127	0.00990646	0.00539502	0.00708514	0.00840835	0.01924345	0.01578202	0.00753977	0.00680778	0.00093293
1.39000000	0.00653642	0.00748146	0.00949464	0.00768727	0.00798201	0.01885195	0.02473420	0.01950614	0.03377777	0.03190291	0.01578743	0.03265456	0.03099615	0.02335405	0.00988271	0.00710136	0.00569139	0.01388727	0.00985253	0.00540818	0.00703817	0.00845637	0.01902521	0.01503849	0.00778155	0.00604168	0.00104344
1.40000000	0.00728366	0.00745680	0.00941372	0.00775615	0.00798729	0.01925312	0.02432519	0.01908370	0.03387058	0.03201825	0.01566707	0.03281675	0.03084610	0.02354551	0.00990810	0.00705643	0.00556666	0.01380122	0.00970222	0.00540367	0.00689539	0.00855450	0.01886363	0.01448977	0.00802641	0.00528142	0.00103824
1.41000000	0.00755493	0.00695763	0.00900114	0.00748168	0.00765089	0.01958515	0.02397886	0.01887773	0.03405849	0.03161348	0.01648993	0.03296231	0.03066792	0.02394402	0.00985290	0.00691321	0.00556041	0.01386935	0.00951897	0.00544297	0.00653547	0.00868167	0.01862367	0.01439935	0.00834120	0.00414364	0.00116245
1.42000000	0.00839546	0.00742863	0.00918343	0.00772304	0.00784918	0.01951717	0.02354483	0.01816348	0.03390995	0.03214702	0.01609770	0.03218230	0.03052165	0.02426705	0.01010620	0.00707436	0.00546341	0.01370518	0.00944357	0.00537838	0.00655028	0.00869192	0.01856094	0.01360587	0.00839687	0.00359004	0.00094406
1.43000000	0.00889577	0.00726520	0.00903698	0.00772668	0.00778389	0.01948309	0.02311265	0.01780395	0.03404484	0.03210150	0.01625792	0.03153371	0.03038181	0.02474112	0.01004438	0.00701504	0.00553026	0.01358114	0.00933437	0.00538187	0.00639075	0.00868252	0.01835810	0.01303763	0.00860538	0.00284652	0.00102513
1.44000000	0.00931017	0.00728081	0.00892196	0.00773001	0.00771571	0.01932249	0.02267771	0.01740017	0.03407827	0.03208692	0.01662813	0.03062435	0.03027108	0.02501285	0.01009581	0.00686954	0.00538745	0.01351778	0.00921221	0.00536491	0.00621619	0.00863387	0.01815217	0.01256040	0.00875490	0.00210461	0.00106132
1.45000000	0.00980914	0.00677226	0.00866929	0.00766670	0.00759092	0.01908100	0.02219374	0.01719675	0.03429146	0.03199707	0.01665941	0.02988509	0.02992745	0.02530820	0.00984090	0.00668117	0.00552095	0.01332627	0.00911940	0.00536589	0.00606179	0.00858597	0.01788866	0.01193425	0.00897609	0.00145971	0.00123527
1.46000000	0.01021433	0.00679744	0.00869548	0.00777132	0.00765476	0.01888788	0.02175497	0.01689697	0.03446539	0.03181050	0.01688261	0.02887729	0.02958485	0.02499887	0.00973209	0.00641720	0.00523341	0.01311191	0.00899143	0.00526449	0.00597585	0.00852939	0.01772247	0.01136323	0.00905869	0.00073453	0.00128797
1.47000000	0.01049209	0.00664356	0.00865327	0.00786789	0.00769915	0.01864884	0.02132660	0.01667491	0.03461208	0.03172653	0.01709580	0.02795129	0.02905842	0.02435307	0.00953329	0.00603712	0.00500032	0.01287622	0.00886329	0.00517888	0.00584389	0.00843014	0.01744353	0.01078545	0.00919533	0.00009104	0.00144063
1.48000000	0.01074080	0.00639755	0.00863364	0.00793452	0.00774869	0.01846172	0.02089114	0.01653006	0.03475703	0.03170520	0.01717611	0.02711139	0.02836240	0.02307256	0.00925178	0.00574216	0.00482169	0.01260575	0.00871244	0.00508004	0.00580060	0.00833469	0.01722845	0.01014139	0.00930360	0.00061988	0.00160946
1.49000000	0.01091806	0.00637179	0.00863471	0.00813285	0.00787705	0.01823496	0.02066064	0.01627063	0.03484418	0.03170716	0.01753184	0.02627478	0.02747685	0.02129182	0.00894297	0.00529928	0.00449930	0.01226574	0.00858647	0.00493654	0.00566327	0.00819435	0.01687425	0.00957118	0.00942807	0.00118115	0.00180530
1.50000000	0.01091627	0.00597476	0.00824782	0.00799223	0.00766780	0.01800582	0.02031271	0.01633573	0.03486900	0.03182294	0.01786487	0.02588466	0.02617813	0.01941705	0.00860842	0.00501884	0.00416661	0.01202548	0.00837237	0.00490657	0.00550352	0.00810024	0.01650759	0.00906028	0.00963957	0.00162786	0.00211232
1.51000000	0.01097395	0.00593743	0.00818139	0.00809135	0.00773220	0.01804796	0.02012553	0.01622866	0.03496302	0.03193671	0.01799067	0.02543208	0.02493875	0.01681660	0.00825597	0.00470652	0.00382047	0.01163922	0.00823763	0.00479202	0.00543734	0.00798656	0.01619482	0.00848763	0.00977204	0.00212188	0.00236897
1.52000000	0.01126005	0.00643129	0.00856147	0.00866823	0.00824236	0.01833868	0.02016855	0.01593903	0.03515618	0.03181874	0.01822540	0.02468554	0.02403216	0.01314083	0.00814446	0.00457368	0.00330150	0.01106182	0.00814857	0.00448331	0.00552660	0.00785404	0.01593085	0.00777841	0.00973564	0.00276234	0.00253295
1.53000000	0.01104800	0.00685717	0.00819343	0.00859569	0.00808583	0.01861563	0.02009036	0.01615081	0.03523644	0.03179098	0.01858628	0.02518619	0.02243972	0.01066489	0.00786320	0.00454359	0.00347374	0.01071828	0.00787214	0.00450092	0.00540254	0.00786261	0.01554976	0.00722128	0.00998880	0.00338688	0.00302174
1.54000000	0.01130372	0.00692920	0.00839750	0.00889470	0.00835242	0.01917040	0.02023472	0.01573799	0.03538144	0.03188805	0.01873100	0.02511620	0.02158731	0.00772325	0.00774046	0.00470062	0.00269436	0.01028123	0.00790989	0.00425932	0.00553488	0.00773398	0.01540959	0.00683677	0.00984338	0.00365167	0.00293147
1.55000000	0.01102548	0.00764952	0.00800857	0.00876867	0.00813934	0.01955415	0.02020134	0.01588215	0.03545754	0.03191606	0.01907259	0.02627802	0.02037095	0.00609973	0.00746542	0.00468945	0.00288808	0.00998426	0.00763467	0.00433842	0.00544513	0.00779177	0.01510439	0.00644622	0.01009188	0.00408830	0.00335532
1.56000000	0.01122924	0.00787616	0.00810171	0.00903174	0.00832987	0.02015571	0.02049291	0.01541843	0.03563313	0.03191506	0.01933708	0.02650407	0.01981053	0.00543258	0.00744270	0.00519363	0.00242922	0.00959259	0.00770096	0.00419502	0.00556071	0.00766127	0.01492457	0.00617633	0.00998374	0.00438688	0.00334370
1.57000000	0.01110469	0.00800238	0.00792558	0.00896168	0.00822134	0.02073909	0.02060565	0.01527688	0.03576691	0.03184806	0.01965621	0.02738360	0.01914130	0.00557938	0.00726523	0.00536003	0.00233425	0.00935920	0.00765377	0.00421079	0.00560506	0.00765504	0.01476875	0.00596327	0.00998593	0.00476206	0.00347673
1.58000000	0.01095853	0.00813117	0.00765938	0.00878984	0.00801466	0.02118932	0.02073590	0.01516388	0.03600928	0.03164211	0.01983316	0.02809563	0.01866568	0.00596167	0.00708555	0.00555276	0.00222030	0.00917530	0.00764700	0.00427957	0.00566912	0.00761547	0.01464111	0.00581372	0.00998839	0.00510629	0.00364192
1.59000000	0.01072221	0.00826770	0.00745911	0.00869923	0.00786633	0.02141411	0.02075064	0.01511817	0.03618252	0.03140792	0.02017587	0.02833811	0.01836547	0.00644942	0.00691324	0.00581853	0.00226046	0.00905925	0.00766446	0.00435686	0.00572232	0.00761013	0.01449063	0.00582676	0.00991412	0.00534980	0.00383793
1.60000000	0.01043301	0.00827666	0.00718112	0.00847633	0.00761551	0.02141590	0.02082076	0.01507108	0.03639951	0.03110864	0.02036264	0.02840835	0.01816460	0.00657702	0.00666871	0.00593483	0.00218317	0.00899852	0.00770633	0.00446892	0.00578250	0.00756972	0.01436307	0.00584780	0.00987874	0.00561093	0.00400616
1.61000000	0.01009872	0.00859113	0.00657322	0.00793422	0.00705742	0.02115696	0.02087812	0.01518847	0.03656162	0.03078472	0.02047340	0.02856627	0.01799674	0.00612477	0.00632495	0.00579159	0.00230276	0.00901776	0.00770206	0.00469893	0.00577974	0.00763552	0.01421007	0.00579956	0.00984557	0.00601042	0.00428402
1.62000000	0.00957370	0.00820132	0.00642242	0.00774069	0.00685111	0.02067147	0.02077280	0.01534426	0.03680911	0.03033735	0.02065647	0.02811370	0.01810886	0.00607116	0.00593928	0.00572336	0.00205445	0.00914668	0.00781008	0.00475813	0.00588853	0.00753630	0.01419545	0.00613931	0.00973994	0.00596787	0.00435903
1.63000000	0.00915881	0.00789654	0.00630815	0.00756092	0.00668794	0.02018411	0.02073911	0.01547215	0.03703317	0.02994390	0.02068909	0.02717436	0.01823424	0.00647797	0.00580246	0.00599761	0.00195032	0.00919650	0.00794126	0.00481960	0.00598031	0.00748086	0.01412079	0.00608664	0.00963213	0.00631883	0.00440499
1.64000000	0.00884936	0.00814605	0.00572520	0.00706054	0.00616137	0.01933997	0.02081077	0.01555549	0.03702011	0.02988680	0.02081769	0.02688433	0.01856653	0.00610033	0.00528215	0.00551307	0.00130225	0.00944654	0.00788975	0.00528580	0.00592171	0.00751292	0.01378982	0.00597668	0.00958461	0.00684033	0.00465572
1.65000000	0.00834469	0.00799356	0.00568310	0.00688169	0.00602331	0.01883881	0.02083865	0.01589875	0.03732593	0.02924111	0.02084177	0.02615437	0.01881305	0.00628009	0.00505122	0.00574712	0.00170172	0.00942633	0.00805608	0.00516100	0.00608901	0.00748300	0.01393694	0.00634784	0.00951545	0.00663667	0.00454458
1.66000000	0.00800404	0.00805688	0.00547048	0.00658175	0.00576232	0.01831622	0.02103483	0.01607492	0.03748660	0.02890406	0.02088333	0.02571042	0.01925388	0.00632695	0.00477752	0.00578480	0.00146955	0.00948555	0.00817346	0.00526745	0.00618447	0.00750903	0.01393182	0.00640808	0.00940571	0.00681724	0.00447931
1.67000000	0.00758541	0.00813089	0.00512352	0.00615948	0.00536146	0.01795724	0.02098515	0.01656704	0.03761675	0.02867708	0.02088188	0.02564104	0.01981930	0.00647196	0.00448686	0.00553042	0.00130751	0.00959694	0.00825405	0.00549011	0.00626955	0.00763878	0.01400111	0.00619391	0.00933711	0.00723548	0.00427296
1.68000000	0.00730759	0.00830717	0.00519971	0.00609931	0.00538118	0.01767776	0.02144461	0.01655353	0.03777105	0.02842315	0.02101670	0.02529093	0.02041514	0.00668047	0.00436058	0.00585113	0.00149170	0.00960475	0.00823083	0.00550906	0.00632706	0.00763844	0.01397892	0.00647997	0.00938819	0.00712987	0.00432839
1.69000000	0.00705160	0.00865530	0.00528493	0.00614151	0.00545332	0.01748627	0.02158647	0.01692483	0.03790493	0.02801941	0.02143823	0.02504046	0.02105576	0.00716245	0.00435747	0.00582541	0.00204294	0.00982600	0.00815564	0.00550614	0.00635104	0.00763217	0.01396730	0.00667442	0.00939788	0.00711399	0.00435905
1.70000000	0.00681022	0.00879944	0.00528009	0.00597145	0.00537078	0.01741465	0.02199116	0.01714300	0.03806948	0.02791767	0.02138139	0.02511343	0.02165138	0.00740120	0.00438372	0.00602745	0.00201032	0.00973000	0.00819065	0.00561548	0.00644254	0.00773733	0.01412120	0.00659698	0.00939267	0.00727368	0.00418431
1.71000000	0.00664926	0.00909076	0.00540497	0.00591803	0.00542939	0.01736401	0.02241713	0.01744019	0.03822498	0.02766092	0.02151451	0.02507003	0.02214386	0.00775731	0.00456887	0.00606846	0.00216580	0.00976419	0.00813246	0.00560728	0.00646487	0.00779474	0.01425689	0.00678507	0.00941625	0.00717674	0.00416655
1.72000000	0.00644449	0.00917965	0.00558575	0.00594367	0.00553666	0.01729189	0.02272096	0.01794952	0.03842177	0.02755464	0.02138975	0.02497166	0.02249193	0.00807053	0.00483473	0.00617061	0.00231073	0.00965687	0.00807170	0.00566867	0.00653423	0.00786250	0.01447416	0.00652718	0.00948741	0.00746441	0.00408459
1.73000000	0.00640841	0.00933951	0.00581195	0.00593137	0.00566842	0.01715627	0.02348199	0.01823954	0.03855534	0.02727334	0.02140144	0.02452498	0.02267995	0.00837263	0.00523963	0.00634450	0.00246298	0.00969291	0.00803840	0.00562252	0.00653735	0.00787077	0.01469484	0.00674294	0.00947099	0.00727528	0.00399802
1.74000000	0.00628586	0.00896102	0.00589812	0.00569394	0.00560028	0.01694538	0.02402930	0.01892531	0.03859661	0.02670613	0.02181636	0.02468265	0.02257658	0.00780041	0.00535491	0.00574063	0.00196718	0.00984395	0.00789660	0.00566278	0.00652584	0.00786402	0.01504197	0.00678896	0.00955387	0.00722706	0.00406981
1.75000000	0.00615843	0.00887450	0.00627064	0.00586971	0.00587966	0.01676868	0.02489008	0.01960404	0.03872343	0.02634599	0.02166882	0.02363293	0.02250252	0.00774818	0.00577103	0.00573110	0.00219836	0.00976722	0.00778856	0.00561529	0.00651595	0.00787319	0.01534497	0.00675389	0.00960405	0.00722692	0.00417691
1.76000000	0.00618595	0.00811472	0.00642271	0.00569244	0.00585658	0.01652046	0.02580989	0.02043193	0.03884179	0.02592682	0.02145504	0.02326972	0.02220637	0.00689681	0.00581647	0.00515164	0.00158063	0.00982025	0.00774467	0.00566282	0.00649436	0.00781360	0.01578944	0.00676762	0.00960568	0.00713823	0.00418283
1.77000000	0.00633177	0.00799160	0.00678039	0.00594720	0.00617564	0.01643867	0.02709751	0.02132159	0.03898913	0.02598647	0.02025646	0.02194957	0.02202755	0.00670112	0.00603859	0.00520715	0.00198824	0.00957411	0.00775115	0.00555532	0.00656652	0.00778327	0.01625881	0.00655026	0.00952647	0.00722767	0.00422025
1.78000000	0.00646809	0.00729029	0.00698220	0.00591475	0.00624400	0.01595603	0.02842981	0.02241329	0.03898716	0.02482820	0.02064267	0.02109386	0.02196772	0.00655817	0.00601544	0.00468751	0.00157722	0.00970170	0.00764635	0.00558483	0.00646369	0.00763759	0.01662041	0.00670139	0.00958213	0.00694802	0.00426754
1.79000000	0.00665143	0.00705995	0.00708313	0.00593535	0.00633983	0.01596505	0.03018591	0.02361857	0.03883915	0.02560429	0.01832662	0.02025318	0.02173165	0.00706250	0.00596910	0.00448354	0.00177161	0.00941311	0.00771457	0.00540326	0.00662334	0.00762761	0.01734922	0.00645715	0.00939793	0.00697256	0.00418911
1.80000000	0.00698410	0.00671299	0.00718996	0.00612863	0.00644337	0.01500848	0.03215095	0.02487739	0.03884465	0.02410457	0.01838725	0.01919199	0.02208223	0.00727171	0.00557127	0.00405532	0.00190833	0.00959741	0.00750852	0.00560357	0.00638229	0.00748300	0.01748285	0.00639774	0.00948857	0.00680838	0.00432548
1.81000000	0.00729751	0.00621546	0.00727913	0.00605899	0.00645060	0.01400494	0.03422159	0.02626431	0.03845939	0.02373870	0.01739121	0.01824246	0.02205870	0.00790469	0.00545790	0.00405995	0.00157005	0.00961972	0.00748831	0.00560301	0.00634217	0.00733682	0.01789980	0.00639674	0.00940788	0.00650929	0.00419115
1.82000000	0.00758497	0.00598784	0.00726325	0.00603069	0.00643974	0.01262516	0.03655536	0.02766080	0.03831164	0.02342151	0.01569918	0.01716935	0.02228445	0.00812285	0.00506664	0.00396062	0.00130121	0.00958340	0.00749849	0.00555464	0.00633894	0.00718947	0.01835315	0.00621576	0.00926517	0.00631861	0.00405474
1.83000000	0.00788595	0.00587567	0.00726856	0.00597451	0.00642768	0.01088242	0.03893679	0.02913481	0.03812251	0.02310107	0.01419432	0.01609513	0.02246444	0.00823427	0.00485748	0.00402305	0.00113221	0.00959992	0.00752156	0.00551291	0.00632440	0.00701901	0.01872323	0.00611507	0.00909757	0.00599823	0.00384455
1.84000000	0.00827017	0.00595626	0.00730425	0.00593150	0.00644636	0.00910215	0.04131970	0.03058762	0.03814824	0.02264646	0.01273910	0.01509942	0.02270981	0.00813152	0.00469732	0.00414168	0.00101381	0.00961741	0.00763125	0.00540301	0.00634233	0.00673466	0.01904035	0.00592731	0.00887504	0.00570410	0.00360422
1.85000000	0.00870765	0.00628647	0.00737533	0.00589407	0.00649831	0.00817890	0.04371003	0.03188803	0.03866641	0.02171954	0.01150233	0.01398435	0.02292431	0.00823685	0.00490325	0.00439563	0.00091935	0.00957513	0.00779697	0.00523114	0.00642071	0.00642284	0.01933671	0.00588819	0.00859201	0.00518837	0.00330136
1.86000000	0.00902305	0.00673569	0.00739018	0.00593432	0.00655568	0.00845114	0.04597274	0.03320791	0.03905916	0.02119249	0.01042055	0.01325414	0.02318035	0.00815807	0.00481615	0.00453050	0.00106460	0.00962739	0.00787373	0.00511874	0.00646054	0.00618234	0.01954989	0.00577220	0.00835819	0.00475345	0.00310870
1.87000000	0.00914668	0.00720976	0.00734149	0.00597621	0.00656779	0.00957314	0.04815715	0.03444823	0.03935585	0.02101670	0.00943724	0.01278088	0.02331338	0.00816452	0.00478250	0.00453187	0.00116765	0.00964916	0.00785789	0.00506140	0.00652174	0.00609408	0.01977590	0.00572599	0.00817665	0.00424932	0.00293689
1.88000000	0.00944799	0.00765662	0.00745656	0.00620371	0.00674141	0.01105202	0.05020132	0.03543830	0.03945763	0.02142945	0.00816406	0.01237612	0.02340294	0.00815789	0.00464258	0.00426511	0.00170045	0.00972074	0.00795871	0.00497453	0.00657977	0.00586530	0.01987890	0.00559472	0.00798383	0.00396967	0.00277205
1.89000000	0.00907788	0.00794612	0.00709431	0.00611076	0.00650596	0.01212805	0.05205487	0.03661180	0.03956665	0.02154097	0.00815998	0.01194476	0.02324186	0.00838911	0.00478259	0.00452022	0.00111487	0.00980942	0.00775097	0.00500611	0.00668435	0.00602375	0.02017125	0.00582653	0.00789855	0.00316850	0.00275169
1.90000000	0.00904848	0.00829487	0.00699926	0.00620289	0.00649237	0.01325273	0.05374999	0.03756044	0.03967450	0.02180679	0.00763090	0.01135063	0.02311641	0.00859611	0.00481642	0.00441837	0.00107234	0.00990223	0.00766196	0.00496998	0.00678306	0.00599635	0.02030790	0.00601552	0.00779091	0.00254703	0.00271889
1.91000000	0.00926598	0.00855340	0.00702825	0.00658319	0.00667817	0.01435236	0.05543058	0.03814435	0.03984181	0.02205055	0.00696103	0.01079416	0.02305956	0.00863897	0.00462059	0.00392088	0.00154218	0.00996386	0.00771150	0.00483729	0.00696996	0.00587809	0.02047641	0.00622576	0.00754689	0.00210652	0.00258651
1.92000000	0.00877467	0.00869873	0.00666941	0.00637112	0.00636901	0.01529549	0.05688379	0.03929084	0.03967730	0.02237076	0.00713022	0.01040664	0.02269836	0.00908735	0.00478349	0.00411142	0.00095330	0.01010087	0.00744693	0.00492594	0.00706341	0.00606986	0.02063901	0.00663960	0.00757200	0.00130352	0.00273151
1.93000000	0.00913587	0.00890411	0.00666040	0.00669365	0.00649627	0.01605634	0.05837081	0.03999277	0.03983015	0.02229415	0.00684525	0.00993364	0.02257655	0.00920165	0.00464701	0.00377827	0.00124552	0.01012521	0.00737326	0.00480943	0.00728345	0.00602191	0.02084485	0.00696587	0.00742015	0.00081151	0.00272447
1.94000000	0.00936918	0.00901636	0.00659351	0.00691729	0.00654518	0.01663265	0.05965774	0.04098229	0.03982241	0.02246081	0.00665237	0.00953187	0.02248342	0.00928219	0.00450524	0.00345493	0.00127958	0.01028873	0.00729443	0.00476143	0.00740410	0.00601720	0.02091581	0.00752514	0.00726698	0.00016077	0.00276946
1.95000000	0.00920191	0.00906995	0.00641066	0.00673731	0.00634347	0.01718909	0.06081174	0.04208993	0.03969267	0.02262594	0.00649777	0.00906680	0.02219161	0.00969194	0.00470540	0.00365417	0.00120303	0.01042315	0.00709497	0.00475511	0.00754534	0.00606035	0.02108457	0.00808109	0.00717126	0.00052265	0.00272453
1.96000000	0.00931936	0.00902282	0.00626758	0.00691644	0.00631864	0.01773118	0.06173502	0.04307196	0.03960351	0.02274037	0.00651511	0.00881876	0.02214260	0.00952988	0.00444626	0.00336146	0.00098700	0.01055284	0.00686082	0.00476891	0.00768763	0.00615682	0.02122222	0.00855885	0.00711111	0.00129925	0.00289764
1.97000000	0.00903451	0.00900517	0.00609482	0.00669738	0.00610908	0.01821092	0.06240207	0.04410603	0.03950700	0.02280434	0.00655229	0.00828796	0.02194119	0.00966468	0.00458258	0.00359211	0.00098213	0.01068119	0.00672155	0.00475147	0.00780163	0.00619335	0.02136887	0.00919073	0.00700040	0.00185767	0.00274700
1.98000000	0.00846736	0.00879317	0.00590908	0.00662786	0.00595098	0.01888955	0.06274839	0.04507702	0.03932228	0.02305229	0.00676952	0.00782503	0.02192796	0.00943020	0.00445925	0.00354841	0.00084908	0.01077788	0.00642410	0.00481042	0.00789297	0.00633541	0.02149664	0.00970941	0.00696382	0.00257423	0.00271964
1.99000000	0.00868728	0.00868969	0.00584725	0.00676933	0.00595169	0.01913278	0.06302216	0.04565780	0.03935139	0.02307008	0.00682394	0.00766495	0.02185994	0.00909359	0.00421664	0.00344615	0.00064487	0.01085429	0.00627736	0.00478007	0.00798972	0.00634582	0.02155937	0.01014993	0.00685412	0.00334829	0.00272930
2.00000000	0.00867446	0.00863756	0.00578967	0.00682179	0.00592678	0.01937284	0.06317831	0.04604244	0.03937457	0.02311346	0.00691868	0.00747233	0.02178198	0.00877520	0.00407425	0.00337437	0.00060901	0.01095399	0.00616622	0.00474666	0.00808000	0.00632651	0.02160958	0.01063732	0.00670761	0.00388403	0.00262719
2.01000000	0.00823865	0.00871056	0.00585108	0.00686201	0.00600056	0.01977109	0.06302090	0.04651684	0.03927277	0.02340894	0.00699607	0.00673043	0.02169633	0.00849724	0.00423486	0.00352055	0.00065988	0.01091975	0.00604990	0.00464588	0.00816735	0.00625227	0.02166026	0.01107798	0.00652533	0.00444048	0.00217418
2.02000000	0.00825083	0.00866698	0.00588201	0.00698109	0.00604878	0.02003905	0.06301052	0.04662830	0.03924177	0.02351361	0.00696677	0.00663874	0.02150991	0.00833980	0.00418007	0.00382836	0.00033335	0.01094656	0.00594922	0.00465226	0.00821518	0.00620639	0.02158513	0.01114853	0.00646452	0.00555765	0.00228213
2.03000000	0.00815296	0.00863229	0.00582635	0.00709454	0.00609428	0.02015487	0.06259370	0.04688072	0.03952356	0.02346113	0.00714597	0.00660651	0.02138720	0.00793341	0.00404709	0.00358665	0.00049412	0.01080721	0.00588940	0.00449519	0.00833317	0.00614843	0.02171854	0.01170314	0.00612642	0.00562530	0.00164501
2.04000000	0.00822796	0.00879756	0.00597197	0.00729121	0.00627395	0.02033918	0.06214463	0.04705328	0.03953026	0.02366972	0.00726913	0.00646107	0.02123340	0.00771101	0.00402089	0.00343297	0.00043796	0.01070805	0.00577157	0.00446016	0.00835705	0.00608638	0.02163886	0.01191953	0.00598083	0.00617988	0.00141037
2.05000000	0.00857423	0.00895705	0.00614053	0.00768619	0.00656318	0.02034023	0.06179619	0.04695837	0.03965307	0.02357786	0.00733327	0.00621216	0.02108985	0.00743363	0.00400976	0.00330197	0.00060398	0.01058425	0.00572947	0.00436352	0.00842252	0.00599893	0.02156973	0.01205314	0.00574386	0.00665236	0.00100867
2.06000000	0.00851615	0.00892240	0.00618876	0.00778891	0.00664811	0.02032178	0.06125995	0.04705135	0.03972564	0.02360515	0.00746742	0.00619382	0.02094727	0.00726668	0.00397688	0.00328674	0.00057299	0.01044580	0.00566747	0.00434815	0.00841294	0.00594047	0.02144842	0.01217226	0.00557930	0.00721556	0.00082640
2.07000000	0.00901387	0.00920739	0.00630876	0.00807418	0.00686883	0.02017305	0.06049944	0.04704120	0.03972907	0.02360814	0.00764790	0.00616792	0.02074701	0.00710579	0.00398978	0.00323070	0.00062083	0.01025461	0.00565446	0.00425065	0.00850972	0.00587935	0.02145726	0.01221406	0.00525760	0.00762164	0.00042718
2.08000000	0.00931035	0.00931909	0.00636656	0.00831792	0.00703727	0.02005878	0.05977226	0.04676478	0.03984326	0.02332229	0.00779154	0.00635495	0.02054677	0.00697769	0.00400668	0.00308282	0.00077621	0.01006324	0.00565693	0.00415874	0.00855018	0.00587227	0.02141690	0.01241597	0.00490186	0.00785497	0.00012704
2.09000000	0.01005946	0.00953621	0.00666022	0.00879500	0.00743371	0.01993571	0.05884280	0.04624894	0.03984257	0.02312750	0.00778907	0.00638300	0.02055244	0.00668839	0.00387886	0.00309817	0.00081546	0.00988747	0.00571354	0.00413529	0.00857954	0.00571712	0.02120587	0.01207583	0.00474314	0.00844636	0.00011675
2.10000000	0.00985013	0.00929793	0.00650395	0.00849634	0.00723327	0.01997586	0.05763251	0.04608861	0.03968536	0.02299810	0.00810804	0.00635549	0.02055966	0.00661197	0.00398383	0.00361033	0.00059398	0.00994145	0.00576661	0.00417120	0.00852671	0.00561315	0.02102135	0.01185019	0.00455489	0.00922594	0.00058418
2.11000000	0.01087483	0.00968480	0.00685082	0.00920481	0.00777324	0.02009901	0.05609131	0.04481347	0.03977510	0.02269120	0.00774155	0.00681651	0.02041019	0.00650200	0.00390325	0.00312466	0.00100400	0.00952258	0.00584629	0.00404603	0.00867985	0.00561459	0.02104757	0.01176149	0.00412155	0.00915532	0.00081248
2.12000000	0.01088703	0.00934737	0.00668431	0.00884305	0.00754402	0.02002641	0.05427686	0.04418227	0.03976311	0.02214887	0.00833130	0.00676066	0.02061075	0.00628963	0.00389023	0.00371124	0.00078427	0.00973980	0.00605679	0.00412113	0.00853793	0.00542459	0.02070900	0.01161434	0.00402455	0.00981761	0.00101212
2.13000000	0.01172738	0.00972173	0.00701184	0.00949231	0.00803734	0.02028504	0.05218813	0.04199300	0.03964131	0.02205022	0.00804772	0.00740987	0.02043211	0.00635787	0.00378713	0.00303160	0.00108509	0.00926818	0.00612005	0.00405022	0.00869932	0.00553000	0.02079366	0.01142825	0.00357731	0.00970764	0.00147354
2.14000000	0.01216177	0.00972232	0.00712680	0.00956941	0.00815875	0.02021489	0.04972557	0.04000009	0.03964526	0.02175246	0.00809280	0.00762203	0.02048962	0.00632331	0.00376237	0.00306103	0.00111236	0.00919583	0.00634190	0.00408317	0.00867197	0.00544934	0.02059369	0.01131317	0.00334242	0.00987654	0.00182696
2.15000000	0.01237584	0.00963723	0.00705673	0.00948544	0.00810500	0.02011295	0.04721802	0.03745293	0.03964533	0.02140961	0.00832042	0.00779767	0.02055184	0.00629931	0.00371491	0.00296574	0.00121908	0.00909680	0.00652146	0.00409918	0.00871317	0.00546555	0.02056665	0.01108803	0.00308247	0.01003862	0.00224477
2.16000000	0.01270389	0.00960055	0.00702191	0.00929755	0.00802155	0.01983348	0.04450182	0.03464283	0.03965428	0.02116283	0.00845106	0.00786763	0.02065699	0.00624873	0.00371425	0.00291329	0.00128906	0.00906651	0.00674702	0.00413219	0.00870755	0.00543866	0.02046319	0.01091186	0.00290118	0.01016346	0.00261660
2.17000000	0.01279668	0.00957685	0.00683476	0.00905139	0.00782654	0.01963367	0.04179749	0.03165472	0.03966479	0.02074543	0.00909131	0.00789043	0.02077418	0.00611143	0.00364840	0.00288306	0.00137223	0.00900782	0.00691857	0.00416616	0.00873953	0.00554132	0.02047151	0.01069219	0.00270708	0.01022004	0.00302273
2.18000000	0.01299826	0.00958506	0.00666190	0.00877436	0.00762688	0.01952347	0.03909710	0.02874801	0.03960702	0.02045646	0.00973000	0.00800516	0.02088213	0.00598879	0.00362876	0.00271448	0.00136389	0.00905497	0.00717848	0.00424428	0.00870476	0.00556558	0.02036420	0.01053256	0.00269548	0.01030856	0.00325728
2.19000000	0.01299827	0.00960513	0.00626189	0.00828248	0.00720566	0.02006889	0.03674755	0.02602901	0.03945793	0.02012870	0.01066665	0.00803323	0.02100922	0.00580731	0.00361584	0.00261812	0.00140538	0.00908586	0.00733665	0.00432083	0.00866808	0.00571430	0.02033447	0.01042337	0.00269500	0.01033556	0.00346740
2.20000000	0.01285458	0.00961234	0.00563595	0.00761416	0.00658040	0.02165721	0.03489958	0.02358585	0.03914064	0.01984760	0.01212559	0.00802628	0.02113998	0.00560809	0.00358248	0.00243316	0.00150832	0.00915495	0.00740971	0.00439155	0.00861078	0.00595292	0.02036426	0.01045125	0.00265744	0.01028624	0.00366949
2.21000000	0.01310879	0.00950609	0.00493808	0.00676457	0.00582446	0.02425218	0.03354280	0.02136551	0.03903474	0.01981116	0.01327019	0.00795889	0.02127421	0.00555101	0.00371887	0.00244678	0.00156900	0.00929145	0.00750534	0.00446690	0.00851650	0.00620341	0.02033511	0.01041885	0.00258802	0.01039274	0.00385810
2.22000000	0.01308562	0.00938327	0.00418135	0.00600163	0.00506357	0.02734071	0.03272393	0.01955967	0.03838142	0.02019787	0.01442099	0.00807779	0.02148181	0.00527338	0.00356819	0.00217120	0.00163656	0.00926835	0.00729018	0.00457838	0.00841350	0.00655427	0.02043204	0.01038380	0.00280081	0.01043932	0.00383327
2.23000000	0.01360479	0.00949999	0.00370505	0.00542471	0.00451310	0.03028782	0.03205123	0.01823395	0.03818556	0.02029817	0.01543665	0.00810946	0.02159470	0.00519486	0.00365178	0.00237187	0.00164407	0.00937370	0.00738743	0.00471915	0.00832575	0.00684451	0.02033243	0.01038439	0.00276346	0.01047787	0.00396258
2.24000000	0.01406635	0.00944431	0.00341157	0.00492860	0.00406170	0.03266472	0.03181672	0.01729803	0.03750463	0.02109450	0.01613423	0.00821411	0.02160188	0.00528198	0.00380476	0.00235877	0.00168857	0.00943738	0.00723468	0.00479940	0.00820987	0.00717157	0.02033784	0.01042059	0.00285144	0.01056069	0.00408597
2.25000000	0.01391665	0.00947516	0.00348737	0.00486495	0.00402050	0.03415599	0.03167943	0.01677537	0.03668814	0.02213702	0.01655087	0.00837715	0.02155434	0.00530674	0.00383547	0.00227138	0.00171939	0.00925455	0.00693573	0.00486394	0.00813011	0.00748212	0.02037980	0.01042266	0.00337268	0.01055550	0.00393755
2.26000000	0.01447174	0.00934427	0.00362237	0.00479500	0.00397832	0.03384025	0.03137673	0.01718152	0.03630654	0.02245494	0.01662328	0.00856791	0.02159756	0.00540762	0.00393272	0.00234873	0.00169450	0.00928179	0.00695886	0.00500992	0.00802505	0.00765936	0.02021770	0.01042962	0.00320029	0.01076485	0.00441308
2.27000000	0.01335087	0.00939810	0.00377948	0.00497692	0.00414917	0.03285563	0.03115906	0.01770078	0.03573253	0.02379499	0.01585566	0.00860814	0.02133659	0.00552868	0.00401502	0.00233866	0.00177489	0.00919603	0.00673273	0.00486597	0.00795851	0.00780101	0.02018141	0.01069525	0.00384791	0.01065038	0.00418858
2.28000000	0.01254098	0.00933751	0.00395996	0.00523402	0.00437148	0.03055621	0.03075008	0.01892353	0.03532416	0.02458625	0.01534214	0.00869343	0.02119713	0.00561185	0.00410799	0.00247517	0.00170427	0.00909112	0.00671531	0.00483330	0.00791246	0.00781514	0.01997831	0.01075084	0.00410087	0.01075114	0.00432634
2.29000000	0.01257455	0.00874806	0.00402991	0.00525204	0.00442573	0.02729299	0.03018146	0.02070473	0.03473813	0.02538051	0.01509668	0.00879233	0.02119638	0.00585886	0.00439247	0.00248284	0.00153909	0.00919241	0.00701403	0.00496646	0.00779871	0.00768237	0.01950395	0.01067386	0.00408956	0.01128538	0.00482791
2.30000000	0.01034417	0.00862251	0.00408798	0.00562083	0.00468641	0.02480462	0.02963445	0.02214414	0.03491109	0.02580473	0.01420904	0.00883442	0.02100976	0.00572488	0.00435483	0.00246821	0.00150670	0.00888602	0.00674772	0.00460163	0.00790088	0.00761172	0.01960718	0.01085025	0.00469681	0.01110832	0.00461312
2.31000000	0.00976218	0.00829545	0.00427649	0.00582698	0.00490200	0.02199007	0.02907386	0.02368347	0.03502767	0.02572279	0.01378945	0.00863473	0.02110984	0.00566951	0.00457397	0.00273800	0.00142084	0.00894640	0.00705827	0.00454807	0.00790905	0.00739168	0.01922656	0.01083879	0.00469252	0.01147894	0.00507134
2.32000000	0.00851492	0.00805831	0.00444852	0.00614161	0.00517082	0.01982089	0.02880705	0.02448108	0.03507343	0.02602649	0.01361872	0.00864441	0.02113900	0.00562022	0.00473964	0.00270455	0.00134382	0.00864561	0.00698700	0.00439313	0.00797452	0.00725371	0.01917391	0.01100077	0.00534348	0.01165022	0.00496925
2.33000000	0.00783419	0.00786218	0.00466334	0.00633453	0.00538359	0.01806633	0.02856818	0.02496168	0.03540895	0.02578384	0.01344740	0.00837329	0.02143214	0.00558219	0.00489628	0.00276018	0.00135429	0.00863259	0.00716241	0.00428604	0.00803676	0.00705908	0.01899839	0.01110441	0.00559789	0.01202564	0.00529592
2.34000000	0.00753679	0.00795860	0.00505261	0.00650643	0.00565808	0.01671649	0.02829196	0.02518913	0.03593750	0.02514857	0.01331576	0.00792375	0.02189665	0.00572730	0.00501239	0.00245375	0.00184578	0.00881505	0.00768942	0.00428396	0.00817869	0.00684758	0.01872972	0.01104749	0.00556952	0.01250309	0.00601563
2.35000000	0.00694142	0.00802102	0.00532410	0.00675428	0.00590801	0.01570663	0.02847100	0.02467847	0.03618757	0.02509113	0.01325886	0.00752842	0.02247818	0.00619574	0.00517699	0.00292665	0.00181756	0.00860022	0.00754922	0.00417428	0.00822478	0.00671996	0.01874235	0.01138026	0.00633833	0.01282184	0.00590636
2.36000000	0.00658566	0.00824252	0.00562776	0.00690898	0.00611801	0.01506202	0.02851730	0.02430978	0.03659230	0.02465782	0.01323893	0.00697910	0.02323164	0.00708207	0.00522370	0.00311872	0.00220894	0.00870000	0.00776066	0.00410476	0.00833603	0.00656527	0.01869711	0.01162366	0.00668691	0.01324910	0.00629742
2.37000000	0.00635804	0.00876405	0.00606670	0.00719066	0.00644652	0.01447535	0.02875232	0.02381237	0.03688916	0.02433498	0.01339605	0.00636339	0.02404968	0.00838718	0.00530306	0.00366856	0.00260156	0.00880507	0.00802261	0.00414034	0.00846789	0.00638504	0.01862346	0.01182979	0.00713912	0.01364042	0.00661506
2.38000000	0.00610345	0.00928553	0.00650596	0.00742280	0.00674750	0.01416505	0.02901577	0.02359019	0.03721366	0.02394744	0.01338487	0.00582058	0.02499122	0.01004322	0.00535509	0.00427659	0.00306847	0.00896890	0.00829387	0.00418635	0.00861843	0.00626403	0.01859372	0.01205995	0.00757394	0.01401374	0.00693656
2.39000000	0.00595357	0.00986852	0.00692839	0.00772391	0.00705976	0.01378998	0.02924845	0.02372226	0.03743291	0.02366922	0.01350783	0.00582243	0.02584118	0.01216901	0.00538904	0.00501590	0.00304839	0.00916679	0.00848261	0.00420350	0.00873893	0.00612091	0.01857036	0.01243133	0.00804093	0.01432282	0.00718848
2.40000000	0.00572576	0.01051745	0.00736883	0.00775264	0.00724901	0.01355128	0.02969831	0.02388377	0.03754446	0.02344947	0.01364284	0.00617514	0.02652475	0.01474691	0.00539258	0.00566278	0.00260108	0.00948250	0.00871655	0.00427350	0.00888580	0.00609696	0.01863021	0.01276745	0.00829994	0.01467112	0.00759965
2.41000000	0.00561533	0.01120133	0.00786420	0.00795918	0.00755029	0.01320022	0.03009874	0.02424654	0.03769442	0.02324049	0.01366350	0.00727149	0.02724735	0.01707159	0.00559609	0.00608052	0.00194421	0.00978808	0.00894368	0.00431564	0.00904371	0.00599822	0.01864416	0.01308282	0.00867071	0.01491053	0.00781331
2.42000000	0.00564210	0.01152168	0.00824647	0.00831796	0.00787740	0.01275254	0.03047910	0.02475297	0.03783008	0.02315856	0.01350980	0.00915602	0.02814908	0.01908032	0.00600808	0.00625953	0.00122922	0.01005886	0.00910426	0.00430601	0.00917333	0.00584318	0.01857833	0.01344852	0.00904443	0.01499648	0.00793720
2.43000000	0.00578230	0.01188356	0.00868799	0.00854889	0.00820445	0.01246715	0.03097257	0.02498190	0.03786068	0.02308306	0.01334501	0.01154743	0.02910655	0.02073020	0.00656804	0.00610587	0.00162851	0.01038930	0.00933752	0.00433239	0.00933640	0.00568548	0.01851052	0.01367054	0.00926363	0.01506957	0.00814511
2.44000000	0.00549959	0.01201611	0.00886547	0.00829548	0.00811009	0.01155785	0.03109760	0.02548418	0.03791714	0.02292016	0.01340181	0.01283937	0.02921816	0.02354006	0.00700969	0.00655571	0.00200626	0.01083226	0.00945339	0.00446543	0.00939342	0.00575205	0.01844237	0.01418817	0.00948829	0.01513990	0.00831572
2.45000000	0.00540760	0.01219949	0.00916811	0.00815350	0.00816155	0.01087470	0.03116760	0.02570249	0.03803958	0.02284194	0.01310056	0.01473238	0.02971916	0.02537754	0.00764112	0.00660957	0.00304865	0.01125571	0.00960029	0.00443412	0.00947736	0.00573453	0.01837258	0.01458721	0.00971769	0.01510886	0.00835966
2.46000000	0.00572059	0.01245633	0.00960719	0.00837271	0.00850557	0.01046123	0.03126894	0.02557586	0.03800657	0.02304590	0.01264982	0.01684973	0.03069901	0.02645707	0.00836472	0.00630194	0.00390755	0.01152659	0.00971692	0.00441444	0.00956566	0.00557925	0.01816623	0.01481212	0.00994073	0.01486656	0.00837538
2.47000000	0.00561106	0.01201411	0.00960046	0.00818289	0.00837578	0.00958041	0.03099320	0.02580699	0.03816599	0.02305075	0.01229516	0.01815609	0.03146007	0.02837447	0.00856364	0.00676604	0.00480297	0.01198897	0.00979908	0.00449678	0.00955251	0.00555775	0.01792314	0.01517000	0.01022061	0.01460802	0.00826401
2.48000000	0.00521813	0.01159715	0.00955028	0.00760183	0.00804022	0.00901637	0.03079964	0.02584717	0.03829948	0.02288427	0.01213988	0.01933761	0.03198134	0.03046105	0.00876112	0.00724834	0.00523127	0.01241848	0.00980945	0.00456173	0.00950865	0.00570488	0.01777518	0.01555258	0.01022429	0.01431256	0.00840589
2.49000000	0.00533028	0.01284446	0.01020623	0.00763084	0.00829751	0.00885363	0.03049364	0.02561921	0.03823277	0.02260184	0.01295479	0.02075506	0.03269403	0.03114823	0.00941673	0.00706523	0.00512403	0.01287388	0.01008922	0.00452389	0.00951899	0.00590865	0.01767431	0.01603270	0.01000633	0.01356940	0.00853549
2.50000000	0.00512823	0.01106886	0.00960923	0.00690729	0.00769734	0.00841079	0.03029004	0.02553731	0.03833701	0.02309245	0.01184637	0.02149648	0.03335094	0.03326755	0.00913039	0.00785072	0.00569053	0.01323555	0.00991867	0.00463360	0.00929312	0.00584406	0.01726436	0.01601331	0.01035675	0.01339100	0.00813284
2.51000000	0.00524877	0.01141708	0.00982495	0.00665974	0.00766438	0.00852221	0.03017291	0.02503068	0.03816922	0.02320058	0.01233375	0.02246389	0.03394472	0.03369008	0.00949125	0.00781162	0.00556450	0.01350360	0.00992579	0.00462249	0.00918908	0.00592697	0.01709262	0.01620074	0.01031379	0.01261507	0.00795930
2.52000000	0.00486371	0.01003761	0.00941418	0.00606536	0.00716379	0.00800481	0.02984190	0.02500620	0.03840296	0.02314840	0.01191448	0.02331747	0.03420838	0.03428245	0.00932037	0.00811058	0.00589100	0.01382451	0.00988750	0.00473981	0.00897278	0.00602217	0.01681886	0.01607345	0.01030648	0.01199531	0.00768341
2.53000000	0.00494104	0.01008126	0.00946623	0.00585975	0.00705942	0.00825754	0.02962601	0.02450085	0.03810561	0.02344130	0.01265365	0.02414284	0.03439828	0.03346023	0.00966804	0.00793377	0.00573679	0.01395703	0.00973985	0.00463135	0.00875649	0.00605928	0.01665054	0.01617441	0.01024454	0.01101329	0.00735991
2.54000000	0.00480637	0.00872782	0.00918015	0.00560175	0.00681658	0.00778409	0.02918008	0.02438478	0.03828379	0.02340874	0.01230414	0.02495840	0.03431795	0.03259615	0.00953753	0.00794541	0.00600034	0.01400460	0.00966166	0.00471578	0.00850426	0.00606715	0.01634091	0.01566717	0.01017068	0.01021086	0.00704000
2.55000000	0.00485723	0.00843035	0.00905947	0.00546341	0.00664047	0.00803817	0.02889624	0.02385030	0.03796649	0.02372531	0.01319022	0.02572909	0.03408501	0.03074797	0.00990018	0.00763813	0.00572862	0.01404460	0.00944843	0.00458019	0.00818563	0.00611005	0.01616882	0.01565094	0.01019406	0.00909890	0.00651212
2.56000000	0.00493733	0.00742440	0.00895999	0.00551820	0.00666829	0.00775593	0.02826711	0.02359806	0.03807870	0.02381912	0.01284403	0.02633168	0.03375753	0.02903457	0.00979423	0.00749758	0.00590710	0.01383785	0.00939157	0.00466514	0.00795581	0.00611125	0.01588649	0.01479066	0.01001260	0.00811165	0.00631732
2.57000000	0.00514800	0.00687425	0.00883402	0.00552662	0.00661748	0.00808291	0.02773249	0.02309954	0.03795633	0.02407325	0.01334156	0.02679453	0.03336152	0.02704051	0.00989735	0.00723337	0.00587163	0.01365642	0.00926383	0.00465688	0.00764415	0.00616363	0.01565977	0.01426858	0.00994755	0.00693110	0.00594038
2.58000000	0.00521699	0.00644752	0.00878677	0.00569750	0.00668908	0.00834905	0.02706028	0.02267703	0.03785521	0.02437397	0.01355065	0.02705924	0.03287485	0.02532985	0.00992681	0.00692427	0.00566819	0.01339130	0.00914789	0.00468835	0.00737643	0.00623732	0.01545740	0.01344076	0.00984054	0.00589596	0.00565377
2.59000000	0.00541211	0.00605120	0.00865507	0.00579566	0.00668883	0.00878411	0.02640112	0.02214171	0.03771469	0.02473195	0.01396025	0.02718763	0.03230299	0.02388305	0.00987854	0.00667856	0.00566136	0.01308331	0.00898244	0.00468421	0.00705583	0.00635227	0.01524556	0.01271549	0.00977731	0.00481829	0.00530282
2.60000000	0.00556794	0.00592301	0.00861279	0.00599448	0.00677462	0.00929648	0.02569617	0.02160955	0.03755870	0.02510243	0.01432923	0.02710753	0.03166949	0.02280505	0.00976931	0.00638284	0.00552239	0.01270958	0.00884211	0.00467299	0.00677528	0.00649949	0.01506795	0.01190937	0.00970452	0.00375360	0.00493803
2.61000000	0.00584658	0.00575130	0.00841826	0.00602336	0.00670063	0.01000392	0.02497723	0.02101055	0.03741634	0.02552828	0.01485161	0.02694822	0.03096791	0.02199543	0.00965628	0.00609797	0.00549153	0.01236607	0.00873019	0.00471538	0.00646583	0.00665101	0.01487436	0.01114566	0.00969298	0.00275527	0.00446201
2.62000000	0.00616382	0.00590480	0.00844543	0.00625652	0.00683512	0.01093073	0.02427494	0.02044127	0.03727976	0.02586523	0.01530337	0.02654968	0.03024475	0.02139145	0.00953396	0.00573587	0.00524886	0.01191557	0.00865708	0.00472218	0.00624281	0.00682832	0.01471849	0.01027011	0.00963091	0.00178632	0.00401142
2.63000000	0.00644616	0.00586196	0.00813222	0.00620184	0.00665410	0.01171194	0.02354248	0.01984966	0.03711483	0.02639498	0.01596497	0.02641290	0.02929148	0.02093202	0.00924918	0.00551297	0.00536324	0.01155659	0.00851309	0.00476587	0.00591036	0.00700976	0.01449056	0.00964231	0.00965789	0.00086001	0.00339874
2.64000000	0.00678334	0.00604999	0.00802756	0.00630232	0.00665751	0.01261226	0.02297570	0.01921484	0.03699641	0.02682136	0.01651638	0.02612440	0.02829480	0.02044833	0.00905777	0.00518704	0.00520106	0.01110398	0.00848156	0.00477134	0.00572652	0.00717392	0.01432101	0.00885039	0.00961030	0.00026398	0.00286202
2.65000000	0.00732833	0.00638321	0.00835383	0.00671049	0.00701567	0.01389852	0.02255677	0.01848709	0.03694431	0.02699282	0.01712812	0.02553564	0.02744801	0.01940163	0.00895541	0.00485274	0.00492644	0.01054537	0.00851762	0.00468752	0.00565691	0.00729595	0.01417491	0.00800428	0.00957472	0.00089758	0.00214854
2.66000000	0.00765109	0.00659172	0.00812046	0.00674000	0.00693543	0.01468526	0.02210753	0.01796106	0.03693377	0.02737404	0.01758215	0.02540282	0.02622425	0.01863954	0.00875740	0.00461691	0.00478985	0.01008092	0.00848591	0.00469599	0.00549472	0.00741478	0.01391979	0.00734046	0.00965004	0.00168502	0.00145435
2.67000000	0.00766661	0.00693787	0.00772138	0.00669451	0.00676306	0.01579819	0.02154483	0.01786657	0.03690879	0.02760639	0.01814807	0.02562678	0.02492310	0.01766392	0.00847064	0.00414629	0.00484217	0.00957098	0.00827929	0.00479853	0.00519318	0.00767653	0.01349544	0.00687048	0.00991738	0.00265477	0.00060173
2.68000000	0.00828417	0.00699842	0.00824561	0.00711394	0.00719953	0.01677907	0.02145697	0.01688582	0.03681231	0.02802536	0.01884049	0.02496710	0.02419564	0.01534979	0.00848541	0.00418830	0.00441325	0.00906626	0.00864270	0.00455280	0.00536237	0.00752021	0.01338271	0.00628166	0.00971420	0.00308157	0.00011492
2.69000000	0.00845249	0.00730571	0.00819656	0.00725024	0.00727404	0.01766043	0.02121884	0.01651582	0.03686737	0.02831271	0.01922784	0.02495724	0.02321924	0.01346046	0.00833561	0.00415264	0.00420362	0.00858732	0.00871810	0.00447608	0.00534996	0.00753263	0.01306353	0.00588443	0.00983293	0.00369302	0.00050089
2.70000000	0.00860450	0.00782857	0.00814370	0.00744142	0.00736842	0.01834568	0.02102195	0.01618857	0.03693695	0.02849788	0.01975409	0.02511255	0.02232260	0.01138834	0.00826512	0.00421007	0.00393502	0.00810745	0.00879424	0.00442200	0.00531943	0.00755970	0.01269620	0.00563758	0.00994168	0.00432374	0.00110466
2.71000000	0.00841114	0.00840752	0.00777304	0.00734372	0.00718536	0.01893255	0.02075396	0.01617365	0.03700516	0.02863124	0.02015811	0.02588319	0.02133611	0.00978308	0.00810647	0.00415730	0.00398050	0.00768242	0.00870374	0.00450070	0.00521615	0.00770910	0.01230113	0.00543416	0.01024590	0.00499638	0.00173502
2.72000000	0.00853731	0.00836917	0.00805581	0.00758420	0.00743804	0.01955454	0.02081833	0.01556300	0.03705836	0.02897466	0.02051115	0.02614948	0.02095425	0.00765825	0.00808605	0.00456636	0.00347610	0.00739833	0.00903351	0.00432097	0.00537600	0.00749387	0.01203365	0.00557338	0.01019254	0.00528046	0.00182518
2.73000000	0.00851852	0.00906196	0.00797372	0.00771838	0.00749141	0.01991687	0.02059107	0.01551679	0.03717734	0.02900126	0.02088099	0.02675284	0.02057556	0.00620042	0.00805512	0.00504188	0.00317584	0.00708107	0.00918079	0.00426430	0.00543934	0.00742755	0.01169207	0.00562633	0.01027591	0.00574778	0.00220020
2.74000000	0.00833630	0.00933833	0.00781849	0.00763845	0.00739185	0.02015861	0.02049855	0.01542324	0.03729771	0.02905801	0.02106924	0.02767210	0.02026486	0.00533158	0.00791079	0.00530692	0.00292803	0.00688521	0.00928648	0.00425721	0.00551684	0.00741007	0.01146305	0.00582769	0.01042853	0.00607753	0.00244183
2.75000000	0.00828364	0.00979534	0.00777193	0.00770923	0.00741253	0.02033575	0.02035351	0.01537641	0.03740598	0.02903608	0.02133683	0.02815408	0.02013240	0.00495476	0.00785616	0.00574659	0.00277466	0.00681122	0.00950580	0.00424744	0.00559779	0.00725134	0.01116729	0.00596739	0.01043254	0.00644683	0.00270151
2.76000000	0.00798170	0.01007576	0.00750275	0.00750608	0.00718477	0.02023860	0.02024009	0.01540048	0.03752992	0.02899295	0.02151537	0.02888205	0.02005356	0.00472181	0.00761958	0.00581924	0.00258570	0.00688930	0.00958629	0.00435353	0.00563763	0.00723578	0.01097506	0.00624408	0.01054866	0.00664398	0.00294441
2.77000000	0.00785025	0.01016944	0.00748013	0.00748005	0.00715467	0.02017298	0.02024555	0.01528702	0.03759678	0.02902020	0.02159658	0.02892082	0.02006353	0.00493942	0.00753218	0.00617136	0.00245647	0.00702911	0.00977802	0.00436128	0.00576314	0.00709383	0.01085188	0.00641976	0.01055762	0.00688902	0.00305728
2.78000000	0.00760848	0.01034316	0.00707413	0.00707408	0.00675951	0.01995907	0.02021112	0.01539757	0.03770302	0.02879458	0.02179204	0.02913004	0.02013765	0.00483653	0.00726245	0.00606920	0.00230718	0.00715074	0.00983080	0.00462998	0.00575660	0.00715535	0.01075016	0.00632388	0.01069367	0.00727973	0.00327610
2.79000000	0.00735992	0.01048265	0.00709466	0.00711271	0.00676910	0.01979849	0.02019487	0.01542436	0.03768530	0.02885181	0.02182078	0.02852813	0.02024735	0.00514524	0.00709336	0.00628466	0.00231940	0.00755421	0.00999798	0.00459866	0.00588581	0.00695896	0.01071805	0.00672839	0.01065321	0.00720390	0.00335335
2.80000000	0.00699633	0.01059350	0.00665424	0.00666220	0.00632227	0.01939251	0.02018535	0.01551837	0.03763082	0.02883201	0.02218952	0.02835354	0.02040140	0.00495571	0.00682541	0.00590113	0.00178861	0.00799593	0.00998174	0.00502974	0.00582878	0.00706502	0.01066114	0.00661665	0.01068748	0.00755891	0.00361443
2.81000000	0.00691924	0.01076555	0.00681787	0.00682047	0.00647838	0.01939554	0.02029618	0.01564107	0.03786910	0.02850655	0.02195737	0.02697847	0.02072621	0.00542221	0.00667575	0.00646344	0.00210209	0.00816973	0.01021091	0.00488909	0.00606509	0.00693242	0.01086878	0.00694460	0.01062333	0.00734392	0.00353619
2.82000000	0.00651436	0.01090366	0.00661389	0.00655257	0.00624796	0.01919144	0.02039894	0.01584906	0.03806212	0.02820126	0.02204215	0.02644210	0.02091241	0.00530160	0.00635877	0.00623672	0.00188669	0.00841297	0.01024191	0.00506731	0.00617426	0.00705925	0.01111624	0.00670567	0.01064210	0.00764421	0.00363656
2.83000000	0.00606741	0.01121211	0.00625540	0.00624484	0.00591944	0.01902568	0.02049079	0.01609447	0.03812232	0.02809285	0.02223906	0.02605364	0.02139373	0.00517752	0.00586283	0.00544197	0.00150112	0.00877678	0.01012996	0.00543522	0.00611018	0.00720232	0.01124286	0.00673320	0.01078184	0.00768260	0.00380653
2.84000000	0.00575696	0.01101715	0.00647417	0.00638041	0.00608032	0.01926572	0.02090557	0.01608127	0.03814241	0.02796128	0.02231922	0.02527880	0.02155473	0.00564939	0.00576592	0.00593319	0.00173305	0.00927670	0.01023717	0.00538054	0.00624547	0.00712371	0.01152319	0.00696891	0.01061159	0.00744978	0.00362161
2.85000000	0.00535925	0.01111870	0.00626857	0.00607574	0.00583814	0.01951010	0.02108221	0.01640383	0.03829227	0.02778814	0.02231662	0.02514989	0.02191807	0.00580576	0.00545249	0.00557692	0.00158484	0.00945788	0.01026146	0.00555810	0.00630466	0.00725573	0.01189011	0.00683041	0.01060984	0.00752794	0.00362118
2.86000000	0.00506812	0.01144893	0.00610210	0.00595621	0.00572144	0.01977710	0.02130831	0.01674907	0.03849673	0.02759391	0.02224948	0.02514313	0.02253122	0.00571823	0.00499034	0.00465993	0.00141254	0.00962054	0.01015199	0.00581622	0.00627547	0.00736295	0.01215071	0.00684347	0.01065712	0.00747706	0.00380179
2.87000000	0.00481004	0.01139695	0.00623719	0.00595038	0.00580014	0.01993336	0.02210617	0.01656188	0.03858674	0.02743087	0.02242425	0.02488903	0.02259785	0.00622090	0.00524454	0.00549863	0.00152813	0.00985461	0.01019365	0.00579968	0.00633012	0.00732135	0.01248864	0.00676358	0.01052392	0.00740611	0.00362758
2.88000000	0.00469938	0.01154018	0.00607934	0.00579802	0.00567664	0.02040074	0.02232865	0.01719336	0.03882465	0.02726925	0.02195818	0.02499006	0.02327344	0.00594629	0.00493828	0.00433898	0.00151437	0.00995387	0.01012391	0.00595395	0.00630648	0.00740322	0.01283709	0.00678697	0.01049049	0.00730716	0.00375607
2.89000000	0.00443502	0.01148801	0.00630510	0.00595554	0.00586917	0.02046270	0.02322449	0.01730481	0.03884576	0.02664960	0.02253605	0.02452022	0.02311796	0.00649238	0.00563231	0.00549484	0.00158232	0.01022218	0.01004294	0.00590616	0.00628446	0.00732129	0.01311006	0.00670438	0.01034066	0.00720079	0.00353849
2.90000000	0.00463392	0.01136196	0.00632509	0.00589936	0.00588314	0.02074149	0.02388697	0.01788938	0.03896063	0.02674202	0.02178334	0.02422302	0.02334900	0.00640008	0.00575172	0.00483167	0.00173699	0.01017579	0.01014841	0.00588541	0.00633083	0.00728348	0.01349670	0.00664832	0.01008604	0.00709842	0.00349765
2.91000000	0.00477392	0.01115051	0.00659292	0.00611577	0.00613354	0.02059077	0.02518074	0.01816068	0.03905939	0.02638555	0.02150960	0.02349675	0.02310292	0.00665167	0.00625812	0.00542115	0.00207399	0.01006984	0.01017112	0.00579929	0.00635448	0.00719956	0.01381890	0.00639233	0.00989147	0.00713477	0.00338590
2.92000000	0.00516618	0.01106377	0.00666567	0.00626021	0.00624279	0.02025355	0.02629528	0.01902794	0.03936210	0.02518339	0.02156820	0.02261533	0.02315456	0.00667993	0.00652654	0.00522792	0.00210624	0.01018997	0.01003667	0.00583187	0.00620550	0.00710213	0.01394669	0.00637575	0.00975364	0.00695149	0.00336002
2.93000000	0.00571783	0.01070891	0.00676548	0.00634063	0.00634295	0.01977811	0.02762720	0.01999439	0.03958016	0.02450652	0.02097050	0.02187520	0.02304894	0.00670727	0.00664713	0.00502771	0.00221200	0.01014066	0.01009200	0.00577011	0.00617884	0.00698754	0.01417243	0.00623402	0.00945026	0.00685712	0.00320401
2.94000000	0.00639524	0.00989391	0.00666808	0.00600698	0.00612804	0.01879057	0.02905192	0.02115306	0.03969761	0.02376156	0.02062100	0.02176490	0.02271578	0.00686082	0.00656390	0.00450862	0.00139368	0.01024990	0.01006342	0.00580012	0.00606103	0.00701729	0.01442396	0.00619518	0.00923644	0.00664723	0.00300145
2.95000000	0.00699707	0.00958928	0.00675120	0.00616696	0.00625983	0.01778389	0.03096971	0.02242603	0.03964851	0.02335523	0.01958731	0.02093132	0.02277945	0.00740211	0.00644891	0.00432733	0.00167186	0.01016189	0.01008253	0.00571582	0.00600880	0.00688669	0.01455795	0.00599677	0.00894588	0.00656370	0.00284022
