SUBJ82_2_JMP_03_lower_limb_body_marker_personalization_task_1_initialErrors.sto
version=1
nRows=155
nColumns=26
inDegrees=no
endheader
time	R_Asis	L_Asis	Sacral	R_Thigh_Lateral	R_Knee_Lateral	R_Shank_Lateral	R_Ankle_Lateral	R_Heel	R_Toe	L_Thigh_Lateral	L_Knee_Lateral	L_Shank_Lateral	L_Ankle_Lateral	L_Heel	L_Toe	R_Shoulder	L_Shoulder	C7	J_Notch	Thoracic	Sternum	R_Elbow	L_Elbow	R_Wrist	L_Wrist
0.00000000	0.00164152	0.00593008	0.00823393	0.00970201	0.00544505	0.01371954	0.00317006	0.00483415	0.00248450	0.00404674	0.00297452	0.00562943	0.00300295	0.00548027	0.00270397	0.01401458	0.01594026	0.02008120	0.01396027	0.01294733	0.02138417	0.01979836	0.01783025	0.01232482	0.01262673
0.01000000	0.00177507	0.00576701	0.00805070	0.00980341	0.00568505	0.01436963	0.00313848	0.00505240	0.00239435	0.00415073	0.00310239	0.00587100	0.00299935	0.00547565	0.00266111	0.01403540	0.01589760	0.01990491	0.01384731	0.01269257	0.02125532	0.01985617	0.01782270	0.01244069	0.01250561
0.02000000	0.00189736	0.00554937	0.00788670	0.00995865	0.00591672	0.01516697	0.00308247	0.00530751	0.00234347	0.00426812	0.00317850	0.00619970	0.00301393	0.00549696	0.00262438	0.01409774	0.01583941	0.01967329	0.01366055	0.01235902	0.02104708	0.01999684	0.01779474	0.01261372	0.01226838
0.03000000	0.00234084	0.00581699	0.00812127	0.01037772	0.00604741	0.01564997	0.00302375	0.00532844	0.00243744	0.00435441	0.00307668	0.00676930	0.00304459	0.00548914	0.00256934	0.01398313	0.01567373	0.01965469	0.01360726	0.01221208	0.02095835	0.01992116	0.01756705	0.01261200	0.01181123
0.04000000	0.00268245	0.00560983	0.00811665	0.01088210	0.00619032	0.01631430	0.00296454	0.00554193	0.00242629	0.00460482	0.00307933	0.00727320	0.00309250	0.00550098	0.00252984	0.01395040	0.01553666	0.01945259	0.01345894	0.01186973	0.02075568	0.01999530	0.01746790	0.01271760	0.01140791
0.05000000	0.00260829	0.00489724	0.00788714	0.01129042	0.00628293	0.01723147	0.00294076	0.00593875	0.00238301	0.00494938	0.00333306	0.00775411	0.00312427	0.00542271	0.00249491	0.01405676	0.01543411	0.01910024	0.01318144	0.01137245	0.02042450	0.02018682	0.01744962	0.01297649	0.01109038
0.06000000	0.00327018	0.00478755	0.00827935	0.01198193	0.00611083	0.01745791	0.00295056	0.00596823	0.00248866	0.00522416	0.00317905	0.00844195	0.00321118	0.00538456	0.00245954	0.01392268	0.01514450	0.01906291	0.01316598	0.01119761	0.02031801	0.02013086	0.01718174	0.01295708	0.01047812
0.07000000	0.00291634	0.00398166	0.00807767	0.01257104	0.00597395	0.01802646	0.00300644	0.00629361	0.00258873	0.00569299	0.00342611	0.00880026	0.00321871	0.00531903	0.00243004	0.01400111	0.01505845	0.01869157	0.01289483	0.01069391	0.01995578	0.02036116	0.01721075	0.01316645	0.01011890
0.08000000	0.00361742	0.00379475	0.00852920	0.01315668	0.00554068	0.01795663	0.00312594	0.00620915	0.00268377	0.00603301	0.00338143	0.00947490	0.00336093	0.00513939	0.00225580	0.01384175	0.01477837	0.01867091	0.01292388	0.01056815	0.01986230	0.02026619	0.01696549	0.01310155	0.00947613
0.09000000	0.00286340	0.00315722	0.00831628	0.01394153	0.00527204	0.01800008	0.00330915	0.00638073	0.00280034	0.00653701	0.00362061	0.00963151	0.00333333	0.00512951	0.00225557	0.01398173	0.01467391	0.01829062	0.01268757	0.01012503	0.01946753	0.02052890	0.01697631	0.01332156	0.00911141
0.10000000	0.00351124	0.00301733	0.00874874	0.01445854	0.00468034	0.01750579	0.00347625	0.00621028	0.00287189	0.00686289	0.00371619	0.01018345	0.00340803	0.00489252	0.00216924	0.01387589	0.01437497	0.01827773	0.01280053	0.01005398	0.01941776	0.02042066	0.01668702	0.01325692	0.00840352
0.11000000	0.00257195	0.00291649	0.00850214	0.01516140	0.00431988	0.01709748	0.00372868	0.00626099	0.00302389	0.00740955	0.00390738	0.01024333	0.00337679	0.00495824	0.00202330	0.01402122	0.01433096	0.01790465	0.01259511	0.00969230	0.01901625	0.02070144	0.01668435	0.01344870	0.00802403
0.12000000	0.00292764	0.00277672	0.00878279	0.01536729	0.00375799	0.01636010	0.00384881	0.00609818	0.00314483	0.00771780	0.00415120	0.01071877	0.00338046	0.00474027	0.00197733	0.01394193	0.01411129	0.01787080	0.01271173	0.00968193	0.01893824	0.02068143	0.01634971	0.01339048	0.00735953
0.13000000	0.00209589	0.00329362	0.00837062	0.01610350	0.00381292	0.01538290	0.00398188	0.00599271	0.00304503	0.00848102	0.00529892	0.01069884	0.00303557	0.00489653	0.00220305	0.01408708	0.01418910	0.01750591	0.01247728	0.00939597	0.01850441	0.02104020	0.01633484	0.01380742	0.00673362
0.14000000	0.00184497	0.00307464	0.00841922	0.01593281	0.00324110	0.01462048	0.00409664	0.00565169	0.00336484	0.00890094	0.00478670	0.01099987	0.00327606	0.00475364	0.00191392	0.01420076	0.01399311	0.01727985	0.01255906	0.00927529	0.01835459	0.02123402	0.01602993	0.01372425	0.00637316
0.15000000	0.00239930	0.00311153	0.00854654	0.01546164	0.00290531	0.01338602	0.00406085	0.00525662	0.00340190	0.00922203	0.00553595	0.01154829	0.00308086	0.00469695	0.00189517	0.01414874	0.01387158	0.01724651	0.01273726	0.00934858	0.01833771	0.02120965	0.01567351	0.01372642	0.00563252
0.16000000	0.00199587	0.00296617	0.00817343	0.01531159	0.00376523	0.01193893	0.00379559	0.00504072	0.00290832	0.00992828	0.00653005	0.01173984	0.00281248	0.00480719	0.00252836	0.01455111	0.01388490	0.01691319	0.01249304	0.00928588	0.01787022	0.02164106	0.01553341	0.01421093	0.00500701
0.17000000	0.00233443	0.00259966	0.00853073	0.01384162	0.00324746	0.01040185	0.00364397	0.00448946	0.00291724	0.00948584	0.00741200	0.01298456	0.00243527	0.00483829	0.00194122	0.01429841	0.01384009	0.01698657	0.01273571	0.00949695	0.01796226	0.02158504	0.01509733	0.01398761	0.00435924
0.18000000	0.00189433	0.00264780	0.00840723	0.01230945	0.00378578	0.00879811	0.00330656	0.00410958	0.00274781	0.00997644	0.00794519	0.01324962	0.00240147	0.00499794	0.00204567	0.01459160	0.01384530	0.01670732	0.01262614	0.00948539	0.01770111	0.02199894	0.01487585	0.01425164	0.00380128
0.19000000	0.00213716	0.00249140	0.00853803	0.01032903	0.00390987	0.00653751	0.00284390	0.00362704	0.00240557	0.01023440	0.00854090	0.01372254	0.00219997	0.00519587	0.00234351	0.01462003	0.01387405	0.01663894	0.01261789	0.00971662	0.01757483	0.02221987	0.01451483	0.01443462	0.00321230
0.20000000	0.00234911	0.00245952	0.00877357	0.00779383	0.00394832	0.00424273	0.00240592	0.00321627	0.00200029	0.01037222	0.00879259	0.01415863	0.00214428	0.00544730	0.00244366	0.01479179	0.01395201	0.01646297	0.01254090	0.00988379	0.01739365	0.02247014	0.01432929	0.01461014	0.00271907
0.21000000	0.00263144	0.00235475	0.00902554	0.00504163	0.00370453	0.00168863	0.00187859	0.00271113	0.00155673	0.01063416	0.00896095	0.01430481	0.00221564	0.00566142	0.00256063	0.01497917	0.01401116	0.01628470	0.01240707	0.01009444	0.01722155	0.02288903	0.01403981	0.01488708	0.00219862
0.22000000	0.00324908	0.00244360	0.00949077	0.00302511	0.00328297	0.00133026	0.00135785	0.00211103	0.00106231	0.01075736	0.00886097	0.01446844	0.00231816	0.00591305	0.00266668	0.01509540	0.01411319	0.01612982	0.01228323	0.01035154	0.01708133	0.02324534	0.01380210	0.01509578	0.00173232
0.23000000	0.00470045	0.00261943	0.01009637	0.00425826	0.00311570	0.00386974	0.00089813	0.00146383	0.00072654	0.01092260	0.00844475	0.01448746	0.00257983	0.00614895	0.00251862	0.01536644	0.01425248	0.01587748	0.01203045	0.01058672	0.01682795	0.02363392	0.01369751	0.01544746	0.00132616
0.24000000	0.00502355	0.00250477	0.01078186	0.00738222	0.00271142	0.00681283	0.00101185	0.00135796	0.00018721	0.01103953	0.00824128	0.01453110	0.00264510	0.00626633	0.00281562	0.01537164	0.01430032	0.01589590	0.01199380	0.01108620	0.01682855	0.02381513	0.01336063	0.01550240	0.00086967
0.25000000	0.00656491	0.00267217	0.01162233	0.01060873	0.00304390	0.00907620	0.00156178	0.00186570	0.00088654	0.01115264	0.00772042	0.01448333	0.00284204	0.00641051	0.00281249	0.01547828	0.01446248	0.01572839	0.01179164	0.01139946	0.01666623	0.02406837	0.01325919	0.01577446	0.00052706
0.26000000	0.00798997	0.00275173	0.01263698	0.01353181	0.00380486	0.01082652	0.00227088	0.00252880	0.00156156	0.01138379	0.00729205	0.01426046	0.00305790	0.00647421	0.00287998	0.01549287	0.01461065	0.01560840	0.01165598	0.01167991	0.01661196	0.02424767	0.01315288	0.01587504	0.00026333
0.27000000	0.00875564	0.00311481	0.01314172	0.01438115	0.00478357	0.01352271	0.00275771	0.00373441	0.00154635	0.01159031	0.00681873	0.01405174	0.00323001	0.00656938	0.00298387	0.01573612	0.01469826	0.01541961	0.01142610	0.01197592	0.01646600	0.02458814	0.01307115	0.01611572	0.00013111
0.28000000	0.00966634	0.00338437	0.01385201	0.01530045	0.00517546	0.01412263	0.00304015	0.00352765	0.00253533	0.01175463	0.00636013	0.01383966	0.00333171	0.00666763	0.00340525	0.01591885	0.01500153	0.01511820	0.01101634	0.01206001	0.01611125	0.02491664	0.01326949	0.01645205	0.00041679
0.29000000	0.01027969	0.00400484	0.01435933	0.01510250	0.00463664	0.01390417	0.00274032	0.00356579	0.00179024	0.01223757	0.00627859	0.01328119	0.00342250	0.00670372	0.00312960	0.01616112	0.01515512	0.01479140	0.01078725	0.01201521	0.01597438	0.02525502	0.01345146	0.01675162	0.00038853
0.30000000	0.01096700	0.00485775	0.01461070	0.01348807	0.00407061	0.01337823	0.00235442	0.00350820	0.00134402	0.01258133	0.00605602	0.01285713	0.00345843	0.00680701	0.00333621	0.01662736	0.01558837	0.01425412	0.01010014	0.01186069	0.01528731	0.02584028	0.01399961	0.01741747	0.00049033
0.31000000	0.00959984	0.00603251	0.01484479	0.01254456	0.00281850	0.01129995	0.00207119	0.00279472	0.00135027	0.01227339	0.00801284	0.01305129	0.00287501	0.00665437	0.00296768	0.01678070	0.01551177	0.01408416	0.01011302	0.01179792	0.01543884	0.02594792	0.01412864	0.01738438	0.00034228
0.32000000	0.00992959	0.00710372	0.01485514	0.01022440	0.00216229	0.00944094	0.00177610	0.00329431	0.00136482	0.01274457	0.00820199	0.01215867	0.00281245	0.00646899	0.00316509	0.01724825	0.01578277	0.01364233	0.00973911	0.01147544	0.01517743	0.02649651	0.01460086	0.01787615	0.00024063
0.33000000	0.00965643	0.00839838	0.01497822	0.00796577	0.00233170	0.00739409	0.00198856	0.00371270	0.00169248	0.01280005	0.00855503	0.01164516	0.00259210	0.00637763	0.00366186	0.01753263	0.01613739	0.01331497	0.00940310	0.01128806	0.01484821	0.02671060	0.01527598	0.01815295	0.00014693
0.34000000	0.00900357	0.00975708	0.01487433	0.00568632	0.00250959	0.00559587	0.00210249	0.00445776	0.00191006	0.01246554	0.00930684	0.01135551	0.00253586	0.00587016	0.00361393	0.01760408	0.01631017	0.01327230	0.00936515	0.01122457	0.01492697	0.02670585	0.01564550	0.01825965	0.00016323
0.35000000	0.00884459	0.01067121	0.01475792	0.00370733	0.00299500	0.00402293	0.00225229	0.00520924	0.00212729	0.01212882	0.00910178	0.01055206	0.00253533	0.00541129	0.00405591	0.01771239	0.01666485	0.01317424	0.00925347	0.01112022	0.01488905	0.02674670	0.01622430	0.01837277	0.00046732
0.36000000	0.00825324	0.01152771	0.01437412	0.00200340	0.00379658	0.00332657	0.00224435	0.00552982	0.00215114	0.01132053	0.00899110	0.00996092	0.00267912	0.00477896	0.00423972	0.01762704	0.01684957	0.01333482	0.00936316	0.01120813	0.01514675	0.02651608	0.01652423	0.01833898	0.00065335
0.37000000	0.00801326	0.01168261	0.01406508	0.00121656	0.00424417	0.00300534	0.00217837	0.00591390	0.00199296	0.01032751	0.00828153	0.00909371	0.00282328	0.00415998	0.00447258	0.01752305	0.01702188	0.01351198	0.00955393	0.01125751	0.01551602	0.02620214	0.01680099	0.01821221	0.00083785
0.38000000	0.00733230	0.01167263	0.01357768	0.00151883	0.00478418	0.00316936	0.00194189	0.00596384	0.00190475	0.00883549	0.00730731	0.00841854	0.00285030	0.00351218	0.00455915	0.01723966	0.01704290	0.01385907	0.00990324	0.01145902	0.01603992	0.02566872	0.01683816	0.01794520	0.00103208
0.39000000	0.00633530	0.01138983	0.01312265	0.00210223	0.00504355	0.00374629	0.00167066	0.00575991	0.00168405	0.00707877	0.00612284	0.00765981	0.00277052	0.00287665	0.00463579	0.01681213	0.01706070	0.01427026	0.01036018	0.01171828	0.01659472	0.02489517	0.01685869	0.01742017	0.00126874
0.40000000	0.00538998	0.01066281	0.01255320	0.00270533	0.00519988	0.00428044	0.00135977	0.00560567	0.00163131	0.00501731	0.00479117	0.00691937	0.00268849	0.00231599	0.00425602	0.01635505	0.01692285	0.01473309	0.01090078	0.01200527	0.01723862	0.02405166	0.01662302	0.01683660	0.00142962
0.41000000	0.00461920	0.00962928	0.01188443	0.00303381	0.00457303	0.00459146	0.00111866	0.00564374	0.00192301	0.00364394	0.00335581	0.00511871	0.00193706	0.00296050	0.00331216	0.01600829	0.01679636	0.01498056	0.01133321	0.01207135	0.01770214	0.02336786	0.01643971	0.01634292	0.00170620
0.42000000	0.00445482	0.00860953	0.01133313	0.00357449	0.00458638	0.00510025	0.00106550	0.00531970	0.00201105	0.00162936	0.00263758	0.00445917	0.00183183	0.00274211	0.00242726	0.01556617	0.01654937	0.01538089	0.01180214	0.01234035	0.01815171	0.02250306	0.01601494	0.01560604	0.00189664
0.43000000	0.00443463	0.00717957	0.01070176	0.00422787	0.00469643	0.00549942	0.00141545	0.00539335	0.00207538	0.00140274	0.00280030	0.00465909	0.00229715	0.00244566	0.00170425	0.01525171	0.01617677	0.01572267	0.01228021	0.01253497	0.01857597	0.02169446	0.01544097	0.01500373	0.00209467
0.44000000	0.00475701	0.00683511	0.00996739	0.00450947	0.00425682	0.00591120	0.00164791	0.00520480	0.00198966	0.00288477	0.00366239	0.00533270	0.00281898	0.00265595	0.00101443	0.01496490	0.01605576	0.01582625	0.01246224	0.01257809	0.01856151	0.02115188	0.01521567	0.01439913	0.00252173
0.45000000	0.00506041	0.00609765	0.00920957	0.00491675	0.00403416	0.00611886	0.00194519	0.00503619	0.00202207	0.00455653	0.00458503	0.00682232	0.00349975	0.00323911	0.00167020	0.01484245	0.01587167	0.01589896	0.01259881	0.01261005	0.01849799	0.02072189	0.01490743	0.01392235	0.00296436
0.46000000	0.00545605	0.00530438	0.00857778	0.00528171	0.00381415	0.00621057	0.00216224	0.00486448	0.00203124	0.00605168	0.00557779	0.00876700	0.00427995	0.00389637	0.00266102	0.01472232	0.01577001	0.01594318	0.01269590	0.01258445	0.01840957	0.02037048	0.01464256	0.01344313	0.00353944
0.47000000	0.00580402	0.00418554	0.00808669	0.00554945	0.00360821	0.00629810	0.00234542	0.00480897	0.00196210	0.00756003	0.00661880	0.01083132	0.00513041	0.00448241	0.00350187	0.01463056	0.01557674	0.01598664	0.01285358	0.01249782	0.01839658	0.02013790	0.01439007	0.01299587	0.00403429
0.48000000	0.00634221	0.00351330	0.00760759	0.00569226	0.00330687	0.00630101	0.00230142	0.00445486	0.00196218	0.00829073	0.00739143	0.01319971	0.00573059	0.00538265	0.00425804	0.01455027	0.01543613	0.01598734	0.01297799	0.01235290	0.01838709	0.02004097	0.01419010	0.01262847	0.00459950
0.49000000	0.00644947	0.00221388	0.00729696	0.00596777	0.00327033	0.00622986	0.00227096	0.00436059	0.00194342	0.00946417	0.00844984	0.01510686	0.00631483	0.00598044	0.00478992	0.01461676	0.01519389	0.01594588	0.01311717	0.01211735	0.01844494	0.02003500	0.01404259	0.01230536	0.00516773
0.50000000	0.00660695	0.00191071	0.00710187	0.00600743	0.00291864	0.00626190	0.00224082	0.00422333	0.00178950	0.01019455	0.00930739	0.01702016	0.00676002	0.00656801	0.00511319	0.01456476	0.01520251	0.01582270	0.01312533	0.01186345	0.01837884	0.02008696	0.01410953	0.01200676	0.00585187
0.51000000	0.00663748	0.00200047	0.00695174	0.00614162	0.00272647	0.00625142	0.00210952	0.00393733	0.00171312	0.01074891	0.01004938	0.01875784	0.00706573	0.00715025	0.00545353	0.01457276	0.01513629	0.01565987	0.01317367	0.01149345	0.01842943	0.02017995	0.01418893	0.01174053	0.00648425
0.52000000	0.00653533	0.00252634	0.00689922	0.00630944	0.00253430	0.00623685	0.00200762	0.00367396	0.00160490	0.01120929	0.01066087	0.02027084	0.00731505	0.00759603	0.00570947	0.01452770	0.01512657	0.01546361	0.01322231	0.01105804	0.01852691	0.02024201	0.01432939	0.01145171	0.00712668
0.53000000	0.00673685	0.00366471	0.00728439	0.00657136	0.00202431	0.00622637	0.00196671	0.00345306	0.00160109	0.01199456	0.01120771	0.02104231	0.00748670	0.00774602	0.00580943	0.01431597	0.01509887	0.01537585	0.01337248	0.01072812	0.01873858	0.02008102	0.01441469	0.01103062	0.00768872
0.54000000	0.00616117	0.00400814	0.00714839	0.00684009	0.00212979	0.00643259	0.00176628	0.00322485	0.00149739	0.01225852	0.01136647	0.02211330	0.00763097	0.00809328	0.00611270	0.01435013	0.01503673	0.01507799	0.01338812	0.01018653	0.01884770	0.02030788	0.01450391	0.01079210	0.00827328
0.55000000	0.00549448	0.00424367	0.00709983	0.00715618	0.00199089	0.00631507	0.00186177	0.00299954	0.00141464	0.01267690	0.01153345	0.02278673	0.00781094	0.00826691	0.00622165	0.01430454	0.01519874	0.01469439	0.01329639	0.00951201	0.01883776	0.02024606	0.01510106	0.01039276	0.00886072
0.56000000	0.00530652	0.00537746	0.00766723	0.00751301	0.00190320	0.00659250	0.00189895	0.00281622	0.00125514	0.01316620	0.01122691	0.02272525	0.00793372	0.00822789	0.00622343	0.01402038	0.01521997	0.01460206	0.01347397	0.00918888	0.01909942	0.01992581	0.01521779	0.00981594	0.00926153
0.57000000	0.00459116	0.00511703	0.00762446	0.00791157	0.00200713	0.00669428	0.00186805	0.00264307	0.00117938	0.01368752	0.01085887	0.02271665	0.00811604	0.00831457	0.00627398	0.01393078	0.01531899	0.01429285	0.01346190	0.00862941	0.01913365	0.01984448	0.01561381	0.00937881	0.00980476
0.58000000	0.00419460	0.00553566	0.00802199	0.00831309	0.00203651	0.00693352	0.00190399	0.00250223	0.00106663	0.01391852	0.01010449	0.02231820	0.00823041	0.00835150	0.00627399	0.01375876	0.01532742	0.01416375	0.01360888	0.00828713	0.01932340	0.01952879	0.01580525	0.00883547	0.01019962
0.59000000	0.00363855	0.00500670	0.00800371	0.00874594	0.00197382	0.00717581	0.00188991	0.00240271	0.00100307	0.01452710	0.00943831	0.02169893	0.00839983	0.00830600	0.00617475	0.01368947	0.01559625	0.01385106	0.01349507	0.00787684	0.01918884	0.01941632	0.01627090	0.00838099	0.01078321
0.60000000	0.00337540	0.00515084	0.00846393	0.00908101	0.00212647	0.00748415	0.00192913	0.00223985	0.00087812	0.01443416	0.00827823	0.02103951	0.00847213	0.00845113	0.00623710	0.01346712	0.01555395	0.01387513	0.01380292	0.00767051	0.01951677	0.01894298	0.01643254	0.00771611	0.01105708
0.61000000	0.00322568	0.00429217	0.00855815	0.00960913	0.00227562	0.00768987	0.00190815	0.00211740	0.00118099	0.01517833	0.00746319	0.02003935	0.00863567	0.00826993	0.00601000	0.01342106	0.01578564	0.01370657	0.01380065	0.00743503	0.01948227	0.01870269	0.01680593	0.00713999	0.01163137
0.62000000	0.00299510	0.00379802	0.00868394	0.01009458	0.00214434	0.00778492	0.00189212	0.00203400	0.00089736	0.01535103	0.00636448	0.01922666	0.00869411	0.00830158	0.00607279	0.01344209	0.01599537	0.01356652	0.01380907	0.00723706	0.01945509	0.01844251	0.01727380	0.00676651	0.01195634
0.63000000	0.00290293	0.00323591	0.00893123	0.01058122	0.00244297	0.00807760	0.00193050	0.00196156	0.00111976	0.01573252	0.00546448	0.01827514	0.00867057	0.00820778	0.00594664	0.01336519	0.01627250	0.01352823	0.01387917	0.00718886	0.01951733	0.01812114	0.01754942	0.00613461	0.01247680
0.64000000	0.00246220	0.00410032	0.00946145	0.01090295	0.00266480	0.00860457	0.00194749	0.00194277	0.00086199	0.01538923	0.00429406	0.01732910	0.00851914	0.00835390	0.00594541	0.01339395	0.01618218	0.01375638	0.01420983	0.00740364	0.01982864	0.01753894	0.01764011	0.00552521	0.01258684
0.65000000	0.00225559	0.00394977	0.00961817	0.01135182	0.00291386	0.00894599	0.00194162	0.00189365	0.00095301	0.01541301	0.00345803	0.01648831	0.00833750	0.00833161	0.00588757	0.01350014	0.01641108	0.01374897	0.01424589	0.00743650	0.01990115	0.01724253	0.01791434	0.00504284	0.01296273
0.66000000	0.00207072	0.00381224	0.00977977	0.01179738	0.00322995	0.00932743	0.00194103	0.00185032	0.00101725	0.01532124	0.00289269	0.01559715	0.00803044	0.00826481	0.00578126	0.01361711	0.01659922	0.01379177	0.01429872	0.00753593	0.02001536	0.01692557	0.01815860	0.00456468	0.01329417
0.67000000	0.00193786	0.00365285	0.00991766	0.01224850	0.00361333	0.00971315	0.00194044	0.00181819	0.00105749	0.01496085	0.00268875	0.01463460	0.00762224	0.00813414	0.00562335	0.01375816	0.01682980	0.01380914	0.01428613	0.00765742	0.02010870	0.01663295	0.01841841	0.00411845	0.01361434
0.68000000	0.00196860	0.00226122	0.00999171	0.01293256	0.00388287	0.00965928	0.00206205	0.00161111	0.00116747	0.01411588	0.00296553	0.01380715	0.00705679	0.00826368	0.00572615	0.01394781	0.01727717	0.01358269	0.01402478	0.00750842	0.02003949	0.01656836	0.01891030	0.00386604	0.01411644
0.69000000	0.00170136	0.00316150	0.01019614	0.01301924	0.00438575	0.01060034	0.00201404	0.00175169	0.00102825	0.01337251	0.00318123	0.01185238	0.00642402	0.00751639	0.00505080	0.01406586	0.01727663	0.01382247	0.01415943	0.00795233	0.02034602	0.01608448	0.01891908	0.00331068	0.01423739
0.70000000	0.00157273	0.00263141	0.01039359	0.01345393	0.00470359	0.01085791	0.00208273	0.00161295	0.00113960	0.01168382	0.00348242	0.01009091	0.00570450	0.00743647	0.00477479	0.01419037	0.01756180	0.01374869	0.01400640	0.00802854	0.02048286	0.01585358	0.01927402	0.00298158	0.01450097
0.71000000	0.00155526	0.00246151	0.01067293	0.01380976	0.00498238	0.01119260	0.00219215	0.00158491	0.00107576	0.00967741	0.00371241	0.00784035	0.00501308	0.00700202	0.00439139	0.01435152	0.01772327	0.01372238	0.01384453	0.00820444	0.02059984	0.01562981	0.01951218	0.00269960	0.01481721
0.72000000	0.00166395	0.00108852	0.01116369	0.01429854	0.00517020	0.01121169	0.00239321	0.00138487	0.00098652	0.00713249	0.00396052	0.00562030	0.00434120	0.00683573	0.00424603	0.01449517	0.01811267	0.01346357	0.01344533	0.00817763	0.02057432	0.01560181	0.02000902	0.00255872	0.01523694
0.73000000	0.00154243	0.00170022	0.01162968	0.01446748	0.00517943	0.01170116	0.00255126	0.00138934	0.00097590	0.00489953	0.00365554	0.00300677	0.00382415	0.00601145	0.00355202	0.01450976	0.01815619	0.01356773	0.01337387	0.00857327	0.02085316	0.01523935	0.02015887	0.00221639	0.01527697
0.74000000	0.00157682	0.00148985	0.01229863	0.01477893	0.00522433	0.01192620	0.00273814	0.00122421	0.00089570	0.00324657	0.00351582	0.00216614	0.00342856	0.00532921	0.00309857	0.01462752	0.01829224	0.01351333	0.01310059	0.00883857	0.02095562	0.01508242	0.02045167	0.00207646	0.01544580
0.75000000	0.00163790	0.00183481	0.01307905	0.01504831	0.00515188	0.01211704	0.00301237	0.00112258	0.00081364	0.00396532	0.00355279	0.00391198	0.00310326	0.00457297	0.00267248	0.01470087	0.01841789	0.01346739	0.01281503	0.00912297	0.02105182	0.01492785	0.02074161	0.00195618	0.01559246
0.76000000	0.00165884	0.00298096	0.01410752	0.01533818	0.00502490	0.01220619	0.00334823	0.00097775	0.00067088	0.00607986	0.00398579	0.00582995	0.00275610	0.00401223	0.00260637	0.01469943	0.01857764	0.01338655	0.01249492	0.00938782	0.02112719	0.01484723	0.02101937	0.00184918	0.01572345
0.77000000	0.00186173	0.00385136	0.01487833	0.01566699	0.00491626	0.01216225	0.00363999	0.00105820	0.00072890	0.00747638	0.00523650	0.00821276	0.00246646	0.00346808	0.00216980	0.01478118	0.01873086	0.01332057	0.01214611	0.00962710	0.02117182	0.01478243	0.02143493	0.00189365	0.01570944
0.78000000	0.00193094	0.00449010	0.01577920	0.01584990	0.00470439	0.01227150	0.00389819	0.00099130	0.00071417	0.00867988	0.00616554	0.00978289	0.00238333	0.00344828	0.00197434	0.01474975	0.01882308	0.01330252	0.01185295	0.00988634	0.02122241	0.01474754	0.02167104	0.00190081	0.01573578
0.79000000	0.00154213	0.00540111	0.01674938	0.01587202	0.00447317	0.01259513	0.00414721	0.00099932	0.00105159	0.00953627	0.00648306	0.01029976	0.00221866	0.00369361	0.00241745	0.01465243	0.01913561	0.01316246	0.01138451	0.01009693	0.02110443	0.01479321	0.02213244	0.00211913	0.01567923
0.80000000	0.00220344	0.00498292	0.01710375	0.01616461	0.00463551	0.01250071	0.00426436	0.00102591	0.00072791	0.00956868	0.00606092	0.01057029	0.00203246	0.00400247	0.00207149	0.01464311	0.01924504	0.01317049	0.01111607	0.01020046	0.02116054	0.01486286	0.02235000	0.00213404	0.01572442
0.81000000	0.00245376	0.00563240	0.01766927	0.01632681	0.00454489	0.01251203	0.00436243	0.00100348	0.00087134	0.00853859	0.00536130	0.01016087	0.00159988	0.00480243	0.00193874	0.01452256	0.01971017	0.01296793	0.01058329	0.01024181	0.02098172	0.01510439	0.02283054	0.00254989	0.01579781
0.82000000	0.00329959	0.00539183	0.01766444	0.01652254	0.00478632	0.01233325	0.00426448	0.00108321	0.00091618	0.00748416	0.00473159	0.00916523	0.00127013	0.00540854	0.00195701	0.01448667	0.02009314	0.01291708	0.01021888	0.01014530	0.02097186	0.01520744	0.02334730	0.00262943	0.01588175
0.83000000	0.00479601	0.00412196	0.01758566	0.01624356	0.00613918	0.01332637	0.00389786	0.00112921	0.00075426	0.00657276	0.00362529	0.00765667	0.00142065	0.00573411	0.00224991	0.01441066	0.02025929	0.01296089	0.00988151	0.01027859	0.02076470	0.01556323	0.02358166	0.00300121	0.01570966
0.84000000	0.00582113	0.00460138	0.01762661	0.01641549	0.00632208	0.01285263	0.00361010	0.00112011	0.00098214	0.00480353	0.00311035	0.00599018	0.00131760	0.00652557	0.00247928	0.01429568	0.02077095	0.01288103	0.00950356	0.01010461	0.02068531	0.01585418	0.02407746	0.00338886	0.01584297
0.85000000	0.00713423	0.00437026	0.01771508	0.01597552	0.00698689	0.01347723	0.00308915	0.00110101	0.00158108	0.00333412	0.00339808	0.00442672	0.00116486	0.00668198	0.00257790	0.01422200	0.02100199	0.01300657	0.00916926	0.01024210	0.02038117	0.01626809	0.02422006	0.00383198	0.01579684
0.86000000	0.00823227	0.00462136	0.01769713	0.01588702	0.00707756	0.01297068	0.00254551	0.00105986	0.00227210	0.00184056	0.00349768	0.00312310	0.00106624	0.00679504	0.00267214	0.01421913	0.02128366	0.01313030	0.00891390	0.01020845	0.02019923	0.01671468	0.02443393	0.00433982	0.01585939
0.87000000	0.00914510	0.00487005	0.01759526	0.01556117	0.00701018	0.01238234	0.00198883	0.00102823	0.00295791	0.00066615	0.00369407	0.00242282	0.00094543	0.00671336	0.00262312	0.01416847	0.02148249	0.01340083	0.00880045	0.01022838	0.02011378	0.01704647	0.02451626	0.00477076	0.01596539
0.88000000	0.00980978	0.00496423	0.01740269	0.01497051	0.00665758	0.01178104	0.00152964	0.00111606	0.00363680	0.00086850	0.00389998	0.00241826	0.00089058	0.00650114	0.00251001	0.01413086	0.02154859	0.01377359	0.00876550	0.01034484	0.01998184	0.01734954	0.02448300	0.00524960	0.01617038
0.89000000	0.01022892	0.00493366	0.01722085	0.01406639	0.00609299	0.01118842	0.00134087	0.00126584	0.00427898	0.00170527	0.00414639	0.00290439	0.00082306	0.00603656	0.00224584	0.01409556	0.02140142	0.01429513	0.00892401	0.01050958	0.01999966	0.01757573	0.02421648	0.00564010	0.01626002
0.90000000	0.01029737	0.00469417	0.01697677	0.01292435	0.00528099	0.01044569	0.00149313	0.00152081	0.00485535	0.00235749	0.00436866	0.00344972	0.00079326	0.00552096	0.00210075	0.01402003	0.02115310	0.01486750	0.00916173	0.01073173	0.02003934	0.01772428	0.02377962	0.00602468	0.01644604
0.91000000	0.01000212	0.00435288	0.01676232	0.01152835	0.00425981	0.00960550	0.00186752	0.00175338	0.00518258	0.00281096	0.00451024	0.00397410	0.00090827	0.00506357	0.00200070	0.01397914	0.02070363	0.01549869	0.00952691	0.01095953	0.02017907	0.01780074	0.02318124	0.00637170	0.01650143
0.92000000	0.00936116	0.00391443	0.01645038	0.00993683	0.00308765	0.00869659	0.00220817	0.00193987	0.00522674	0.00320589	0.00454982	0.00446733	0.00105013	0.00479593	0.00203176	0.01381617	0.02026082	0.01614807	0.00992791	0.01121838	0.02037530	0.01767279	0.02252667	0.00657613	0.01657139
0.93000000	0.00863582	0.00353926	0.01612107	0.00863502	0.00201049	0.00716568	0.00240754	0.00214907	0.00487808	0.00314388	0.00398282	0.00456653	0.00161359	0.00496054	0.00236497	0.01371427	0.01980810	0.01661820	0.01028616	0.01131964	0.02054407	0.01766798	0.02186082	0.00685709	0.01657518
0.94000000	0.00763989	0.00350448	0.01576602	0.00685433	0.00098159	0.00619951	0.00249883	0.00206466	0.00440772	0.00343365	0.00413944	0.00496060	0.00187173	0.00489311	0.00238207	0.01355890	0.01926535	0.01716235	0.01071379	0.01155631	0.02076762	0.01746283	0.02113107	0.00707875	0.01644264
0.95000000	0.00704460	0.00353452	0.01520174	0.00543157	0.00054016	0.00478170	0.00246566	0.00191723	0.00370784	0.00364198	0.00411836	0.00524781	0.00217988	0.00470869	0.00253257	0.01351307	0.01887444	0.01750145	0.01094760	0.01169191	0.02080893	0.01739298	0.02060063	0.00741553	0.01631223
0.96000000	0.00623869	0.00383456	0.01468902	0.00388976	0.00036665	0.00369405	0.00228426	0.00165039	0.00286024	0.00377243	0.00409265	0.00533405	0.00248887	0.00498621	0.00260388	0.01338287	0.01851485	0.01780642	0.01125273	0.01176917	0.02098005	0.01728716	0.02001172	0.00769487	0.01606911
0.97000000	0.00612283	0.00395006	0.01395952	0.00307135	0.00093170	0.00215276	0.00202726	0.00129333	0.00194642	0.00390218	0.00404029	0.00546930	0.00269426	0.00483718	0.00263745	0.01341656	0.01824736	0.01798039	0.01136288	0.01185456	0.02089001	0.01732342	0.01971396	0.00810706	0.01580342
0.98000000	0.00531442	0.00433793	0.01342647	0.00283237	0.00168850	0.00165213	0.00173914	0.00098118	0.00109421	0.00396276	0.00401937	0.00532099	0.00289859	0.00525216	0.00272460	0.01331791	0.01799126	0.01820534	0.01161793	0.01192561	0.02100238	0.01726017	0.01933506	0.00842277	0.01546161
0.99000000	0.00525069	0.00450059	0.01262989	0.00337126	0.00228451	0.00213849	0.00144470	0.00057718	0.00037407	0.00403876	0.00408037	0.00541311	0.00288590	0.00498823	0.00282220	0.01341231	0.01785137	0.01832988	0.01166727	0.01201714	0.02086036	0.01727255	0.01928532	0.00882498	0.01521645
1.00000000	0.00462281	0.00488443	0.01217759	0.00420192	0.00301866	0.00352783	0.00136862	0.00066660	0.00058614	0.00399644	0.00400248	0.00539861	0.00293281	0.00515829	0.00281201	0.01343026	0.01768486	0.01846629	0.01179811	0.01207349	0.02082217	0.01736423	0.01911841	0.00922175	0.01486541
1.01000000	0.00395240	0.00524829	0.01177627	0.00511029	0.00374940	0.00511501	0.00145965	0.00115157	0.00108587	0.00396256	0.00396843	0.00543667	0.00295169	0.00524117	0.00280422	0.01343532	0.01755647	0.01860099	0.01191535	0.01213201	0.02077982	0.01739193	0.01907826	0.00954668	0.01453879
1.02000000	0.00255433	0.00560377	0.01157166	0.00630053	0.00417630	0.00672428	0.00180510	0.00163598	0.00225477	0.00408208	0.00463094	0.00558265	0.00256965	0.00514974	0.00304008	0.01331126	0.01730538	0.01882494	0.01229253	0.01214404	0.02106503	0.01702606	0.01918320	0.00965710	0.01417531
1.03000000	0.00252203	0.00581826	0.01123600	0.00677001	0.00504816	0.00857977	0.00197400	0.00252120	0.00186143	0.00386839	0.00381977	0.00581878	0.00292296	0.00528872	0.00277705	0.01351084	0.01728858	0.01872651	0.01202785	0.01212326	0.02058420	0.01754982	0.01916183	0.01016048	0.01394388
1.04000000	0.00175707	0.00571045	0.01098615	0.00762188	0.00564208	0.01038908	0.00225548	0.00320615	0.00226616	0.00395676	0.00394890	0.00604398	0.00287969	0.00531447	0.00277285	0.01355552	0.01722532	0.01866180	0.01199026	0.01195603	0.02045200	0.01765329	0.01926394	0.01044411	0.01373524
1.05000000	0.00113303	0.00587287	0.01097882	0.00829950	0.00603337	0.01218581	0.00246509	0.00388954	0.00241794	0.00396947	0.00373577	0.00650859	0.00289023	0.00521899	0.00270003	0.01357489	0.01705725	0.01861916	0.01197150	0.01180833	0.02030994	0.01775570	0.01932874	0.01063857	0.01333933
1.06000000	0.00083483	0.00548628	0.01074155	0.00906007	0.00642559	0.01393959	0.00270206	0.00452879	0.00273738	0.00417756	0.00384010	0.00690206	0.00286124	0.00514713	0.00264373	0.01365338	0.01696737	0.01843851	0.01184545	0.01150744	0.02011361	0.01791213	0.01939686	0.01086159	0.01310093
1.07000000	0.00095371	0.00569681	0.01099953	0.00984755	0.00646459	0.01519141	0.00285459	0.00498723	0.00289912	0.00432127	0.00347967	0.00742414	0.00300325	0.00510167	0.00254689	0.01357712	0.01673069	0.01840334	0.01186057	0.01133206	0.02003330	0.01793682	0.01929979	0.01090886	0.01257544
1.08000000	0.00089247	0.00504352	0.01058883	0.01066402	0.00665846	0.01656282	0.00308568	0.00550618	0.00320218	0.00463371	0.00370684	0.00780058	0.00298551	0.00499851	0.00239575	0.01374009	0.01664170	0.01805576	0.01161805	0.01086479	0.01971246	0.01820701	0.01937029	0.01117898	0.01228702
1.09000000	0.00130153	0.00476312	0.01059448	0.01140545	0.00657280	0.01740906	0.00329137	0.00584537	0.00349133	0.00497611	0.00368397	0.00813570	0.00307341	0.00493396	0.00237658	0.01371419	0.01642122	0.01787988	0.01154606	0.01053577	0.01956415	0.01834998	0.01922346	0.01129014	0.01169798
1.10000000	0.00159973	0.00433864	0.01047236	0.01223576	0.00642250	0.01788937	0.00354370	0.00604423	0.00365602	0.00533080	0.00367561	0.00855335	0.00312819	0.00487638	0.00230236	0.01380921	0.01616584	0.01766119	0.01142826	0.01019092	0.01936536	0.01852441	0.01898917	0.01145969	0.01119655
1.11000000	0.00234726	0.00421543	0.01049165	0.01283798	0.00599535	0.01792830	0.00386224	0.00609658	0.00382723	0.00566416	0.00367135	0.00905195	0.00320893	0.00484540	0.00218986	0.01369973	0.01596921	0.01752314	0.01140599	0.00993297	0.01926275	0.01855647	0.01878748	0.01148767	0.01054854
1.12000000	0.00149835	0.00382773	0.00992125	0.01373100	0.00587415	0.01780250	0.00412547	0.00625394	0.00388078	0.00615197	0.00407993	0.00936795	0.00318534	0.00478668	0.00208791	0.01393366	0.01579203	0.01713973	0.01116497	0.00946793	0.01892708	0.01889867	0.01859871	0.01185119	0.01007960
1.13000000	0.00239900	0.00353766	0.01007789	0.01400620	0.00525067	0.01721773	0.00441119	0.00615876	0.00397031	0.00653759	0.00398072	0.00990925	0.00336106	0.00479890	0.00207388	0.01384075	0.01544713	0.01711658	0.01123252	0.00936188	0.01891636	0.01899852	0.01808611	0.01186782	0.00934612
1.14000000	0.00256513	0.00326319	0.00988548	0.01442232	0.00467218	0.01638153	0.00463409	0.00611381	0.00397359	0.00707612	0.00414507	0.01029326	0.00340798	0.00491355	0.00218774	0.01387682	0.01521290	0.01693240	0.01119811	0.00913599	0.01876926	0.01919489	0.01771638	0.01211315	0.00870977
1.15000000	0.00238583	0.00315472	0.00964841	0.01461909	0.00419059	0.01542692	0.00475875	0.00595555	0.00399212	0.00757395	0.00437806	0.01080945	0.00344313	0.00500094	0.00214737	0.01396393	0.01499080	0.01677132	0.01115236	0.00899228	0.01859034	0.01942484	0.01734087	0.01236609	0.00804494
1.16000000	0.00233167	0.00307776	0.00948525	0.01460021	0.00371922	0.01432111	0.00480683	0.00570552	0.00392624	0.00811459	0.00468109	0.01136521	0.00342609	0.00507897	0.00219310	0.01399515	0.01477821	0.01667278	0.01115447	0.00895592	0.01844380	0.01964751	0.01691403	0.01260761	0.00736729
1.17000000	0.00204149	0.00307770	0.00913310	0.01429932	0.00345158	0.01327052	0.00473139	0.00538388	0.00397307	0.00861720	0.00481590	0.01184344	0.00344576	0.00535056	0.00214304	0.01412508	0.01469862	0.01646107	0.01103291	0.00888278	0.01813821	0.02005141	0.01661513	0.01289064	0.00686431
1.18000000	0.00226118	0.00292355	0.00912328	0.01395264	0.00310176	0.01175466	0.00456147	0.00490006	0.00358414	0.00910611	0.00534535	0.01246179	0.00333315	0.00535659	0.00230633	0.01419500	0.01446550	0.01647800	0.01109559	0.00908784	0.01801545	0.02021142	0.01611213	0.01326264	0.00608811
1.19000000	0.00206403	0.00288764	0.00895461	0.01312121	0.00320868	0.01040689	0.00423402	0.00451510	0.00340401	0.00961460	0.00568165	0.01293390	0.00326891	0.00549086	0.00227165	0.01434540	0.01433658	0.01640829	0.01104940	0.00928749	0.01777197	0.02057991	0.01570202	0.01361884	0.00548355
1.20000000	0.00239382	0.00287841	0.00896075	0.01193521	0.00321638	0.00881118	0.00385004	0.00409540	0.00307479	0.00998070	0.00594813	0.01344765	0.00317570	0.00565721	0.00242704	0.01437524	0.01426175	0.01641473	0.01108075	0.00959860	0.01761518	0.02081763	0.01533781	0.01395305	0.00479116
1.21000000	0.00260636	0.00289630	0.00895819	0.01024482	0.00339978	0.00715559	0.00339406	0.00380242	0.00275562	0.01032223	0.00613883	0.01387050	0.00314413	0.00581761	0.00236938	0.01452106	0.01420936	0.01638665	0.01102340	0.00995383	0.01739996	0.02119622	0.01499225	0.01431645	0.00418002
1.22000000	0.00302539	0.00287794	0.00908157	0.00819020	0.00339910	0.00521212	0.00290084	0.00347502	0.00237370	0.01074192	0.00634854	0.01412637	0.00311313	0.00594891	0.00257359	0.01457483	0.01421918	0.01638917	0.01098285	0.01039897	0.01722019	0.02153160	0.01468458	0.01468672	0.00363955
1.23000000	0.00347635	0.00287687	0.00930628	0.00565225	0.00324572	0.00315364	0.00242846	0.00314872	0.00191208	0.01094231	0.00635369	0.01449314	0.00307919	0.00615142	0.00262967	0.01470054	0.01424095	0.01640857	0.01090362	0.01093598	0.01705023	0.02185533	0.01441746	0.01505989	0.00307861
1.24000000	0.00403068	0.00287317	0.00965792	0.00300951	0.00292836	0.00144770	0.00195872	0.00274794	0.00143026	0.01120139	0.00633927	0.01469948	0.00315541	0.00627843	0.00266157	0.01488111	0.01424806	0.01642632	0.01079528	0.01150753	0.01693303	0.02224048	0.01413244	0.01542168	0.00254256
1.25000000	0.00464807	0.00287934	0.01012991	0.00227795	0.00252171	0.00258634	0.00157050	0.00215441	0.00095082	0.01146508	0.00627356	0.01482657	0.00322824	0.00644420	0.00279235	0.01501182	0.01431556	0.01646062	0.01066920	0.01215932	0.01682638	0.02258653	0.01390703	0.01578457	0.00209770
1.26000000	0.00531326	0.00282548	0.01070450	0.00513774	0.00215240	0.00477165	0.00143080	0.00148901	0.00064028	0.01163686	0.00614494	0.01494902	0.00330421	0.00666289	0.00281414	0.01513864	0.01441786	0.01649985	0.01052900	0.01283847	0.01675816	0.02291454	0.01372490	0.01614230	0.00164360
1.27000000	0.00690017	0.00307991	0.01160651	0.00836767	0.00254438	0.00699701	0.00139381	0.00127808	0.00070285	0.01172324	0.00569403	0.01511854	0.00350707	0.00691570	0.00266535	0.01532714	0.01463907	0.01642835	0.01021832	0.01345988	0.01650882	0.02320733	0.01378771	0.01653413	0.00136274
1.28000000	0.00816198	0.00308300	0.01252956	0.01136353	0.00288362	0.00909573	0.00183474	0.00188622	0.00093186	0.01211947	0.00559981	0.01485899	0.00366307	0.00684269	0.00303013	0.01533504	0.01474198	0.01645863	0.01015088	0.01404387	0.01659206	0.02356234	0.01359389	0.01677027	0.00103953
1.29000000	0.00872427	0.00312677	0.01309903	0.01314208	0.00396167	0.01198300	0.00234234	0.00320142	0.00106706	0.01225903	0.00577473	0.01481890	0.00363550	0.00700103	0.00303597	0.01557535	0.01481959	0.01648433	0.01003552	0.01467236	0.01668313	0.02389553	0.01344520	0.01701229	0.00069378
1.30000000	0.00973718	0.00333446	0.01395341	0.01446593	0.00490490	0.01353101	0.00254243	0.00376349	0.00132493	0.01234121	0.00575305	0.01475079	0.00368035	0.00705231	0.00308113	0.01577273	0.01501038	0.01633603	0.00980458	0.01506544	0.01658480	0.02421615	0.01354940	0.01731713	0.00060775
1.31000000	0.01057921	0.00326094	0.01482270	0.01528281	0.00531407	0.01382893	0.00265373	0.00364184	0.00201873	0.01251807	0.00548709	0.01449822	0.00376133	0.00715586	0.00359073	0.01601055	0.01527373	0.01607120	0.00950138	0.01525837	0.01638312	0.02457298	0.01380519	0.01766192	0.00045936
1.32000000	0.01048752	0.00399689	0.01521227	0.01475379	0.00500406	0.01397121	0.00238795	0.00378381	0.00134626	0.01263868	0.00657576	0.01429240	0.00345373	0.00723372	0.00299260	0.01635948	0.01533927	0.01578643	0.00934691	0.01534444	0.01639123	0.02500333	0.01391864	0.01796234	0.00048340
1.33000000	0.01117425	0.00460955	0.01570050	0.01316938	0.00438579	0.01334764	0.00174902	0.00365128	0.00075203	0.01300980	0.00667341	0.01373333	0.00346468	0.00722886	0.00319212	0.01676405	0.01576902	0.01530245	0.00888329	0.01519714	0.01594524	0.02549066	0.01446467	0.01848038	0.00061021
1.34000000	0.01038027	0.00535642	0.01595074	0.01221283	0.00324678	0.01127225	0.00138212	0.00275009	0.00085781	0.01261840	0.00845768	0.01403915	0.00285034	0.00684679	0.00290447	0.01702677	0.01590668	0.01503531	0.00872708	0.01511604	0.01586626	0.02579056	0.01470483	0.01866105	0.00056434
1.35000000	0.01029683	0.00642911	0.01612251	0.01019698	0.00257873	0.00939557	0.00088780	0.00259028	0.00083775	0.01278942	0.00936640	0.01360992	0.00255550	0.00666706	0.00283003	0.01743417	0.01620132	0.01457274	0.00841201	0.01482650	0.01554968	0.02621248	0.01521946	0.01905023	0.00073689
1.36000000	0.01057324	0.00754919	0.01626820	0.00788389	0.00232442	0.00756770	0.00060929	0.00297277	0.00104193	0.01310253	0.00981313	0.01283698	0.00228143	0.00651728	0.00328632	0.01789909	0.01658540	0.01403970	0.00804940	0.01440194	0.01515451	0.02671474	0.01586566	0.01942401	0.00104031
1.37000000	0.01045750	0.00876113	0.01635783	0.00581194	0.00224247	0.00585637	0.00068534	0.00356615	0.00132729	0.01306170	0.01072591	0.01240625	0.00213398	0.00596719	0.00317111	0.01815748	0.01687076	0.01372187	0.00786621	0.01408901	0.01494154	0.02692840	0.01636597	0.01967990	0.00128366
1.38000000	0.01067958	0.00984226	0.01632801	0.00399618	0.00247681	0.00434403	0.00088102	0.00425550	0.00166991	0.01314933	0.01096071	0.01145654	0.00201217	0.00555707	0.00362583	0.01856499	0.01722386	0.01330782	0.00762541	0.01364593	0.01469001	0.02729807	0.01697952	0.01996008	0.00163483
1.39000000	0.01080656	0.01079056	0.01634978	0.00266071	0.00305063	0.00332935	0.00124326	0.00480686	0.00193336	0.01296562	0.01107249	0.01058998	0.00209003	0.00498503	0.00392115	0.01872797	0.01759119	0.01307957	0.00754989	0.01330502	0.01458032	0.02734005	0.01756360	0.02008720	0.00194374
1.40000000	0.01073995	0.01158540	0.01624114	0.00187185	0.00372105	0.00293532	0.00157215	0.00515670	0.00204517	0.01245149	0.01093178	0.00973657	0.00228353	0.00432528	0.00426934	0.01882067	0.01787500	0.01295128	0.00754562	0.01300378	0.01457871	0.02731598	0.01801353	0.02012708	0.00233694
1.41000000	0.01002023	0.01242587	0.01601841	0.00181053	0.00437916	0.00322993	0.00177858	0.00511574	0.00214311	0.01149686	0.01073993	0.00911921	0.00261731	0.00349214	0.00458028	0.01864275	0.01808550	0.01304824	0.00773967	0.01288081	0.01475762	0.02694667	0.01832018	0.01993739	0.00268619
1.42000000	0.00962274	0.01261434	0.01579827	0.00230308	0.00498794	0.00379157	0.00206203	0.00511343	0.00197140	0.01035940	0.00995689	0.00818136	0.00285756	0.00277793	0.00476103	0.01846989	0.01819742	0.01316317	0.00802204	0.01272704	0.01506443	0.02655692	0.01849705	0.01965561	0.00299587
1.43000000	0.00900889	0.01245701	0.01546500	0.00301280	0.00553916	0.00458606	0.00232885	0.00495871	0.00175902	0.00887229	0.00891183	0.00722331	0.00306296	0.00222316	0.00466359	0.01818381	0.01817864	0.01339174	0.00845672	0.01264788	0.01553709	0.02597570	0.01846189	0.01923947	0.00322908
1.44000000	0.00794117	0.01211475	0.01504724	0.00367020	0.00568622	0.00554599	0.00262154	0.00460644	0.00167411	0.00719561	0.00766909	0.00608297	0.00301440	0.00185302	0.00453330	0.01775975	0.01814607	0.01364897	0.00893418	0.01264826	0.01593822	0.02524957	0.01834803	0.01869539	0.00358878
1.45000000	0.00702007	0.01142806	0.01459809	0.00432013	0.00521383	0.00608613	0.00313423	0.00454637	0.00165103	0.00547890	0.00627180	0.00462917	0.00279263	0.00212753	0.00388528	0.01734838	0.01801199	0.01387227	0.00950878	0.01255841	0.01644711	0.02443407	0.01812237	0.01805685	0.00384892
1.46000000	0.00613243	0.01035729	0.01405481	0.00531209	0.00549854	0.00676788	0.00350141	0.00438135	0.00152789	0.00328812	0.00488252	0.00388135	0.00274552	0.00205522	0.00308476	0.01682936	0.01773645	0.01426222	0.01007662	0.01276534	0.01686801	0.02350549	0.01757663	0.01732458	0.00404138
1.47000000	0.00602840	0.00911645	0.01357898	0.00573601	0.00501130	0.00748916	0.00400788	0.00405645	0.00154491	0.00142693	0.00388713	0.00314593	0.00239811	0.00236601	0.00207248	0.01632844	0.01744900	0.01453741	0.01069819	0.01278998	0.01728845	0.02264662	0.01706359	0.01651477	0.00429915
1.48000000	0.00586377	0.00772643	0.01299146	0.00635362	0.00512965	0.00810269	0.00441018	0.00401930	0.00129999	0.00132106	0.00374250	0.00381937	0.00260933	0.00227057	0.00111004	0.01599027	0.01703385	0.01482317	0.01127614	0.01289411	0.01764601	0.02182660	0.01642948	0.01575044	0.00444263
1.49000000	0.00632601	0.00661043	0.01227467	0.00685713	0.00438218	0.00810043	0.00465953	0.00399218	0.00142517	0.00236719	0.00406494	0.00529018	0.00262109	0.00286101	0.00064010	0.01570875	0.01689309	0.01489270	0.01159023	0.01281100	0.01765978	0.02127589	0.01604120	0.01513493	0.00488175
1.50000000	0.00643707	0.00566740	0.01158727	0.00723606	0.00413590	0.00839744	0.00474732	0.00403259	0.00127062	0.00430815	0.00502159	0.00697427	0.00308303	0.00293581	0.00132552	0.01546091	0.01667924	0.01504582	0.01193925	0.01284990	0.01769243	0.02072785	0.01561666	0.01449028	0.00524471
1.51000000	0.00661644	0.00471992	0.01091766	0.00760401	0.00389315	0.00855462	0.00464128	0.00393828	0.00126019	0.00598002	0.00599855	0.00884529	0.00355586	0.00332213	0.00219406	0.01532163	0.01652343	0.01513884	0.01218248	0.01285088	0.01764076	0.02037907	0.01524978	0.01397303	0.00567261
1.52000000	0.00705190	0.00401796	0.01037377	0.00788520	0.00356209	0.00854726	0.00435408	0.00356442	0.00133106	0.00698884	0.00680781	0.01111377	0.00389494	0.00407162	0.00297305	0.01519831	0.01647173	0.01517376	0.01237937	0.01275811	0.01755886	0.02009164	0.01509505	0.01352443	0.00623012
1.53000000	0.00726163	0.00297024	0.01001830	0.00821811	0.00321204	0.00861697	0.00412565	0.00352873	0.00125762	0.00821632	0.00773288	0.01310314	0.00433475	0.00461104	0.00353630	0.01508205	0.01640466	0.01522577	0.01257857	0.01268212	0.01752428	0.01995292	0.01495216	0.01310800	0.00676635
1.54000000	0.00736483	0.00144784	0.00984155	0.00873229	0.00342069	0.00875846	0.00363677	0.00315082	0.00153727	0.00938637	0.00850859	0.01496951	0.00477265	0.00513370	0.00413007	0.01500884	0.01614227	0.01534740	0.01294349	0.01254351	0.01779065	0.01992230	0.01465288	0.01274680	0.00716265
