SUBJ36_1_JMP_06_shoulder_elbow_joint_personalization_task_1_finalErrors.sto
version=1
nRows=324
nColumns=26
inDegrees=no
endheader
time	R_Asis	L_Asis	Sacral	R_Thigh_Lateral	R_Knee_Lateral	R_Shank_Lateral	R_Ankle_Lateral	R_Heel	R_Toe	L_Thigh_Lateral	L_Knee_Lateral	L_Shank_Lateral	L_Ankle_Lateral	L_Heel	L_Toe	R_Shoulder	L_Shoulder	C7	J_Notch	Thoracic	Sternum	R_Elbow	L_Elbow	R_Wrist	L_Wrist
0.00000000	0.00573133	0.00642778	0.00226657	0.01109010	0.01127207	0.02710088	0.02010509	0.01021458	0.00647485	0.00697670	0.00181244	0.00566258	0.00282321	0.00161596	0.00311921	0.00303892	0.00203042	0.00364125	0.00318917	0.00339226	0.00248223	0.00092650	0.00181994	0.00197108	0.00056054
0.01000000	0.00575238	0.00594592	0.00284992	0.01110303	0.01112351	0.02789985	0.01933460	0.01044981	0.00657535	0.00736769	0.00191200	0.00561633	0.00308415	0.00144773	0.00294145	0.00292469	0.00182656	0.00368643	0.00343649	0.00309767	0.00241412	0.00084190	0.00159774	0.00204955	0.00035766
0.02000000	0.00587197	0.00546581	0.00344798	0.01135740	0.01099375	0.02837248	0.01883505	0.01069661	0.00666080	0.00750914	0.00197579	0.00536881	0.00308896	0.00154139	0.00301998	0.00282723	0.00149895	0.00380817	0.00366854	0.00276574	0.00233701	0.00087036	0.00128410	0.00211757	0.00016918
0.03000000	0.00627929	0.00496970	0.00404025	0.01201681	0.01103662	0.02839763	0.01852132	0.01072505	0.00649868	0.00769013	0.00270360	0.00508474	0.00319215	0.00156119	0.00277109	0.00256453	0.00114714	0.00402703	0.00390309	0.00249925	0.00215749	0.00082528	0.00117370	0.00233143	0.00049596
0.04000000	0.00598450	0.00456175	0.00464814	0.01223843	0.01063454	0.02819968	0.01838892	0.01106539	0.00660359	0.00738664	0.00228858	0.00478746	0.00319357	0.00148729	0.00301908	0.00273983	0.00073865	0.00393184	0.00404406	0.00211790	0.00211390	0.00112553	0.00101788	0.00232645	0.00071740
0.05000000	0.00634436	0.00464215	0.00500017	0.01235963	0.01020008	0.02772367	0.01817730	0.01094211	0.00636879	0.00693572	0.00218269	0.00419631	0.00322826	0.00124974	0.00303503	0.00267741	0.00028884	0.00403327	0.00415650	0.00179394	0.00206628	0.00107027	0.00071082	0.00228471	0.00102033
0.06000000	0.00665977	0.00461051	0.00519156	0.01289179	0.00986590	0.02658765	0.01817035	0.01066854	0.00612564	0.00626791	0.00226177	0.00362568	0.00314817	0.00102649	0.00291205	0.00277218	0.00032070	0.00402459	0.00417493	0.00153515	0.00205043	0.00101298	0.00094467	0.00229836	0.00143711
0.07000000	0.00670046	0.00435814	0.00567069	0.01306457	0.00922823	0.02530570	0.01819687	0.01034154	0.00600611	0.00591400	0.00244597	0.00283996	0.00299656	0.00077970	0.00279786	0.00266737	0.00066742	0.00408950	0.00408119	0.00154224	0.00203976	0.00125300	0.00125345	0.00241293	0.00196809
0.08000000	0.00698314	0.00438029	0.00584836	0.01309029	0.00852547	0.02378391	0.01814796	0.00989525	0.00580293	0.00534539	0.00272636	0.00180291	0.00285566	0.00080434	0.00252237	0.00265992	0.00111428	0.00411102	0.00407096	0.00165794	0.00222313	0.00114496	0.00169963	0.00242403	0.00251009
0.09000000	0.00696988	0.00408145	0.00614139	0.01326327	0.00781629	0.02203974	0.01829999	0.00920303	0.00554002	0.00491052	0.00316275	0.00117505	0.00263846	0.00093224	0.00219853	0.00253260	0.00149354	0.00415636	0.00403058	0.00191486	0.00247568	0.00141629	0.00214225	0.00255776	0.00302562
0.10000000	0.00723663	0.00389074	0.00642452	0.01291874	0.00678787	0.02033043	0.01823595	0.00899101	0.00533333	0.00483345	0.00334478	0.00157972	0.00242087	0.00111926	0.00184191	0.00250669	0.00180056	0.00412708	0.00400449	0.00216285	0.00271017	0.00157531	0.00245032	0.00260617	0.00340381
0.11000000	0.00777594	0.00369251	0.00666106	0.01307108	0.00586908	0.01838644	0.01844459	0.00822508	0.00470779	0.00523626	0.00490625	0.00222716	0.00199077	0.00225901	0.00217701	0.00255662	0.00208261	0.00400830	0.00403395	0.00253720	0.00312663	0.00185105	0.00264395	0.00320777	0.00383614
0.12000000	0.00761865	0.00293164	0.00653552	0.01250010	0.00515579	0.01680424	0.01827010	0.00799309	0.00439235	0.00500186	0.00560089	0.00445611	0.00179609	0.00183310	0.00095009	0.00260850	0.00248179	0.00378110	0.00404847	0.00266969	0.00340929	0.00183644	0.00315000	0.00274244	0.00396352
0.13000000	0.00765136	0.00271805	0.00663115	0.01193243	0.00439383	0.01541103	0.01807624	0.00752328	0.00397861	0.00526876	0.00649084	0.00568361	0.00170470	0.00218943	0.00058690	0.00263201	0.00277245	0.00346340	0.00403801	0.00286856	0.00382867	0.00196582	0.00348981	0.00297119	0.00412480
0.14000000	0.00762040	0.00242495	0.00678108	0.01127618	0.00368577	0.01417741	0.01792440	0.00689288	0.00344581	0.00542220	0.00759888	0.00692591	0.00172066	0.00251097	0.00029071	0.00266061	0.00301536	0.00311835	0.00398208	0.00298858	0.00424646	0.00233094	0.00372058	0.00310191	0.00421138
0.15000000	0.00751957	0.00226914	0.00698419	0.01042890	0.00320010	0.01314177	0.01765858	0.00630137	0.00303656	0.00558279	0.00849180	0.00783474	0.00182155	0.00280410	0.00014735	0.00267808	0.00315502	0.00275700	0.00396920	0.00302068	0.00471540	0.00254572	0.00397239	0.00329136	0.00412057
0.16000000	0.00742615	0.00216849	0.00709536	0.00938906	0.00281234	0.01230660	0.01736617	0.00560593	0.00258946	0.00568458	0.00935867	0.00852486	0.00200396	0.00295873	0.00034274	0.00289015	0.00342904	0.00249120	0.00383146	0.00312125	0.00500953	0.00293212	0.00423327	0.00354890	0.00395276
0.17000000	0.00717180	0.00232375	0.00736830	0.00800377	0.00264886	0.01187808	0.01693093	0.00497036	0.00227385	0.00589213	0.01004436	0.00880155	0.00219496	0.00305034	0.00054602	0.00310621	0.00350843	0.00228908	0.00380198	0.00317492	0.00544383	0.00334374	0.00439584	0.00381932	0.00371082
0.18000000	0.00699492	0.00222194	0.00764644	0.00671311	0.00255564	0.01110678	0.01684516	0.00411102	0.00188741	0.00586954	0.01077439	0.00911936	0.00230009	0.00316958	0.00071842	0.00338436	0.00356190	0.00230550	0.00381485	0.00317604	0.00577628	0.00359114	0.00449515	0.00407656	0.00334655
0.19000000	0.00688025	0.00244892	0.00804351	0.00520478	0.00260085	0.01097803	0.01655981	0.00346599	0.00148896	0.00606983	0.01137272	0.00911400	0.00241511	0.00318245	0.00077861	0.00379464	0.00355659	0.00223839	0.00380166	0.00327272	0.00607750	0.00408111	0.00453808	0.00439940	0.00305845
0.20000000	0.00699267	0.00288378	0.00857876	0.00358014	0.00269725	0.01132179	0.01632199	0.00306797	0.00130901	0.00642019	0.01164108	0.00900541	0.00244580	0.00316012	0.00087103	0.00428308	0.00350571	0.00217712	0.00383430	0.00349908	0.00640696	0.00455174	0.00445881	0.00486194	0.00292187
0.21000000	0.00736475	0.00325631	0.00922119	0.00309910	0.00275210	0.01193454	0.01619172	0.00271424	0.00113350	0.00675199	0.01202829	0.00880131	0.00244969	0.00311333	0.00088939	0.00473769	0.00342110	0.00218426	0.00389965	0.00365824	0.00673680	0.00498552	0.00438329	0.00530596	0.00277451
0.22000000	0.00797097	0.00353157	0.00991804	0.00412919	0.00265630	0.01292279	0.01609673	0.00258640	0.00075425	0.00704512	0.01240801	0.00867088	0.00240043	0.00315057	0.00097497	0.00512512	0.00335029	0.00225598	0.00393530	0.00376107	0.00691873	0.00537427	0.00426113	0.00563862	0.00261564
0.23000000	0.00860360	0.00387048	0.01054156	0.00576603	0.00248576	0.01408627	0.01610097	0.00251546	0.00032943	0.00727792	0.01286569	0.00855350	0.00238976	0.00312260	0.00100633	0.00545563	0.00334709	0.00236281	0.00395783	0.00386012	0.00705389	0.00570476	0.00414771	0.00590800	0.00252926
0.24000000	0.00913445	0.00423430	0.01114422	0.00734271	0.00232697	0.01524207	0.01615106	0.00250405	0.00033325	0.00749740	0.01335608	0.00831681	0.00228635	0.00315673	0.00108405	0.00567115	0.00332321	0.00247298	0.00399587	0.00388949	0.00721289	0.00591440	0.00405450	0.00611985	0.00244832
0.25000000	0.00963839	0.00461855	0.01177553	0.00852923	0.00227511	0.01618781	0.01615654	0.00257915	0.00063280	0.00774138	0.01368459	0.00810361	0.00222828	0.00310728	0.00106349	0.00579601	0.00328624	0.00259222	0.00405619	0.00391776	0.00735468	0.00604034	0.00389880	0.00624468	0.00242297
0.26000000	0.01019217	0.00503547	0.01225228	0.00936803	0.00231015	0.01677300	0.01599874	0.00246845	0.00067404	0.00797258	0.01360640	0.00793296	0.00202422	0.00317632	0.00119430	0.00593314	0.00318693	0.00268498	0.00416161	0.00390073	0.00756072	0.00615857	0.00380712	0.00651880	0.00221977
0.27000000	0.01040095	0.00561397	0.01264211	0.00935064	0.00234399	0.01675817	0.01588362	0.00283866	0.00079537	0.00824375	0.01357968	0.00748258	0.00192171	0.00308781	0.00111667	0.00608577	0.00309255	0.00259962	0.00417919	0.00399428	0.00760124	0.00632667	0.00368003	0.00669056	0.00228781
0.28000000	0.01038100	0.00605249	0.01282703	0.00845328	0.00255104	0.01636983	0.01575529	0.00291942	0.00094146	0.00828273	0.01385567	0.00696366	0.00213594	0.00280052	0.00130918	0.00610174	0.00313470	0.00278304	0.00418310	0.00401295	0.00756387	0.00644584	0.00341621	0.00664706	0.00214480
0.29000000	0.01039193	0.00661531	0.01279838	0.00713371	0.00281238	0.01550599	0.01555337	0.00323413	0.00102103	0.00840007	0.01358439	0.00637977	0.00223400	0.00266424	0.00131165	0.00617369	0.00304031	0.00280949	0.00422346	0.00400899	0.00754044	0.00656831	0.00317577	0.00674877	0.00196253
0.30000000	0.01020863	0.00719279	0.01264186	0.00542328	0.00319326	0.01430503	0.01542596	0.00343591	0.00105704	0.00846231	0.01321024	0.00569019	0.00241459	0.00255425	0.00146817	0.00620732	0.00283707	0.00275620	0.00424916	0.00394493	0.00743309	0.00665550	0.00284594	0.00683670	0.00176768
0.31000000	0.00996130	0.00764789	0.01228436	0.00355065	0.00361776	0.01300196	0.01528204	0.00380984	0.00098840	0.00841216	0.01264856	0.00481712	0.00272555	0.00245119	0.00148640	0.00619439	0.00261933	0.00269565	0.00422402	0.00385653	0.00720840	0.00671129	0.00245337	0.00688581	0.00150951
0.32000000	0.00976184	0.00788518	0.01174064	0.00199751	0.00394741	0.01185709	0.01504816	0.00435624	0.00105192	0.00816541	0.01183910	0.00364588	0.00308723	0.00243630	0.00147942	0.00616586	0.00242300	0.00258543	0.00409050	0.00381635	0.00685087	0.00676681	0.00205687	0.00692931	0.00133025
0.33000000	0.00949701	0.00799634	0.01094086	0.00172293	0.00432160	0.01090749	0.01496603	0.00448210	0.00117038	0.00781691	0.01082220	0.00248244	0.00345524	0.00248013	0.00159140	0.00604418	0.00218395	0.00246327	0.00392964	0.00370994	0.00639029	0.00669610	0.00162817	0.00691594	0.00108852
0.34000000	0.00831937	0.00844398	0.00971406	0.00268205	0.00430846	0.01002145	0.01511659	0.00455489	0.00117812	0.00725162	0.00998025	0.00161369	0.00381971	0.00262053	0.00173789	0.00579287	0.00189704	0.00230158	0.00375956	0.00359180	0.00582618	0.00640783	0.00111817	0.00685989	0.00085111
0.35000000	0.00815493	0.00793579	0.00847059	0.00389779	0.00450814	0.00958216	0.01515715	0.00416936	0.00173311	0.00648129	0.00840841	0.00137120	0.00417111	0.00296454	0.00182501	0.00545069	0.00172253	0.00216399	0.00347743	0.00355984	0.00511409	0.00605792	0.00088305	0.00659514	0.00069251
0.36000000	0.00749832	0.00739107	0.00723379	0.00476506	0.00452925	0.00915260	0.01537984	0.00378465	0.00188627	0.00551818	0.00670710	0.00218045	0.00447123	0.00313593	0.00200647	0.00488104	0.00155376	0.00210668	0.00325104	0.00359454	0.00443314	0.00541450	0.00064297	0.00620262	0.00064390
0.37000000	0.00584301	0.00706467	0.00611308	0.00450741	0.00392923	0.00910254	0.01534342	0.00457112	0.00184768	0.00393391	0.00482301	0.00333243	0.00440398	0.00271171	0.00214670	0.00441908	0.00144959	0.00188016	0.00306223	0.00385441	0.00366447	0.00484777	0.00043847	0.00582655	0.00045016
0.38000000	0.00538642	0.00581001	0.00495367	0.00512425	0.00417429	0.00921342	0.01544106	0.00392569	0.00219769	0.00272362	0.00272711	0.00376645	0.00452113	0.00298174	0.00218324	0.00358678	0.00121078	0.00189434	0.00286254	0.00393888	0.00296972	0.00394067	0.00063915	0.00507282	0.00058957
0.39000000	0.00354158	0.00529808	0.00417619	0.00501840	0.00359356	0.00911549	0.01576161	0.00383635	0.00217534	0.00158536	0.00105290	0.00438552	0.00419884	0.00233152	0.00234461	0.00288309	0.00096086	0.00168212	0.00281404	0.00417851	0.00237159	0.00321614	0.00079212	0.00439874	0.00068660
0.40000000	0.00329067	0.00448746	0.00363879	0.00520413	0.00379399	0.00938120	0.01560725	0.00376798	0.00218343	0.00260366	0.00111499	0.00444177	0.00412161	0.00223772	0.00234673	0.00201484	0.00087093	0.00176467	0.00274528	0.00430746	0.00177596	0.00227982	0.00098448	0.00365575	0.00073169
0.41000000	0.00298657	0.00335880	0.00323697	0.00543926	0.00414320	0.00973902	0.01532666	0.00341263	0.00231981	0.00434677	0.00268547	0.00424349	0.00380770	0.00283795	0.00275724	0.00139303	0.00058440	0.00178311	0.00286832	0.00457093	0.00152769	0.00163250	0.00140011	0.00287961	0.00094207
0.42000000	0.00222862	0.00427423	0.00309798	0.00507879	0.00354730	0.00970850	0.01524896	0.00359948	0.00219871	0.00490672	0.00286582	0.00487836	0.00323046	0.00230507	0.00210190	0.00093791	0.00085482	0.00161702	0.00282231	0.00468940	0.00101252	0.00114363	0.00121274	0.00261996	0.00079070
0.43000000	0.00230904	0.00440346	0.00304671	0.00521155	0.00359669	0.01017788	0.01470030	0.00350222	0.00231010	0.00609333	0.00350312	0.00486509	0.00274608	0.00266807	0.00207200	0.00073262	0.00085665	0.00169075	0.00286313	0.00477200	0.00098280	0.00077952	0.00135558	0.00218179	0.00077549
0.44000000	0.00168527	0.00506139	0.00344871	0.00538015	0.00363301	0.00980654	0.01473234	0.00303071	0.00223120	0.00680661	0.00361403	0.00500684	0.00208177	0.00277600	0.00182591	0.00071065	0.00088011	0.00180616	0.00285134	0.00476523	0.00109182	0.00076580	0.00138199	0.00195754	0.00068711
0.45000000	0.00144811	0.00513018	0.00360745	0.00549429	0.00374814	0.00991577	0.01440371	0.00270607	0.00213298	0.00735327	0.00388134	0.00524616	0.00141916	0.00311197	0.00164763	0.00083727	0.00088805	0.00186156	0.00290425	0.00474380	0.00135239	0.00076309	0.00134730	0.00183573	0.00064148
0.46000000	0.00142061	0.00509007	0.00362359	0.00565191	0.00391413	0.01006606	0.01403977	0.00252767	0.00215929	0.00784489	0.00406570	0.00549629	0.00125613	0.00337963	0.00192645	0.00087498	0.00084791	0.00198464	0.00289381	0.00470719	0.00149251	0.00077028	0.00134347	0.00187339	0.00053620
0.47000000	0.00168071	0.00498927	0.00358559	0.00584180	0.00411615	0.01027435	0.01372578	0.00235907	0.00206990	0.00816269	0.00421138	0.00583125	0.00162833	0.00365814	0.00235920	0.00088732	0.00078497	0.00209077	0.00291464	0.00459511	0.00155025	0.00081490	0.00128490	0.00197544	0.00047942
0.48000000	0.00205753	0.00485012	0.00355911	0.00600505	0.00424042	0.01054086	0.01347578	0.00224014	0.00201148	0.00841426	0.00446060	0.00628622	0.00213552	0.00392079	0.00296903	0.00089309	0.00067668	0.00218316	0.00289988	0.00448332	0.00153262	0.00092782	0.00123136	0.00213167	0.00040396
0.49000000	0.00254846	0.00426607	0.00349302	0.00616953	0.00450187	0.01085383	0.01329005	0.00204518	0.00187982	0.00866198	0.00503257	0.00689177	0.00253424	0.00421648	0.00349358	0.00092725	0.00058215	0.00226774	0.00288866	0.00437468	0.00149687	0.00139682	0.00119396	0.00221056	0.00036009
0.50000000	0.00283593	0.00409363	0.00356230	0.00622006	0.00455837	0.01115515	0.01323222	0.00195443	0.00181652	0.00869465	0.00542297	0.00787634	0.00271786	0.00430321	0.00356330	0.00112715	0.00048126	0.00227794	0.00284860	0.00423052	0.00162964	0.00167037	0.00112362	0.00241185	0.00026540
0.51000000	0.00305090	0.00382982	0.00357805	0.00624640	0.00475810	0.01128356	0.01332109	0.00184323	0.00178100	0.00864011	0.00580149	0.00927971	0.00276514	0.00442035	0.00327188	0.00134679	0.00042139	0.00229896	0.00283717	0.00411969	0.00191092	0.00196894	0.00103012	0.00254189	0.00024168
0.52000000	0.00306449	0.00357410	0.00342221	0.00615534	0.00479482	0.01156681	0.01337120	0.00175170	0.00173392	0.00863694	0.00617714	0.01100472	0.00263057	0.00457386	0.00285397	0.00166509	0.00054716	0.00228174	0.00281823	0.00404420	0.00226994	0.00215217	0.00101822	0.00267477	0.00018905
0.53000000	0.00332774	0.00283332	0.00354015	0.00594250	0.00464230	0.01191045	0.01330347	0.00192325	0.00193305	0.00886545	0.00656986	0.01287790	0.00246192	0.00482584	0.00283283	0.00198604	0.00083790	0.00228203	0.00277623	0.00402041	0.00252358	0.00179530	0.00095770	0.00284394	0.00033898
0.54000000	0.00330817	0.00258685	0.00323826	0.00580540	0.00475720	0.01213542	0.01337188	0.00179532	0.00193703	0.00896995	0.00662902	0.01516419	0.00227465	0.00516291	0.00252242	0.00207363	0.00081376	0.00229475	0.00279982	0.00399796	0.00297682	0.00204851	0.00082948	0.00268959	0.00031300
0.55000000	0.00322306	0.00209440	0.00278370	0.00574252	0.00482826	0.01244218	0.01332375	0.00192095	0.00206400	0.00937529	0.00666849	0.01741104	0.00218510	0.00547786	0.00270543	0.00228778	0.00106130	0.00236058	0.00277871	0.00404333	0.00326093	0.00195264	0.00076988	0.00274516	0.00007775
0.56000000	0.00360595	0.00146299	0.00271270	0.00569387	0.00474067	0.01274782	0.01333285	0.00212066	0.00212775	0.00996467	0.00675288	0.01940349	0.00214272	0.00574394	0.00305380	0.00239789	0.00117035	0.00245606	0.00277902	0.00411006	0.00348202	0.00180333	0.00068244	0.00266938	0.00019047
0.57000000	0.00370655	0.00135172	0.00216571	0.00571767	0.00477837	0.01314409	0.01334401	0.00212174	0.00207588	0.01059692	0.00659781	0.02123512	0.00234785	0.00604134	0.00348880	0.00249566	0.00127054	0.00253345	0.00274703	0.00429694	0.00361726	0.00182444	0.00058801	0.00256450	0.00008759
0.58000000	0.00364243	0.00140576	0.00148294	0.00604692	0.00512595	0.01343195	0.01341674	0.00205031	0.00187491	0.01149548	0.00653490	0.02253862	0.00261319	0.00622604	0.00390804	0.00260540	0.00126063	0.00259478	0.00275109	0.00450187	0.00376624	0.00194453	0.00049905	0.00241637	0.00023761
0.59000000	0.00431121	0.00144662	0.00173207	0.00619444	0.00476728	0.01419680	0.01334334	0.00221087	0.00178879	0.01185432	0.00637408	0.02335517	0.00279224	0.00633708	0.00427855	0.00264495	0.00128910	0.00277850	0.00267881	0.00476515	0.00368059	0.00167855	0.00033707	0.00235079	0.00016332
0.60000000	0.00428078	0.00158215	0.00133506	0.00673849	0.00505107	0.01479381	0.01326454	0.00226643	0.00141512	0.01257876	0.00625353	0.02350167	0.00321769	0.00648825	0.00466063	0.00277783	0.00120355	0.00282869	0.00269716	0.00505761	0.00363253	0.00161138	0.00012068	0.00235194	0.00045224
0.61000000	0.00477668	0.00183422	0.00176092	0.00726985	0.00498959	0.01559788	0.01326668	0.00229833	0.00122134	0.01256377	0.00608368	0.02318095	0.00338974	0.00657396	0.00474977	0.00280362	0.00122098	0.00304944	0.00261391	0.00534065	0.00345910	0.00158606	0.00003937	0.00214446	0.00036416
0.62000000	0.00484847	0.00208426	0.00184449	0.00799089	0.00512238	0.01648452	0.01311025	0.00240370	0.00110864	0.01280390	0.00597559	0.02228634	0.00365349	0.00665829	0.00482768	0.00289075	0.00117415	0.00318079	0.00260514	0.00559876	0.00331431	0.00144471	0.00028179	0.00212616	0.00043895
0.63000000	0.00501124	0.00228741	0.00211770	0.00880859	0.00530589	0.01735731	0.01304460	0.00255090	0.00093145	0.01279905	0.00588958	0.02101576	0.00382215	0.00668953	0.00473283	0.00289853	0.00108378	0.00331096	0.00256744	0.00586030	0.00314672	0.00140300	0.00036123	0.00201756	0.00052557
0.64000000	0.00496124	0.00288284	0.00210122	0.00965230	0.00557990	0.01821279	0.01288395	0.00277410	0.00082708	0.01288778	0.00573231	0.01950500	0.00397035	0.00676099	0.00470082	0.00305154	0.00107288	0.00337139	0.00261249	0.00602482	0.00301607	0.00124790	0.00064559	0.00202666	0.00069640
0.65000000	0.00507079	0.00320555	0.00233017	0.01037664	0.00564315	0.01906956	0.01288423	0.00298123	0.00104265	0.01259106	0.00563897	0.01795655	0.00395511	0.00656319	0.00450142	0.00300911	0.00104293	0.00349500	0.00255590	0.00619437	0.00288734	0.00112626	0.00082870	0.00197266	0.00071756
0.66000000	0.00506407	0.00308853	0.00255288	0.01102009	0.00579700	0.01999338	0.01278721	0.00311611	0.00093595	0.01226133	0.00558650	0.01621065	0.00388420	0.00616945	0.00402301	0.00291079	0.00094347	0.00358648	0.00248583	0.00639107	0.00274305	0.00125007	0.00082466	0.00170403	0.00085556
0.67000000	0.00494083	0.00322987	0.00258052	0.01157685	0.00602928	0.02072346	0.01266844	0.00331167	0.00089327	0.01176345	0.00550566	0.01451710	0.00377942	0.00572472	0.00362746	0.00284942	0.00091054	0.00361584	0.00246716	0.00647566	0.00269290	0.00121988	0.00096810	0.00162156	0.00096108
0.68000000	0.00502943	0.00400342	0.00241852	0.01206899	0.00641920	0.02105268	0.01268970	0.00335223	0.00088262	0.01109225	0.00530511	0.01285854	0.00356021	0.00523787	0.00344420	0.00281551	0.00099304	0.00362581	0.00245640	0.00648642	0.00268751	0.00119337	0.00127604	0.00156230	0.00105193
0.69000000	0.00464180	0.00351499	0.00262745	0.01219130	0.00640397	0.02175640	0.01262413	0.00357271	0.00088105	0.01007323	0.00523436	0.01092321	0.00329149	0.00447569	0.00293799	0.00274644	0.00100700	0.00367029	0.00242233	0.00647577	0.00270813	0.00124717	0.00132001	0.00142172	0.00120500
0.70000000	0.00461094	0.00377383	0.00263865	0.01231519	0.00670809	0.02205592	0.01259538	0.00351289	0.00094073	0.00882916	0.00507653	0.00891325	0.00297713	0.00376333	0.00254331	0.00265346	0.00102030	0.00364029	0.00240731	0.00641933	0.00270419	0.00127531	0.00145541	0.00135130	0.00122930
0.71000000	0.00450953	0.00406393	0.00262552	0.01233817	0.00699644	0.02229094	0.01259212	0.00346579	0.00088325	0.00716878	0.00481267	0.00676401	0.00268123	0.00292361	0.00205179	0.00253966	0.00111674	0.00362902	0.00237230	0.00635584	0.00274623	0.00127560	0.00162927	0.00131645	0.00135221
0.72000000	0.00433802	0.00419523	0.00263932	0.01232724	0.00724098	0.02247526	0.01257414	0.00348550	0.00088682	0.00539540	0.00457153	0.00422995	0.00239496	0.00204895	0.00149403	0.00249947	0.00114034	0.00347741	0.00241011	0.00630873	0.00277830	0.00126077	0.00170623	0.00130547	0.00147083
0.73000000	0.00426011	0.00460018	0.00277640	0.01227111	0.00752333	0.02258838	0.01260918	0.00337797	0.00084335	0.00366785	0.00413182	0.00151224	0.00210219	0.00117075	0.00098616	0.00240204	0.00123014	0.00339196	0.00237950	0.00627687	0.00282139	0.00127065	0.00184871	0.00126999	0.00156713
0.74000000	0.00415286	0.00508504	0.00302696	0.01225173	0.00775280	0.02263932	0.01265827	0.00335121	0.00084886	0.00356418	0.00365509	0.00161818	0.00194600	0.00102675	0.00052431	0.00230487	0.00130179	0.00325284	0.00236140	0.00626245	0.00287052	0.00125162	0.00194831	0.00126840	0.00168022
0.75000000	0.00401707	0.00568977	0.00333217	0.01220315	0.00798367	0.02271829	0.01267946	0.00332146	0.00075117	0.00554944	0.00310343	0.00481852	0.00195556	0.00214731	0.00083204	0.00222797	0.00136017	0.00312643	0.00235709	0.00627110	0.00297162	0.00127141	0.00202375	0.00122725	0.00181131
0.76000000	0.00395363	0.00650975	0.00384075	0.01224786	0.00834957	0.02260645	0.01279968	0.00315507	0.00074962	0.00838439	0.00258885	0.00798858	0.00202954	0.00336417	0.00148305	0.00212209	0.00141307	0.00302030	0.00232745	0.00626213	0.00307303	0.00119990	0.00210563	0.00128412	0.00188295
0.77000000	0.00418617	0.00786478	0.00446675	0.01224135	0.00860145	0.02229932	0.01305061	0.00299360	0.00067860	0.01157765	0.00252479	0.01057452	0.00194270	0.00437919	0.00198440	0.00206665	0.00156954	0.00279180	0.00235472	0.00632669	0.00319463	0.00127174	0.00228172	0.00118403	0.00212239
0.78000000	0.00392908	0.00846794	0.00470811	0.01207682	0.00910337	0.02233872	0.01313709	0.00280563	0.00071951	0.01291177	0.00158637	0.01361855	0.00253185	0.00593888	0.00287286	0.00193640	0.00155370	0.00276404	0.00231598	0.00633200	0.00337263	0.00126103	0.00228840	0.00119053	0.00208387
0.79000000	0.00378896	0.00933533	0.00553447	0.01208431	0.00907708	0.02219294	0.01316790	0.00280805	0.00070887	0.01526332	0.00158165	0.01480427	0.00283236	0.00628266	0.00357835	0.00192779	0.00170473	0.00254010	0.00230977	0.00635166	0.00345003	0.00114104	0.00232589	0.00137648	0.00238802
0.80000000	0.00387869	0.00962577	0.00538270	0.01183199	0.00972181	0.02190642	0.01347571	0.00252004	0.00070485	0.01527460	0.00190094	0.01613315	0.00271416	0.00698167	0.00356594	0.00180024	0.00174066	0.00255341	0.00238172	0.00639051	0.00379345	0.00130578	0.00245333	0.00117676	0.00234082
0.81000000	0.00391791	0.01016552	0.00565818	0.01197029	0.00974161	0.02143435	0.01356295	0.00240110	0.00075224	0.01556033	0.00205971	0.01586869	0.00262263	0.00662097	0.00347639	0.00182276	0.00195181	0.00239648	0.00247330	0.00642387	0.00405790	0.00099480	0.00254087	0.00149839	0.00273510
0.82000000	0.00389071	0.01024597	0.00596219	0.01189982	0.01005277	0.02107086	0.01356033	0.00227620	0.00043766	0.01472418	0.00198772	0.01507076	0.00251733	0.00628592	0.00352945	0.00175419	0.00211305	0.00238445	0.00254862	0.00647235	0.00431750	0.00123034	0.00284967	0.00137956	0.00268171
0.83000000	0.00409628	0.00962426	0.00575299	0.01132685	0.01058243	0.02078533	0.01382445	0.00224326	0.00052361	0.01339287	0.00187561	0.01387456	0.00248723	0.00567065	0.00339030	0.00179628	0.00216123	0.00234253	0.00257877	0.00649403	0.00451710	0.00114822	0.00284180	0.00152899	0.00273436
0.84000000	0.00444512	0.00971026	0.00591423	0.01122491	0.01039397	0.01999095	0.01396574	0.00206314	0.00047897	0.01183059	0.00180021	0.01223602	0.00260406	0.00478005	0.00310912	0.00191579	0.00236093	0.00223004	0.00268157	0.00660963	0.00471324	0.00121737	0.00302071	0.00165860	0.00294217
0.85000000	0.00492253	0.00963804	0.00610832	0.01096919	0.01011621	0.01911475	0.01412612	0.00189462	0.00062938	0.01011872	0.00185582	0.01057136	0.00275156	0.00403222	0.00293772	0.00199434	0.00255683	0.00225550	0.00269852	0.00672968	0.00479408	0.00140525	0.00323343	0.00177109	0.00312655
0.86000000	0.00591451	0.00823527	0.00583728	0.01012575	0.01027191	0.01849221	0.01436048	0.00212103	0.00047554	0.00870170	0.00187575	0.00911258	0.00286728	0.00349614	0.00268664	0.00205665	0.00265735	0.00230641	0.00261166	0.00680979	0.00472651	0.00151410	0.00328335	0.00195493	0.00323971
0.87000000	0.00632420	0.00826027	0.00617118	0.00946332	0.00943603	0.01721712	0.01479351	0.00197603	0.00081067	0.00694257	0.00240495	0.00792807	0.00303141	0.00333387	0.00244578	0.00222990	0.00286935	0.00235920	0.00252756	0.00694842	0.00456044	0.00182195	0.00357698	0.00212731	0.00333753
0.88000000	0.00740726	0.00690034	0.00599572	0.00839325	0.00905358	0.01608005	0.01530888	0.00232968	0.00070607	0.00583606	0.00250570	0.00701745	0.00288369	0.00329325	0.00196570	0.00241812	0.00291272	0.00239970	0.00230192	0.00699808	0.00416490	0.00205705	0.00354325	0.00233639	0.00343559
0.89000000	0.00770641	0.00688495	0.00607209	0.00725763	0.00766285	0.01481359	0.01580964	0.00208495	0.00089386	0.00418507	0.00310546	0.00664666	0.00264553	0.00333110	0.00193473	0.00260396	0.00305051	0.00250524	0.00211308	0.00701510	0.00377557	0.00242398	0.00375833	0.00247807	0.00344126
0.90000000	0.00853530	0.00576342	0.00594738	0.00597160	0.00663383	0.01350577	0.01648210	0.00222167	0.00085919	0.00417666	0.00264338	0.00577316	0.00184758	0.00317358	0.00117564	0.00283457	0.00296225	0.00255390	0.00181296	0.00695586	0.00314233	0.00263680	0.00357527	0.00261205	0.00340173
0.91000000	0.00856845	0.00561164	0.00547021	0.00452987	0.00502119	0.01222475	0.01725289	0.00207921	0.00102496	0.00364622	0.00313626	0.00557856	0.00164664	0.00272975	0.00166338	0.00286746	0.00285253	0.00269660	0.00151848	0.00690714	0.00260307	0.00265782	0.00344449	0.00260515	0.00322590
0.92000000	0.00889612	0.00453088	0.00527333	0.00297365	0.00357861	0.01122887	0.01795535	0.00232307	0.00108296	0.00415998	0.00236891	0.00429884	0.00147248	0.00224209	0.00140151	0.00294645	0.00265638	0.00270663	0.00126260	0.00685108	0.00196486	0.00263456	0.00310251	0.00265802	0.00306438
0.93000000	0.00861399	0.00404846	0.00465542	0.00172537	0.00216952	0.01028489	0.01883450	0.00295652	0.00105527	0.00461204	0.00276797	0.00372361	0.00198142	0.00167117	0.00208814	0.00281945	0.00234417	0.00279887	0.00103817	0.00686923	0.00149422	0.00231811	0.00267639	0.00251896	0.00269978
0.94000000	0.00784496	0.00350658	0.00408787	0.00219420	0.00159843	0.00991544	0.01955123	0.00395972	0.00121061	0.00542292	0.00336059	0.00306983	0.00253216	0.00099713	0.00272846	0.00259018	0.00206021	0.00281830	0.00094855	0.00703962	0.00119220	0.00183984	0.00227958	0.00232527	0.00228243
0.95000000	0.00797290	0.00273165	0.00384007	0.00386677	0.00252599	0.00934134	0.02032437	0.00516107	0.00110132	0.00583607	0.00325030	0.00231229	0.00278673	0.00075034	0.00280995	0.00266048	0.00172348	0.00280778	0.00106429	0.00689401	0.00114311	0.00162689	0.00162126	0.00218909	0.00189644
0.96000000	0.00662230	0.00216631	0.00351371	0.00601873	0.00389100	0.00933783	0.02089831	0.00645820	0.00171946	0.00608407	0.00352675	0.00159544	0.00283992	0.00046721	0.00269599	0.00248417	0.00164693	0.00275479	0.00128718	0.00723756	0.00148102	0.00123356	0.00131460	0.00184777	0.00159758
0.97000000	0.00736812	0.00179421	0.00365154	0.00726323	0.00427695	0.00910666	0.02148157	0.00742341	0.00107593	0.00567742	0.00317540	0.00112090	0.00269749	0.00073985	0.00263092	0.00257069	0.00155730	0.00259774	0.00139899	0.00697499	0.00146670	0.00117478	0.00081116	0.00185280	0.00130890
0.98000000	0.00740918	0.00151461	0.00390738	0.00853324	0.00480222	0.00916884	0.02175285	0.00832519	0.00107664	0.00520105	0.00282901	0.00076384	0.00250089	0.00100551	0.00226625	0.00253964	0.00161117	0.00249647	0.00156094	0.00690518	0.00164241	0.00112396	0.00050475	0.00171313	0.00108347
0.99000000	0.00739179	0.00133578	0.00414383	0.00921289	0.00503792	0.00963312	0.02165398	0.00946193	0.00089900	0.00485440	0.00276568	0.00089396	0.00218788	0.00078195	0.00196845	0.00259174	0.00167485	0.00244565	0.00173390	0.00676698	0.00175619	0.00115367	0.00037817	0.00157021	0.00093507
1.00000000	0.00737868	0.00144578	0.00437287	0.00997457	0.00540111	0.00967293	0.02164675	0.00982962	0.00117667	0.00427989	0.00259701	0.00069939	0.00186880	0.00098398	0.00170449	0.00245128	0.00168270	0.00236153	0.00179706	0.00666057	0.00181144	0.00123069	0.00033788	0.00148199	0.00086159
1.01000000	0.00702189	0.00171492	0.00433931	0.01026235	0.00568627	0.01001830	0.02142943	0.01036903	0.00134227	0.00386476	0.00278390	0.00061556	0.00155154	0.00102643	0.00152332	0.00238314	0.00162954	0.00227109	0.00187337	0.00650867	0.00178560	0.00134006	0.00033914	0.00139339	0.00087147
1.02000000	0.00674202	0.00219404	0.00441503	0.01064539	0.00614967	0.01012670	0.02139388	0.01012027	0.00173414	0.00342278	0.00278218	0.00046692	0.00141833	0.00120092	0.00130244	0.00220843	0.00151165	0.00214126	0.00187546	0.00631754	0.00168683	0.00135627	0.00038341	0.00140758	0.00086177
1.03000000	0.00650030	0.00266104	0.00432496	0.01056756	0.00642757	0.01079141	0.02108539	0.01024901	0.00185073	0.00313720	0.00290162	0.00047159	0.00130979	0.00107714	0.00126164	0.00206283	0.00141895	0.00205577	0.00184008	0.00612848	0.00159510	0.00149891	0.00053105	0.00125428	0.00094902
1.04000000	0.00599506	0.00317612	0.00402768	0.01088386	0.00749352	0.01117545	0.02081992	0.00991681	0.00279914	0.00309667	0.00309493	0.00066825	0.00125441	0.00106566	0.00134246	0.00166478	0.00120711	0.00197406	0.00167661	0.00613013	0.00149024	0.00157217	0.00079755	0.00121477	0.00107891
1.05000000	0.00564618	0.00355312	0.00407178	0.01040024	0.00745276	0.01273085	0.02045262	0.01004686	0.00247647	0.00310449	0.00312176	0.00074137	0.00130751	0.00080465	0.00134747	0.00144798	0.00111258	0.00178197	0.00157695	0.00598336	0.00156084	0.00148106	0.00092956	0.00121621	0.00117331
1.06000000	0.00536342	0.00391764	0.00400588	0.01035182	0.00804699	0.01395948	0.02026442	0.00961887	0.00293512	0.00336593	0.00308202	0.00083144	0.00140998	0.00065824	0.00154127	0.00117298	0.00104586	0.00165801	0.00142644	0.00589806	0.00175965	0.00149507	0.00109509	0.00111048	0.00121008
1.07000000	0.00485317	0.00425635	0.00391237	0.01019183	0.00848002	0.01563527	0.01989596	0.00949186	0.00325603	0.00358823	0.00297422	0.00087561	0.00144352	0.00052192	0.00156620	0.00102696	0.00105864	0.00153727	0.00129585	0.00577805	0.00205253	0.00145514	0.00116847	0.00105852	0.00124896
1.08000000	0.00450754	0.00447921	0.00368034	0.01010387	0.00898028	0.01735140	0.01954918	0.00933121	0.00366127	0.00383217	0.00276996	0.00083221	0.00153485	0.00042301	0.00172207	0.00100125	0.00104839	0.00143027	0.00117390	0.00566778	0.00234941	0.00148469	0.00122012	0.00093789	0.00121456
1.09000000	0.00423730	0.00445346	0.00338843	0.01006579	0.00930629	0.01909219	0.01932181	0.00927223	0.00415664	0.00412714	0.00264868	0.00074439	0.00169791	0.00035114	0.00197145	0.00101458	0.00104723	0.00130077	0.00106653	0.00549635	0.00263871	0.00149750	0.00114817	0.00085085	0.00111789
1.10000000	0.00430593	0.00410385	0.00286398	0.01013811	0.00979594	0.02075256	0.01898474	0.00953778	0.00482227	0.00479482	0.00329122	0.00067360	0.00177418	0.00108664	0.00157968	0.00126581	0.00089475	0.00129517	0.00099331	0.00538793	0.00283142	0.00170070	0.00109718	0.00081152	0.00096528
1.11000000	0.00388158	0.00485003	0.00273542	0.01032624	0.00987025	0.02252231	0.01875190	0.00956868	0.00476805	0.00394779	0.00175680	0.00104895	0.00193728	0.00087983	0.00181438	0.00126277	0.00086995	0.00112423	0.00091552	0.00498049	0.00294345	0.00163748	0.00082972	0.00077701	0.00087621
1.12000000	0.00382946	0.00453725	0.00242056	0.01052544	0.00995932	0.02422911	0.01856356	0.00996457	0.00509680	0.00431204	0.00177984	0.00100185	0.00207699	0.00097847	0.00191809	0.00133577	0.00062079	0.00096145	0.00082179	0.00478618	0.00284391	0.00166972	0.00066524	0.00084502	0.00067774
1.13000000	0.00432802	0.00405512	0.00240067	0.01098629	0.01014242	0.02568373	0.01838102	0.01034770	0.00543716	0.00482704	0.00254097	0.00102301	0.00216463	0.00169828	0.00155820	0.00138770	0.00034776	0.00083307	0.00076074	0.00456194	0.00272283	0.00165610	0.00052194	0.00108744	0.00050860
1.14000000	0.00388871	0.00444151	0.00247741	0.01164726	0.01016078	0.02687096	0.01841162	0.01058697	0.00553999	0.00432727	0.00156734	0.00126988	0.00237153	0.00146782	0.00186523	0.00144909	0.00026569	0.00083037	0.00070532	0.00419542	0.00261189	0.00164321	0.00016006	0.00101131	0.00030401
1.15000000	0.00446005	0.00406241	0.00276434	0.01238441	0.01016213	0.02788936	0.01833261	0.01084065	0.00577639	0.00468992	0.00226510	0.00126955	0.00246356	0.00200424	0.00171526	0.00144641	0.00026766	0.00073285	0.00064820	0.00403342	0.00227986	0.00148794	0.00015617	0.00133274	0.00019582
1.16000000	0.00442762	0.00410443	0.00305743	0.01290031	0.00987261	0.02858240	0.01834463	0.01110463	0.00606632	0.00459976	0.00177775	0.00163689	0.00271093	0.00172183	0.00190885	0.00143612	0.00059712	0.00071297	0.00064050	0.00385513	0.00204055	0.00142567	0.00040801	0.00131771	0.00009632
1.17000000	0.00470078	0.00395273	0.00344784	0.01384380	0.00973560	0.02869476	0.01839339	0.01111118	0.00632050	0.00464468	0.00197302	0.00199175	0.00276703	0.00183877	0.00182477	0.00144769	0.00093124	0.00073376	0.00068194	0.00370130	0.00174208	0.00129587	0.00070083	0.00146732	0.00027299
1.18000000	0.00500288	0.00397419	0.00368357	0.01471935	0.00939491	0.02833965	0.01848182	0.01098324	0.00651771	0.00466623	0.00216226	0.00260926	0.00283330	0.00200307	0.00164592	0.00145259	0.00129637	0.00074799	0.00075748	0.00361488	0.00144466	0.00117717	0.00101842	0.00158687	0.00048566
1.19000000	0.00538330	0.00390659	0.00387376	0.01567495	0.00900899	0.02747811	0.01856600	0.01064966	0.00658636	0.00483179	0.00258170	0.00342953	0.00278242	0.00218857	0.00131216	0.00153083	0.00168348	0.00083331	0.00085975	0.00347526	0.00126588	0.00104092	0.00135192	0.00171365	0.00072344
1.20000000	0.00563110	0.00378879	0.00409376	0.01630574	0.00834201	0.02630128	0.01866496	0.01028381	0.00650576	0.00518795	0.00293758	0.00447730	0.00267037	0.00232725	0.00111215	0.00152316	0.00202081	0.00084556	0.00092654	0.00339980	0.00110645	0.00096462	0.00167070	0.00185316	0.00092881
1.21000000	0.00642477	0.00392599	0.00410866	0.01681397	0.00751022	0.02483888	0.01881112	0.00968718	0.00621974	0.00597400	0.00430319	0.00520785	0.00235707	0.00318773	0.00115973	0.00145284	0.00243237	0.00083857	0.00105920	0.00327653	0.00101972	0.00079439	0.00195471	0.00246877	0.00131872
1.22000000	0.00592475	0.00330102	0.00424796	0.01668554	0.00657855	0.02306903	0.01884257	0.00928498	0.00578315	0.00616104	0.00415310	0.00692919	0.00219604	0.00273016	0.00045564	0.00156750	0.00272652	0.00094377	0.00124293	0.00317667	0.00126465	0.00091052	0.00229496	0.00211899	0.00127003
1.23000000	0.00588566	0.00327771	0.00433964	0.01606040	0.00550990	0.02144141	0.01870089	0.00866688	0.00522897	0.00682380	0.00460485	0.00802807	0.00206403	0.00293974	0.00033568	0.00150970	0.00299237	0.00094402	0.00138102	0.00315005	0.00160540	0.00121352	0.00256209	0.00215339	0.00144977
1.24000000	0.00586205	0.00277356	0.00423379	0.01528569	0.00460862	0.01940015	0.01864613	0.00793627	0.00446296	0.00709038	0.00566302	0.00918342	0.00169544	0.00307424	0.00049837	0.00170443	0.00330712	0.00114988	0.00147211	0.00305740	0.00187970	0.00109978	0.00281571	0.00236035	0.00157346
1.25000000	0.00573264	0.00252585	0.00424199	0.01396074	0.00376705	0.01750937	0.01838236	0.00717889	0.00382344	0.00731414	0.00645317	0.01009790	0.00146675	0.00319829	0.00081629	0.00177612	0.00350157	0.00126351	0.00160212	0.00304478	0.00222913	0.00124408	0.00298497	0.00243209	0.00166057
1.26000000	0.00553865	0.00275215	0.00409321	0.01229512	0.00301436	0.01575323	0.01808313	0.00634849	0.00311154	0.00810623	0.00701426	0.01021881	0.00137389	0.00314299	0.00076255	0.00202573	0.00364650	0.00155822	0.00165391	0.00320516	0.00262832	0.00150727	0.00310762	0.00281401	0.00174687
1.27000000	0.00539122	0.00230051	0.00414259	0.01038771	0.00283023	0.01377058	0.01766659	0.00551620	0.00264310	0.00771168	0.00764200	0.01092348	0.00122697	0.00330619	0.00105454	0.00211424	0.00379923	0.00158073	0.00167469	0.00298054	0.00273681	0.00141964	0.00322844	0.00281538	0.00181210
1.28000000	0.00519152	0.00236296	0.00406609	0.00820953	0.00275065	0.01226050	0.01721899	0.00471621	0.00214481	0.00770194	0.00816241	0.01100918	0.00116871	0.00346312	0.00133824	0.00230927	0.00388907	0.00175414	0.00170351	0.00292112	0.00296399	0.00164466	0.00332420	0.00287716	0.00181450
1.29000000	0.00506728	0.00244940	0.00406182	0.00601177	0.00281009	0.01109997	0.01688759	0.00383160	0.00170611	0.00784947	0.00862933	0.01089554	0.00129304	0.00334512	0.00137503	0.00253348	0.00390506	0.00192599	0.00176306	0.00277069	0.00318210	0.00178284	0.00332681	0.00306240	0.00178418
1.30000000	0.00515050	0.00255244	0.00415428	0.00401588	0.00295010	0.01059802	0.01664240	0.00300571	0.00119948	0.00804143	0.00895813	0.01068881	0.00135356	0.00328613	0.00147772	0.00275216	0.00382864	0.00213079	0.00184567	0.00258724	0.00339621	0.00195825	0.00324316	0.00320429	0.00175933
1.31000000	0.00571285	0.00281309	0.00436991	0.00310786	0.00306875	0.01091822	0.01640496	0.00234064	0.00101171	0.00850775	0.00908931	0.01027180	0.00148351	0.00309842	0.00146352	0.00298989	0.00371984	0.00232763	0.00190875	0.00251694	0.00366638	0.00219584	0.00317769	0.00357215	0.00176749
1.32000000	0.00631155	0.00298843	0.00475250	0.00410997	0.00307538	0.01176836	0.01626240	0.00196057	0.00052808	0.00876371	0.00946906	0.00994723	0.00153945	0.00312965	0.00155704	0.00315506	0.00362061	0.00247300	0.00199592	0.00254731	0.00380537	0.00241638	0.00310202	0.00373252	0.00170882
1.33000000	0.00712236	0.00317502	0.00535168	0.00588344	0.00308726	0.01273134	0.01636576	0.00168449	0.00035567	0.00900426	0.00975590	0.00971284	0.00164420	0.00316385	0.00155576	0.00330134	0.00340319	0.00266367	0.00215933	0.00288726	0.00402152	0.00254031	0.00296775	0.00393994	0.00163878
1.34000000	0.00778217	0.00341255	0.00586824	0.00749758	0.00294873	0.01391344	0.01640444	0.00169450	0.00029982	0.00911889	0.01033094	0.00941496	0.00186923	0.00323745	0.00148219	0.00337278	0.00329814	0.00280309	0.00225176	0.00355433	0.00408573	0.00268213	0.00293006	0.00401336	0.00156663
1.35000000	0.00863787	0.00371153	0.00659079	0.00922637	0.00296076	0.01451502	0.01663430	0.00108216	0.00121091	0.00928850	0.01066163	0.00919858	0.00195419	0.00335907	0.00148450	0.00332779	0.00319959	0.00286196	0.00233439	0.00423620	0.00409665	0.00251691	0.00306665	0.00432688	0.00131340
1.36000000	0.00902318	0.00402105	0.00703180	0.00944637	0.00274013	0.01543970	0.01647483	0.00196734	0.00067712	0.00917926	0.01100430	0.00882255	0.00222357	0.00351820	0.00129728	0.00340470	0.00304064	0.00308219	0.00252885	0.00481246	0.00430058	0.00286697	0.00279055	0.00425379	0.00153927
1.37000000	0.00923462	0.00444051	0.00743160	0.00948567	0.00264064	0.01566539	0.01639985	0.00200207	0.00079539	0.00909624	0.01126534	0.00851038	0.00238948	0.00362918	0.00127350	0.00335802	0.00294319	0.00318642	0.00259647	0.00521083	0.00432896	0.00292592	0.00280248	0.00434964	0.00144931
1.38000000	0.00944082	0.00489897	0.00788927	0.00901940	0.00261729	0.01542738	0.01622032	0.00226050	0.00116852	0.00919154	0.01120669	0.00802559	0.00238321	0.00375286	0.00115398	0.00334237	0.00272774	0.00335699	0.00268816	0.00540230	0.00438593	0.00300982	0.00270002	0.00451700	0.00131975
1.39000000	0.00934655	0.00538536	0.00809002	0.00792891	0.00272302	0.01489360	0.01599224	0.00257614	0.00139611	0.00908659	0.01120605	0.00749997	0.00266748	0.00363739	0.00110958	0.00331424	0.00261061	0.00341938	0.00280486	0.00542020	0.00444645	0.00309253	0.00255036	0.00461292	0.00128542
1.40000000	0.00922028	0.00587012	0.00828493	0.00643903	0.00268936	0.01420544	0.01564168	0.00346954	0.00193802	0.00910847	0.01078269	0.00684324	0.00275192	0.00356375	0.00108285	0.00334315	0.00231796	0.00355005	0.00287837	0.00539002	0.00449851	0.00324174	0.00225376	0.00473300	0.00115736
1.41000000	0.00876715	0.00632829	0.00828343	0.00466556	0.00328830	0.01307117	0.01572179	0.00346358	0.00120243	0.00889619	0.01058528	0.00633825	0.00305602	0.00340736	0.00153850	0.00327297	0.00208041	0.00346639	0.00287790	0.00526075	0.00427580	0.00335061	0.00191104	0.00475453	0.00095459
1.42000000	0.00842860	0.00665925	0.00804917	0.00287452	0.00359822	0.01208123	0.01560704	0.00404744	0.00119042	0.00862584	0.00999379	0.00553854	0.00335654	0.00319160	0.00171644	0.00329541	0.00188335	0.00335073	0.00278069	0.00515906	0.00411155	0.00353611	0.00162495	0.00482952	0.00080385
1.43000000	0.00811830	0.00674864	0.00771469	0.00131269	0.00380664	0.01127205	0.01552136	0.00445071	0.00139538	0.00822583	0.00913052	0.00460142	0.00366621	0.00300465	0.00191604	0.00331593	0.00162096	0.00315118	0.00260998	0.00499378	0.00393065	0.00358573	0.00129776	0.00491823	0.00077145
1.44000000	0.00779589	0.00665907	0.00722416	0.00104539	0.00377833	0.01065909	0.01546096	0.00478114	0.00234756	0.00785324	0.00776141	0.00343221	0.00360982	0.00290393	0.00228424	0.00336397	0.00134737	0.00298804	0.00240464	0.00493402	0.00369909	0.00371116	0.00100723	0.00488425	0.00047338
1.45000000	0.00645230	0.00675977	0.00645210	0.00202498	0.00372891	0.00985307	0.01581222	0.00469237	0.00130681	0.00684662	0.00703799	0.00286377	0.00422393	0.00277935	0.00277546	0.00322394	0.00102737	0.00265779	0.00214807	0.00483609	0.00328235	0.00343235	0.00065748	0.00478143	0.00023567
1.46000000	0.00632855	0.00589044	0.00572116	0.00301015	0.00371425	0.00957312	0.01581435	0.00430785	0.00186161	0.00578978	0.00535616	0.00203398	0.00451463	0.00293472	0.00321765	0.00304132	0.00091148	0.00233703	0.00187309	0.00481398	0.00295733	0.00315495	0.00060149	0.00451847	0.00019492
1.47000000	0.00584826	0.00500745	0.00489003	0.00369870	0.00371445	0.00929818	0.01585352	0.00389276	0.00220222	0.00450983	0.00364634	0.00153192	0.00476355	0.00300524	0.00349909	0.00274821	0.00087749	0.00204245	0.00167397	0.00478218	0.00273589	0.00266614	0.00069493	0.00413130	0.00020407
1.48000000	0.00405844	0.00470910	0.00429938	0.00356740	0.00289022	0.00905157	0.01581569	0.00443414	0.00188650	0.00318299	0.00216025	0.00138218	0.00482017	0.00231003	0.00375863	0.00248206	0.00066891	0.00203136	0.00158668	0.00463789	0.00261052	0.00208205	0.00054103	0.00369674	0.00015265
1.49000000	0.00391788	0.00365058	0.00367707	0.00392929	0.00293947	0.00924953	0.01552053	0.00401937	0.00206103	0.00196124	0.00117802	0.00186697	0.00488773	0.00243992	0.00390831	0.00218468	0.00092110	0.00192215	0.00167676	0.00464109	0.00274366	0.00143516	0.00080170	0.00317107	0.00029001
1.50000000	0.00368254	0.00350605	0.00359389	0.00413820	0.00273442	0.00921209	0.01539453	0.00365741	0.00208801	0.00192252	0.00170933	0.00247332	0.00483494	0.00218153	0.00388235	0.00206094	0.00110009	0.00198321	0.00179745	0.00463454	0.00291044	0.00098700	0.00096050	0.00269524	0.00037255
1.51000000	0.00319636	0.00384898	0.00379553	0.00425183	0.00243923	0.00906168	0.01533428	0.00331001	0.00207264	0.00308892	0.00228239	0.00302070	0.00458942	0.00197967	0.00365304	0.00207697	0.00136106	0.00204831	0.00194472	0.00468122	0.00314683	0.00083373	0.00113498	0.00229575	0.00040048
1.52000000	0.00300773	0.00426682	0.00413770	0.00431374	0.00231128	0.00919344	0.01506002	0.00302231	0.00207187	0.00421862	0.00298678	0.00366700	0.00410557	0.00212303	0.00326163	0.00218421	0.00158525	0.00211266	0.00212694	0.00471485	0.00349108	0.00088352	0.00127233	0.00195378	0.00050188
1.53000000	0.00276622	0.00460821	0.00461062	0.00448430	0.00227584	0.00929821	0.01482959	0.00267651	0.00218641	0.00532736	0.00359671	0.00430040	0.00336915	0.00238937	0.00277331	0.00239122	0.00179254	0.00215028	0.00229104	0.00476626	0.00380467	0.00101761	0.00139554	0.00175609	0.00061944
1.54000000	0.00283998	0.00478829	0.00481759	0.00475456	0.00240846	0.00988199	0.01423206	0.00274974	0.00234318	0.00633677	0.00421244	0.00503430	0.00264638	0.00265925	0.00250288	0.00256973	0.00190486	0.00204594	0.00243678	0.00484004	0.00404256	0.00118508	0.00153521	0.00156942	0.00057291
1.55000000	0.00259079	0.00471609	0.00510772	0.00502042	0.00263864	0.00981993	0.01423839	0.00227033	0.00232331	0.00716687	0.00456219	0.00534152	0.00163836	0.00302461	0.00178916	0.00273161	0.00197030	0.00205409	0.00251612	0.00489281	0.00412539	0.00119564	0.00149539	0.00156063	0.00059077
1.56000000	0.00253270	0.00497759	0.00520847	0.00525891	0.00281223	0.00988683	0.01419139	0.00214549	0.00238152	0.00773233	0.00470258	0.00581403	0.00105687	0.00325154	0.00183134	0.00280271	0.00199046	0.00191659	0.00256248	0.00494985	0.00410379	0.00119517	0.00151450	0.00154187	0.00058812
1.57000000	0.00273159	0.00489038	0.00506997	0.00546065	0.00301061	0.01015865	0.01402968	0.00207735	0.00243511	0.00820595	0.00495925	0.00632316	0.00109270	0.00353401	0.00203900	0.00278048	0.00197646	0.00179462	0.00253498	0.00503717	0.00389478	0.00109302	0.00151730	0.00164988	0.00059012
1.58000000	0.00314450	0.00420701	0.00467622	0.00555419	0.00338907	0.01043970	0.01388769	0.00195482	0.00247024	0.00871096	0.00563687	0.00685762	0.00152190	0.00398771	0.00289501	0.00280210	0.00201242	0.00166045	0.00254248	0.00508973	0.00357247	0.00115168	0.00157357	0.00169972	0.00061293
1.59000000	0.00327388	0.00427527	0.00472101	0.00555600	0.00336046	0.01057257	0.01395419	0.00196514	0.00245559	0.00878133	0.00584031	0.00771747	0.00188249	0.00407418	0.00298920	0.00256900	0.00179238	0.00156397	0.00235324	0.00521180	0.00311008	0.00099142	0.00150905	0.00194026	0.00054710
1.60000000	0.00349059	0.00381268	0.00452639	0.00552699	0.00354509	0.01078034	0.01398631	0.00165824	0.00240293	0.00893696	0.00639263	0.00871543	0.00212433	0.00422872	0.00309995	0.00251288	0.00174772	0.00150449	0.00222787	0.00521169	0.00260594	0.00119731	0.00154567	0.00205835	0.00049489
1.61000000	0.00378474	0.00356595	0.00446065	0.00527195	0.00339091	0.01095797	0.01404424	0.00180572	0.00241175	0.00889105	0.00676408	0.01000550	0.00212746	0.00435907	0.00304277	0.00232114	0.00160235	0.00150608	0.00208594	0.00516804	0.00223589	0.00089963	0.00148417	0.00222749	0.00047567
1.62000000	0.00375774	0.00320108	0.00421310	0.00508581	0.00343762	0.01124236	0.01406517	0.00149967	0.00242004	0.00890707	0.00714755	0.01156060	0.00205988	0.00447012	0.00282120	0.00224216	0.00153327	0.00152970	0.00193635	0.00503086	0.00194162	0.00119179	0.00145508	0.00224817	0.00052387
1.63000000	0.00355616	0.00287060	0.00393826	0.00504981	0.00361061	0.01124307	0.01422237	0.00136555	0.00238422	0.00884429	0.00741737	0.01336448	0.00196444	0.00463755	0.00248243	0.00223500	0.00145815	0.00156886	0.00181256	0.00478891	0.00185779	0.00145801	0.00140353	0.00222918	0.00038009
1.64000000	0.00339498	0.00251849	0.00363097	0.00481526	0.00359647	0.01155408	0.01418894	0.00128700	0.00236110	0.00891723	0.00753228	0.01523516	0.00181875	0.00487021	0.00242453	0.00209345	0.00141107	0.00158193	0.00171834	0.00453936	0.00185410	0.00152015	0.00129972	0.00222354	0.00035268
1.65000000	0.00408111	0.00197173	0.00343232	0.00433297	0.00310026	0.01182277	0.01419554	0.00137380	0.00233926	0.00926036	0.00764868	0.01690798	0.00167330	0.00514107	0.00270783	0.00176715	0.00142653	0.00158537	0.00169658	0.00413550	0.00197459	0.00101799	0.00124431	0.00211930	0.00030469
1.66000000	0.00360809	0.00200476	0.00300786	0.00441697	0.00343180	0.01188965	0.01426925	0.00115347	0.00228175	0.00968711	0.00758342	0.01879040	0.00168368	0.00532564	0.00275056	0.00161874	0.00137107	0.00163600	0.00166328	0.00377587	0.00197855	0.00125294	0.00105959	0.00200362	0.00027149
1.67000000	0.00336992	0.00203954	0.00281588	0.00440626	0.00365192	0.01216477	0.01421031	0.00115274	0.00216525	0.01019381	0.00745678	0.02047619	0.00174139	0.00555745	0.00311238	0.00139723	0.00126967	0.00167536	0.00170045	0.00342337	0.00191700	0.00123266	0.00079034	0.00198467	0.00021389
1.68000000	0.00394235	0.00218601	0.00265785	0.00410114	0.00349088	0.01260132	0.01417670	0.00133697	0.00203269	0.01053096	0.00714326	0.02183978	0.00174494	0.00589530	0.00364000	0.00103349	0.00127588	0.00156094	0.00187133	0.00305666	0.00179646	0.00104519	0.00060491	0.00179503	0.00009386
1.69000000	0.00381266	0.00239867	0.00279404	0.00443942	0.00414362	0.01282077	0.01421428	0.00118296	0.00185989	0.01150633	0.00696902	0.02264988	0.00212049	0.00605807	0.00391393	0.00087032	0.00116433	0.00157741	0.00196597	0.00282124	0.00165694	0.00131233	0.00039252	0.00164088	0.00028782
1.70000000	0.00434792	0.00279715	0.00291790	0.00440909	0.00390390	0.01351538	0.01414812	0.00142032	0.00160749	0.01167844	0.00659696	0.02318966	0.00226656	0.00624060	0.00437781	0.00088722	0.00105385	0.00146469	0.00214877	0.00262552	0.00145540	0.00132029	0.00015589	0.00152355	0.00035853
1.71000000	0.00454773	0.00305197	0.00327563	0.00482555	0.00417909	0.01411572	0.01411339	0.00153714	0.00153607	0.01232965	0.00641586	0.02301712	0.00254211	0.00616077	0.00457612	0.00095003	0.00094444	0.00145865	0.00227538	0.00260258	0.00118643	0.00142474	0.00027737	0.00145672	0.00045418
1.72000000	0.00459511	0.00338625	0.00368057	0.00565526	0.00481071	0.01475250	0.01403285	0.00160785	0.00138909	0.01309990	0.00623543	0.02220437	0.00296842	0.00616635	0.00483890	0.00102224	0.00088673	0.00147815	0.00242917	0.00266114	0.00085504	0.00154080	0.00058695	0.00138247	0.00065490
1.73000000	0.00510048	0.00361474	0.00388713	0.00619297	0.00472384	0.01560415	0.01414542	0.00188571	0.00131643	0.01290807	0.00606100	0.02118667	0.00314761	0.00604469	0.00479403	0.00136833	0.00080649	0.00137872	0.00254051	0.00273410	0.00085946	0.00178586	0.00080323	0.00121586	0.00069504
1.74000000	0.00504319	0.00408251	0.00420959	0.00725266	0.00517825	0.01640196	0.01401512	0.00218876	0.00120209	0.01317902	0.00587440	0.01959925	0.00352704	0.00603776	0.00490369	0.00148262	0.00080455	0.00144880	0.00268266	0.00286792	0.00078148	0.00183984	0.00115893	0.00121899	0.00087757
1.75000000	0.00528138	0.00435484	0.00442587	0.00799547	0.00512760	0.01720592	0.01415109	0.00248181	0.00114754	0.01281679	0.00575544	0.01791879	0.00374548	0.00597085	0.00478591	0.00175206	0.00079284	0.00140587	0.00277220	0.00294868	0.00096762	0.00203655	0.00143887	0.00113317	0.00090802
1.76000000	0.00539619	0.00440002	0.00445010	0.00879017	0.00537302	0.01810205	0.01407061	0.00253513	0.00101552	0.01231761	0.00577485	0.01600055	0.00397703	0.00588992	0.00431056	0.00202674	0.00093320	0.00130150	0.00280238	0.00308371	0.00116420	0.00227591	0.00151273	0.00089426	0.00110613
1.77000000	0.00541565	0.00456949	0.00455369	0.00946661	0.00551783	0.01877662	0.01407719	0.00263199	0.00089778	0.01170761	0.00571307	0.01411965	0.00417218	0.00584762	0.00393139	0.00219993	0.00102452	0.00128042	0.00287144	0.00314551	0.00140552	0.00241098	0.00171989	0.00081654	0.00123982
1.78000000	0.00530974	0.00467819	0.00462763	0.01000707	0.00567974	0.01937185	0.01404180	0.00265406	0.00079478	0.01089916	0.00568978	0.01224035	0.00423194	0.00577856	0.00348013	0.00235544	0.00112055	0.00126222	0.00292833	0.00319645	0.00162574	0.00253735	0.00191814	0.00074592	0.00142850
1.79000000	0.00519476	0.00473982	0.00470159	0.01039734	0.00585171	0.01979170	0.01404485	0.00262907	0.00065694	0.00983407	0.00563497	0.01043593	0.00418556	0.00552593	0.00296335	0.00247836	0.00123222	0.00126330	0.00297127	0.00324098	0.00184268	0.00264779	0.00212251	0.00068220	0.00160477
1.80000000	0.00534791	0.00504885	0.00480397	0.01070064	0.00608730	0.01988247	0.01414424	0.00246322	0.00053784	0.00849763	0.00544607	0.00870021	0.00391456	0.00513097	0.00256288	0.00256801	0.00133066	0.00132484	0.00301206	0.00321997	0.00205953	0.00275228	0.00243333	0.00058479	0.00174947
1.81000000	0.00486469	0.00476395	0.00493005	0.01076982	0.00620086	0.02024728	0.01401832	0.00240945	0.00050516	0.00697692	0.00541524	0.00670099	0.00356138	0.00429412	0.00196611	0.00270698	0.00144856	0.00131448	0.00303743	0.00330131	0.00220648	0.00286742	0.00250300	0.00055308	0.00200154
1.82000000	0.00492739	0.00511030	0.00512121	0.01073434	0.00646204	0.02018356	0.01410059	0.00217945	0.00035989	0.00517891	0.00507893	0.00473582	0.00300545	0.00333016	0.00159174	0.00279115	0.00160469	0.00141720	0.00308830	0.00330640	0.00242661	0.00296688	0.00279893	0.00046349	0.00217661
1.83000000	0.00500036	0.00595176	0.00546195	0.01092841	0.00694206	0.01981761	0.01417200	0.00193934	0.00030994	0.00346620	0.00466868	0.00266615	0.00248313	0.00215856	0.00094346	0.00283577	0.00189052	0.00161583	0.00314917	0.00337685	0.00262797	0.00297043	0.00302336	0.00050897	0.00253706
1.84000000	0.00433321	0.00521716	0.00570028	0.01060684	0.00692283	0.02017241	0.01404441	0.00190366	0.00028680	0.00281659	0.00447647	0.00087660	0.00206701	0.00117711	0.00082261	0.00297603	0.00191473	0.00158338	0.00312233	0.00345370	0.00270604	0.00316950	0.00309078	0.00041068	0.00253781
1.85000000	0.00413522	0.00565281	0.00609156	0.01050303	0.00725929	0.02011387	0.01404858	0.00174757	0.00027290	0.00435710	0.00400443	0.00310414	0.00199941	0.00163287	0.00046878	0.00301186	0.00208339	0.00169513	0.00312669	0.00352278	0.00283485	0.00323866	0.00322450	0.00040109	0.00273990
1.86000000	0.00397335	0.00626661	0.00652900	0.01042929	0.00765032	0.02001339	0.01410135	0.00158570	0.00026820	0.00683329	0.00348034	0.00581089	0.00221828	0.00287958	0.00047353	0.00305012	0.00224627	0.00177953	0.00313733	0.00358787	0.00298330	0.00330756	0.00336502	0.00040326	0.00289317
1.87000000	0.00385615	0.00694663	0.00694870	0.01034550	0.00809119	0.01994311	0.01416465	0.00148760	0.00027270	0.00920243	0.00287057	0.00851682	0.00271681	0.00432960	0.00080274	0.00305242	0.00238753	0.00184992	0.00315203	0.00364799	0.00312530	0.00333153	0.00344142	0.00043670	0.00303471
1.88000000	0.00391869	0.00781407	0.00734310	0.01029830	0.00851472	0.01976037	0.01432970	0.00139851	0.00025955	0.01113541	0.00214888	0.01084619	0.00321540	0.00561996	0.00121452	0.00306910	0.00253104	0.00191621	0.00311176	0.00370513	0.00321514	0.00335379	0.00349904	0.00044883	0.00320312
1.89000000	0.00417410	0.00849690	0.00784952	0.01032482	0.00867185	0.01938594	0.01457038	0.00140289	0.00021029	0.01315059	0.00236440	0.01218194	0.00328296	0.00621139	0.00124232	0.00293560	0.00268393	0.00208047	0.00310039	0.00363266	0.00338583	0.00328646	0.00363232	0.00044201	0.00334638
1.90000000	0.00415044	0.00884917	0.00800660	0.01029539	0.00911121	0.01923910	0.01467671	0.00155409	0.00033908	0.01347932	0.00190218	0.01325924	0.00365643	0.00694781	0.00170106	0.00287640	0.00276386	0.00207682	0.00308812	0.00366751	0.00346761	0.00319834	0.00365281	0.00064021	0.00346676
1.91000000	0.00450643	0.00931801	0.00836436	0.01037941	0.00904385	0.01871390	0.01490308	0.00160927	0.00045307	0.01375995	0.00212867	0.01296043	0.00347721	0.00677701	0.00169673	0.00263496	0.00290628	0.00225564	0.00308790	0.00356009	0.00361763	0.00302627	0.00377043	0.00072844	0.00368988
1.92000000	0.00488408	0.00907462	0.00831551	0.01019363	0.00932906	0.01842309	0.01501918	0.00195689	0.00037498	0.01263349	0.00202592	0.01232301	0.00335096	0.00656626	0.00183634	0.00254800	0.00291115	0.00225811	0.00305903	0.00349710	0.00363660	0.00288294	0.00378039	0.00092028	0.00370899
1.93000000	0.00535647	0.00918308	0.00841846	0.01019359	0.00904301	0.01768393	0.01523903	0.00196886	0.00059882	0.01117218	0.00200671	0.01084048	0.00303360	0.00571356	0.00174409	0.00223334	0.00302123	0.00240966	0.00305628	0.00337643	0.00376771	0.00264732	0.00388350	0.00112594	0.00394461
1.94000000	0.00601807	0.00834277	0.00828686	0.00979284	0.00908405	0.01722983	0.01535123	0.00237709	0.00058966	0.00938470	0.00192155	0.00918354	0.00251254	0.00478874	0.00176266	0.00199314	0.00298560	0.00242619	0.00307400	0.00319303	0.00375695	0.00232542	0.00386811	0.00140661	0.00396588
1.95000000	0.00643446	0.00817808	0.00826166	0.00946401	0.00852281	0.01629589	0.01563108	0.00230288	0.00083708	0.00713777	0.00212685	0.00758482	0.00217636	0.00364883	0.00175036	0.00170278	0.00311384	0.00245521	0.00299872	0.00298104	0.00379539	0.00209832	0.00404476	0.00162341	0.00417306
1.96000000	0.00727700	0.00685760	0.00794021	0.00884607	0.00822926	0.01552019	0.01584006	0.00242189	0.00081505	0.00548797	0.00226722	0.00620117	0.00164587	0.00256157	0.00163940	0.00146380	0.00313767	0.00240620	0.00296214	0.00267195	0.00380509	0.00182403	0.00398890	0.00191472	0.00430372
1.97000000	0.00752083	0.00639363	0.00785585	0.00814860	0.00740551	0.01438538	0.01627058	0.00223275	0.00108357	0.00367354	0.00296879	0.00546049	0.00143565	0.00164132	0.00151791	0.00134557	0.00327315	0.00226965	0.00279271	0.00235606	0.00372207	0.00163492	0.00410830	0.00223543	0.00440335
1.98000000	0.00764307	0.00586268	0.00764200	0.00713646	0.00635663	0.01337010	0.01668206	0.00203138	0.00115029	0.00260120	0.00388007	0.00518328	0.00103496	0.00123438	0.00167055	0.00128200	0.00336860	0.00205734	0.00266452	0.00194017	0.00378353	0.00155486	0.00417995	0.00256968	0.00449077
1.99000000	0.00823738	0.00420587	0.00727512	0.00593420	0.00556210	0.01239644	0.01717330	0.00207652	0.00112947	0.00340401	0.00333579	0.00460834	0.00115365	0.00043489	0.00090243	0.00136271	0.00340338	0.00180584	0.00251857	0.00149884	0.00391172	0.00165847	0.00412026	0.00283719	0.00445819
2.00000000	0.00800819	0.00398755	0.00659158	0.00461372	0.00422657	0.01142121	0.01777555	0.00203742	0.00136759	0.00396047	0.00409487	0.00490431	0.00124184	0.00053562	0.00152947	0.00144729	0.00344778	0.00139933	0.00241468	0.00117333	0.00410184	0.00171895	0.00401101	0.00301031	0.00443428
2.01000000	0.00820049	0.00296264	0.00618566	0.00337965	0.00319892	0.01066356	0.01831527	0.00258395	0.00158235	0.00466555	0.00339852	0.00402139	0.00215110	0.00042179	0.00116929	0.00152551	0.00338814	0.00114831	0.00237572	0.00087525	0.00439863	0.00182979	0.00374515	0.00313876	0.00435863
2.02000000	0.00765325	0.00269603	0.00522109	0.00215817	0.00201647	0.01017211	0.01894135	0.00333287	0.00188353	0.00573335	0.00414690	0.00375441	0.00266376	0.00056464	0.00245663	0.00147453	0.00324670	0.00077161	0.00247658	0.00080366	0.00474504	0.00170888	0.00343311	0.00301415	0.00412559
2.03000000	0.00782062	0.00199768	0.00503818	0.00240141	0.00175135	0.00976219	0.01952251	0.00449197	0.00180809	0.00622968	0.00370219	0.00264313	0.00339014	0.00072079	0.00287351	0.00134945	0.00292681	0.00071576	0.00261551	0.00075643	0.00503726	0.00149708	0.00297853	0.00296385	0.00383294
2.04000000	0.00704711	0.00139624	0.00428278	0.00389714	0.00256409	0.00965890	0.02005295	0.00538125	0.00209777	0.00726027	0.00424958	0.00196572	0.00368666	0.00093176	0.00338996	0.00127311	0.00264273	0.00074105	0.00290397	0.00105205	0.00545523	0.00139399	0.00252538	0.00259746	0.00353117
2.05000000	0.00712481	0.00095951	0.00409131	0.00539982	0.00337616	0.00963867	0.02053971	0.00636479	0.00181493	0.00773320	0.00428141	0.00139163	0.00376807	0.00117022	0.00390653	0.00116692	0.00242234	0.00091683	0.00303481	0.00130865	0.00557918	0.00128058	0.00218713	0.00236043	0.00331129
2.06000000	0.00743195	0.00056555	0.00435481	0.00663502	0.00395421	0.01017450	0.02065710	0.00738257	0.00145749	0.00742547	0.00347994	0.00116903	0.00385653	0.00114973	0.00363053	0.00116355	0.00221149	0.00102074	0.00317547	0.00154706	0.00566566	0.00124534	0.00194330	0.00210653	0.00307802
2.07000000	0.00704390	0.00101086	0.00450150	0.00801382	0.00490213	0.01030852	0.02107007	0.00787595	0.00137821	0.00708313	0.00337670	0.00105910	0.00344127	0.00146871	0.00358138	0.00125917	0.00205957	0.00112461	0.00335627	0.00182621	0.00580363	0.00138317	0.00170340	0.00183440	0.00292309
2.08000000	0.00711106	0.00159167	0.00493920	0.00878319	0.00540622	0.01086412	0.02115387	0.00835279	0.00113200	0.00655422	0.00280749	0.00119109	0.00313649	0.00149919	0.00319396	0.00132595	0.00201001	0.00124317	0.00346882	0.00201801	0.00587689	0.00165719	0.00170546	0.00155091	0.00282737
2.09000000	0.00718685	0.00226843	0.00525364	0.00915255	0.00585790	0.01157494	0.02101245	0.00883666	0.00114161	0.00592852	0.00257049	0.00126379	0.00269402	0.00133254	0.00289112	0.00158337	0.00207684	0.00117319	0.00350578	0.00233563	0.00584292	0.00187275	0.00175441	0.00139895	0.00278672
2.10000000	0.00696820	0.00287411	0.00546081	0.00943506	0.00640752	0.01219154	0.02089116	0.00892661	0.00128876	0.00526676	0.00244223	0.00132215	0.00224935	0.00143419	0.00258944	0.00179174	0.00223130	0.00116597	0.00352134	0.00252340	0.00591527	0.00214385	0.00189073	0.00122928	0.00282791
2.11000000	0.00535511	0.00350630	0.00571406	0.01039118	0.00779666	0.01234472	0.02070950	0.00860995	0.00291100	0.00452472	0.00276377	0.00156951	0.00163159	0.00187488	0.00277559	0.00217657	0.00250177	0.00130025	0.00355537	0.00278262	0.00617568	0.00259332	0.00225789	0.00114860	0.00275627
2.12000000	0.00643696	0.00409042	0.00570824	0.00952003	0.00757739	0.01358347	0.02044181	0.00878063	0.00187726	0.00408039	0.00242014	0.00141804	0.00160402	0.00151671	0.00227116	0.00211176	0.00276841	0.00109250	0.00335682	0.00267007	0.00608951	0.00247483	0.00240434	0.00108150	0.00301963
2.13000000	0.00598335	0.00461483	0.00571712	0.00971051	0.00860765	0.01404542	0.02028095	0.00834098	0.00249281	0.00372871	0.00256229	0.00154492	0.00139784	0.00176624	0.00220394	0.00228694	0.00304101	0.00106671	0.00324375	0.00269527	0.00623261	0.00257405	0.00266969	0.00108968	0.00307284
2.14000000	0.00587223	0.00492423	0.00583995	0.00948707	0.00901157	0.01504736	0.02006862	0.00801966	0.00268635	0.00366483	0.00260487	0.00137439	0.00141559	0.00170088	0.00225128	0.00240921	0.00335200	0.00104060	0.00301503	0.00260294	0.00632126	0.00257365	0.00292732	0.00110395	0.00320290
2.15000000	0.00553253	0.00507912	0.00576136	0.00937417	0.00970562	0.01598211	0.01972783	0.00788919	0.00346358	0.00372021	0.00310539	0.00116439	0.00160206	0.00136118	0.00231867	0.00260349	0.00349022	0.00111646	0.00293358	0.00246684	0.00661705	0.00263587	0.00308700	0.00116221	0.00310867
2.16000000	0.00498010	0.00497447	0.00562321	0.00886089	0.00933179	0.01762763	0.01931247	0.00779667	0.00336363	0.00382138	0.00310636	0.00114688	0.00174194	0.00145116	0.00249227	0.00269760	0.00379425	0.00119460	0.00265893	0.00215658	0.00678261	0.00254258	0.00331893	0.00109783	0.00320722
2.17000000	0.00487057	0.00480673	0.00553109	0.00911968	0.00968959	0.01852010	0.01908008	0.00733192	0.00390162	0.00456282	0.00427610	0.00152508	0.00205492	0.00148047	0.00214050	0.00303260	0.00378149	0.00121836	0.00259248	0.00209855	0.00693752	0.00268911	0.00351287	0.00117566	0.00279361
2.18000000	0.00483306	0.00431099	0.00503286	0.00886163	0.01010532	0.01962760	0.01859120	0.00750318	0.00426000	0.00478192	0.00394876	0.00177172	0.00212550	0.00125376	0.00284598	0.00297545	0.00388075	0.00123028	0.00228553	0.00173376	0.00678309	0.00238287	0.00347889	0.00142170	0.00294476
2.19000000	0.00425326	0.00466550	0.00459789	0.00854923	0.00936298	0.02110029	0.01819658	0.00739153	0.00425406	0.00389603	0.00292553	0.00192888	0.00244427	0.00171354	0.00279917	0.00290896	0.00374656	0.00134493	0.00214297	0.00117463	0.00679934	0.00215919	0.00327211	0.00128297	0.00286101
2.20000000	0.00440015	0.00404084	0.00405628	0.00882074	0.00939068	0.02187748	0.01808412	0.00761387	0.00457639	0.00457343	0.00375469	0.00239699	0.00264571	0.00166450	0.00254978	0.00315758	0.00361687	0.00132648	0.00204968	0.00116784	0.00648821	0.00213420	0.00317410	0.00142359	0.00257761
2.21000000	0.00426785	0.00373700	0.00362699	0.00905762	0.00926028	0.02294936	0.01773698	0.00795624	0.00479070	0.00465631	0.00358000	0.00276992	0.00284427	0.00157860	0.00300873	0.00308737	0.00336252	0.00136930	0.00194479	0.00116103	0.00606162	0.00202676	0.00292263	0.00155134	0.00242481
2.22000000	0.00369186	0.00392862	0.00327197	0.00926587	0.00877908	0.02399763	0.01762037	0.00801566	0.00478177	0.00463510	0.00306486	0.00315148	0.00302214	0.00159121	0.00313980	0.00312443	0.00306856	0.00138963	0.00196171	0.00130064	0.00562773	0.00185313	0.00249936	0.00157157	0.00216296
2.23000000	0.00425589	0.00359036	0.00296604	0.01013454	0.00872742	0.02449321	0.01768023	0.00832577	0.00483295	0.00509294	0.00400096	0.00329865	0.00304699	0.00196084	0.00251439	0.00317734	0.00277435	0.00124049	0.00187693	0.00158680	0.00499576	0.00179875	0.00242552	0.00184065	0.00188162
2.24000000	0.00370575	0.00389060	0.00283693	0.01057579	0.00827556	0.02488884	0.01790117	0.00853753	0.00498620	0.00481324	0.00295785	0.00343040	0.00308409	0.00194769	0.00276845	0.00295600	0.00231479	0.00124387	0.00196199	0.00209854	0.00458756	0.00159568	0.00183946	0.00177445	0.00168017
2.25000000	0.00415741	0.00378309	0.00282381	0.01137794	0.00792467	0.02495596	0.01806615	0.00895340	0.00524082	0.00510251	0.00295373	0.00364793	0.00304825	0.00201121	0.00272574	0.00290137	0.00208424	0.00120108	0.00193515	0.00244898	0.00401987	0.00146220	0.00149617	0.00197322	0.00143671
2.26000000	0.00516646	0.00385247	0.00304402	0.01261294	0.00771288	0.02474295	0.01822187	0.00908784	0.00525758	0.00539285	0.00425823	0.00375932	0.00290995	0.00272215	0.00221184	0.00279117	0.00191095	0.00117863	0.00185438	0.00280145	0.00350944	0.00126613	0.00157277	0.00240488	0.00118246
2.27000000	0.00445362	0.00396090	0.00308902	0.01323580	0.00725428	0.02423698	0.01847858	0.00910874	0.00532603	0.00535404	0.00310558	0.00467205	0.00278220	0.00242952	0.00230753	0.00266804	0.00162400	0.00111829	0.00202325	0.00323816	0.00342578	0.00126369	0.00077650	0.00218372	0.00098742
2.28000000	0.00487695	0.00398167	0.00326204	0.01395735	0.00668178	0.02357333	0.01861908	0.00906554	0.00544009	0.00566427	0.00315699	0.00560654	0.00264134	0.00275160	0.00204830	0.00250014	0.00158652	0.00113688	0.00202867	0.00361199	0.00318430	0.00119288	0.00039850	0.00237443	0.00070823
2.29000000	0.00524212	0.00387084	0.00341353	0.01454715	0.00607323	0.02271995	0.01864721	0.00882488	0.00537021	0.00628690	0.00334719	0.00670976	0.00247618	0.00302201	0.00182030	0.00227905	0.00152381	0.00116616	0.00204252	0.00398114	0.00309019	0.00123707	0.00015274	0.00253757	0.00053063
2.30000000	0.00534390	0.00358743	0.00342831	0.01502886	0.00553794	0.02146131	0.01870714	0.00841393	0.00498768	0.00686501	0.00415192	0.00801929	0.00221165	0.00345311	0.00132930	0.00208332	0.00152417	0.00121992	0.00213537	0.00432216	0.00316649	0.00107223	0.00030652	0.00271243	0.00024514
2.31000000	0.00548131	0.00316805	0.00337800	0.01496965	0.00486680	0.02027509	0.01849915	0.00793077	0.00448596	0.00727840	0.00518361	0.00954887	0.00206435	0.00372663	0.00120950	0.00182754	0.00155768	0.00129124	0.00215781	0.00470438	0.00322219	0.00115121	0.00061883	0.00292577	0.00009338
2.32000000	0.00553442	0.00300705	0.00337609	0.01434183	0.00425861	0.01897679	0.01807120	0.00729882	0.00396610	0.00806099	0.00559445	0.01067891	0.00199366	0.00402114	0.00092616	0.00166136	0.00161407	0.00139615	0.00217684	0.00494498	0.00335139	0.00128199	0.00086766	0.00312597	0.00021200
2.33000000	0.00556997	0.00254226	0.00329054	0.01343162	0.00391773	0.01725224	0.01767161	0.00649241	0.00324612	0.00852722	0.00641188	0.01170210	0.00187646	0.00424129	0.00097593	0.00146363	0.00161917	0.00149175	0.00215348	0.00522310	0.00345150	0.00149826	0.00109392	0.00332298	0.00034013
2.34000000	0.00542715	0.00237975	0.00327434	0.01185706	0.00375136	0.01543578	0.01717269	0.00564176	0.00257692	0.00884342	0.00703583	0.01243501	0.00192409	0.00436444	0.00114178	0.00143697	0.00167401	0.00157807	0.00217321	0.00539295	0.00363437	0.00163578	0.00127071	0.00351341	0.00047028
2.35000000	0.00531137	0.00262757	0.00321750	0.00944128	0.00385838	0.01403073	0.01662291	0.00488663	0.00231748	0.00968035	0.00739225	0.01233525	0.00200365	0.00425247	0.00107738	0.00155238	0.00161158	0.00186014	0.00204142	0.00552521	0.00389215	0.00203001	0.00128584	0.00396527	0.00058649
2.36000000	0.00513377	0.00239759	0.00333481	0.00717011	0.00392898	0.01209858	0.01636639	0.00376939	0.00121419	0.00930967	0.00799848	0.01281142	0.00213693	0.00437946	0.00142118	0.00142712	0.00165439	0.00174151	0.00205406	0.00562949	0.00387584	0.00205848	0.00150731	0.00389940	0.00064011
2.37000000	0.00509559	0.00273388	0.00357683	0.00465128	0.00407852	0.01164803	0.01604214	0.00295774	0.00065837	0.00950016	0.00818700	0.01254298	0.00227470	0.00435930	0.00150872	0.00152356	0.00157716	0.00191985	0.00196798	0.00564999	0.00400451	0.00231917	0.00150229	0.00412027	0.00064596
2.38000000	0.00518746	0.00289662	0.00375675	0.00404093	0.00409580	0.01187583	0.01621988	0.00203118	0.00017808	0.00954599	0.00874625	0.01224481	0.00240733	0.00435083	0.00161430	0.00161942	0.00150275	0.00199833	0.00187932	0.00566899	0.00401225	0.00246554	0.00151107	0.00431822	0.00062711
2.39000000	0.00599779	0.00319211	0.00423359	0.00611216	0.00400419	0.01347293	0.01625593	0.00174132	0.00068493	0.00988062	0.00890889	0.01167512	0.00249080	0.00429309	0.00154460	0.00185987	0.00135162	0.00214161	0.00177755	0.00562311	0.00405756	0.00274050	0.00141026	0.00461061	0.00060833
2.40000000	0.00686370	0.00347588	0.00476136	0.00881902	0.00379955	0.01550493	0.01643090	0.00197669	0.00106081	0.01011238	0.00926644	0.01111963	0.00252785	0.00428286	0.00155214	0.00204309	0.00118827	0.00225436	0.00171556	0.00554803	0.00403583	0.00294041	0.00130855	0.00488048	0.00054018
2.41000000	0.00745239	0.00383347	0.00513730	0.01103648	0.00356309	0.01747208	0.01670604	0.00236442	0.00147316	0.00997407	0.01004128	0.01083129	0.00263393	0.00433573	0.00168302	0.00215682	0.00103297	0.00230008	0.00167772	0.00549002	0.00394426	0.00305721	0.00122709	0.00504539	0.00044097
2.42000000	0.00847189	0.00424252	0.00553818	0.01246756	0.00352156	0.01897028	0.01683429	0.00252243	0.00160983	0.01008311	0.01044675	0.01039160	0.00260544	0.00428691	0.00161191	0.00229401	0.00090023	0.00235675	0.00160822	0.00550890	0.00383346	0.00321408	0.00114559	0.00542257	0.00042071
2.43000000	0.00918584	0.00454397	0.00601999	0.01306451	0.00334730	0.01959545	0.01680941	0.00277970	0.00172014	0.01021011	0.01104280	0.00982352	0.00260007	0.00414249	0.00153611	0.00247191	0.00068130	0.00233070	0.00167135	0.00526598	0.00385889	0.00335485	0.00094853	0.00561174	0.00032011
2.44000000	0.00989983	0.00475564	0.00640331	0.01227005	0.00302216	0.01963860	0.01660342	0.00297852	0.00200403	0.01029457	0.01128569	0.00946335	0.00243242	0.00412379	0.00162795	0.00259240	0.00041960	0.00238837	0.00174360	0.00510697	0.00377009	0.00336062	0.00083484	0.00598914	0.00033379
2.45000000	0.01024736	0.00531434	0.00664181	0.01099079	0.00301490	0.01843409	0.01653072	0.00296227	0.00209595	0.01032751	0.01183478	0.00887096	0.00242229	0.00388698	0.00155034	0.00263087	0.00054520	0.00239904	0.00177040	0.00501729	0.00380028	0.00354486	0.00061344	0.00607881	0.00028131
2.46000000	0.01058185	0.00574472	0.00687382	0.00898779	0.00303163	0.01689949	0.01632561	0.00244942	0.00162834	0.01016528	0.01237305	0.00845540	0.00255933	0.00374656	0.00157851	0.00275417	0.00046424	0.00228788	0.00177787	0.00488080	0.00375187	0.00382119	0.00036273	0.00614643	0.00015611
2.47000000	0.01073146	0.00624787	0.00707881	0.00671235	0.00299012	0.01512927	0.01617699	0.00211879	0.00126547	0.01012252	0.01256074	0.00807604	0.00260683	0.00367134	0.00173784	0.00279980	0.00071173	0.00227508	0.00182657	0.00474632	0.00368078	0.00398401	0.00018055	0.00620190	0.00037986
2.48000000	0.01069853	0.00682546	0.00719646	0.00443913	0.00290692	0.01355736	0.01605017	0.00217353	0.00100429	0.01011206	0.01258543	0.00763015	0.00270386	0.00353530	0.00188026	0.00284475	0.00112817	0.00224666	0.00189701	0.00457804	0.00363307	0.00413611	0.00054175	0.00621051	0.00064403
2.49000000	0.01046271	0.00745219	0.00715660	0.00243705	0.00286030	0.01235195	0.01602770	0.00253076	0.00078081	0.00992139	0.01247220	0.00703999	0.00290180	0.00339840	0.00203815	0.00294016	0.00147917	0.00216589	0.00188431	0.00448168	0.00353614	0.00433734	0.00093589	0.00627266	0.00086972
2.50000000	0.01035385	0.00777564	0.00718585	0.00135609	0.00287716	0.01180994	0.01588412	0.00311394	0.00056636	0.00971488	0.01194857	0.00631356	0.00326401	0.00326882	0.00229351	0.00300344	0.00190491	0.00203476	0.00185953	0.00434289	0.00336020	0.00452907	0.00137767	0.00622096	0.00127301
2.51000000	0.01014194	0.00806204	0.00715171	0.00152719	0.00281213	0.01160657	0.01578637	0.00354415	0.00033192	0.00935085	0.01108128	0.00540871	0.00353260	0.00312412	0.00254526	0.00307092	0.00234422	0.00186799	0.00175034	0.00424557	0.00311593	0.00464406	0.00188164	0.00620917	0.00154689
2.52000000	0.00927801	0.00851906	0.00672735	0.00242155	0.00276466	0.01108418	0.01599540	0.00327071	0.00055764	0.00882145	0.01033010	0.00440488	0.00377966	0.00297288	0.00294320	0.00302472	0.00281663	0.00155831	0.00160529	0.00405195	0.00282067	0.00447342	0.00230285	0.00610887	0.00180200
2.53000000	0.00892877	0.00831175	0.00627820	0.00292531	0.00289701	0.01076819	0.01596594	0.00319279	0.00074609	0.00796326	0.00886591	0.00350274	0.00413355	0.00300547	0.00337805	0.00289054	0.00300215	0.00122495	0.00134229	0.00411413	0.00237114	0.00431719	0.00253515	0.00590904	0.00199538
2.54000000	0.00844189	0.00777058	0.00565571	0.00341044	0.00304077	0.01043520	0.01595989	0.00294165	0.00109968	0.00682466	0.00717860	0.00257456	0.00447637	0.00306999	0.00376307	0.00264927	0.00308814	0.00087695	0.00107122	0.00418177	0.00191369	0.00396867	0.00258880	0.00556137	0.00207739
2.55000000	0.00683206	0.00749321	0.00501106	0.00342705	0.00274008	0.01018316	0.01591207	0.00337960	0.00128673	0.00535373	0.00548555	0.00142689	0.00464071	0.00263055	0.00402912	0.00240945	0.00316624	0.00071512	0.00085745	0.00422928	0.00150130	0.00343033	0.00258229	0.00523046	0.00206384
2.56000000	0.00551565	0.00654846	0.00437475	0.00361969	0.00263496	0.01020367	0.01577148	0.00363770	0.00146143	0.00364185	0.00343985	0.00101358	0.00483200	0.00237125	0.00413138	0.00209020	0.00302830	0.00061566	0.00067165	0.00435139	0.00114369	0.00277312	0.00228931	0.00468238	0.00191200
2.57000000	0.00416327	0.00545115	0.00368299	0.00395201	0.00269835	0.01020325	0.01572159	0.00364504	0.00175260	0.00195183	0.00145952	0.00140872	0.00490260	0.00207083	0.00413090	0.00196689	0.00278781	0.00068035	0.00068255	0.00457485	0.00097577	0.00208356	0.00180357	0.00412503	0.00166719
2.58000000	0.00343135	0.00439090	0.00323987	0.00432159	0.00289487	0.01035349	0.01565175	0.00335199	0.00202732	0.00138848	0.00076698	0.00225501	0.00488006	0.00210081	0.00402509	0.00210247	0.00254036	0.00083717	0.00089770	0.00486852	0.00106096	0.00154362	0.00120465	0.00355668	0.00139843
2.59000000	0.00243959	0.00418318	0.00302443	0.00450556	0.00276045	0.01035960	0.01550942	0.00351923	0.00212527	0.00265005	0.00156997	0.00302791	0.00471471	0.00194422	0.00373047	0.00238745	0.00240803	0.00100516	0.00104922	0.00513813	0.00133747	0.00124323	0.00077232	0.00319663	0.00110384
2.60000000	0.00221943	0.00413982	0.00321400	0.00474475	0.00284235	0.01035258	0.01537555	0.00327894	0.00229353	0.00378289	0.00217392	0.00386090	0.00439088	0.00211034	0.00334040	0.00278807	0.00236296	0.00112996	0.00125113	0.00534226	0.00160246	0.00116586	0.00039933	0.00288832	0.00088471
2.61000000	0.00212597	0.00411286	0.00324936	0.00501736	0.00292766	0.01065804	0.01488379	0.00339824	0.00243158	0.00481844	0.00280732	0.00470553	0.00381295	0.00250722	0.00293853	0.00301500	0.00226834	0.00121068	0.00144383	0.00561974	0.00189382	0.00113441	0.00037937	0.00273554	0.00069723
2.62000000	0.00180943	0.00433379	0.00365247	0.00519677	0.00300814	0.01030481	0.01491076	0.00309362	0.00229236	0.00569480	0.00295822	0.00525167	0.00315798	0.00253172	0.00227769	0.00322983	0.00222528	0.00121854	0.00158938	0.00579946	0.00199811	0.00120985	0.00065230	0.00269172	0.00044562
2.63000000	0.00174626	0.00442447	0.00391992	0.00539547	0.00306435	0.01032750	0.01465972	0.00303374	0.00238745	0.00637945	0.00319606	0.00575334	0.00234179	0.00264403	0.00189374	0.00331931	0.00218529	0.00119674	0.00169494	0.00590364	0.00201016	0.00120676	0.00086558	0.00275060	0.00034957
2.64000000	0.00199425	0.00437111	0.00397654	0.00560502	0.00326963	0.01041089	0.01445590	0.00288923	0.00227433	0.00675885	0.00353158	0.00622915	0.00153124	0.00282743	0.00144872	0.00327027	0.00210256	0.00115300	0.00175001	0.00595637	0.00191582	0.00127096	0.00100758	0.00284240	0.00026564
2.65000000	0.00242390	0.00374033	0.00373940	0.00592854	0.00360423	0.01075131	0.01407448	0.00294003	0.00227967	0.00728687	0.00444003	0.00650970	0.00091463	0.00314285	0.00178569	0.00327284	0.00204155	0.00112423	0.00184805	0.00594346	0.00158008	0.00143644	0.00118521	0.00286598	0.00015010
2.66000000	0.00256947	0.00431157	0.00400764	0.00596516	0.00356611	0.01086122	0.01411428	0.00272178	0.00219324	0.00719679	0.00461725	0.00712647	0.00070286	0.00309879	0.00139606	0.00292655	0.00185334	0.00103493	0.00166013	0.00593353	0.00133172	0.00142020	0.00116733	0.00311941	0.00015385
2.67000000	0.00284748	0.00337324	0.00418534	0.00618268	0.00418934	0.01085799	0.01435326	0.00205028	0.00205417	0.00771885	0.00549420	0.00753932	0.00099657	0.00335036	0.00290844	0.00254148	0.00168761	0.00107761	0.00152361	0.00597775	0.00097158	0.00220241	0.00141547	0.00283978	0.00035109
2.68000000	0.00300142	0.00370127	0.00383292	0.00628873	0.00410286	0.01160958	0.01392928	0.00250876	0.00192251	0.00737159	0.00634892	0.00844752	0.00124201	0.00356028	0.00171644	0.00260006	0.00165339	0.00091464	0.00147765	0.00564109	0.00047865	0.00198017	0.00115495	0.00309499	0.00018853
2.69000000	0.00298963	0.00366421	0.00378548	0.00627028	0.00409490	0.01216934	0.01387500	0.00250751	0.00184211	0.00736162	0.00683479	0.00954616	0.00147366	0.00374417	0.00157684	0.00226932	0.00157213	0.00086404	0.00129460	0.00544020	0.00073297	0.00197559	0.00109294	0.00313149	0.00019777
2.70000000	0.00288898	0.00350816	0.00356433	0.00641182	0.00434102	0.01257529	0.01393331	0.00246095	0.00175713	0.00737633	0.00724707	0.01088380	0.00159262	0.00403838	0.00148203	0.00213328	0.00152758	0.00076507	0.00128145	0.00513881	0.00124608	0.00200254	0.00096768	0.00298253	0.00022424
2.71000000	0.00278696	0.00323012	0.00322272	0.00652942	0.00450156	0.01312460	0.01393310	0.00247733	0.00169771	0.00752658	0.00747659	0.01246414	0.00163588	0.00440964	0.00157886	0.00194303	0.00153340	0.00067476	0.00133029	0.00479913	0.00175852	0.00192657	0.00086265	0.00279883	0.00025214
2.72000000	0.00330085	0.00238208	0.00297030	0.00665523	0.00435883	0.01371778	0.01391238	0.00262556	0.00184225	0.00781428	0.00751829	0.01420062	0.00155827	0.00482271	0.00197412	0.00164110	0.00158837	0.00070836	0.00139264	0.00440033	0.00209117	0.00138563	0.00087385	0.00263676	0.00017606
2.73000000	0.00311209	0.00229591	0.00217539	0.00694628	0.00476437	0.01414291	0.01398672	0.00259235	0.00156725	0.00852803	0.00754789	0.01606357	0.00169423	0.00507395	0.00209639	0.00152200	0.00165372	0.00059818	0.00166128	0.00392651	0.00260583	0.00153353	0.00073093	0.00237323	0.00032145
2.74000000	0.00394758	0.00154760	0.00171972	0.00723706	0.00440750	0.01479581	0.01390904	0.00297053	0.00166630	0.00922441	0.00736270	0.01785799	0.00163023	0.00550065	0.00260378	0.00147000	0.00161526	0.00060324	0.00175957	0.00347015	0.00283684	0.00128186	0.00074251	0.00213468	0.00030677
2.75000000	0.00390155	0.00185689	0.00094585	0.00767566	0.00516227	0.01525180	0.01399231	0.00289143	0.00124092	0.01037771	0.00711681	0.01955017	0.00186610	0.00588275	0.00281702	0.00143522	0.00164252	0.00036904	0.00206663	0.00309371	0.00329687	0.00155177	0.00054514	0.00189804	0.00054184
2.76000000	0.00455701	0.00141620	0.00076931	0.00808967	0.00488224	0.01600973	0.01388045	0.00314264	0.00166990	0.01089948	0.00686373	0.02115106	0.00182054	0.00617468	0.00351010	0.00153806	0.00151604	0.00045848	0.00216646	0.00269388	0.00340231	0.00144117	0.00048454	0.00174342	0.00051391
2.77000000	0.00469829	0.00172866	0.00113281	0.00873616	0.00542745	0.01661279	0.01382557	0.00332120	0.00133742	0.01207480	0.00665732	0.02206153	0.00217355	0.00648336	0.00397107	0.00165478	0.00141347	0.00047866	0.00238902	0.00240247	0.00372614	0.00156990	0.00037923	0.00163513	0.00071452
2.78000000	0.00501719	0.00195967	0.00158969	0.00931263	0.00549613	0.01741402	0.01379923	0.00356213	0.00148043	0.01281148	0.00646381	0.02255307	0.00237201	0.00658000	0.00436505	0.00188645	0.00128635	0.00060196	0.00255236	0.00228059	0.00400110	0.00166429	0.00039245	0.00160178	0.00085337
2.79000000	0.00571741	0.00187504	0.00195181	0.00991763	0.00541070	0.01826030	0.01393093	0.00378417	0.00147032	0.01300329	0.00637610	0.02254981	0.00258888	0.00646889	0.00428767	0.00225586	0.00104688	0.00088652	0.00254626	0.00224689	0.00410396	0.00198801	0.00042546	0.00131385	0.00097405
2.80000000	0.00586158	0.00231925	0.00226098	0.01063007	0.00567141	0.01897716	0.01395348	0.00396528	0.00146314	0.01347146	0.00620246	0.02191055	0.00286539	0.00644105	0.00452196	0.00242107	0.00102208	0.00109933	0.00273181	0.00237044	0.00440381	0.00209881	0.00075195	0.00131399	0.00118114
2.81000000	0.00652110	0.00342155	0.00245005	0.01165997	0.00705437	0.01923696	0.01389651	0.00376123	0.00097135	0.01425259	0.00602322	0.02062646	0.00329442	0.00632803	0.00437957	0.00256979	0.00100642	0.00147354	0.00288019	0.00244919	0.00460736	0.00237314	0.00099264	0.00102585	0.00147735
2.82000000	0.00638741	0.00300251	0.00274648	0.01168224	0.00587614	0.02046302	0.01392765	0.00423877	0.00151931	0.01336386	0.00583878	0.01940909	0.00319432	0.00610765	0.00468620	0.00280208	0.00092394	0.00154095	0.00282475	0.00278182	0.00475025	0.00245786	0.00125679	0.00117095	0.00140415
2.83000000	0.00654520	0.00313693	0.00294203	0.01234158	0.00626057	0.02088298	0.01372635	0.00427216	0.00142701	0.01307573	0.00576356	0.01768100	0.00325613	0.00566895	0.00444537	0.00287781	0.00083827	0.00177715	0.00284245	0.00298679	0.00489069	0.00255443	0.00146238	0.00109741	0.00150266
2.84000000	0.00648004	0.00298405	0.00294123	0.01263190	0.00641204	0.02158869	0.01313983	0.00449859	0.00120279	0.01247579	0.00568244	0.01578359	0.00323033	0.00510391	0.00402247	0.00298234	0.00081562	0.00198726	0.00283557	0.00320731	0.00500561	0.00271603	0.00154946	0.00086749	0.00165602
2.85000000	0.00679975	0.00345423	0.00302584	0.01277075	0.00655222	0.02182718	0.01270646	0.00454481	0.00123065	0.01159752	0.00548024	0.01397385	0.00299379	0.00468834	0.00388253	0.00301463	0.00097068	0.00204141	0.00286670	0.00326138	0.00513083	0.00280369	0.00192829	0.00085731	0.00163577
2.86000000	0.00650008	0.00339430	0.00310988	0.01300339	0.00678378	0.02214285	0.01192131	0.00460828	0.00124532	0.01063973	0.00537211	0.01185018	0.00272797	0.00394158	0.00326273	0.00309031	0.00100308	0.00217207	0.00286447	0.00342644	0.00530266	0.00287129	0.00194215	0.00075079	0.00182689
2.87000000	0.00644430	0.00350525	0.00324010	0.01309229	0.00705393	0.02223101	0.01110184	0.00462686	0.00134625	0.00931138	0.00528352	0.00976854	0.00244775	0.00319912	0.00270604	0.00311424	0.00110890	0.00224395	0.00290732	0.00343524	0.00546492	0.00290309	0.00202841	0.00071972	0.00194861
2.88000000	0.00650335	0.00373350	0.00340109	0.01305937	0.00725443	0.02216104	0.01033462	0.00460733	0.00149222	0.00776064	0.00517819	0.00751012	0.00214311	0.00248611	0.00218154	0.00317825	0.00122321	0.00230669	0.00293378	0.00339445	0.00560437	0.00296955	0.00219570	0.00070040	0.00201703
2.89000000	0.00651128	0.00408881	0.00360674	0.01292866	0.00743157	0.02207267	0.00955555	0.00461672	0.00162839	0.00602817	0.00496825	0.00507750	0.00193562	0.00179880	0.00160938	0.00321192	0.00134362	0.00233642	0.00299314	0.00334944	0.00578495	0.00306904	0.00230703	0.00059336	0.00208946
2.90000000	0.00642603	0.00454241	0.00386640	0.01283497	0.00768358	0.02190063	0.00898923	0.00453738	0.00176416	0.00447251	0.00466353	0.00242509	0.00181678	0.00126203	0.00096222	0.00329094	0.00143304	0.00237332	0.00305395	0.00331697	0.00596305	0.00316990	0.00237178	0.00056345	0.00218140
2.91000000	0.00652305	0.00570302	0.00431944	0.01279402	0.00798789	0.02157258	0.00878706	0.00427261	0.00177045	0.00417420	0.00421353	0.00065394	0.00179671	0.00118430	0.00022766	0.00330792	0.00156873	0.00242076	0.00312520	0.00317909	0.00610073	0.00326126	0.00251600	0.00051661	0.00231998
2.92000000	0.00603030	0.00580709	0.00459197	0.01257220	0.00820337	0.02168248	0.00877093	0.00418321	0.00178368	0.00548507	0.00389549	0.00374677	0.00205650	0.00181439	0.00086497	0.00340115	0.00160171	0.00249905	0.00316321	0.00315417	0.00624144	0.00338005	0.00251190	0.00051482	0.00238541
2.93000000	0.00577353	0.00660832	0.00502959	0.01240082	0.00860506	0.02164136	0.00915374	0.00387369	0.00168554	0.00783432	0.00338141	0.00683968	0.00235188	0.00283582	0.00167590	0.00342792	0.00169253	0.00257822	0.00322400	0.00304438	0.00636347	0.00346899	0.00255168	0.00050295	0.00250043
2.94000000	0.00577892	0.00805142	0.00580741	0.01234040	0.00883098	0.02134267	0.00992265	0.00354048	0.00155487	0.01069523	0.00300090	0.00946070	0.00255604	0.00349003	0.00239175	0.00332967	0.00186010	0.00264557	0.00333682	0.00280684	0.00647888	0.00343725	0.00261276	0.00052217	0.00275977
2.95000000	0.00542760	0.00859754	0.00593984	0.01196363	0.00944233	0.02147726	0.01071790	0.00324609	0.00153104	0.01215670	0.00182997	0.01242036	0.00293122	0.00507044	0.00322385	0.00348104	0.00183671	0.00270164	0.00327643	0.00283668	0.00654602	0.00362494	0.00256994	0.00051950	0.00274437
2.96000000	0.00516735	0.00908388	0.00643118	0.01199571	0.00981485	0.02134239	0.01139614	0.00303235	0.00132239	0.01374837	0.00163086	0.01421594	0.00318253	0.00582396	0.00375074	0.00336120	0.00197059	0.00278360	0.00335289	0.00264053	0.00664311	0.00352877	0.00264660	0.00060210	0.00293858
2.97000000	0.00506809	0.00946599	0.00683034	0.01192625	0.01011547	0.02114883	0.01210288	0.00287942	0.00113311	0.01451928	0.00156964	0.01509989	0.00330651	0.00620660	0.00406924	0.00323827	0.00211495	0.00284698	0.00340335	0.00247038	0.00672207	0.00343983	0.00276920	0.00074503	0.00311223
2.98000000	0.00506634	0.00990427	0.00722426	0.01194289	0.01027875	0.02077972	0.01269429	0.00276968	0.00097216	0.01450145	0.00153655	0.01493276	0.00328915	0.00607613	0.00415182	0.00312591	0.00225662	0.00289652	0.00345141	0.00237548	0.00678689	0.00331781	0.00290235	0.00087529	0.00332798
2.99000000	0.00522580	0.01028604	0.00751237	0.01203868	0.01021954	0.02025563	0.01316757	0.00253331	0.00097755	0.01357810	0.00150202	0.01393512	0.00302420	0.00581302	0.00395403	0.00282045	0.00242299	0.00295966	0.00355494	0.00245321	0.00694349	0.00309388	0.00288123	0.00127196	0.00373348
3.00000000	0.00523608	0.00949766	0.00739605	0.01154242	0.01076743	0.02011634	0.01346183	0.00273639	0.00085878	0.01197729	0.00125059	0.01254565	0.00292154	0.00526460	0.00393057	0.00287702	0.00246827	0.00289333	0.00354683	0.00278611	0.00695771	0.00303344	0.00313249	0.00114775	0.00360468
3.01000000	0.00555766	0.00947373	0.00750793	0.01140944	0.01065819	0.01945946	0.01371165	0.00267350	0.00084534	0.00994530	0.00098260	0.01070313	0.00261856	0.00457978	0.00375464	0.00273042	0.00260955	0.00282226	0.00358438	0.00330408	0.00699965	0.00286409	0.00324344	0.00129616	0.00379635
3.02000000	0.00611112	0.00855596	0.00746979	0.01096392	0.01070966	0.01895583	0.01392529	0.00270791	0.00088200	0.00842944	0.00081761	0.00864850	0.00229639	0.00345136	0.00331635	0.00247677	0.00271769	0.00271491	0.00359714	0.00404158	0.00698010	0.00261656	0.00326931	0.00151952	0.00392649
3.03000000	0.00667098	0.00828450	0.00772141	0.01050522	0.01024687	0.01810353	0.01421692	0.00262897	0.00102940	0.00646915	0.00108600	0.00699952	0.00197029	0.00263329	0.00308184	0.00229579	0.00277963	0.00263495	0.00352332	0.00496716	0.00674807	0.00235191	0.00335768	0.00175514	0.00398995
3.04000000	0.00731737	0.00777296	0.00789986	0.00990771	0.00968713	0.01712700	0.01455198	0.00236817	0.00115427	0.00480768	0.00178845	0.00580088	0.00192518	0.00192536	0.00274197	0.00208001	0.00288566	0.00250862	0.00341042	0.00609300	0.00641403	0.00209557	0.00343837	0.00202458	0.00409618
3.05000000	0.00799474	0.00696227	0.00802301	0.00915007	0.00902510	0.01610300	0.01495245	0.00209604	0.00131177	0.00346155	0.00266053	0.00510366	0.00197077	0.00148641	0.00233802	0.00174994	0.00298431	0.00226777	0.00329909	0.00734601	0.00600531	0.00185919	0.00329629	0.00233603	0.00411173
3.06000000	0.00848349	0.00638379	0.00805398	0.00804050	0.00805917	0.01488044	0.01551834	0.00160418	0.00141036	0.00225211	0.00328548	0.00500762	0.00187144	0.00169718	0.00215782	0.00164720	0.00305576	0.00204536	0.00307547	0.00859856	0.00536478	0.00173157	0.00326931	0.00263955	0.00410510
3.07000000	0.00925274	0.00484223	0.00790900	0.00695105	0.00723194	0.01359380	0.01603193	0.00085360	0.00149001	0.00234917	0.00266661	0.00484362	0.00128917	0.00183208	0.00153297	0.00151375	0.00310084	0.00183113	0.00284567	0.00956292	0.00461771	0.00179515	0.00307480	0.00288913	0.00402699
3.08000000	0.00920534	0.00470110	0.00747106	0.00531196	0.00573773	0.01208397	0.01687173	0.00044616	0.00168250	0.00223920	0.00319784	0.00510163	0.00088962	0.00186306	0.00152204	0.00140254	0.00300630	0.00151052	0.00245435	0.01022361	0.00376626	0.00179310	0.00283718	0.00302905	0.00381247
3.09000000	0.00924281	0.00394626	0.00689713	0.00379748	0.00447539	0.01053781	0.01749346	0.00166942	0.00172418	0.00297121	0.00259277	0.00465830	0.00026107	0.00179405	0.00117154	0.00134827	0.00285752	0.00133737	0.00216611	0.01021733	0.00295303	0.00185681	0.00237998	0.00315715	0.00357450
3.10000000	0.00868244	0.00371659	0.00581595	0.00159391	0.00281551	0.00891269	0.01833599	0.00279339	0.00222605	0.00351420	0.00306474	0.00441324	0.00077456	0.00154583	0.00159132	0.00127923	0.00261526	0.00119044	0.00180496	0.00970485	0.00216139	0.00181579	0.00192994	0.00308123	0.00321343
3.11000000	0.00823214	0.00328231	0.00462809	0.00078315	0.00172106	0.00729420	0.01909894	0.00416676	0.00215916	0.00423763	0.00323746	0.00380241	0.00135823	0.00132737	0.00204489	0.00129651	0.00230143	0.00118997	0.00147871	0.00871214	0.00143859	0.00170774	0.00136920	0.00294997	0.00284530
3.12000000	0.00761048	0.00287146	0.00343541	0.00283575	0.00159167	0.00638569	0.01961797	0.00564894	0.00240615	0.00487502	0.00333367	0.00304755	0.00173458	0.00111149	0.00245793	0.00140724	0.00204317	0.00132366	0.00127577	0.00737202	0.00094726	0.00178832	0.00089136	0.00270067	0.00254004
3.13000000	0.00759688	0.00254005	0.00281369	0.00465547	0.00218450	0.00654293	0.01987074	0.00719324	0.00195989	0.00508422	0.00285664	0.00226396	0.00215477	0.00103473	0.00253725	0.00154331	0.00172730	0.00152953	0.00113590	0.00609827	0.00059513	0.00167430	0.00072905	0.00260765	0.00219817
3.14000000	0.00612730	0.00277089	0.00225938	0.00698952	0.00385324	0.00722984	0.02011096	0.00873239	0.00326871	0.00527387	0.00328987	0.00161613	0.00206815	0.00083571	0.00250608	0.00199383	0.00133645	0.00187532	0.00112379	0.00494329	0.00088407	0.00196559	0.00071336	0.00225385	0.00196965
3.15000000	0.00716291	0.00200833	0.00262055	0.00828120	0.00393226	0.00830167	0.02053236	0.00921391	0.00168462	0.00496436	0.00252609	0.00141280	0.00209957	0.00099889	0.00236606	0.00189091	0.00147858	0.00185003	0.00122336	0.00435940	0.00083378	0.00199696	0.00068570	0.00216287	0.00179255
3.16000000	0.00688714	0.00196727	0.00288134	0.00970419	0.00475582	0.00956216	0.02075545	0.00975096	0.00162061	0.00453270	0.00231456	0.00108785	0.00186291	0.00123265	0.00227419	0.00212554	0.00132338	0.00199255	0.00132887	0.00406705	0.00098182	0.00224276	0.00069483	0.00194542	0.00173792
3.17000000	0.00629096	0.00214606	0.00289512	0.01104321	0.00579599	0.01085931	0.02087460	0.00986409	0.00194080	0.00391714	0.00226259	0.00076752	0.00154705	0.00158551	0.00220929	0.00235458	0.00139844	0.00198568	0.00149135	0.00401371	0.00123551	0.00256828	0.00059663	0.00168907	0.00183266
3.18000000	0.00613463	0.00239281	0.00321171	0.01125479	0.00614890	0.01298545	0.02056049	0.01032174	0.00190867	0.00363238	0.00229942	0.00091927	0.00129625	0.00129881	0.00194696	0.00249143	0.00137873	0.00200007	0.00155712	0.00438773	0.00133048	0.00273812	0.00065675	0.00157772	0.00193711
3.19000000	0.00560159	0.00298510	0.00337199	0.01202184	0.00721576	0.01443649	0.02044032	0.00989935	0.00253840	0.00305694	0.00219270	0.00077126	0.00105646	0.00164210	0.00188497	0.00262482	0.00147388	0.00199616	0.00162383	0.00493599	0.00155335	0.00293589	0.00075950	0.00144271	0.00210786
3.20000000	0.00547891	0.00370437	0.00356748	0.01191311	0.00772967	0.01656941	0.02011323	0.00982601	0.00287982	0.00275749	0.00218131	0.00090984	0.00089155	0.00141811	0.00182899	0.00277715	0.00165910	0.00197546	0.00167738	0.00567816	0.00186427	0.00308578	0.00106498	0.00132362	0.00229694
3.21000000	0.00494693	0.00432794	0.00382940	0.01195316	0.00853202	0.01848835	0.01998463	0.00950350	0.00346794	0.00258617	0.00223044	0.00101041	0.00081610	0.00150316	0.00181798	0.00284329	0.00194717	0.00196910	0.00169989	0.00664167	0.00227318	0.00316349	0.00141681	0.00123972	0.00247313
3.22000000	0.00443355	0.00480877	0.00406982	0.01230146	0.00977129	0.02019401	0.01972622	0.00917906	0.00412447	0.00268168	0.00246806	0.00116290	0.00069022	0.00148890	0.00181552	0.00299129	0.00233878	0.00184254	0.00172077	0.00796454	0.00270159	0.00325257	0.00173314	0.00119701	0.00269405
3.23000000	0.00389844	0.00546281	0.00423592	0.01170526	0.00989373	0.02241460	0.01965418	0.00920367	0.00440542	0.00276838	0.00232388	0.00141591	0.00078664	0.00137108	0.00196986	0.00314371	0.00268467	0.00179638	0.00175348	0.00956314	0.00306064	0.00323157	0.00205440	0.00112421	0.00283741
