SUBJ24_1_JMP_05_torso_marker_adjustment_task_1_finalErrors.sto
version=1
nRows=289
nColumns=26
inDegrees=no
endheader
time	R_Asis	L_Asis	Sacral	R_Thigh_Lateral	R_Knee_Lateral	R_Shank_Lateral	R_Ankle_Lateral	R_Heel	R_Toe	L_Thigh_Lateral	L_Knee_Lateral	L_Shank_Lateral	L_Ankle_Lateral	L_Heel	L_Toe	R_Shoulder	L_Shoulder	C7	J_Notch	Thoracic	Sternum	R_Elbow	L_Elbow	R_Wrist	L_Wrist
0.00000000	0.00588627	0.00339303	0.00132209	0.00715523	0.00717757	0.00505866	0.00398231	0.00275046	0.00388231	0.00170000	0.00284115	0.00262743	0.00348506	0.00316940	0.00177688	0.00130156	0.00387071	0.00241364	0.00207526	0.00673349	0.00685451	0.00153243	0.00172173	0.00221333	0.00331684
0.01000000	0.00589759	0.00331455	0.00157823	0.00559163	0.00807910	0.00393265	0.00422583	0.00317853	0.00395508	0.00171931	0.00303128	0.00262122	0.00364095	0.00257619	0.00201745	0.00181515	0.00332191	0.00269233	0.00147768	0.00684155	0.00492176	0.00181346	0.00122668	0.00232903	0.00274338
0.02000000	0.00616102	0.00340912	0.00162469	0.00382096	0.00899472	0.00263275	0.00451766	0.00362667	0.00347853	0.00167378	0.00324590	0.00266575	0.00372517	0.00224796	0.00218556	0.00217243	0.00286297	0.00276916	0.00124997	0.00683470	0.00370129	0.00196336	0.00091978	0.00222456	0.00229874
0.03000000	0.00577317	0.00384088	0.00159606	0.00384025	0.00967488	0.00265133	0.00491888	0.00306161	0.00248524	0.00133280	0.00343855	0.00237126	0.00365660	0.00197459	0.00200614	0.00260030	0.00268171	0.00260271	0.00112616	0.00667162	0.00393471	0.00187915	0.00052547	0.00227550	0.00204005
0.04000000	0.00555456	0.00378466	0.00191370	0.00410221	0.01037330	0.00453146	0.00520121	0.00281112	0.00156857	0.00120902	0.00345334	0.00233939	0.00348188	0.00183711	0.00186236	0.00301435	0.00243516	0.00255820	0.00106265	0.00664762	0.00447584	0.00202814	0.00043604	0.00224404	0.00175126
0.05000000	0.00557311	0.00370030	0.00237140	0.00520223	0.01119606	0.00619110	0.00533978	0.00303566	0.00102563	0.00133865	0.00325319	0.00228120	0.00315322	0.00190552	0.00168582	0.00319423	0.00214939	0.00254865	0.00110843	0.00661480	0.00487613	0.00229305	0.00047247	0.00205368	0.00150127
0.06000000	0.00515804	0.00372529	0.00256338	0.00611259	0.01143097	0.00882501	0.00575194	0.00269756	0.00104859	0.00142633	0.00285337	0.00235370	0.00303995	0.00159608	0.00164546	0.00338273	0.00240872	0.00235964	0.00109081	0.00661852	0.00469874	0.00216855	0.00033055	0.00198796	0.00161947
0.07000000	0.00530219	0.00368969	0.00311473	0.00751854	0.01220376	0.01005500	0.00584746	0.00323647	0.00174013	0.00173871	0.00244654	0.00242956	0.00269714	0.00175996	0.00148092	0.00323250	0.00232390	0.00229268	0.00116520	0.00643306	0.00426480	0.00229478	0.00047562	0.00176267	0.00163763
0.08000000	0.00501633	0.00343653	0.00313313	0.00749695	0.01213517	0.01255444	0.00624435	0.00359811	0.00192316	0.00187681	0.00204675	0.00257532	0.00267243	0.00150370	0.00147428	0.00321887	0.00279115	0.00212618	0.00117589	0.00640794	0.00354282	0.00208210	0.00054341	0.00157117	0.00195587
0.09000000	0.00547506	0.00335278	0.00370435	0.00848239	0.01272336	0.01348802	0.00636201	0.00413162	0.00242835	0.00197345	0.00162909	0.00277760	0.00243180	0.00154197	0.00140458	0.00284881	0.00283696	0.00200944	0.00130006	0.00606890	0.00330255	0.00200664	0.00085073	0.00132087	0.00217100
0.10000000	0.00513287	0.00302174	0.00345090	0.00794507	0.01248424	0.01534227	0.00663017	0.00487168	0.00250123	0.00203451	0.00151662	0.00283901	0.00242502	0.00134122	0.00147063	0.00289179	0.00321325	0.00193254	0.00128913	0.00591141	0.00363644	0.00180361	0.00103265	0.00112516	0.00254266
0.11000000	0.00549410	0.00270025	0.00381798	0.00857564	0.01282035	0.01569929	0.00671974	0.00531268	0.00286400	0.00207529	0.00145125	0.00299229	0.00229673	0.00122397	0.00138311	0.00266905	0.00314365	0.00186894	0.00131046	0.00550573	0.00432548	0.00172700	0.00126638	0.00092040	0.00273380
0.12000000	0.00507672	0.00250704	0.00355052	0.00795788	0.01253705	0.01644645	0.00694531	0.00570790	0.00293211	0.00219043	0.00151677	0.00306454	0.00226871	0.00111393	0.00146588	0.00256369	0.00327510	0.00178783	0.00134646	0.00517191	0.00515183	0.00152440	0.00139330	0.00072719	0.00288190
0.13000000	0.00498263	0.00197395	0.00363545	0.00830755	0.01271539	0.01606881	0.00700359	0.00586428	0.00316701	0.00260100	0.00180790	0.00319037	0.00212277	0.00091871	0.00130706	0.00235528	0.00307447	0.00169741	0.00136555	0.00470987	0.00597712	0.00142639	0.00152436	0.00060902	0.00284172
0.14000000	0.00467127	0.00130341	0.00357439	0.00849960	0.01293164	0.01551227	0.00707356	0.00585772	0.00322182	0.00313718	0.00203899	0.00337684	0.00200053	0.00086810	0.00097746	0.00207566	0.00295356	0.00152220	0.00156965	0.00425998	0.00682316	0.00119757	0.00155713	0.00032556	0.00271122
0.15000000	0.00443198	0.00129518	0.00362097	0.00805827	0.01281562	0.01511923	0.00695144	0.00593407	0.00335271	0.00370966	0.00208842	0.00363755	0.00183463	0.00073671	0.00124863	0.00177188	0.00257945	0.00134852	0.00166007	0.00365397	0.00767626	0.00095722	0.00141773	0.00044363	0.00237096
0.16000000	0.00408015	0.00182927	0.00346488	0.00744538	0.01268153	0.01474617	0.00682979	0.00574735	0.00306139	0.00433601	0.00183530	0.00403511	0.00179942	0.00074285	0.00104919	0.00160119	0.00218706	0.00122270	0.00170723	0.00305840	0.00832336	0.00077480	0.00107986	0.00009500	0.00185171
0.17000000	0.00391322	0.00161006	0.00330872	0.00756884	0.01285373	0.01403540	0.00681426	0.00554216	0.00269267	0.00508817	0.00238254	0.00424072	0.00163356	0.00096700	0.00059921	0.00136254	0.00184331	0.00103733	0.00191951	0.00259834	0.00810820	0.00055290	0.00118126	0.00018972	0.00130419
0.18000000	0.00387988	0.00166629	0.00318248	0.00741273	0.01276658	0.01343185	0.00666886	0.00543600	0.00299855	0.00583413	0.00218452	0.00457263	0.00140191	0.00085179	0.00069280	0.00125576	0.00144277	0.00097456	0.00191194	0.00223380	0.00725293	0.00030922	0.00057244	0.00031064	0.00076033
0.19000000	0.00387808	0.00206142	0.00305671	0.00735758	0.01278167	0.01267613	0.00650181	0.00515453	0.00263167	0.00650784	0.00198373	0.00542305	0.00141391	0.00111417	0.00066172	0.00119068	0.00131837	0.00111153	0.00171909	0.00208378	0.00580304	0.00036260	0.00020040	0.00024881	0.00015612
0.20000000	0.00383292	0.00221719	0.00282145	0.00753451	0.01272136	0.01203814	0.00640379	0.00497430	0.00248173	0.00724051	0.00211675	0.00597731	0.00129492	0.00134981	0.00052794	0.00113621	0.00167863	0.00126447	0.00165189	0.00228006	0.00385363	0.00028907	0.00050447	0.00030248	0.00046175
0.21000000	0.00373566	0.00244790	0.00257372	0.00777613	0.01256619	0.01153098	0.00628888	0.00483991	0.00233648	0.00793647	0.00228248	0.00657942	0.00121149	0.00160892	0.00043086	0.00108914	0.00225376	0.00148939	0.00162521	0.00267952	0.00193702	0.00023288	0.00088187	0.00034364	0.00097652
0.22000000	0.00371194	0.00274780	0.00229461	0.00808665	0.01223761	0.01127540	0.00609371	0.00485140	0.00238687	0.00866527	0.00259832	0.00698834	0.00109722	0.00178436	0.00040464	0.00109671	0.00283289	0.00167997	0.00171156	0.00317228	0.00117803	0.00019460	0.00129530	0.00040624	0.00133360
0.23000000	0.00362410	0.00312951	0.00197577	0.00853430	0.01180022	0.01118838	0.00590591	0.00493010	0.00242098	0.00934769	0.00298037	0.00742595	0.00110664	0.00192007	0.00026052	0.00123307	0.00324786	0.00184188	0.00182034	0.00355299	0.00215095	0.00021284	0.00154092	0.00044581	0.00163145
0.24000000	0.00507186	0.00388832	0.00165609	0.00935606	0.01052840	0.01158422	0.00585569	0.00479774	0.00190089	0.00989299	0.00410329	0.00740349	0.00126879	0.00266322	0.00102288	0.00174454	0.00361006	0.00202479	0.00202289	0.00421950	0.00326105	0.00057317	0.00139306	0.00103202	0.00214228
0.25000000	0.00322305	0.00362631	0.00199154	0.00959223	0.01041004	0.01109956	0.00538624	0.00486960	0.00183867	0.01027427	0.00368734	0.00894244	0.00131279	0.00256584	0.00064988	0.00167060	0.00418339	0.00207315	0.00187459	0.00426503	0.00341475	0.00026444	0.00192856	0.00057059	0.00230346
0.26000000	0.00310327	0.00377084	0.00181547	0.00997675	0.00952894	0.01134458	0.00492791	0.00507439	0.00169253	0.01077033	0.00397935	0.00945197	0.00143362	0.00270418	0.00065976	0.00187844	0.00434053	0.00206481	0.00194062	0.00434866	0.00351559	0.00042461	0.00203615	0.00062576	0.00247430
0.27000000	0.00303065	0.00367550	0.00168772	0.01039514	0.00868774	0.01128405	0.00438340	0.00511654	0.00150510	0.01109147	0.00424550	0.00998100	0.00146314	0.00291469	0.00085505	0.00218283	0.00442291	0.00208529	0.00200082	0.00442861	0.00349148	0.00052156	0.00207854	0.00078753	0.00257625
0.28000000	0.00306567	0.00349352	0.00159116	0.01059825	0.00773406	0.01096066	0.00365316	0.00509010	0.00144156	0.01129911	0.00465593	0.01041213	0.00160386	0.00302257	0.00093876	0.00252631	0.00450350	0.00205783	0.00199202	0.00441519	0.00358641	0.00070358	0.00210177	0.00089416	0.00271040
0.29000000	0.00285421	0.00319566	0.00143399	0.01020822	0.00707233	0.01037176	0.00296680	0.00488667	0.00137233	0.01143405	0.00486398	0.01073662	0.00163808	0.00306739	0.00096677	0.00277478	0.00445591	0.00205465	0.00205066	0.00424830	0.00396563	0.00083605	0.00209583	0.00102652	0.00277819
0.30000000	0.00269880	0.00302646	0.00150523	0.00952840	0.00620300	0.00904187	0.00198751	0.00453645	0.00136883	0.01149547	0.00506931	0.01094771	0.00154593	0.00316021	0.00114647	0.00295718	0.00448122	0.00215095	0.00218363	0.00413557	0.00453580	0.00092557	0.00216984	0.00111939	0.00277003
0.31000000	0.00224513	0.00260080	0.00163660	0.00825854	0.00580926	0.00728353	0.00116597	0.00393800	0.00119857	0.01153174	0.00535058	0.01093875	0.00162699	0.00309531	0.00109821	0.00313824	0.00447594	0.00221347	0.00224111	0.00390472	0.00502933	0.00102750	0.00209167	0.00115416	0.00286389
0.32000000	0.00174779	0.00222719	0.00207717	0.00627769	0.00562497	0.00567612	0.00063022	0.00335297	0.00142118	0.01147689	0.00565940	0.01080138	0.00160268	0.00301482	0.00096339	0.00320869	0.00438501	0.00235148	0.00241138	0.00368278	0.00556397	0.00119773	0.00205024	0.00124696	0.00287195
0.33000000	0.00183021	0.00200993	0.00236658	0.00487620	0.00527242	0.00388938	0.00030993	0.00250103	0.00117962	0.01146532	0.00582901	0.01071791	0.00153105	0.00300581	0.00102899	0.00326163	0.00451087	0.00245409	0.00246422	0.00354955	0.00579423	0.00115941	0.00210219	0.00129114	0.00291306
0.34000000	0.00275568	0.00206572	0.00273357	0.00454779	0.00516017	0.00366502	0.00090288	0.00189738	0.00077990	0.01142070	0.00593993	0.01055127	0.00153930	0.00293981	0.00107546	0.00321156	0.00460987	0.00254340	0.00255026	0.00342792	0.00577742	0.00110543	0.00216244	0.00141436	0.00295683
0.35000000	0.00447561	0.00232702	0.00336377	0.00646684	0.00546866	0.00449929	0.00148270	0.00186127	0.00232392	0.01124604	0.00579438	0.01055941	0.00146293	0.00306010	0.00149512	0.00323979	0.00458999	0.00272137	0.00249661	0.00325889	0.00522187	0.00089848	0.00243721	0.00158963	0.00286079
0.36000000	0.00455671	0.00237758	0.00317426	0.00742070	0.00531378	0.00623932	0.00157025	0.00197426	0.00079350	0.01142919	0.00625381	0.01024707	0.00151900	0.00287895	0.00103355	0.00277684	0.00493910	0.00258915	0.00256311	0.00308802	0.00486550	0.00085449	0.00238851	0.00136261	0.00311321
0.37000000	0.00556068	0.00320067	0.00336873	0.00885721	0.00524098	0.00674337	0.00172999	0.00191841	0.00122309	0.01142886	0.00604194	0.01010523	0.00159601	0.00291619	0.00127021	0.00258713	0.00533221	0.00260963	0.00250338	0.00308663	0.00550175	0.00050470	0.00251222	0.00141488	0.00320679
0.38000000	0.00605417	0.00420202	0.00347181	0.00909998	0.00519376	0.00661502	0.00170531	0.00178698	0.00117398	0.01141651	0.00589326	0.00997811	0.00163046	0.00290984	0.00121218	0.00208785	0.00578669	0.00246503	0.00267477	0.00317925	0.00858292	0.00058356	0.00264229	0.00130067	0.00347614
0.39000000	0.00606538	0.00542376	0.00355887	0.00828513	0.00508887	0.00594526	0.00159466	0.00158755	0.00094832	0.01144896	0.00572298	0.00980532	0.00166890	0.00288038	0.00137571	0.00162189	0.00616471	0.00239018	0.00302142	0.00341899	0.01275879	0.00109645	0.00276853	0.00127428	0.00375444
0.40000000	0.00541731	0.00627877	0.00337099	0.00669618	0.00494248	0.00523900	0.00149944	0.00135415	0.00126137	0.01132405	0.00596054	0.00966505	0.00158457	0.00305312	0.00103819	0.00060513	0.00610084	0.00200338	0.00360492	0.00333750	0.01670093	0.00082174	0.00342239	0.00080251	0.00366667
0.41000000	0.00520958	0.00698244	0.00324075	0.00479828	0.00495972	0.00410399	0.00151788	0.00096594	0.00133874	0.01101736	0.00566832	0.00983405	0.00156467	0.00298453	0.00118509	0.00048120	0.00632181	0.00192936	0.00378685	0.00359308	0.01878998	0.00098383	0.00344979	0.00076404	0.00390149
0.42000000	0.00516028	0.00759909	0.00301468	0.00344233	0.00453231	0.00340505	0.00129358	0.00136276	0.00155686	0.01074520	0.00575464	0.00946489	0.00166874	0.00295464	0.00130140	0.00073299	0.00579782	0.00182882	0.00383130	0.00339903	0.01881255	0.00068716	0.00348150	0.00086633	0.00380587
0.43000000	0.00495985	0.00768996	0.00260977	0.00196391	0.00415445	0.00298743	0.00146910	0.00185380	0.00187839	0.01043478	0.00501284	0.00945933	0.00167963	0.00253247	0.00177918	0.00084674	0.00562950	0.00195724	0.00352971	0.00339480	0.01659537	0.00064932	0.00305433	0.00114084	0.00391937
0.44000000	0.00449447	0.00707239	0.00208906	0.00123366	0.00368937	0.00344540	0.00156531	0.00181219	0.00177739	0.00991449	0.00494870	0.00912394	0.00170102	0.00238401	0.00190894	0.00122234	0.00494978	0.00197605	0.00320582	0.00308916	0.01317854	0.00082377	0.00278625	0.00150740	0.00374665
0.45000000	0.00482402	0.00646521	0.00229280	0.00204417	0.00301720	0.00350237	0.00129394	0.00260044	0.00157211	0.00905705	0.00509446	0.00825066	0.00189566	0.00194633	0.00223493	0.00162392	0.00381272	0.00202458	0.00276658	0.00252817	0.00925592	0.00078835	0.00256350	0.00181815	0.00345328
0.46000000	0.00408121	0.00564754	0.00236490	0.00254634	0.00235015	0.00440694	0.00131862	0.00259946	0.00148380	0.00823626	0.00463402	0.00757969	0.00195567	0.00147715	0.00267212	0.00178586	0.00338421	0.00216594	0.00239151	0.00265553	0.00559562	0.00096479	0.00231760	0.00203332	0.00337759
0.47000000	0.00431264	0.00499717	0.00248627	0.00346974	0.00186385	0.00489526	0.00134662	0.00262265	0.00136878	0.00706217	0.00454314	0.00631682	0.00214224	0.00100794	0.00281739	0.00202664	0.00279463	0.00228868	0.00210782	0.00273898	0.00303252	0.00122915	0.00219167	0.00219806	0.00316427
0.48000000	0.00351631	0.00460657	0.00248861	0.00376602	0.00141448	0.00563239	0.00149818	0.00253741	0.00133504	0.00583633	0.00406945	0.00534675	0.00223496	0.00083869	0.00304097	0.00192081	0.00269544	0.00239467	0.00191843	0.00309831	0.00188676	0.00114815	0.00209860	0.00212711	0.00307123
0.49000000	0.00325340	0.00451863	0.00258047	0.00369066	0.00131828	0.00576311	0.00171847	0.00241362	0.00143376	0.00463038	0.00370962	0.00406257	0.00239259	0.00085832	0.00290117	0.00181563	0.00252834	0.00241250	0.00182376	0.00333489	0.00227019	0.00104833	0.00196548	0.00196454	0.00296942
0.50000000	0.00369233	0.00461902	0.00241354	0.00398506	0.00153275	0.00467898	0.00202010	0.00239908	0.00123950	0.00362842	0.00342482	0.00242535	0.00247748	0.00088218	0.00222581	0.00184286	0.00226728	0.00252563	0.00171792	0.00342456	0.00276211	0.00086855	0.00188933	0.00178845	0.00275546
0.51000000	0.00307412	0.00492342	0.00253645	0.00397089	0.00175280	0.00416956	0.00216416	0.00209297	0.00140309	0.00327063	0.00327681	0.00145490	0.00264893	0.00089120	0.00162909	0.00171536	0.00230727	0.00253968	0.00161983	0.00364014	0.00275168	0.00063780	0.00179868	0.00149009	0.00253135
0.52000000	0.00240957	0.00512785	0.00267720	0.00408267	0.00216830	0.00351649	0.00198810	0.00233741	0.00124516	0.00411724	0.00349497	0.00155495	0.00273502	0.00120885	0.00135903	0.00174885	0.00229951	0.00251904	0.00159910	0.00366715	0.00264673	0.00062811	0.00156329	0.00114004	0.00240094
0.53000000	0.00227216	0.00516808	0.00272365	0.00428283	0.00218692	0.00309121	0.00194342	0.00207936	0.00122073	0.00509291	0.00368439	0.00326714	0.00298974	0.00154089	0.00068589	0.00199618	0.00220180	0.00256882	0.00153766	0.00367728	0.00236673	0.00025142	0.00138382	0.00100807	0.00209307
0.54000000	0.00184846	0.00496565	0.00291157	0.00423741	0.00216834	0.00282480	0.00176182	0.00194874	0.00113040	0.00638151	0.00424013	0.00523636	0.00340088	0.00194750	0.00136423	0.00217226	0.00221784	0.00255890	0.00149082	0.00366786	0.00202750	0.00021225	0.00119086	0.00085004	0.00180861
0.55000000	0.00164372	0.00464330	0.00306753	0.00402992	0.00206839	0.00262373	0.00160153	0.00179079	0.00115477	0.00769470	0.00503277	0.00740860	0.00384040	0.00240141	0.00218366	0.00233025	0.00218420	0.00255008	0.00144557	0.00363915	0.00172288	0.00019038	0.00097591	0.00081814	0.00145365
0.56000000	0.00166155	0.00436748	0.00330533	0.00389707	0.00199309	0.00230645	0.00126179	0.00219625	0.00089032	0.00916393	0.00607424	0.00950008	0.00412930	0.00304930	0.00328605	0.00260087	0.00210320	0.00244060	0.00142702	0.00346077	0.00150824	0.00038742	0.00089178	0.00071408	0.00110234
0.57000000	0.00212482	0.00410637	0.00304785	0.00387836	0.00165698	0.00220126	0.00130709	0.00207129	0.00164347	0.01059227	0.00701089	0.01164957	0.00432574	0.00409131	0.00491511	0.00254205	0.00219467	0.00265887	0.00169152	0.00331060	0.00182253	0.00070626	0.00175535	0.00064926	0.00107477
0.58000000	0.00209725	0.00390144	0.00305351	0.00310181	0.00166895	0.00254070	0.00122328	0.00178751	0.00086896	0.01092307	0.00710975	0.01472907	0.00466893	0.00396911	0.00428878	0.00255938	0.00190943	0.00255557	0.00139809	0.00309166	0.00163530	0.00020378	0.00052217	0.00082627	0.00036817
0.59000000	0.00263614	0.00428761	0.00299447	0.00281924	0.00172089	0.00248721	0.00110476	0.00181371	0.00088020	0.01174921	0.00750053	0.01677625	0.00468631	0.00438103	0.00469167	0.00254483	0.00175892	0.00251600	0.00132875	0.00270687	0.00175654	0.00037250	0.00049775	0.00075112	0.00020879
0.60000000	0.00291137	0.00457812	0.00279622	0.00246557	0.00192806	0.00210170	0.00085731	0.00204171	0.00102600	0.01270085	0.00783552	0.01820928	0.00467944	0.00465696	0.00488458	0.00260324	0.00127227	0.00264977	0.00133708	0.00218603	0.00189684	0.00060869	0.00102127	0.00074257	0.00071646
0.61000000	0.00374479	0.00457139	0.00234930	0.00203368	0.00222194	0.00204207	0.00077498	0.00208611	0.00108874	0.01240938	0.00734182	0.01966493	0.00447872	0.00488972	0.00486428	0.00234029	0.00124808	0.00261103	0.00140310	0.00189151	0.00217995	0.00032069	0.00037694	0.00060272	0.00083471
0.62000000	0.00426920	0.00477666	0.00205597	0.00179272	0.00245559	0.00187792	0.00069056	0.00235904	0.00113070	0.01257875	0.00702697	0.02003320	0.00437403	0.00491587	0.00470921	0.00229696	0.00096622	0.00257689	0.00148930	0.00154941	0.00226439	0.00026568	0.00063097	0.00040156	0.00115395
0.63000000	0.00434645	0.00476131	0.00177878	0.00181612	0.00293360	0.00156137	0.00077988	0.00277192	0.00129912	0.01318321	0.00686851	0.01952935	0.00445886	0.00484771	0.00445367	0.00237189	0.00050021	0.00266201	0.00155209	0.00147126	0.00217591	0.00045095	0.00088994	0.00019533	0.00172578
0.64000000	0.00508441	0.00454650	0.00144154	0.00163774	0.00318204	0.00213077	0.00106747	0.00273002	0.00158274	0.01246450	0.00604990	0.01920537	0.00420476	0.00498954	0.00448075	0.00255014	0.00061015	0.00242049	0.00177360	0.00152675	0.00227120	0.00027810	0.00055438	0.00031423	0.00181418
0.65000000	0.00536126	0.00461582	0.00135546	0.00188526	0.00347278	0.00272877	0.00140977	0.00296191	0.00144367	0.01246099	0.00568665	0.01818305	0.00417699	0.00499851	0.00430958	0.00287804	0.00099039	0.00230115	0.00194159	0.00192391	0.00222874	0.00050558	0.00089733	0.00042884	0.00205942
0.66000000	0.00555978	0.00448493	0.00160760	0.00214411	0.00406011	0.00350487	0.00190313	0.00299737	0.00154567	0.01242197	0.00540524	0.01713145	0.00416595	0.00502168	0.00421899	0.00335972	0.00142391	0.00210021	0.00205797	0.00239311	0.00211533	0.00073167	0.00080027	0.00069061	0.00232734
0.67000000	0.00589141	0.00470940	0.00186294	0.00291024	0.00431180	0.00433727	0.00227337	0.00322349	0.00155874	0.01259915	0.00532859	0.01603947	0.00415191	0.00507160	0.00416920	0.00387901	0.00200779	0.00198545	0.00218996	0.00300517	0.00221325	0.00102173	0.00113543	0.00097476	0.00253542
0.68000000	0.00624815	0.00486996	0.00221686	0.00385907	0.00467872	0.00507735	0.00263273	0.00338853	0.00154819	0.01280024	0.00524520	0.01523334	0.00415071	0.00517758	0.00414472	0.00446286	0.00265340	0.00189296	0.00231929	0.00369697	0.00236026	0.00123210	0.00134715	0.00119437	0.00274468
0.69000000	0.00653324	0.00486669	0.00279718	0.00403731	0.00543072	0.00606887	0.00298548	0.00320976	0.00181728	0.01322399	0.00541387	0.01454036	0.00421030	0.00521511	0.00395289	0.00500269	0.00316297	0.00179527	0.00244042	0.00419675	0.00258720	0.00136865	0.00134558	0.00143195	0.00293308
0.70000000	0.00683990	0.00492831	0.00299349	0.00474757	0.00611357	0.00639243	0.00324080	0.00342241	0.00199744	0.01412006	0.00537801	0.01427445	0.00418968	0.00535719	0.00401497	0.00522893	0.00396605	0.00200964	0.00257196	0.00474156	0.00282256	0.00116777	0.00178021	0.00157624	0.00327726
0.71000000	0.00743025	0.00514412	0.00359089	0.00519363	0.00610568	0.00743473	0.00344036	0.00327508	0.00175937	0.01439450	0.00559589	0.01393022	0.00412361	0.00526010	0.00372134	0.00593351	0.00423930	0.00184850	0.00275243	0.00508386	0.00338130	0.00161769	0.00182648	0.00178787	0.00320508
0.72000000	0.00784164	0.00521472	0.00384820	0.00569265	0.00630416	0.00794824	0.00355659	0.00334497	0.00160918	0.01483646	0.00555914	0.01399625	0.00391769	0.00542251	0.00371719	0.00631284	0.00477351	0.00191037	0.00288875	0.00541760	0.00384563	0.00182483	0.00219037	0.00185378	0.00334432
0.73000000	0.00817985	0.00534497	0.00414312	0.00615176	0.00651425	0.00842221	0.00364116	0.00334245	0.00161662	0.01539367	0.00559122	0.01382228	0.00373635	0.00539925	0.00350636	0.00660896	0.00516853	0.00198435	0.00303421	0.00558815	0.00428452	0.00187009	0.00240180	0.00199143	0.00349542
0.74000000	0.00835581	0.00542132	0.00435688	0.00640163	0.00674031	0.00892470	0.00364961	0.00329345	0.00178117	0.01592031	0.00558371	0.01338851	0.00358459	0.00517602	0.00310558	0.00693103	0.00550155	0.00210608	0.00315005	0.00575490	0.00463798	0.00194670	0.00254038	0.00206923	0.00364829
0.75000000	0.00839329	0.00540342	0.00432308	0.00672927	0.00695301	0.00916878	0.00363609	0.00334975	0.00166236	0.01598631	0.00553895	0.01297358	0.00331975	0.00508718	0.00289351	0.00715824	0.00581716	0.00221467	0.00327826	0.00587779	0.00511727	0.00201039	0.00278271	0.00215572	0.00384055
0.76000000	0.00834390	0.00542471	0.00443292	0.00696974	0.00706379	0.00953154	0.00361330	0.00336348	0.00182800	0.01582400	0.00551284	0.01203634	0.00307457	0.00472798	0.00243338	0.00737855	0.00599083	0.00240213	0.00333085	0.00596310	0.00533714	0.00208359	0.00283781	0.00218792	0.00395240
0.77000000	0.00813181	0.00515694	0.00427348	0.00705544	0.00713702	0.00973021	0.00350951	0.00343887	0.00181781	0.01515450	0.00551525	0.01094873	0.00278282	0.00438484	0.00207553	0.00754249	0.00615139	0.00253914	0.00342088	0.00604604	0.00577436	0.00215350	0.00296064	0.00227839	0.00414334
0.78000000	0.00784763	0.00473468	0.00404825	0.00720339	0.00731055	0.00964608	0.00337165	0.00342576	0.00172209	0.01395746	0.00554151	0.00967552	0.00241351	0.00409519	0.00196196	0.00760633	0.00628321	0.00267226	0.00350454	0.00608724	0.00622232	0.00217050	0.00313453	0.00237088	0.00435376
0.79000000	0.00747493	0.00437288	0.00398661	0.00732655	0.00727747	0.00971275	0.00325870	0.00344071	0.00177882	0.01246552	0.00560123	0.00786737	0.00215975	0.00342890	0.00153455	0.00769927	0.00627999	0.00285402	0.00353761	0.00610815	0.00651639	0.00229183	0.00311915	0.00241193	0.00443765
0.80000000	0.00711607	0.00397791	0.00395796	0.00733533	0.00716552	0.00953792	0.00308743	0.00338342	0.00191882	0.01095896	0.00553712	0.00638341	0.00191693	0.00267191	0.00136608	0.00747230	0.00642415	0.00291236	0.00358832	0.00603433	0.00698614	0.00228105	0.00327429	0.00242941	0.00478922
0.81000000	0.00659059	0.00352136	0.00393474	0.00756708	0.00715648	0.00960464	0.00297140	0.00341339	0.00180631	0.00910622	0.00564377	0.00400173	0.00176734	0.00201253	0.00095628	0.00768504	0.00627467	0.00312322	0.00353551	0.00601020	0.00710124	0.00241116	0.00318089	0.00253687	0.00465568
0.82000000	0.00619745	0.00387906	0.00421066	0.00779841	0.00694031	0.00938426	0.00281264	0.00324844	0.00187595	0.00811280	0.00556207	0.00277801	0.00163788	0.00121736	0.00093332	0.00739350	0.00634461	0.00318373	0.00355425	0.00585692	0.00742012	0.00235779	0.00327707	0.00249993	0.00491954
0.83000000	0.00563853	0.00348781	0.00427862	0.00803513	0.00693982	0.00942001	0.00266551	0.00325480	0.00177323	0.00775064	0.00554109	0.00241270	0.00169467	0.00114157	0.00040196	0.00743460	0.00620185	0.00332075	0.00348349	0.00577244	0.00747375	0.00243171	0.00315649	0.00257860	0.00481994
0.84000000	0.00511414	0.00376902	0.00444169	0.00825168	0.00681791	0.00939411	0.00253789	0.00313586	0.00174340	0.00808151	0.00546963	0.00348274	0.00170081	0.00147175	0.00019342	0.00726246	0.00619222	0.00336985	0.00342472	0.00567028	0.00752751	0.00245046	0.00314911	0.00255809	0.00489354
0.85000000	0.00470572	0.00454551	0.00477639	0.00856303	0.00613256	0.00948282	0.00233026	0.00303564	0.00189051	0.00855521	0.00549451	0.00425659	0.00177933	0.00140924	0.00122142	0.00704952	0.00638621	0.00339014	0.00327344	0.00559858	0.00740281	0.00251692	0.00319113	0.00244479	0.00498044
0.86000000	0.00409263	0.00415858	0.00472174	0.00896708	0.00641079	0.00923947	0.00236327	0.00291177	0.00155456	0.00870752	0.00535286	0.00498974	0.00163310	0.00190260	0.00041248	0.00671971	0.00610604	0.00332960	0.00337282	0.00538291	0.00755440	0.00237919	0.00310416	0.00257681	0.00494296
0.87000000	0.00399846	0.00439860	0.00478075	0.00897091	0.00515220	0.00988253	0.00212868	0.00320350	0.00156044	0.00817025	0.00511231	0.00529980	0.00123961	0.00159092	0.00076110	0.00637257	0.00618658	0.00335468	0.00336652	0.00537086	0.00731887	0.00238758	0.00317327	0.00240162	0.00513066
0.88000000	0.00340478	0.00406647	0.00472186	0.00939753	0.00586947	0.00916175	0.00238286	0.00264139	0.00153681	0.00733975	0.00519303	0.00446415	0.00155519	0.00155365	0.00058978	0.00603821	0.00596366	0.00322298	0.00341809	0.00518316	0.00739748	0.00231058	0.00289545	0.00250210	0.00491351
0.89000000	0.00324987	0.00363904	0.00455179	0.00969047	0.00542100	0.00906558	0.00238081	0.00270626	0.00160312	0.00626252	0.00502610	0.00362955	0.00147910	0.00140207	0.00073745	0.00582646	0.00599310	0.00322431	0.00339440	0.00519731	0.00707072	0.00221743	0.00282328	0.00247100	0.00485780
0.90000000	0.00329320	0.00341155	0.00435038	0.00982720	0.00517440	0.00891235	0.00253293	0.00276995	0.00160902	0.00503080	0.00482526	0.00269393	0.00147906	0.00135760	0.00089223	0.00552801	0.00601907	0.00314920	0.00336836	0.00522998	0.00683710	0.00215871	0.00288995	0.00238999	0.00479045
0.91000000	0.00350451	0.00353842	0.00433382	0.00984446	0.00508638	0.00857375	0.00277466	0.00269803	0.00153978	0.00400379	0.00464983	0.00170236	0.00148605	0.00168746	0.00101200	0.00505790	0.00595316	0.00291714	0.00336476	0.00507768	0.00678755	0.00206446	0.00290065	0.00232543	0.00483222
0.92000000	0.00390431	0.00351942	0.00423812	0.00980063	0.00504461	0.00817800	0.00303674	0.00261597	0.00173484	0.00320331	0.00442543	0.00144380	0.00153511	0.00222593	0.00120009	0.00467496	0.00588551	0.00273269	0.00329126	0.00493393	0.00658569	0.00193094	0.00289837	0.00223454	0.00484430
0.93000000	0.00419090	0.00336176	0.00402427	0.00964095	0.00504355	0.00779393	0.00320770	0.00257774	0.00214617	0.00244254	0.00410691	0.00201352	0.00153222	0.00288339	0.00160625	0.00458255	0.00590808	0.00264810	0.00310519	0.00492922	0.00618575	0.00176289	0.00291163	0.00220289	0.00478934
0.94000000	0.00487277	0.00353550	0.00392757	0.00916494	0.00557408	0.00693345	0.00344068	0.00240871	0.00270740	0.00173476	0.00391722	0.00292639	0.00169919	0.00308380	0.00167807	0.00411379	0.00581655	0.00240769	0.00290512	0.00471554	0.00602974	0.00159800	0.00297795	0.00208214	0.00482082
0.95000000	0.00537497	0.00384228	0.00393289	0.00837435	0.00622171	0.00579642	0.00375471	0.00230384	0.00325038	0.00091003	0.00380655	0.00323071	0.00175330	0.00340570	0.00144559	0.00367058	0.00571377	0.00212905	0.00273237	0.00443154	0.00595292	0.00142194	0.00296186	0.00190282	0.00489716
0.96000000	0.00582096	0.00386905	0.00368612	0.00742219	0.00690221	0.00462430	0.00399902	0.00251067	0.00375770	0.00039863	0.00351141	0.00403485	0.00194287	0.00322424	0.00171864	0.00359306	0.00560969	0.00204445	0.00248040	0.00447469	0.00570774	0.00135313	0.00289068	0.00181024	0.00480050
0.97000000	0.00624790	0.00374931	0.00334356	0.00619243	0.00766859	0.00331563	0.00417130	0.00284539	0.00415099	0.00048991	0.00309269	0.00458466	0.00216657	0.00303075	0.00181812	0.00356463	0.00548111	0.00202119	0.00224788	0.00464500	0.00552664	0.00130654	0.00279235	0.00178972	0.00467122
0.98000000	0.00651410	0.00411262	0.00321074	0.00516743	0.00833692	0.00170708	0.00447426	0.00305273	0.00409632	0.00075366	0.00295670	0.00407513	0.00230500	0.00282254	0.00167308	0.00348440	0.00537602	0.00199601	0.00205126	0.00470999	0.00542155	0.00122980	0.00264429	0.00170352	0.00455277
0.99000000	0.00690182	0.00392247	0.00311070	0.00363504	0.00902831	0.00158474	0.00469945	0.00331683	0.00375237	0.00107939	0.00252132	0.00402901	0.00237200	0.00259917	0.00179345	0.00361788	0.00512961	0.00208952	0.00187284	0.00494366	0.00518756	0.00124100	0.00238674	0.00169693	0.00426389
1.00000000	0.00713777	0.00389230	0.00314384	0.00300741	0.00961783	0.00273527	0.00492019	0.00331644	0.00300237	0.00149947	0.00230131	0.00376287	0.00237256	0.00233056	0.00181681	0.00373252	0.00498172	0.00213338	0.00169554	0.00510473	0.00498325	0.00129149	0.00222960	0.00165269	0.00401969
1.01000000	0.00706264	0.00419748	0.00323100	0.00372504	0.01005527	0.00469593	0.00514093	0.00267109	0.00197841	0.00174025	0.00220298	0.00325434	0.00223341	0.00208561	0.00171955	0.00383699	0.00495351	0.00214725	0.00157769	0.00511607	0.00487594	0.00121212	0.00209390	0.00159237	0.00386684
1.02000000	0.00721482	0.00428115	0.00360461	0.00470905	0.01075985	0.00596845	0.00520673	0.00295759	0.00124156	0.00208571	0.00196108	0.00324403	0.00199665	0.00199565	0.00157394	0.00384490	0.00472712	0.00220578	0.00166537	0.00506807	0.00477342	0.00144227	0.00186075	0.00149373	0.00355454
1.03000000	0.00684972	0.00438524	0.00374025	0.00534798	0.01088298	0.00824735	0.00563981	0.00256972	0.00073765	0.00236792	0.00176288	0.00312177	0.00186924	0.00169712	0.00153538	0.00409706	0.00484341	0.00217221	0.00161153	0.00503090	0.00465907	0.00123657	0.00189400	0.00143341	0.00352290
1.04000000	0.00684479	0.00431188	0.00425145	0.00637505	0.01148281	0.00941251	0.00577788	0.00305414	0.00118276	0.00273444	0.00155804	0.00319934	0.00171516	0.00159363	0.00148019	0.00421729	0.00473843	0.00212966	0.00162968	0.00484938	0.00448896	0.00139986	0.00188595	0.00121889	0.00332464
1.05000000	0.00677405	0.00423647	0.00468736	0.00695159	0.01177270	0.01093513	0.00607149	0.00366687	0.00182055	0.00303648	0.00132140	0.00338201	0.00150052	0.00150267	0.00151953	0.00420484	0.00469719	0.00206097	0.00166416	0.00453112	0.00446095	0.00127970	0.00186007	0.00117161	0.00327910
1.06000000	0.00605295	0.00413557	0.00456671	0.00683782	0.01180643	0.01290520	0.00647846	0.00423649	0.00179370	0.00321439	0.00147869	0.00348006	0.00142483	0.00125241	0.00119816	0.00432669	0.00488959	0.00209766	0.00167325	0.00437715	0.00464176	0.00125484	0.00202901	0.00093169	0.00334571
1.07000000	0.00614254	0.00401947	0.00500019	0.00783082	0.01237730	0.01368088	0.00654200	0.00488847	0.00239585	0.00346377	0.00172832	0.00366126	0.00126224	0.00119368	0.00090911	0.00414250	0.00472190	0.00192350	0.00164232	0.00382567	0.00480822	0.00143608	0.00212286	0.00077721	0.00326328
1.08000000	0.00578675	0.00392363	0.00480795	0.00740653	0.01214929	0.01537765	0.00681939	0.00541163	0.00232344	0.00361142	0.00162838	0.00389078	0.00129501	0.00109296	0.00111774	0.00426765	0.00477080	0.00205485	0.00148566	0.00368676	0.00468266	0.00124179	0.00214510	0.00055320	0.00325011
1.09000000	0.00582776	0.00377865	0.00483945	0.00783873	0.01227897	0.01614722	0.00690386	0.00575761	0.00264276	0.00382335	0.00182768	0.00409201	0.00125761	0.00101980	0.00108302	0.00406400	0.00458265	0.00201155	0.00134087	0.00320176	0.00463456	0.00122211	0.00214308	0.00034121	0.00313808
1.10000000	0.00578801	0.00367939	0.00474643	0.00810663	0.01232333	0.01666433	0.00692628	0.00605567	0.00298127	0.00405475	0.00202410	0.00429029	0.00137119	0.00097028	0.00117157	0.00385039	0.00424042	0.00190263	0.00116061	0.00269430	0.00455868	0.00124363	0.00201717	0.00022868	0.00297959
1.11000000	0.00553731	0.00310936	0.00440130	0.00890970	0.01251267	0.01664311	0.00692050	0.00620914	0.00334727	0.00443444	0.00262792	0.00451037	0.00121086	0.00077246	0.00072442	0.00341397	0.00392055	0.00166833	0.00098406	0.00217018	0.00452476	0.00131821	0.00212055	0.00032108	0.00282058
1.12000000	0.00531789	0.00257066	0.00405895	0.00945347	0.01260253	0.01653070	0.00685696	0.00614657	0.00356748	0.00483321	0.00289831	0.00473914	0.00119793	0.00080486	0.00048960	0.00292453	0.00351588	0.00151639	0.00084319	0.00176596	0.00422400	0.00128962	0.00202556	0.00043724	0.00257440
1.13000000	0.00517637	0.00214555	0.00366190	0.00946410	0.01246442	0.01643484	0.00673442	0.00619248	0.00370341	0.00525791	0.00291450	0.00504269	0.00112025	0.00080112	0.00052825	0.00245630	0.00303822	0.00130078	0.00077024	0.00167873	0.00375036	0.00122838	0.00174290	0.00047647	0.00226478
1.14000000	0.00529639	0.00165502	0.00324661	0.00981621	0.01240025	0.01609028	0.00671062	0.00583139	0.00317152	0.00575945	0.00363877	0.00521972	0.00116320	0.00116646	0.00060923	0.00178137	0.00243045	0.00097771	0.00073908	0.00187338	0.00334435	0.00105738	0.00182210	0.00050504	0.00184906
1.15000000	0.00489500	0.00218036	0.00282314	0.00922451	0.01213381	0.01561485	0.00648078	0.00579836	0.00324972	0.00630311	0.00251178	0.00603486	0.00115149	0.00104452	0.00065157	0.00159312	0.00212484	0.00088937	0.00098449	0.00239945	0.00258514	0.00081521	0.00077143	0.00043176	0.00126883
1.16000000	0.00465772	0.00197760	0.00244946	0.00938854	0.01188676	0.01497046	0.00635472	0.00564870	0.00320019	0.00701832	0.00271422	0.00626323	0.00101516	0.00110821	0.00039075	0.00090559	0.00185702	0.00066826	0.00094823	0.00300985	0.00188196	0.00052879	0.00047083	0.00059274	0.00084832
1.17000000	0.00441814	0.00216392	0.00213936	0.00945276	0.01154126	0.01420659	0.00628026	0.00542546	0.00306559	0.00782116	0.00273897	0.00672231	0.00097422	0.00128172	0.00038910	0.00043094	0.00183150	0.00052013	0.00099197	0.00359217	0.00131499	0.00039875	0.00017105	0.00073585	0.00042559
1.18000000	0.00473465	0.00257591	0.00161165	0.00990407	0.01063305	0.01378004	0.00642241	0.00537600	0.00266199	0.00842828	0.00369664	0.00683040	0.00102653	0.00210821	0.00107008	0.00080005	0.00170484	0.00071932	0.00094659	0.00448175	0.00092361	0.00064564	0.00076574	0.00102691	0.00054726
1.19000000	0.00421354	0.00293848	0.00197832	0.00932714	0.01044322	0.01276135	0.00596453	0.00539672	0.00265138	0.00939226	0.00290727	0.00787969	0.00093409	0.00174419	0.00041207	0.00099891	0.00231674	0.00076442	0.00105690	0.00478773	0.00130362	0.00066348	0.00068351	0.00104171	0.00050419
1.20000000	0.00407212	0.00320734	0.00186981	0.00943843	0.00980250	0.01217057	0.00581920	0.00543461	0.00258794	0.01023017	0.00338486	0.00809769	0.00104735	0.00188106	0.00048051	0.00170668	0.00260089	0.00105790	0.00110260	0.00528410	0.00173723	0.00099164	0.00085021	0.00134738	0.00083626
1.21000000	0.00376051	0.00345099	0.00211989	0.00949664	0.00910848	0.01138056	0.00561219	0.00525034	0.00202404	0.01077498	0.00340635	0.00890527	0.00120687	0.00229098	0.00074167	0.00220565	0.00324797	0.00129957	0.00123455	0.00575391	0.00240671	0.00124076	0.00114409	0.00147095	0.00132571
1.22000000	0.00404909	0.00377164	0.00196156	0.00960487	0.00805822	0.01129760	0.00532968	0.00538218	0.00183425	0.01131983	0.00404981	0.00892626	0.00145649	0.00253292	0.00090645	0.00291409	0.00345594	0.00156802	0.00150118	0.00602026	0.00305167	0.00169472	0.00112434	0.00194233	0.00161744
1.23000000	0.00349242	0.00373422	0.00218464	0.00962654	0.00769832	0.01014062	0.00483099	0.00516203	0.00152124	0.01157111	0.00413640	0.00977003	0.00158675	0.00280070	0.00106349	0.00332369	0.00421930	0.00180361	0.00153700	0.00630492	0.00346729	0.00171236	0.00152386	0.00196887	0.00194803
1.24000000	0.00342639	0.00378453	0.00222979	0.00914758	0.00701587	0.01005878	0.00431615	0.00536807	0.00135875	0.01200901	0.00468412	0.00962040	0.00172408	0.00283343	0.00097554	0.00388496	0.00443228	0.00192713	0.00180104	0.00629147	0.00406142	0.00214211	0.00165506	0.00224621	0.00212124
1.25000000	0.00318206	0.00363803	0.00234051	0.00904448	0.00648983	0.00868902	0.00366026	0.00477180	0.00105377	0.01201550	0.00472149	0.01028271	0.00176998	0.00311294	0.00121009	0.00423705	0.00516437	0.00214840	0.00188114	0.00641846	0.00448259	0.00215688	0.00195614	0.00225575	0.00243145
1.26000000	0.00306881	0.00353177	0.00256492	0.00835961	0.00604869	0.00764719	0.00296029	0.00440740	0.00090895	0.01211496	0.00493711	0.01038134	0.00180034	0.00322498	0.00127378	0.00456752	0.00559171	0.00227960	0.00205207	0.00634848	0.00496727	0.00228780	0.00213347	0.00239118	0.00264477
1.27000000	0.00332295	0.00341784	0.00338107	0.00703164	0.00587519	0.00715644	0.00228773	0.00449101	0.00130928	0.01222703	0.00527683	0.01003854	0.00184928	0.00316406	0.00119047	0.00493345	0.00564419	0.00227180	0.00228229	0.00607011	0.00550235	0.00256189	0.00217305	0.00271906	0.00279949
1.28000000	0.00303047	0.00318850	0.00349932	0.00626493	0.00564571	0.00495186	0.00165397	0.00331581	0.00107466	0.01214042	0.00514989	0.01050783	0.00173989	0.00326429	0.00130523	0.00507760	0.00633572	0.00247663	0.00228979	0.00606363	0.00574299	0.00241580	0.00243216	0.00260865	0.00300271
1.29000000	0.00323902	0.00306256	0.00403283	0.00559060	0.00541859	0.00338268	0.00109545	0.00255744	0.00092494	0.01222029	0.00542446	0.01029444	0.00174297	0.00326627	0.00132539	0.00528288	0.00666880	0.00259451	0.00244917	0.00594377	0.00619223	0.00250036	0.00255797	0.00269462	0.00313741
1.30000000	0.00366805	0.00286484	0.00466972	0.00563156	0.00543876	0.00299683	0.00090737	0.00189935	0.00104351	0.01228516	0.00571025	0.01006958	0.00171905	0.00318147	0.00131359	0.00544684	0.00693847	0.00271411	0.00258410	0.00581453	0.00655359	0.00257551	0.00258467	0.00273345	0.00330068
1.31000000	0.00498241	0.00282599	0.00561004	0.00686311	0.00540678	0.00364095	0.00077762	0.00193086	0.00142763	0.01236198	0.00578932	0.00970250	0.00179504	0.00304500	0.00132134	0.00561927	0.00701219	0.00276297	0.00274897	0.00564144	0.00695870	0.00266133	0.00261739	0.00300659	0.00339439
1.32000000	0.00498809	0.00277648	0.00554602	0.00763200	0.00552445	0.00479271	0.00143462	0.00130429	0.00104085	0.01229943	0.00588281	0.00983122	0.00184408	0.00316576	0.00140644	0.00574806	0.00751719	0.00287613	0.00277833	0.00575845	0.00724404	0.00265890	0.00285068	0.00299476	0.00351415
1.33000000	0.00592393	0.00272044	0.00612343	0.00905371	0.00552713	0.00558147	0.00158084	0.00138014	0.00129751	0.01243861	0.00597871	0.00959239	0.00193724	0.00300127	0.00138850	0.00583226	0.00765129	0.00290187	0.00284911	0.00571143	0.00746946	0.00270431	0.00285075	0.00315319	0.00363983
1.34000000	0.00652516	0.00285403	0.00642106	0.01007960	0.00562418	0.00572221	0.00176699	0.00153851	0.00150640	0.01230283	0.00583135	0.00977301	0.00193850	0.00326101	0.00184188	0.00581693	0.00762005	0.00294394	0.00309382	0.00568061	0.00794191	0.00268170	0.00299061	0.00342728	0.00376083
1.35000000	0.00614441	0.00274357	0.00612606	0.00935426	0.00564165	0.00610581	0.00195777	0.00137279	0.00138015	0.01241852	0.00624113	0.00960505	0.00209549	0.00321017	0.00151157	0.00606148	0.00795833	0.00304317	0.00299296	0.00596781	0.00789268	0.00281470	0.00307349	0.00328097	0.00376829
1.36000000	0.00614845	0.00276496	0.00603689	0.00878015	0.00554134	0.00554836	0.00202757	0.00123211	0.00144629	0.01241285	0.00607879	0.00957633	0.00219733	0.00329352	0.00151124	0.00620589	0.00818199	0.00309593	0.00296255	0.00625082	0.00790152	0.00287299	0.00311799	0.00338003	0.00385238
1.37000000	0.00612884	0.00279832	0.00594282	0.00773754	0.00536435	0.00474835	0.00205669	0.00127657	0.00162875	0.01245843	0.00592800	0.00947224	0.00232259	0.00324037	0.00150858	0.00628084	0.00820689	0.00313586	0.00299343	0.00645594	0.00794366	0.00288328	0.00309778	0.00348189	0.00404483
1.38000000	0.00614288	0.00285255	0.00581212	0.00647804	0.00517419	0.00385161	0.00207165	0.00155583	0.00202177	0.01236814	0.00572137	0.00938148	0.00234430	0.00321486	0.00159581	0.00641431	0.00816960	0.00312492	0.00293537	0.00664190	0.00783922	0.00298962	0.00319693	0.00359937	0.00415547
1.39000000	0.00639133	0.00287537	0.00570200	0.00536594	0.00485900	0.00322016	0.00194771	0.00157689	0.00184732	0.01204846	0.00606031	0.00904912	0.00224067	0.00325391	0.00153486	0.00651831	0.00739943	0.00299701	0.00312558	0.00646328	0.00819001	0.00320822	0.00328679	0.00374758	0.00388553
1.40000000	0.00676006	0.00302284	0.00578433	0.00439765	0.00450075	0.00268407	0.00173520	0.00220095	0.00175127	0.01139511	0.00599166	0.00895423	0.00231891	0.00313452	0.00177076	0.00660630	0.00701552	0.00298093	0.00307342	0.00647054	0.00791927	0.00335273	0.00312364	0.00382368	0.00386499
1.41000000	0.00709993	0.00326760	0.00583553	0.00330237	0.00389835	0.00299078	0.00184070	0.00264266	0.00213178	0.01096011	0.00531879	0.00875897	0.00235154	0.00251215	0.00260374	0.00655393	0.00683500	0.00308501	0.00297450	0.00657833	0.00731224	0.00324304	0.00288249	0.00373427	0.00407827
1.42000000	0.00737333	0.00344649	0.00553690	0.00230456	0.00353910	0.00347314	0.00153004	0.00243635	0.00165803	0.01024081	0.00560432	0.00774529	0.00229874	0.00229951	0.00221763	0.00671046	0.00601835	0.00288098	0.00302325	0.00639761	0.00737438	0.00354014	0.00298672	0.00394194	0.00381819
1.43000000	0.00731929	0.00369872	0.00518501	0.00168873	0.00301380	0.00442521	0.00155450	0.00231388	0.00160797	0.00931223	0.00519854	0.00714131	0.00234235	0.00193434	0.00275375	0.00660015	0.00578966	0.00285945	0.00294084	0.00646864	0.00685868	0.00334042	0.00297386	0.00390598	0.00383277
1.44000000	0.00738170	0.00409054	0.00508789	0.00129270	0.00258682	0.00511258	0.00157760	0.00221964	0.00164688	0.00832629	0.00495228	0.00612850	0.00248815	0.00146943	0.00303451	0.00637694	0.00530916	0.00276752	0.00293168	0.00631097	0.00647963	0.00318130	0.00292468	0.00376268	0.00376722
1.45000000	0.00736474	0.00436404	0.00487721	0.00233149	0.00246537	0.00468727	0.00178379	0.00236958	0.00123454	0.00699200	0.00478812	0.00497061	0.00249204	0.00103400	0.00328032	0.00622861	0.00489365	0.00268051	0.00286912	0.00622890	0.00604724	0.00303392	0.00283885	0.00362299	0.00369506
1.46000000	0.00682995	0.00476483	0.00457281	0.00196595	0.00244043	0.00490544	0.00207564	0.00211134	0.00146862	0.00560719	0.00433382	0.00405928	0.00265344	0.00109217	0.00341123	0.00577648	0.00485167	0.00264047	0.00277375	0.00626530	0.00551946	0.00254053	0.00294001	0.00326847	0.00364941
1.47000000	0.00638262	0.00512792	0.00428340	0.00201946	0.00266440	0.00458292	0.00225718	0.00199225	0.00173476	0.00416604	0.00401874	0.00293157	0.00262906	0.00123825	0.00335783	0.00531946	0.00476023	0.00261254	0.00273081	0.00629625	0.00514097	0.00205121	0.00295052	0.00288482	0.00361488
1.48000000	0.00594071	0.00550964	0.00416717	0.00231832	0.00284120	0.00406352	0.00235112	0.00183769	0.00170797	0.00272970	0.00384792	0.00165548	0.00277403	0.00130457	0.00286388	0.00487523	0.00460661	0.00248650	0.00260283	0.00618437	0.00487673	0.00166460	0.00295631	0.00252284	0.00350512
1.49000000	0.00571883	0.00564624	0.00409527	0.00276489	0.00297004	0.00350187	0.00237112	0.00171587	0.00128741	0.00203112	0.00373402	0.00067104	0.00277988	0.00143209	0.00197968	0.00456038	0.00434172	0.00229028	0.00250076	0.00601542	0.00480664	0.00139996	0.00285801	0.00226736	0.00329855
1.50000000	0.00520121	0.00570814	0.00413972	0.00307230	0.00317326	0.00312736	0.00204392	0.00193305	0.00118043	0.00290045	0.00386058	0.00188093	0.00295085	0.00167649	0.00141628	0.00408237	0.00439408	0.00217724	0.00234633	0.00591947	0.00469572	0.00103356	0.00290797	0.00191227	0.00314015
1.51000000	0.00499977	0.00563074	0.00413486	0.00300952	0.00282017	0.00306317	0.00200455	0.00151790	0.00118402	0.00403231	0.00396253	0.00401269	0.00320856	0.00213602	0.00055058	0.00391418	0.00421637	0.00209198	0.00227077	0.00579832	0.00470566	0.00082610	0.00274431	0.00178581	0.00293281
1.52000000	0.00465968	0.00549561	0.00434032	0.00312865	0.00284352	0.00268103	0.00158773	0.00201980	0.00088491	0.00598862	0.00467163	0.00550690	0.00363153	0.00266063	0.00153518	0.00361994	0.00419148	0.00199473	0.00214043	0.00557158	0.00472293	0.00072146	0.00276920	0.00154014	0.00270936
1.53000000	0.00445140	0.00526824	0.00447234	0.00305192	0.00261093	0.00262912	0.00146471	0.00197678	0.00089612	0.00761935	0.00527536	0.00765396	0.00423531	0.00317414	0.00244930	0.00350061	0.00416265	0.00197773	0.00199904	0.00539824	0.00464868	0.00067418	0.00266402	0.00143472	0.00253761
1.54000000	0.00415024	0.00487320	0.00432152	0.00246263	0.00207151	0.00262231	0.00149478	0.00162734	0.00106210	0.00832089	0.00542989	0.01062656	0.00485071	0.00381798	0.00289632	0.00364501	0.00413189	0.00199159	0.00187877	0.00539945	0.00445374	0.00067649	0.00249623	0.00154376	0.00223687
1.55000000	0.00405677	0.00488357	0.00446795	0.00236061	0.00208630	0.00260829	0.00131166	0.00188643	0.00087117	0.00988327	0.00628428	0.01278173	0.00512832	0.00443018	0.00398979	0.00364897	0.00393722	0.00196161	0.00181399	0.00506304	0.00443598	0.00085557	0.00250948	0.00143677	0.00194392
1.56000000	0.00407788	0.00493704	0.00452294	0.00211964	0.00221277	0.00266665	0.00114103	0.00205026	0.00096903	0.01113650	0.00683771	0.01508879	0.00529395	0.00490129	0.00471934	0.00366172	0.00371586	0.00193453	0.00171014	0.00470036	0.00437056	0.00099158	0.00244784	0.00139037	0.00168183
1.57000000	0.00409567	0.00515141	0.00448210	0.00180206	0.00264021	0.00265025	0.00122254	0.00190185	0.00112107	0.01217697	0.00715424	0.01711614	0.00537328	0.00517107	0.00531131	0.00359108	0.00363397	0.00197310	0.00170694	0.00442468	0.00416596	0.00114001	0.00291470	0.00127810	0.00154586
1.58000000	0.00427239	0.00511721	0.00434125	0.00166014	0.00275661	0.00265514	0.00105684	0.00233782	0.00115476	0.01285490	0.00720407	0.01891997	0.00528432	0.00511936	0.00518444	0.00351191	0.00322348	0.00183836	0.00144687	0.00392867	0.00414471	0.00116193	0.00243932	0.00123347	0.00119006
1.59000000	0.00424622	0.00560894	0.00412040	0.00152463	0.00358199	0.00241540	0.00102482	0.00230839	0.00145483	0.01355437	0.00717024	0.01977583	0.00520592	0.00497011	0.00513458	0.00329990	0.00310971	0.00176405	0.00142425	0.00362175	0.00401774	0.00138016	0.00308485	0.00108949	0.00138605
1.60000000	0.00460709	0.00450451	0.00351456	0.00162269	0.00340273	0.00275477	0.00119923	0.00255821	0.00137166	0.01243024	0.00624118	0.02112709	0.00475639	0.00516581	0.00503459	0.00293588	0.00280962	0.00169044	0.00105696	0.00340049	0.00361944	0.00073456	0.00184188	0.00083682	0.00037014
1.61000000	0.00441268	0.00437826	0.00316434	0.00203300	0.00363055	0.00264200	0.00134803	0.00305411	0.00150021	0.01310596	0.00625971	0.02060149	0.00470675	0.00487231	0.00464367	0.00256725	0.00218510	0.00150155	0.00103309	0.00293271	0.00354921	0.00079396	0.00178539	0.00063975	0.00034740
1.62000000	0.00435164	0.00419888	0.00282903	0.00262605	0.00373090	0.00296917	0.00167724	0.00357005	0.00160586	0.01331043	0.00614884	0.01969407	0.00462699	0.00466614	0.00437330	0.00203420	0.00156603	0.00127885	0.00101109	0.00256835	0.00339934	0.00078291	0.00164395	0.00053806	0.00063891
1.63000000	0.00454527	0.00362950	0.00232516	0.00232664	0.00440000	0.00390188	0.00202620	0.00313088	0.00148658	0.01219347	0.00551663	0.01914321	0.00427244	0.00484262	0.00433069	0.00133195	0.00133341	0.00099741	0.00086284	0.00257552	0.00291337	0.00019641	0.00136922	0.00007004	0.00047116
1.64000000	0.00462815	0.00369053	0.00194605	0.00291338	0.00476087	0.00466478	0.00235849	0.00333967	0.00167603	0.01214187	0.00556585	0.01778097	0.00414614	0.00485315	0.00409090	0.00090476	0.00082061	0.00070632	0.00090576	0.00261164	0.00264575	0.00039236	0.00119402	0.00036758	0.00076196
1.65000000	0.00462225	0.00392074	0.00146124	0.00379106	0.00583920	0.00476602	0.00250685	0.00359484	0.00211256	0.01296517	0.00580465	0.01623988	0.00422340	0.00477683	0.00365400	0.00071624	0.00070221	0.00034896	0.00113160	0.00280647	0.00264316	0.00065923	0.00091736	0.00057855	0.00137992
1.66000000	0.00520091	0.00415119	0.00152069	0.00454576	0.00541637	0.00601022	0.00285754	0.00392927	0.00163970	0.01241814	0.00578590	0.01535891	0.00399219	0.00499462	0.00385592	0.00136803	0.00108137	0.00011736	0.00116553	0.00330989	0.00199913	0.00087409	0.00103941	0.00084047	0.00126503
1.67000000	0.00536536	0.00429796	0.00171348	0.00445172	0.00619094	0.00693888	0.00313790	0.00384273	0.00192493	0.01283022	0.00604337	0.01434192	0.00401878	0.00494142	0.00342607	0.00186771	0.00152561	0.00033331	0.00125919	0.00365414	0.00172202	0.00100078	0.00064116	0.00099991	0.00161915
1.68000000	0.00581523	0.00450135	0.00197795	0.00484941	0.00660360	0.00752495	0.00328934	0.00393818	0.00193234	0.01321596	0.00608358	0.01376881	0.00387004	0.00508169	0.00335081	0.00235850	0.00211368	0.00065040	0.00141175	0.00406446	0.00162654	0.00116422	0.00067122	0.00110846	0.00187721
1.69000000	0.00621281	0.00468034	0.00235940	0.00517868	0.00691443	0.00810799	0.00338743	0.00404609	0.00198463	0.01374999	0.00609107	0.01329443	0.00374107	0.00504855	0.00310360	0.00282030	0.00267720	0.00093942	0.00158305	0.00443038	0.00172613	0.00127721	0.00074118	0.00122806	0.00215561
1.70000000	0.00649182	0.00470476	0.00265107	0.00563767	0.00723135	0.00846148	0.00346758	0.00415038	0.00193853	0.01419932	0.00606295	0.01297556	0.00351908	0.00500786	0.00296930	0.00324437	0.00323562	0.00120672	0.00177591	0.00475583	0.00206185	0.00141289	0.00110732	0.00132840	0.00239717
1.71000000	0.00675754	0.00484864	0.00283547	0.00589534	0.00741384	0.00885560	0.00349230	0.00429042	0.00192615	0.01443769	0.00592328	0.01267710	0.00325124	0.00501794	0.00269762	0.00357410	0.00374253	0.00145579	0.00201877	0.00498487	0.00253524	0.00143285	0.00128918	0.00143901	0.00270640
1.72000000	0.00688011	0.00492662	0.00313635	0.00625840	0.00754113	0.00930896	0.00357706	0.00430924	0.00202877	0.01462536	0.00585166	0.01189389	0.00298388	0.00470416	0.00219214	0.00392239	0.00417414	0.00174308	0.00211445	0.00517557	0.00278191	0.00157559	0.00135562	0.00150215	0.00294515
1.73000000	0.00689523	0.00477186	0.00314911	0.00650539	0.00765448	0.00962252	0.00352796	0.00436078	0.00207676	0.01429716	0.00571257	0.01111023	0.00267862	0.00448016	0.00192441	0.00422334	0.00450916	0.00195936	0.00234000	0.00528305	0.00340138	0.00165534	0.00152412	0.00165852	0.00324262
1.74000000	0.00679169	0.00446241	0.00311967	0.00688807	0.00781764	0.00976079	0.00353970	0.00431102	0.00209439	0.01359680	0.00573689	0.00990568	0.00237289	0.00412600	0.00163395	0.00450028	0.00481671	0.00222551	0.00247442	0.00538107	0.00379081	0.00179221	0.00171892	0.00168215	0.00345124
1.75000000	0.00663093	0.00405572	0.00300919	0.00705664	0.00781686	0.00996396	0.00348832	0.00431802	0.00206179	0.01238237	0.00574346	0.00845748	0.00209849	0.00368102	0.00136973	0.00477882	0.00501406	0.00243299	0.00262289	0.00544173	0.00435104	0.00188281	0.00188376	0.00184705	0.00366430
1.76000000	0.00634469	0.00376163	0.00293631	0.00717394	0.00776063	0.01018782	0.00346319	0.00421826	0.00216568	0.01085055	0.00574730	0.00659203	0.00190522	0.00295662	0.00110203	0.00505225	0.00523516	0.00265132	0.00268161	0.00555767	0.00473762	0.00202848	0.00192994	0.00191739	0.00388286
1.77000000	0.00592327	0.00331819	0.00292258	0.00742805	0.00774230	0.01022604	0.00341284	0.00419919	0.00210773	0.00920295	0.00579092	0.00472166	0.00178512	0.00234234	0.00084262	0.00527187	0.00537705	0.00283353	0.00273976	0.00561131	0.00516747	0.00212037	0.00213008	0.00200138	0.00404143
1.78000000	0.00555110	0.00326537	0.00314477	0.00778716	0.00767930	0.01020795	0.00331155	0.00403872	0.00206764	0.00791839	0.00575266	0.00307604	0.00171290	0.00179805	0.00057699	0.00542736	0.00540878	0.00299811	0.00276819	0.00560988	0.00554858	0.00219126	0.00222205	0.00207858	0.00417540
1.79000000	0.00512801	0.00424761	0.00352596	0.00816664	0.00738440	0.01011205	0.00322720	0.00388061	0.00209176	0.00750945	0.00564164	0.00266391	0.00174002	0.00122049	0.00067043	0.00536983	0.00554479	0.00302731	0.00286020	0.00556689	0.00600570	0.00222651	0.00232602	0.00203778	0.00450958
1.80000000	0.00451638	0.00395161	0.00370343	0.00851744	0.00733880	0.01025495	0.00310198	0.00376790	0.00200578	0.00786878	0.00563639	0.00331184	0.00185370	0.00167330	0.00029451	0.00558083	0.00542550	0.00321597	0.00272431	0.00559140	0.00608476	0.00233442	0.00229852	0.00212278	0.00436298
1.81000000	0.00397910	0.00466278	0.00405591	0.00893231	0.00714995	0.01019354	0.00300890	0.00352336	0.00192360	0.00851898	0.00555198	0.00434442	0.00185337	0.00193014	0.00049353	0.00548260	0.00543929	0.00325718	0.00270488	0.00552641	0.00620803	0.00229682	0.00233374	0.00211142	0.00443333
1.82000000	0.00362837	0.00533861	0.00449512	0.00910175	0.00602154	0.01080374	0.00276585	0.00389460	0.00210665	0.00902075	0.00570717	0.00461531	0.00207830	0.00162534	0.00120086	0.00514705	0.00504043	0.00315491	0.00278623	0.00518580	0.00656101	0.00251175	0.00224647	0.00209323	0.00447985
1.83000000	0.00285912	0.00542417	0.00439144	0.00985350	0.00598239	0.01016752	0.00281528	0.00317977	0.00221264	0.00886443	0.00538157	0.00475000	0.00190978	0.00158958	0.00100908	0.00533440	0.00533397	0.00318406	0.00251020	0.00545573	0.00617308	0.00251162	0.00235691	0.00205638	0.00446355
1.84000000	0.00242348	0.00521038	0.00442849	0.01020137	0.00543491	0.01016125	0.00285934	0.00306284	0.00220079	0.00820940	0.00521458	0.00440815	0.00172954	0.00142945	0.00086804	0.00509720	0.00513414	0.00312842	0.00242995	0.00534200	0.00595397	0.00250940	0.00233486	0.00209795	0.00436056
1.85000000	0.00218050	0.00471872	0.00418603	0.01003817	0.00595169	0.01000874	0.00309789	0.00316514	0.00188594	0.00663497	0.00506003	0.00395805	0.00187454	0.00134723	0.00117636	0.00469868	0.00477450	0.00304710	0.00245653	0.00521801	0.00586189	0.00244437	0.00202151	0.00210645	0.00427992
1.86000000	0.00215546	0.00430305	0.00402079	0.01022673	0.00494954	0.01009358	0.00325595	0.00288490	0.00215767	0.00546997	0.00475650	0.00314591	0.00156810	0.00173862	0.00182897	0.00451884	0.00455132	0.00297375	0.00228499	0.00521927	0.00545744	0.00246632	0.00210854	0.00218826	0.00392145
1.87000000	0.00243495	0.00383224	0.00352157	0.01005744	0.00509815	0.00974099	0.00327263	0.00319381	0.00235088	0.00395576	0.00450683	0.00275858	0.00186524	0.00159978	0.00149742	0.00424873	0.00442718	0.00285274	0.00215362	0.00526677	0.00508992	0.00240189	0.00201378	0.00217271	0.00401263
1.88000000	0.00295682	0.00417854	0.00352085	0.01001247	0.00511381	0.00903517	0.00350282	0.00287328	0.00214417	0.00299326	0.00435573	0.00208869	0.00184246	0.00209387	0.00153769	0.00359431	0.00418189	0.00255505	0.00213915	0.00498795	0.00493427	0.00224611	0.00184358	0.00201601	0.00400454
1.89000000	0.00329502	0.00380737	0.00302525	0.00957836	0.00501692	0.00869737	0.00359343	0.00265036	0.00257045	0.00219122	0.00398273	0.00262963	0.00185155	0.00276256	0.00173847	0.00335467	0.00401469	0.00238950	0.00187106	0.00498029	0.00447947	0.00214399	0.00185790	0.00202464	0.00388343
1.90000000	0.00381472	0.00377519	0.00262797	0.00896704	0.00540741	0.00786250	0.00365505	0.00245257	0.00297511	0.00150558	0.00370133	0.00333823	0.00191938	0.00308709	0.00184394	0.00302402	0.00380507	0.00223728	0.00165715	0.00488852	0.00408987	0.00201524	0.00188734	0.00190145	0.00375823
1.91000000	0.00403482	0.00367025	0.00220886	0.00813068	0.00593747	0.00699266	0.00374120	0.00226717	0.00339586	0.00108265	0.00343385	0.00405130	0.00192995	0.00323647	0.00210398	0.00289647	0.00356103	0.00211199	0.00133119	0.00485416	0.00368142	0.00196495	0.00196041	0.00189996	0.00358015
1.92000000	0.00450014	0.00405028	0.00221353	0.00720140	0.00682673	0.00517753	0.00381466	0.00213503	0.00353388	0.00104929	0.00319677	0.00384186	0.00199917	0.00337737	0.00156030	0.00215565	0.00318667	0.00170641	0.00142262	0.00430200	0.00381267	0.00164409	0.00117871	0.00174894	0.00351389
1.93000000	0.00470741	0.00363723	0.00163418	0.00558200	0.00767590	0.00407194	0.00390259	0.00245075	0.00383228	0.00103120	0.00279377	0.00433276	0.00217583	0.00311762	0.00162598	0.00224473	0.00296079	0.00175937	0.00118448	0.00441799	0.00337045	0.00169687	0.00117013	0.00174143	0.00324264
1.94000000	0.00475167	0.00387673	0.00157417	0.00449465	0.00847270	0.00238352	0.00414875	0.00277052	0.00346297	0.00101907	0.00267139	0.00386720	0.00231798	0.00280851	0.00148222	0.00207506	0.00279640	0.00164167	0.00123109	0.00430192	0.00329426	0.00156544	0.00095989	0.00171868	0.00306270
1.95000000	0.00485172	0.00364623	0.00159869	0.00326509	0.00926318	0.00246521	0.00439094	0.00294940	0.00297155	0.00118294	0.00247008	0.00365430	0.00241392	0.00247565	0.00156743	0.00214598	0.00258188	0.00165303	0.00122405	0.00429671	0.00306437	0.00157961	0.00088150	0.00172219	0.00278875
1.96000000	0.00480378	0.00344247	0.00176704	0.00313690	0.00998404	0.00401737	0.00468142	0.00298680	0.00210814	0.00144272	0.00233552	0.00343101	0.00238849	0.00220303	0.00153047	0.00226736	0.00241921	0.00165824	0.00126855	0.00432466	0.00296935	0.00167922	0.00081386	0.00169865	0.00254611
1.97000000	0.00499532	0.00313911	0.00223633	0.00406633	0.01076060	0.00569417	0.00493697	0.00311116	0.00141410	0.00180998	0.00210352	0.00344665	0.00230469	0.00201146	0.00153207	0.00240020	0.00223209	0.00169561	0.00131198	0.00436077	0.00275731	0.00177442	0.00088021	0.00167761	0.00229931
1.98000000	0.00506294	0.00304246	0.00273737	0.00565834	0.01142909	0.00755381	0.00521380	0.00318199	0.00122342	0.00219209	0.00196067	0.00345850	0.00218776	0.00179064	0.00151547	0.00248740	0.00215233	0.00168703	0.00136167	0.00435192	0.00266256	0.00181769	0.00086433	0.00162676	0.00213821
1.99000000	0.00455798	0.00307985	0.00287994	0.00639213	0.01167006	0.01014523	0.00563787	0.00319721	0.00119853	0.00255225	0.00185769	0.00334094	0.00204193	0.00142559	0.00135554	0.00264022	0.00236272	0.00160838	0.00140073	0.00443376	0.00285014	0.00182089	0.00063418	0.00156377	0.00221765
2.00000000	0.00467606	0.00311601	0.00344532	0.00783831	0.01233991	0.01143167	0.00585099	0.00368098	0.00197564	0.00298347	0.00164558	0.00350588	0.00180476	0.00141514	0.00118729	0.00263137	0.00232461	0.00158301	0.00141616	0.00429443	0.00292629	0.00197485	0.00062490	0.00147804	0.00214259
2.01000000	0.00445565	0.00308358	0.00361832	0.00780993	0.01241402	0.01379349	0.00617753	0.00420135	0.00219675	0.00327105	0.00153583	0.00361329	0.00179371	0.00109566	0.00126361	0.00272539	0.00260051	0.00158840	0.00136803	0.00432592	0.00299125	0.00181946	0.00053152	0.00133976	0.00232363
2.02000000	0.00478057	0.00331568	0.00407806	0.00886868	0.01304096	0.01476258	0.00626580	0.00486007	0.00278102	0.00359051	0.00151685	0.00371777	0.00160822	0.00104569	0.00093267	0.00262558	0.00259627	0.00152843	0.00133106	0.00403063	0.00326258	0.00196166	0.00062352	0.00125457	0.00238406
2.03000000	0.00479888	0.00337549	0.00408743	0.00837766	0.01286098	0.01670973	0.00652360	0.00534045	0.00276404	0.00372196	0.00138280	0.00392651	0.00163901	0.00096820	0.00120469	0.00267224	0.00284817	0.00159119	0.00120367	0.00398265	0.00322414	0.00175537	0.00073972	0.00110704	0.00253396
2.04000000	0.00508276	0.00342194	0.00432483	0.00923686	0.01327895	0.01723932	0.00660168	0.00576033	0.00320019	0.00384609	0.00171943	0.00400184	0.00152129	0.00090507	0.00090166	0.00247682	0.00278124	0.00154249	0.00115771	0.00356343	0.00342952	0.00178584	0.00090431	0.00096633	0.00258405
2.05000000	0.00520045	0.00333004	0.00440521	0.00977783	0.01344289	0.01761090	0.00668418	0.00608602	0.00365840	0.00398252	0.00194278	0.00413545	0.00146311	0.00087209	0.00089976	0.00230157	0.00264813	0.00151540	0.00105308	0.00311033	0.00346109	0.00173774	0.00106189	0.00088310	0.00260209
2.06000000	0.00474179	0.00344782	0.00387303	0.00897151	0.01309522	0.01833536	0.00675611	0.00626712	0.00334675	0.00418754	0.00183048	0.00429024	0.00154791	0.00083308	0.00100789	0.00229565	0.00272519	0.00156163	0.00086943	0.00295042	0.00324236	0.00155454	0.00096385	0.00076127	0.00243989
2.07000000	0.00461379	0.00289139	0.00385896	0.00956167	0.01328983	0.01792789	0.00680907	0.00631364	0.00356119	0.00449655	0.00228944	0.00436941	0.00146598	0.00083422	0.00073967	0.00193244	0.00234320	0.00147392	0.00083229	0.00227544	0.00307303	0.00140982	0.00089952	0.00058991	0.00228771
2.08000000	0.00445499	0.00238692	0.00368869	0.00979755	0.01333443	0.01744022	0.00679317	0.00623250	0.00370365	0.00488735	0.00252204	0.00458041	0.00139840	0.00089783	0.00061441	0.00158860	0.00192607	0.00138561	0.00083629	0.00160745	0.00277033	0.00128636	0.00084446	0.00051850	0.00204176
2.09000000	0.00473443	0.00275972	0.00342899	0.00897687	0.01299880	0.01714709	0.00655873	0.00621795	0.00375248	0.00530620	0.00230702	0.00515831	0.00143432	0.00096958	0.00115571	0.00136412	0.00139905	0.00147336	0.00072666	0.00102296	0.00239943	0.00118211	0.00040212	0.00047219	0.00159700
2.10000000	0.00396721	0.00205974	0.00307233	0.00934353	0.01309970	0.01631697	0.00662602	0.00597110	0.00383271	0.00590356	0.00249302	0.00523537	0.00135908	0.00103971	0.00068030	0.00092055	0.00121645	0.00135398	0.00088749	0.00082202	0.00196842	0.00088681	0.00053021	0.00025411	0.00116711
2.11000000	0.00404744	0.00218317	0.00277909	0.00911998	0.01299353	0.01550854	0.00647824	0.00564885	0.00368585	0.00658205	0.00231836	0.00573563	0.00132191	0.00117345	0.00079241	0.00062181	0.00142534	0.00137212	0.00099707	0.00119294	0.00150744	0.00065017	0.00060419	0.00018043	0.00075235
2.12000000	0.00406116	0.00226476	0.00254974	0.00898267	0.01279601	0.01465964	0.00642630	0.00543405	0.00358946	0.00731125	0.00236125	0.00614826	0.00126830	0.00141226	0.00065159	0.00060261	0.00182780	0.00140073	0.00116304	0.00187590	0.00122984	0.00038838	0.00082480	0.00015833	0.00034022
2.13000000	0.00406922	0.00243462	0.00242061	0.00897081	0.01251716	0.01379895	0.00635897	0.00519955	0.00356192	0.00813432	0.00249545	0.00648033	0.00122851	0.00155814	0.00059937	0.00103495	0.00235662	0.00143463	0.00133384	0.00261302	0.00122032	0.00016793	0.00106244	0.00032806	0.00011538
2.14000000	0.00407715	0.00286555	0.00241127	0.00892977	0.01215426	0.01291200	0.00627597	0.00499762	0.00321201	0.00876609	0.00244654	0.00718814	0.00133412	0.00186740	0.00062233	0.00142822	0.00301933	0.00161236	0.00144497	0.00331146	0.00160802	0.00030265	0.00134055	0.00051002	0.00056575
2.15000000	0.00460352	0.00325917	0.00248736	0.00932430	0.01132574	0.01248728	0.00625028	0.00487984	0.00294676	0.00946496	0.00334295	0.00711589	0.00145613	0.00235691	0.00082380	0.00220574	0.00343911	0.00178028	0.00177842	0.00411155	0.00180268	0.00077967	0.00124428	0.00103284	0.00106498
2.16000000	0.00407012	0.00347132	0.00264100	0.00908058	0.01096720	0.01166973	0.00598988	0.00485448	0.00281334	0.00999035	0.00278735	0.00797885	0.00143741	0.00225069	0.00073646	0.00249266	0.00421196	0.00186366	0.00176416	0.00460819	0.00256347	0.00089374	0.00177483	0.00098782	0.00129324
2.17000000	0.00467702	0.00394312	0.00279353	0.00951539	0.00963451	0.01173276	0.00584653	0.00485997	0.00256107	0.01049655	0.00353622	0.00783925	0.00152926	0.00274759	0.00097565	0.00329555	0.00461404	0.00206624	0.00207819	0.00528688	0.00284071	0.00133660	0.00167247	0.00149965	0.00159621
2.18000000	0.00412717	0.00391489	0.00283170	0.00941021	0.00942765	0.01093696	0.00545327	0.00494388	0.00226995	0.01081643	0.00319184	0.00854447	0.00160481	0.00255350	0.00087709	0.00348835	0.00532009	0.00206424	0.00208273	0.00554540	0.00355694	0.00142468	0.00217407	0.00140587	0.00188113
2.19000000	0.00430895	0.00404903	0.00289023	0.00963086	0.00857983	0.01060344	0.00503762	0.00497192	0.00205173	0.01099996	0.00363347	0.00882685	0.00171153	0.00273786	0.00104026	0.00389231	0.00588356	0.00217342	0.00221550	0.00584338	0.00397092	0.00158754	0.00237197	0.00159517	0.00215677
2.20000000	0.00436446	0.00402071	0.00279693	0.00948421	0.00795707	0.01039525	0.00457522	0.00506849	0.00169311	0.01127956	0.00397402	0.00875904	0.00172058	0.00272729	0.00102510	0.00426976	0.00632653	0.00217876	0.00242837	0.00602214	0.00450140	0.00188451	0.00254634	0.00176159	0.00238190
2.21000000	0.00451986	0.00399572	0.00298152	0.00909930	0.00741904	0.01023476	0.00404449	0.00517929	0.00152722	0.01152104	0.00426304	0.00860014	0.00180699	0.00264823	0.00095530	0.00472039	0.00659805	0.00222321	0.00263617	0.00609091	0.00479234	0.00210852	0.00261330	0.00206601	0.00247677
2.22000000	0.00481556	0.00406380	0.00291478	0.00886506	0.00667909	0.00875564	0.00330730	0.00442344	0.00116656	0.01145475	0.00414118	0.00909942	0.00178978	0.00289869	0.00130231	0.00492464	0.00738425	0.00238254	0.00267785	0.00628896	0.00516818	0.00200147	0.00295917	0.00215924	0.00283394
2.23000000	0.00493926	0.00397497	0.00313976	0.00794693	0.00624253	0.00748886	0.00265174	0.00387129	0.00096774	0.01154872	0.00442440	0.00910227	0.00178171	0.00287795	0.00131171	0.00513389	0.00781332	0.00248215	0.00285307	0.00628163	0.00558209	0.00210581	0.00313777	0.00228416	0.00308652
2.24000000	0.00502386	0.00392181	0.00352402	0.00687849	0.00578634	0.00585606	0.00200915	0.00315978	0.00075407	0.01162256	0.00464123	0.00905181	0.00179040	0.00287855	0.00137352	0.00538437	0.00823275	0.00259713	0.00298429	0.00628385	0.00591849	0.00222931	0.00331814	0.00249446	0.00329549
2.25000000	0.00517288	0.00383411	0.00395723	0.00577348	0.00551991	0.00421744	0.00150143	0.00236020	0.00075114	0.01166885	0.00481818	0.00898492	0.00182098	0.00287318	0.00139056	0.00559724	0.00859730	0.00273642	0.00313310	0.00628999	0.00629987	0.00232151	0.00348193	0.00269677	0.00350267
2.26000000	0.00543410	0.00379164	0.00446378	0.00537746	0.00526317	0.00293351	0.00122321	0.00149229	0.00052591	0.01179607	0.00509670	0.00881562	0.00183971	0.00282539	0.00141128	0.00578938	0.00895813	0.00290467	0.00326040	0.00632863	0.00662832	0.00245714	0.00361757	0.00285840	0.00367178
2.27000000	0.00590424	0.00375322	0.00503702	0.00612133	0.00519453	0.00310663	0.00113129	0.00090458	0.00077684	0.01194408	0.00538456	0.00860492	0.00179594	0.00282899	0.00141596	0.00591722	0.00918766	0.00305113	0.00338494	0.00630828	0.00692988	0.00255436	0.00372250	0.00300091	0.00384018
2.28000000	0.00691619	0.00392868	0.00583134	0.00773075	0.00533020	0.00357130	0.00148566	0.00132130	0.00230587	0.01191704	0.00527229	0.00863569	0.00177562	0.00295745	0.00164490	0.00620339	0.00945148	0.00322927	0.00337517	0.00642100	0.00694466	0.00266616	0.00372308	0.00329370	0.00399548
2.29000000	0.00773098	0.00383779	0.00638724	0.00915318	0.00495271	0.00463514	0.00114831	0.00137027	0.00221762	0.01222716	0.00542507	0.00806535	0.00204558	0.00280925	0.00137338	0.00646598	0.00953859	0.00338185	0.00344561	0.00652550	0.00706497	0.00287787	0.00378773	0.00350402	0.00406625
2.30000000	0.00722085	0.00395878	0.00604244	0.00856984	0.00494206	0.00538030	0.00170390	0.00157168	0.00091224	0.01216580	0.00586395	0.00819837	0.00196833	0.00300073	0.00148039	0.00644410	0.00973289	0.00333172	0.00356266	0.00658954	0.00751087	0.00297107	0.00412212	0.00352973	0.00425626
2.31000000	0.00745403	0.00402626	0.00613396	0.00845973	0.00464041	0.00535833	0.00181306	0.00148167	0.00112598	0.01184942	0.00565393	0.00856234	0.00199005	0.00309501	0.00174899	0.00678946	0.00968556	0.00350676	0.00374654	0.00681286	0.00766874	0.00310825	0.00380549	0.00409633	0.00453159
2.32000000	0.00734630	0.00395181	0.00618726	0.00795713	0.00474493	0.00451911	0.00191838	0.00118167	0.00100818	0.01200814	0.00574806	0.00787382	0.00205931	0.00316605	0.00136794	0.00675816	0.00982813	0.00354032	0.00358023	0.00692144	0.00741725	0.00322872	0.00418240	0.00370459	0.00445089
2.33000000	0.00739575	0.00393436	0.00617007	0.00665977	0.00450870	0.00365658	0.00193755	0.00114555	0.00108665	0.01183748	0.00557148	0.00763858	0.00220935	0.00295186	0.00136476	0.00692649	0.00971398	0.00365353	0.00355399	0.00706876	0.00720707	0.00319753	0.00402181	0.00385552	0.00470198
2.34000000	0.00732883	0.00375346	0.00595972	0.00535148	0.00436625	0.00285887	0.00189544	0.00108008	0.00115868	0.01143106	0.00576423	0.00721947	0.00220386	0.00301010	0.00131752	0.00688775	0.00913775	0.00352027	0.00370956	0.00690428	0.00743878	0.00339159	0.00436754	0.00387786	0.00445275
2.35000000	0.00743987	0.00387996	0.00581197	0.00395785	0.00418637	0.00202494	0.00202863	0.00163643	0.00165410	0.01086095	0.00535839	0.00709380	0.00218812	0.00250578	0.00158689	0.00688089	0.00896876	0.00354577	0.00353078	0.00697422	0.00695429	0.00336405	0.00408257	0.00388679	0.00471494
2.36000000	0.00774867	0.00376649	0.00596135	0.00302660	0.00396207	0.00178093	0.00168563	0.00224160	0.00129430	0.00991991	0.00563755	0.00646970	0.00226043	0.00250833	0.00174659	0.00672753	0.00791853	0.00333133	0.00366436	0.00650226	0.00699094	0.00352646	0.00406963	0.00398065	0.00453187
2.37000000	0.00789571	0.00368995	0.00573390	0.00199856	0.00376596	0.00195028	0.00152773	0.00286257	0.00142804	0.00891121	0.00550382	0.00593052	0.00227176	0.00208197	0.00213694	0.00660147	0.00723246	0.00323504	0.00356245	0.00627417	0.00660512	0.00348985	0.00390903	0.00401335	0.00448777
2.38000000	0.00785820	0.00363149	0.00524206	0.00091978	0.00368675	0.00277947	0.00143779	0.00311087	0.00161257	0.00791739	0.00507331	0.00529484	0.00216003	0.00148928	0.00259746	0.00639549	0.00669937	0.00312419	0.00337278	0.00611265	0.00613486	0.00329429	0.00376155	0.00399009	0.00452219
2.39000000	0.00779085	0.00369831	0.00499257	0.00054614	0.00357725	0.00390978	0.00096852	0.00325281	0.00187618	0.00681916	0.00500095	0.00410961	0.00227772	0.00098304	0.00292636	0.00619669	0.00582798	0.00294277	0.00327835	0.00570872	0.00577838	0.00329357	0.00364584	0.00391365	0.00432322
2.40000000	0.00745919	0.00382968	0.00439488	0.00134395	0.00342762	0.00531366	0.00093621	0.00345454	0.00198527	0.00547435	0.00451783	0.00321253	0.00221478	0.00097372	0.00339469	0.00587696	0.00537907	0.00280073	0.00307116	0.00552196	0.00532055	0.00295147	0.00354968	0.00377165	0.00430371
2.41000000	0.00727302	0.00412503	0.00429250	0.00261491	0.00311107	0.00521648	0.00111606	0.00364937	0.00175927	0.00374943	0.00440344	0.00189948	0.00251564	0.00130160	0.00336161	0.00560776	0.00466583	0.00261263	0.00291509	0.00508607	0.00485576	0.00283365	0.00331178	0.00355911	0.00413761
2.42000000	0.00665283	0.00456162	0.00384055	0.00248008	0.00283994	0.00564742	0.00136509	0.00359408	0.00182318	0.00224506	0.00396797	0.00087905	0.00255030	0.00157668	0.00332040	0.00513599	0.00446380	0.00249002	0.00273431	0.00492150	0.00442632	0.00231328	0.00325867	0.00323745	0.00409308
2.43000000	0.00631537	0.00487789	0.00369571	0.00249937	0.00281850	0.00469881	0.00176192	0.00346090	0.00179555	0.00135851	0.00369353	0.00091482	0.00270046	0.00174537	0.00267905	0.00483644	0.00414093	0.00229433	0.00258938	0.00467991	0.00407197	0.00210329	0.00313248	0.00295602	0.00388199
2.44000000	0.00573520	0.00528238	0.00369789	0.00238264	0.00269437	0.00412880	0.00163025	0.00355827	0.00192690	0.00230316	0.00366923	0.00189937	0.00271756	0.00191278	0.00229598	0.00434565	0.00418126	0.00222820	0.00242117	0.00459449	0.00363757	0.00156915	0.00310971	0.00256439	0.00377411
2.45000000	0.00542745	0.00558143	0.00393140	0.00252387	0.00285536	0.00345357	0.00145928	0.00356425	0.00199005	0.00385892	0.00401854	0.00298034	0.00285687	0.00213831	0.00195469	0.00394727	0.00422749	0.00215167	0.00227815	0.00447582	0.00328805	0.00114116	0.00308549	0.00224615	0.00353782
2.46000000	0.00508959	0.00563745	0.00421405	0.00282432	0.00276904	0.00321001	0.00134515	0.00342154	0.00170957	0.00515092	0.00446676	0.00445991	0.00304814	0.00219166	0.00153452	0.00387754	0.00424019	0.00204205	0.00216430	0.00441364	0.00308666	0.00104221	0.00287182	0.00215555	0.00321591
2.47000000	0.00497457	0.00511762	0.00415218	0.00280123	0.00284042	0.00298302	0.00109119	0.00293053	0.00178957	0.00540125	0.00444329	0.00692059	0.00326330	0.00266738	0.00062045	0.00404453	0.00428259	0.00208486	0.00220173	0.00451339	0.00307389	0.00112366	0.00268868	0.00209424	0.00283324
2.48000000	0.00486942	0.00475431	0.00437408	0.00257183	0.00275359	0.00294078	0.00077673	0.00276886	0.00169569	0.00624533	0.00507835	0.00876027	0.00360612	0.00304966	0.00123793	0.00414196	0.00446226	0.00213274	0.00214596	0.00453700	0.00306149	0.00112465	0.00256435	0.00206970	0.00248099
2.49000000	0.00481661	0.00434190	0.00454816	0.00230154	0.00271277	0.00300958	0.00063191	0.00265586	0.00152367	0.00692949	0.00567718	0.01084096	0.00390713	0.00349168	0.00191940	0.00432354	0.00462566	0.00222338	0.00212123	0.00453992	0.00310239	0.00122729	0.00245882	0.00205902	0.00213464
2.50000000	0.00487835	0.00406285	0.00469235	0.00249030	0.00274701	0.00286790	0.00052366	0.00278299	0.00167962	0.00800830	0.00653969	0.01259701	0.00398892	0.00419233	0.00309976	0.00446488	0.00474964	0.00229101	0.00216188	0.00443445	0.00330239	0.00129005	0.00271596	0.00207548	0.00179301
2.51000000	0.00501911	0.00403145	0.00492976	0.00255361	0.00271663	0.00309361	0.00051980	0.00306129	0.00143344	0.00885312	0.00708285	0.01457742	0.00413305	0.00427359	0.00333294	0.00462113	0.00464339	0.00224225	0.00207418	0.00410028	0.00338564	0.00145578	0.00241853	0.00209055	0.00148692
2.52000000	0.00502855	0.00393103	0.00492697	0.00253872	0.00286091	0.00315775	0.00069658	0.00314073	0.00154133	0.00956250	0.00732392	0.01629627	0.00415926	0.00456570	0.00350590	0.00472025	0.00450687	0.00217906	0.00204925	0.00378707	0.00356310	0.00150906	0.00238096	0.00213420	0.00127707
2.53000000	0.00501031	0.00391817	0.00486541	0.00242154	0.00326691	0.00311720	0.00082657	0.00318437	0.00161393	0.01023285	0.00736362	0.01750416	0.00425896	0.00452401	0.00349301	0.00467596	0.00423895	0.00213005	0.00206657	0.00342289	0.00369570	0.00145563	0.00252172	0.00205511	0.00101434
2.54000000	0.00516843	0.00370385	0.00447941	0.00224328	0.00349068	0.00344562	0.00103418	0.00310530	0.00168024	0.00981937	0.00678133	0.01860329	0.00399898	0.00458521	0.00328800	0.00451606	0.00421826	0.00213165	0.00176077	0.00337189	0.00320416	0.00139355	0.00185770	0.00175845	0.00062917
2.55000000	0.00507828	0.00359746	0.00424126	0.00231486	0.00381604	0.00337649	0.00112875	0.00335460	0.00160573	0.01011286	0.00650920	0.01872662	0.00400476	0.00448267	0.00311195	0.00415795	0.00370276	0.00194669	0.00168525	0.00297230	0.00315218	0.00120841	0.00171692	0.00150348	0.00039001
2.56000000	0.00492650	0.00365748	0.00391359	0.00248810	0.00405345	0.00348460	0.00139214	0.00351159	0.00164181	0.01023701	0.00622950	0.01832493	0.00391293	0.00448637	0.00302106	0.00368268	0.00313695	0.00168547	0.00160794	0.00262985	0.00296646	0.00103933	0.00161390	0.00119486	0.00028762
2.57000000	0.00462744	0.00351187	0.00338175	0.00247872	0.00432327	0.00391923	0.00174794	0.00351176	0.00179936	0.01030185	0.00603256	0.01756737	0.00383170	0.00444082	0.00291384	0.00319275	0.00262516	0.00150912	0.00151120	0.00255048	0.00266459	0.00069625	0.00144154	0.00090843	0.00040468
2.58000000	0.00437586	0.00376297	0.00299261	0.00296768	0.00449911	0.00422988	0.00205635	0.00369108	0.00170751	0.01046782	0.00591976	0.01653985	0.00379356	0.00440502	0.00285027	0.00267464	0.00189312	0.00138026	0.00148924	0.00259235	0.00229629	0.00044751	0.00128725	0.00055914	0.00067959
2.59000000	0.00391988	0.00389584	0.00245955	0.00363967	0.00467357	0.00455209	0.00243669	0.00399270	0.00173184	0.01088784	0.00593375	0.01543200	0.00380934	0.00442973	0.00283426	0.00226576	0.00102353	0.00124490	0.00160915	0.00278613	0.00209731	0.00039920	0.00115598	0.00034001	0.00108151
2.60000000	0.00406451	0.00409132	0.00217703	0.00385798	0.00489056	0.00545188	0.00273083	0.00391515	0.00185721	0.01082726	0.00587942	0.01454371	0.00370243	0.00455876	0.00283764	0.00198509	0.00050983	0.00147742	0.00146548	0.00317670	0.00160638	0.00017785	0.00105533	0.00025945	0.00125812
2.61000000	0.00406764	0.00409663	0.00206413	0.00416164	0.00543776	0.00610025	0.00303567	0.00383853	0.00197772	0.01130530	0.00596920	0.01374564	0.00372084	0.00448347	0.00270649	0.00190720	0.00044334	0.00168868	0.00146368	0.00352191	0.00130616	0.00044742	0.00079687	0.00026081	0.00156019
2.62000000	0.00425791	0.00423252	0.00203602	0.00470540	0.00578300	0.00656972	0.00326991	0.00400680	0.00175561	0.01183461	0.00590737	0.01333303	0.00357797	0.00462819	0.00295535	0.00200874	0.00112702	0.00196639	0.00155169	0.00387078	0.00092238	0.00059780	0.00088524	0.00049058	0.00185313
2.63000000	0.00453024	0.00427943	0.00237988	0.00496265	0.00620033	0.00738625	0.00340893	0.00401063	0.00198908	0.01253109	0.00594478	0.01289858	0.00352670	0.00456241	0.00269029	0.00220910	0.00178874	0.00226463	0.00161622	0.00413238	0.00073059	0.00075994	0.00065142	0.00069797	0.00216910
2.64000000	0.00491635	0.00433904	0.00192487	0.00508136	0.00705214	0.00742567	0.00331275	0.00390280	0.00238125	0.01391633	0.00534756	0.01323574	0.00355466	0.00450971	0.00273562	0.00212245	0.00294188	0.00246959	0.00179116	0.00460527	0.00078360	0.00071818	0.00063136	0.00103051	0.00285811
2.65000000	0.00530728	0.00435236	0.00243640	0.00595941	0.00677023	0.00821110	0.00362178	0.00414227	0.00167331	0.01368673	0.00572982	0.01295627	0.00299385	0.00482455	0.00292271	0.00251531	0.00309070	0.00272968	0.00198876	0.00454987	0.00079688	0.00104033	0.00140305	0.00087677	0.00258335
2.66000000	0.00547160	0.00426194	0.00280847	0.00634224	0.00694217	0.00891736	0.00363565	0.00419526	0.00192032	0.01430197	0.00573769	0.01228604	0.00283970	0.00449929	0.00229474	0.00277672	0.00344171	0.00301112	0.00204013	0.00470747	0.00107491	0.00124954	0.00114255	0.00117500	0.00279298
2.67000000	0.00568409	0.00363447	0.00230473	0.00654304	0.00723563	0.00901208	0.00359415	0.00408411	0.00205853	0.01488481	0.00524144	0.01239859	0.00259252	0.00434869	0.00207212	0.00273270	0.00407567	0.00310485	0.00241144	0.00478398	0.00156674	0.00118518	0.00122459	0.00131621	0.00339155
2.68000000	0.00556011	0.00372891	0.00252358	0.00706714	0.00729068	0.00955523	0.00371315	0.00434625	0.00187209	0.01409538	0.00569945	0.01092408	0.00223140	0.00428361	0.00184495	0.00297650	0.00417401	0.00339187	0.00240128	0.00490865	0.00180220	0.00159140	0.00141050	0.00149785	0.00317533
2.69000000	0.00544291	0.00344430	0.00242076	0.00729523	0.00740252	0.00990381	0.00377840	0.00430663	0.00201512	0.01327755	0.00568336	0.00960939	0.00198367	0.00387156	0.00150760	0.00306343	0.00439868	0.00360559	0.00252602	0.00496533	0.00212457	0.00181140	0.00127246	0.00163657	0.00333038
2.70000000	0.00522870	0.00286087	0.00214730	0.00750106	0.00756298	0.01004857	0.00378772	0.00429653	0.00196337	0.01198097	0.00575068	0.00802011	0.00173691	0.00350971	0.00125842	0.00316341	0.00464656	0.00372898	0.00267532	0.00502943	0.00258563	0.00199056	0.00136952	0.00179196	0.00347653
2.71000000	0.00496334	0.00240688	0.00205871	0.00757404	0.00752897	0.01030543	0.00378221	0.00429703	0.00204463	0.01040373	0.00583091	0.00606523	0.00162794	0.00292302	0.00091710	0.00328230	0.00481852	0.00385644	0.00279522	0.00506110	0.00304523	0.00215751	0.00130706	0.00194844	0.00361516
2.72000000	0.00461278	0.00208250	0.00220190	0.00786194	0.00764675	0.01028530	0.00375055	0.00426089	0.00195482	0.00878555	0.00586906	0.00421682	0.00154724	0.00250555	0.00060128	0.00334897	0.00506690	0.00396263	0.00288945	0.00508848	0.00347051	0.00227871	0.00149500	0.00204596	0.00374024
2.73000000	0.00439940	0.00323103	0.00278313	0.00806633	0.00743335	0.01024949	0.00370506	0.00423506	0.00193228	0.00785034	0.00584952	0.00309418	0.00160118	0.00196128	0.00067486	0.00327183	0.00532177	0.00395188	0.00310736	0.00497955	0.00410440	0.00228501	0.00162517	0.00208868	0.00406080
2.74000000	0.00382876	0.00302216	0.00306730	0.00838483	0.00754770	0.01027298	0.00362418	0.00418043	0.00203388	0.00763543	0.00585028	0.00279462	0.00167759	0.00203326	0.00020222	0.00351863	0.00550584	0.00418312	0.00301211	0.00510021	0.00429298	0.00247344	0.00170414	0.00222282	0.00405316
2.75000000	0.00340444	0.00360257	0.00352543	0.00850527	0.00744917	0.01038925	0.00360471	0.00405803	0.00204823	0.00817974	0.00583483	0.00387594	0.00187649	0.00211061	0.00057574	0.00358499	0.00570520	0.00434100	0.00302322	0.00510967	0.00456941	0.00256319	0.00177416	0.00227342	0.00415904
2.76000000	0.00301953	0.00453965	0.00409092	0.00889483	0.00724165	0.01024730	0.00355353	0.00392911	0.00198030	0.00880462	0.00576885	0.00476730	0.00196048	0.00226724	0.00086343	0.00354938	0.00596011	0.00442801	0.00309612	0.00510287	0.00489532	0.00256073	0.00198007	0.00230096	0.00436076
2.77000000	0.00272624	0.00506618	0.00446956	0.00935869	0.00666332	0.01025012	0.00344336	0.00376052	0.00222207	0.00911783	0.00577761	0.00507308	0.00226228	0.00198373	0.00139449	0.00357717	0.00625974	0.00457238	0.00305752	0.00519649	0.00500270	0.00260665	0.00221546	0.00236459	0.00451473
2.78000000	0.00211712	0.00472562	0.00468075	0.00968530	0.00686462	0.01011401	0.00337890	0.00383724	0.00199973	0.00875179	0.00560131	0.00523379	0.00223559	0.00220626	0.00122052	0.00355977	0.00634098	0.00470722	0.00312175	0.00521929	0.00519068	0.00271390	0.00221335	0.00239699	0.00452804
2.79000000	0.00187514	0.00455159	0.00476626	0.01003441	0.00629833	0.01016141	0.00329758	0.00367044	0.00208528	0.00786645	0.00539209	0.00479568	0.00229649	0.00206403	0.00134658	0.00361740	0.00657012	0.00488258	0.00310797	0.00547819	0.00522311	0.00278854	0.00240124	0.00250383	0.00458071
2.80000000	0.00176025	0.00421364	0.00488820	0.01035906	0.00611263	0.01007756	0.00334638	0.00361438	0.00206333	0.00660677	0.00532300	0.00396197	0.00238679	0.00181540	0.00138829	0.00354828	0.00663237	0.00497626	0.00316666	0.00560186	0.00528745	0.00291139	0.00248856	0.00254308	0.00454394
2.81000000	0.00211675	0.00407825	0.00501752	0.01048677	0.00591063	0.01001128	0.00348680	0.00350648	0.00189661	0.00528839	0.00507785	0.00294766	0.00239165	0.00176294	0.00142432	0.00342835	0.00664463	0.00507528	0.00324335	0.00574787	0.00530206	0.00293550	0.00244970	0.00261432	0.00451295
2.82000000	0.00237467	0.00382687	0.00510031	0.01060982	0.00541196	0.00992793	0.00344167	0.00351597	0.00210015	0.00405155	0.00479159	0.00214771	0.00232078	0.00203875	0.00155545	0.00333521	0.00679098	0.00508636	0.00320471	0.00600660	0.00509323	0.00296331	0.00253797	0.00268784	0.00445876
2.83000000	0.00292570	0.00366707	0.00516949	0.01060218	0.00522092	0.00968819	0.00354203	0.00341063	0.00217314	0.00307820	0.00455826	0.00161523	0.00236785	0.00230710	0.00164032	0.00313215	0.00679334	0.00502536	0.00319151	0.00606510	0.00492890	0.00296756	0.00250617	0.00269232	0.00444817
2.84000000	0.00358567	0.00388044	0.00538807	0.01029179	0.00536017	0.00919074	0.00366081	0.00322918	0.00210003	0.00231655	0.00434543	0.00141761	0.00234173	0.00280584	0.00164489	0.00275316	0.00669532	0.00483139	0.00327529	0.00583669	0.00490299	0.00276588	0.00260815	0.00258254	0.00446074
2.85000000	0.00394916	0.00373030	0.00530698	0.00991198	0.00534784	0.00877252	0.00367837	0.00298313	0.00247088	0.00152861	0.00402874	0.00226081	0.00229022	0.00339849	0.00184433	0.00255105	0.00666653	0.00477723	0.00308380	0.00582905	0.00444562	0.00264086	0.00253561	0.00253898	0.00440136
2.86000000	0.00426536	0.00374542	0.00521659	0.00934478	0.00565343	0.00812464	0.00367460	0.00257454	0.00286275	0.00110245	0.00383457	0.00331918	0.00219041	0.00376490	0.00209049	0.00233345	0.00655410	0.00467756	0.00284987	0.00569113	0.00394629	0.00248302	0.00249700	0.00247794	0.00431017
2.87000000	0.00463189	0.00367011	0.00492250	0.00848544	0.00630631	0.00718775	0.00376139	0.00217015	0.00324132	0.00146741	0.00369701	0.00438705	0.00209611	0.00377196	0.00224819	0.00216160	0.00633483	0.00459221	0.00259367	0.00550266	0.00351874	0.00234669	0.00235269	0.00243854	0.00428277
2.88000000	0.00535244	0.00377236	0.00450104	0.00717730	0.00723982	0.00567777	0.00393488	0.00226718	0.00348546	0.00159802	0.00348610	0.00506166	0.00200676	0.00358219	0.00198606	0.00195710	0.00599639	0.00441778	0.00263116	0.00499711	0.00344140	0.00194276	0.00230095	0.00217442	0.00426025
