TVC04_3_JMP_04_ankle_axis_personalization_task_1_finalErrors.sto
version=1
nRows=211
nColumns=28
inDegrees=no
endheader
time	R_Asis	L_Asis	R_Psis	L_Psis	Sacral	R_Thigh_Lateral	R_Knee_Lateral	R_Shank_Lateral	R_Ankle_Lateral	R_Heel	R_Toe	L_Thigh_Lateral	L_Knee_Lateral	L_Shank_Lateral	L_Ankle_Lateral	L_Heel	L_Toe	R_Shoulder	L_Shoulder	C7	J_Notch	Thoracic	Sternum	R_Elbow	L_Elbow	R_Wrist	L_Wrist
0.40000000	0.00395513	0.00323175	0.00561251	0.00466686	0.00510604	0.00598616	0.00257606	0.00761140	0.00162339	0.00199701	0.00211310	0.01359581	0.01015818	0.01867324	0.00454403	0.00503504	0.00569651	0.00836256	0.01457024	0.01484989	0.01657903	0.00794846	0.01981508	0.02687590	0.01467648	0.01574936	0.00720780
0.41000000	0.00378641	0.00270922	0.00540015	0.00450120	0.00491653	0.00480649	0.00255266	0.00683647	0.00169883	0.00208443	0.00172999	0.01342185	0.01031279	0.01805832	0.00460319	0.00502032	0.00563611	0.00842881	0.01448905	0.01482008	0.01656544	0.00807210	0.01973935	0.02647811	0.01471997	0.01537554	0.00789530
0.42000000	0.00350217	0.00253048	0.00539918	0.00438181	0.00485198	0.00427841	0.00263513	0.00614285	0.00171531	0.00189486	0.00160172	0.01319501	0.01032769	0.01704983	0.00463756	0.00502264	0.00559328	0.00844280	0.01450427	0.01485148	0.01656732	0.00824534	0.01970009	0.02601622	0.01481006	0.01481720	0.00834930
0.43000000	0.00326478	0.00270259	0.00561118	0.00424008	0.00486261	0.00415949	0.00293224	0.00564478	0.00167458	0.00173999	0.00190788	0.01297425	0.01037509	0.01556021	0.00475063	0.00480360	0.00533744	0.00847485	0.01460570	0.01488613	0.01654918	0.00839437	0.01968028	0.02546977	0.01496454	0.01426221	0.00853513
0.44000000	0.00318915	0.00273239	0.00552227	0.00416237	0.00477708	0.00415259	0.00295771	0.00567198	0.00187017	0.00177830	0.00179973	0.01275759	0.01012168	0.01436525	0.00472080	0.00478485	0.00513682	0.00867027	0.01444819	0.01484889	0.01654303	0.00861072	0.01965629	0.02500097	0.01496393	0.01380964	0.00905870
0.45000000	0.00310065	0.00284077	0.00555989	0.00409378	0.00475774	0.00431131	0.00283975	0.00582760	0.00207642	0.00179984	0.00191181	0.01242883	0.00981395	0.01302898	0.00469407	0.00455511	0.00492786	0.00885973	0.01439606	0.01484540	0.01654321	0.00881564	0.01968119	0.02437526	0.01507503	0.01331385	0.00941314
0.46000000	0.00301804	0.00309666	0.00549540	0.00393335	0.00464060	0.00472782	0.00315565	0.00584164	0.00218649	0.00171754	0.00193317	0.01216324	0.00930220	0.01191474	0.00453811	0.00438259	0.00485065	0.00904548	0.01438519	0.01476814	0.01648755	0.00897942	0.01963009	0.02386868	0.01523085	0.01279722	0.00996198
0.47000000	0.00295218	0.00337182	0.00544353	0.00381624	0.00456021	0.00517944	0.00335616	0.00606328	0.00236434	0.00165150	0.00190465	0.01186083	0.00865760	0.01082404	0.00426465	0.00418703	0.00461918	0.00933538	0.01433926	0.01468984	0.01641944	0.00918295	0.01958321	0.02335076	0.01536596	0.01233695	0.01047222
0.48000000	0.00292120	0.00378346	0.00524541	0.00370909	0.00442624	0.00568794	0.00349631	0.00638837	0.00245857	0.00163137	0.00179129	0.01170398	0.00771729	0.00994322	0.00404518	0.00397591	0.00425878	0.00959461	0.01426471	0.01457975	0.01638169	0.00939618	0.01955019	0.02287008	0.01551329	0.01184527	0.01114351
0.49000000	0.00285204	0.00387932	0.00526280	0.00355438	0.00436267	0.00636539	0.00385056	0.00652060	0.00249846	0.00153661	0.00184422	0.01126576	0.00701743	0.00888434	0.00358085	0.00349668	0.00398610	0.00987758	0.01432038	0.01450653	0.01631281	0.00954869	0.01952885	0.02232468	0.01570870	0.01140493	0.01158981
0.50000000	0.00270181	0.00358708	0.00523426	0.00335697	0.00427102	0.00679224	0.00357940	0.00706627	0.00262882	0.00151091	0.00189257	0.01076243	0.00641214	0.00776619	0.00318163	0.00306096	0.00340438	0.01032365	0.01416967	0.01441625	0.01635551	0.00975541	0.01962454	0.02177160	0.01585104	0.01102607	0.01190340
0.51000000	0.00265518	0.00362034	0.00513075	0.00318749	0.00414186	0.00746268	0.00372292	0.00732762	0.00266554	0.00137099	0.00177576	0.01019539	0.00571854	0.00677290	0.00270221	0.00265006	0.00291041	0.01068929	0.01417413	0.01428321	0.01633784	0.00990944	0.01964768	0.02130275	0.01609728	0.01058153	0.01237673
0.52000000	0.00269738	0.00380088	0.00499107	0.00312684	0.00403595	0.00827582	0.00412896	0.00751180	0.00262784	0.00122127	0.00161095	0.00961053	0.00509688	0.00573401	0.00211782	0.00237224	0.00231558	0.01102119	0.01420603	0.01408818	0.01627692	0.01000455	0.01960783	0.02098052	0.01635126	0.01017643	0.01293085
0.53000000	0.00269194	0.00339539	0.00501530	0.00304084	0.00400698	0.00886839	0.00390878	0.00821935	0.00268714	0.00116315	0.00158984	0.00887185	0.00503216	0.00438406	0.00168960	0.00187294	0.00182976	0.01143195	0.01417134	0.01403806	0.01634852	0.01018578	0.01971708	0.02049102	0.01651866	0.00977831	0.01320362
0.54000000	0.00258081	0.00322658	0.00496689	0.00299806	0.00394099	0.00969360	0.00442777	0.00849414	0.00259052	0.00096589	0.00139246	0.00831093	0.00515839	0.00309955	0.00121399	0.00161316	0.00147330	0.01171814	0.01426899	0.01386599	0.01633510	0.01024576	0.01972162	0.02018502	0.01679566	0.00941366	0.01363715
0.55000000	0.00252013	0.00335770	0.00489601	0.00326373	0.00400419	0.01050886	0.00487329	0.00875790	0.00245828	0.00096470	0.00112726	0.00798158	0.00532566	0.00254198	0.00085630	0.00124357	0.00101715	0.01197913	0.01438550	0.01363736	0.01627227	0.01028741	0.01964565	0.02001722	0.01708744	0.00908815	0.01419240
0.56000000	0.00268232	0.00292752	0.00500638	0.00331635	0.00407382	0.01108342	0.00462396	0.00947005	0.00248509	0.00093429	0.00112860	0.00802845	0.00576332	0.00312784	0.00081444	0.00105380	0.00098097	0.01233771	0.01433382	0.01365979	0.01636177	0.01047939	0.01970562	0.01968835	0.01722963	0.00879154	0.01423244
0.57000000	0.00262747	0.00258800	0.00507142	0.00350879	0.00417323	0.01164794	0.00504518	0.00985769	0.00241813	0.00093764	0.00095919	0.00869515	0.00624202	0.00476361	0.00074361	0.00109833	0.00097557	0.01250972	0.01440988	0.01355855	0.01639651	0.01050868	0.01970858	0.01954226	0.01738569	0.00851271	0.01452483
0.58000000	0.00249383	0.00248068	0.00513097	0.00377972	0.00431364	0.01209661	0.00539275	0.01008723	0.00234950	0.00104236	0.00089100	0.00978126	0.00662214	0.00664855	0.00091085	0.00135012	0.00104980	0.01262304	0.01452722	0.01344438	0.01640268	0.01051871	0.01967001	0.01946443	0.01757545	0.00828713	0.01483385
0.59000000	0.00256007	0.00224689	0.00525505	0.00399444	0.00447519	0.01233376	0.00546710	0.01055156	0.00223504	0.00107058	0.00078548	0.01089762	0.00700330	0.00852213	0.00124752	0.00173567	0.00131154	0.01273344	0.01451463	0.01346845	0.01646226	0.01060703	0.01964106	0.01941508	0.01761426	0.00808515	0.01494816
0.60000000	0.00232976	0.00297750	0.00525120	0.00440093	0.00466164	0.01255912	0.00617052	0.01040813	0.00216999	0.00074704	0.00087697	0.01226123	0.00746815	0.00942887	0.00186745	0.00127923	0.00218549	0.01268856	0.01468749	0.01329020	0.01636362	0.01058681	0.01944357	0.01966957	0.01783018	0.00778262	0.01543287
0.61000000	0.00230731	0.00282325	0.00534931	0.00440190	0.00473588	0.01255189	0.00566603	0.01053241	0.00230470	0.00113687	0.00063096	0.01220745	0.00759690	0.01135211	0.00240393	0.00269141	0.00191333	0.01271860	0.01466645	0.01342233	0.01640389	0.01074804	0.01938026	0.01968747	0.01784063	0.00776315	0.01529685
0.62000000	0.00208100	0.00287424	0.00544187	0.00467084	0.00491144	0.01239205	0.00586635	0.01037247	0.00232350	0.00102792	0.00045088	0.01294305	0.00770134	0.01184277	0.00296553	0.00248302	0.00216112	0.01261257	0.01466685	0.01338108	0.01638972	0.01067213	0.01927466	0.02001097	0.01780821	0.00767677	0.01541008
0.63000000	0.00180656	0.00277117	0.00545456	0.00477452	0.00497080	0.01207423	0.00595386	0.01009254	0.00246554	0.00113358	0.00051269	0.01317591	0.00758858	0.01209605	0.00349990	0.00250179	0.00244004	0.01238258	0.01480713	0.01338221	0.01633980	0.01057353	0.01917431	0.02030722	0.01778314	0.00754039	0.01559624
0.64000000	0.00163338	0.00283953	0.00538279	0.00473161	0.00493835	0.01176468	0.00550282	0.00960743	0.00267586	0.00104130	0.00066265	0.01200864	0.00771774	0.01235891	0.00411708	0.00285213	0.00290341	0.01215985	0.01486337	0.01345910	0.01631327	0.01065749	0.01907917	0.02053685	0.01782616	0.00772253	0.01553577
0.65000000	0.00153825	0.00259911	0.00541396	0.00480432	0.00500109	0.01112868	0.00525955	0.00929556	0.00283490	0.00126025	0.00087876	0.01125069	0.00735085	0.01226862	0.00440748	0.00295418	0.00316735	0.01191407	0.01478693	0.01358516	0.01637104	0.01060639	0.01911738	0.02091285	0.01757384	0.00761999	0.01546219
0.66000000	0.00140571	0.00277478	0.00526079	0.00474589	0.00490883	0.01061496	0.00514271	0.00840337	0.00300951	0.00131245	0.00087576	0.01018079	0.00717349	0.01171818	0.00457679	0.00274127	0.00316286	0.01165037	0.01494241	0.01353041	0.01623004	0.01050108	0.01900539	0.02136861	0.01754820	0.00789546	0.01555962
0.67000000	0.00159713	0.00221299	0.00522957	0.00467598	0.00488024	0.00964606	0.00410201	0.00802141	0.00324055	0.00212234	0.00187090	0.00891767	0.00654773	0.01159394	0.00436146	0.00347296	0.00361790	0.01139806	0.01488192	0.01362126	0.01622934	0.01041807	0.01906551	0.02189140	0.01722017	0.00785082	0.01548237
0.68000000	0.00162787	0.00274114	0.00505552	0.00469435	0.00481046	0.00906325	0.00439290	0.00645049	0.00310921	0.00158073	0.00082381	0.00757511	0.00656211	0.01079032	0.00401831	0.00265040	0.00278560	0.01111638	0.01498745	0.01356420	0.01615234	0.01024793	0.01912874	0.02229673	0.01719856	0.00820427	0.01543575
0.69000000	0.00164955	0.00219928	0.00506480	0.00462751	0.00480871	0.00792112	0.00379755	0.00548611	0.00298439	0.00177392	0.00105588	0.00617203	0.00636928	0.01063673	0.00348931	0.00254241	0.00250759	0.01092079	0.01486655	0.01371215	0.01620132	0.01022206	0.01934769	0.02270584	0.01678340	0.00834153	0.01518504
0.70000000	0.00149124	0.00291446	0.00485262	0.00452871	0.00464309	0.00692838	0.00345051	0.00390193	0.00256235	0.00211805	0.00107673	0.00616619	0.00586914	0.00919169	0.00271055	0.00222317	0.00156500	0.01070580	0.01495402	0.01348443	0.01607847	0.00975206	0.01950378	0.02335163	0.01669039	0.00864194	0.01509269
0.71000000	0.00189132	0.00252851	0.00492020	0.00454710	0.00471096	0.00550765	0.00287688	0.00240876	0.00221763	0.00251460	0.00226167	0.00511351	0.00568492	0.00915429	0.00201104	0.00215926	0.00156530	0.01054897	0.01479951	0.01364149	0.01621603	0.00967582	0.01994991	0.02367881	0.01623620	0.00874213	0.01465324
0.72000000	0.00185472	0.00302580	0.00472784	0.00440435	0.00453512	0.00536782	0.00307643	0.00145987	0.00145980	0.00305267	0.00227643	0.00486769	0.00531745	0.00809052	0.00134173	0.00197628	0.00091511	0.01036049	0.01488392	0.01340407	0.01608815	0.00926069	0.02011837	0.02427348	0.01611550	0.00914520	0.01458927
0.73000000	0.00218985	0.00326215	0.00480140	0.00433598	0.00454244	0.00525503	0.00294409	0.00281084	0.00121662	0.00351710	0.00299028	0.00464261	0.00484970	0.00783131	0.00083366	0.00197457	0.00107154	0.01022954	0.01474969	0.01342012	0.01620569	0.00903164	0.02058155	0.02465099	0.01569002	0.00941248	0.01415016
0.74000000	0.00239890	0.00366282	0.00477028	0.00426939	0.00449226	0.00644154	0.00312859	0.00487984	0.00183890	0.00399348	0.00367390	0.00495244	0.00451073	0.00704816	0.00067086	0.00175685	0.00073273	0.01008652	0.01475820	0.01334067	0.01616463	0.00878994	0.02085260	0.02505271	0.01549343	0.00972613	0.01391553
0.75000000	0.00288075	0.00420090	0.00481719	0.00420823	0.00448381	0.00773461	0.00307995	0.00728467	0.00254813	0.00419205	0.00392567	0.00528967	0.00392790	0.00670170	0.00066314	0.00175916	0.00071709	0.00997348	0.01466172	0.01332267	0.01626326	0.00857708	0.02125980	0.02538707	0.01518301	0.00999377	0.01349679
0.76000000	0.00327332	0.00471497	0.00481389	0.00412355	0.00444273	0.00946616	0.00307560	0.00965547	0.00329552	0.00426758	0.00383771	0.00584126	0.00341172	0.00624333	0.00084784	0.00183812	0.00047082	0.00983833	0.01466928	0.01327118	0.01626575	0.00837762	0.02152332	0.02567561	0.01508461	0.01031143	0.01318095
0.77000000	0.00345466	0.00487563	0.00479363	0.00417263	0.00445794	0.01153230	0.00311463	0.01179810	0.00402468	0.00442383	0.00355439	0.00629821	0.00320478	0.00596319	0.00105714	0.00174662	0.00030707	0.00972972	0.01465166	0.01322096	0.01624618	0.00826075	0.02166485	0.02599905	0.01500765	0.01060080	0.01294704
0.78000000	0.00496134	0.00534903	0.00471506	0.00447711	0.00455899	0.01315223	0.00313989	0.01334434	0.00419158	0.00441092	0.00343398	0.00731649	0.00322303	0.00543382	0.00166221	0.00148448	0.00062916	0.00950400	0.01460461	0.01336627	0.01648143	0.00820599	0.02212688	0.02596308	0.01492608	0.01066531	0.01250136
0.79000000	0.00384375	0.00581981	0.00476503	0.00415513	0.00443939	0.01409483	0.00284158	0.01559010	0.00466290	0.00416597	0.00246584	0.00745247	0.00269368	0.00598344	0.00172675	0.00188676	0.00031619	0.00957653	0.01454615	0.01315987	0.01631150	0.00802771	0.02195787	0.02653390	0.01498211	0.01119968	0.01229362
0.80000000	0.00432801	0.00597899	0.00472036	0.00425150	0.00448601	0.01488197	0.00270184	0.01666287	0.00460115	0.00410037	0.00210234	0.00829553	0.00262428	0.00626141	0.00230684	0.00199701	0.00025963	0.00948439	0.01454051	0.01320332	0.01638743	0.00797524	0.02207703	0.02668883	0.01499360	0.01148125	0.01195216
0.81000000	0.00441795	0.00639058	0.00465722	0.00431180	0.00449480	0.01519516	0.00261611	0.01731093	0.00446357	0.00391651	0.00171815	0.00888260	0.00269826	0.00687673	0.00254708	0.00213646	0.00030507	0.00938979	0.01447668	0.01324991	0.01649874	0.00794413	0.02219245	0.02682411	0.01511562	0.01169437	0.01160879
0.82000000	0.00400354	0.00608374	0.00451008	0.00452797	0.00452356	0.01506316	0.00258714	0.01785994	0.00423630	0.00403325	0.00140257	0.00882941	0.00358868	0.00775740	0.00239839	0.00224151	0.00041567	0.00939701	0.01445204	0.01322838	0.01642424	0.00797819	0.02199780	0.02710887	0.01522039	0.01204538	0.01153099
0.83000000	0.00430109	0.00619773	0.00440279	0.00465072	0.00454435	0.01460412	0.00258502	0.01765745	0.00363307	0.00389400	0.00145935	0.00930935	0.00385376	0.00857294	0.00253152	0.00231986	0.00045962	0.00933805	0.01440801	0.01331679	0.01654462	0.00798244	0.02206160	0.02719804	0.01530822	0.01230680	0.01114537
0.84000000	0.00381106	0.00637173	0.00421992	0.00467001	0.00445528	0.01402031	0.00262189	0.01736237	0.00311099	0.00400153	0.00128836	0.00953039	0.00431880	0.00907158	0.00240531	0.00231993	0.00039579	0.00937146	0.01437756	0.01327856	0.01650678	0.00792200	0.02191533	0.02748327	0.01549259	0.01262139	0.01092340
0.85000000	0.00446910	0.00628010	0.00415242	0.00495373	0.00456888	0.01320016	0.00286185	0.01665642	0.00245797	0.00407653	0.00201763	0.00974590	0.00477431	0.00966109	0.00235787	0.00232259	0.00051750	0.00914863	0.01448590	0.01353313	0.01669836	0.00801754	0.02203921	0.02727226	0.01561097	0.01275849	0.01054829
0.86000000	0.00384025	0.00605803	0.00399042	0.00489115	0.00446162	0.01274547	0.00321642	0.01612799	0.00174804	0.00392011	0.00197998	0.00970357	0.00488923	0.00986802	0.00227520	0.00242317	0.00038625	0.00931961	0.01432336	0.01347019	0.01663897	0.00795100	0.02184631	0.02766139	0.01562775	0.01320887	0.01016146
0.87000000	0.00336429	0.00580238	0.00374509	0.00494135	0.00433962	0.01267522	0.00365998	0.01542933	0.00126520	0.00404439	0.00216603	0.00954545	0.00527425	0.00946041	0.00208963	0.00224929	0.00015404	0.00930234	0.01428391	0.01347620	0.01661956	0.00785752	0.02169263	0.02795745	0.01554973	0.01349126	0.00998514
0.88000000	0.00349948	0.00557345	0.00370528	0.00505111	0.00437539	0.01229796	0.00415725	0.01488485	0.00077356	0.00399694	0.00279445	0.00925106	0.00524854	0.00935680	0.00193751	0.00225782	0.00024811	0.00911417	0.01436292	0.01367210	0.01671518	0.00788014	0.02168336	0.02782229	0.01555995	0.01383382	0.00955310
0.89000000	0.00339759	0.00536514	0.00364997	0.00509097	0.00436183	0.01220535	0.00467980	0.01446729	0.00052047	0.00399259	0.00305627	0.00894294	0.00512240	0.00893146	0.00184145	0.00219201	0.00020520	0.00910271	0.01429540	0.01376273	0.01672259	0.00786907	0.02157161	0.02793257	0.01546052	0.01419912	0.00908635
0.90000000	0.00352581	0.00509744	0.00347383	0.00516087	0.00427980	0.01247511	0.00520300	0.01406107	0.00048613	0.00408306	0.00292861	0.00869146	0.00511970	0.00812591	0.00177680	0.00204955	0.00029756	0.00911541	0.01421143	0.01381325	0.01669547	0.00779469	0.02144209	0.02824896	0.01510745	0.01437081	0.00876742
0.91000000	0.00350709	0.00508280	0.00351876	0.00517887	0.00430634	0.01272590	0.00569120	0.01388911	0.00053856	0.00415188	0.00290909	0.00838393	0.00496395	0.00768076	0.00159248	0.00201381	0.00052515	0.00893252	0.01426504	0.01395900	0.01668895	0.00779868	0.02130424	0.02813422	0.01501310	0.01493119	0.00830725
0.92000000	0.00381601	0.00491126	0.00343150	0.00529130	0.00429829	0.01297957	0.00605916	0.01377540	0.00057592	0.00419867	0.00293447	0.00824156	0.00493057	0.00714182	0.00161775	0.00181159	0.00052810	0.00896540	0.01414239	0.01405213	0.01668991	0.00779215	0.02124115	0.02836766	0.01463325	0.01508485	0.00770731
0.93000000	0.00393637	0.00496314	0.00349366	0.00530438	0.00432958	0.01342646	0.00637970	0.01368791	0.00082458	0.00439996	0.00260371	0.00813450	0.00483815	0.00692289	0.00148615	0.00183244	0.00064681	0.00886343	0.01418191	0.01412152	0.01657890	0.00779125	0.02100455	0.02832996	0.01449218	0.01571458	0.00726745
0.94000000	0.00428989	0.00491311	0.00346498	0.00538693	0.00433932	0.01374371	0.00655802	0.01356592	0.00105468	0.00449676	0.00257687	0.00819658	0.00499550	0.00667818	0.00139546	0.00179381	0.00063115	0.00874958	0.01414994	0.01421782	0.01656041	0.00779016	0.02090902	0.02840538	0.01420918	0.01602531	0.00676959
0.95000000	0.00453386	0.00500956	0.00347432	0.00549246	0.00439446	0.01398122	0.00677463	0.01313459	0.00107007	0.00434570	0.00239028	0.00836535	0.00522674	0.00655239	0.00141081	0.00158860	0.00073049	0.00860867	0.01418610	0.01439061	0.01658639	0.00784440	0.02092325	0.02843427	0.01366986	0.01624417	0.00639292
0.96000000	0.00464357	0.00511237	0.00361868	0.00547299	0.00445550	0.01416729	0.00628007	0.01266490	0.00163807	0.00485907	0.00221638	0.00846251	0.00514717	0.00686986	0.00134720	0.00170534	0.00069810	0.00846230	0.01425767	0.01443579	0.01644801	0.00786565	0.02069806	0.02847679	0.01353505	0.01692899	0.00582805
0.97000000	0.00501671	0.00518601	0.00361244	0.00561430	0.00452033	0.01386580	0.00631761	0.01168531	0.00147134	0.00442758	0.00213595	0.00873209	0.00527748	0.00721056	0.00149825	0.00165845	0.00069579	0.00826948	0.01431778	0.01459886	0.01648380	0.00793541	0.02073340	0.02847998	0.01311177	0.01707923	0.00544528
0.98000000	0.00526235	0.00513111	0.00371850	0.00566625	0.00459373	0.01361093	0.00565883	0.01051536	0.00150265	0.00430042	0.00245996	0.00922245	0.00567993	0.00720703	0.00140068	0.00153062	0.00074294	0.00821663	0.01438500	0.01461954	0.01633493	0.00797834	0.02056256	0.02865768	0.01290737	0.01754704	0.00492116
0.99000000	0.00530104	0.00515651	0.00379803	0.00559879	0.00461663	0.01320998	0.00480994	0.00913256	0.00160276	0.00423429	0.00254713	0.00969050	0.00584862	0.00735904	0.00135194	0.00160677	0.00083217	0.00814669	0.01448471	0.01458263	0.01614482	0.00797531	0.02035252	0.02890082	0.01277956	0.01812653	0.00449371
1.00000000	0.00509517	0.00520618	0.00378248	0.00572789	0.00470140	0.01222168	0.00458103	0.00753858	0.00140569	0.00364503	0.00249767	0.01001897	0.00583010	0.00788024	0.00153068	0.00176689	0.00076362	0.00795701	0.01455771	0.01474721	0.01624437	0.00806489	0.02051626	0.02885672	0.01237918	0.01836554	0.00407843
1.01000000	0.00528695	0.00515224	0.00388077	0.00563111	0.00471246	0.01134506	0.00332139	0.00620965	0.00140734	0.00342216	0.00259133	0.01061085	0.00611997	0.00780055	0.00136606	0.00172202	0.00087086	0.00794039	0.01467801	0.01464481	0.01600536	0.00804630	0.02027414	0.02923349	0.01234625	0.01899087	0.00368208
1.02000000	0.00489986	0.00514418	0.00384917	0.00577737	0.00479854	0.01006127	0.00337719	0.00459078	0.00118375	0.00274787	0.00251209	0.01086475	0.00607794	0.00841618	0.00150697	0.00189514	0.00070905	0.00774726	0.01480471	0.01480045	0.01609574	0.00812444	0.02042897	0.02922027	0.01208509	0.01916574	0.00330317
1.03000000	0.00467424	0.00490551	0.00382535	0.00580843	0.00482060	0.00880984	0.00302206	0.00331550	0.00108233	0.00229016	0.00238202	0.01123964	0.00640822	0.00859625	0.00143367	0.00190946	0.00063322	0.00771957	0.01491159	0.01476524	0.01598393	0.00810983	0.02034827	0.02948897	0.01202655	0.01958145	0.00295678
1.04000000	0.00521334	0.00518148	0.00423631	0.00560794	0.00496442	0.00763899	0.00247818	0.00284442	0.00178645	0.00252452	0.00102441	0.01167254	0.00630099	0.00868431	0.00166664	0.00198945	0.00122293	0.00765252	0.01524038	0.01463547	0.01559375	0.00815496	0.01987476	0.03001794	0.01226897	0.02040044	0.00270506
1.05000000	0.00436951	0.00463939	0.00393247	0.00593274	0.00496094	0.00690373	0.00267025	0.00149886	0.00115584	0.00221857	0.00204065	0.01185538	0.00688194	0.00882766	0.00137095	0.00193013	0.00065745	0.00765506	0.01511200	0.01476920	0.01585587	0.00817613	0.02026543	0.03002790	0.01194582	0.02028845	0.00238758
1.06000000	0.00430455	0.00453728	0.00403916	0.00601212	0.00506050	0.00669435	0.00264765	0.00274408	0.00137000	0.00270651	0.00202309	0.01209325	0.00712509	0.00882866	0.00133848	0.00192631	0.00077208	0.00765776	0.01519965	0.01479521	0.01579721	0.00828230	0.02020681	0.03033312	0.01193563	0.02062413	0.00215845
1.07000000	0.00484123	0.00439319	0.00430750	0.00610618	0.00524338	0.00711583	0.00300682	0.00418311	0.00159967	0.00319611	0.00179416	0.01238746	0.00749993	0.00848258	0.00116263	0.00181704	0.00075017	0.00777215	0.01527977	0.01471161	0.01562094	0.00830404	0.02000972	0.03074824	0.01209187	0.02108681	0.00194540
1.08000000	0.00513473	0.00427341	0.00449414	0.00620003	0.00538636	0.00799092	0.00357925	0.00592401	0.00178655	0.00361946	0.00180273	0.01247814	0.00772499	0.00831173	0.00101226	0.00193390	0.00083497	0.00782513	0.01535296	0.01470822	0.01552688	0.00839107	0.01987612	0.03111843	0.01223434	0.02139868	0.00178761
1.09000000	0.00444825	0.00441232	0.00453363	0.00635742	0.00548785	0.00964189	0.00335873	0.00719602	0.00182717	0.00355679	0.00178337	0.01214484	0.00772737	0.00846555	0.00097160	0.00187412	0.00094886	0.00772391	0.01543842	0.01493621	0.01567708	0.00860407	0.02000445	0.03117568	0.01219749	0.02136630	0.00164396
1.10000000	0.00487876	0.00441359	0.00482694	0.00647700	0.00569609	0.01047716	0.00410561	0.00804852	0.00204715	0.00352616	0.00175031	0.01203014	0.00780020	0.00821415	0.00091930	0.00190142	0.00115528	0.00775465	0.01560144	0.01496926	0.01553047	0.00869886	0.01976130	0.03148647	0.01247954	0.02159419	0.00148883
1.11000000	0.00510193	0.00441423	0.00498660	0.00650471	0.00579214	0.01109491	0.00473346	0.00828248	0.00239098	0.00290702	0.00222057	0.01174317	0.00775494	0.00794913	0.00083619	0.00173115	0.00175146	0.00794425	0.01568018	0.01500267	0.01542090	0.00886175	0.01962973	0.03176085	0.01273377	0.02186302	0.00123853
1.12000000	0.00468735	0.00424882	0.00507544	0.00674198	0.00595159	0.01122501	0.00447987	0.00878819	0.00266832	0.00337618	0.00242771	0.01163065	0.00798318	0.00721873	0.00094273	0.00173085	0.00106765	0.00796232	0.01550468	0.01513962	0.01558817	0.00895564	0.01972752	0.03171754	0.01274168	0.02182452	0.00145147
1.13000000	0.00427526	0.00420211	0.00511791	0.00686543	0.00603667	0.01114639	0.00428995	0.00874953	0.00311050	0.00299974	0.00287087	0.01129132	0.00772994	0.00675581	0.00101276	0.00161026	0.00129672	0.00803320	0.01550405	0.01529266	0.01563523	0.00912925	0.01972700	0.03171314	0.01290095	0.02176680	0.00145283
1.14000000	0.00404896	0.00413094	0.00519149	0.00693491	0.00611017	0.01073120	0.00401622	0.00866874	0.00351375	0.00274196	0.00315504	0.01094005	0.00733223	0.00604914	0.00116269	0.00158965	0.00129526	0.00814662	0.01548685	0.01538173	0.01564219	0.00923833	0.01969865	0.03171026	0.01310131	0.02173922	0.00149440
1.15000000	0.00376034	0.00409524	0.00526048	0.00694709	0.00615894	0.01013787	0.00351216	0.00879314	0.00367148	0.00275229	0.00397462	0.01047101	0.00674653	0.00541780	0.00129376	0.00176972	0.00105600	0.00825100	0.01549031	0.01548701	0.01564474	0.00939576	0.01968208	0.03165924	0.01326200	0.02173940	0.00141853
1.16000000	0.00386682	0.00386989	0.00540221	0.00692562	0.00621753	0.00938052	0.00388224	0.00899475	0.00374852	0.00279019	0.00336806	0.01022943	0.00653567	0.00406904	0.00130390	0.00116296	0.00104041	0.00832043	0.01543582	0.01549446	0.01565269	0.00938294	0.01967481	0.03156032	0.01356388	0.02166685	0.00162424
1.17000000	0.00370678	0.00401199	0.00550126	0.00693178	0.00627660	0.00866714	0.00401338	0.00989700	0.00357769	0.00287341	0.00350833	0.00961941	0.00602370	0.00321957	0.00137797	0.00109670	0.00074564	0.00841308	0.01535788	0.01561908	0.01572318	0.00953517	0.01976347	0.03132491	0.01364283	0.02147861	0.00168674
1.18000000	0.00363885	0.00376157	0.00559495	0.00685872	0.00629057	0.00806807	0.00435091	0.01055958	0.00299412	0.00313283	0.00346929	0.00923693	0.00594412	0.00191077	0.00136956	0.00111065	0.00070243	0.00841913	0.01541090	0.01567793	0.01570699	0.00958920	0.01976143	0.03106364	0.01390223	0.02132697	0.00184644
1.19000000	0.00373509	0.00360277	0.00570822	0.00661602	0.00622413	0.00757059	0.00460213	0.01097553	0.00226899	0.00323154	0.00348023	0.00871587	0.00605397	0.00072013	0.00147062	0.00135224	0.00065978	0.00856022	0.01539526	0.01555896	0.01560273	0.00948219	0.01972399	0.03092368	0.01415752	0.02130758	0.00199341
1.20000000	0.00355773	0.00422214	0.00593374	0.00664152	0.00635889	0.00735981	0.00496994	0.01176091	0.00157608	0.00347859	0.00381212	0.00778706	0.00605058	0.00112372	0.00160652	0.00229984	0.00179600	0.00859180	0.01536625	0.01580449	0.01576709	0.00972981	0.01998376	0.03032429	0.01405706	0.02094168	0.00213038
1.21000000	0.00377125	0.00334011	0.00580462	0.00628758	0.00610250	0.00674634	0.00502237	0.01175854	0.00097253	0.00360418	0.00379389	0.00752974	0.00700575	0.00336464	0.00188254	0.00260539	0.00176700	0.00877718	0.01527337	0.01546911	0.01552774	0.00943058	0.01977736	0.03028784	0.01443968	0.02098419	0.00239324
1.22000000	0.00378137	0.00340649	0.00577367	0.00614120	0.00601136	0.00658459	0.00489550	0.01170260	0.00073237	0.00347910	0.00394867	0.00698319	0.00756575	0.00459820	0.00238955	0.00323765	0.00269767	0.00881250	0.01520065	0.01555705	0.01563031	0.00952576	0.01998342	0.02980759	0.01434534	0.02068287	0.00257822
1.23000000	0.00394262	0.00301243	0.00571786	0.00591871	0.00586015	0.00621082	0.00433158	0.01102850	0.00078648	0.00364101	0.00364877	0.00679401	0.00820229	0.00651945	0.00307293	0.00367744	0.00259286	0.00890082	0.01520166	0.01544407	0.01553264	0.00940668	0.01994179	0.02947695	0.01451653	0.02047075	0.00288552
1.24000000	0.00416362	0.00266399	0.00561056	0.00562974	0.00564873	0.00601187	0.00361659	0.01008212	0.00076111	0.00359172	0.00323636	0.00659075	0.00859383	0.00846192	0.00367182	0.00393448	0.00232932	0.00898839	0.01512772	0.01528607	0.01548910	0.00922695	0.01995933	0.02917729	0.01466150	0.02025426	0.00311817
1.25000000	0.00440157	0.00297262	0.00561536	0.00556231	0.00560623	0.00643184	0.00290862	0.00896896	0.00068590	0.00321759	0.00284988	0.00738489	0.00897038	0.00937779	0.00443425	0.00431758	0.00279970	0.00900226	0.01499688	0.01532645	0.01559469	0.00928384	0.02008489	0.02869612	0.01458497	0.01989571	0.00349264
1.26000000	0.00426750	0.00264684	0.00561603	0.00516794	0.00540526	0.00662726	0.00249566	0.00821302	0.00085854	0.00328817	0.00214980	0.00671650	0.00850376	0.01175044	0.00488909	0.00417302	0.00124496	0.00910481	0.01493263	0.01511702	0.01552592	0.00905512	0.02006204	0.02855010	0.01468793	0.01969235	0.00375983
1.27000000	0.00446355	0.00288640	0.00564655	0.00520587	0.00542850	0.00754800	0.00174243	0.00783261	0.00104101	0.00317572	0.00198393	0.00862116	0.00862102	0.01198187	0.00591348	0.00423808	0.00210743	0.00916188	0.01483052	0.01517146	0.01559165	0.00915651	0.02008774	0.02813898	0.01462568	0.01926410	0.00421656
1.28000000	0.00460892	0.00248075	0.00547947	0.00519333	0.00533134	0.00831496	0.00107067	0.00820666	0.00110289	0.00337572	0.00203736	0.00981468	0.00837511	0.01288606	0.00660852	0.00435097	0.00222813	0.00920203	0.01481693	0.01512308	0.01552798	0.00917047	0.01994005	0.02789704	0.01476733	0.01892095	0.00461115
1.29000000	0.00435956	0.00207338	0.00560283	0.00495755	0.00527198	0.00916729	0.00161894	0.00876990	0.00126585	0.00354805	0.00146311	0.00991686	0.00773695	0.01434617	0.00670118	0.00433069	0.00262589	0.00923894	0.01474677	0.01494076	0.01545998	0.00903656	0.01979292	0.02784270	0.01491812	0.01874617	0.00505481
1.30000000	0.00435180	0.00225811	0.00569517	0.00503209	0.00535237	0.01036790	0.00161687	0.00984277	0.00122834	0.00349981	0.00166325	0.01120990	0.00762054	0.01447131	0.00706840	0.00437545	0.00320764	0.00928341	0.01466144	0.01498656	0.01551757	0.00916521	0.01975990	0.02762608	0.01486328	0.01832149	0.00558619
1.31000000	0.00465421	0.00220962	0.00570919	0.00496463	0.00530898	0.01119821	0.00188907	0.01070544	0.00098666	0.00359264	0.00160914	0.01145445	0.00724848	0.01541032	0.00700719	0.00464473	0.00396118	0.00923393	0.01469633	0.01488354	0.01545527	0.00910767	0.01959274	0.02757207	0.01506003	0.01806846	0.00605548
1.32000000	0.00462302	0.00217976	0.00578420	0.00496650	0.00534726	0.01181370	0.00231599	0.01163768	0.00083257	0.00354428	0.00176918	0.01188079	0.00722317	0.01591714	0.00682253	0.00481319	0.00451965	0.00920325	0.01467508	0.01485262	0.01546539	0.00914747	0.01950015	0.02751343	0.01513415	0.01772665	0.00660199
1.33000000	0.00470473	0.00224155	0.00584988	0.00496129	0.00537297	0.01198362	0.00276446	0.01217864	0.00066091	0.00344758	0.00185912	0.01206529	0.00732115	0.01644462	0.00645572	0.00490826	0.00501316	0.00915950	0.01467201	0.01481517	0.01546740	0.00917561	0.01941774	0.02747401	0.01519742	0.01744278	0.00710464
1.34000000	0.00476070	0.00239677	0.00596046	0.00500712	0.00544765	0.01179958	0.00308138	0.01227536	0.00057732	0.00324686	0.00175301	0.01216335	0.00766372	0.01676256	0.00601521	0.00490680	0.00524968	0.00911941	0.01466606	0.01481808	0.01549935	0.00924311	0.01938484	0.02738115	0.01521663	0.01711396	0.00760710
1.35000000	0.00462914	0.00228750	0.00602239	0.00496980	0.00546483	0.01113119	0.00326543	0.01192920	0.00070613	0.00311963	0.00197812	0.01202956	0.00803695	0.01704053	0.00556466	0.00482998	0.00547785	0.00899615	0.01469163	0.01481173	0.01554459	0.00926841	0.01938883	0.02734977	0.01523512	0.01678108	0.00808110
1.36000000	0.00429201	0.00209443	0.00594808	0.00492304	0.00541597	0.01001401	0.00357592	0.01138612	0.00066248	0.00302180	0.00171836	0.01121130	0.00830297	0.01757747	0.00486383	0.00489191	0.00581105	0.00903750	0.01453507	0.01473928	0.01558927	0.00929461	0.01941117	0.02743943	0.01501256	0.01654657	0.00877928
1.37000000	0.00424275	0.00224705	0.00624518	0.00494946	0.00557808	0.00905491	0.00345211	0.01040451	0.00078043	0.00280095	0.00203852	0.01163675	0.00914703	0.01678357	0.00470527	0.00425388	0.00533523	0.00887481	0.01466128	0.01481467	0.01562709	0.00939133	0.01944759	0.02720952	0.01510404	0.01615941	0.00899964
1.38000000	0.00393676	0.00194170	0.00624277	0.00494465	0.00558643	0.00783576	0.00348139	0.00942165	0.00078332	0.00266170	0.00186290	0.01095162	0.00949230	0.01676495	0.00419518	0.00419994	0.00524001	0.00890326	0.01462151	0.01474436	0.01559746	0.00941292	0.01942319	0.02720030	0.01499247	0.01586644	0.00963624
1.39000000	0.00379530	0.00209071	0.00652942	0.00494218	0.00573110	0.00705256	0.00332954	0.00847072	0.00084784	0.00254602	0.00209071	0.01088346	0.01010762	0.01576928	0.00408340	0.00369689	0.00465400	0.00879919	0.01468278	0.01479734	0.01564206	0.00950163	0.01950332	0.02696278	0.01498529	0.01546165	0.00991074
1.40000000	0.00371434	0.00197742	0.00641500	0.00493044	0.00567325	0.00617889	0.00342460	0.00771616	0.00082856	0.00257843	0.00179376	0.01031579	0.01022969	0.01549953	0.00370842	0.00349811	0.00449614	0.00886679	0.01465485	0.01464899	0.01552609	0.00947560	0.01938564	0.02694220	0.01487343	0.01526282	0.01076045
1.41000000	0.00342593	0.00191741	0.00681270	0.00498088	0.00590408	0.00595447	0.00312115	0.00736137	0.00100604	0.00246200	0.00196149	0.01016732	0.01057665	0.01406578	0.00365097	0.00320367	0.00376192	0.00881306	0.01461146	0.01477712	0.01564408	0.00966585	0.01957158	0.02656156	0.01478334	0.01480674	0.01077361
1.42000000	0.00330517	0.00179671	0.00691913	0.00500610	0.00597438	0.00587692	0.00312614	0.00703937	0.00108915	0.00229948	0.00195185	0.00974325	0.01051424	0.01312722	0.00350903	0.00303461	0.00344558	0.00885627	0.01463136	0.01472227	0.01556962	0.00972263	0.01952703	0.02633298	0.01481289	0.01445983	0.01120139
1.43000000	0.00321791	0.00196243	0.00693569	0.00507205	0.00601921	0.00600667	0.00332328	0.00698156	0.00119652	0.00221120	0.00180329	0.00940437	0.01019824	0.01213762	0.00340385	0.00291455	0.00302801	0.00893713	0.01463116	0.01464870	0.01545721	0.00980377	0.01942498	0.02611117	0.01479210	0.01417893	0.01174129
1.44000000	0.00318158	0.00259742	0.00685285	0.00513257	0.00601043	0.00623700	0.00357446	0.00706039	0.00132926	0.00230444	0.00169177	0.00911482	0.00974751	0.01101307	0.00334556	0.00292654	0.00267074	0.00898150	0.01470349	0.01452807	0.01531633	0.00984750	0.01926199	0.02588443	0.01494013	0.01380443	0.01241750
1.45000000	0.00307910	0.00323706	0.00687346	0.00525064	0.00608140	0.00667731	0.00385651	0.00722726	0.00143366	0.00221166	0.00168790	0.00876252	0.00912031	0.00974643	0.00326666	0.00285768	0.00230277	0.00914999	0.01466445	0.01445997	0.01520788	0.01000155	0.01914849	0.02561691	0.01498341	0.01351702	0.01283208
1.46000000	0.00284693	0.00227220	0.00715314	0.00522749	0.00621676	0.00708281	0.00326541	0.00761205	0.00180010	0.00211307	0.00189770	0.00816711	0.00852729	0.00815490	0.00301212	0.00256362	0.00210104	0.00924667	0.01456958	0.01456083	0.01530673	0.01020808	0.01933512	0.02507895	0.01502655	0.01305292	0.01269698
1.47000000	0.00275370	0.00310068	0.00702083	0.00534941	0.00621122	0.00752528	0.00355553	0.00769280	0.00189214	0.00208113	0.00172073	0.00788597	0.00755486	0.00691363	0.00290088	0.00254917	0.00184063	0.00934426	0.01469468	0.01447873	0.01515955	0.01035293	0.01915745	0.02474913	0.01525244	0.01264797	0.01327649
1.48000000	0.00266730	0.00334369	0.00704564	0.00536858	0.00622944	0.00800323	0.00385522	0.00776559	0.00195216	0.00193061	0.00174465	0.00760622	0.00669767	0.00556979	0.00258538	0.00224892	0.00194014	0.00950850	0.01470668	0.01445082	0.01509186	0.01051535	0.01910031	0.02438257	0.01539883	0.01230530	0.01354740
1.49000000	0.00222886	0.00276404	0.00717774	0.00534129	0.00628765	0.00834619	0.00372898	0.00810336	0.00205548	0.00192183	0.00181760	0.00735543	0.00615863	0.00407168	0.00222245	0.00179408	0.00175639	0.00974479	0.01464867	0.01449715	0.01509233	0.01075996	0.01912534	0.02393266	0.01548538	0.01195194	0.01363490
1.50000000	0.00204006	0.00278302	0.00713547	0.00531384	0.00625097	0.00868486	0.00359020	0.00825505	0.00217200	0.00187620	0.00174358	0.00725012	0.00553263	0.00286743	0.00180022	0.00154323	0.00142132	0.00993889	0.01465538	0.01448362	0.01506133	0.01093429	0.01908665	0.02353634	0.01567766	0.01161466	0.01386374
1.51000000	0.00186421	0.00290478	0.00708376	0.00523455	0.00617922	0.00908938	0.00382207	0.00818497	0.00218568	0.00176532	0.00168816	0.00726248	0.00513259	0.00188590	0.00129033	0.00116595	0.00133651	0.01015230	0.01468052	0.01444338	0.01502180	0.01107882	0.01902819	0.02319256	0.01590261	0.01127185	0.01410757
1.52000000	0.00170583	0.00303581	0.00699933	0.00512351	0.00607312	0.00944741	0.00405718	0.00813162	0.00217186	0.00169906	0.00163269	0.00746570	0.00504005	0.00122108	0.00075297	0.00090882	0.00116336	0.01037340	0.01471649	0.01437666	0.01497125	0.01117775	0.01894817	0.02289362	0.01614502	0.01096867	0.01435852
1.53000000	0.00151900	0.00273091	0.00696762	0.00502730	0.00600731	0.00962947	0.00374626	0.00844563	0.00227424	0.00174960	0.00154291	0.00769358	0.00521229	0.00192263	0.00049805	0.00066404	0.00100710	0.01060391	0.01469793	0.01439877	0.01499474	0.01134760	0.01893654	0.02251250	0.01631932	0.01068471	0.01447573
1.54000000	0.00135380	0.00361397	0.00672252	0.00498582	0.00584461	0.00994750	0.00411860	0.00822606	0.00225907	0.00161082	0.00127270	0.00825708	0.00551887	0.00258860	0.00060734	0.00043820	0.00076079	0.01075961	0.01480562	0.01421819	0.01494688	0.01130065	0.01882283	0.02234532	0.01666441	0.01046413	0.01483052
1.55000000	0.00116669	0.00337546	0.00676203	0.00483608	0.00577742	0.01023204	0.00448570	0.00822559	0.00209843	0.00145673	0.00131237	0.00899408	0.00597073	0.00396473	0.00097074	0.00105343	0.00092432	0.01096275	0.01489021	0.01416590	0.01486813	0.01131389	0.01870542	0.02213123	0.01689329	0.01020248	0.01496677
1.56000000	0.00133451	0.00265110	0.00682237	0.00477423	0.00577547	0.01034859	0.00407413	0.00851046	0.00225200	0.00157788	0.00121841	0.00949687	0.00649339	0.00597071	0.00136318	0.00156396	0.00090707	0.01116989	0.01475632	0.01432419	0.01501935	0.01153092	0.01878944	0.02168558	0.01699377	0.00996412	0.01485147
1.57000000	0.00119993	0.00330740	0.00672892	0.00485761	0.00574579	0.01058247	0.00445405	0.00842480	0.00221357	0.00137758	0.00100412	0.01051157	0.00689591	0.00727517	0.00181940	0.00175944	0.00093862	0.01121452	0.01491269	0.01415346	0.01492108	0.01135919	0.01860470	0.02171126	0.01726714	0.00977813	0.01508474
1.58000000	0.00137800	0.00247996	0.00681269	0.00478796	0.00574124	0.01056372	0.00457131	0.00878400	0.00218644	0.00136149	0.00096647	0.01134785	0.00722465	0.00911158	0.00200842	0.00241909	0.00103469	0.01131952	0.01481380	0.01422672	0.01503371	0.01139864	0.01863080	0.02149325	0.01731739	0.00961442	0.01502872
1.59000000	0.00178639	0.00355946	0.00666176	0.00516198	0.00582397	0.01068977	0.00518196	0.00863234	0.00217391	0.00110558	0.00102771	0.01214973	0.00776441	0.00990489	0.00250899	0.00211256	0.00219419	0.01132176	0.01498373	0.01409685	0.01494417	0.01128335	0.01842239	0.02145977	0.01768569	0.00960045	0.01526502
1.60000000	0.00137070	0.00294863	0.00685400	0.00522841	0.00594244	0.01062691	0.00502303	0.00863340	0.00223955	0.00134295	0.00086805	0.01284820	0.00758158	0.01149345	0.00269522	0.00296236	0.00134135	0.01132877	0.01491719	0.01410257	0.01500638	0.01115377	0.01840589	0.02152691	0.01765315	0.00941240	0.01517286
1.61000000	0.00154478	0.00290004	0.00689070	0.00541266	0.00605963	0.01058383	0.00469411	0.00856644	0.00237255	0.00121954	0.00079843	0.01221134	0.00807238	0.01260980	0.00318450	0.00359664	0.00157703	0.01136064	0.01484537	0.01424201	0.01504857	0.01130199	0.01832350	0.02144822	0.01768103	0.00936702	0.01507550
1.62000000	0.00156397	0.00298008	0.00693808	0.00570815	0.00622065	0.01040370	0.00495617	0.00836116	0.00241274	0.00123779	0.00073944	0.01233356	0.00799047	0.01286353	0.00350452	0.00354280	0.00186294	0.01127219	0.01492054	0.01419725	0.01499717	0.01114415	0.01818359	0.02159328	0.01778476	0.00940925	0.01507502
1.63000000	0.00144850	0.00282843	0.00680894	0.00572110	0.00616197	0.01007791	0.00499971	0.00832055	0.00250364	0.00126625	0.00088436	0.01188776	0.00735271	0.01317550	0.00384922	0.00364767	0.00220054	0.01115121	0.01514625	0.01403203	0.01480396	0.01094636	0.01786795	0.02191797	0.01802841	0.00959040	0.01530933
1.64000000	0.00160959	0.00249354	0.00706440	0.00611343	0.00648567	0.00983114	0.00479732	0.00793187	0.00257473	0.00140167	0.00076913	0.01153243	0.00749797	0.01248206	0.00423127	0.00323941	0.00237107	0.01104692	0.01489836	0.01425551	0.01500268	0.01095344	0.01801905	0.02199284	0.01775180	0.00946172	0.01490710
1.65000000	0.00133370	0.00212897	0.00695065	0.00605456	0.00641084	0.00942879	0.00449371	0.00768291	0.00271983	0.00174445	0.00090458	0.01057152	0.00651342	0.01219154	0.00448147	0.00379360	0.00278889	0.01093556	0.01510117	0.01413579	0.01477467	0.01079599	0.01770255	0.02237503	0.01786735	0.00978960	0.01508282
1.66000000	0.00113236	0.00200646	0.00709309	0.00629651	0.00661062	0.00904413	0.00404627	0.00704903	0.00293344	0.00232388	0.00135773	0.00969565	0.00596482	0.01134095	0.00470919	0.00400226	0.00311322	0.01080696	0.01507615	0.01423320	0.01480880	0.01072548	0.01777019	0.02260692	0.01766968	0.00982227	0.01483609
1.67000000	0.00125830	0.00213316	0.00721381	0.00654050	0.00680408	0.00857756	0.00393203	0.00647985	0.00288900	0.00211204	0.00105508	0.00842381	0.00620532	0.01014875	0.00469805	0.00284935	0.00280212	0.01073412	0.01485248	0.01439170	0.01493360	0.01079421	0.01790141	0.02279433	0.01748641	0.00993089	0.01452445
1.68000000	0.00079617	0.00221951	0.00718692	0.00663880	0.00685006	0.00829834	0.00360926	0.00548069	0.00280853	0.00211212	0.00081895	0.00711679	0.00590516	0.00924396	0.00455152	0.00268192	0.00268511	0.01067164	0.01494545	0.01428137	0.01481163	0.01060571	0.01781876	0.02327459	0.01744960	0.01019221	0.01453587
1.69000000	0.00045835	0.00226019	0.00716596	0.00678423	0.00692433	0.00750613	0.00273303	0.00468807	0.00296709	0.00238406	0.00177011	0.00611082	0.00537078	0.00877174	0.00430760	0.00300377	0.00258235	0.01062117	0.01494887	0.01427252	0.01473660	0.01049997	0.01786351	0.02367104	0.01727096	0.01045692	0.01435158
1.70000000	0.00033599	0.00232396	0.00723419	0.00682060	0.00698576	0.00687913	0.00292548	0.00348515	0.00249538	0.00239623	0.00077641	0.00529267	0.00545526	0.00842303	0.00381307	0.00261751	0.00213176	0.01049694	0.01497004	0.01424466	0.01476558	0.01031255	0.01805944	0.02400409	0.01713025	0.01065872	0.01423105
1.71000000	0.00042495	0.00292102	0.00712110	0.00689181	0.00696726	0.00607102	0.00299189	0.00242879	0.00202976	0.00264187	0.00106698	0.00550390	0.00517719	0.00760292	0.00331731	0.00238181	0.00142896	0.01052789	0.01506144	0.01402458	0.01459757	0.00995582	0.01808195	0.02456970	0.01704697	0.01109926	0.01421090
1.72000000	0.00101973	0.00272089	0.00712897	0.00691323	0.00699721	0.00466903	0.00322352	0.00129791	0.00172906	0.00296037	0.00205657	0.00537585	0.00525722	0.00794427	0.00284335	0.00240285	0.00121467	0.01044549	0.01500980	0.01406704	0.01462213	0.00989014	0.01838925	0.02485038	0.01674728	0.01135348	0.01390748
1.73000000	0.00138146	0.00285763	0.00717361	0.00682818	0.00698479	0.00381585	0.00314639	0.00243102	0.00152107	0.00332403	0.00268741	0.00542951	0.00520583	0.00823331	0.00221660	0.00256641	0.00110956	0.01041316	0.01503404	0.01397591	0.01459707	0.00964931	0.01865856	0.02524988	0.01648828	0.01170791	0.01371341
1.74000000	0.00172490	0.00334634	0.00714950	0.00685914	0.00699044	0.00390511	0.00344338	0.00417266	0.00207444	0.00382123	0.00345616	0.00578429	0.00530831	0.00809393	0.00176776	0.00248481	0.00080466	0.01042738	0.01499285	0.01386690	0.01458823	0.00940610	0.01894800	0.02569619	0.01620990	0.01209082	0.01347199
1.75000000	0.00194832	0.00398842	0.00720741	0.00684957	0.00701924	0.00546261	0.00365217	0.00604563	0.00302593	0.00440922	0.00417061	0.00633410	0.00523895	0.00788530	0.00157108	0.00229053	0.00034225	0.01030428	0.01502358	0.01383402	0.01460350	0.00925003	0.01926716	0.02599334	0.01596497	0.01236445	0.01332872
1.76000000	0.00266815	0.00452422	0.00725688	0.00682135	0.00703742	0.00710142	0.00373465	0.00857547	0.00382750	0.00449748	0.00440668	0.00668824	0.00510818	0.00802906	0.00143068	0.00233297	0.00042170	0.01017940	0.01501632	0.01383708	0.01466162	0.00915206	0.01962881	0.02623126	0.01571849	0.01264117	0.01305802
1.77000000	0.00452002	0.00485760	0.00718935	0.00713386	0.00716687	0.00918910	0.00426442	0.01086265	0.00418555	0.00474284	0.00437810	0.00740527	0.00535297	0.00777763	0.00173365	0.00197641	0.00015909	0.00991640	0.01491892	0.01399828	0.01488942	0.00922563	0.02017564	0.02624082	0.01541891	0.01268281	0.01270539
1.78000000	0.00364695	0.00550360	0.00733480	0.00683864	0.00709570	0.01132524	0.00375192	0.01353522	0.00521958	0.00440072	0.00383191	0.00751508	0.00474011	0.00787776	0.00161609	0.00230909	0.00028139	0.01002772	0.01495687	0.01379104	0.01474025	0.00899313	0.02012436	0.02679574	0.01532668	0.01327214	0.01260932
1.79000000	0.00426111	0.00584858	0.00735533	0.00691262	0.00715183	0.01322294	0.00373529	0.01552671	0.00545048	0.00443783	0.00328179	0.00807927	0.00451559	0.00779318	0.00194836	0.00230181	0.00024815	0.00989179	0.01492121	0.01382425	0.01484582	0.00897595	0.02036528	0.02694938	0.01517294	0.01350911	0.01244219
1.80000000	0.00439495	0.00638133	0.00744151	0.00694109	0.00721563	0.01465669	0.00361452	0.01706089	0.00555180	0.00422801	0.00266409	0.00849496	0.00419919	0.00790619	0.00213795	0.00238747	0.00030651	0.00975784	0.01495146	0.01384843	0.01488485	0.00896848	0.02046362	0.02716948	0.01511169	0.01375062	0.01226943
1.81000000	0.00452146	0.00683046	0.00747113	0.00700338	0.00726601	0.01549819	0.00346307	0.01810150	0.00539192	0.00413718	0.00208045	0.00884832	0.00399802	0.00815934	0.00230768	0.00241192	0.00037770	0.00966698	0.01491227	0.01387802	0.01497619	0.00896737	0.02054209	0.02737944	0.01506771	0.01400095	0.01206633
1.82000000	0.00430408	0.00704300	0.00743335	0.00702524	0.00725989	0.01574819	0.00336739	0.01876981	0.00506741	0.00404849	0.00158960	0.00914559	0.00405097	0.00842033	0.00232293	0.00245817	0.00035402	0.00972992	0.01486425	0.01381366	0.01495384	0.00892518	0.02042229	0.02776215	0.01501789	0.01438497	0.01192142
1.83000000	0.00481122	0.00714050	0.00737876	0.00724326	0.00734741	0.01577249	0.00342079	0.01867642	0.00436540	0.00417617	0.00147821	0.00952548	0.00420250	0.00886697	0.00246830	0.00241853	0.00035763	0.00954927	0.01486088	0.01393902	0.01510812	0.00902756	0.02050805	0.02779599	0.01503468	0.01443097	0.01171658
1.84000000	0.00615880	0.00734803	0.00724750	0.00761263	0.00746771	0.01550802	0.00382184	0.01813397	0.00337187	0.00433782	0.00246411	0.00984262	0.00468134	0.00930061	0.00232424	0.00235537	0.00062960	0.00928301	0.01477745	0.01419731	0.01543638	0.00923107	0.02076836	0.02760613	0.01494889	0.01438438	0.01144786
1.85000000	0.00539499	0.00725632	0.00715746	0.00748112	0.00736215	0.01508204	0.00377793	0.01816782	0.00257891	0.00429969	0.00225584	0.00984257	0.00449587	0.00991309	0.00234043	0.00253085	0.00042681	0.00936614	0.01480954	0.01409864	0.01535431	0.00913524	0.02049013	0.02798884	0.01502715	0.01474796	0.01131202
1.86000000	0.00491687	0.00707564	0.00690230	0.00752003	0.00724286	0.01466701	0.00379401	0.01831748	0.00203729	0.00464540	0.00226086	0.00979725	0.00512070	0.00968854	0.00202380	0.00233545	0.00024563	0.00936641	0.01483175	0.01402662	0.01534686	0.00898233	0.02029043	0.02830627	0.01507874	0.01502536	0.01123020
1.87000000	0.00512697	0.00686937	0.00673936	0.00762236	0.00721164	0.01449475	0.00422641	0.01821208	0.00138259	0.00484026	0.00302719	0.00968741	0.00527899	0.00980993	0.00186021	0.00236188	0.00029432	0.00930215	0.01479154	0.01410375	0.01545086	0.00901504	0.02023825	0.02840986	0.01497462	0.01518363	0.01096831
1.88000000	0.00541215	0.00664180	0.00654060	0.00773628	0.00716450	0.01465203	0.00477691	0.01809489	0.00097929	0.00500815	0.00360652	0.00946961	0.00540736	0.00970667	0.00169491	0.00225283	0.00013359	0.00922572	0.01477692	0.01417515	0.01552360	0.00902777	0.02016689	0.02850655	0.01481182	0.01537380	0.01071112
1.89000000	0.00561318	0.00650729	0.00641444	0.00780945	0.00713630	0.01452392	0.00527752	0.01827896	0.00074326	0.00514233	0.00418966	0.00912974	0.00533633	0.00961770	0.00152792	0.00222512	0.00027758	0.00914515	0.01473594	0.01425992	0.01560560	0.00906121	0.02012550	0.02852184	0.01465040	0.01561203	0.01032905
1.90000000	0.00576583	0.00664718	0.00633797	0.00791322	0.00714225	0.01443631	0.00575461	0.01852516	0.00067392	0.00568541	0.00545287	0.00851708	0.00538135	0.00949831	0.00112009	0.00248349	0.00059809	0.00905013	0.01446629	0.01443096	0.01592110	0.00909973	0.02037035	0.02840725	0.01418450	0.01596097	0.00981900
1.91000000	0.00633307	0.00618270	0.00599669	0.00798342	0.00699901	0.01533051	0.00637887	0.01801382	0.00084486	0.00517374	0.00425057	0.00860830	0.00513628	0.00875356	0.00135241	0.00203510	0.00012136	0.00891944	0.01471336	0.01440415	0.01571534	0.00902957	0.02001128	0.02869513	0.01402996	0.01600638	0.00971479
1.92000000	0.00622915	0.00609388	0.00591396	0.00804281	0.00698278	0.01545269	0.00669249	0.01815733	0.00087004	0.00518744	0.00406534	0.00832823	0.00499058	0.00838820	0.00123497	0.00198935	0.00016203	0.00885441	0.01467516	0.01441761	0.01571979	0.00898723	0.01992795	0.02872617	0.01378382	0.01637162	0.00930879
1.93000000	0.00634384	0.00591431	0.00574801	0.00811097	0.00692627	0.01562886	0.00697568	0.01806932	0.00093484	0.00516860	0.00369354	0.00822104	0.00491937	0.00795994	0.00122950	0.00185014	0.00022798	0.00880130	0.01464469	0.01440433	0.01568832	0.00892561	0.01982699	0.02888797	0.01354581	0.01664824	0.00884393
1.94000000	0.00663060	0.00580872	0.00560188	0.00818299	0.00688261	0.01575604	0.00719828	0.01772101	0.00101089	0.00500307	0.00314821	0.00828978	0.00495198	0.00757919	0.00127348	0.00166624	0.00038027	0.00872305	0.01469163	0.01439894	0.01559969	0.00891599	0.01969797	0.02903868	0.01328437	0.01691225	0.00840574
1.95000000	0.00591937	0.00601199	0.00574389	0.00806411	0.00689633	0.01589473	0.00710381	0.01731641	0.00134948	0.00519801	0.00241770	0.00842826	0.00494003	0.00728780	0.00120710	0.00165637	0.00065254	0.00870195	0.01470324	0.01432235	0.01546387	0.00882298	0.01948098	0.02915025	0.01303502	0.01767568	0.00815868
1.96000000	0.00689081	0.00599733	0.00553670	0.00826305	0.00688959	0.01553255	0.00724347	0.01598544	0.00132157	0.00474282	0.00214701	0.00856818	0.00484717	0.00763127	0.00136496	0.00163253	0.00032919	0.00839436	0.01478164	0.01454915	0.01558920	0.00906259	0.01968620	0.02909653	0.01237543	0.01756460	0.00767740
1.97000000	0.00665194	0.00582803	0.00561909	0.00826812	0.00692973	0.01515487	0.00677856	0.01469952	0.00152609	0.00464979	0.00205568	0.00904757	0.00509309	0.00746237	0.00135816	0.00149885	0.00062705	0.00835951	0.01487150	0.01447853	0.01542075	0.00903746	0.01951723	0.02933247	0.01219666	0.01801809	0.00728705
1.98000000	0.00610467	0.00578283	0.00580205	0.00819005	0.00698614	0.01455711	0.00602929	0.01307985	0.00175567	0.00468625	0.00189019	0.00956087	0.00525464	0.00745925	0.00134726	0.00151811	0.00086482	0.00833000	0.01493240	0.01441809	0.01530492	0.00901430	0.01942738	0.02955886	0.01196256	0.01862345	0.00693261
1.99000000	0.00631284	0.00568113	0.00576577	0.00827761	0.00701655	0.01347595	0.00560697	0.01075296	0.00149831	0.00407414	0.00238195	0.01007892	0.00554787	0.00779069	0.00149644	0.00141708	0.00081556	0.00822747	0.01503798	0.01448007	0.01526397	0.00920412	0.01951564	0.02973591	0.01155046	0.01878759	0.00639699
2.00000000	0.00585360	0.00577372	0.00591659	0.00825559	0.00709902	0.01217366	0.00490508	0.00851877	0.00145019	0.00360089	0.00211556	0.01047388	0.00553339	0.00849535	0.00158037	0.00177911	0.00065009	0.00805566	0.01517811	0.01455164	0.01525224	0.00931375	0.01957978	0.02977411	0.01116893	0.01923181	0.00617719
2.01000000	0.00534831	0.00551610	0.00606121	0.00826367	0.00718699	0.01073636	0.00400622	0.00647493	0.00133725	0.00298616	0.00204847	0.01097882	0.00605199	0.00892672	0.00151296	0.00192628	0.00055393	0.00801278	0.01529720	0.01452508	0.01515827	0.00935716	0.01957724	0.02999434	0.01096227	0.01968573	0.00586068
2.02000000	0.00505279	0.00548627	0.00640729	0.00810288	0.00728454	0.00949627	0.00252197	0.00461294	0.00158140	0.00298310	0.00207642	0.01176045	0.00640287	0.00882159	0.00142006	0.00195700	0.00091202	0.00820400	0.01534939	0.01432991	0.01495578	0.00927177	0.01946788	0.03044873	0.01090584	0.02049729	0.00549406
2.03000000	0.00480100	0.00546779	0.00633621	0.00823992	0.00732925	0.00829935	0.00282832	0.00242917	0.00134551	0.00237031	0.00250268	0.01209483	0.00649664	0.00959647	0.00164236	0.00207947	0.00074649	0.00790887	0.01558067	0.01451276	0.01503979	0.00945548	0.01966822	0.03042673	0.01064343	0.02055849	0.00520682
2.04000000	0.00476233	0.00524607	0.00651227	0.00823152	0.00741251	0.00739614	0.00222402	0.00145838	0.00138620	0.00220007	0.00261479	0.01273629	0.00702616	0.00939821	0.00160524	0.00191716	0.00112419	0.00801733	0.01570571	0.01439178	0.01489097	0.00941267	0.01962729	0.03084832	0.01062415	0.02105506	0.00488542
2.05000000	0.00437791	0.00508693	0.00657512	0.00828842	0.00747831	0.00695383	0.00244878	0.00201651	0.00126899	0.00190559	0.00212634	0.01279147	0.00725577	0.01000450	0.00158533	0.00223401	0.00068661	0.00786309	0.01586692	0.01447204	0.01492479	0.00945035	0.01972176	0.03092503	0.01054053	0.02134428	0.00470073
2.06000000	0.00426399	0.00497772	0.00666860	0.00827445	0.00752008	0.00705076	0.00228107	0.00339658	0.00143367	0.00233705	0.00209940	0.01324986	0.00764693	0.00975550	0.00162281	0.00208683	0.00082987	0.00792021	0.01596801	0.01444451	0.01484674	0.00948401	0.01969269	0.03122114	0.01053263	0.02183408	0.00447169
2.07000000	0.00431319	0.00502409	0.00686679	0.00838492	0.00767412	0.00776022	0.00229095	0.00465722	0.00158802	0.00280395	0.00194508	0.01328062	0.00762925	0.00992044	0.00155070	0.00217872	0.00081253	0.00789089	0.01606423	0.01450088	0.01486484	0.00956254	0.01975615	0.03139287	0.01048600	0.02209682	0.00416474
2.08000000	0.00508597	0.00532614	0.00742595	0.00830038	0.00790500	0.00836019	0.00370677	0.00510207	0.00257456	0.00318500	0.00114867	0.01327716	0.00749402	0.00987894	0.00158330	0.00207968	0.00171045	0.00791413	0.01622238	0.01452396	0.01482011	0.00958686	0.01966267	0.03175906	0.01066069	0.02252253	0.00385321
2.09000000	0.00450418	0.00495250	0.00713852	0.00855055	0.00788916	0.00958473	0.00231373	0.00652910	0.00192483	0.00344320	0.00162199	0.01318490	0.00776946	0.00977584	0.00131416	0.00215393	0.00071440	0.00784030	0.01629289	0.01464097	0.01487808	0.00968633	0.01972978	0.03175990	0.01064752	0.02258759	0.00376931
2.10000000	0.00474871	0.00486367	0.00731790	0.00867247	0.00803886	0.01002492	0.00277960	0.00690195	0.00215255	0.00368416	0.00151940	0.01316594	0.00798696	0.00941822	0.00111506	0.00204667	0.00067996	0.00784025	0.01637863	0.01470685	0.01486156	0.00971630	0.01961985	0.03191827	0.01086481	0.02281669	0.00358297
2.11000000	0.00494387	0.00491206	0.00750053	0.00882541	0.00820604	0.01006562	0.00325992	0.00696732	0.00239000	0.00362599	0.00169925	0.01290866	0.00801390	0.00922377	0.00083872	0.00207441	0.00093876	0.00780841	0.01652064	0.01480377	0.01481387	0.00979119	0.01942444	0.03203721	0.01111126	0.02294445	0.00334809
2.12000000	0.00460148	0.00467028	0.00733166	0.00893634	0.00817792	0.00973500	0.00321699	0.00693067	0.00254589	0.00363395	0.00195767	0.01261985	0.00813977	0.00887225	0.00066003	0.00194504	0.00057922	0.00785762	0.01644988	0.01495544	0.01494849	0.00999517	0.01952102	0.03201641	0.01108726	0.02303154	0.00326640
2.13000000	0.00451672	0.00464364	0.00728179	0.00904974	0.00820986	0.00904697	0.00307858	0.00657759	0.00272382	0.00336047	0.00219170	0.01215778	0.00795308	0.00858329	0.00067307	0.00188679	0.00049563	0.00792489	0.01641625	0.01506302	0.01501199	0.01012589	0.01948825	0.03203696	0.01114881	0.02304654	0.00321004
2.14000000	0.00451217	0.00469889	0.00731991	0.00924093	0.00832819	0.00811239	0.00290425	0.00597505	0.00266229	0.00316008	0.00332419	0.01169800	0.00775594	0.00828032	0.00064785	0.00204293	0.00080609	0.00788587	0.01650414	0.01522212	0.01503662	0.01027276	0.01935794	0.03189838	0.01141884	0.02297506	0.00293990
2.15000000	0.00453291	0.00473977	0.00732304	0.00941371	0.00841797	0.00695670	0.00303141	0.00576971	0.00286089	0.00286170	0.00328907	0.01125345	0.00745201	0.00795842	0.00085092	0.00182397	0.00077051	0.00784860	0.01649221	0.01541366	0.01512874	0.01046610	0.01929765	0.03169337	0.01155168	0.02280963	0.00294464
2.16000000	0.00451344	0.00465129	0.00729391	0.00938800	0.00839130	0.00581188	0.00306768	0.00560497	0.00276566	0.00268654	0.00310007	0.01096061	0.00708688	0.00706291	0.00100884	0.00164419	0.00095171	0.00800786	0.01636194	0.01543275	0.01518529	0.01049870	0.01927651	0.03164239	0.01169678	0.02280995	0.00305046
2.17000000	0.00456847	0.00484494	0.00739008	0.00950893	0.00850641	0.00474574	0.00317182	0.00603064	0.00243102	0.00264388	0.00379621	0.01054544	0.00662895	0.00637709	0.00115805	0.00145718	0.00100020	0.00799822	0.01640751	0.01557600	0.01520904	0.01067301	0.01918150	0.03136746	0.01189919	0.02259143	0.00297587
2.18000000	0.00444810	0.00508295	0.00740203	0.00928069	0.00840136	0.00392716	0.00339285	0.00626853	0.00200361	0.00263281	0.00401304	0.01027708	0.00607421	0.00479745	0.00128667	0.00101083	0.00109373	0.00814856	0.01634441	0.01548853	0.01517967	0.01058101	0.01910245	0.03134784	0.01215933	0.02260844	0.00303457
2.19000000	0.00442417	0.00532715	0.00748343	0.00928097	0.00845031	0.00316191	0.00374719	0.00727751	0.00167957	0.00296677	0.00468283	0.00972566	0.00554365	0.00395546	0.00136542	0.00103662	0.00076871	0.00814506	0.01632424	0.01560245	0.01523250	0.01076103	0.01910853	0.03100682	0.01222831	0.02239171	0.00305909
2.20000000	0.00428805	0.00536891	0.00755020	0.00916118	0.00842840	0.00250397	0.00408374	0.00816342	0.00159818	0.00328970	0.00516235	0.00926726	0.00538673	0.00273398	0.00139626	0.00109014	0.00059451	0.00819964	0.01623709	0.01562077	0.01527117	0.01084125	0.01914549	0.03074901	0.01228016	0.02223352	0.00308197
2.21000000	0.00419354	0.00607303	0.00785035	0.00910185	0.00855945	0.00196440	0.00445169	0.00892568	0.00175317	0.00381657	0.00539598	0.00849631	0.00498607	0.00206035	0.00134746	0.00222855	0.00174301	0.00815412	0.01628953	0.01570152	0.01530762	0.01094134	0.01919748	0.03028749	0.01241704	0.02194674	0.00308545
2.22000000	0.00406030	0.00504936	0.00765399	0.00869037	0.00824304	0.00158743	0.00432579	0.00910847	0.00179377	0.00371553	0.00554418	0.00834634	0.00603883	0.00108297	0.00165946	0.00160702	0.00109139	0.00834596	0.01607871	0.01541165	0.01518671	0.01068044	0.01909338	0.03031215	0.01257495	0.02200961	0.00329289
2.23000000	0.00420678	0.00485371	0.00768788	0.00838209	0.00809651	0.00167718	0.00408247	0.00919278	0.00173635	0.00359614	0.00513722	0.00760856	0.00659324	0.00243378	0.00188810	0.00217244	0.00166262	0.00837679	0.01599303	0.01528076	0.01518301	0.01052157	0.01914710	0.03006918	0.01268639	0.02180838	0.00339037
2.24000000	0.00443286	0.00447484	0.00764374	0.00810748	0.00792782	0.00238307	0.00345242	0.00888992	0.00146700	0.00337547	0.00471590	0.00688301	0.00730313	0.00367596	0.00230044	0.00265937	0.00248495	0.00840230	0.01588195	0.01517359	0.01521030	0.01040281	0.01925209	0.02976475	0.01268030	0.02158537	0.00349942
2.25000000	0.00476344	0.00383470	0.00753727	0.00774614	0.00767474	0.00313345	0.00265953	0.00839270	0.00113886	0.00325885	0.00387948	0.00620781	0.00802491	0.00528801	0.00280228	0.00305623	0.00266560	0.00844553	0.01578757	0.01498973	0.01518629	0.01017442	0.01929122	0.02954325	0.01278182	0.02138777	0.00366531
2.26000000	0.00490910	0.00378395	0.00748695	0.00745052	0.00749204	0.00445527	0.00199069	0.00773672	0.00066252	0.00284639	0.00322795	0.00588447	0.00870200	0.00616011	0.00328411	0.00353079	0.00332558	0.00848784	0.01569634	0.01485087	0.01518663	0.01000740	0.01935217	0.02924691	0.01281865	0.02117436	0.00388122
2.27000000	0.00498503	0.00356845	0.00736455	0.00691534	0.00715209	0.00548149	0.00173334	0.00745312	0.00061610	0.00293023	0.00253196	0.00458172	0.00877066	0.00841469	0.00346266	0.00352224	0.00248232	0.00848065	0.01560077	0.01460988	0.01518029	0.00967547	0.01940441	0.02919017	0.01290042	0.02101052	0.00401720
2.28000000	0.00509997	0.00377593	0.00731721	0.00674869	0.00703376	0.00679384	0.00111997	0.00767540	0.00079333	0.00280969	0.00227412	0.00541055	0.00914820	0.00871379	0.00410722	0.00367519	0.00292073	0.00850834	0.01546877	0.01454866	0.01525473	0.00957851	0.01950244	0.02888453	0.01286618	0.02065013	0.00425378
2.29000000	0.00523305	0.00371878	0.00719360	0.00643081	0.00679600	0.00775916	0.00119575	0.00819698	0.00090255	0.00308536	0.00181040	0.00503643	0.00888471	0.01052311	0.00409293	0.00359236	0.00206260	0.00852505	0.01540906	0.01433028	0.01519609	0.00924789	0.01941049	0.02882660	0.01311192	0.02041322	0.00452927
2.30000000	0.00518750	0.00464225	0.00752228	0.00640289	0.00692424	0.00924604	0.00177260	0.00905024	0.00111141	0.00306284	0.00129566	0.00697517	0.00908241	0.00989927	0.00461524	0.00368848	0.00304953	0.00848632	0.01524668	0.01449332	0.01546656	0.00945138	0.01970791	0.02849040	0.01275443	0.01982053	0.00468701
2.31000000	0.00505356	0.00410427	0.00708123	0.00614683	0.00657453	0.00984985	0.00182785	0.01000768	0.00094067	0.00313591	0.00179396	0.00676646	0.00834882	0.01211572	0.00451061	0.00363219	0.00208771	0.00858621	0.01520001	0.01414564	0.01526289	0.00893277	0.01936073	0.02855816	0.01336396	0.01977467	0.00512337
2.32000000	0.00476688	0.00433580	0.00703882	0.00616568	0.00655134	0.01050083	0.00223143	0.01125988	0.00089206	0.00314737	0.00219944	0.00826015	0.00837930	0.01236088	0.00469680	0.00363462	0.00265294	0.00853816	0.01513909	0.01423389	0.01539438	0.00899100	0.01940237	0.02829512	0.01338144	0.01929190	0.00555346
2.33000000	0.00468378	0.00514234	0.00737190	0.00613566	0.00666199	0.01100598	0.00357910	0.01207792	0.00064192	0.00343946	0.00162842	0.00918580	0.00841493	0.01263434	0.00453799	0.00400111	0.00429964	0.00858733	0.01491430	0.01441961	0.01570641	0.00923266	0.01970274	0.02808581	0.01301684	0.01869001	0.00578598
2.34000000	0.00456874	0.00429360	0.00692571	0.00601841	0.00635714	0.01062048	0.00331103	0.01199027	0.00086680	0.00307819	0.00224507	0.00935193	0.00804470	0.01463860	0.00438738	0.00397851	0.00346504	0.00866381	0.01499142	0.01411075	0.01543965	0.00880436	0.01922930	0.02819628	0.01382814	0.01863720	0.00613191
2.35000000	0.00427315	0.00424082	0.00689131	0.00596676	0.00628012	0.01007785	0.00357995	0.01197496	0.00100606	0.00299369	0.00247205	0.00993165	0.00820343	0.01554364	0.00426603	0.00413352	0.00398013	0.00864323	0.01496767	0.01417598	0.01554285	0.00887500	0.01923665	0.02806197	0.01391113	0.01822414	0.00649263
2.36000000	0.00387799	0.00414195	0.00681702	0.00590679	0.00618063	0.00919935	0.00380391	0.01151203	0.00112813	0.00293026	0.00261681	0.01030340	0.00853384	0.01644912	0.00403406	0.00425430	0.00446558	0.00865621	0.01494956	0.01420061	0.01559449	0.00891587	0.01917488	0.02796085	0.01409574	0.01782844	0.00689766
2.37000000	0.00357004	0.00417484	0.00679973	0.00583757	0.00609549	0.00814077	0.00386079	0.01068040	0.00119600	0.00280121	0.00260773	0.01065278	0.00902366	0.01703950	0.00382217	0.00425341	0.00473813	0.00863509	0.01492110	0.01427177	0.01569931	0.00900715	0.01918661	0.02777822	0.01421472	0.01743610	0.00725697
2.38000000	0.00331538	0.00438609	0.00679927	0.00576877	0.00601528	0.00700219	0.00372321	0.00966046	0.00126846	0.00267895	0.00261054	0.01090217	0.00953053	0.01728727	0.00376259	0.00420059	0.00478585	0.00868338	0.01492211	0.01431800	0.01574610	0.00911996	0.01916141	0.02759797	0.01435871	0.01700580	0.00753409
2.39000000	0.00294314	0.00413586	0.00672431	0.00565904	0.00589913	0.00588526	0.00369639	0.00847204	0.00136975	0.00262363	0.00250967	0.01109196	0.01014773	0.01731317	0.00352774	0.00395436	0.00480048	0.00867309	0.01496772	0.01435836	0.01577507	0.00920727	0.01912589	0.02736948	0.01453914	0.01663276	0.00797189
2.40000000	0.00271227	0.00376510	0.00667831	0.00554073	0.00578836	0.00459806	0.00376416	0.00759609	0.00123622	0.00269829	0.00211396	0.01065955	0.01028495	0.01751754	0.00344559	0.00415834	0.00500390	0.00874136	0.01478890	0.01434880	0.01587458	0.00926473	0.01916562	0.02729209	0.01448281	0.01621045	0.00851254
2.41000000	0.00250263	0.00420182	0.00679804	0.00547510	0.00579450	0.00400920	0.00349116	0.00669909	0.00127548	0.00251644	0.00260523	0.01093774	0.01077732	0.01646365	0.00362055	0.00405177	0.00455473	0.00873021	0.01483352	0.01445875	0.01595732	0.00945608	0.01923372	0.02688526	0.01457131	0.01571428	0.00855613
2.42000000	0.00224728	0.00351009	0.00663955	0.00540700	0.00569417	0.00349523	0.00372511	0.00614276	0.00127482	0.00271467	0.00221604	0.01089996	0.01085110	0.01609193	0.00359766	0.00411143	0.00453676	0.00881755	0.01479602	0.01439739	0.01590248	0.00951810	0.01913238	0.02667581	0.01463154	0.01536852	0.00927283
2.43000000	0.00200658	0.00372485	0.00680126	0.00534469	0.00574880	0.00346273	0.00371220	0.00570465	0.00134319	0.00239421	0.00263715	0.01081033	0.01087869	0.01499197	0.00364459	0.00398934	0.00433295	0.00887605	0.01474308	0.01447044	0.01600088	0.00967695	0.01925858	0.02622587	0.01473358	0.01480151	0.00930985
2.44000000	0.00197597	0.00346692	0.00673986	0.00528120	0.00572655	0.00354779	0.00360328	0.00564336	0.00159657	0.00252542	0.00263815	0.01086235	0.01079448	0.01389832	0.00372332	0.00391015	0.00408169	0.00897439	0.01471165	0.01445674	0.01600341	0.00977849	0.01928490	0.02578994	0.01481311	0.01438589	0.00967715
2.45000000	0.00183178	0.00305375	0.00661046	0.00523594	0.00569265	0.00393853	0.00388981	0.00581844	0.00174351	0.00259880	0.00238614	0.01090470	0.01031028	0.01310852	0.00378406	0.00407548	0.00397168	0.00905525	0.01466388	0.01439667	0.01596923	0.00986342	0.01925606	0.02542081	0.01492837	0.01396652	0.01025901
2.46000000	0.00182658	0.00313155	0.00669493	0.00512760	0.00572005	0.00437369	0.00401812	0.00595123	0.00179522	0.00250321	0.00264417	0.01078386	0.00976615	0.01206249	0.00366587	0.00387659	0.00387905	0.00923152	0.01463923	0.01434837	0.01595381	0.00994561	0.01932434	0.02494785	0.01506703	0.01349644	0.01051295
2.47000000	0.00187317	0.00284214	0.00660443	0.00503860	0.00569849	0.00478423	0.00368918	0.00634463	0.00201238	0.00256765	0.00258755	0.01079182	0.00908701	0.01099615	0.00360305	0.00376951	0.00360953	0.00942668	0.01453166	0.01428184	0.01597134	0.01003063	0.01942243	0.02445536	0.01517990	0.01310720	0.01085878
2.48000000	0.00188333	0.00304859	0.00637972	0.00499809	0.00561957	0.00546102	0.00405152	0.00656212	0.00206845	0.00263932	0.00231473	0.01086791	0.00806014	0.01019144	0.00334575	0.00379465	0.00337657	0.00957823	0.01461530	0.01412225	0.01583666	0.01007811	0.01934770	0.02406680	0.01546178	0.01267511	0.01157718
2.49000000	0.00186371	0.00291837	0.00648732	0.00481363	0.00562104	0.00597141	0.00380746	0.00685765	0.00216677	0.00259963	0.00236734	0.01054452	0.00731033	0.00895472	0.00286829	0.00349863	0.00311146	0.00988384	0.01450030	0.01406046	0.01587668	0.01017363	0.01953167	0.02353035	0.01557771	0.01229492	0.01175241
2.50000000	0.00188225	0.00303635	0.00639187	0.00466310	0.00552848	0.00663948	0.00388759	0.00690036	0.00210314	0.00254171	0.00228739	0.01024798	0.00627511	0.00793937	0.00238541	0.00310854	0.00279355	0.01012006	0.01447147	0.01393270	0.01586639	0.01022338	0.01963972	0.02311550	0.01579799	0.01186575	0.01217402
