TVC12_2_JMP_01_pelvis_thigh_marker_adjustment_task_1_finalErrors.sto
version=1
nRows=271
nColumns=28
inDegrees=no
endheader
time	R_Asis	L_Asis	R_Psis	L_Psis	Sacral	R_Thigh_Lateral	R_Knee_Lateral	R_Shank_Lateral	R_Ankle_Lateral	R_Heel	R_Toe	L_Thigh_Lateral	L_Knee_Lateral	L_Shank_Lateral	L_Ankle_Lateral	L_Heel	L_Toe	R_Shoulder	L_Shoulder	C7	J_Notch	Thoracic	Sternum	R_Elbow	L_Elbow	R_Wrist	L_Wrist
0.40000000	0.00801026	0.01276001	0.00271614	0.00626889	0.00439004	0.01381200	0.01238961	0.01773575	0.00486825	0.00496293	0.00254051	0.02471704	0.00785402	0.01462758	0.00495273	0.00467611	0.00670425	0.00190718	0.00724823	0.00268343	0.00118935	0.01004076	0.00555810	0.00207546	0.00218161	0.00216406	0.00031106
0.41000000	0.00779844	0.01252082	0.00274385	0.00600321	0.00433199	0.01391915	0.01330869	0.01768661	0.00478479	0.00462538	0.00323610	0.02454924	0.00699517	0.01509639	0.00514373	0.00423904	0.00689702	0.00177308	0.00727115	0.00268075	0.00118417	0.00971757	0.00565907	0.00225720	0.00237236	0.00193494	0.00052460
0.42000000	0.00778767	0.01241507	0.00260258	0.00557426	0.00405268	0.01385480	0.01347080	0.01773643	0.00459527	0.00444072	0.00269261	0.02379063	0.00685600	0.01478364	0.00546862	0.00379678	0.00665949	0.00179054	0.00737428	0.00262254	0.00133526	0.00922717	0.00556123	0.00224478	0.00241991	0.00188579	0.00043526
0.43000000	0.00762363	0.01199054	0.00243476	0.00507435	0.00375723	0.01365315	0.01386478	0.01759672	0.00440314	0.00430759	0.00274574	0.02244567	0.00641670	0.01435499	0.00559695	0.00342933	0.00630083	0.00164682	0.00743490	0.00259183	0.00144260	0.00877147	0.00563238	0.00217090	0.00259472	0.00187598	0.00060507
0.44000000	0.00726941	0.01180137	0.00226427	0.00440253	0.00334725	0.01337947	0.01385094	0.01767648	0.00416334	0.00419973	0.00227345	0.02034973	0.00637142	0.01350545	0.00567457	0.00345221	0.00597795	0.00164211	0.00745273	0.00279413	0.00143605	0.00819878	0.00559235	0.00239184	0.00272484	0.00158544	0.00069680
0.45000000	0.00694805	0.01112179	0.00194938	0.00370318	0.00285765	0.01308726	0.01412695	0.01734848	0.00382078	0.00392293	0.00228959	0.01792677	0.00608174	0.01259222	0.00558575	0.00332123	0.00534209	0.00151890	0.00742528	0.00296822	0.00151521	0.00766654	0.00561646	0.00237135	0.00284683	0.00154667	0.00095698
0.46000000	0.00655112	0.01059980	0.00177896	0.00310779	0.00250861	0.01266180	0.01402916	0.01710127	0.00352394	0.00383041	0.00179682	0.01517473	0.00605184	0.01123521	0.00530318	0.00367476	0.00488727	0.00159207	0.00748254	0.00310897	0.00157330	0.00719654	0.00557111	0.00267244	0.00302165	0.00115902	0.00093353
0.47000000	0.00616089	0.00997084	0.00167878	0.00266090	0.00224673	0.01229022	0.01419534	0.01651675	0.00315443	0.00363721	0.00153342	0.01275135	0.00571940	0.00960891	0.00485974	0.00369692	0.00428341	0.00161325	0.00743091	0.00320700	0.00165801	0.00681407	0.00555745	0.00287935	0.00312226	0.00089047	0.00107328
0.48000000	0.00576021	0.00933341	0.00162568	0.00247051	0.00213040	0.01174940	0.01417362	0.01588879	0.00280396	0.00337510	0.00142702	0.01116348	0.00475385	0.00780754	0.00426119	0.00300910	0.00361301	0.00181302	0.00759444	0.00325166	0.00181054	0.00656317	0.00512983	0.00310744	0.00327756	0.00075976	0.00121016
0.49000000	0.00545618	0.00854095	0.00144113	0.00202674	0.00177979	0.01130598	0.01435991	0.01505496	0.00228462	0.00289463	0.00129073	0.00883571	0.00477974	0.00638786	0.00387577	0.00291191	0.00300034	0.00183357	0.00736698	0.00336503	0.00187376	0.00621691	0.00522617	0.00324470	0.00327762	0.00037867	0.00130761
0.50000000	0.00521935	0.00777146	0.00138164	0.00180151	0.00153952	0.01085428	0.01438909	0.01410505	0.00180103	0.00237707	0.00101641	0.00734028	0.00453778	0.00504733	0.00350373	0.00267119	0.00245198	0.00196130	0.00721295	0.00349480	0.00197823	0.00598876	0.00496117	0.00334028	0.00320289	0.00021708	0.00132259
0.51000000	0.00454899	0.00752663	0.00136630	0.00207909	0.00159823	0.01046665	0.01379741	0.01316722	0.00174531	0.00210149	0.00087339	0.00712453	0.00327025	0.00354292	0.00315968	0.00200944	0.00168092	0.00225582	0.00696575	0.00336446	0.00210689	0.00595845	0.00476025	0.00363804	0.00303598	0.00024486	0.00142497
0.52000000	0.00434351	0.00714937	0.00136395	0.00186941	0.00131799	0.01007287	0.01328152	0.01227379	0.00167847	0.00170008	0.00054214	0.00597009	0.00335192	0.00290294	0.00296247	0.00206656	0.00146528	0.00232491	0.00662535	0.00346430	0.00222335	0.00578069	0.00451954	0.00363850	0.00274499	0.00041698	0.00133998
0.53000000	0.00376584	0.00733336	0.00130672	0.00175555	0.00106176	0.00979786	0.01222914	0.01156511	0.00203526	0.00182284	0.00080424	0.00513748	0.00331811	0.00248334	0.00281152	0.00190379	0.00154484	0.00240627	0.00630921	0.00350486	0.00239834	0.00562884	0.00414973	0.00363551	0.00239515	0.00076770	0.00138069
0.54000000	0.00384748	0.00706072	0.00144973	0.00194683	0.00115153	0.01014672	0.01129922	0.00964759	0.00244028	0.00068108	0.00029599	0.00504940	0.00304927	0.00249819	0.00262070	0.00222266	0.00116893	0.00253646	0.00591242	0.00338801	0.00246335	0.00578706	0.00396910	0.00367680	0.00203882	0.00080272	0.00122523
0.55000000	0.00347435	0.00703773	0.00149972	0.00185348	0.00091857	0.01005076	0.01020057	0.00869378	0.00290673	0.00102106	0.00034042	0.00498758	0.00322718	0.00253543	0.00244368	0.00244559	0.00103792	0.00249405	0.00546015	0.00345535	0.00255842	0.00575739	0.00363681	0.00353387	0.00152988	0.00087811	0.00102443
0.56000000	0.00313368	0.00691372	0.00160359	0.00181897	0.00073295	0.01009033	0.00901417	0.00760239	0.00337312	0.00151544	0.00069833	0.00508105	0.00340973	0.00260636	0.00227472	0.00250018	0.00113973	0.00241489	0.00497599	0.00350613	0.00263013	0.00578054	0.00333707	0.00335652	0.00100369	0.00094330	0.00081122
0.57000000	0.00242280	0.00715728	0.00175536	0.00168450	0.00044410	0.00997291	0.00693885	0.00698831	0.00403882	0.00187436	0.00249341	0.00493446	0.00357597	0.00226155	0.00222398	0.00256816	0.00100759	0.00235351	0.00457534	0.00351532	0.00282466	0.00575323	0.00281475	0.00314679	0.00055000	0.00116084	0.00058720
0.58000000	0.00277820	0.00643384	0.00169696	0.00193997	0.00072072	0.01009881	0.00579951	0.00464910	0.00427666	0.00197872	0.00053345	0.00422510	0.00368919	0.00212058	0.00206657	0.00220668	0.00128413	0.00226045	0.00415417	0.00336659	0.00278970	0.00604418	0.00283444	0.00297765	0.00018641	0.00114394	0.00042337
0.59000000	0.00260130	0.00593664	0.00186331	0.00198281	0.00082285	0.00990105	0.00408278	0.00375447	0.00465704	0.00245649	0.00123336	0.00329715	0.00374913	0.00155540	0.00199203	0.00195888	0.00136430	0.00206641	0.00381734	0.00334081	0.00288301	0.00609141	0.00258186	0.00270978	0.00070210	0.00110589	0.00025591
0.60000000	0.00251176	0.00517022	0.00216364	0.00211001	0.00102071	0.00961627	0.00267857	0.00284458	0.00494961	0.00309083	0.00120463	0.00259433	0.00363012	0.00129945	0.00196319	0.00160506	0.00152633	0.00190101	0.00339533	0.00339995	0.00293728	0.00616820	0.00235328	0.00240512	0.00126418	0.00110484	0.00024365
0.61000000	0.00246620	0.00484651	0.00234189	0.00225309	0.00111369	0.00896963	0.00155076	0.00218475	0.00506533	0.00324736	0.00085916	0.00280615	0.00326616	0.00148258	0.00185511	0.00161129	0.00101486	0.00186345	0.00302513	0.00336649	0.00297589	0.00642174	0.00207447	0.00218194	0.00181353	0.00123516	0.00045291
0.62000000	0.00251933	0.00451495	0.00257558	0.00227138	0.00134529	0.00841203	0.00145433	0.00212497	0.00527954	0.00368621	0.00090016	0.00270487	0.00316677	0.00195045	0.00183662	0.00141395	0.00106247	0.00170510	0.00279922	0.00340979	0.00303184	0.00647131	0.00194260	0.00188290	0.00234094	0.00117111	0.00075386
0.63000000	0.00264551	0.00430616	0.00268904	0.00225770	0.00148544	0.00779696	0.00263127	0.00261898	0.00542701	0.00401918	0.00094794	0.00268149	0.00308559	0.00220519	0.00183651	0.00139560	0.00102080	0.00166195	0.00261102	0.00343950	0.00306589	0.00657136	0.00187180	0.00167419	0.00282537	0.00119211	0.00102944
0.64000000	0.00231269	0.00438725	0.00269238	0.00195065	0.00155073	0.00680476	0.00471295	0.00346131	0.00559659	0.00406526	0.00234668	0.00242139	0.00315946	0.00241045	0.00190637	0.00157805	0.00090977	0.00151843	0.00260473	0.00350587	0.00313043	0.00662029	0.00176931	0.00141231	0.00320277	0.00105886	0.00146382
0.65000000	0.00311302	0.00444078	0.00267265	0.00198012	0.00160414	0.00674238	0.00518207	0.00450506	0.00561218	0.00445765	0.00086087	0.00241716	0.00337844	0.00173137	0.00191616	0.00161007	0.00122863	0.00171401	0.00244939	0.00350393	0.00312958	0.00670533	0.00197719	0.00134421	0.00358102	0.00127021	0.00153398
0.66000000	0.00292794	0.00459377	0.00250521	0.00164517	0.00158280	0.00612410	0.00675586	0.00570932	0.00566581	0.00460033	0.00189164	0.00412180	0.00374850	0.00154392	0.00207412	0.00169640	0.00152568	0.00174095	0.00239182	0.00361663	0.00315438	0.00677647	0.00200785	0.00120931	0.00384183	0.00108658	0.00173424
0.67000000	0.00349837	0.00508196	0.00239355	0.00144007	0.00160451	0.00617980	0.00703984	0.00718600	0.00579587	0.00485988	0.00105546	0.00449523	0.00416735	0.00089142	0.00248591	0.00210780	0.00201220	0.00172148	0.00245628	0.00368922	0.00319507	0.00670566	0.00223231	0.00109631	0.00394428	0.00125034	0.00197652
0.68000000	0.00303058	0.00541967	0.00232355	0.00109978	0.00162277	0.00601421	0.00866171	0.00800272	0.00588088	0.00503533	0.00242945	0.00730426	0.00463995	0.00139750	0.00279156	0.00217867	0.00234069	0.00174697	0.00249495	0.00378857	0.00316115	0.00666942	0.00220545	0.00092854	0.00416580	0.00109133	0.00220570
0.69000000	0.00329788	0.00558670	0.00231162	0.00130899	0.00186326	0.00608873	0.00875426	0.00989611	0.00592832	0.00529923	0.00108635	0.00667457	0.00509074	0.00277815	0.00349593	0.00288874	0.00274786	0.00168998	0.00257808	0.00381518	0.00320491	0.00644417	0.00259034	0.00093102	0.00414340	0.00125936	0.00228736
0.70000000	0.00324301	0.00574372	0.00245397	0.00141343	0.00198810	0.00689906	0.00951486	0.01068386	0.00609069	0.00536300	0.00223300	0.00843824	0.00543640	0.00313449	0.00365738	0.00277771	0.00296148	0.00170044	0.00264864	0.00392722	0.00315425	0.00635495	0.00261453	0.00084495	0.00434447	0.00133940	0.00251254
0.71000000	0.00329559	0.00593214	0.00257666	0.00167359	0.00218338	0.00703440	0.00953421	0.01216123	0.00610443	0.00592383	0.00141661	0.00807872	0.00555655	0.00370561	0.00395895	0.00317830	0.00305886	0.00167229	0.00270027	0.00401350	0.00322484	0.00619693	0.00276501	0.00088513	0.00425468	0.00123372	0.00259204
0.72000000	0.00307315	0.00564825	0.00284481	0.00210451	0.00249198	0.00831845	0.01019106	0.01255961	0.00621226	0.00596360	0.00277840	0.00850564	0.00571711	0.00340217	0.00395037	0.00282996	0.00281738	0.00169864	0.00270231	0.00417060	0.00322129	0.00601953	0.00283198	0.00082742	0.00431866	0.00117529	0.00273349
0.73000000	0.00352366	0.00575242	0.00303192	0.00227596	0.00267210	0.00907363	0.00986128	0.01343730	0.00626479	0.00637779	0.00246709	0.00756089	0.00546593	0.00343465	0.00396583	0.00290309	0.00265598	0.00159459	0.00272801	0.00430418	0.00319907	0.00583605	0.00291973	0.00090619	0.00432813	0.00117771	0.00287616
0.74000000	0.00288559	0.00509274	0.00324496	0.00280287	0.00299253	0.01005082	0.01042326	0.01361286	0.00641876	0.00654245	0.00367211	0.00695088	0.00551053	0.00266144	0.00375243	0.00250733	0.00225021	0.00157542	0.00264809	0.00453771	0.00315872	0.00567987	0.00290507	0.00083285	0.00438498	0.00105806	0.00304507
0.75000000	0.00327448	0.00507727	0.00316363	0.00273160	0.00295739	0.00979905	0.00983119	0.01478070	0.00621605	0.00716351	0.00284748	0.00582618	0.00508272	0.00232113	0.00352429	0.00242816	0.00192605	0.00152793	0.00262543	0.00449203	0.00319137	0.00561478	0.00289760	0.00097881	0.00420646	0.00106125	0.00319259
0.76000000	0.00170281	0.00468883	0.00341634	0.00323593	0.00322613	0.01095751	0.01107017	0.01406067	0.00636621	0.00706747	0.00384086	0.00478946	0.00497378	0.00178457	0.00340604	0.00211999	0.00151046	0.00142268	0.00258083	0.00480637	0.00317614	0.00540971	0.00272322	0.00072801	0.00423029	0.00073169	0.00347706
0.77000000	0.00305337	0.00419343	0.00318930	0.00318286	0.00319996	0.01062880	0.00999001	0.01511160	0.00625084	0.00748359	0.00358619	0.00366957	0.00464220	0.00206522	0.00307773	0.00187265	0.00141203	0.00133665	0.00251878	0.00480524	0.00317557	0.00530751	0.00281844	0.00088403	0.00430883	0.00090501	0.00340638
0.78000000	0.00272849	0.00378575	0.00299440	0.00311644	0.00308153	0.01045344	0.01011506	0.01543765	0.00610996	0.00769898	0.00363716	0.00317345	0.00448551	0.00192298	0.00279977	0.00165153	0.00106010	0.00127375	0.00244011	0.00477214	0.00320100	0.00531708	0.00269978	0.00095293	0.00415940	0.00086748	0.00357765
0.79000000	0.00216754	0.00308790	0.00297236	0.00340256	0.00316866	0.01108036	0.01081356	0.01491889	0.00625260	0.00746132	0.00366324	0.00259377	0.00445211	0.00184440	0.00258375	0.00158306	0.00086254	0.00119014	0.00240291	0.00496742	0.00318965	0.00523570	0.00260872	0.00085274	0.00433425	0.00079308	0.00373894
0.80000000	0.00315938	0.00299922	0.00267558	0.00316434	0.00297292	0.01072884	0.01051458	0.01535236	0.00598603	0.00767234	0.00372907	0.00199930	0.00415640	0.00245639	0.00248001	0.00153768	0.00072114	0.00111581	0.00233892	0.00492594	0.00321754	0.00517075	0.00258072	0.00087706	0.00425005	0.00079072	0.00386466
0.81000000	0.00350400	0.00253833	0.00244257	0.00301312	0.00278195	0.01052706	0.01069123	0.01552607	0.00586061	0.00769558	0.00371865	0.00186934	0.00402428	0.00270492	0.00232014	0.00159613	0.00073479	0.00110283	0.00229116	0.00492202	0.00325692	0.00521092	0.00249094	0.00087658	0.00429385	0.00074579	0.00394847
0.82000000	0.00372826	0.00216252	0.00235868	0.00303726	0.00269661	0.01093781	0.01146110	0.01511430	0.00593095	0.00741740	0.00321321	0.00195874	0.00412658	0.00242743	0.00211920	0.00197013	0.00076367	0.00104236	0.00223608	0.00495822	0.00323324	0.00522407	0.00244220	0.00082051	0.00443918	0.00070182	0.00408511
0.83000000	0.00466844	0.00190652	0.00215009	0.00274822	0.00248271	0.01053682	0.01137377	0.01564797	0.00569774	0.00746993	0.00353758	0.00206390	0.00391200	0.00284564	0.00214721	0.00186347	0.00076981	0.00103815	0.00222790	0.00493764	0.00329512	0.00524150	0.00235828	0.00078993	0.00441310	0.00068247	0.00412904
0.84000000	0.00502606	0.00176145	0.00220097	0.00264273	0.00235530	0.01092675	0.01223577	0.01537159	0.00585576	0.00719466	0.00310098	0.00260140	0.00399619	0.00251452	0.00193470	0.00229313	0.00092420	0.00103908	0.00214947	0.00494890	0.00329478	0.00534321	0.00228941	0.00070110	0.00448545	0.00061108	0.00423108
0.85000000	0.00578874	0.00152778	0.00222641	0.00245573	0.00228613	0.01059767	0.01223965	0.01608148	0.00570406	0.00727742	0.00368047	0.00280385	0.00397419	0.00271841	0.00201815	0.00211045	0.00092577	0.00103349	0.00205441	0.00491656	0.00329137	0.00534998	0.00229708	0.00069330	0.00442587	0.00058676	0.00424828
0.86000000	0.00626481	0.00160191	0.00236399	0.00228731	0.00218516	0.01091892	0.01303070	0.01605832	0.00593666	0.00707709	0.00346734	0.00353183	0.00398887	0.00249566	0.00187709	0.00248788	0.00098904	0.00105431	0.00207059	0.00493431	0.00330565	0.00544812	0.00220204	0.00061717	0.00454845	0.00053800	0.00425496
0.87000000	0.00693968	0.00131417	0.00258665	0.00191803	0.00202395	0.01117304	0.01373846	0.01616671	0.00629999	0.00711280	0.00381561	0.00430188	0.00392480	0.00249979	0.00187589	0.00267853	0.00153635	0.00113250	0.00241420	0.00487759	0.00345544	0.00550830	0.00199714	0.00049172	0.00460844	0.00062232	0.00432739
0.88000000	0.00715245	0.00172289	0.00266795	0.00200992	0.00210760	0.01137899	0.01436921	0.01651987	0.00644393	0.00699051	0.00371388	0.00505614	0.00385517	0.00245467	0.00170419	0.00296773	0.00135103	0.00105925	0.00204037	0.00493530	0.00327108	0.00559672	0.00211577	0.00055820	0.00458882	0.00043402	0.00428358
0.89000000	0.00746345	0.00170756	0.00276393	0.00193034	0.00211032	0.01151847	0.01483203	0.01704148	0.00667656	0.00708114	0.00408016	0.00558695	0.00377156	0.00259144	0.00166377	0.00298518	0.00147044	0.00108452	0.00207352	0.00487943	0.00330359	0.00560330	0.00215850	0.00055302	0.00454414	0.00037127	0.00424596
0.90000000	0.00766261	0.00175455	0.00276006	0.00201507	0.00211246	0.01147352	0.01511351	0.01782834	0.00680327	0.00728199	0.00489606	0.00530024	0.00375326	0.00314322	0.00176249	0.00266203	0.00110847	0.00105627	0.00212405	0.00490588	0.00329452	0.00553021	0.00221415	0.00054207	0.00449663	0.00043710	0.00419372
0.91000000	0.00763477	0.00168048	0.00284921	0.00197724	0.00209885	0.01177703	0.01557203	0.01834759	0.00715041	0.00744342	0.00508030	0.00572050	0.00363776	0.00322094	0.00175999	0.00280312	0.00135179	0.00102167	0.00214273	0.00489346	0.00326006	0.00555918	0.00221299	0.00059496	0.00447378	0.00038237	0.00407442
0.92000000	0.00765031	0.00192706	0.00285096	0.00212653	0.00207281	0.01212508	0.01611989	0.01868090	0.00745918	0.00751979	0.00518749	0.00591606	0.00347250	0.00346245	0.00163536	0.00290135	0.00117691	0.00103271	0.00212262	0.00496335	0.00319623	0.00555277	0.00224108	0.00050843	0.00443708	0.00040899	0.00401927
0.93000000	0.00758957	0.00186099	0.00290444	0.00216440	0.00209688	0.01237288	0.01619604	0.01940426	0.00773305	0.00779398	0.00559173	0.00604549	0.00336291	0.00360902	0.00174234	0.00292021	0.00154982	0.00098392	0.00218472	0.00495117	0.00318555	0.00556027	0.00229412	0.00064492	0.00440241	0.00032192	0.00383644
0.94000000	0.00750936	0.00198692	0.00293231	0.00226798	0.00212158	0.01272895	0.01628005	0.01999643	0.00792460	0.00797154	0.00585191	0.00620371	0.00324677	0.00374549	0.00172001	0.00297837	0.00159426	0.00100771	0.00214423	0.00501331	0.00315532	0.00558683	0.00233976	0.00069819	0.00426916	0.00026680	0.00371622
0.95000000	0.00740710	0.00274225	0.00305543	0.00263570	0.00222377	0.01327110	0.01669395	0.02002081	0.00813843	0.00790286	0.00585014	0.00637367	0.00303172	0.00396885	0.00153485	0.00308979	0.00145076	0.00106408	0.00220422	0.00511787	0.00312175	0.00561035	0.00229401	0.00059524	0.00424451	0.00023335	0.00362706
0.96000000	0.00725683	0.00309183	0.00316916	0.00277637	0.00229491	0.01382062	0.01670231	0.02032438	0.00828151	0.00790845	0.00604656	0.00649465	0.00297836	0.00408450	0.00151612	0.00311455	0.00137312	0.00102269	0.00237099	0.00511591	0.00313313	0.00564795	0.00228617	0.00067388	0.00412532	0.00038417	0.00357701
0.97000000	0.00713433	0.00300006	0.00323349	0.00279724	0.00236197	0.01431600	0.01630502	0.02091020	0.00827645	0.00799340	0.00637995	0.00659336	0.00330777	0.00411639	0.00169988	0.00297147	0.00173375	0.00102209	0.00226586	0.00512887	0.00305716	0.00568883	0.00239660	0.00089732	0.00415515	0.00034589	0.00315689
0.98000000	0.00709509	0.00380179	0.00345955	0.00323012	0.00257085	0.01477989	0.01625225	0.02066426	0.00830709	0.00778107	0.00621366	0.00674160	0.00301174	0.00444928	0.00139338	0.00329259	0.00136048	0.00108357	0.00220110	0.00527046	0.00297515	0.00574981	0.00230536	0.00078937	0.00397401	0.00018457	0.00319268
0.99000000	0.00711594	0.00415981	0.00357837	0.00343310	0.00267013	0.01535601	0.01597033	0.02043647	0.00828391	0.00758236	0.00608083	0.00689124	0.00310703	0.00460799	0.00136172	0.00336913	0.00152331	0.00112384	0.00222651	0.00534465	0.00293752	0.00581147	0.00226783	0.00079787	0.00401850	0.00017027	0.00295036
1.00000000	0.00710711	0.00445492	0.00365352	0.00352919	0.00273078	0.01574118	0.01543731	0.02025701	0.00814510	0.00741112	0.00596122	0.00701869	0.00327961	0.00472017	0.00132923	0.00348578	0.00150987	0.00114842	0.00217497	0.00539660	0.00286733	0.00590538	0.00223051	0.00087740	0.00394977	0.00015467	0.00281210
1.01000000	0.00714801	0.00472563	0.00369179	0.00358436	0.00275037	0.01605875	0.01482094	0.01987076	0.00795284	0.00722108	0.00569843	0.00714007	0.00352792	0.00480609	0.00130505	0.00362567	0.00160276	0.00121321	0.00209874	0.00544018	0.00281051	0.00600213	0.00217926	0.00092245	0.00390728	0.00013229	0.00262162
1.02000000	0.00704673	0.00463661	0.00355321	0.00329248	0.00258219	0.01630556	0.01377231	0.01971751	0.00773435	0.00714809	0.00545896	0.00726231	0.00419967	0.00479327	0.00147072	0.00355818	0.00180877	0.00117091	0.00223779	0.00537948	0.00281921	0.00609375	0.00220737	0.00113944	0.00390741	0.00031044	0.00240437
1.03000000	0.00721329	0.00519558	0.00364661	0.00353350	0.00267514	0.01618974	0.01319679	0.01878926	0.00740438	0.00687129	0.00498748	0.00730228	0.00406376	0.00506560	0.00125418	0.00410791	0.00163286	0.00119967	0.00204621	0.00548943	0.00271499	0.00617516	0.00207132	0.00105636	0.00377906	0.00012698	0.00235887
1.04000000	0.00753899	0.00552352	0.00363515	0.00351844	0.00262545	0.01625773	0.01245657	0.01758369	0.00708112	0.00659122	0.00437424	0.00751508	0.00434010	0.00510617	0.00126670	0.00422996	0.00203584	0.00128959	0.00206939	0.00555876	0.00270509	0.00629371	0.00201338	0.00104891	0.00394565	0.00017112	0.00217994
1.05000000	0.00746229	0.00560705	0.00355619	0.00324907	0.00248285	0.01598418	0.01139818	0.01684793	0.00666175	0.00643207	0.00391324	0.00767539	0.00461851	0.00526772	0.00128751	0.00462060	0.00202910	0.00136283	0.00202688	0.00550160	0.00269003	0.00639673	0.00198912	0.00117145	0.00386997	0.00015487	0.00200052
1.06000000	0.00754382	0.00607679	0.00347700	0.00318749	0.00238189	0.01560331	0.01060596	0.01550575	0.00619382	0.00615448	0.00334601	0.00789363	0.00498632	0.00534313	0.00130884	0.00477063	0.00216407	0.00133163	0.00195629	0.00560740	0.00261162	0.00650098	0.00188756	0.00114881	0.00391222	0.00007141	0.00201016
1.07000000	0.00743134	0.00605452	0.00345687	0.00281353	0.00222537	0.01519093	0.00954992	0.01437817	0.00576411	0.00596371	0.00278076	0.00820519	0.00536947	0.00545040	0.00138869	0.00509577	0.00240021	0.00141123	0.00195691	0.00553592	0.00260125	0.00659190	0.00186561	0.00127204	0.00389409	0.00013669	0.00180309
1.08000000	0.00740030	0.00637431	0.00353089	0.00264929	0.00218294	0.01459664	0.00884814	0.01280731	0.00524967	0.00552001	0.00229576	0.00841882	0.00558602	0.00565736	0.00139898	0.00544270	0.00247958	0.00151396	0.00186696	0.00554959	0.00256410	0.00669641	0.00179490	0.00130007	0.00386151	0.00017828	0.00171552
1.09000000	0.00715610	0.00643656	0.00360498	0.00219775	0.00210788	0.01405842	0.00779810	0.01138083	0.00476651	0.00537113	0.00199637	0.00878068	0.00610280	0.00572679	0.00149262	0.00556298	0.00270776	0.00156847	0.00193266	0.00551219	0.00259991	0.00682906	0.00177853	0.00138185	0.00384151	0.00028493	0.00163833
1.10000000	0.00690248	0.00670350	0.00379990	0.00192044	0.00216970	0.01359232	0.00727857	0.00956807	0.00423627	0.00462782	0.00161674	0.00890915	0.00623262	0.00609095	0.00150027	0.00595186	0.00266021	0.00156761	0.00197400	0.00548543	0.00255218	0.00691157	0.00175515	0.00151614	0.00387121	0.00015650	0.00155606
1.11000000	0.00771853	0.00698504	0.00365795	0.00206751	0.00211653	0.01307419	0.00609294	0.00602139	0.00381463	0.00406759	0.00091292	0.00926616	0.00634304	0.00628472	0.00154791	0.00601020	0.00288687	0.00153214	0.00203848	0.00579202	0.00262524	0.00676005	0.00193497	0.00141597	0.00414670	0.00018044	0.00153512
1.12000000	0.00746239	0.00718935	0.00382152	0.00184824	0.00217155	0.01264909	0.00540460	0.00415099	0.00321982	0.00358764	0.00076013	0.00938806	0.00657674	0.00643265	0.00158092	0.00623401	0.00300600	0.00166791	0.00198088	0.00579373	0.00257240	0.00680149	0.00189640	0.00150253	0.00411008	0.00009480	0.00151121
1.13000000	0.00732209	0.00717282	0.00423266	0.00147476	0.00249480	0.01278443	0.00453629	0.00332110	0.00257970	0.00344243	0.00093849	0.00952118	0.00686861	0.00639671	0.00154976	0.00649447	0.00298337	0.00165649	0.00217401	0.00564480	0.00258019	0.00690244	0.00188829	0.00176557	0.00393932	0.00033071	0.00137670
1.14000000	0.00780457	0.00729324	0.00414667	0.00147272	0.00243913	0.01267733	0.00363678	0.00310385	0.00216559	0.00349462	0.00089522	0.00966781	0.00685683	0.00641159	0.00153208	0.00665212	0.00310356	0.00174599	0.00214268	0.00586087	0.00260396	0.00681049	0.00194518	0.00173097	0.00400482	0.00021134	0.00130913
1.15000000	0.00770684	0.00740645	0.00445844	0.00139865	0.00264757	0.01345363	0.00314529	0.00488210	0.00164578	0.00353429	0.00102695	0.00954385	0.00703347	0.00632532	0.00154484	0.00677938	0.00331874	0.00183141	0.00220277	0.00587101	0.00260477	0.00686721	0.00192586	0.00181765	0.00387693	0.00022513	0.00124476
1.16000000	0.00801747	0.00740690	0.00470540	0.00146060	0.00288837	0.01420479	0.00267114	0.00704724	0.00127841	0.00388833	0.00143143	0.00949925	0.00705901	0.00613546	0.00145918	0.00699566	0.00339346	0.00189551	0.00232507	0.00587758	0.00259851	0.00686129	0.00192019	0.00197319	0.00373221	0.00037817	0.00109523
1.17000000	0.00842563	0.00763742	0.00505941	0.00176476	0.00323903	0.01572446	0.00264059	0.00821373	0.00089349	0.00392314	0.00170047	0.00927621	0.00748299	0.00592409	0.00126230	0.00689684	0.00336054	0.00199138	0.00244232	0.00585511	0.00255743	0.00687431	0.00192158	0.00212546	0.00361376	0.00045857	0.00105023
1.18000000	0.00858830	0.00739708	0.00557361	0.00202142	0.00368684	0.01703414	0.00170903	0.00969632	0.00083405	0.00362256	0.00200623	0.00908921	0.00740933	0.00588510	0.00136878	0.00748283	0.00328703	0.00214290	0.00266540	0.00573526	0.00253671	0.00693309	0.00178901	0.00240300	0.00319357	0.00061531	0.00078740
1.19000000	0.00844053	0.00744458	0.00547346	0.00196053	0.00361525	0.01701638	0.00230572	0.01191261	0.00128034	0.00441891	0.00241823	0.00896864	0.00732003	0.00545987	0.00115571	0.00732639	0.00343184	0.00216362	0.00280968	0.00588917	0.00258355	0.00687315	0.00187239	0.00234540	0.00308654	0.00071073	0.00079253
1.20000000	0.00883809	0.00739035	0.00572891	0.00219543	0.00388863	0.01769992	0.00254548	0.01228323	0.00159471	0.00410342	0.00268137	0.00881480	0.00744231	0.00534975	0.00111045	0.00742800	0.00348197	0.00240628	0.00289837	0.00587295	0.00248603	0.00689713	0.00173625	0.00264323	0.00283094	0.00085478	0.00056047
1.21000000	0.00916887	0.00752086	0.00596879	0.00249776	0.00415853	0.01804833	0.00297106	0.01229141	0.00184025	0.00363635	0.00280510	0.00869484	0.00779073	0.00516830	0.00095807	0.00713366	0.00358961	0.00260512	0.00307381	0.00585118	0.00243755	0.00690845	0.00167441	0.00283249	0.00262189	0.00107016	0.00030128
1.22000000	0.00840935	0.00709000	0.00581306	0.00231938	0.00405562	0.01748259	0.00320050	0.01315825	0.00235143	0.00379346	0.00332219	0.00854891	0.00751098	0.00502282	0.00082565	0.00737206	0.00345130	0.00264097	0.00334877	0.00591418	0.00246810	0.00689888	0.00164456	0.00295547	0.00226848	0.00113826	0.00030255
1.23000000	0.00872875	0.00714121	0.00593792	0.00260209	0.00425654	0.01675783	0.00353915	0.01272401	0.00252885	0.00318518	0.00365120	0.00855201	0.00776025	0.00488741	0.00071235	0.00707837	0.00356247	0.00283817	0.00363802	0.00586037	0.00243565	0.00687416	0.00157071	0.00317514	0.00194747	0.00153621	0.00029891
1.24000000	0.00864809	0.00712431	0.00593441	0.00269089	0.00430065	0.01589703	0.00396387	0.01205755	0.00282199	0.00270320	0.00389109	0.00845825	0.00804933	0.00477434	0.00079159	0.00678555	0.00348489	0.00298529	0.00384527	0.00589483	0.00239954	0.00686114	0.00154398	0.00328747	0.00171472	0.00168069	0.00044466
1.25000000	0.00769712	0.00648736	0.00573317	0.00266647	0.00421670	0.01472198	0.00446571	0.01174956	0.00319133	0.00277885	0.00406914	0.00845422	0.00791498	0.00459654	0.00070509	0.00697308	0.00320554	0.00309550	0.00414887	0.00586899	0.00236248	0.00687042	0.00150248	0.00348392	0.00135254	0.00173365	0.00031393
1.26000000	0.00798076	0.00648887	0.00550489	0.00267473	0.00411018	0.01295544	0.00482688	0.01128202	0.00324919	0.00238063	0.00439811	0.00844945	0.00797892	0.00467685	0.00083810	0.00661908	0.00297222	0.00338718	0.00443641	0.00580321	0.00234613	0.00677988	0.00162495	0.00375642	0.00100130	0.00225555	0.00081576
1.27000000	0.00680627	0.00569131	0.00539660	0.00290992	0.00415876	0.01182353	0.00529491	0.01063688	0.00352498	0.00246119	0.00410347	0.00852080	0.00816372	0.00404346	0.00091110	0.00642412	0.00302840	0.00338973	0.00479291	0.00571923	0.00235131	0.00688555	0.00160408	0.00379159	0.00080453	0.00214253	0.00075129
1.28000000	0.00634469	0.00520595	0.00525593	0.00311917	0.00417632	0.01025469	0.00554419	0.01013472	0.00354462	0.00241731	0.00400173	0.00864676	0.00825907	0.00366236	0.00111676	0.00609571	0.00294351	0.00344183	0.00520051	0.00559443	0.00236363	0.00692935	0.00168375	0.00392012	0.00062309	0.00233376	0.00100387
1.29000000	0.00555667	0.00492410	0.00546747	0.00351781	0.00447675	0.00984624	0.00511264	0.00891502	0.00307883	0.00220362	0.00328656	0.00867136	0.00821977	0.00292940	0.00128429	0.00592082	0.00283533	0.00355738	0.00573748	0.00522569	0.00242453	0.00716436	0.00169816	0.00411899	0.00067770	0.00254358	0.00125538
1.30000000	0.00530456	0.00438494	0.00522772	0.00370337	0.00442706	0.00807828	0.00565660	0.00835935	0.00309176	0.00222917	0.00292184	0.00907944	0.00831621	0.00246315	0.00160467	0.00539772	0.00272693	0.00363024	0.00610588	0.00505732	0.00245620	0.00722144	0.00193964	0.00420202	0.00087908	0.00269427	0.00145327
1.31000000	0.00474712	0.00423033	0.00520748	0.00390813	0.00449467	0.00711683	0.00552548	0.00734207	0.00273482	0.00226313	0.00222551	0.00940179	0.00837482	0.00189860	0.00184458	0.00507886	0.00244522	0.00369545	0.00652745	0.00477252	0.00250763	0.00740128	0.00215184	0.00430710	0.00111750	0.00286389	0.00172478
1.32000000	0.00457349	0.00391069	0.00494008	0.00403486	0.00439670	0.00514359	0.00602318	0.00664034	0.00257847	0.00221336	0.00196595	0.00997624	0.00820884	0.00149079	0.00225871	0.00439812	0.00233102	0.00366566	0.00687727	0.00457997	0.00256748	0.00747793	0.00241415	0.00428598	0.00130509	0.00293899	0.00189044
1.33000000	0.00392106	0.00408913	0.00492989	0.00422140	0.00444851	0.00420953	0.00566214	0.00531913	0.00222276	0.00222157	0.00126431	0.01032296	0.00808305	0.00130154	0.00261158	0.00393756	0.00195218	0.00361798	0.00731183	0.00424134	0.00264415	0.00772143	0.00259175	0.00429847	0.00154728	0.00298333	0.00208659
1.34000000	0.00371841	0.00399449	0.00456055	0.00426175	0.00425131	0.00246237	0.00613423	0.00433493	0.00211902	0.00193142	0.00124235	0.01090149	0.00755151	0.00148525	0.00308555	0.00316684	0.00175711	0.00352999	0.00757352	0.00406636	0.00270547	0.00781459	0.00291303	0.00418607	0.00168052	0.00299593	0.00222033
1.35000000	0.00346475	0.00414754	0.00419043	0.00427028	0.00402719	0.00239558	0.00655185	0.00318330	0.00195446	0.00162072	0.00165802	0.01130157	0.00680983	0.00193529	0.00353269	0.00241638	0.00152395	0.00346905	0.00778009	0.00386467	0.00278151	0.00789009	0.00314946	0.00410021	0.00180681	0.00304514	0.00220712
1.36000000	0.00273515	0.00486310	0.00412027	0.00443296	0.00399472	0.00273714	0.00557221	0.00166577	0.00220889	0.00189102	0.00164753	0.01133646	0.00622339	0.00257545	0.00393132	0.00190989	0.00103090	0.00315116	0.00811251	0.00362503	0.00279262	0.00822813	0.00330456	0.00384217	0.00186917	0.00280452	0.00242602
1.37000000	0.00268083	0.00494041	0.00370026	0.00436153	0.00372183	0.00455391	0.00615927	0.00073485	0.00224469	0.00160901	0.00201461	0.01145127	0.00475380	0.00308966	0.00443644	0.00105187	0.00073269	0.00302745	0.00814453	0.00352076	0.00282258	0.00831108	0.00355464	0.00369596	0.00184659	0.00273382	0.00236345
1.38000000	0.00249856	0.00524126	0.00333495	0.00435077	0.00348311	0.00600854	0.00623921	0.00085569	0.00233599	0.00145391	0.00242017	0.01125509	0.00343235	0.00380904	0.00492697	0.00045982	0.00086222	0.00280935	0.00819432	0.00338473	0.00282412	0.00841813	0.00377254	0.00339572	0.00171594	0.00248223	0.00238545
1.39000000	0.00291263	0.00587825	0.00311043	0.00443359	0.00332434	0.00638090	0.00542021	0.00145161	0.00286707	0.00160149	0.00276100	0.01055504	0.00217243	0.00466096	0.00527661	0.00092622	0.00116418	0.00251916	0.00826521	0.00326388	0.00278869	0.00860798	0.00386173	0.00306314	0.00160070	0.00229120	0.00235754
1.40000000	0.00308986	0.00580438	0.00281378	0.00431780	0.00311614	0.00666409	0.00592094	0.00215981	0.00283928	0.00150016	0.00308921	0.00995979	0.00163561	0.00521823	0.00566511	0.00161508	0.00163611	0.00220517	0.00817394	0.00327559	0.00271055	0.00866385	0.00385940	0.00275942	0.00150515	0.00208002	0.00211097
1.41000000	0.00348233	0.00603590	0.00247203	0.00422404	0.00285719	0.00631892	0.00561351	0.00197473	0.00285699	0.00169855	0.00307257	0.00915050	0.00299829	0.00592135	0.00598529	0.00237765	0.00216295	0.00203502	0.00805956	0.00321808	0.00264971	0.00868341	0.00408655	0.00241822	0.00122987	0.00177981	0.00205721
1.42000000	0.00408755	0.00626306	0.00222927	0.00420003	0.00269378	0.00535214	0.00504657	0.00132406	0.00299023	0.00164227	0.00296053	0.00818365	0.00475986	0.00682609	0.00623119	0.00302284	0.00261291	0.00173476	0.00794817	0.00325376	0.00253506	0.00872577	0.00414417	0.00201949	0.00098531	0.00154113	0.00195991
1.43000000	0.00475630	0.00624606	0.00211731	0.00416225	0.00261492	0.00438615	0.00442159	0.00048177	0.00304651	0.00140038	0.00268158	0.00703423	0.00663781	0.00794459	0.00644571	0.00354584	0.00290963	0.00156724	0.00780693	0.00321836	0.00243447	0.00876362	0.00413750	0.00165956	0.00086540	0.00122875	0.00174800
1.44000000	0.00497543	0.00582737	0.00220685	0.00394035	0.00256391	0.00439819	0.00453409	0.00118810	0.00300826	0.00162671	0.00282849	0.00643094	0.00870348	0.00897897	0.00645171	0.00431487	0.00321616	0.00134243	0.00764409	0.00322280	0.00236648	0.00879241	0.00400157	0.00146585	0.00087372	0.00119810	0.00145700
1.45000000	0.00485847	0.00529727	0.00234840	0.00371449	0.00251288	0.00501534	0.00455306	0.00359081	0.00251212	0.00135818	0.00186444	0.00502764	0.01040523	0.01106948	0.00618726	0.00436027	0.00294878	0.00129087	0.00742013	0.00316737	0.00231833	0.00878071	0.00406256	0.00129766	0.00078666	0.00104302	0.00128463
1.46000000	0.00538832	0.00530346	0.00251833	0.00347975	0.00248305	0.00675699	0.00457249	0.00524815	0.00227662	0.00182342	0.00143971	0.00516231	0.01141146	0.01254882	0.00618389	0.00485563	0.00278607	0.00126647	0.00725213	0.00308289	0.00229725	0.00875842	0.00413782	0.00119355	0.00076100	0.00092970	0.00113298
1.47000000	0.00592516	0.00536539	0.00271569	0.00330080	0.00250098	0.00885369	0.00452113	0.00691084	0.00208669	0.00229310	0.00108048	0.00584590	0.01218359	0.01401104	0.00615369	0.00521666	0.00256977	0.00117084	0.00708628	0.00307644	0.00224386	0.00871366	0.00419078	0.00108470	0.00076755	0.00085502	0.00099515
1.48000000	0.00645033	0.00532211	0.00294802	0.00316675	0.00256010	0.01076401	0.00446398	0.00854529	0.00185818	0.00262833	0.00103597	0.00681654	0.01280706	0.01548019	0.00605492	0.00549450	0.00228482	0.00107292	0.00695907	0.00299126	0.00224858	0.00866832	0.00409506	0.00105963	0.00089117	0.00080340	0.00074450
1.49000000	0.00658419	0.00484208	0.00323575	0.00282456	0.00254265	0.01204936	0.00481659	0.00993533	0.00169640	0.00304212	0.00048172	0.00705893	0.01345236	0.01726978	0.00574381	0.00581841	0.00175873	0.00099425	0.00673348	0.00286987	0.00226584	0.00865629	0.00416642	0.00115410	0.00094599	0.00087034	0.00057833
1.50000000	0.00652435	0.00424235	0.00359144	0.00254055	0.00259777	0.01274288	0.00516473	0.01118155	0.00150850	0.00338471	0.00045909	0.00760175	0.01416886	0.01864089	0.00552359	0.00610297	0.00131956	0.00089129	0.00655072	0.00276292	0.00228147	0.00863398	0.00406360	0.00118395	0.00106812	0.00086351	0.00035315
1.51000000	0.00653938	0.00406985	0.00387612	0.00250276	0.00275843	0.01359873	0.00510949	0.01175225	0.00165333	0.00337165	0.00051475	0.00900092	0.01472801	0.01932160	0.00561752	0.00616910	0.00135772	0.00078921	0.00640166	0.00273236	0.00227988	0.00855151	0.00400603	0.00112648	0.00116600	0.00087046	0.00029350
1.52000000	0.00648159	0.00393986	0.00418690	0.00254246	0.00296350	0.01379546	0.00510162	0.01213094	0.00171145	0.00336928	0.00044827	0.01000220	0.01513450	0.01992680	0.00582197	0.00646332	0.00142107	0.00060592	0.00627818	0.00273949	0.00230504	0.00842344	0.00384049	0.00115025	0.00132900	0.00089704	0.00004958
1.53000000	0.00684523	0.00404310	0.00415246	0.00240945	0.00288540	0.01313473	0.00497040	0.01231779	0.00137669	0.00347288	0.00044341	0.00979287	0.01505980	0.02125359	0.00572134	0.00688212	0.00112062	0.00064824	0.00599505	0.00255859	0.00233355	0.00845398	0.00401915	0.00131857	0.00139076	0.00079719	0.00021862
1.54000000	0.00627652	0.00345349	0.00459786	0.00238490	0.00313724	0.01265081	0.00518723	0.01211672	0.00153026	0.00329432	0.00033068	0.01036955	0.01607585	0.02139171	0.00598004	0.00692070	0.00168870	0.00052810	0.00581906	0.00256919	0.00234777	0.00836818	0.00388847	0.00131759	0.00158350	0.00072983	0.00034954
1.55000000	0.00636048	0.00356384	0.00451530	0.00226745	0.00303728	0.01161539	0.00503455	0.01184007	0.00145907	0.00320043	0.00045017	0.01005367	0.01602057	0.02245126	0.00617359	0.00734338	0.00150690	0.00044123	0.00563301	0.00244655	0.00239093	0.00839355	0.00391144	0.00148994	0.00166311	0.00069556	0.00050534
1.56000000	0.00581968	0.00300568	0.00493088	0.00222881	0.00324839	0.01074717	0.00533712	0.01141586	0.00159165	0.00305394	0.00041056	0.01018208	0.01719510	0.02247524	0.00640780	0.00733405	0.00205341	0.00037608	0.00546957	0.00241007	0.00245587	0.00832548	0.00374395	0.00152782	0.00189444	0.00059039	0.00075672
1.57000000	0.00537087	0.00279776	0.00514554	0.00222535	0.00336976	0.00978609	0.00535042	0.01110041	0.00171505	0.00284323	0.00070056	0.01012657	0.01787227	0.02282934	0.00669569	0.00751509	0.00209027	0.00027377	0.00521659	0.00250314	0.00239830	0.00829122	0.00375652	0.00162250	0.00203504	0.00047242	0.00090643
1.58000000	0.00517250	0.00259601	0.00522296	0.00209966	0.00335153	0.00891889	0.00542708	0.01065820	0.00185930	0.00275020	0.00082034	0.00996844	0.01866188	0.02316136	0.00692567	0.00764175	0.00222308	0.00035587	0.00514362	0.00236541	0.00250982	0.00829164	0.00371057	0.00170527	0.00212426	0.00044378	0.00103615
1.59000000	0.00496634	0.00253232	0.00530097	0.00204397	0.00336825	0.00828681	0.00549353	0.01027321	0.00195312	0.00256111	0.00102669	0.00974985	0.01938456	0.02352645	0.00715041	0.00781031	0.00230902	0.00035799	0.00495747	0.00239576	0.00247358	0.00829425	0.00379101	0.00182679	0.00223517	0.00033203	0.00108957
1.60000000	0.00530291	0.00318460	0.00509346	0.00199249	0.00323614	0.00800421	0.00545349	0.00963305	0.00213063	0.00241598	0.00113694	0.00986808	0.01992514	0.02385142	0.00744822	0.00800795	0.00243154	0.00043433	0.00487627	0.00229088	0.00248704	0.00833027	0.00395430	0.00189145	0.00219685	0.00028760	0.00119764
1.61000000	0.00493227	0.00266041	0.00521760	0.00179439	0.00319190	0.00776230	0.00553270	0.00946822	0.00227407	0.00240496	0.00129887	0.00994193	0.02104855	0.02395922	0.00756934	0.00802226	0.00253483	0.00041974	0.00475869	0.00228714	0.00247839	0.00838934	0.00389412	0.00203181	0.00228447	0.00051914	0.00131393
1.62000000	0.00483727	0.00266637	0.00526484	0.00172402	0.00317360	0.00770196	0.00554965	0.00937857	0.00236882	0.00243938	0.00145168	0.01029793	0.02194512	0.02401417	0.00777517	0.00811178	0.00251778	0.00042128	0.00469780	0.00228921	0.00246911	0.00841152	0.00391878	0.00213070	0.00231498	0.00070135	0.00139357
1.63000000	0.00530258	0.00382301	0.00526176	0.00206565	0.00333344	0.00796441	0.00542403	0.00920753	0.00246322	0.00243391	0.00163410	0.01104835	0.02274005	0.02362390	0.00813074	0.00797440	0.00254032	0.00047340	0.00469835	0.00230092	0.00245860	0.00831566	0.00419840	0.00209082	0.00223603	0.00095186	0.00138985
1.64000000	0.00511111	0.00356981	0.00535125	0.00191986	0.00328640	0.00824995	0.00559498	0.00927824	0.00244407	0.00251153	0.00173154	0.01154910	0.02354208	0.02360710	0.00821374	0.00794489	0.00256095	0.00044526	0.00464567	0.00231674	0.00242988	0.00837798	0.00417972	0.00218005	0.00221410	0.00112199	0.00146547
1.65000000	0.00546280	0.00417267	0.00558643	0.00234080	0.00360144	0.00857088	0.00530206	0.00972388	0.00247011	0.00264444	0.00169239	0.01229060	0.02425653	0.02299498	0.00845108	0.00758085	0.00265354	0.00050049	0.00473537	0.00239771	0.00244532	0.00824540	0.00431921	0.00213971	0.00212696	0.00138352	0.00145472
1.66000000	0.00539929	0.00425048	0.00567027	0.00230864	0.00361188	0.00912594	0.00560725	0.00981731	0.00243346	0.00279061	0.00165167	0.01283539	0.02454147	0.02292187	0.00854881	0.00764574	0.00252852	0.00052746	0.00468467	0.00242051	0.00237354	0.00828878	0.00447085	0.00216023	0.00204049	0.00155513	0.00143122
1.67000000	0.00557089	0.00438880	0.00589100	0.00246791	0.00377863	0.00957343	0.00552130	0.01042404	0.00238547	0.00292981	0.00150411	0.01349448	0.02469163	0.02253897	0.00862214	0.00750119	0.00254836	0.00054986	0.00467483	0.00249548	0.00232732	0.00825335	0.00454579	0.00219728	0.00196853	0.00167956	0.00147019
1.68000000	0.00555735	0.00460384	0.00594723	0.00243744	0.00375712	0.01018850	0.00599158	0.01069430	0.00223802	0.00297531	0.00153049	0.01407110	0.02444078	0.02240637	0.00872581	0.00761563	0.00245982	0.00053489	0.00473005	0.00248327	0.00227111	0.00832310	0.00468742	0.00230035	0.00178018	0.00171418	0.00141731
1.69000000	0.00576890	0.00444012	0.00629080	0.00264045	0.00402662	0.01067600	0.00570493	0.01160762	0.00235205	0.00327480	0.00105038	0.01457590	0.02398360	0.02209155	0.00873139	0.00749625	0.00262025	0.00081838	0.00460848	0.00262304	0.00216224	0.00830801	0.00485035	0.00213345	0.00168967	0.00198779	0.00142414
1.70000000	0.00632042	0.00522741	0.00619439	0.00272897	0.00398205	0.01159228	0.00704344	0.01126507	0.00192165	0.00284961	0.00146082	0.01518393	0.02322668	0.02187380	0.00860917	0.00775780	0.00240166	0.00082259	0.00510961	0.00244365	0.00224672	0.00848521	0.00479131	0.00216977	0.00142878	0.00203195	0.00122714
1.71000000	0.00610624	0.00459784	0.00664566	0.00282562	0.00425726	0.01202900	0.00629345	0.01283561	0.00228469	0.00335183	0.00075513	0.01561452	0.02268387	0.02127424	0.00830703	0.00714370	0.00233846	0.00080577	0.00495702	0.00266006	0.00211678	0.00838693	0.00493731	0.00222364	0.00121815	0.00203208	0.00126833
1.72000000	0.00625574	0.00502569	0.00663281	0.00275775	0.00419067	0.01266199	0.00698614	0.01326115	0.00229554	0.00337300	0.00107975	0.01614110	0.02158132	0.02092475	0.00810362	0.00713487	0.00215116	0.00085961	0.00515351	0.00259130	0.00210100	0.00850892	0.00506903	0.00226774	0.00100465	0.00204095	0.00106766
1.73000000	0.00685156	0.00602302	0.00646384	0.00280262	0.00410556	0.01345813	0.00833266	0.01312823	0.00219300	0.00311792	0.00157608	0.01662173	0.02006319	0.02066118	0.00773474	0.00748340	0.00203317	0.00096317	0.00551459	0.00244736	0.00209918	0.00872573	0.00528632	0.00229693	0.00097639	0.00206794	0.00083924
1.74000000	0.00670897	0.00449242	0.00713559	0.00288647	0.00448596	0.01370742	0.00721933	0.01503632	0.00257669	0.00371259	0.00067478	0.01686000	0.01937687	0.01950434	0.00707345	0.00656983	0.00189773	0.00109570	0.00530406	0.00267511	0.00195864	0.00869014	0.00513454	0.00216466	0.00061920	0.00222155	0.00103580
1.75000000	0.00688259	0.00445279	0.00730916	0.00288684	0.00455988	0.01415105	0.00765963	0.01574536	0.00271541	0.00383274	0.00073580	0.01720903	0.01806314	0.01859136	0.00649627	0.00624194	0.00165187	0.00116204	0.00545256	0.00270202	0.00190893	0.00879749	0.00513061	0.00218943	0.00061213	0.00223265	0.00091382
1.76000000	0.00709487	0.00434688	0.00743801	0.00283618	0.00458511	0.01445400	0.00806280	0.01643622	0.00287326	0.00399515	0.00082682	0.01748058	0.01661594	0.01765608	0.00582242	0.00593662	0.00139467	0.00127121	0.00556093	0.00269077	0.00185101	0.00894605	0.00516113	0.00217781	0.00054437	0.00228489	0.00086458
1.77000000	0.00723547	0.00421344	0.00748285	0.00270022	0.00452857	0.01469693	0.00844801	0.01703888	0.00308741	0.00418992	0.00083172	0.01765549	0.01505456	0.01675304	0.00507792	0.00566021	0.00117767	0.00133845	0.00566682	0.00265498	0.00178437	0.00912911	0.00524410	0.00215644	0.00060351	0.00234461	0.00078463
1.78000000	0.00740673	0.00405070	0.00748642	0.00252272	0.00442884	0.01484057	0.00884013	0.01757925	0.00329597	0.00434860	0.00086950	0.01776650	0.01348467	0.01571768	0.00425771	0.00540621	0.00099223	0.00140440	0.00583503	0.00259930	0.00174673	0.00933498	0.00523118	0.00218751	0.00079279	0.00236901	0.00065860
1.79000000	0.00753242	0.00385210	0.00753440	0.00234243	0.00435593	0.01504997	0.00932927	0.01798512	0.00349663	0.00446022	0.00104555	0.01784032	0.01190980	0.01440119	0.00348172	0.00505564	0.00064002	0.00148616	0.00588130	0.00257290	0.00169166	0.00948999	0.00527147	0.00218994	0.00090829	0.00242028	0.00059389
1.80000000	0.00754964	0.00397127	0.00710599	0.00176076	0.00387529	0.01513578	0.00980216	0.01822054	0.00373190	0.00467649	0.00101351	0.01782011	0.01017085	0.01361466	0.00276705	0.00487323	0.00035895	0.00140027	0.00615780	0.00241537	0.00170513	0.00978408	0.00526670	0.00221483	0.00116440	0.00243548	0.00055568
1.81000000	0.00763557	0.00329367	0.00720006	0.00165064	0.00380830	0.01505748	0.00992152	0.01879492	0.00405183	0.00495188	0.00106849	0.01749493	0.00893617	0.01190819	0.00209627	0.00436181	0.00067206	0.00148720	0.00613516	0.00239633	0.00162414	0.00996891	0.00533067	0.00221044	0.00118883	0.00250266	0.00054578
1.82000000	0.00762702	0.00310175	0.00691886	0.00129650	0.00345342	0.01509739	0.01027988	0.01907866	0.00430621	0.00512793	0.00116650	0.01716095	0.00756653	0.01033055	0.00171091	0.00386103	0.00078130	0.00145983	0.00629727	0.00229376	0.00162215	0.01019541	0.00535519	0.00223803	0.00137477	0.00253015	0.00048174
1.83000000	0.00777703	0.00293199	0.00669767	0.00112463	0.00320463	0.01520591	0.01083483	0.01923482	0.00443903	0.00508526	0.00136515	0.01668037	0.00625273	0.00830485	0.00157352	0.00316743	0.00094563	0.00153405	0.00637626	0.00229188	0.00155362	0.01039515	0.00536365	0.00224337	0.00147549	0.00258865	0.00042812
1.84000000	0.00787863	0.00335794	0.00629295	0.00101538	0.00288345	0.01526686	0.01126302	0.01942039	0.00462195	0.00513988	0.00159958	0.01614137	0.00450762	0.00608346	0.00165168	0.00239940	0.00099403	0.00155029	0.00650024	0.00223998	0.00155319	0.01051567	0.00550697	0.00230647	0.00161557	0.00259217	0.00037453
1.85000000	0.00781545	0.00350448	0.00585350	0.00109813	0.00247764	0.01540703	0.01187560	0.01949856	0.00481925	0.00515021	0.00180492	0.01547438	0.00347579	0.00401168	0.00177359	0.00176228	0.00105470	0.00147956	0.00655716	0.00223600	0.00151147	0.01067262	0.00560242	0.00243507	0.00174775	0.00252866	0.00034834
1.86000000	0.00792504	0.00389244	0.00524975	0.00161625	0.00205981	0.01516836	0.01227123	0.01972921	0.00499869	0.00526652	0.00181849	0.01508174	0.00292027	0.00272230	0.00193636	0.00142714	0.00111924	0.00145225	0.00675348	0.00211333	0.00154341	0.01090044	0.00554858	0.00235832	0.00187261	0.00261388	0.00032121
1.87000000	0.00793342	0.00499885	0.00464111	0.00199094	0.00179358	0.01514537	0.01280012	0.01982337	0.00514253	0.00527891	0.00205695	0.01476045	0.00291382	0.00348950	0.00240689	0.00219679	0.00135901	0.00140206	0.00685549	0.00210075	0.00155454	0.01093139	0.00564260	0.00246574	0.00199722	0.00254517	0.00023821
1.88000000	0.00802682	0.00606444	0.00389826	0.00268859	0.00168061	0.01503008	0.01322631	0.01980355	0.00524416	0.00527650	0.00205280	0.01527193	0.00374639	0.00594308	0.00291722	0.00307863	0.00161918	0.00126551	0.00698022	0.00204205	0.00158438	0.01108966	0.00567622	0.00254689	0.00212769	0.00246511	0.00020597
1.89000000	0.00813649	0.00752612	0.00318822	0.00339298	0.00193645	0.01484986	0.01356457	0.01973449	0.00526532	0.00528296	0.00204626	0.01631351	0.00507234	0.00853080	0.00368188	0.00406327	0.00222720	0.00114250	0.00710072	0.00198774	0.00162298	0.01118205	0.00570194	0.00265246	0.00228538	0.00235815	0.00014108
1.90000000	0.00814544	0.00907577	0.00263529	0.00415424	0.00243824	0.01460408	0.01370953	0.01966493	0.00528481	0.00538267	0.00199915	0.01852007	0.00605952	0.01081537	0.00445413	0.00477958	0.00317981	0.00093748	0.00719149	0.00188404	0.00170046	0.01122776	0.00575162	0.00279159	0.00245742	0.00221688	0.00013504
1.91000000	0.00821637	0.01068792	0.00246005	0.00493909	0.00316180	0.01436478	0.01382051	0.01945382	0.00522529	0.00525118	0.00203597	0.02118391	0.00697936	0.01282978	0.00537552	0.00534680	0.00471906	0.00084434	0.00731197	0.00183624	0.00177508	0.01127276	0.00561628	0.00300233	0.00258072	0.00197456	0.00006177
1.92000000	0.00827931	0.01184182	0.00266944	0.00562682	0.00377627	0.01374957	0.01362922	0.01950537	0.00505995	0.00513040	0.00212777	0.02491176	0.00733359	0.01440329	0.00618244	0.00579959	0.00625599	0.00074512	0.00716263	0.00179555	0.00178361	0.01120657	0.00555791	0.00322731	0.00255582	0.00168543	0.00029606
1.93000000	0.00820108	0.01341716	0.00305083	0.00616000	0.00441452	0.01367523	0.01380791	0.01891813	0.00503250	0.00521605	0.00187579	0.02707621	0.00751001	0.01561662	0.00687331	0.00619861	0.00733301	0.00090944	0.00742626	0.00176654	0.00192154	0.01115493	0.00548121	0.00344957	0.00291256	0.00143327	0.00039762
1.94000000	0.00818281	0.01448385	0.00358296	0.00656629	0.00490579	0.01350207	0.01366948	0.01842441	0.00479125	0.00502734	0.00173480	0.02883808	0.00765202	0.01633027	0.00746168	0.00647148	0.00855270	0.00103907	0.00736825	0.00171796	0.00201362	0.01093461	0.00537057	0.00366869	0.00291135	0.00116805	0.00028013
1.95000000	0.00800838	0.01473742	0.00384739	0.00654633	0.00502797	0.01297084	0.01347568	0.01828039	0.00453550	0.00471210	0.00211108	0.02999333	0.00744282	0.01690357	0.00783318	0.00646018	0.00873709	0.00132142	0.00725283	0.00176940	0.00210394	0.01059119	0.00536746	0.00406345	0.00302285	0.00064413	0.00051986
1.96000000	0.00795014	0.01495579	0.00416848	0.00651606	0.00517272	0.01300063	0.01324285	0.01749058	0.00413874	0.00446552	0.00152525	0.02929686	0.00766842	0.01672505	0.00821656	0.00623862	0.00901618	0.00148176	0.00719648	0.00186030	0.00219589	0.01023606	0.00515733	0.00413205	0.00298227	0.00051331	0.00050862
1.97000000	0.00787870	0.01449008	0.00427548	0.00613384	0.00504885	0.01329045	0.01254437	0.01649000	0.00376952	0.00379161	0.00207650	0.02782238	0.00768284	0.01623887	0.00830632	0.00562969	0.00849770	0.00163110	0.00712499	0.00206585	0.00226261	0.00984278	0.00505391	0.00426868	0.00307334	0.00020629	0.00060698
1.98000000	0.00763928	0.01385670	0.00407581	0.00554723	0.00465012	0.01285818	0.01236485	0.01611438	0.00338138	0.00344563	0.00206867	0.02533982	0.00771378	0.01524781	0.00815460	0.00460186	0.00745598	0.00178832	0.00697037	0.00239445	0.00233895	0.00928623	0.00500119	0.00442281	0.00305375	0.00037545	0.00079803
1.99000000	0.00722627	0.01240613	0.00374904	0.00482179	0.00412679	0.01256028	0.01198417	0.01570683	0.00312546	0.00329832	0.00150273	0.02168841	0.00801022	0.01396517	0.00793511	0.00417561	0.00662672	0.00198437	0.00685069	0.00279392	0.00244534	0.00874142	0.00466611	0.00453621	0.00301167	0.00057956	0.00065667
2.00000000	0.00683130	0.01078496	0.00352553	0.00410726	0.00367938	0.01235041	0.01194678	0.01501735	0.00285847	0.00298896	0.00141954	0.01760931	0.00779509	0.01240433	0.00740786	0.00364678	0.00553356	0.00216239	0.00673537	0.00308661	0.00256248	0.00831120	0.00449914	0.00468604	0.00299349	0.00091256	0.00074885
2.01000000	0.00637818	0.00924475	0.00338520	0.00355952	0.00334945	0.01208057	0.01188560	0.01438513	0.00261235	0.00264298	0.00140528	0.01369198	0.00719380	0.01036038	0.00670316	0.00306264	0.00460915	0.00242771	0.00657917	0.00330574	0.00267692	0.00799426	0.00431850	0.00490794	0.00293781	0.00131658	0.00086332
2.02000000	0.00595440	0.00794040	0.00330964	0.00312734	0.00310412	0.01174089	0.01206790	0.01370737	0.00236085	0.00232764	0.00131250	0.01010233	0.00675012	0.00777097	0.00609271	0.00235695	0.00371626	0.00271069	0.00653330	0.00346400	0.00280855	0.00774625	0.00400731	0.00512896	0.00293443	0.00176937	0.00098392
2.03000000	0.00558777	0.00642506	0.00331445	0.00257213	0.00281578	0.01152646	0.01246977	0.01291063	0.00204272	0.00185778	0.00126498	0.00598326	0.00699025	0.00554293	0.00556235	0.00207462	0.00301039	0.00293483	0.00643717	0.00361567	0.00293678	0.00748724	0.00381691	0.00530909	0.00293778	0.00211067	0.00095402
2.04000000	0.00513789	0.00586449	0.00334471	0.00272680	0.00287305	0.01103470	0.01264220	0.01232561	0.00197925	0.00180729	0.00101106	0.00483662	0.00555512	0.00289701	0.00514565	0.00188620	0.00197298	0.00326490	0.00633919	0.00354174	0.00308366	0.00751228	0.00359407	0.00552699	0.00283597	0.00255062	0.00119915
2.05000000	0.00482165	0.00529492	0.00340011	0.00268340	0.00281014	0.01069269	0.01277326	0.01174386	0.00179818	0.00149975	0.00084013	0.00378450	0.00501964	0.00138022	0.00471719	0.00252492	0.00153648	0.00348174	0.00614596	0.00356765	0.00317759	0.00747539	0.00341018	0.00565506	0.00264545	0.00284267	0.00120852
2.06000000	0.00454484	0.00476740	0.00337792	0.00250386	0.00263287	0.01059553	0.01265848	0.01105643	0.00190685	0.00146661	0.00039027	0.00388363	0.00496361	0.00140848	0.00431042	0.00260479	0.00171490	0.00361679	0.00602077	0.00360924	0.00328652	0.00737673	0.00326137	0.00568308	0.00243398	0.00309948	0.00138428
2.07000000	0.00449073	0.00476412	0.00344754	0.00270503	0.00269657	0.01045946	0.01252880	0.01036885	0.00187557	0.00117066	0.00061248	0.00363123	0.00420539	0.00227224	0.00405272	0.00334731	0.00132255	0.00370958	0.00590832	0.00353367	0.00334666	0.00747904	0.00303298	0.00569737	0.00227129	0.00325033	0.00125934
2.08000000	0.00434401	0.00488515	0.00339269	0.00271497	0.00260568	0.01046582	0.01179211	0.00989146	0.00219885	0.00150100	0.00076447	0.00345900	0.00393126	0.00266985	0.00376218	0.00336113	0.00172295	0.00374219	0.00578371	0.00345200	0.00347498	0.00748906	0.00288734	0.00556327	0.00193574	0.00339855	0.00131060
2.09000000	0.00430903	0.00469683	0.00337236	0.00265109	0.00250392	0.01047492	0.01143439	0.00921887	0.00240811	0.00194405	0.00054248	0.00284826	0.00354084	0.00265226	0.00365250	0.00370768	0.00120737	0.00361323	0.00556469	0.00347360	0.00343218	0.00755398	0.00291690	0.00541890	0.00165391	0.00317234	0.00116776
2.10000000	0.00426910	0.00494539	0.00328136	0.00268945	0.00239563	0.01055654	0.01041587	0.00871676	0.00277112	0.00231627	0.00127987	0.00224190	0.00331165	0.00262454	0.00351559	0.00354142	0.00142238	0.00353379	0.00540631	0.00339463	0.00345733	0.00763303	0.00279528	0.00526538	0.00130260	0.00310389	0.00100888
2.11000000	0.00424808	0.00485926	0.00318679	0.00259578	0.00227748	0.01071818	0.00957901	0.00769576	0.00298651	0.00235212	0.00087133	0.00216517	0.00319612	0.00186475	0.00343840	0.00363824	0.00110748	0.00328232	0.00538884	0.00333600	0.00346596	0.00771107	0.00282814	0.00486310	0.00105071	0.00296931	0.00100984
2.12000000	0.00428498	0.00464746	0.00317590	0.00252932	0.00219113	0.01069111	0.00833811	0.00712357	0.00335520	0.00293041	0.00087583	0.00217468	0.00327884	0.00171985	0.00347136	0.00354789	0.00097492	0.00302711	0.00523207	0.00330091	0.00341445	0.00786951	0.00291334	0.00455409	0.00073898	0.00257597	0.00090643
2.13000000	0.00425886	0.00443552	0.00314412	0.00245427	0.00210993	0.01067968	0.00694272	0.00605954	0.00370310	0.00299007	0.00094615	0.00241626	0.00343257	0.00120619	0.00343705	0.00327662	0.00088586	0.00275094	0.00524923	0.00316410	0.00341175	0.00800548	0.00286423	0.00418556	0.00047509	0.00235407	0.00072600
2.14000000	0.00417231	0.00438096	0.00309475	0.00235614	0.00199455	0.01045149	0.00530447	0.00546072	0.00398282	0.00331305	0.00135389	0.00269461	0.00372416	0.00120081	0.00335838	0.00310288	0.00093738	0.00245388	0.00515158	0.00313417	0.00335515	0.00816663	0.00289240	0.00383719	0.00031519	0.00192676	0.00051802
2.15000000	0.00415764	0.00409136	0.00313569	0.00211617	0.00178868	0.01009101	0.00403220	0.00478933	0.00422798	0.00374928	0.00094955	0.00299454	0.00367295	0.00057142	0.00335316	0.00320562	0.00059040	0.00221475	0.00496108	0.00312526	0.00325798	0.00824935	0.00298592	0.00346354	0.00030101	0.00167087	0.00036762
2.16000000	0.00401252	0.00402710	0.00306894	0.00198220	0.00170779	0.00971999	0.00233721	0.00399825	0.00443185	0.00396338	0.00114482	0.00348197	0.00388102	0.00047076	0.00331225	0.00319375	0.00078608	0.00199463	0.00488031	0.00306323	0.00320055	0.00842228	0.00313288	0.00316820	0.00047507	0.00124159	0.00028863
2.17000000	0.00384069	0.00421975	0.00303248	0.00186093	0.00165246	0.00923112	0.00099182	0.00315002	0.00465885	0.00419809	0.00144066	0.00430718	0.00399963	0.00076273	0.00337393	0.00321290	0.00101777	0.00168784	0.00477235	0.00310772	0.00309348	0.00856918	0.00308368	0.00281234	0.00072356	0.00085444	0.00023099
2.18000000	0.00399344	0.00455311	0.00294338	0.00179208	0.00154887	0.00890683	0.00098730	0.00241364	0.00476006	0.00421639	0.00097274	0.00523399	0.00391390	0.00188194	0.00342386	0.00338099	0.00106031	0.00159338	0.00478856	0.00296207	0.00308097	0.00865824	0.00298043	0.00254737	0.00095932	0.00065461	0.00056094
2.19000000	0.00365840	0.00467962	0.00272468	0.00165287	0.00147316	0.00855665	0.00216527	0.00267280	0.00483870	0.00439728	0.00152537	0.00734617	0.00415549	0.00283431	0.00359440	0.00355517	0.00151356	0.00137222	0.00458367	0.00302727	0.00292186	0.00878348	0.00302641	0.00236041	0.00120426	0.00049828	0.00061254
2.20000000	0.00334705	0.00456714	0.00238899	0.00134420	0.00130005	0.00837458	0.00358247	0.00387047	0.00491427	0.00397150	0.00107370	0.00686286	0.00537103	0.00484787	0.00398434	0.00380000	0.00098175	0.00111562	0.00467564	0.00304028	0.00293448	0.00867140	0.00295237	0.00207772	0.00125017	0.00032829	0.00057403
2.21000000	0.00346084	0.00498015	0.00208623	0.00135136	0.00118893	0.00826671	0.00495678	0.00521011	0.00500350	0.00416196	0.00145812	0.00985505	0.00530083	0.00587020	0.00425948	0.00403322	0.00158376	0.00115230	0.00452568	0.00295227	0.00288682	0.00873286	0.00294335	0.00196063	0.00144020	0.00030703	0.00072206
2.22000000	0.00382222	0.00560387	0.00170583	0.00141732	0.00109288	0.00869192	0.00545214	0.00729278	0.00506735	0.00434729	0.00101261	0.01039084	0.00588655	0.00722569	0.00455881	0.00447467	0.00177640	0.00099461	0.00446277	0.00295416	0.00289844	0.00869945	0.00286333	0.00188882	0.00140913	0.00010883	0.00084304
2.23000000	0.00431568	0.00572074	0.00150415	0.00144472	0.00098646	0.00930411	0.00649514	0.00880022	0.00518833	0.00464195	0.00168095	0.01259283	0.00578869	0.00791845	0.00475519	0.00465943	0.00214566	0.00099137	0.00423021	0.00297488	0.00282114	0.00862846	0.00269249	0.00175292	0.00172304	0.00010416	0.00098897
2.24000000	0.00499195	0.00624875	0.00124559	0.00140217	0.00083647	0.01047343	0.00664284	0.01068618	0.00529469	0.00508674	0.00121245	0.01297771	0.00546831	0.00861357	0.00483185	0.00487144	0.00251369	0.00091444	0.00407095	0.00296481	0.00284331	0.00851019	0.00260181	0.00176379	0.00176691	0.00010808	0.00116444
2.25000000	0.00551884	0.00613907	0.00096883	0.00159552	0.00074981	0.01145147	0.00783654	0.01188424	0.00548380	0.00547984	0.00284185	0.01373127	0.00570082	0.00817255	0.00490860	0.00482800	0.00223431	0.00100945	0.00377574	0.00303232	0.00278935	0.00832335	0.00247275	0.00158630	0.00198220	0.00025054	0.00141760
2.26000000	0.00552904	0.00585874	0.00067499	0.00142021	0.00051031	0.01151875	0.00779159	0.01466452	0.00530962	0.00599588	0.00138471	0.01244136	0.00529322	0.00800444	0.00479935	0.00477850	0.00215001	0.00092110	0.00355501	0.00295419	0.00281934	0.00830108	0.00239215	0.00167347	0.00195225	0.00016189	0.00160158
2.27000000	0.00598446	0.00548528	0.00063342	0.00146749	0.00055724	0.01264800	0.00800425	0.01588634	0.00551352	0.00641403	0.00204020	0.01112337	0.00481085	0.00741938	0.00457945	0.00464944	0.00185514	0.00074450	0.00343033	0.00312172	0.00285627	0.00796202	0.00213104	0.00161656	0.00219997	0.00033874	0.00166570
2.28000000	0.00616790	0.00501467	0.00086926	0.00160783	0.00090023	0.01355360	0.00828954	0.01699917	0.00566401	0.00671057	0.00257440	0.00928772	0.00430898	0.00650964	0.00426671	0.00441425	0.00150080	0.00084796	0.00313536	0.00322039	0.00288040	0.00764288	0.00214288	0.00151702	0.00237196	0.00016552	0.00186567
2.29000000	0.00622152	0.00478339	0.00092888	0.00175749	0.00109209	0.01365731	0.00845910	0.01828107	0.00569025	0.00713161	0.00283617	0.00746509	0.00372205	0.00502935	0.00388130	0.00404929	0.00104738	0.00088102	0.00283557	0.00327096	0.00292567	0.00747436	0.00207173	0.00150892	0.00243921	0.00010137	0.00206408
2.30000000	0.00627206	0.00451975	0.00129195	0.00217548	0.00156085	0.01413477	0.00873004	0.01892020	0.00585136	0.00732151	0.00348131	0.00497064	0.00317798	0.00398409	0.00349785	0.00373411	0.00062902	0.00097273	0.00253808	0.00348082	0.00293228	0.00711384	0.00202780	0.00142809	0.00276439	0.00015161	0.00223195
2.31000000	0.00616304	0.00464590	0.00143950	0.00232412	0.00177022	0.01406667	0.00902325	0.01959630	0.00590324	0.00749330	0.00391297	0.00328292	0.00256030	0.00265942	0.00310188	0.00341260	0.00102689	0.00105749	0.00227802	0.00349099	0.00304614	0.00694820	0.00197803	0.00141523	0.00282356	0.00008536	0.00250792
2.32000000	0.00615776	0.00460397	0.00186424	0.00308270	0.00236422	0.01444148	0.00996360	0.01931126	0.00614815	0.00740970	0.00440119	0.00135893	0.00278706	0.00204500	0.00291830	0.00319749	0.00131777	0.00137153	0.00190983	0.00385311	0.00305361	0.00656972	0.00193321	0.00116346	0.00319088	0.00038381	0.00273721
2.33000000	0.00587395	0.00490089	0.00204664	0.00333320	0.00262782	0.01429146	0.01014909	0.01961113	0.00623732	0.00750231	0.00472056	0.00194969	0.00232591	0.00254716	0.00260580	0.00328848	0.00173918	0.00128066	0.00173590	0.00386728	0.00315786	0.00628774	0.00201967	0.00133702	0.00351099	0.00007919	0.00290628
2.34000000	0.00572185	0.00533952	0.00205001	0.00309501	0.00256465	0.01363353	0.01016580	0.02011636	0.00615296	0.00760979	0.00514006	0.00297956	0.00146566	0.00402000	0.00229809	0.00326240	0.00205665	0.00137314	0.00151803	0.00382649	0.00324806	0.00623550	0.00198718	0.00132697	0.00350246	0.00022252	0.00309409
2.35000000	0.00571196	0.00580605	0.00213832	0.00314258	0.00264774	0.01311583	0.01070946	0.02008819	0.00618858	0.00751981	0.00525973	0.00357299	0.00130155	0.00490776	0.00214687	0.00353004	0.00253946	0.00148136	0.00131022	0.00387851	0.00335157	0.00613453	0.00191704	0.00131569	0.00363693	0.00011822	0.00337186
2.36000000	0.00619941	0.00590157	0.00249024	0.00346360	0.00286723	0.01278508	0.01221935	0.01940239	0.00620639	0.00710825	0.00543144	0.00452248	0.00152240	0.00539634	0.00199495	0.00318870	0.00307240	0.00182221	0.00133503	0.00401151	0.00352272	0.00593904	0.00180564	0.00107204	0.00379785	0.00031100	0.00370371
2.37000000	0.00553492	0.00592974	0.00225843	0.00326960	0.00276151	0.01245153	0.01205083	0.01970835	0.00625344	0.00736113	0.00523766	0.00439601	0.00131684	0.00556854	0.00190724	0.00397706	0.00289643	0.00165146	0.00096393	0.00397216	0.00349599	0.00591337	0.00189613	0.00128560	0.00400930	0.00015226	0.00375526
2.38000000	0.00540907	0.00596727	0.00232959	0.00333638	0.00278128	0.01227005	0.01303855	0.01930813	0.00627530	0.00719631	0.00496398	0.00376336	0.00149634	0.00535392	0.00183026	0.00436549	0.00295553	0.00175911	0.00079823	0.00403132	0.00352887	0.00588259	0.00182552	0.00122176	0.00419504	0.00023494	0.00397224
2.39000000	0.00540302	0.00577827	0.00232876	0.00320867	0.00268486	0.01210803	0.01374027	0.01912325	0.00629997	0.00719447	0.00475628	0.00278695	0.00162970	0.00502910	0.00173760	0.00469477	0.00295443	0.00178358	0.00069815	0.00401072	0.00358447	0.00589164	0.00177410	0.00123300	0.00435321	0.00030167	0.00411192
2.40000000	0.00554457	0.00540750	0.00232710	0.00299774	0.00255800	0.01196877	0.01430278	0.01907580	0.00631021	0.00728212	0.00461417	0.00166499	0.00186305	0.00460903	0.00159396	0.00484592	0.00295462	0.00175600	0.00065591	0.00395220	0.00362393	0.00591552	0.00171442	0.00134548	0.00440798	0.00021015	0.00428110
2.41000000	0.00594838	0.00441921	0.00234883	0.00282700	0.00246184	0.01166308	0.01458819	0.01936030	0.00624721	0.00753434	0.00492002	0.00129508	0.00253362	0.00430024	0.00125116	0.00410506	0.00265072	0.00173510	0.00059725	0.00392794	0.00368388	0.00584639	0.00177883	0.00139477	0.00443032	0.00025718	0.00430355
2.42000000	0.00595095	0.00416613	0.00240451	0.00267487	0.00233601	0.01181590	0.01537584	0.01911599	0.00633527	0.00753281	0.00455095	0.00098910	0.00279494	0.00366966	0.00125879	0.00446524	0.00270379	0.00173920	0.00050675	0.00391041	0.00367979	0.00598233	0.00164819	0.00138156	0.00450949	0.00035799	0.00441073
2.43000000	0.00613734	0.00379330	0.00247376	0.00249286	0.00221462	0.01196680	0.01597326	0.01896792	0.00643194	0.00764418	0.00437111	0.00256387	0.00304633	0.00324104	0.00128218	0.00464278	0.00276889	0.00166659	0.00053695	0.00385175	0.00368373	0.00609313	0.00154955	0.00146497	0.00456301	0.00032605	0.00452102
2.44000000	0.00658926	0.00314202	0.00252138	0.00260462	0.00226393	0.01189800	0.01620403	0.01909161	0.00658915	0.00784787	0.00457426	0.00215233	0.00375753	0.00325600	0.00133474	0.00385823	0.00203193	0.00165607	0.00049777	0.00391676	0.00371039	0.00600678	0.00161809	0.00148015	0.00454436	0.00036390	0.00449406
2.45000000	0.00669950	0.00285784	0.00262317	0.00249912	0.00217719	0.01217665	0.01669322	0.01889759	0.00677173	0.00785887	0.00443706	0.00371450	0.00396738	0.00313321	0.00155875	0.00404688	0.00220707	0.00160924	0.00055465	0.00385721	0.00370989	0.00615308	0.00149923	0.00151951	0.00459229	0.00037680	0.00442443
2.46000000	0.00690396	0.00280860	0.00266431	0.00268764	0.00222870	0.01235050	0.01696976	0.01878396	0.00695455	0.00783853	0.00444141	0.00398034	0.00426307	0.00344150	0.00170127	0.00389869	0.00179266	0.00160654	0.00054463	0.00391053	0.00369292	0.00617086	0.00148589	0.00149855	0.00455497	0.00039419	0.00438438
2.47000000	0.00714823	0.00265482	0.00271103	0.00257327	0.00213340	0.01267118	0.01709753	0.01869439	0.00721642	0.00787341	0.00452761	0.00481608	0.00446744	0.00340400	0.00189749	0.00392474	0.00195498	0.00149315	0.00068033	0.00385644	0.00367226	0.00633415	0.00137728	0.00159424	0.00458447	0.00038553	0.00431200
2.48000000	0.00742150	0.00307675	0.00273886	0.00276736	0.00221408	0.01287830	0.01701070	0.01866062	0.00739339	0.00784732	0.00462985	0.00505076	0.00449152	0.00361532	0.00204206	0.00396401	0.00172537	0.00144755	0.00070178	0.00391895	0.00361712	0.00643432	0.00131839	0.00160602	0.00452589	0.00038823	0.00428065
2.49000000	0.00768849	0.00305062	0.00279105	0.00272295	0.00218217	0.01334054	0.01682397	0.01869400	0.00766727	0.00784489	0.00483142	0.00514485	0.00478548	0.00356347	0.00217840	0.00396214	0.00190551	0.00132941	0.00075292	0.00385659	0.00361088	0.00658803	0.00128464	0.00171293	0.00452990	0.00033807	0.00403400
2.50000000	0.00786879	0.00377250	0.00282444	0.00300888	0.00231107	0.01364020	0.01647420	0.01877756	0.00781739	0.00769509	0.00494491	0.00507448	0.00464874	0.00385218	0.00228114	0.00411521	0.00170647	0.00132701	0.00080563	0.00392529	0.00353772	0.00668932	0.00121889	0.00167348	0.00441246	0.00037383	0.00400650
2.51000000	0.00804134	0.00432710	0.00286071	0.00316292	0.00237317	0.01412647	0.01602311	0.01890747	0.00794384	0.00761565	0.00513241	0.00490825	0.00479369	0.00393188	0.00237301	0.00419724	0.00169582	0.00126466	0.00094724	0.00392913	0.00347632	0.00681765	0.00117777	0.00169575	0.00439660	0.00038300	0.00387945
2.52000000	0.00817486	0.00490032	0.00290235	0.00329306	0.00242595	0.01473581	0.01547189	0.01908495	0.00799299	0.00756162	0.00531615	0.00471352	0.00500518	0.00402780	0.00247161	0.00430836	0.00178282	0.00123391	0.00102118	0.00392440	0.00340833	0.00696983	0.00112946	0.00169780	0.00434380	0.00044393	0.00373962
2.53000000	0.00843069	0.00553036	0.00299458	0.00340470	0.00250585	0.01533467	0.01474115	0.01938338	0.00803956	0.00743839	0.00539699	0.00443596	0.00527972	0.00419040	0.00250238	0.00457271	0.00182384	0.00119521	0.00110626	0.00391451	0.00334761	0.00710939	0.00110803	0.00172304	0.00425261	0.00039237	0.00358923
2.54000000	0.00862841	0.00611895	0.00310616	0.00348301	0.00256829	0.01601391	0.01397243	0.01963899	0.00798382	0.00735137	0.00542211	0.00426846	0.00560047	0.00445331	0.00259865	0.00481318	0.00202525	0.00117548	0.00116898	0.00385777	0.00329647	0.00726908	0.00109107	0.00175176	0.00420905	0.00038360	0.00337521
2.55000000	0.00865571	0.00635183	0.00316073	0.00340372	0.00253653	0.01677465	0.01302673	0.02001566	0.00785602	0.00732949	0.00544559	0.00401731	0.00632374	0.00475632	0.00269826	0.00507638	0.00204227	0.00107230	0.00116245	0.00379596	0.00320716	0.00743444	0.00103497	0.00184651	0.00400843	0.00053086	0.00329150
2.56000000	0.00874336	0.00616005	0.00311567	0.00302681	0.00236276	0.01778849	0.01154664	0.02042041	0.00773101	0.00785982	0.00540312	0.00425702	0.00840496	0.00392069	0.00291616	0.00480657	0.00265411	0.00102361	0.00120059	0.00367352	0.00321297	0.00757391	0.00107267	0.00202955	0.00403171	0.00042586	0.00292353
2.57000000	0.00898538	0.00759927	0.00332395	0.00338297	0.00252939	0.01759090	0.01127468	0.01999607	0.00726680	0.00712509	0.00515780	0.00441791	0.00722559	0.00575669	0.00292542	0.00563789	0.00233414	0.00123660	0.00116544	0.00375480	0.00304956	0.00776350	0.00097896	0.00172307	0.00388728	0.00048294	0.00292562
2.58000000	0.00868586	0.00766911	0.00335332	0.00295067	0.00233922	0.01802322	0.01025192	0.01983157	0.00701190	0.00701583	0.00487758	0.00480226	0.00824153	0.00598503	0.00294948	0.00588821	0.00238151	0.00121093	0.00123039	0.00356792	0.00306632	0.00796990	0.00104604	0.00182248	0.00380955	0.00042015	0.00263495
2.59000000	0.00908253	0.00843333	0.00350915	0.00299912	0.00239382	0.01779854	0.00951258	0.01874111	0.00656464	0.00665787	0.00450844	0.00552195	0.00819255	0.00694631	0.00318675	0.00623404	0.00272177	0.00123100	0.00137779	0.00363383	0.00296176	0.00805967	0.00119586	0.00174158	0.00378365	0.00045734	0.00267771
2.60000000	0.00856812	0.00834543	0.00357986	0.00237164	0.00226284	0.01750165	0.00835005	0.01811134	0.00621264	0.00647915	0.00421101	0.00609459	0.00923579	0.00719395	0.00325162	0.00640182	0.00274424	0.00111404	0.00138767	0.00347810	0.00290995	0.00824710	0.00120125	0.00190845	0.00372281	0.00035024	0.00247841
2.61000000	0.00878857	0.00890171	0.00375639	0.00241559	0.00235576	0.01672004	0.00781778	0.01604075	0.00571944	0.00583139	0.00373471	0.00679984	0.00914623	0.00831553	0.00349890	0.00674058	0.00299163	0.00131673	0.00139591	0.00356673	0.00283756	0.00825540	0.00129341	0.00171932	0.00365257	0.00050356	0.00248387
2.62000000	0.00855503	0.00908968	0.00385227	0.00206960	0.00240323	0.01583374	0.00690109	0.01407480	0.00535434	0.00516279	0.00327610	0.00744392	0.00954318	0.00890066	0.00358291	0.00698483	0.00292712	0.00130173	0.00151414	0.00358692	0.00281458	0.00824724	0.00141499	0.00168252	0.00356428	0.00056221	0.00247391
2.63000000	0.00778274	0.00889541	0.00406706	0.00151569	0.00258681	0.01447803	0.00601278	0.01250801	0.00490896	0.00483257	0.00308416	0.00786850	0.01019955	0.00911536	0.00364039	0.00717914	0.00298867	0.00123897	0.00140658	0.00350720	0.00276133	0.00835922	0.00134599	0.00178673	0.00349261	0.00048865	0.00225519
2.64000000	0.00775952	0.00914524	0.00417278	0.00154302	0.00271364	0.01314331	0.00542281	0.00955652	0.00451688	0.00389357	0.00249340	0.00824569	0.01027577	0.00969673	0.00372541	0.00736430	0.00309185	0.00139981	0.00138980	0.00374698	0.00268059	0.00819323	0.00137789	0.00162442	0.00342354	0.00056744	0.00230738
2.65000000	0.00690291	0.00908518	0.00437940	0.00138345	0.00298215	0.01174827	0.00498566	0.00763671	0.00410146	0.00339103	0.00224815	0.00823043	0.01055079	0.00981010	0.00371808	0.00752724	0.00314462	0.00137744	0.00144667	0.00373091	0.00262727	0.00816265	0.00142784	0.00162084	0.00333594	0.00061885	0.00230224
2.66000000	0.00661936	0.00890325	0.00441564	0.00154021	0.00319012	0.01055890	0.00444941	0.00591224	0.00357639	0.00418326	0.00285529	0.00819689	0.01119185	0.00954160	0.00368523	0.00724266	0.00373522	0.00153121	0.00139092	0.00391701	0.00263253	0.00792846	0.00136929	0.00149557	0.00326993	0.00069292	0.00211104
2.67000000	0.00662005	0.00907438	0.00460008	0.00181787	0.00347170	0.01042518	0.00407842	0.00362200	0.00340613	0.00227591	0.00138407	0.00834104	0.01028707	0.00939320	0.00353585	0.00778424	0.00353569	0.00153868	0.00142344	0.00408586	0.00259006	0.00771932	0.00133967	0.00149914	0.00320133	0.00066656	0.00212236
2.68000000	0.00615498	0.00906392	0.00471877	0.00207891	0.00368419	0.01048375	0.00400532	0.00385089	0.00307253	0.00193732	0.00105583	0.00800961	0.01033345	0.00878218	0.00333718	0.00783847	0.00370022	0.00169637	0.00140925	0.00427843	0.00256357	0.00749918	0.00136354	0.00138769	0.00306698	0.00072259	0.00210380
2.69000000	0.00608319	0.00911161	0.00475314	0.00239920	0.00387898	0.01095493	0.00394379	0.00503348	0.00272697	0.00187758	0.00067550	0.00784120	0.00983606	0.00804600	0.00311140	0.00796925	0.00390426	0.00179736	0.00143653	0.00450481	0.00255359	0.00720667	0.00135379	0.00131913	0.00296768	0.00074677	0.00202268
2.70000000	0.00588665	0.00910160	0.00478458	0.00267641	0.00404240	0.01167455	0.00395464	0.00630352	0.00239720	0.00182513	0.00043367	0.00761517	0.00949441	0.00714692	0.00285722	0.00806290	0.00411463	0.00190745	0.00149359	0.00473614	0.00252882	0.00691070	0.00137188	0.00124761	0.00282918	0.00076885	0.00194126
2.71000000	0.00579878	0.00922244	0.00472435	0.00301832	0.00418058	0.01253457	0.00398215	0.00692311	0.00204081	0.00156412	0.00058573	0.00736115	0.00935657	0.00649579	0.00254064	0.00786078	0.00429968	0.00200812	0.00150869	0.00497493	0.00248268	0.00659608	0.00135562	0.00119350	0.00266158	0.00077814	0.00175428
2.72000000	0.00542138	0.00918836	0.00476564	0.00318297	0.00428498	0.01323026	0.00378079	0.00736419	0.00185132	0.00137110	0.00091438	0.00748227	0.00922250	0.00561275	0.00231837	0.00805654	0.00407269	0.00213487	0.00163059	0.00517879	0.00247815	0.00629299	0.00145234	0.00110439	0.00233476	0.00079379	0.00172301
2.73000000	0.00558874	0.00923560	0.00471035	0.00350711	0.00442117	0.01387813	0.00379893	0.00692389	0.00171261	0.00095561	0.00038440	0.00815585	0.00876413	0.00506797	0.00223155	0.00775089	0.00512536	0.00216783	0.00190150	0.00533124	0.00242835	0.00594246	0.00141258	0.00128361	0.00224251	0.00065978	0.00117059
2.74000000	0.00502884	0.00907564	0.00457250	0.00330911	0.00427066	0.01309526	0.00382335	0.00796383	0.00147753	0.00136759	0.00144227	0.00786126	0.00732596	0.00353149	0.00230642	0.00828980	0.00483891	0.00240193	0.00191758	0.00570902	0.00242614	0.00567397	0.00179076	0.00101509	0.00194542	0.00069424	0.00135889
2.75000000	0.00453848	0.00897400	0.00450823	0.00332131	0.00424496	0.01302510	0.00362769	0.00721641	0.00154652	0.00113130	0.00163790	0.00817610	0.00706059	0.00299795	0.00233638	0.00824754	0.00483498	0.00253354	0.00215490	0.00589428	0.00238079	0.00541269	0.00206006	0.00096036	0.00160123	0.00065261	0.00116650
2.76000000	0.00402611	0.00886851	0.00438444	0.00324473	0.00414398	0.01274735	0.00338569	0.00636955	0.00181591	0.00105692	0.00185166	0.00847878	0.00682209	0.00260814	0.00240728	0.00808460	0.00484390	0.00273118	0.00249799	0.00607723	0.00238008	0.00517566	0.00237938	0.00082848	0.00126410	0.00068515	0.00096406
2.77000000	0.00329098	0.00840455	0.00447087	0.00316936	0.00413472	0.01203830	0.00282132	0.00606016	0.00211675	0.00096015	0.00227987	0.00870316	0.00654554	0.00195900	0.00253005	0.00811707	0.00503807	0.00280171	0.00284572	0.00619021	0.00234483	0.00500004	0.00265816	0.00090014	0.00090910	0.00048719	0.00068373
2.78000000	0.00299160	0.00817250	0.00434141	0.00309005	0.00401477	0.01120914	0.00281636	0.00543746	0.00243788	0.00114220	0.00245242	0.00889881	0.00606355	0.00197063	0.00280316	0.00803805	0.00506591	0.00292930	0.00321419	0.00633150	0.00230821	0.00479600	0.00302264	0.00086061	0.00052351	0.00041032	0.00047180
2.79000000	0.00288866	0.00788049	0.00410572	0.00293848	0.00380207	0.00997722	0.00297848	0.00535676	0.00288457	0.00128050	0.00263491	0.00894812	0.00543524	0.00207381	0.00307888	0.00808842	0.00517873	0.00310467	0.00365091	0.00648368	0.00229943	0.00453876	0.00340945	0.00082051	0.00029307	0.00034011	0.00024922
2.80000000	0.00278803	0.00770097	0.00401379	0.00290278	0.00370488	0.00920314	0.00317399	0.00490886	0.00305255	0.00163717	0.00253655	0.00910104	0.00515630	0.00244057	0.00339849	0.00786594	0.00512845	0.00320869	0.00402334	0.00656499	0.00227413	0.00444787	0.00376698	0.00083874	0.00019189	0.00025401	0.00014554
2.81000000	0.00274227	0.00740521	0.00383711	0.00271908	0.00350419	0.00856180	0.00346103	0.00470103	0.00314125	0.00192702	0.00229849	0.00932381	0.00485250	0.00273421	0.00361591	0.00773606	0.00512361	0.00342428	0.00449882	0.00665303	0.00226929	0.00430572	0.00412301	0.00072330	0.00055152	0.00019382	0.00042985
2.82000000	0.00300326	0.00716402	0.00363481	0.00260754	0.00331430	0.00792140	0.00378989	0.00468867	0.00308676	0.00221595	0.00208282	0.00942586	0.00468270	0.00319308	0.00403341	0.00742170	0.00516645	0.00359687	0.00486479	0.00671426	0.00229236	0.00422185	0.00455501	0.00067371	0.00080950	0.00015791	0.00078092
2.83000000	0.00305250	0.00684005	0.00353012	0.00248336	0.00315912	0.00723270	0.00414825	0.00496123	0.00301532	0.00241607	0.00195342	0.00951365	0.00450941	0.00357043	0.00433005	0.00719299	0.00515885	0.00373442	0.00522097	0.00676408	0.00230242	0.00413235	0.00493947	0.00071305	0.00104181	0.00017188	0.00104610
2.84000000	0.00272124	0.00629740	0.00357785	0.00236246	0.00306046	0.00632547	0.00450668	0.00545373	0.00276958	0.00268254	0.00181620	0.00971677	0.00408012	0.00389516	0.00439924	0.00710330	0.00494853	0.00386535	0.00552723	0.00679606	0.00229766	0.00407828	0.00523549	0.00057961	0.00133920	0.00024314	0.00116857
2.85000000	0.00248846	0.00577041	0.00364266	0.00229100	0.00299904	0.00521549	0.00480819	0.00587387	0.00245950	0.00292066	0.00181777	0.00968139	0.00380988	0.00430977	0.00453174	0.00695107	0.00480316	0.00398997	0.00586857	0.00681716	0.00232587	0.00401243	0.00539183	0.00067520	0.00158890	0.00024691	0.00126520
2.86000000	0.00227435	0.00520318	0.00365225	0.00228782	0.00291887	0.00394882	0.00517234	0.00608954	0.00243144	0.00287838	0.00205570	0.00946698	0.00378600	0.00463735	0.00490969	0.00671059	0.00450517	0.00407038	0.00598303	0.00681020	0.00237555	0.00402438	0.00574338	0.00045903	0.00158755	0.00032109	0.00142582
2.87000000	0.00204816	0.00470409	0.00370671	0.00221466	0.00286507	0.00229253	0.00554927	0.00630508	0.00235398	0.00297687	0.00236375	0.00926137	0.00366554	0.00492064	0.00519903	0.00649090	0.00413190	0.00413187	0.00613865	0.00683579	0.00239081	0.00396272	0.00588671	0.00057124	0.00162408	0.00030316	0.00153839
2.88000000	0.00225672	0.00442712	0.00391969	0.00241797	0.00309279	0.00314126	0.00476292	0.00455055	0.00162684	0.00300718	0.00120519	0.00893036	0.00303715	0.00550594	0.00500415	0.00636785	0.00383913	0.00413628	0.00644523	0.00651383	0.00243942	0.00435660	0.00605240	0.00047171	0.00183283	0.00010921	0.00157902
2.89000000	0.00181457	0.00393884	0.00383308	0.00228657	0.00297321	0.00150902	0.00518625	0.00457106	0.00181244	0.00275671	0.00176584	0.00863820	0.00333959	0.00560111	0.00538577	0.00616661	0.00310244	0.00417455	0.00650596	0.00652620	0.00246138	0.00431662	0.00606098	0.00049533	0.00184855	0.00015535	0.00161833
2.90000000	0.00139083	0.00349260	0.00390986	0.00229481	0.00298338	0.00087879	0.00552337	0.00422760	0.00177248	0.00238464	0.00177153	0.00847531	0.00276212	0.00613759	0.00536072	0.00544992	0.00347820	0.00412768	0.00647267	0.00647968	0.00252003	0.00435426	0.00609126	0.00039801	0.00165500	0.00016106	0.00155523
2.91000000	0.00121589	0.00311452	0.00393291	0.00236708	0.00301882	0.00092226	0.00550629	0.00388800	0.00179769	0.00231853	0.00185580	0.00831007	0.00288385	0.00659934	0.00549216	0.00498637	0.00323615	0.00403881	0.00642764	0.00639916	0.00256030	0.00447762	0.00606702	0.00043254	0.00143251	0.00012133	0.00140335
2.92000000	0.00111276	0.00298454	0.00385425	0.00230069	0.00296759	0.00093521	0.00516496	0.00371294	0.00175667	0.00236289	0.00176152	0.00804287	0.00336557	0.00707247	0.00563841	0.00459168	0.00277116	0.00393743	0.00636948	0.00627704	0.00259433	0.00462097	0.00608796	0.00039862	0.00120347	0.00022184	0.00138649
2.93000000	0.00120940	0.00296836	0.00354593	0.00217230	0.00278524	0.00065949	0.00512934	0.00352784	0.00169055	0.00220594	0.00166779	0.00762532	0.00446887	0.00760440	0.00580054	0.00407385	0.00250265	0.00388528	0.00629559	0.00622194	0.00259795	0.00475673	0.00596829	0.00038649	0.00103702	0.00035949	0.00108789
2.94000000	0.00125880	0.00302724	0.00339486	0.00209866	0.00271166	0.00112028	0.00470928	0.00355960	0.00147356	0.00250119	0.00130291	0.00762594	0.00515059	0.00828067	0.00574911	0.00385756	0.00239274	0.00370667	0.00628573	0.00606829	0.00266261	0.00491053	0.00580232	0.00047861	0.00083319	0.00047696	0.00103243
2.95000000	0.00163755	0.00345615	0.00306866	0.00189130	0.00248395	0.00239879	0.00429785	0.00372014	0.00133165	0.00258028	0.00106950	0.00750355	0.00590195	0.00916790	0.00579671	0.00397876	0.00162884	0.00359377	0.00619634	0.00597963	0.00266826	0.00503981	0.00574524	0.00050964	0.00058773	0.00068171	0.00087010
2.96000000	0.00192660	0.00353135	0.00270506	0.00181202	0.00230803	0.00428234	0.00423650	0.00382293	0.00105914	0.00288603	0.00073789	0.00755520	0.00719804	0.01011957	0.00568722	0.00376118	0.00233458	0.00338718	0.00612245	0.00587659	0.00269518	0.00521732	0.00547815	0.00068572	0.00041650	0.00074132	0.00067037
2.97000000	0.00245150	0.00405961	0.00241555	0.00176213	0.00213081	0.00561678	0.00421390	0.00457039	0.00111021	0.00282395	0.00058989	0.00759299	0.00777299	0.01149508	0.00573028	0.00458228	0.00124896	0.00317654	0.00597531	0.00581633	0.00269579	0.00530406	0.00531306	0.00061513	0.00020347	0.00104838	0.00047727
2.98000000	0.00276899	0.00415825	0.00192578	0.00165573	0.00185524	0.00720106	0.00439211	0.00530419	0.00117561	0.00299115	0.00048141	0.00774376	0.00900105	0.01284538	0.00562223	0.00490176	0.00136985	0.00294392	0.00578410	0.00576564	0.00268474	0.00539936	0.00521838	0.00070834	0.00034520	0.00112562	0.00027087
2.99000000	0.00306135	0.00389963	0.00149950	0.00170602	0.00165618	0.00934696	0.00462463	0.00570840	0.00119748	0.00314492	0.00054484	0.00835819	0.01060209	0.01402339	0.00554659	0.00482610	0.00291079	0.00271900	0.00578744	0.00569910	0.00273939	0.00548835	0.00473523	0.00083860	0.00055931	0.00124854	0.00025397
3.00000000	0.00310291	0.00370436	0.00133258	0.00183416	0.00158290	0.00954537	0.00493782	0.00746466	0.00174163	0.00319930	0.00101382	0.00775581	0.01136642	0.01621584	0.00531698	0.00602679	0.00144550	0.00237085	0.00546294	0.00565764	0.00274461	0.00551463	0.00468401	0.00085475	0.00081558	0.00122936	0.00021933
3.01000000	0.00361004	0.00406665	0.00114323	0.00188508	0.00145927	0.01068642	0.00494371	0.00833885	0.00166708	0.00348482	0.00121171	0.00900033	0.01219276	0.01754679	0.00531704	0.00629016	0.00166847	0.00225079	0.00545701	0.00559559	0.00276545	0.00553104	0.00445349	0.00091189	0.00098814	0.00136020	0.00039748
3.02000000	0.00400879	0.00426758	0.00121257	0.00202896	0.00147915	0.01141239	0.00495373	0.00924078	0.00158357	0.00361105	0.00136936	0.00979495	0.01281739	0.01922700	0.00526812	0.00674892	0.00164768	0.00206577	0.00531700	0.00556672	0.00277217	0.00557893	0.00427042	0.00095104	0.00110844	0.00139621	0.00058625
3.03000000	0.00412129	0.00419308	0.00168284	0.00227835	0.00167602	0.01218057	0.00503963	0.00980527	0.00129979	0.00359113	0.00151167	0.01122532	0.01410313	0.02021077	0.00533134	0.00662755	0.00302188	0.00187143	0.00537253	0.00558332	0.00279480	0.00550412	0.00379023	0.00113660	0.00134244	0.00134866	0.00080954
3.04000000	0.00413091	0.00442486	0.00206827	0.00246858	0.00193127	0.01221810	0.00494432	0.01068710	0.00106554	0.00355885	0.00168581	0.01243065	0.01444134	0.02157844	0.00553798	0.00697206	0.00325421	0.00180815	0.00526059	0.00551083	0.00281861	0.00542534	0.00369568	0.00111417	0.00153044	0.00145448	0.00084459
3.05000000	0.00461803	0.00417076	0.00209620	0.00244324	0.00183812	0.01203485	0.00473794	0.01104951	0.00088231	0.00354900	0.00133894	0.01165403	0.01467068	0.02371198	0.00518801	0.00791840	0.00183249	0.00157695	0.00501749	0.00534564	0.00279138	0.00567723	0.00368936	0.00087744	0.00149678	0.00140597	0.00106029
3.06000000	0.00445869	0.00423237	0.00265725	0.00268903	0.00220532	0.01156768	0.00469675	0.01160098	0.00067485	0.00343880	0.00174079	0.01300551	0.01552444	0.02429148	0.00546252	0.00769393	0.00271847	0.00153050	0.00489119	0.00536780	0.00275155	0.00554185	0.00353871	0.00092541	0.00170921	0.00140898	0.00121245
3.07000000	0.00467170	0.00424137	0.00271774	0.00269943	0.00223420	0.01127536	0.00452617	0.01140304	0.00093136	0.00327708	0.00118946	0.01288644	0.01544226	0.02576075	0.00540592	0.00845505	0.00242503	0.00133443	0.00477965	0.00525377	0.00278192	0.00562767	0.00344024	0.00085906	0.00165777	0.00129663	0.00131265
3.08000000	0.00486753	0.00445634	0.00301040	0.00289269	0.00246709	0.01038067	0.00440725	0.01157448	0.00139762	0.00314080	0.00134225	0.01354847	0.01589378	0.02634134	0.00556120	0.00848839	0.00266392	0.00120733	0.00465668	0.00527740	0.00276054	0.00553459	0.00325187	0.00083446	0.00180983	0.00129913	0.00142782
3.09000000	0.00467578	0.00439383	0.00321692	0.00291196	0.00259229	0.00970915	0.00427713	0.01128249	0.00173686	0.00297707	0.00141284	0.01366433	0.01603979	0.02711917	0.00584958	0.00884330	0.00314769	0.00121482	0.00451427	0.00518189	0.00278763	0.00552463	0.00327861	0.00086328	0.00175741	0.00120208	0.00148324
3.10000000	0.00476789	0.00484231	0.00406280	0.00350006	0.00320187	0.00874375	0.00445737	0.01140347	0.00212256	0.00288405	0.00154628	0.01425315	0.01763724	0.02653605	0.00602074	0.00840650	0.00390929	0.00138554	0.00416894	0.00536763	0.00268184	0.00529189	0.00326002	0.00073217	0.00195364	0.00140744	0.00181415
