TVC12_2_JMP_01_pelvis_thigh_marker_adjustment_task_1_initialErrors.sto
version=1
nRows=271
nColumns=28
inDegrees=no
endheader
time	R_Asis	L_Asis	R_Psis	L_Psis	Sacral	R_Thigh_Lateral	R_Knee_Lateral	R_Shank_Lateral	R_Ankle_Lateral	R_Heel	R_Toe	L_Thigh_Lateral	L_Knee_Lateral	L_Shank_Lateral	L_Ankle_Lateral	L_Heel	L_Toe	R_Shoulder	L_Shoulder	C7	J_Notch	Thoracic	Sternum	R_Elbow	L_Elbow	R_Wrist	L_Wrist
0.40000000	0.03309522	0.01797411	0.00135141	0.00832617	0.00445464	0.02664868	0.01858324	0.02198902	0.01241135	0.01453041	0.00822661	0.03798787	0.01290086	0.00736710	0.00608619	0.00982066	0.00822726	0.00503413	0.01124211	0.00373402	0.00152842	0.01410878	0.00873585	0.00182313	0.00539351	0.00313085	0.00210520
0.41000000	0.03333405	0.01780112	0.00140936	0.00870714	0.00465499	0.02687563	0.01821170	0.02239684	0.01251323	0.01456854	0.00811318	0.03774205	0.01312268	0.00767949	0.00616163	0.01022274	0.00852762	0.00491940	0.01119961	0.00357447	0.00153326	0.01368093	0.00872137	0.00175030	0.00546009	0.00300097	0.00203068
0.42000000	0.03351796	0.01746836	0.00156555	0.00914620	0.00494640	0.02698369	0.01797785	0.02262189	0.01239155	0.01438097	0.00808584	0.03712616	0.01346174	0.00786228	0.00623410	0.01043716	0.00857671	0.00478941	0.01117679	0.00332726	0.00149923	0.01317101	0.00868124	0.00166853	0.00552142	0.00294068	0.00213050
0.43000000	0.03329897	0.01713776	0.00172354	0.00943021	0.00514372	0.02688782	0.01846157	0.02251036	0.01219701	0.01401866	0.00862319	0.03618050	0.01389766	0.00788012	0.00619015	0.01032318	0.00846491	0.00456845	0.01115906	0.00311071	0.00157284	0.01270381	0.00890515	0.00169636	0.00563308	0.00276149	0.00233346
0.44000000	0.03345237	0.01645135	0.00218477	0.01011945	0.00574595	0.02681981	0.01760198	0.02265966	0.01189994	0.01383703	0.00796981	0.03481635	0.01405571	0.00756572	0.00636737	0.01080257	0.00816298	0.00447486	0.01101667	0.00301862	0.00151995	0.01206097	0.00872521	0.00138177	0.00562069	0.00284235	0.00222317
0.45000000	0.03322082	0.01560924	0.00270950	0.01067478	0.00630729	0.02644310	0.01718413	0.02269237	0.01161252	0.01358442	0.00770603	0.03340388	0.01435673	0.00714226	0.00625557	0.01088541	0.00760278	0.00434099	0.01094372	0.00305004	0.00145131	0.01147902	0.00852643	0.00155907	0.00562141	0.00253350	0.00234949
0.46000000	0.03273527	0.01533286	0.00311792	0.01118344	0.00677546	0.02602354	0.01754945	0.02220974	0.01109897	0.01299415	0.00798346	0.03157764	0.01469742	0.00672001	0.00592513	0.01012713	0.00777301	0.00408995	0.01088706	0.00309655	0.00146153	0.01092862	0.00858188	0.00184529	0.00566221	0.00213571	0.00267024
0.47000000	0.03237458	0.01393840	0.00372458	0.01170361	0.00739692	0.02553091	0.01722825	0.02175619	0.01048284	0.01246658	0.00728950	0.03036255	0.01467819	0.00589459	0.00603393	0.01104275	0.00645019	0.00397139	0.01066715	0.00319918	0.00149999	0.01042063	0.00829291	0.00151254	0.00558028	0.00219734	0.00240677
0.48000000	0.03129495	0.01238997	0.00417099	0.01172354	0.00766390	0.02466551	0.01801592	0.02092800	0.00991573	0.01194947	0.00692321	0.02987743	0.01558250	0.00491729	0.00547314	0.01025174	0.00562276	0.00364317	0.01042250	0.00325607	0.00150274	0.01006470	0.00819770	0.00158955	0.00546839	0.00189208	0.00249891
0.49000000	0.03069568	0.01189012	0.00467166	0.01220763	0.00818848	0.02384767	0.01815108	0.02007273	0.00904938	0.01109367	0.00661347	0.02839904	0.01555602	0.00464137	0.00544161	0.01024748	0.00532319	0.00343796	0.01029182	0.00334371	0.00157842	0.00960911	0.00785428	0.00160803	0.00537445	0.00171365	0.00255861
0.50000000	0.02938852	0.01094927	0.00500403	0.01210735	0.00832743	0.02273784	0.01900190	0.01899274	0.00837882	0.01052388	0.00613621	0.02791159	0.01641923	0.00435138	0.00511757	0.00954936	0.00428438	0.00308146	0.01006471	0.00331553	0.00158236	0.00932497	0.00762180	0.00171832	0.00527649	0.00140006	0.00260920
0.51000000	0.02881598	0.01066923	0.00556774	0.01259504	0.00888782	0.02147964	0.01859745	0.01838639	0.00743943	0.00993561	0.00514808	0.02665466	0.01653943	0.00487210	0.00532031	0.00919292	0.00479793	0.00283412	0.00961311	0.00340493	0.00174407	0.00885389	0.00741526	0.00173035	0.00489667	0.00125054	0.00251032
0.52000000	0.02721919	0.01034304	0.00572169	0.01225290	0.00879424	0.02048801	0.01996413	0.01665601	0.00662048	0.00880314	0.00510826	0.02606514	0.01737297	0.00523763	0.00531354	0.00930834	0.00360975	0.00251854	0.00943797	0.00327693	0.00169825	0.00876327	0.00713906	0.00182394	0.00481658	0.00094712	0.00257030
0.53000000	0.02678347	0.01052659	0.00622948	0.01269270	0.00930200	0.01908330	0.01908162	0.01623461	0.00567010	0.00842467	0.00347724	0.02500346	0.01794253	0.00549384	0.00528305	0.00892401	0.00375763	0.00224961	0.00888616	0.00337222	0.00178253	0.00832906	0.00679170	0.00193437	0.00430435	0.00066781	0.00251179
0.54000000	0.02550399	0.01042105	0.00633907	0.01239988	0.00920223	0.01819292	0.01991903	0.01437531	0.00470965	0.00671543	0.00413161	0.02449686	0.01864851	0.00573077	0.00538059	0.00925553	0.00361409	0.00207479	0.00861897	0.00320791	0.00185585	0.00838272	0.00647442	0.00179709	0.00398163	0.00061739	0.00242504
0.55000000	0.02418755	0.01077311	0.00655181	0.01219632	0.00920810	0.01727683	0.02053149	0.01278584	0.00375229	0.00549169	0.00371537	0.02388202	0.01931674	0.00614291	0.00562098	0.00943599	0.00357423	0.00187892	0.00820594	0.00314764	0.00185982	0.00834064	0.00615711	0.00173144	0.00357836	0.00054834	0.00230307
0.56000000	0.02311839	0.01112257	0.00674400	0.01204694	0.00923738	0.01643374	0.02061484	0.01138592	0.00296110	0.00479377	0.00289417	0.02345557	0.01993494	0.00634956	0.00571712	0.00951205	0.00336477	0.00160090	0.00781392	0.00295654	0.00198980	0.00825513	0.00577083	0.00167926	0.00314310	0.00025227	0.00210932
0.57000000	0.02229648	0.01123756	0.00705302	0.01201008	0.00937784	0.01555702	0.02037350	0.01022060	0.00216083	0.00388500	0.00226633	0.02311654	0.02033715	0.00642174	0.00570990	0.00940116	0.00349528	0.00141019	0.00733047	0.00286688	0.00206623	0.00821255	0.00540672	0.00153712	0.00258822	0.00015904	0.00188476
0.58000000	0.02112384	0.01134513	0.00740696	0.01186384	0.00948224	0.01480411	0.02056988	0.00882775	0.00129668	0.00268127	0.00198865	0.02257827	0.02055881	0.00679417	0.00593764	0.00940401	0.00363063	0.00123698	0.00688276	0.00278065	0.00213157	0.00820913	0.00502649	0.00136092	0.00212396	0.00030109	0.00157730
0.59000000	0.02018464	0.01136298	0.00778346	0.01183028	0.00965297	0.01406761	0.02049598	0.00767052	0.00062956	0.00198643	0.00144410	0.02212041	0.02063373	0.00699127	0.00589167	0.00913181	0.00365240	0.00106016	0.00642859	0.00272579	0.00218103	0.00819381	0.00470815	0.00116955	0.00155237	0.00007218	0.00142589
0.60000000	0.01924488	0.01123818	0.00813405	0.01176682	0.00979679	0.01335271	0.02051619	0.00644348	0.00028667	0.00165427	0.00107656	0.02175596	0.02058045	0.00740414	0.00592074	0.00890814	0.00367502	0.00090471	0.00598290	0.00259186	0.00228619	0.00817860	0.00442723	0.00098086	0.00098080	0.00015271	0.00118487
0.61000000	0.01838072	0.01112094	0.00842181	0.01171676	0.00991141	0.01251278	0.02059322	0.00551973	0.00082496	0.00197550	0.00071493	0.02149358	0.02045048	0.00793183	0.00590901	0.00865104	0.00373884	0.00087279	0.00555366	0.00255311	0.00233024	0.00822383	0.00417061	0.00076217	0.00060779	0.00021496	0.00088319
0.62000000	0.01734389	0.01096876	0.00865181	0.01161544	0.00997450	0.01157891	0.02095507	0.00478423	0.00144940	0.00258132	0.00074188	0.02125587	0.02040944	0.00850040	0.00596029	0.00849023	0.00368806	0.00083246	0.00517898	0.00253494	0.00240203	0.00824379	0.00381000	0.00065596	0.00038831	0.00029236	0.00060603
0.63000000	0.01635914	0.01084502	0.00877727	0.01151311	0.00998268	0.01053748	0.02144559	0.00439064	0.00203792	0.00337882	0.00090153	0.02096768	0.02054368	0.00884019	0.00591188	0.00843198	0.00347130	0.00085678	0.00479771	0.00250888	0.00246987	0.00824699	0.00362107	0.00054300	0.00065659	0.00035714	0.00034546
0.64000000	0.01548100	0.01079663	0.00880010	0.01145151	0.00995427	0.00941675	0.02203045	0.00441406	0.00263750	0.00424246	0.00125598	0.02057698	0.02080387	0.00895897	0.00581361	0.00838561	0.00326403	0.00099968	0.00442055	0.00255570	0.00250371	0.00825297	0.00352554	0.00040754	0.00100814	0.00038059	0.00030867
0.65000000	0.01436405	0.01077857	0.00870410	0.01131970	0.00982940	0.00827380	0.02287483	0.00505389	0.00317012	0.00505918	0.00146107	0.02018720	0.02129209	0.00877322	0.00578843	0.00847591	0.00316884	0.00099014	0.00421322	0.00249562	0.00263418	0.00820666	0.00330800	0.00044329	0.00129481	0.00048399	0.00030633
0.66000000	0.01330523	0.01106272	0.00842318	0.01120338	0.00960659	0.00715766	0.02375851	0.00674805	0.00360191	0.00528032	0.00198631	0.01965921	0.02170200	0.00838984	0.00602496	0.00897339	0.00322159	0.00095493	0.00407255	0.00254018	0.00271939	0.00821257	0.00315686	0.00026200	0.00140303	0.00060954	0.00046840
0.67000000	0.01298247	0.01143467	0.00814568	0.01140154	0.00953518	0.00599977	0.02440902	0.00836440	0.00394925	0.00576834	0.00192671	0.01923643	0.02208078	0.00770344	0.00611566	0.00923269	0.00365614	0.00111452	0.00391172	0.00258289	0.00277310	0.00812288	0.00314052	0.00017171	0.00156462	0.00060073	0.00070074
0.68000000	0.01250066	0.01160651	0.00804070	0.01160856	0.00955848	0.00497520	0.02514853	0.00920224	0.00441800	0.00654759	0.00197719	0.01951163	0.02270999	0.00711630	0.00594677	0.00911246	0.00394763	0.00120779	0.00369730	0.00263710	0.00279310	0.00793093	0.00310074	0.00022765	0.00188329	0.00063996	0.00087032
0.69000000	0.01226095	0.01216479	0.00770922	0.01186990	0.00948098	0.00399246	0.02562037	0.01164414	0.00463139	0.00670084	0.00164190	0.01882302	0.02286659	0.00674038	0.00639449	0.00962106	0.00445752	0.00118772	0.00367299	0.00271290	0.00282657	0.00782201	0.00318505	0.00014727	0.00180752	0.00068220	0.00105605
0.70000000	0.01152144	0.01233450	0.00766973	0.01207943	0.00954214	0.00393347	0.02626610	0.01279277	0.00511871	0.00723510	0.00180159	0.01873627	0.02327255	0.00665357	0.00648505	0.00960785	0.00454472	0.00111863	0.00355423	0.00277148	0.00285354	0.00754067	0.00318202	0.00020436	0.00191906	0.00075023	0.00134750
0.71000000	0.01142901	0.01239214	0.00738594	0.01224769	0.00944996	0.00396482	0.02647237	0.01481702	0.00528284	0.00750268	0.00137221	0.01848019	0.02336516	0.00674921	0.00660013	0.00955964	0.00452180	0.00114774	0.00346153	0.00283780	0.00285968	0.00744302	0.00322589	0.00023287	0.00188991	0.00071089	0.00142533
0.72000000	0.01134247	0.01210956	0.00752834	0.01268360	0.00973025	0.00563019	0.02698581	0.01522823	0.00568266	0.00778187	0.00217757	0.01832277	0.02344151	0.00674698	0.00639857	0.00901023	0.00442744	0.00120467	0.00325180	0.00303120	0.00283886	0.00708472	0.00318426	0.00020095	0.00212402	0.00066701	0.00153435
0.73000000	0.01070221	0.01175671	0.00764353	0.01288689	0.00989160	0.00707214	0.02745736	0.01606160	0.00604986	0.00811197	0.00270070	0.01768317	0.02345962	0.00712814	0.00639438	0.00860696	0.00440666	0.00108940	0.00315746	0.00315629	0.00282903	0.00677334	0.00314732	0.00018942	0.00230650	0.00073129	0.00167336
0.74000000	0.01011985	0.01155648	0.00712746	0.01255612	0.00944468	0.00716240	0.02703960	0.01860938	0.00601476	0.00849069	0.00144489	0.01692696	0.02337048	0.00801002	0.00659769	0.00862291	0.00367512	0.00089364	0.00330815	0.00299283	0.00289336	0.00686377	0.00311475	0.00042961	0.00185665	0.00071870	0.00197358
0.75000000	0.01060050	0.01091509	0.00720113	0.01299049	0.00970756	0.00897629	0.02738091	0.01854953	0.00647673	0.00850851	0.00237029	0.01650651	0.02316618	0.00825237	0.00626292	0.00777964	0.00367853	0.00100792	0.00315713	0.00309054	0.00286414	0.00655846	0.00310087	0.00032689	0.00222288	0.00069306	0.00198064
0.76000000	0.00962944	0.01067430	0.00682197	0.01261359	0.00932432	0.00962918	0.02707471	0.02030407	0.00645649	0.00907774	0.00194378	0.01591960	0.02301981	0.00927327	0.00636800	0.00763021	0.00290137	0.00074234	0.00320748	0.00308889	0.00287028	0.00659146	0.00309331	0.00056119	0.00190868	0.00067104	0.00220475
0.77000000	0.00930131	0.01015320	0.00659983	0.01256862	0.00921035	0.01077602	0.02716370	0.02092806	0.00666374	0.00930536	0.00208396	0.01558059	0.02274822	0.01006096	0.00636371	0.00715086	0.00268216	0.00061808	0.00311279	0.00316764	0.00285645	0.00646124	0.00300925	0.00063797	0.00212155	0.00072155	0.00229281
0.78000000	0.00924528	0.00970326	0.00646777	0.01263057	0.00918881	0.01215852	0.02745861	0.02089815	0.00700800	0.00949317	0.00248228	0.01522084	0.02265362	0.01044229	0.00613697	0.00640563	0.00285250	0.00067283	0.00307164	0.00322773	0.00287035	0.00630410	0.00298772	0.00058291	0.00226759	0.00064892	0.00239243
0.79000000	0.00894946	0.00935165	0.00591715	0.01229730	0.00875060	0.01339322	0.02728389	0.02162613	0.00707311	0.00986821	0.00266315	0.01511744	0.02245240	0.01107730	0.00602337	0.00622366	0.00215261	0.00066812	0.00302137	0.00319214	0.00289232	0.00638936	0.00297946	0.00065391	0.00206714	0.00057331	0.00264525
0.80000000	0.00998721	0.00888625	0.00576708	0.01260801	0.00884825	0.01482353	0.02786512	0.02075203	0.00744734	0.00996133	0.00265123	0.01501429	0.02209095	0.01132002	0.00577685	0.00583435	0.00167533	0.00087698	0.00279159	0.00348597	0.00281158	0.00629336	0.00281968	0.00043764	0.00228362	0.00052660	0.00286841
0.81000000	0.00827858	0.00877927	0.00537656	0.01196301	0.00835213	0.01591487	0.02798714	0.02165571	0.00740770	0.01025821	0.00332399	0.01454732	0.02209399	0.01179007	0.00601102	0.00570706	0.00186060	0.00060141	0.00293427	0.00327640	0.00294234	0.00622012	0.00288628	0.00071280	0.00235092	0.00061519	0.00289766
0.82000000	0.00915497	0.00834987	0.00498316	0.01200245	0.00820028	0.01720111	0.02850784	0.02110452	0.00772328	0.01038565	0.00324834	0.01453980	0.02200513	0.01166897	0.00565747	0.00522140	0.00168924	0.00067860	0.00272846	0.00336044	0.00291976	0.00623990	0.00283739	0.00063501	0.00248501	0.00057228	0.00310195
0.83000000	0.00868274	0.00827184	0.00464820	0.01168573	0.00789331	0.01839308	0.02888986	0.02125419	0.00780487	0.01056178	0.00364576	0.01416035	0.02198844	0.01166794	0.00568471	0.00501321	0.00176588	0.00066726	0.00275531	0.00333383	0.00301514	0.00619497	0.00274832	0.00069073	0.00259074	0.00063086	0.00318642
0.84000000	0.01044778	0.00802212	0.00429629	0.01181640	0.00779793	0.01962909	0.02933144	0.02078372	0.00814869	0.01059132	0.00317755	0.01394740	0.02142603	0.01195437	0.00585486	0.00542824	0.00096368	0.00098125	0.00265349	0.00346507	0.00303926	0.00628716	0.00254149	0.00040217	0.00268004	0.00047515	0.00342107
0.85000000	0.00833331	0.00852105	0.00407273	0.01120879	0.00737640	0.02084961	0.02937406	0.02174200	0.00798962	0.01085048	0.00457059	0.01315640	0.02150351	0.01181406	0.00599025	0.00510053	0.00139460	0.00073400	0.00259527	0.00342480	0.00304945	0.00616157	0.00274782	0.00069013	0.00266201	0.00057677	0.00337379
0.86000000	0.00892463	0.00841424	0.00367116	0.01113873	0.00715115	0.02194706	0.02990656	0.02160016	0.00835655	0.01081986	0.00451440	0.01306790	0.02151126	0.01139995	0.00568510	0.00476873	0.00104425	0.00076329	0.00247999	0.00340862	0.00304602	0.00628310	0.00270618	0.00063778	0.00278631	0.00054564	0.00339730
0.87000000	0.00864811	0.00864151	0.00356475	0.01100308	0.00703896	0.02299685	0.03006526	0.02210193	0.00849621	0.01095141	0.00515686	0.01235943	0.02125500	0.01121775	0.00594466	0.00482583	0.00115207	0.00076715	0.00244172	0.00346270	0.00309125	0.00618516	0.00268250	0.00065108	0.00281238	0.00055837	0.00344149
0.88000000	0.00898335	0.00850885	0.00334026	0.01100585	0.00694385	0.02388003	0.03052177	0.02218172	0.00892139	0.01100731	0.00519106	0.01216007	0.02112418	0.01087240	0.00581613	0.00472749	0.00104026	0.00080982	0.00239732	0.00348104	0.00308713	0.00626115	0.00256168	0.00060422	0.00289509	0.00049071	0.00344102
0.89000000	0.00905643	0.00837331	0.00326094	0.01102529	0.00693698	0.02461244	0.03093193	0.02242272	0.00924559	0.01108903	0.00547775	0.01187438	0.02087949	0.01063846	0.00582117	0.00466043	0.00108874	0.00084118	0.00227081	0.00355885	0.00309222	0.00625908	0.00253858	0.00058603	0.00290603	0.00041307	0.00343281
0.90000000	0.00905555	0.00825789	0.00321607	0.01108307	0.00696616	0.02526636	0.03125037	0.02279383	0.00957394	0.01116396	0.00569664	0.01151535	0.02058394	0.01042371	0.00583706	0.00457304	0.00123733	0.00081824	0.00223315	0.00358502	0.00310309	0.00624142	0.00251094	0.00061617	0.00290876	0.00038848	0.00339466
0.91000000	0.00895943	0.00810248	0.00325376	0.01118692	0.00705628	0.02582589	0.03149570	0.02323054	0.00986548	0.01124811	0.00591626	0.01109726	0.02023260	0.01021114	0.00585254	0.00449659	0.00138882	0.00079082	0.00219866	0.00363667	0.00309676	0.00621254	0.00247822	0.00065513	0.00290524	0.00034974	0.00333812
0.92000000	0.00873938	0.00795253	0.00313378	0.01112978	0.00698223	0.02649804	0.03162205	0.02385886	0.01020859	0.01138539	0.00581746	0.01080243	0.01959331	0.01032964	0.00599691	0.00518654	0.00141804	0.00076096	0.00236857	0.00352763	0.00318581	0.00627365	0.00234742	0.00070453	0.00302164	0.00059591	0.00310296
0.93000000	0.00869522	0.00766762	0.00345512	0.01144797	0.00731259	0.02671237	0.03172337	0.02422093	0.01032480	0.01136650	0.00631616	0.01021596	0.01933542	0.00990680	0.00585000	0.00439099	0.00171967	0.00069614	0.00209338	0.00374908	0.00306154	0.00618663	0.00246966	0.00081360	0.00284218	0.00038236	0.00312153
0.94000000	0.00927960	0.00719132	0.00379304	0.01200537	0.00774931	0.02669516	0.03199338	0.02432017	0.01056354	0.01132871	0.00601471	0.00977902	0.01884162	0.00923394	0.00578468	0.00409645	0.00116574	0.00080651	0.00213525	0.00384273	0.00303374	0.00616375	0.00236015	0.00066602	0.00290178	0.00031466	0.00298588
0.95000000	0.00890969	0.00710186	0.00395503	0.01208252	0.00785863	0.02707389	0.03183466	0.02481799	0.01066430	0.01130970	0.00633515	0.00916677	0.01820326	0.00927772	0.00576449	0.00405867	0.00147155	0.00075772	0.00217851	0.00383824	0.00305099	0.00614433	0.00239327	0.00082395	0.00277466	0.00031589	0.00282411
0.96000000	0.00879546	0.00683927	0.00420094	0.01225330	0.00805005	0.02735117	0.03155932	0.02513362	0.01069850	0.01130706	0.00655116	0.00869877	0.01762940	0.00918892	0.00566062	0.00380317	0.00156031	0.00078277	0.00214090	0.00393737	0.00301167	0.00617268	0.00234462	0.00086872	0.00263525	0.00025330	0.00270466
0.97000000	0.00873949	0.00657287	0.00435360	0.01235625	0.00816660	0.02761812	0.03120032	0.02541147	0.01068301	0.01114683	0.00667280	0.00820694	0.01695541	0.00923855	0.00560250	0.00363792	0.00166891	0.00071467	0.00226052	0.00392472	0.00300396	0.00621933	0.00225103	0.00103709	0.00260501	0.00033094	0.00253059
0.98000000	0.00975777	0.00604879	0.00477592	0.01285761	0.00858374	0.02743635	0.03116103	0.02475511	0.01072333	0.01099877	0.00625691	0.00819291	0.01644003	0.00867384	0.00528979	0.00339971	0.00113407	0.00085333	0.00218587	0.00404516	0.00289563	0.00630532	0.00208711	0.00094143	0.00273137	0.00031902	0.00237334
0.99000000	0.00916803	0.00609243	0.00476129	0.01267744	0.00849519	0.02794340	0.03024307	0.02503162	0.01059962	0.01130954	0.00656840	0.00775433	0.01551020	0.00907399	0.00525044	0.00393980	0.00117290	0.00092996	0.00226791	0.00400984	0.00292082	0.00631995	0.00211804	0.00116215	0.00284982	0.00073800	0.00199620
1.00000000	0.01016823	0.00555786	0.00508468	0.01301568	0.00879307	0.02776829	0.02975718	0.02434345	0.01034420	0.01066938	0.00617240	0.00750775	0.01529207	0.00849480	0.00486380	0.00270163	0.00100212	0.00100215	0.00215293	0.00412933	0.00278448	0.00648377	0.00194007	0.00113361	0.00257598	0.00030401	0.00210777
1.01000000	0.01004032	0.00546795	0.00505376	0.01291196	0.00873480	0.02804828	0.02883167	0.02397297	0.01011831	0.01053763	0.00613658	0.00687666	0.01452269	0.00876266	0.00474459	0.00247392	0.00137011	0.00104158	0.00223127	0.00414650	0.00277242	0.00654893	0.00188249	0.00124840	0.00248551	0.00032196	0.00189243
1.02000000	0.01080029	0.00509387	0.00517681	0.01303200	0.00885722	0.02795207	0.02803017	0.02294535	0.00977629	0.01023329	0.00565178	0.00691435	0.01398176	0.00852132	0.00448388	0.00210612	0.00106401	0.00108957	0.00218931	0.00422438	0.00265114	0.00670619	0.00168783	0.00132896	0.00257321	0.00038637	0.00192809
1.03000000	0.01070808	0.00504270	0.00499722	0.01280898	0.00867396	0.02819454	0.02687633	0.02221181	0.00942444	0.01011221	0.00539729	0.00620671	0.01328173	0.00883255	0.00428868	0.00179039	0.00144671	0.00119070	0.00221641	0.00423490	0.00263108	0.00680020	0.00165500	0.00145109	0.00246187	0.00042604	0.00168677
1.04000000	0.01163181	0.00492461	0.00516486	0.01293616	0.00882312	0.02792762	0.02594824	0.02057627	0.00893953	0.00970117	0.00474701	0.00636933	0.01273746	0.00851561	0.00401102	0.00149546	0.00117940	0.00114621	0.00226696	0.00435523	0.00256078	0.00688174	0.00149467	0.00137700	0.00263199	0.00038326	0.00160751
1.05000000	0.01188953	0.00489590	0.00507547	0.01278139	0.00872358	0.02789094	0.02479739	0.01913602	0.00850015	0.00934094	0.00419267	0.00605519	0.01217202	0.00850017	0.00375417	0.00122038	0.00135016	0.00125301	0.00232114	0.00437752	0.00254366	0.00694034	0.00146833	0.00143911	0.00266444	0.00032967	0.00148310
1.06000000	0.01212541	0.00476091	0.00488796	0.01255738	0.00854715	0.02781588	0.02360237	0.01745837	0.00799640	0.00905379	0.00366547	0.00574793	0.01157140	0.00858227	0.00355588	0.00103948	0.00152995	0.00141007	0.00232386	0.00438023	0.00251344	0.00705857	0.00143326	0.00153186	0.00279417	0.00040947	0.00139229
1.07000000	0.01223336	0.00482138	0.00471429	0.01229931	0.00836194	0.02766270	0.02233703	0.01572009	0.00748469	0.00867362	0.00311562	0.00555959	0.01098526	0.00861788	0.00336427	0.00100442	0.00169956	0.00138540	0.00242316	0.00443675	0.00250882	0.00711434	0.00139421	0.00158807	0.00280944	0.00042684	0.00127313
1.08000000	0.01170156	0.00447395	0.00419436	0.01161760	0.00781680	0.02775236	0.02074016	0.01479678	0.00690279	0.00869297	0.00278201	0.00526984	0.01041488	0.00896175	0.00326349	0.00133920	0.00209308	0.00152165	0.00259335	0.00431157	0.00256317	0.00726729	0.00139686	0.00185936	0.00284662	0.00062484	0.00110722
1.09000000	0.01213080	0.00498287	0.00407637	0.01161619	0.00777246	0.02728435	0.01979389	0.01205716	0.00626778	0.00782534	0.00220661	0.00538754	0.01010063	0.00836489	0.00288702	0.00133489	0.00206693	0.00157465	0.00247835	0.00445442	0.00246342	0.00735068	0.00134443	0.00173635	0.00287484	0.00038656	0.00116622
1.10000000	0.01189103	0.00502513	0.00384882	0.01122011	0.00749144	0.02703184	0.01867258	0.00966019	0.00578173	0.00749093	0.00205915	0.00528136	0.00962679	0.00845059	0.00274571	0.00158719	0.00217282	0.00164334	0.00253535	0.00450100	0.00245622	0.00735310	0.00135769	0.00185262	0.00290527	0.00038968	0.00107834
1.11000000	0.01117945	0.00477610	0.00326503	0.01044071	0.00684483	0.02718135	0.01740683	0.00840126	0.00511621	0.00733586	0.00197752	0.00504890	0.00926489	0.00874099	0.00266824	0.00192645	0.00240304	0.00173596	0.00271460	0.00437875	0.00248289	0.00750755	0.00134932	0.00213638	0.00289194	0.00060335	0.00092844
1.12000000	0.01121207	0.00517630	0.00320035	0.01032550	0.00675977	0.02667430	0.01663035	0.00506781	0.00455341	0.00680884	0.00196326	0.00530659	0.00897385	0.00835840	0.00241260	0.00221527	0.00247848	0.00187592	0.00262032	0.00452539	0.00244134	0.00750986	0.00135321	0.00202698	0.00289074	0.00042269	0.00093586
1.13000000	0.01051441	0.00502314	0.00274615	0.00950093	0.00609729	0.02705391	0.01569021	0.00374567	0.00391381	0.00670925	0.00209798	0.00511576	0.00871578	0.00869079	0.00237892	0.00259043	0.00262468	0.00198691	0.00283009	0.00436729	0.00244751	0.00763010	0.00135482	0.00242145	0.00285346	0.00076287	0.00086854
1.14000000	0.01046543	0.00525044	0.00279801	0.00929334	0.00599792	0.02661526	0.01505652	0.00148753	0.00349753	0.00679129	0.00235025	0.00544826	0.00847125	0.00847418	0.00223295	0.00285661	0.00270891	0.00211775	0.00281751	0.00449227	0.00247880	0.00760727	0.00139324	0.00237020	0.00281947	0.00057873	0.00078432
1.15000000	0.01030514	0.00520991	0.00280346	0.00877643	0.00567953	0.02669438	0.01447755	0.00286361	0.00309750	0.00698599	0.00263141	0.00547900	0.00834514	0.00864212	0.00218400	0.00323961	0.00284472	0.00223275	0.00293641	0.00451009	0.00249342	0.00759847	0.00139356	0.00256097	0.00274314	0.00069773	0.00063910
1.16000000	0.01009399	0.00526092	0.00286342	0.00826653	0.00534837	0.02695153	0.01413936	0.00488451	0.00272593	0.00709217	0.00290475	0.00552257	0.00822514	0.00877416	0.00214647	0.00357990	0.00294319	0.00240225	0.00307376	0.00447855	0.00249924	0.00764802	0.00136385	0.00274867	0.00258385	0.00081076	0.00050836
1.17000000	0.00987774	0.00535547	0.00318866	0.00770267	0.00504542	0.02785528	0.01378874	0.00597741	0.00227056	0.00696135	0.00303227	0.00596330	0.00795732	0.00888994	0.00227942	0.00355087	0.00310957	0.00257434	0.00319171	0.00443405	0.00247189	0.00773227	0.00136203	0.00291396	0.00249402	0.00094078	0.00036711
1.18000000	0.00989276	0.00534289	0.00342533	0.00741058	0.00495625	0.02746130	0.01398832	0.00821977	0.00228272	0.00718966	0.00339170	0.00573420	0.00802818	0.00899639	0.00221606	0.00412279	0.00305543	0.00271096	0.00340719	0.00444576	0.00253719	0.00774414	0.00133083	0.00308438	0.00219953	0.00102228	0.00029557
1.19000000	0.00982499	0.00543305	0.00390998	0.00699453	0.00485353	0.02812519	0.01403155	0.00871155	0.00207896	0.00681314	0.00325684	0.00609914	0.00781893	0.00914662	0.00235818	0.00402932	0.00329404	0.00287156	0.00354550	0.00444397	0.00245548	0.00782901	0.00121302	0.00330121	0.00201524	0.00125085	0.00018648
1.20000000	0.00965328	0.00527306	0.00417978	0.00678645	0.00488294	0.02761100	0.01440399	0.01004943	0.00227455	0.00685799	0.00379328	0.00582778	0.00795537	0.00917801	0.00235985	0.00454503	0.00317166	0.00305506	0.00382276	0.00438887	0.00251596	0.00788326	0.00117880	0.00350465	0.00168151	0.00133583	0.00001783
1.21000000	0.00963493	0.00530597	0.00468271	0.00653089	0.00496315	0.02768793	0.01475167	0.00987457	0.00218637	0.00625106	0.00362216	0.00614479	0.00783207	0.00930309	0.00248788	0.00437462	0.00341672	0.00321629	0.00412613	0.00433817	0.00252155	0.00792574	0.00108661	0.00371828	0.00137358	0.00167293	0.00042558
1.22000000	0.00966935	0.00528654	0.00519181	0.00632559	0.00511623	0.02733632	0.01522367	0.00950306	0.00204256	0.00559153	0.00377662	0.00649774	0.00781910	0.00929499	0.00262013	0.00422813	0.00359140	0.00345938	0.00449408	0.00419735	0.00260301	0.00796844	0.00107412	0.00393703	0.00108014	0.00201186	0.00081895
1.23000000	0.00914767	0.00525557	0.00547120	0.00646694	0.00538632	0.02635696	0.01571362	0.00944083	0.00263821	0.00549879	0.00430018	0.00627357	0.00789106	0.00920227	0.00273642	0.00454258	0.00298335	0.00357984	0.00466539	0.00427236	0.00251795	0.00804177	0.00096076	0.00414976	0.00083223	0.00196384	0.00061881
1.24000000	0.00815306	0.00493599	0.00565509	0.00665388	0.00564307	0.02543974	0.01621982	0.00943986	0.00271843	0.00511376	0.00433154	0.00591218	0.00803090	0.00909152	0.00270603	0.00468419	0.00316278	0.00366676	0.00503555	0.00417268	0.00252495	0.00819614	0.00092773	0.00424489	0.00057715	0.00213160	0.00086435
1.25000000	0.00822807	0.00496970	0.00599773	0.00667266	0.00587747	0.02408767	0.01697272	0.00873609	0.00266177	0.00424672	0.00451204	0.00616371	0.00801536	0.00912286	0.00296807	0.00436303	0.00306309	0.00392362	0.00535957	0.00411009	0.00257320	0.00819194	0.00093252	0.00448213	0.00023678	0.00257276	0.00129001
1.26000000	0.00734663	0.00456978	0.00618034	0.00703924	0.00622297	0.02299840	0.01725676	0.00806609	0.00320237	0.00453046	0.00432871	0.00622891	0.00811383	0.00901148	0.00306430	0.00432016	0.00282006	0.00387182	0.00572056	0.00411254	0.00254133	0.00829126	0.00093484	0.00456014	0.00072671	0.00250943	0.00124221
1.27000000	0.00645697	0.00430894	0.00640280	0.00730402	0.00651114	0.02207784	0.01770673	0.00734398	0.00305099	0.00389414	0.00401799	0.00579666	0.00835829	0.00904266	0.00317982	0.00432451	0.00290368	0.00392259	0.00612320	0.00394639	0.00254249	0.00851012	0.00100617	0.00460416	0.00095221	0.00267149	0.00147492
1.28000000	0.00663257	0.00438722	0.00663826	0.00744286	0.00674559	0.02005758	0.01860717	0.00695828	0.00280376	0.00320496	0.00426153	0.00615482	0.00854832	0.00895055	0.00355316	0.00396799	0.00246722	0.00413865	0.00641490	0.00391677	0.00256671	0.00843847	0.00128797	0.00480010	0.00094989	0.00311709	0.00191372
1.29000000	0.00568231	0.00359759	0.00672452	0.00792452	0.00707875	0.01910847	0.01859492	0.00628234	0.00317280	0.00378240	0.00355321	0.00643116	0.00873341	0.00905537	0.00368785	0.00362878	0.00249708	0.00395824	0.00684960	0.00380462	0.00256325	0.00866890	0.00137754	0.00471018	0.00151850	0.00293610	0.00188903
1.30000000	0.00507187	0.00323711	0.00677332	0.00830771	0.00731519	0.01808777	0.01885328	0.00571575	0.00285648	0.00338772	0.00290781	0.00598999	0.00911973	0.00929527	0.00390874	0.00354361	0.00243188	0.00384626	0.00729950	0.00361121	0.00255027	0.00893937	0.00152613	0.00467933	0.00182426	0.00298192	0.00207331
1.31000000	0.00512588	0.00316310	0.00702950	0.00857003	0.00759923	0.01630363	0.01935775	0.00501883	0.00275661	0.00335921	0.00267490	0.00623096	0.00954449	0.00947007	0.00429413	0.00316343	0.00199989	0.00380193	0.00765495	0.00348489	0.00260638	0.00896343	0.00188711	0.00454352	0.00191158	0.00302968	0.00242477
1.32000000	0.00504896	0.00276115	0.00703175	0.00880991	0.00773398	0.01564328	0.01935730	0.00375702	0.00217770	0.00273407	0.00159675	0.00592171	0.01013995	0.00985877	0.00454995	0.00308366	0.00208010	0.00371985	0.00802919	0.00323259	0.00258035	0.00936573	0.00207728	0.00452692	0.00222893	0.00310260	0.00247369
1.33000000	0.00527772	0.00278737	0.00717577	0.00907305	0.00795809	0.01379827	0.01977997	0.00287017	0.00212509	0.00288671	0.00134571	0.00600435	0.01089192	0.01005037	0.00497236	0.00276483	0.00157407	0.00364400	0.00827788	0.00311208	0.00261199	0.00942469	0.00244742	0.00437061	0.00226386	0.00309217	0.00269754
1.34000000	0.00591472	0.00262233	0.00696962	0.00948030	0.00807174	0.01299995	0.01964755	0.00189339	0.00152547	0.00225277	0.00056551	0.00583808	0.01146519	0.01052086	0.00522866	0.00275303	0.00151866	0.00336462	0.00863732	0.00291647	0.00258739	0.00983224	0.00256315	0.00418791	0.00250245	0.00297998	0.00273043
1.35000000	0.00620690	0.00266721	0.00698355	0.00971137	0.00821698	0.01166068	0.01989123	0.00087248	0.00140460	0.00221815	0.00092707	0.00600170	0.01238488	0.01087081	0.00567428	0.00257031	0.00113105	0.00323901	0.00881292	0.00280635	0.00260724	0.00998513	0.00289264	0.00402809	0.00250909	0.00289434	0.00285933
1.36000000	0.00726901	0.00302452	0.00681714	0.01003111	0.00830122	0.01092942	0.01979603	0.00105143	0.00133771	0.00173676	0.00108996	0.00547644	0.01331675	0.01144240	0.00600914	0.00289979	0.00081287	0.00296982	0.00907822	0.00266342	0.00258009	0.01036072	0.00308068	0.00377770	0.00260188	0.00276589	0.00289829
1.37000000	0.00780637	0.00340687	0.00676565	0.01024970	0.00840093	0.01027269	0.01991614	0.00207928	0.00147613	0.00156764	0.00169939	0.00517348	0.01444920	0.01201069	0.00647401	0.00327655	0.00053434	0.00277781	0.00923962	0.00253791	0.00260981	0.01058559	0.00329676	0.00354733	0.00258910	0.00261810	0.00295004
1.38000000	0.00816847	0.00379071	0.00683394	0.01040079	0.00852189	0.00990115	0.02010701	0.00317112	0.00158043	0.00178025	0.00218716	0.00494042	0.01600187	0.01241524	0.00680176	0.00362770	0.00031934	0.00261929	0.00927467	0.00247537	0.00260650	0.01076345	0.00352470	0.00331447	0.00248656	0.00248689	0.00291519
1.39000000	0.00861378	0.00435567	0.00681604	0.01054253	0.00859132	0.00962716	0.02025939	0.00399612	0.00182895	0.00169109	0.00254844	0.00459093	0.01740322	0.01308792	0.00720599	0.00444978	0.00072123	0.00241604	0.00940708	0.00236504	0.00265395	0.01097034	0.00366775	0.00308155	0.00244063	0.00229154	0.00292188
1.40000000	0.00903207	0.00494052	0.00682223	0.01061132	0.00862982	0.00927711	0.02039099	0.00457880	0.00207310	0.00170215	0.00279144	0.00432029	0.01893828	0.01384913	0.00755865	0.00519743	0.00130246	0.00218342	0.00948173	0.00236020	0.00265209	0.01123100	0.00377365	0.00287495	0.00241255	0.00214129	0.00284370
1.41000000	0.00953542	0.00582811	0.00670126	0.01061591	0.00856811	0.00884163	0.02048885	0.00456470	0.00222446	0.00170717	0.00295954	0.00408660	0.02030465	0.01492330	0.00782431	0.00603207	0.00162642	0.00208608	0.00967071	0.00227354	0.00276575	0.01146928	0.00399190	0.00271837	0.00237632	0.00201910	0.00292632
1.42000000	0.00986570	0.00651251	0.00671592	0.01057158	0.00854463	0.00814632	0.02073029	0.00416958	0.00238420	0.00164566	0.00292435	0.00430354	0.02160283	0.01624827	0.00813496	0.00687726	0.00214240	0.00193513	0.00968300	0.00228844	0.00275909	0.01172758	0.00423091	0.00250274	0.00237951	0.00184215	0.00283865
1.43000000	0.00987509	0.00677031	0.00689842	0.01037946	0.00852664	0.00778618	0.02101453	0.00397535	0.00243829	0.00169368	0.00312926	0.00550578	0.02345035	0.01713538	0.00829087	0.00756267	0.00247677	0.00175160	0.00975431	0.00228676	0.00280319	0.01189756	0.00413086	0.00235748	0.00228800	0.00178715	0.00270673
1.44000000	0.01005767	0.00761262	0.00688570	0.01020922	0.00841856	0.00806119	0.02128402	0.00300953	0.00243079	0.00169470	0.00313769	0.00674905	0.02461597	0.01861457	0.00847169	0.00838120	0.00242355	0.00163039	0.00985465	0.00232800	0.00288682	0.01207261	0.00440661	0.00222566	0.00233393	0.00172036	0.00276094
1.45000000	0.00935955	0.00743017	0.00727243	0.00983136	0.00841098	0.00822635	0.02199333	0.00106365	0.00189124	0.00216299	0.00220148	0.00745758	0.02591872	0.02081919	0.00827513	0.00857737	0.00221803	0.00160043	0.00970001	0.00230643	0.00291814	0.01214579	0.00438410	0.00225601	0.00216982	0.00164393	0.00252534
1.46000000	0.00986016	0.00793788	0.00740697	0.00964418	0.00836502	0.00951308	0.02232422	0.00159125	0.00180794	0.00231727	0.00217707	0.00929453	0.02681234	0.02219662	0.00844740	0.00911691	0.00215967	0.00149200	0.00971742	0.00236007	0.00295902	0.01222821	0.00449323	0.00221852	0.00210921	0.00160701	0.00245571
1.47000000	0.01006612	0.00819318	0.00759542	0.00936916	0.00830459	0.01102588	0.02266722	0.00296149	0.00175314	0.00263515	0.00194724	0.01093666	0.02761033	0.02385115	0.00840896	0.00950521	0.00179256	0.00141336	0.00972501	0.00237610	0.00302110	0.01229391	0.00455705	0.00220943	0.00206932	0.00162777	0.00236561
1.48000000	0.00980119	0.00793554	0.00794393	0.00903589	0.00830503	0.01243714	0.02310242	0.00442725	0.00174316	0.00298559	0.00169507	0.01254499	0.02847777	0.02543421	0.00830341	0.00968095	0.00121856	0.00135560	0.00956055	0.00235823	0.00302392	0.01231529	0.00458223	0.00224631	0.00195484	0.00163784	0.00217584
1.49000000	0.01042975	0.00817747	0.00810362	0.00889260	0.00829907	0.01384753	0.02326854	0.00553565	0.00177873	0.00307273	0.00179380	0.01429656	0.02896841	0.02662102	0.00842505	0.01001787	0.00092584	0.00119542	0.00956926	0.00236882	0.00302503	0.01235079	0.00458648	0.00221933	0.00193047	0.00159147	0.00205969
1.50000000	0.01034916	0.00787019	0.00836170	0.00857492	0.00826766	0.01474892	0.02349381	0.00644102	0.00189970	0.00319413	0.00158358	0.01575469	0.02948491	0.02796814	0.00846289	0.01019466	0.00043501	0.00112233	0.00944229	0.00237047	0.00301391	0.01241772	0.00455292	0.00229732	0.00183744	0.00159837	0.00187257
1.51000000	0.01074691	0.00796643	0.00851176	0.00853913	0.00831980	0.01545973	0.02352867	0.00697328	0.00193288	0.00309830	0.00171464	0.01725236	0.03000246	0.02865204	0.00873155	0.01038981	0.00083130	0.00096396	0.00938964	0.00234616	0.00298049	0.01240502	0.00455306	0.00225212	0.00177717	0.00157448	0.00173942
1.52000000	0.01106351	0.00791933	0.00856680	0.00847349	0.00831193	0.01552936	0.02356472	0.00735582	0.00190815	0.00301589	0.00173859	0.01853227	0.03045154	0.02936786	0.00894686	0.01059821	0.00117727	0.00093866	0.00926545	0.00229989	0.00299798	0.01238269	0.00455845	0.00234291	0.00166701	0.00155424	0.00158043
1.53000000	0.01074500	0.00747608	0.00877431	0.00822591	0.00830204	0.01535327	0.02364457	0.00722854	0.00199657	0.00284330	0.00161336	0.01955141	0.03093743	0.03015241	0.00924344	0.01082735	0.00136723	0.00080822	0.00916118	0.00227090	0.00298205	0.01243443	0.00445524	0.00239096	0.00160556	0.00144516	0.00140018
1.54000000	0.01075399	0.00724484	0.00907528	0.00833134	0.00851458	0.01511714	0.02357879	0.00711855	0.00222269	0.00252713	0.00155492	0.02066286	0.03199081	0.02995032	0.00973232	0.01082617	0.00191139	0.00062229	0.00897297	0.00216843	0.00286092	0.01234514	0.00440589	0.00228993	0.00140893	0.00127930	0.00120146
1.55000000	0.01109555	0.00743410	0.00896139	0.00830273	0.00844077	0.01407452	0.02350997	0.00699337	0.00202400	0.00241425	0.00156423	0.02149680	0.03244406	0.03053370	0.01000710	0.01104895	0.00226210	0.00065745	0.00889116	0.00213948	0.00291756	0.01233757	0.00455042	0.00237944	0.00139074	0.00122469	0.00111301
1.56000000	0.01096608	0.00701328	0.00923760	0.00830549	0.00859505	0.01350598	0.02346407	0.00662399	0.00218655	0.00214901	0.00160425	0.02243642	0.03368094	0.03032643	0.01046119	0.01100422	0.00272394	0.00049981	0.00873040	0.00204142	0.00284892	0.01229525	0.00443208	0.00233417	0.00123146	0.00099510	0.00089872
1.57000000	0.01107394	0.00699894	0.00934231	0.00835901	0.00868178	0.01275953	0.02341078	0.00632744	0.00226543	0.00193977	0.00168693	0.02327692	0.03464736	0.03040851	0.01085461	0.01109506	0.00298567	0.00041474	0.00859716	0.00198749	0.00281589	0.01224432	0.00442256	0.00235492	0.00108446	0.00082649	0.00079181
1.58000000	0.01122023	0.00694156	0.00941979	0.00833966	0.00871805	0.01203723	0.02340478	0.00600972	0.00233861	0.00180210	0.00180370	0.02419152	0.03571871	0.03047935	0.01120656	0.01114804	0.00317700	0.00035954	0.00846234	0.00192703	0.00280269	0.01222428	0.00439594	0.00238363	0.00098276	0.00063934	0.00063020
1.59000000	0.01129206	0.00693371	0.00951076	0.00831316	0.00875909	0.01152070	0.02343407	0.00571532	0.00245545	0.00169494	0.00204717	0.02514622	0.03691487	0.03048036	0.01149665	0.01117106	0.00330497	0.00034141	0.00833728	0.00193254	0.00276396	0.01222330	0.00435573	0.00249372	0.00088473	0.00050617	0.00044441
1.60000000	0.01162921	0.00747423	0.00948061	0.00835357	0.00876398	0.01104344	0.02343849	0.00545367	0.00241378	0.00170777	0.00225771	0.02612591	0.03793669	0.03056591	0.01181561	0.01131348	0.00328335	0.00031079	0.00831662	0.00184670	0.00278645	0.01220349	0.00453714	0.00240835	0.00092490	0.00020557	0.00046807
1.61000000	0.01164585	0.00749561	0.00953562	0.00825554	0.00875259	0.01095203	0.02348130	0.00532731	0.00267236	0.00180266	0.00258053	0.02728241	0.03921850	0.03047720	0.01205289	0.01128022	0.00334006	0.00027003	0.00828684	0.00185850	0.00279331	0.01224688	0.00447158	0.00249025	0.00090892	0.00035937	0.00035299
1.62000000	0.01185786	0.00787444	0.00961503	0.00829378	0.00881629	0.01098006	0.02353924	0.00531556	0.00281405	0.00195222	0.00288005	0.02840244	0.04034287	0.03036483	0.01231207	0.01132228	0.00330312	0.00032992	0.00825831	0.00183298	0.00275318	0.01226310	0.00453726	0.00251913	0.00093278	0.00037244	0.00033474
1.63000000	0.01207110	0.00831719	0.00968218	0.00832623	0.00886966	0.01115730	0.02362470	0.00541002	0.00298311	0.00222201	0.00318678	0.02953240	0.04141219	0.03013501	0.01253443	0.01142282	0.00328661	0.00040468	0.00826921	0.00182251	0.00274424	0.01227654	0.00470602	0.00251686	0.00100263	0.00072326	0.00030847
1.64000000	0.01285871	0.00901620	0.00991669	0.00874959	0.00918827	0.01142540	0.02363284	0.00593822	0.00292397	0.00241564	0.00292236	0.03034669	0.04258836	0.02942082	0.01291834	0.01113009	0.00332578	0.00062811	0.00820373	0.00171289	0.00267885	0.01211987	0.00496800	0.00239772	0.00098767	0.00103712	0.00024057
1.65000000	0.01325474	0.00938240	0.01008481	0.00890114	0.00934994	0.01185601	0.02365568	0.00636197	0.00311186	0.00280895	0.00298527	0.03133446	0.04352590	0.02887986	0.01303620	0.01104974	0.00315002	0.00079530	0.00837088	0.00167756	0.00268896	0.01215086	0.00500565	0.00237918	0.00116599	0.00120407	0.00022656
1.66000000	0.01372739	0.00971192	0.01025331	0.00911053	0.00953795	0.01257504	0.02371746	0.00683056	0.00334330	0.00306827	0.00304420	0.03234722	0.04404111	0.02842040	0.01316176	0.01102523	0.00310089	0.00095502	0.00834387	0.00164658	0.00262832	0.01212563	0.00518495	0.00235523	0.00123343	0.00140617	0.00019626
1.67000000	0.01391817	0.01007094	0.01039895	0.00913803	0.00962495	0.01322765	0.02395832	0.00716807	0.00361578	0.00318605	0.00359857	0.03335115	0.04421217	0.02813914	0.01332094	0.01106954	0.00292431	0.00108508	0.00853295	0.00168793	0.00263431	0.01223731	0.00535686	0.00232399	0.00150482	0.00160388	0.00032427
1.68000000	0.01440958	0.01037333	0.01055266	0.00932100	0.00979240	0.01401222	0.02406282	0.00782740	0.00394986	0.00355511	0.00378265	0.03425490	0.04415010	0.02772133	0.01341831	0.01109717	0.00287132	0.00125405	0.00864409	0.00171410	0.00259537	0.01229744	0.00547085	0.00231337	0.00170686	0.00173250	0.00029345
1.69000000	0.01547799	0.01046038	0.01083306	0.00975017	0.01014064	0.01500075	0.02376126	0.00883859	0.00437455	0.00407139	0.00335950	0.03505837	0.04389155	0.02707962	0.01334197	0.01093883	0.00277687	0.00155921	0.00869560	0.00171729	0.00247202	0.01234328	0.00557614	0.00223227	0.00182364	0.00189774	0.00031298
1.70000000	0.01585486	0.01085926	0.01097713	0.00986816	0.01026613	0.01583057	0.02408460	0.00937524	0.00472274	0.00423060	0.00383570	0.03579387	0.04340726	0.02659680	0.01334449	0.01087934	0.00259195	0.00170405	0.00891507	0.00179373	0.00247032	0.01246939	0.00575966	0.00222377	0.00215324	0.00198576	0.00044084
1.71000000	0.01708642	0.01093657	0.01131664	0.01038445	0.01068468	0.01690996	0.02369598	0.01054036	0.00524915	0.00469331	0.00354932	0.03633888	0.04275104	0.02577379	0.01314775	0.01064084	0.00256332	0.00207712	0.00899717	0.00180244	0.00236319	0.01253907	0.00588416	0.00209054	0.00226955	0.00219514	0.00054585
1.72000000	0.01743950	0.01193517	0.01134421	0.01044244	0.01070806	0.01807935	0.02426372	0.01054174	0.00565490	0.00444903	0.00428463	0.03692660	0.04161586	0.02534875	0.01302940	0.01109083	0.00229519	0.00223480	0.00942432	0.00192087	0.00244855	0.01278608	0.00619014	0.00208207	0.00276665	0.00225375	0.00100913
1.73000000	0.01886236	0.01134520	0.01156739	0.01084312	0.01102686	0.01903148	0.02356171	0.01222062	0.00624825	0.00556162	0.00383699	0.03746591	0.04076643	0.02443647	0.01254865	0.01036184	0.00214804	0.00250553	0.00935549	0.00198043	0.00226610	0.01288072	0.00615736	0.00200263	0.00282635	0.00238494	0.00074141
1.74000000	0.01930277	0.01177508	0.01151117	0.01082093	0.01098295	0.01982947	0.02400632	0.01281889	0.00670392	0.00604354	0.00442395	0.03796711	0.03955821	0.02383745	0.01215516	0.01024126	0.00188364	0.00257393	0.00965234	0.00210521	0.00231938	0.01310218	0.00635646	0.00211834	0.00325604	0.00231432	0.00088764
1.75000000	0.02077754	0.01174447	0.01169449	0.01121890	0.01126854	0.02102999	0.02333659	0.01400222	0.00737597	0.00668132	0.00437760	0.03818369	0.03825356	0.02277455	0.01154126	0.01010480	0.00161459	0.00293331	0.00972921	0.00216113	0.00216782	0.01329190	0.00643642	0.00196403	0.00341679	0.00253471	0.00096422
1.76000000	0.02165296	0.01203681	0.01162191	0.01127405	0.01125347	0.02176966	0.02333503	0.01491122	0.00796617	0.00731026	0.00482392	0.03848390	0.03667353	0.02205398	0.01099674	0.01000929	0.00141676	0.00308684	0.00984982	0.00225842	0.00215952	0.01351384	0.00671077	0.00188072	0.00368964	0.00264549	0.00098721
1.77000000	0.02301313	0.01220387	0.01167393	0.01159315	0.01143816	0.02284234	0.02281273	0.01591497	0.00854941	0.00782909	0.00530891	0.03846592	0.03516814	0.02081490	0.01033261	0.00973106	0.00155181	0.00338831	0.01000316	0.00231425	0.00207980	0.01368444	0.00671691	0.00193148	0.00382974	0.00272832	0.00119429
1.78000000	0.02378810	0.01245789	0.01138690	0.01142628	0.01120697	0.02335514	0.02288902	0.01667011	0.00908331	0.00858241	0.00562649	0.03870317	0.03336923	0.02017893	0.00962863	0.00970814	0.00117034	0.00342622	0.01026546	0.00249982	0.00211053	0.01399539	0.00681752	0.00195893	0.00421146	0.00272030	0.00118969
1.79000000	0.02469754	0.01243921	0.01120216	0.01138507	0.01109952	0.02408108	0.02269914	0.01751204	0.00968785	0.00929999	0.00596951	0.03870495	0.03172505	0.01913840	0.00882256	0.00962586	0.00101794	0.00354636	0.01038953	0.00256835	0.00207095	0.01420187	0.00693421	0.00199027	0.00444421	0.00277558	0.00125983
1.80000000	0.02623831	0.01254503	0.01118601	0.01170852	0.01125572	0.02501517	0.02169732	0.01855972	0.01026352	0.00972987	0.00652193	0.03833572	0.02994586	0.01755438	0.00810099	0.00946864	0.00172106	0.00392159	0.01042782	0.00258637	0.00194174	0.01436222	0.00707978	0.00194577	0.00446789	0.00299885	0.00139822
1.81000000	0.02718645	0.01268559	0.01090040	0.01166997	0.01109467	0.02558442	0.02131326	0.01938643	0.01082509	0.01040184	0.00688810	0.03810896	0.02808885	0.01630463	0.00741659	0.00943743	0.00189137	0.00404530	0.01050284	0.00263477	0.00191263	0.01452801	0.00727498	0.00195696	0.00462633	0.00308801	0.00143175
1.82000000	0.02820709	0.01296096	0.01054551	0.01167207	0.01091643	0.02613113	0.02079330	0.02021018	0.01129499	0.01096847	0.00727377	0.03773447	0.02615223	0.01478945	0.00688054	0.00940180	0.00243925	0.00418294	0.01059946	0.00271710	0.00188872	0.01468046	0.00742499	0.00199378	0.00474296	0.00315904	0.00147289
1.83000000	0.02901030	0.01287172	0.01016467	0.01152373	0.01065253	0.02661527	0.02030328	0.02096229	0.01179828	0.01155554	0.00752926	0.03730745	0.02448205	0.01313613	0.00636942	0.00937131	0.00254483	0.00429399	0.01067017	0.00277581	0.00183926	0.01485684	0.00756625	0.00197909	0.00485814	0.00325808	0.00147196
1.84000000	0.02978351	0.01294953	0.00969992	0.01140526	0.01035675	0.02705338	0.01979881	0.02165510	0.01220589	0.01212134	0.00769248	0.03675669	0.02285999	0.01117250	0.00594374	0.00929204	0.00270403	0.00440097	0.01077885	0.00284742	0.00178003	0.01499683	0.00762138	0.00198572	0.00497694	0.00333209	0.00144551
1.85000000	0.03044507	0.01332923	0.00913582	0.01132940	0.01002680	0.02738101	0.01933328	0.02232471	0.01258093	0.01257174	0.00801462	0.03606491	0.02102948	0.00899144	0.00584485	0.00937161	0.00322817	0.00443406	0.01082106	0.00285355	0.00179006	0.01503644	0.00788212	0.00204501	0.00505619	0.00335185	0.00152480
1.86000000	0.03099617	0.01360114	0.00846649	0.01116393	0.00959514	0.02760983	0.01900891	0.02281541	0.01282835	0.01300490	0.00810575	0.03544216	0.01947887	0.00669466	0.00580490	0.00947904	0.00351870	0.00445489	0.01090214	0.00288985	0.00178479	0.01511490	0.00799632	0.00200213	0.00513633	0.00340390	0.00147286
1.87000000	0.03145801	0.01415662	0.00774944	0.01109233	0.00918317	0.02779248	0.01876649	0.02323549	0.01300359	0.01326886	0.00818501	0.03480651	0.01794168	0.00439987	0.00590641	0.00965698	0.00378368	0.00445427	0.01097297	0.00288486	0.00174419	0.01510448	0.00810525	0.00204961	0.00524199	0.00337941	0.00152560
1.88000000	0.03163520	0.01456967	0.00681913	0.01081678	0.00856173	0.02774576	0.01884222	0.02346745	0.01311359	0.01367642	0.00807171	0.03468649	0.01705161	0.00270227	0.00597366	0.00966252	0.00389483	0.00427786	0.01105013	0.00291976	0.00175766	0.01513559	0.00815592	0.00205652	0.00536938	0.00326758	0.00154713
1.89000000	0.03197271	0.01549525	0.00601602	0.01084504	0.00815398	0.02763126	0.01868338	0.02365834	0.01312862	0.01367751	0.00823614	0.03448930	0.01555143	0.00320320	0.00658745	0.01020037	0.00460903	0.00423557	0.01111072	0.00284327	0.00177041	0.01504793	0.00833165	0.00206003	0.00545694	0.00323501	0.00161142
1.90000000	0.03193575	0.01624285	0.00497526	0.01065039	0.00752836	0.02725672	0.01889853	0.02370783	0.01313826	0.01396326	0.00799843	0.03535493	0.01513126	0.00467180	0.00684532	0.01019444	0.00523129	0.00400525	0.01121012	0.00288405	0.00179119	0.01504747	0.00825808	0.00208756	0.00557571	0.00304379	0.00168136
1.91000000	0.03200193	0.01710315	0.00405813	0.01062437	0.00705780	0.02675150	0.01895666	0.02369139	0.01302335	0.01393702	0.00792030	0.03666428	0.01468865	0.00630943	0.00723219	0.01039353	0.00643967	0.00379557	0.01124150	0.00276907	0.00180384	0.01496184	0.00837076	0.00207609	0.00571864	0.00292711	0.00177293
1.92000000	0.03191506	0.01828376	0.00313968	0.01069116	0.00666248	0.02636619	0.01944631	0.02326993	0.01275717	0.01373570	0.00805939	0.03812670	0.01441037	0.00753915	0.00769684	0.01086672	0.00780755	0.00352857	0.01129820	0.00271061	0.00185740	0.01481643	0.00828917	0.00220637	0.00581943	0.00265524	0.00182285
1.93000000	0.03198779	0.01869504	0.00252626	0.01085984	0.00648257	0.02574096	0.01942989	0.02312168	0.01242268	0.01331451	0.00813487	0.03988278	0.01460655	0.00871960	0.00777933	0.01093772	0.00898127	0.00330254	0.01125783	0.00257213	0.00186391	0.01457265	0.00814475	0.00242284	0.00584925	0.00231778	0.00183726
1.94000000	0.03170804	0.01975017	0.00201152	0.01103905	0.00632096	0.02528930	0.01988506	0.02261265	0.01212541	0.01343787	0.00774080	0.04073997	0.01428667	0.00937636	0.00809495	0.01129796	0.00979794	0.00300278	0.01124974	0.00246519	0.00192455	0.01424749	0.00809947	0.00243632	0.00597106	0.00211055	0.00198630
1.95000000	0.03158621	0.01986040	0.00176806	0.01122449	0.00629190	0.02475395	0.01997266	0.02224349	0.01173133	0.01289545	0.00802329	0.04133472	0.01453776	0.00982567	0.00784847	0.01092712	0.01015465	0.00270024	0.01113684	0.00232513	0.00200380	0.01381538	0.00803975	0.00279540	0.00597939	0.00159521	0.00214618
1.96000000	0.03148382	0.01970952	0.00172378	0.01152179	0.00641821	0.02425520	0.01996818	0.02189352	0.01127087	0.01283458	0.00743341	0.04067108	0.01406261	0.00994388	0.00806567	0.01130278	0.01027486	0.00256653	0.01101933	0.00216679	0.00198493	0.01330569	0.00774502	0.00269406	0.00597785	0.00148107	0.00204610
1.97000000	0.03121745	0.01963746	0.00159430	0.01162898	0.00637932	0.02378482	0.02003539	0.02146380	0.01081237	0.01222035	0.00771029	0.03927797	0.01444421	0.00970065	0.00736626	0.01030489	0.00999267	0.00227592	0.01108002	0.00210521	0.00214276	0.01276124	0.00760408	0.00312117	0.00616961	0.00091631	0.00247550
1.98000000	0.03119829	0.01828326	0.00190923	0.01203698	0.00679117	0.02346661	0.01990183	0.02095260	0.01012897	0.01197442	0.00704605	0.03720262	0.01371507	0.00906474	0.00742311	0.01074113	0.00919160	0.00221364	0.01066469	0.00214001	0.00205838	0.01214572	0.00726406	0.00288943	0.00589334	0.00083072	0.00207863
1.99000000	0.03095575	0.01721801	0.00223075	0.01226960	0.00704953	0.02318364	0.01993669	0.02029910	0.00948707	0.01143123	0.00693093	0.03451956	0.01343665	0.00804578	0.00685289	0.01021267	0.00825013	0.00205069	0.01049406	0.00226578	0.00214212	0.01157996	0.00704361	0.00298719	0.00580055	0.00044490	0.00217751
2.00000000	0.03063246	0.01556003	0.00275241	0.01252607	0.00744599	0.02295779	0.01972500	0.01975229	0.00893151	0.01102936	0.00667701	0.03153777	0.01316401	0.00693619	0.00625102	0.01005364	0.00728099	0.00189682	0.01018191	0.00253621	0.00212391	0.01098325	0.00676669	0.00303835	0.00563060	0.00031964	0.00230747
2.01000000	0.03017757	0.01334231	0.00344168	0.01258987	0.00779656	0.02261320	0.01934997	0.01934814	0.00849070	0.01060379	0.00636932	0.02896554	0.01307964	0.00585079	0.00557187	0.00989560	0.00615530	0.00159434	0.00986039	0.00268491	0.00222753	0.01049983	0.00668354	0.00316235	0.00547574	0.00025716	0.00218315
2.02000000	0.02964807	0.01205394	0.00408349	0.01280685	0.00820698	0.02228544	0.01939317	0.01864468	0.00783611	0.01001075	0.00614777	0.02644360	0.01276725	0.00479809	0.00504661	0.00927896	0.00559678	0.00149195	0.00973441	0.00291123	0.00237894	0.01005000	0.00623511	0.00323071	0.00532704	0.00069087	0.00220991
2.03000000	0.02880678	0.00973983	0.00468840	0.01253943	0.00837473	0.02178771	0.01923032	0.01809963	0.00747009	0.00959543	0.00590477	0.02555812	0.01351763	0.00403998	0.00410004	0.00813868	0.00434811	0.00124207	0.00933042	0.00296832	0.00236647	0.00985738	0.00611363	0.00345069	0.00503885	0.00088878	0.00234957
2.04000000	0.02799038	0.00870682	0.00518998	0.01248360	0.00859100	0.02121776	0.01934523	0.01742728	0.00689492	0.00897770	0.00555809	0.02441651	0.01357881	0.00476611	0.00380085	0.00736994	0.00348591	0.00117019	0.00917065	0.00305068	0.00244234	0.00964749	0.00571451	0.00357469	0.00490165	0.00120557	0.00235182
2.05000000	0.02704634	0.00787866	0.00568461	0.01237949	0.00878585	0.02051964	0.01943041	0.01687584	0.00640465	0.00843825	0.00522904	0.02360235	0.01383708	0.00606104	0.00372431	0.00663797	0.00280678	0.00108969	0.00900293	0.00305335	0.00255590	0.00947811	0.00538060	0.00365155	0.00469889	0.00151479	0.00239542
2.06000000	0.02631219	0.00750027	0.00601912	0.01232674	0.00893366	0.01999007	0.01940593	0.01609169	0.00571948	0.00768910	0.00463789	0.02300170	0.01421297	0.00730255	0.00369645	0.00597597	0.00211419	0.00103185	0.00876440	0.00306652	0.00260455	0.00940579	0.00516532	0.00364880	0.00440256	0.00171863	0.00238945
2.07000000	0.02558656	0.00741759	0.00637916	0.01242444	0.00918208	0.01924395	0.01911155	0.01569268	0.00518288	0.00752874	0.00352464	0.02236829	0.01438684	0.00816143	0.00400336	0.00563286	0.00213426	0.00089483	0.00847666	0.00308753	0.00268748	0.00925749	0.00500486	0.00352574	0.00399575	0.00184798	0.00239864
2.08000000	0.02474194	0.00733991	0.00671193	0.01243679	0.00936960	0.01862332	0.01894856	0.01513765	0.00469026	0.00715070	0.00279990	0.02195541	0.01465791	0.00874025	0.00429778	0.00554600	0.00209741	0.00085657	0.00824188	0.00306850	0.00277076	0.00921483	0.00473882	0.00342539	0.00359518	0.00191324	0.00220984
2.09000000	0.02381773	0.00739377	0.00691392	0.01233327	0.00942846	0.01825370	0.01895331	0.01424597	0.00411868	0.00626698	0.00261582	0.02171702	0.01527614	0.00879227	0.00448276	0.00539632	0.00187563	0.00079967	0.00806018	0.00297623	0.00276166	0.00927594	0.00463036	0.00337526	0.00333146	0.00182374	0.00215222
2.10000000	0.02280421	0.00775308	0.00701793	0.01215622	0.00938355	0.01779560	0.01905009	0.01343756	0.00358368	0.00495150	0.00306410	0.02154526	0.01603098	0.00857655	0.00441283	0.00518000	0.00193168	0.00072537	0.00807644	0.00282366	0.00274884	0.00947165	0.00465716	0.00324929	0.00322268	0.00171498	0.00224443
2.11000000	0.02182287	0.00795501	0.00713802	0.01205311	0.00939873	0.01735521	0.01914907	0.01253183	0.00300625	0.00414593	0.00278334	0.02157311	0.01643700	0.00855945	0.00464242	0.00533823	0.00179139	0.00060933	0.00797550	0.00268636	0.00276790	0.00963366	0.00463060	0.00299541	0.00295444	0.00151442	0.00211942
2.12000000	0.02097375	0.00800786	0.00729130	0.01202551	0.00947354	0.01684179	0.01895020	0.01178913	0.00255803	0.00415491	0.00188569	0.02178955	0.01665467	0.00848381	0.00479528	0.00546958	0.00144648	0.00053808	0.00784764	0.00259230	0.00277743	0.00975478	0.00451023	0.00281672	0.00262962	0.00134720	0.00196027
2.13000000	0.02010006	0.00809432	0.00742607	0.01194594	0.00949798	0.01639216	0.01895600	0.01073693	0.00197263	0.00350299	0.00173152	0.02195516	0.01692059	0.00822446	0.00479603	0.00541373	0.00162028	0.00055850	0.00780728	0.00242850	0.00280032	0.00994723	0.00461524	0.00257136	0.00236789	0.00105923	0.00191424
2.14000000	0.01913663	0.00817609	0.00757015	0.01186440	0.00952421	0.01580540	0.01909172	0.00976031	0.00152415	0.00283467	0.00182088	0.02202781	0.01704392	0.00801576	0.00475564	0.00541972	0.00180574	0.00063008	0.00777210	0.00235815	0.00279119	0.01014093	0.00471953	0.00232822	0.00217768	0.00083835	0.00185846
2.15000000	0.01793540	0.00827359	0.00769935	0.01173651	0.00952171	0.01518187	0.01958028	0.00865025	0.00131045	0.00187637	0.00222885	0.02188620	0.01711325	0.00780624	0.00490177	0.00577693	0.00182129	0.00068412	0.00781697	0.00227174	0.00285809	0.01028313	0.00469636	0.00201212	0.00207139	0.00064432	0.00169616
2.16000000	0.01743476	0.00821343	0.00773927	0.01176610	0.00955197	0.01434777	0.01965684	0.00754917	0.00099111	0.00246665	0.00144316	0.02193927	0.01718947	0.00741415	0.00470579	0.00570321	0.00181009	0.00092732	0.00770685	0.00219121	0.00284314	0.01042148	0.00483472	0.00177946	0.00178816	0.00034906	0.00158869
2.17000000	0.01664870	0.00822994	0.00775469	0.01171353	0.00952869	0.01336744	0.02017541	0.00639714	0.00107864	0.00281623	0.00144895	0.02181277	0.01733601	0.00699763	0.00470616	0.00593722	0.00200539	0.00101900	0.00766764	0.00218807	0.00285001	0.01053668	0.00477104	0.00163194	0.00160015	0.00030858	0.00144503
2.18000000	0.01583532	0.00857103	0.00769179	0.01171140	0.00948631	0.01249795	0.02097999	0.00538288	0.00146255	0.00276132	0.00189384	0.02133227	0.01739845	0.00649629	0.00494028	0.00656694	0.00215077	0.00110668	0.00768433	0.00219653	0.00289985	0.01058066	0.00471686	0.00144677	0.00154825	0.00010782	0.00120369
2.19000000	0.01570227	0.00871329	0.00754564	0.01181236	0.00945796	0.01126189	0.02148627	0.00474793	0.00181790	0.00389224	0.00108959	0.02151982	0.01778466	0.00582008	0.00469800	0.00656915	0.00233909	0.00129111	0.00748018	0.00218095	0.00285091	0.01060167	0.00477955	0.00133550	0.00125053	0.00029632	0.00106668
2.20000000	0.01518657	0.00907197	0.00738555	0.01180101	0.00936286	0.01016049	0.02240094	0.00486047	0.00236954	0.00468034	0.00096626	0.02171587	0.01813675	0.00547270	0.00475596	0.00697465	0.00268652	0.00137019	0.00738011	0.00216313	0.00286516	0.01058619	0.00467427	0.00126256	0.00111980	0.00041271	0.00100468
2.21000000	0.01487627	0.00957547	0.00721025	0.01187056	0.00930172	0.00929761	0.02330206	0.00590352	0.00296824	0.00544657	0.00102810	0.02194641	0.01852409	0.00530240	0.00487566	0.00738094	0.00295387	0.00143757	0.00723868	0.00213643	0.00289691	0.01047206	0.00459523	0.00123811	0.00103195	0.00040428	0.00093523
2.22000000	0.01494586	0.01054311	0.00684376	0.01198949	0.00915718	0.00822206	0.02423341	0.00824671	0.00311839	0.00514094	0.00205792	0.02119694	0.01868987	0.00591988	0.00535390	0.00837460	0.00339904	0.00138326	0.00740925	0.00220315	0.00301116	0.01040836	0.00419533	0.00117627	0.00124597	0.00064384	0.00048556
2.23000000	0.01532153	0.01077929	0.00664569	0.01223841	0.00917381	0.00767593	0.02479857	0.01034807	0.00358462	0.00588297	0.00167161	0.02150216	0.01881512	0.00625743	0.00538356	0.00850145	0.00357397	0.00155767	0.00697587	0.00216636	0.00289681	0.01024211	0.00441423	0.00112019	0.00092551	0.00054287	0.00035913
2.24000000	0.01626412	0.01068641	0.00661730	0.01266971	0.00937128	0.00786266	0.02526785	0.01136512	0.00410844	0.00669717	0.00235520	0.02216286	0.01907431	0.00581705	0.00507459	0.00827306	0.00340623	0.00190745	0.00653161	0.00215415	0.00271338	0.01001518	0.00439659	0.00086723	0.00073631	0.00079976	0.00039623
2.25000000	0.01604556	0.01093159	0.00613327	0.01246496	0.00899608	0.00666049	0.02569185	0.01548518	0.00406372	0.00692951	0.00118293	0.02138324	0.01906765	0.00654102	0.00531012	0.00857598	0.00353454	0.00167664	0.00658666	0.00206714	0.00285890	0.01004014	0.00416963	0.00107735	0.00079673	0.00056705	0.00008043
2.26000000	0.01590773	0.01065421	0.00627845	0.01259937	0.00913279	0.00763262	0.02629163	0.01710295	0.00457462	0.00755031	0.00142631	0.02063607	0.01923830	0.00680331	0.00522812	0.00827499	0.00370822	0.00173642	0.00629849	0.00205495	0.00284355	0.00970594	0.00392020	0.00106076	0.00071740	0.00056299	0.00030136
2.27000000	0.01611575	0.01022255	0.00606151	0.01263603	0.00902077	0.00736982	0.02624189	0.01977836	0.00476405	0.00809843	0.00147200	0.01992047	0.01921674	0.00671186	0.00497673	0.00798878	0.00310960	0.00174959	0.00610771	0.00198466	0.00285878	0.00961458	0.00378515	0.00107142	0.00066066	0.00051745	0.00044033
2.28000000	0.01586051	0.00955944	0.00638974	0.01286190	0.00930547	0.00887588	0.02674154	0.02084065	0.00530213	0.00850613	0.00205549	0.01882468	0.01914688	0.00701051	0.00486277	0.00745166	0.00330812	0.00186468	0.00577146	0.00200090	0.00286467	0.00917730	0.00353150	0.00102135	0.00073145	0.00057281	0.00068226
2.29000000	0.01555794	0.00911696	0.00621718	0.01276056	0.00914336	0.00874694	0.02648780	0.02314534	0.00548440	0.00907421	0.00241123	0.01808684	0.01918745	0.00748807	0.00450273	0.00688286	0.00245045	0.00184776	0.00564836	0.00194155	0.00293264	0.00910365	0.00336615	0.00107943	0.00071625	0.00046135	0.00083196
2.30000000	0.01547730	0.00836015	0.00659250	0.01316642	0.00955537	0.01042045	0.02695697	0.02341539	0.00599929	0.00925867	0.00299053	0.01740937	0.01893865	0.00808445	0.00432246	0.00622864	0.00257889	0.00202512	0.00520741	0.00210697	0.00290151	0.00863278	0.00321013	0.00097672	0.00094127	0.00059517	0.00108781
2.31000000	0.01450856	0.00792270	0.00682873	0.01317700	0.00968718	0.01119589	0.02717138	0.02443982	0.00638012	0.00973720	0.00377454	0.01696751	0.01894114	0.00921189	0.00422999	0.00545953	0.00262445	0.00197665	0.00488621	0.00218303	0.00296076	0.00827941	0.00319446	0.00109966	0.00121461	0.00035975	0.00124432
2.32000000	0.01414510	0.00743994	0.00695658	0.01335918	0.00985677	0.01214933	0.02746122	0.02484443	0.00673132	0.00982018	0.00424281	0.01715766	0.01880715	0.01014713	0.00408435	0.00486863	0.00260724	0.00206816	0.00461352	0.00226370	0.00302292	0.00797774	0.00297823	0.00113402	0.00120628	0.00028350	0.00166928
2.33000000	0.01297394	0.00716807	0.00695865	0.01319235	0.00977761	0.01279391	0.02757825	0.02559458	0.00706265	0.01020396	0.00475335	0.01741442	0.01882699	0.01145084	0.00410224	0.00415689	0.00277244	0.00206815	0.00438185	0.00223708	0.00312333	0.00778434	0.00295894	0.00111541	0.00156450	0.00025740	0.00172544
2.34000000	0.01208481	0.00696544	0.00660823	0.01284206	0.00940470	0.01334520	0.02722426	0.02661995	0.00714291	0.01044677	0.00506786	0.01776042	0.01858843	0.01323467	0.00416784	0.00415601	0.00188250	0.00212831	0.00440297	0.00205949	0.00325713	0.00785534	0.00285138	0.00108921	0.00146226	0.00025540	0.00195577
2.35000000	0.01182109	0.00673284	0.00659846	0.01300437	0.00950729	0.01456077	0.02783039	0.02620218	0.00750357	0.01038464	0.00519906	0.01808560	0.01860349	0.01371851	0.00424241	0.00370048	0.00215263	0.00217535	0.00408632	0.00215730	0.00331520	0.00759629	0.00273875	0.00108351	0.00170582	0.00028097	0.00226018
2.36000000	0.01289716	0.00657584	0.00649032	0.01341073	0.00966099	0.01584072	0.02833054	0.02552738	0.00770184	0.01009459	0.00517867	0.01819953	0.01819927	0.01426775	0.00452083	0.00382140	0.00193341	0.00255197	0.00385416	0.00232225	0.00334044	0.00746804	0.00251521	0.00087450	0.00183336	0.00047253	0.00265156
2.37000000	0.00971602	0.00658206	0.00623921	0.01266533	0.00917639	0.01669164	0.02855790	0.02649683	0.00790854	0.01065904	0.00585364	0.01793938	0.01859773	0.01491994	0.00460018	0.00374032	0.00217330	0.00213326	0.00375543	0.00219026	0.00347753	0.00731603	0.00270171	0.00118147	0.00201602	0.00022591	0.00262991
2.38000000	0.00954628	0.00639149	0.00605402	0.01269763	0.00911690	0.01791994	0.02923139	0.02591600	0.00809855	0.01076716	0.00575873	0.01764956	0.01883307	0.01478191	0.00458736	0.00361958	0.00220296	0.00222868	0.00350676	0.00225238	0.00350450	0.00723217	0.00252545	0.00115257	0.00218462	0.00026890	0.00297970
2.39000000	0.00836763	0.00642146	0.00582278	0.01245000	0.00889119	0.01895731	0.02975400	0.02595819	0.00829294	0.01104832	0.00591083	0.01704668	0.01894771	0.01477462	0.00490019	0.00369453	0.00209694	0.00212082	0.00338778	0.00225313	0.00362304	0.00706744	0.00249111	0.00125087	0.00237612	0.00027567	0.00305932
2.40000000	0.00824095	0.00631245	0.00557573	0.01242484	0.00876826	0.02008983	0.03039168	0.02554721	0.00841602	0.01109173	0.00578855	0.01651329	0.01930479	0.01427569	0.00480401	0.00373740	0.00199270	0.00219086	0.00318635	0.00233692	0.00360958	0.00705457	0.00233561	0.00122801	0.00244665	0.00040510	0.00331343
2.41000000	0.00764479	0.00634109	0.00532643	0.01224658	0.00856694	0.02113529	0.03105182	0.02526406	0.00861596	0.01118049	0.00574148	0.01595064	0.01967392	0.01373571	0.00483014	0.00374986	0.00189170	0.00203957	0.00304485	0.00231623	0.00367963	0.00700370	0.00237580	0.00131161	0.00263801	0.00038231	0.00336377
2.42000000	0.00733763	0.00692181	0.00523486	0.01242351	0.00862251	0.02198190	0.03141349	0.02527837	0.00871891	0.01142779	0.00583655	0.01506441	0.01955415	0.01291961	0.00522200	0.00355706	0.00149578	0.00208288	0.00292327	0.00244480	0.00370828	0.00678674	0.00232047	0.00131057	0.00275829	0.00039982	0.00348902
2.43000000	0.00738080	0.00687142	0.00498993	0.01232839	0.00846475	0.02295622	0.03185162	0.02488515	0.00892762	0.01157768	0.00568785	0.01468403	0.01982257	0.01238157	0.00509536	0.00368234	0.00141396	0.00202482	0.00276071	0.00245413	0.00371774	0.00683232	0.00215568	0.00135423	0.00283184	0.00040538	0.00359910
2.44000000	0.00736539	0.00727712	0.00496656	0.01241228	0.00850687	0.02366117	0.03222390	0.02465812	0.00916285	0.01175296	0.00561222	0.01389669	0.01979305	0.01169706	0.00531382	0.00360457	0.00106957	0.00194352	0.00262038	0.00255964	0.00373293	0.00669508	0.00215066	0.00141572	0.00295493	0.00040708	0.00358125
2.45000000	0.00781045	0.00716599	0.00468466	0.01231717	0.00832406	0.02463465	0.03233635	0.02437845	0.00934987	0.01191091	0.00524490	0.01384464	0.01961573	0.01146660	0.00526635	0.00438558	0.00113628	0.00193925	0.00246316	0.00251840	0.00375361	0.00684713	0.00182076	0.00140323	0.00307981	0.00066242	0.00365790
2.46000000	0.00811470	0.00722271	0.00493164	0.01262337	0.00861356	0.02501377	0.03260436	0.02394256	0.00957597	0.01172231	0.00544468	0.01311893	0.01960275	0.01046460	0.00518452	0.00364022	0.00088186	0.00180515	0.00231133	0.00266271	0.00372081	0.00669582	0.00186252	0.00148145	0.00307746	0.00046255	0.00361293
2.47000000	0.00839984	0.00721530	0.00485015	0.01264753	0.00859004	0.02566613	0.03260412	0.02362749	0.00981895	0.01164137	0.00545175	0.01282686	0.01916267	0.01028589	0.00504633	0.00380598	0.00112969	0.00170228	0.00218296	0.00269108	0.00368270	0.00678017	0.00170385	0.00153819	0.00309754	0.00046236	0.00355489
2.48000000	0.00889398	0.00684882	0.00504458	0.01278701	0.00875789	0.02612494	0.03238042	0.02334627	0.01003128	0.01155077	0.00549002	0.01248427	0.01886324	0.00964148	0.00485971	0.00374161	0.00115790	0.00167348	0.00202252	0.00279094	0.00366247	0.00681949	0.00153717	0.00154384	0.00292737	0.00046083	0.00362754
2.49000000	0.00922940	0.00687275	0.00498831	0.01278129	0.00872932	0.02666676	0.03197455	0.02323291	0.01025609	0.01178836	0.00545037	0.01212397	0.01792572	0.00980633	0.00486523	0.00438290	0.00117942	0.00143558	0.00189597	0.00273622	0.00366893	0.00690326	0.00144199	0.00170786	0.00318125	0.00045964	0.00336271
2.50000000	0.00990112	0.00622223	0.00532208	0.01315044	0.00907178	0.02684674	0.03156062	0.02301709	0.01030939	0.01122406	0.00547851	0.01177343	0.01749898	0.00898907	0.00445751	0.00335395	0.00096512	0.00143584	0.00174056	0.00286418	0.00352626	0.00699622	0.00130419	0.00164981	0.00308498	0.00040899	0.00333560
2.51000000	0.01008101	0.00612796	0.00530821	0.01315920	0.00906606	0.02727007	0.03098276	0.02303414	0.01048342	0.01101540	0.00566955	0.01113899	0.01645335	0.00911609	0.00438576	0.00333808	0.00129778	0.00125171	0.00174987	0.00280278	0.00353507	0.00710526	0.00117204	0.00179321	0.00303988	0.00035029	0.00314150
2.52000000	0.01044256	0.00580074	0.00545312	0.01328380	0.00919050	0.02755429	0.03016783	0.02309877	0.01050950	0.01084337	0.00578439	0.01071533	0.01560945	0.00882965	0.00408772	0.00293142	0.00136777	0.00123328	0.00165065	0.00284239	0.00346303	0.00724450	0.00108132	0.00177618	0.00294301	0.00038457	0.00298510
2.53000000	0.01118071	0.00527896	0.00568082	0.01349727	0.00939893	0.02760715	0.02928640	0.02309806	0.01037043	0.01058696	0.00568027	0.01066429	0.01477927	0.00823748	0.00372246	0.00261465	0.00095904	0.00122803	0.00152693	0.00288540	0.00334832	0.00741973	0.00088163	0.00176636	0.00298245	0.00037120	0.00291057
2.54000000	0.01124293	0.00512306	0.00559387	0.01339138	0.00929803	0.02799256	0.02824345	0.02337019	0.01034208	0.01046556	0.00579702	0.01002393	0.01358836	0.00841487	0.00360584	0.00249056	0.00133207	0.00105931	0.00159428	0.00277575	0.00336742	0.00756386	0.00078838	0.00192286	0.00290667	0.00028814	0.00266839
2.55000000	0.01152936	0.00491271	0.00557638	0.01334616	0.00925447	0.02821485	0.02710557	0.02351935	0.01011274	0.01023654	0.00573559	0.00964788	0.01269234	0.00811391	0.00325386	0.00198004	0.00143978	0.00106989	0.00153149	0.00276091	0.00328560	0.00778168	0.00067344	0.00192979	0.00279218	0.00033021	0.00243629
2.56000000	0.01198755	0.00473095	0.00555707	0.01332007	0.00922167	0.02826704	0.02589122	0.02343944	0.00973246	0.01007078	0.00562191	0.00943284	0.01192180	0.00752389	0.00279504	0.00156343	0.00138812	0.00105239	0.00147587	0.00275033	0.00315894	0.00801105	0.00051787	0.00193726	0.00269260	0.00034591	0.00236967
2.57000000	0.01204761	0.00428498	0.00538981	0.01296056	0.00896444	0.02849492	0.02438024	0.02354874	0.00942828	0.01027972	0.00561950	0.00892280	0.01093364	0.00744558	0.00262218	0.00219528	0.00178549	0.00091125	0.00142869	0.00256623	0.00320635	0.00816617	0.00051331	0.00228438	0.00275274	0.00021233	0.00221119
2.58000000	0.01308661	0.00461934	0.00554384	0.01315376	0.00911175	0.02822815	0.02364454	0.02183384	0.00899122	0.00937782	0.00504063	0.00883833	0.01023216	0.00652175	0.00213678	0.00134746	0.00152710	0.00110004	0.00144403	0.00266479	0.00302387	0.00833539	0.00058279	0.00197124	0.00271963	0.00032740	0.00223878
2.59000000	0.01295581	0.00462653	0.00525420	0.01278374	0.00879129	0.02812595	0.02217923	0.02128599	0.00846718	0.00908099	0.00478830	0.00837234	0.00952982	0.00608758	0.00181630	0.00138359	0.00164132	0.00103970	0.00146213	0.00261014	0.00296911	0.00852794	0.00055423	0.00202426	0.00255071	0.00031592	0.00213130
2.60000000	0.01318205	0.00468081	0.00508171	0.01251386	0.00856566	0.02784931	0.02091634	0.01974106	0.00795866	0.00859964	0.00440405	0.00789105	0.00893050	0.00559675	0.00149117	0.00148939	0.00179552	0.00111329	0.00143446	0.00259093	0.00291761	0.00865898	0.00065545	0.00201754	0.00253741	0.00031336	0.00198417
2.61000000	0.01315022	0.00466870	0.00490145	0.01216783	0.00830949	0.02750647	0.01959099	0.01785499	0.00751959	0.00812132	0.00396486	0.00739463	0.00842022	0.00521979	0.00122740	0.00165571	0.00195516	0.00104227	0.00152647	0.00258366	0.00289828	0.00869969	0.00075649	0.00206617	0.00251134	0.00027998	0.00191599
2.62000000	0.01240520	0.00427469	0.00431121	0.01146929	0.00769720	0.02729557	0.01816378	0.01638542	0.00706553	0.00781963	0.00360255	0.00670519	0.00811121	0.00522182	0.00103537	0.00197402	0.00214323	0.00103270	0.00153045	0.00245075	0.00288068	0.00885173	0.00077976	0.00217501	0.00239138	0.00022765	0.00183721
2.63000000	0.01233200	0.00461304	0.00420312	0.01116131	0.00750081	0.02672671	0.01690069	0.01362539	0.00652290	0.00715615	0.00322207	0.00651081	0.00780953	0.00465941	0.00076426	0.00216585	0.00223753	0.00105462	0.00154173	0.00258441	0.00280391	0.00881563	0.00091332	0.00206001	0.00232325	0.00044118	0.00186752
2.64000000	0.01166912	0.00421180	0.00379464	0.01046298	0.00697547	0.02651360	0.01551339	0.01167050	0.00609451	0.00692195	0.00308839	0.00587951	0.00770717	0.00476400	0.00072222	0.00236928	0.00242005	0.00095795	0.00159124	0.00253062	0.00283057	0.00882832	0.00092241	0.00220297	0.00231098	0.00036962	0.00173275
2.65000000	0.01091225	0.00410923	0.00333293	0.00980228	0.00644926	0.02656966	0.01437355	0.00953457	0.00567287	0.00636858	0.00290457	0.00527554	0.00769155	0.00482026	0.00067123	0.00267163	0.00242941	0.00088938	0.00169648	0.00252368	0.00283480	0.00879631	0.00092491	0.00225211	0.00212799	0.00025399	0.00169472
2.66000000	0.01111862	0.00468894	0.00372579	0.00977569	0.00662220	0.02602724	0.01336011	0.00540942	0.00525358	0.00597526	0.00221574	0.00517423	0.00749098	0.00463000	0.00066424	0.00286646	0.00263889	0.00115107	0.00145214	0.00288642	0.00266724	0.00845234	0.00090854	0.00204644	0.00231531	0.00036086	0.00169582
2.67000000	0.01063323	0.00476924	0.00360520	0.00928226	0.00633444	0.02627949	0.01233197	0.00323934	0.00485879	0.00579710	0.00206498	0.00472123	0.00750295	0.00476485	0.00074641	0.00321679	0.00280362	0.00117373	0.00149998	0.00305530	0.00265697	0.00824620	0.00089945	0.00198609	0.00218718	0.00034065	0.00167821
2.68000000	0.01013862	0.00495858	0.00348492	0.00882620	0.00606454	0.02673526	0.01156181	0.00223053	0.00443937	0.00564068	0.00195287	0.00433705	0.00749190	0.00509705	0.00102229	0.00351899	0.00293926	0.00122938	0.00153600	0.00323609	0.00261880	0.00802958	0.00091259	0.00192349	0.00208672	0.00036475	0.00162409
2.69000000	0.00970177	0.00513360	0.00343822	0.00841135	0.00584776	0.02728684	0.01101838	0.00311407	0.00398430	0.00554082	0.00188927	0.00410575	0.00754321	0.00556025	0.00134987	0.00387613	0.00314782	0.00131070	0.00163125	0.00343570	0.00261406	0.00775801	0.00093595	0.00184497	0.00194786	0.00037422	0.00154051
2.70000000	0.00912935	0.00543292	0.00326134	0.00799488	0.00557177	0.02804227	0.01069998	0.00411137	0.00351552	0.00524686	0.00189101	0.00419219	0.00767565	0.00619340	0.00177872	0.00413470	0.00312854	0.00132731	0.00174232	0.00361137	0.00256683	0.00749551	0.00093594	0.00184478	0.00174923	0.00033236	0.00140426
2.71000000	0.00859489	0.00582456	0.00310558	0.00761510	0.00532491	0.02893812	0.01032286	0.00442594	0.00298814	0.00519487	0.00156337	0.00530423	0.00788530	0.00664759	0.00213757	0.00373166	0.00397641	0.00141647	0.00212903	0.00377697	0.00262255	0.00712798	0.00094560	0.00182048	0.00170162	0.00029742	0.00100700
2.72000000	0.00828678	0.00586148	0.00340650	0.00744443	0.00537526	0.02857814	0.01088541	0.00604323	0.00251423	0.00502810	0.00189892	0.00505450	0.00773658	0.00774735	0.00263771	0.00475310	0.00388706	0.00157119	0.00215500	0.00403235	0.00255439	0.00695534	0.00124880	0.00168417	0.00143019	0.00033309	0.00113545
2.73000000	0.00781640	0.00621532	0.00338661	0.00715853	0.00523868	0.02873364	0.01122924	0.00574575	0.00202171	0.00471206	0.00209323	0.00605882	0.00800353	0.00830634	0.00317679	0.00488302	0.00380205	0.00162176	0.00238657	0.00424032	0.00251260	0.00666152	0.00139753	0.00169003	0.00110212	0.00025636	0.00097468
2.74000000	0.00740043	0.00664934	0.00325013	0.00676261	0.00499239	0.02884067	0.01181559	0.00495816	0.00136806	0.00376740	0.00197353	0.00733928	0.00825224	0.00883294	0.00373340	0.00436552	0.00442471	0.00167122	0.00274411	0.00434601	0.00250819	0.00639246	0.00171216	0.00178549	0.00112471	0.00016583	0.00060003
2.75000000	0.00682983	0.00618808	0.00357970	0.00674381	0.00512478	0.02775148	0.01257857	0.00530605	0.00141998	0.00422991	0.00250952	0.00656775	0.00854949	0.00991214	0.00414402	0.00547210	0.00435651	0.00184778	0.00300466	0.00455219	0.00247840	0.00624556	0.00199092	0.00163545	0.00059634	0.00015908	0.00056650
2.76000000	0.00658336	0.00656895	0.00349005	0.00637786	0.00491278	0.02724092	0.01354950	0.00410373	0.00083253	0.00278202	0.00273712	0.00763357	0.00905317	0.01019729	0.00469924	0.00495775	0.00479847	0.00184229	0.00355343	0.00460682	0.00251797	0.00599217	0.00220608	0.00186982	0.00084669	0.00031126	0.00037212
2.77000000	0.00587949	0.00573361	0.00351650	0.00639270	0.00491011	0.02618198	0.01421546	0.00347606	0.00151450	0.00356062	0.00260417	0.00785553	0.00927354	0.01117631	0.00502870	0.00559586	0.00447831	0.00202212	0.00389339	0.00466702	0.00248100	0.00598126	0.00273644	0.00169221	0.00040700	0.00013575	0.00009297
2.78000000	0.00567508	0.00595185	0.00357721	0.00630917	0.00490540	0.02517412	0.01491906	0.00240174	0.00193951	0.00331654	0.00260913	0.00856577	0.00971212	0.01143488	0.00549984	0.00546198	0.00440530	0.00224718	0.00437548	0.00481642	0.00247691	0.00579989	0.00310349	0.00160275	0.00075643	0.00011851	0.00032799
2.79000000	0.00549125	0.00562026	0.00362637	0.00627383	0.00490283	0.02399463	0.01565451	0.00178217	0.00234704	0.00337504	0.00251660	0.00910554	0.01014920	0.01191758	0.00587296	0.00552603	0.00442978	0.00237614	0.00487204	0.00485771	0.00248898	0.00572395	0.00350703	0.00162168	0.00118624	0.00022343	0.00057102
2.80000000	0.00583663	0.00581704	0.00371824	0.00610403	0.00486820	0.02263313	0.01682444	0.00142664	0.00209978	0.00187892	0.00275919	0.00975685	0.01070796	0.01225690	0.00654179	0.00502188	0.00448719	0.00246782	0.00535490	0.00491556	0.00252035	0.00560214	0.00387232	0.00176238	0.00150425	0.00055968	0.00119136
2.81000000	0.00552135	0.00513421	0.00381088	0.00629001	0.00498689	0.02147058	0.01713631	0.00151084	0.00271584	0.00309579	0.00220469	0.01010287	0.01093145	0.01284086	0.00662508	0.00549475	0.00444265	0.00269353	0.00579946	0.00495210	0.00251254	0.00562299	0.00438623	0.00162115	0.00194496	0.00043277	0.00118639
2.82000000	0.00554736	0.00468894	0.00373769	0.00625454	0.00492472	0.02021994	0.01770371	0.00209479	0.00271346	0.00311653	0.00218072	0.00903869	0.01145742	0.01382472	0.00691118	0.00606043	0.00469060	0.00288388	0.00639024	0.00486882	0.00259267	0.00574102	0.00467704	0.00162263	0.00233126	0.00063047	0.00150599
2.83000000	0.00573382	0.00451412	0.00406362	0.00640557	0.00515579	0.01898762	0.01834329	0.00218322	0.00266016	0.00279882	0.00196727	0.00954842	0.01198725	0.01398772	0.00739366	0.00570622	0.00448319	0.00303489	0.00661297	0.00499163	0.00258949	0.00566142	0.00512684	0.00156946	0.00245797	0.00070146	0.00172424
2.84000000	0.00580662	0.00439883	0.00431173	0.00652120	0.00532551	0.01783300	0.01875987	0.00266144	0.00259406	0.00290885	0.00182098	0.00982760	0.01247927	0.01405963	0.00761842	0.00563098	0.00438807	0.00311230	0.00699978	0.00495420	0.00270070	0.00559728	0.00551352	0.00149865	0.00273533	0.00072800	0.00212798
2.85000000	0.00584971	0.00386594	0.00421764	0.00663077	0.00532605	0.01737804	0.01880141	0.00262026	0.00226318	0.00294144	0.00107170	0.00892804	0.01282188	0.01470002	0.00768301	0.00621906	0.00432265	0.00327789	0.00732528	0.00488567	0.00269249	0.00588111	0.00576506	0.00153453	0.00303576	0.00074508	0.00209008
2.86000000	0.00580400	0.00366264	0.00450148	0.00682253	0.00555341	0.01645064	0.01898169	0.00291200	0.00230264	0.00298937	0.00103219	0.00877225	0.01339549	0.01470615	0.00791079	0.00603639	0.00416405	0.00336083	0.00747659	0.00489628	0.00273723	0.00587281	0.00612170	0.00142939	0.00308322	0.00071786	0.00231639
2.87000000	0.00586067	0.00343642	0.00468440	0.00704655	0.00575231	0.01574571	0.01907821	0.00297791	0.00229855	0.00291614	0.00134153	0.00832820	0.01393107	0.01481287	0.00814341	0.00587338	0.00394158	0.00346656	0.00761416	0.00490454	0.00276605	0.00596602	0.00627756	0.00137066	0.00314122	0.00075164	0.00228695
2.88000000	0.00585637	0.00333781	0.00482548	0.00721888	0.00590591	0.01520538	0.01915003	0.00297090	0.00235886	0.00281761	0.00152213	0.00769216	0.01455905	0.01489878	0.00831684	0.00579023	0.00374905	0.00353640	0.00773975	0.00487519	0.00281742	0.00605762	0.00647011	0.00129946	0.00313591	0.00071451	0.00237428
2.89000000	0.00615886	0.00330205	0.00452987	0.00719730	0.00577232	0.01527368	0.01902208	0.00233750	0.00214489	0.00231539	0.00089626	0.00715400	0.01526742	0.01505063	0.00852538	0.00568927	0.00325852	0.00353870	0.00795004	0.00465603	0.00290537	0.00639625	0.00661923	0.00125953	0.00321090	0.00066133	0.00243717
2.90000000	0.00590086	0.00327138	0.00469270	0.00724909	0.00588535	0.01479724	0.01918050	0.00256750	0.00251282	0.00260866	0.00110710	0.00647268	0.01635634	0.01515377	0.00880007	0.00539857	0.00289424	0.00355290	0.00787430	0.00463214	0.00290899	0.00649995	0.00678182	0.00108868	0.00311067	0.00051546	0.00228333
2.91000000	0.00616317	0.00348673	0.00459070	0.00742736	0.00593214	0.01451643	0.01928363	0.00266079	0.00226083	0.00212739	0.00127531	0.00619027	0.01693083	0.01554381	0.00885523	0.00566696	0.00252963	0.00349259	0.00798328	0.00447660	0.00300840	0.00673241	0.00677139	0.00104558	0.00299113	0.00043411	0.00235598
2.92000000	0.00606461	0.00370226	0.00454618	0.00740559	0.00591224	0.01414379	0.01948593	0.00293529	0.00220475	0.00219054	0.00128851	0.00604653	0.01796136	0.01595014	0.00903786	0.00565140	0.00223894	0.00343504	0.00795286	0.00440622	0.00304048	0.00695468	0.00675421	0.00099482	0.00281327	0.00036466	0.00226568
2.93000000	0.00595517	0.00401092	0.00453942	0.00732025	0.00588085	0.01370790	0.01975200	0.00334863	0.00203188	0.00239433	0.00123830	0.00623965	0.01923465	0.01639234	0.00911976	0.00559981	0.00210671	0.00325982	0.00787286	0.00429819	0.00310449	0.00716090	0.00670933	0.00097405	0.00263066	0.00034700	0.00209406
2.94000000	0.00590208	0.00439102	0.00444965	0.00717674	0.00577488	0.01328302	0.02009573	0.00356229	0.00181332	0.00254950	0.00118047	0.00661240	0.02035736	0.01713404	0.00923249	0.00594355	0.00220729	0.00315842	0.00790140	0.00417677	0.00316705	0.00741498	0.00652196	0.00089908	0.00246823	0.00024650	0.00196353
2.95000000	0.00591266	0.00485953	0.00428168	0.00707554	0.00564051	0.01273567	0.02052621	0.00328191	0.00180617	0.00268676	0.00088384	0.00654739	0.02127897	0.01854915	0.00912157	0.00676761	0.00147095	0.00287017	0.00783746	0.00394484	0.00326013	0.00772177	0.00662178	0.00084664	0.00237085	0.00013240	0.00185985
2.96000000	0.00583811	0.00520577	0.00436554	0.00682337	0.00553745	0.01267925	0.02101155	0.00331402	0.00145259	0.00287374	0.00086122	0.00765359	0.02272110	0.01938536	0.00921633	0.00697168	0.00197280	0.00267781	0.00787345	0.00385264	0.00335078	0.00793935	0.00632741	0.00086038	0.00214669	0.00021981	0.00172536
2.97000000	0.00548888	0.00518400	0.00460369	0.00664641	0.00554036	0.01217846	0.02166055	0.00311258	0.00168512	0.00306364	0.00068222	0.00787812	0.02382716	0.02112831	0.00908509	0.00792012	0.00100972	0.00233901	0.00766961	0.00376421	0.00338660	0.00815677	0.00620840	0.00089424	0.00186078	0.00025224	0.00148634
2.98000000	0.00575068	0.00557017	0.00482410	0.00644070	0.00550304	0.01295555	0.02202620	0.00310822	0.00158483	0.00310149	0.00070691	0.00958895	0.02531485	0.02207020	0.00911000	0.00808119	0.00207817	0.00217374	0.00771462	0.00372033	0.00344103	0.00836256	0.00587622	0.00089669	0.00168725	0.00043412	0.00131784
2.99000000	0.00619028	0.00616267	0.00500057	0.00637816	0.00551581	0.01371146	0.02238376	0.00310533	0.00164910	0.00318621	0.00097335	0.01125689	0.02637879	0.02340716	0.00914455	0.00868812	0.00243868	0.00192929	0.00771746	0.00360875	0.00351206	0.00854426	0.00574525	0.00087903	0.00156403	0.00063557	0.00116120
3.00000000	0.00649383	0.00654582	0.00518104	0.00629471	0.00552624	0.01359028	0.02276658	0.00381596	0.00203326	0.00363332	0.00107791	0.01200572	0.02689103	0.02572073	0.00891906	0.00958632	0.00109053	0.00160647	0.00757909	0.00354715	0.00355889	0.00876599	0.00570561	0.00091993	0.00144147	0.00061433	0.00095556
3.01000000	0.00628532	0.00639601	0.00564403	0.00604650	0.00559912	0.01384171	0.02308635	0.00463706	0.00212876	0.00376588	0.00131688	0.01344141	0.02801529	0.02733120	0.00879362	0.01007966	0.00101615	0.00127488	0.00751073	0.00343262	0.00362942	0.00892400	0.00548825	0.00104750	0.00126467	0.00057455	0.00080291
3.02000000	0.00659480	0.00679996	0.00621736	0.00626151	0.00597033	0.01467857	0.02319493	0.00507236	0.00201903	0.00361773	0.00117103	0.01562554	0.02928393	0.02806982	0.00893349	0.01014041	0.00235247	0.00131548	0.00752941	0.00353797	0.00355871	0.00889344	0.00512324	0.00100219	0.00111593	0.00072474	0.00059260
3.03000000	0.00696398	0.00706823	0.00632153	0.00614205	0.00594118	0.01442320	0.02327262	0.00592031	0.00192437	0.00378262	0.00134155	0.01696240	0.02943408	0.03023021	0.00883353	0.01082873	0.00153406	0.00107094	0.00746069	0.00335247	0.00362417	0.00911857	0.00516816	0.00102888	0.00112345	0.00073734	0.00045229
3.04000000	0.00720446	0.00729579	0.00694518	0.00646665	0.00641026	0.01470879	0.02329649	0.00638320	0.00169772	0.00356550	0.00104623	0.01917843	0.03059721	0.03062586	0.00914635	0.01074230	0.00274216	0.00109925	0.00738602	0.00344312	0.00350093	0.00901390	0.00491429	0.00106615	0.00092665	0.00078640	0.00023129
3.05000000	0.00767364	0.00784964	0.00691131	0.00658382	0.00644632	0.01400014	0.02324197	0.00707558	0.00146269	0.00363277	0.00112044	0.02052146	0.03055690	0.03233483	0.00898868	0.01132206	0.00252567	0.00100699	0.00737099	0.00330010	0.00357000	0.00914026	0.00500154	0.00106331	0.00104156	0.00079780	0.00019547
3.06000000	0.00761392	0.00795443	0.00745753	0.00693797	0.00691073	0.01379975	0.02316893	0.00746973	0.00120649	0.00332787	0.00103916	0.02241973	0.03152994	0.03254160	0.00938734	0.01114357	0.00324920	0.00099868	0.00730283	0.00335101	0.00347847	0.00902029	0.00478381	0.00102737	0.00097061	0.00088440	0.00012606
3.07000000	0.00777263	0.00835058	0.00764141	0.00725351	0.00717615	0.01310458	0.02304696	0.00783000	0.00107491	0.00307520	0.00135642	0.02386401	0.03184095	0.03325196	0.00966210	0.01135799	0.00358590	0.00098853	0.00726000	0.00329817	0.00344538	0.00896722	0.00475011	0.00110274	0.00099706	0.00082525	0.00025742
3.08000000	0.00796830	0.00836190	0.00777524	0.00720889	0.00722093	0.01218014	0.02305118	0.00762492	0.00118720	0.00308143	0.00066765	0.02499627	0.03195340	0.03414564	0.00959601	0.01185131	0.00380942	0.00090066	0.00717655	0.00316729	0.00344507	0.00901688	0.00470598	0.00111202	0.00101057	0.00080391	0.00017852
3.09000000	0.00833444	0.00791403	0.00865375	0.00759822	0.00783977	0.01116413	0.02318431	0.00773434	0.00142446	0.00330721	0.00060752	0.02647048	0.03346135	0.03335000	0.00990096	0.01135273	0.00426693	0.00098098	0.00679804	0.00325345	0.00322440	0.00879866	0.00477520	0.00099664	0.00078549	0.00093552	0.00046924
3.10000000	0.00811294	0.00852460	0.00833048	0.00772661	0.00778467	0.01062022	0.02292685	0.00742653	0.00159185	0.00264202	0.00083884	0.02733011	0.03309753	0.03429740	0.01024541	0.01202237	0.00442284	0.00079152	0.00695369	0.00314819	0.00333711	0.00880615	0.00458314	0.00116954	0.00097797	0.00076242	0.00029805
