Model Marker Errors from IK
version=1
nRows=292
nColumns=4
inDegrees=no
endheader
time	total_squared_error	marker_error_RMS	marker_error_max
      0.17000000	      0.00242140	      0.00947003	      0.01764933
      0.18000000	      0.00245775	      0.00954084	      0.01822819
      0.19000000	      0.00249456	      0.00961203	      0.01842203
      0.20000000	      0.00251911	      0.00965922	      0.01836522
      0.21000000	      0.00254151	      0.00970206	      0.01845956
      0.22000000	      0.00255567	      0.00972905	      0.01856262
      0.23000000	      0.00256670	      0.00975002	      0.01843338
      0.24000000	      0.00257323	      0.00976243	      0.01821659
      0.25000000	      0.00257683	      0.00976925	      0.01796394
      0.26000000	      0.00258182	      0.00977869	      0.01774512
      0.27000000	      0.00258897	      0.00979223	      0.01786391
      0.28000000	      0.00261315	      0.00983785	      0.01808658
      0.29000000	      0.00265254	      0.00991172	      0.01830802
      0.30000000	      0.00270722	      0.01001337	      0.01847714
      0.31000000	      0.00278888	      0.01016327	      0.01869852
      0.32000000	      0.00288448	      0.01033598	      0.02035991
      0.33000000	      0.00299707	      0.01053578	      0.02271155
      0.34000000	      0.00311295	      0.01073753	      0.02512997
      0.35000000	      0.00323478	      0.01094562	      0.02726478
      0.36000000	      0.00333966	      0.01112165	      0.02941930
      0.37000000	      0.00344617	      0.01129761	      0.03122252
      0.38000000	      0.00353062	      0.01143520	      0.03283125
      0.39000000	      0.00361174	      0.01156582	      0.03431414
      0.40000000	      0.00368532	      0.01168303	      0.03561765
      0.41000000	      0.00375075	      0.01178629	      0.03707821
      0.42000000	      0.00383435	      0.01191691	      0.03798942
      0.43000000	      0.00392009	      0.01204942	      0.03930437
      0.44000000	      0.00398406	      0.01214733	      0.04024447
      0.45000000	      0.00405925	      0.01226142	      0.04115894
      0.46000000	      0.00412579	      0.01236152	      0.04217985
      0.47000000	      0.00418922	      0.01245618	      0.04303969
      0.48000000	      0.00425103	      0.01254773	      0.04370680
      0.49000000	      0.00431317	      0.01263911	      0.04431975
      0.50000000	      0.00435812	      0.01270479	      0.04485257
      0.51000000	      0.00441192	      0.01278297	      0.04517472
      0.52000000	      0.00445816	      0.01284978	      0.04536104
      0.53000000	      0.00449027	      0.01289599	      0.04538952
      0.54000000	      0.00451790	      0.01293560	      0.04525980
      0.55000000	      0.00454280	      0.01297119	      0.04492753
      0.56000000	      0.00452924	      0.01295183	      0.04439235
      0.57000000	      0.00451085	      0.01292549	      0.04352122
      0.58000000	      0.00446392	      0.01285808	      0.04260314
      0.59000000	      0.00439619	      0.01276017	      0.04136534
      0.60000000	      0.00431509	      0.01264191	      0.03989755
      0.61000000	      0.00420913	      0.01248574	      0.03821324
      0.62000000	      0.00405888	      0.01226087	      0.03642591
      0.63000000	      0.00392734	      0.01206056	      0.03448702
      0.64000000	      0.00379833	      0.01186082	      0.03275636
      0.65000000	      0.00361066	      0.01156408	      0.03045599
      0.66000000	      0.00348443	      0.01136014	      0.02865679
      0.67000000	      0.00334988	      0.01113865	      0.02651724
      0.68000000	      0.00326567	      0.01099776	      0.02498304
      0.69000000	      0.00317837	      0.01084977	      0.02308889
      0.70000000	      0.00314536	      0.01079327	      0.02247932
      0.71000000	      0.00308302	      0.01068578	      0.02137988
      0.72000000	      0.00304264	      0.01061557	      0.02234061
      0.73000000	      0.00296703	      0.01048285	      0.02115775
      0.74000000	      0.00288401	      0.01033514	      0.02159602
      0.75000000	      0.00280061	      0.01018460	      0.02092169
      0.76000000	      0.00267921	      0.00996143	      0.01931743
      0.77000000	      0.00258517	      0.00978503	      0.01829451
      0.78000000	      0.00249780	      0.00961827	      0.01805856
      0.79000000	      0.00243975	      0.00950584	      0.01826881
      0.80000000	      0.00239588	      0.00941999	      0.01824901
      0.81000000	      0.00236986	      0.00936870	      0.01842576
      0.82000000	      0.00237038	      0.00936973	      0.01850465
      0.83000000	      0.00240091	      0.00942987	      0.01869727
      0.84000000	      0.00245076	      0.00952726	      0.01887241
      0.85000000	      0.00249614	      0.00961507	      0.01901129
      0.86000000	      0.00254403	      0.00970688	      0.01917008
      0.87000000	      0.00257805	      0.00977156	      0.01932740
      0.88000000	      0.00262712	      0.00986412	      0.01957315
      0.89000000	      0.00266688	      0.00993848	      0.01948121
      0.90000000	      0.00273819	      0.01007047	      0.01967771
      0.91000000	      0.00277632	      0.01014035	      0.01961003
      0.92000000	      0.00283797	      0.01025231	      0.02124937
      0.93000000	      0.00291153	      0.01038433	      0.02315885
      0.94000000	      0.00295531	      0.01046212	      0.02490907
      0.95000000	      0.00300611	      0.01055165	      0.02641906
      0.96000000	      0.00307355	      0.01066935	      0.02803891
      0.97000000	      0.00310008	      0.01071531	      0.02895271
      0.98000000	      0.00316481	      0.01082660	      0.03027739
      0.99000000	      0.00319370	      0.01087590	      0.03096257
      1.00000000	      0.00324998	      0.01097131	      0.03205965
      1.01000000	      0.00327304	      0.01101016	      0.03257459
      1.02000000	      0.00332155	      0.01109145	      0.03354308
      1.03000000	      0.00335064	      0.01113991	      0.03420893
      1.04000000	      0.00339855	      0.01121928	      0.03508057
      1.05000000	      0.00345569	      0.01131321	      0.03584868
      1.06000000	      0.00351976	      0.01141759	      0.03651300
      1.07000000	      0.00359185	      0.01153393	      0.03726729
      1.08000000	      0.00366638	      0.01165298	      0.03790455
      1.09000000	      0.00374523	      0.01177761	      0.03845199
      1.10000000	      0.00382862	      0.01190801	      0.03889841
      1.11000000	      0.00388768	      0.01199951	      0.03914769
      1.12000000	      0.00394405	      0.01208619	      0.03917368
      1.13000000	      0.00395875	      0.01210869	      0.03902961
      1.14000000	      0.00393468	      0.01207183	      0.03858779
      1.15000000	      0.00391134	      0.01203597	      0.03781711
      1.16000000	      0.00386492	      0.01196433	      0.03680381
      1.17000000	      0.00373356	      0.01175925	      0.03558187
      1.18000000	      0.00361057	      0.01156395	      0.03410014
      1.19000000	      0.00349085	      0.01137061	      0.03243562
      1.20000000	      0.00332906	      0.01110399	      0.03060578
      1.21000000	      0.00318868	      0.01086734	      0.02878250
      1.22000000	      0.00306117	      0.01064784	      0.02692396
      1.23000000	      0.00294769	      0.01044862	      0.02518742
      1.24000000	      0.00286737	      0.01030528	      0.02366805
      1.25000000	      0.00278388	      0.01015414	      0.02201044
      1.26000000	      0.00273097	      0.01005719	      0.02206126
      1.27000000	      0.00267089	      0.00994595	      0.02124636
      1.28000000	      0.00261202	      0.00983573	      0.02147370
      1.29000000	      0.00255197	      0.00972201	      0.02095886
      1.30000000	      0.00248646	      0.00959641	      0.02131441
      1.31000000	      0.00241305	      0.00945368	      0.01941023
      1.32000000	      0.00235506	      0.00933941	      0.01915131
      1.33000000	      0.00231677	      0.00926316	      0.01837343
      1.34000000	      0.00230538	      0.00924036	      0.01714953
      1.35000000	      0.00230083	      0.00923124	      0.01776975
      1.36000000	      0.00232853	      0.00928665	      0.01783619
      1.37000000	      0.00237492	      0.00937871	      0.01822785
      1.38000000	      0.00243351	      0.00949368	      0.01864942
      1.39000000	      0.00251481	      0.00965097	      0.01871256
      1.40000000	      0.00259943	      0.00981199	      0.01884575
      1.41000000	      0.00270063	      0.01000117	      0.01865585
      1.42000000	      0.00278863	      0.01016280	      0.01879925
      1.43000000	      0.00289147	      0.01034849	      0.01864892
      1.44000000	      0.00299899	      0.01053915	      0.01830107
      1.45000000	      0.00310371	      0.01072158	      0.01816050
      1.46000000	      0.00321734	      0.01091608	      0.02058333
      1.47000000	      0.00333136	      0.01110782	      0.02296549
      1.48000000	      0.00347003	      0.01133664	      0.02548227
      1.49000000	      0.00359835	      0.01154435	      0.02774689
      1.50000000	      0.00374858	      0.01178288	      0.02991777
      1.51000000	      0.00389469	      0.01201032	      0.03193267
      1.52000000	      0.00404235	      0.01223588	      0.03374107
      1.53000000	      0.00419385	      0.01246306	      0.03535908
      1.54000000	      0.00434510	      0.01268581	      0.03683943
      1.55000000	      0.00450766	      0.01292092	      0.03861071
      1.56000000	      0.00464285	      0.01311325	      0.03938845
      1.57000000	      0.00476154	      0.01327981	      0.04074086
      1.58000000	      0.00488404	      0.01344956	      0.04197786
      1.59000000	      0.00496357	      0.01355861	      0.04260511
      1.60000000	      0.00502466	      0.01364180	      0.04366209
      1.61000000	      0.00505465	      0.01368244	      0.04454650
      1.62000000	      0.00506699	      0.01369913	      0.04526513
      1.63000000	      0.00510700	      0.01375311	      0.04578323
      1.64000000	      0.00509184	      0.01373268	      0.04630641
      1.65000000	      0.00511896	      0.01376920	      0.04658798
      1.66000000	      0.00511891	      0.01376914	      0.04685941
      1.67000000	      0.00510948	      0.01375645	      0.04692541
      1.68000000	      0.00511480	      0.01376362	      0.04680741
      1.69000000	      0.00510907	      0.01375591	      0.04651329
      1.70000000	      0.00510352	      0.01374843	      0.04591171
      1.71000000	      0.00505530	      0.01368332	      0.04517425
      1.72000000	      0.00499430	      0.01360052	      0.04413758
      1.73000000	      0.00491082	      0.01348638	      0.04291170
      1.74000000	      0.00478146	      0.01330755	      0.04148775
      1.75000000	      0.00463695	      0.01310492	      0.03983173
      1.76000000	      0.00448864	      0.01289364	      0.03807344
      1.77000000	      0.00428254	      0.01259415	      0.03622675
      1.78000000	      0.00409406	      0.01231390	      0.03436647
      1.79000000	      0.00387970	      0.01198718	      0.03230736
      1.80000000	      0.00367955	      0.01167389	      0.03031328
      1.81000000	      0.00349624	      0.01137939	      0.02836069
      1.82000000	      0.00334468	      0.01113000	      0.02648836
      1.83000000	      0.00324908	      0.01096979	      0.02496657
      1.84000000	      0.00317444	      0.01084306	      0.02305188
      1.85000000	      0.00318118	      0.01085457	      0.02181316
      1.86000000	      0.00321195	      0.01090693	      0.02133000
      1.87000000	      0.00329517	      0.01104732	      0.02398815
      1.88000000	      0.00328872	      0.01103650	      0.02204885
      1.89000000	      0.00329855	      0.01105299	      0.02232879
      1.90000000	      0.00329330	      0.01104419	      0.02301787
      1.91000000	      0.00324643	      0.01096532	      0.02305237
      1.92000000	      0.00317936	      0.01085145	      0.02333372
      1.93000000	      0.00306442	      0.01065350	      0.02068191
      1.94000000	      0.00298385	      0.01051252	      0.01967075
      1.95000000	      0.00290487	      0.01037246	      0.01949514
      1.96000000	      0.00285148	      0.01027669	      0.01988184
      1.97000000	      0.00278854	      0.01016264	      0.02035983
      1.98000000	      0.00277668	      0.01014101	      0.02038327
      1.99000000	      0.00276630	      0.01012203	      0.02039661
      2.00000000	      0.00278293	      0.01015241	      0.01989883
      2.01000000	      0.00280785	      0.01019777	      0.02012937
      2.02000000	      0.00283334	      0.01024395	      0.02009513
      2.03000000	      0.00284171	      0.01025907	      0.01976556
      2.04000000	      0.00282763	      0.01023363	      0.01949363
      2.05000000	      0.00281940	      0.01021873	      0.01938509
      2.06000000	      0.00280114	      0.01018558	      0.01950842
      2.07000000	      0.00279308	      0.01017091	      0.01918511
      2.08000000	      0.00279610	      0.01017641	      0.01973535
      2.09000000	      0.00281491	      0.01021058	      0.02159620
      2.10000000	      0.00284605	      0.01026691	      0.02329349
      2.11000000	      0.00286356	      0.01029843	      0.02489705
      2.12000000	      0.00289473	      0.01035434	      0.02631345
      2.13000000	      0.00293692	      0.01042952	      0.02762069
      2.14000000	      0.00300229	      0.01054495	      0.02882423
      2.15000000	      0.00308355	      0.01068671	      0.02974623
      2.16000000	      0.00319070	      0.01087080	      0.03082590
      2.17000000	      0.00331229	      0.01107598	      0.03165455
      2.18000000	      0.00343956	      0.01128677	      0.03250606
      2.19000000	      0.00356829	      0.01149604	      0.03340241
      2.20000000	      0.00368471	      0.01168207	      0.03433446
      2.21000000	      0.00377893	      0.01183049	      0.03514348
      2.22000000	      0.00384763	      0.01193753	      0.03589156
      2.23000000	      0.00390390	      0.01202451	      0.03659593
      2.24000000	      0.00393360	      0.01207016	      0.03715929
      2.25000000	      0.00394553	      0.01208846	      0.03770370
      2.26000000	      0.00394789	      0.01209207	      0.03807453
      2.27000000	      0.00394845	      0.01209293	      0.03833995
      2.28000000	      0.00391356	      0.01203938	      0.03834059
      2.29000000	      0.00388665	      0.01199791	      0.03825093
      2.30000000	      0.00385260	      0.01194525	      0.03801972
      2.31000000	      0.00379711	      0.01185891	      0.03749901
      2.32000000	      0.00374001	      0.01176941	      0.03676488
      2.33000000	      0.00367380	      0.01166477	      0.03579227
      2.34000000	      0.00357512	      0.01150703	      0.03466555
      2.35000000	      0.00348885	      0.01136734	      0.03333391
      2.36000000	      0.00340782	      0.01123458	      0.03184857
      2.37000000	      0.00327384	      0.01101152	      0.03020365
      2.38000000	      0.00318349	      0.01085850	      0.02853587
      2.39000000	      0.00311134	      0.01073475	      0.02687007
      2.40000000	      0.00306811	      0.01065991	      0.02533147
      2.41000000	      0.00301306	      0.01056384	      0.02371488
      2.42000000	      0.00298908	      0.01052172	      0.02334529
      2.43000000	      0.00294065	      0.01043614	      0.02265292
      2.44000000	      0.00289875	      0.01036153	      0.02326538
      2.45000000	      0.00282804	      0.01023437	      0.02219765
      2.46000000	      0.00275603	      0.01010323	      0.02213312
      2.47000000	      0.00267086	      0.00994589	      0.02150095
      2.48000000	      0.00258707	      0.00978864	      0.02083759
      2.49000000	      0.00250280	      0.00962789	      0.01989474
      2.50000000	      0.00243435	      0.00949532	      0.01893762
      2.51000000	      0.00238619	      0.00940092	      0.01832362
      2.52000000	      0.00236100	      0.00935118	      0.01864918
      2.53000000	      0.00235180	      0.00933294	      0.01924775
      2.54000000	      0.00237472	      0.00937831	      0.01934465
      2.55000000	      0.00241627	      0.00946000	      0.01938007
      2.56000000	      0.00245960	      0.00954444	      0.01944636
      2.57000000	      0.00252097	      0.00966278	      0.01937991
      2.58000000	      0.00259472	      0.00980310	      0.01911430
      2.59000000	      0.00267052	      0.00994525	      0.01921098
      2.60000000	      0.00276107	      0.01011245	      0.01885735
      2.61000000	      0.00284469	      0.01026444	      0.01859008
      2.62000000	      0.00292421	      0.01040693	      0.01835937
      2.63000000	      0.00302628	      0.01058700	      0.01853108
      2.64000000	      0.00312727	      0.01076220	      0.02031906
      2.65000000	      0.00324908	      0.01096979	      0.02314672
      2.66000000	      0.00338975	      0.01120475	      0.02572175
      2.67000000	      0.00352652	      0.01142856	      0.02823947
      2.68000000	      0.00368030	      0.01167508	      0.03051442
      2.69000000	      0.00381039	      0.01187963	      0.03271353
      2.70000000	      0.00394942	      0.01209441	      0.03445994
      2.71000000	      0.00406646	      0.01227231	      0.03598704
      2.72000000	      0.00417011	      0.01242774	      0.03733496
      2.73000000	      0.00427188	      0.01257846	      0.03844267
      2.74000000	      0.00436493	      0.01271471	      0.03944784
      2.75000000	      0.00445673	      0.01284773	      0.04034305
      2.76000000	      0.00455472	      0.01298820	      0.04146451
      2.77000000	      0.00460921	      0.01306566	      0.04202751
      2.78000000	      0.00466784	      0.01314849	      0.04290170
      2.79000000	      0.00472016	      0.01322198	      0.04365129
      2.80000000	      0.00476358	      0.01328265	      0.04431078
      2.81000000	      0.00480499	      0.01334026	      0.04481794
      2.82000000	      0.00484306	      0.01339300	      0.04520978
      2.83000000	      0.00487775	      0.01344089	      0.04546114
      2.84000000	      0.00492279	      0.01350280	      0.04544651
      2.85000000	      0.00493156	      0.01351482	      0.04558152
      2.86000000	      0.00490696	      0.01348108	      0.04550563
      2.87000000	      0.00490549	      0.01347905	      0.04504158
      2.88000000	      0.00488473	      0.01345050	      0.04438420
      2.89000000	      0.00484551	      0.01339639	      0.04320922
      2.90000000	      0.00473801	      0.01324696	      0.04253971
      2.91000000	      0.00464298	      0.01311344	      0.04118945
      2.92000000	      0.00453743	      0.01296352	      0.03975598
      2.93000000	      0.00442893	      0.01280760	      0.03798250
      2.94000000	      0.00426856	      0.01257357	      0.03629486
      2.95000000	      0.00413696	      0.01237824	      0.03450580
      2.96000000	      0.00399353	      0.01216177	      0.03283556
      2.97000000	      0.00382422	      0.01190116	      0.03082207
      2.98000000	      0.00369066	      0.01169150	      0.02904363
      2.99000000	      0.00358339	      0.01152033	      0.02746212
      3.00000000	      0.00347198	      0.01133983	      0.02582209
      3.01000000	      0.00340244	      0.01122570	      0.02446530
      3.02000000	      0.00336597	      0.01116537	      0.02292683
      3.03000000	      0.00333110	      0.01110739	      0.02364881
      3.04000000	      0.00328908	      0.01103712	      0.02293783
      3.05000000	      0.00321823	      0.01091758	      0.02130869
      3.06000000	      0.00317198	      0.01083885	      0.02138171
      3.07000000	      0.00310789	      0.01072880	      0.02066207
      3.08000000	      0.00305090	      0.01062997	      0.02013100
