global_final_errors.sto
version=1
nRows=324
nColumns=26
inDegrees=no
endheader
time	R_Asis	L_Asis	Sacral	R_Thigh_Lateral	R_Knee_Lateral	R_Shank_Lateral	R_Ankle_Lateral	R_Heel	R_Toe	L_Thigh_Lateral	L_Knee_Lateral	L_Shank_Lateral	L_Ankle_Lateral	L_Heel	L_Toe	R_Shoulder	L_Shoulder	C7	J_Notch	Thoracic	Sternum	R_Elbow	L_Elbow	R_Wrist	L_Wrist
0.00000000	0.00566950	0.00630946	0.00216226	0.01090615	0.01114858	0.02721075	0.02008253	0.01032434	0.00651249	0.00714749	0.00188310	0.00561380	0.00289648	0.00153646	0.00309323	0.00311600	0.00210249	0.00353220	0.00293583	0.00336874	0.00230472	0.00025746	0.00173082	0.00014636	0.00020878
0.01000000	0.00586527	0.00569497	0.00276613	0.01134645	0.01132248	0.02779913	0.01935542	0.01037108	0.00662252	0.00760831	0.00240583	0.00556783	0.00306848	0.00148293	0.00289068	0.00294617	0.00187940	0.00364052	0.00314714	0.00311003	0.00223278	0.00050753	0.00151751	0.00035230	0.00024624
0.02000000	0.00605814	0.00513048	0.00341331	0.01181823	0.01125862	0.02820576	0.01894688	0.01049174	0.00656534	0.00798528	0.00272573	0.00531637	0.00317607	0.00150167	0.00270853	0.00286308	0.00160034	0.00368514	0.00341199	0.00281894	0.00216995	0.00073400	0.00139444	0.00061265	0.00064832
0.03000000	0.00612677	0.00507090	0.00398368	0.01163880	0.01075369	0.02857106	0.01849249	0.01089050	0.00660232	0.00746769	0.00206762	0.00505985	0.00324438	0.00154885	0.00298790	0.00283278	0.00118531	0.00381305	0.00365094	0.00244753	0.00212987	0.00050727	0.00095034	0.00025228	0.00064804
0.04000000	0.00636115	0.00464623	0.00458025	0.01235743	0.01073008	0.02820257	0.01831268	0.01091366	0.00642545	0.00742801	0.00275625	0.00471290	0.00321996	0.00160597	0.00287910	0.00265674	0.00080770	0.00394439	0.00385986	0.00212334	0.00193531	0.00090291	0.00083041	0.00052066	0.00123101
0.05000000	0.00655251	0.00483119	0.00478680	0.01242791	0.01022961	0.02766215	0.01816765	0.01095012	0.00634847	0.00669834	0.00224286	0.00422597	0.00326729	0.00139018	0.00302554	0.00276396	0.00031465	0.00396771	0.00393469	0.00175883	0.00198947	0.00059585	0.00083881	0.00029768	0.00142483
0.06000000	0.00665266	0.00467178	0.00520983	0.01327121	0.01005042	0.02654171	0.01821583	0.01046554	0.00602425	0.00630389	0.00357898	0.00384543	0.00322283	0.00176604	0.00299465	0.00263003	0.00030022	0.00403224	0.00391806	0.00164599	0.00188256	0.00109284	0.00105057	0.00091062	0.00201865
0.07000000	0.00674005	0.00444689	0.00564368	0.01295370	0.00918501	0.02539311	0.01815999	0.01035548	0.00602509	0.00591293	0.00244736	0.00279524	0.00310589	0.00081378	0.00279256	0.00257865	0.00061528	0.00405749	0.00387644	0.00160234	0.00196631	0.00098342	0.00144853	0.00059609	0.00238395
0.08000000	0.00691027	0.00421419	0.00597667	0.01312822	0.00850417	0.02378809	0.01820560	0.00991911	0.00586732	0.00541859	0.00264266	0.00187243	0.00290805	0.00070195	0.00255807	0.00259209	0.00099427	0.00407623	0.00378616	0.00172188	0.00207298	0.00117233	0.00187588	0.00066229	0.00283206
0.09000000	0.00723490	0.00397762	0.00592973	0.01327824	0.00781699	0.02196070	0.01826984	0.00941833	0.00552931	0.00489593	0.00320650	0.00111489	0.00263574	0.00091990	0.00216436	0.00265071	0.00145492	0.00404346	0.00380136	0.00195458	0.00233765	0.00110672	0.00232191	0.00060296	0.00332374
0.10000000	0.00742264	0.00381705	0.00610881	0.01305786	0.00690908	0.02022110	0.01826833	0.00898178	0.00530441	0.00468997	0.00368830	0.00159976	0.00240938	0.00121249	0.00180567	0.00262906	0.00182671	0.00399556	0.00383669	0.00222315	0.00266119	0.00125167	0.00271704	0.00067253	0.00374784
0.11000000	0.00753431	0.00355100	0.00637536	0.01270958	0.00592966	0.01856124	0.01828148	0.00854712	0.00493339	0.00481621	0.00412014	0.00281661	0.00217305	0.00151763	0.00142413	0.00254902	0.00210399	0.00391568	0.00387891	0.00246856	0.00306594	0.00154531	0.00301219	0.00077402	0.00407984
0.12000000	0.00766733	0.00288125	0.00642120	0.01256907	0.00521114	0.01673200	0.01836837	0.00793499	0.00441403	0.00495765	0.00554610	0.00434110	0.00181478	0.00180334	0.00103373	0.00268428	0.00246178	0.00368698	0.00385310	0.00273097	0.00333661	0.00168530	0.00332731	0.00082203	0.00429191
0.13000000	0.00772280	0.00267623	0.00648402	0.01198955	0.00444519	0.01534703	0.01815811	0.00751087	0.00395227	0.00518757	0.00646705	0.00568070	0.00173272	0.00219945	0.00056513	0.00269738	0.00274568	0.00336644	0.00387271	0.00290207	0.00381527	0.00192069	0.00369062	0.00104160	0.00444416
0.14000000	0.00770974	0.00243341	0.00662155	0.01131988	0.00378184	0.01411797	0.01797164	0.00693216	0.00345824	0.00539439	0.00749170	0.00686241	0.00173309	0.00251963	0.00020854	0.00275945	0.00299961	0.00300669	0.00381144	0.00303004	0.00421815	0.00223181	0.00396390	0.00121008	0.00447938
0.15000000	0.00768580	0.00231133	0.00673256	0.01039207	0.00321760	0.01314273	0.01768799	0.00634995	0.00302728	0.00555153	0.00842460	0.00779799	0.00186722	0.00277515	0.00011702	0.00284266	0.00323404	0.00267203	0.00373647	0.00310482	0.00464814	0.00256205	0.00420789	0.00141933	0.00441850
0.16000000	0.00752529	0.00224411	0.00691506	0.00939677	0.00289587	0.01229429	0.01740075	0.00561695	0.00257933	0.00563471	0.00931184	0.00848030	0.00202908	0.00296974	0.00033580	0.00302509	0.00340876	0.00235672	0.00368529	0.00315243	0.00504798	0.00291438	0.00441135	0.00161640	0.00425419
0.17000000	0.00731805	0.00227562	0.00711976	0.00816760	0.00271476	0.01159181	0.01711476	0.00491300	0.00221502	0.00568313	0.01005298	0.00890540	0.00218995	0.00310982	0.00053797	0.00325370	0.00354114	0.00220759	0.00365064	0.00319893	0.00545183	0.00326555	0.00456525	0.00186605	0.00400214
0.18000000	0.00713920	0.00253013	0.00747914	0.00648077	0.00266829	0.01148056	0.01664708	0.00435248	0.00196688	0.00597835	0.01056594	0.00893710	0.00235101	0.00310482	0.00068774	0.00362480	0.00358195	0.00209221	0.00362291	0.00330647	0.00582541	0.00376025	0.00462890	0.00223112	0.00371148
0.19000000	0.00692045	0.00268402	0.00779073	0.00506976	0.00272685	0.01108110	0.01651566	0.00369111	0.00164496	0.00602486	0.01113077	0.00908646	0.00238678	0.00319577	0.00091470	0.00401766	0.00360585	0.00205760	0.00366195	0.00340535	0.00613169	0.00411730	0.00466541	0.00250577	0.00350136
0.20000000	0.00711059	0.00285361	0.00822076	0.00374794	0.00268588	0.01101883	0.01652215	0.00284825	0.00114794	0.00620348	0.01175276	0.00909655	0.00244119	0.00324154	0.00092582	0.00443109	0.00362849	0.00211710	0.00367103	0.00347562	0.00639836	0.00451525	0.00468182	0.00280453	0.00321687
0.21000000	0.00750430	0.00320828	0.00895017	0.00306174	0.00273479	0.01179066	0.01631916	0.00250653	0.00097836	0.00657448	0.01200808	0.00890347	0.00248460	0.00315590	0.00089979	0.00486740	0.00348214	0.00212940	0.00377602	0.00362039	0.00676498	0.00493422	0.00456610	0.00327018	0.00302990
0.22000000	0.00828103	0.00351186	0.00971349	0.00408826	0.00283218	0.01271683	0.01630112	0.00191708	0.00138154	0.00691756	0.01234338	0.00879771	0.00249883	0.00307347	0.00092126	0.00529353	0.00352421	0.00225622	0.00379420	0.00378474	0.00690989	0.00531651	0.00448678	0.00370486	0.00287871
0.23000000	0.00864281	0.00387366	0.01043122	0.00577861	0.00253311	0.01403659	0.01618177	0.00236959	0.00031072	0.00716092	0.01271274	0.00850093	0.00233997	0.00315465	0.00099086	0.00558279	0.00333597	0.00228194	0.00389889	0.00383711	0.00718002	0.00564508	0.00430984	0.00393707	0.00283282
0.24000000	0.00939991	0.00428389	0.01113948	0.00761704	0.00272229	0.01510663	0.01626656	0.00178021	0.00159125	0.00736970	0.01295372	0.00845410	0.00225650	0.00316677	0.00119795	0.00581901	0.00339464	0.00233131	0.00386165	0.00387617	0.00726549	0.00585876	0.00438254	0.00430227	0.00277821
0.25000000	0.00965491	0.00462415	0.01173140	0.00872020	0.00226285	0.01613476	0.01616963	0.00265782	0.00059177	0.00762426	0.01335039	0.00804852	0.00217836	0.00309803	0.00102093	0.00598497	0.00326551	0.00253436	0.00403046	0.00396518	0.00750331	0.00605039	0.00403810	0.00436578	0.00270224
0.26000000	0.01024593	0.00497372	0.01222351	0.00953817	0.00224274	0.01676794	0.01597311	0.00255990	0.00069940	0.00786556	0.01331760	0.00785874	0.00196302	0.00317439	0.00117700	0.00609425	0.00314463	0.00261293	0.00413047	0.00388694	0.00769060	0.00616901	0.00397344	0.00462453	0.00249484
0.27000000	0.01039228	0.00556905	0.01262633	0.00953086	0.00231848	0.01669959	0.01590232	0.00292401	0.00076786	0.00813282	0.01331185	0.00740291	0.00188292	0.00306106	0.00110340	0.00626367	0.00307726	0.00255755	0.00414688	0.00402523	0.00770010	0.00634346	0.00383630	0.00475755	0.00253772
0.28000000	0.01031748	0.00600820	0.01284572	0.00861721	0.00255771	0.01625741	0.01583075	0.00298637	0.00096612	0.00817450	0.01360621	0.00694832	0.00214765	0.00275934	0.00129297	0.00624813	0.00310622	0.00274555	0.00415725	0.00403116	0.00764113	0.00639069	0.00353818	0.00465966	0.00240431
0.29000000	0.01019332	0.00668986	0.01243420	0.00674974	0.00287415	0.01550096	0.01584063	0.00269228	0.00129730	0.00823158	0.01367007	0.00651520	0.00227104	0.00280817	0.00119129	0.00626648	0.00305808	0.00274726	0.00418998	0.00389910	0.00765456	0.00642826	0.00337246	0.00465264	0.00228725
0.30000000	0.01015623	0.00714125	0.01242347	0.00521115	0.00319110	0.01427394	0.01558268	0.00317401	0.00129224	0.00828199	0.01312853	0.00573189	0.00249412	0.00266310	0.00127872	0.00633012	0.00287626	0.00271235	0.00420779	0.00391009	0.00754039	0.00655127	0.00305080	0.00476149	0.00208543
0.31000000	0.01000776	0.00752226	0.01217087	0.00347552	0.00350853	0.01298871	0.01531549	0.00382316	0.00125280	0.00821390	0.01243201	0.00474780	0.00279584	0.00254106	0.00127939	0.00636251	0.00267508	0.00263193	0.00415327	0.00389705	0.00730615	0.00664996	0.00268191	0.00484971	0.00189370
0.32000000	0.00985779	0.00786148	0.01172880	0.00196511	0.00333321	0.01204988	0.01483277	0.00498606	0.00241148	0.00828970	0.01118675	0.00350584	0.00273139	0.00261978	0.00127809	0.00643973	0.00231572	0.00250388	0.00417180	0.00393820	0.00708102	0.00677471	0.00213285	0.00502290	0.00167719
0.33000000	0.00934634	0.00799776	0.01087546	0.00161102	0.00426642	0.01075578	0.01515084	0.00431062	0.00107246	0.00771495	0.01055454	0.00250959	0.00341808	0.00249226	0.00162103	0.00623514	0.00217696	0.00241551	0.00392853	0.00371476	0.00652612	0.00659215	0.00180132	0.00493166	0.00135202
0.34000000	0.00901011	0.00787295	0.00977141	0.00276836	0.00447967	0.01008304	0.01511418	0.00425177	0.00142587	0.00709372	0.00937234	0.00147072	0.00384938	0.00267007	0.00169597	0.00602455	0.00194569	0.00226311	0.00367560	0.00362727	0.00593275	0.00640975	0.00142272	0.00483193	0.00118389
0.35000000	0.00853028	0.00747779	0.00851648	0.00399741	0.00459182	0.00958112	0.01523098	0.00388358	0.00167110	0.00625104	0.00797545	0.00133438	0.00428355	0.00294172	0.00184832	0.00562996	0.00176321	0.00216270	0.00342515	0.00357603	0.00525282	0.00599535	0.00109711	0.00454902	0.00105942
0.36000000	0.00761321	0.00714353	0.00716496	0.00471507	0.00451662	0.00908116	0.01547806	0.00364088	0.00194439	0.00530759	0.00633884	0.00220574	0.00443291	0.00308544	0.00208498	0.00517343	0.00153304	0.00196976	0.00317631	0.00362858	0.00450926	0.00544099	0.00094409	0.00423405	0.00086028
0.37000000	0.00577102	0.00694589	0.00603092	0.00443164	0.00380106	0.00904430	0.01542610	0.00452483	0.00185367	0.00374093	0.00456976	0.00334586	0.00437769	0.00268647	0.00215036	0.00468521	0.00142883	0.00176818	0.00298169	0.00386669	0.00374986	0.00481117	0.00069577	0.00389253	0.00078505
0.38000000	0.00534348	0.00566554	0.00485222	0.00502806	0.00406777	0.00916591	0.01550562	0.00389064	0.00223308	0.00256628	0.00251972	0.00378421	0.00448197	0.00295491	0.00219729	0.00382900	0.00116475	0.00174065	0.00275912	0.00396936	0.00302890	0.00386900	0.00089528	0.00310492	0.00091574
0.39000000	0.00361922	0.00513153	0.00409520	0.00482490	0.00355943	0.00913781	0.01566080	0.00413425	0.00215393	0.00140845	0.00098304	0.00443592	0.00423966	0.00227260	0.00226930	0.00306394	0.00107090	0.00163029	0.00267554	0.00417677	0.00235978	0.00301711	0.00091900	0.00244461	0.00095145
0.40000000	0.00342134	0.00429265	0.00336964	0.00505524	0.00372859	0.00949605	0.01552499	0.00380779	0.00239002	0.00266267	0.00121413	0.00456122	0.00403484	0.00235228	0.00244250	0.00236040	0.00090083	0.00157882	0.00264736	0.00435382	0.00178618	0.00220706	0.00121655	0.00180587	0.00106155
0.41000000	0.00318305	0.00404934	0.00302463	0.00519635	0.00372871	0.00980592	0.01533740	0.00351736	0.00252618	0.00403068	0.00220313	0.00457642	0.00386158	0.00232909	0.00234685	0.00162326	0.00079512	0.00155055	0.00267387	0.00452438	0.00135273	0.00148471	0.00144148	0.00115428	0.00115486
0.42000000	0.00289310	0.00420109	0.00295571	0.00522420	0.00366519	0.01000287	0.01510438	0.00338550	0.00252372	0.00522377	0.00292526	0.00471121	0.00342970	0.00248869	0.00229591	0.00100079	0.00080363	0.00156859	0.00273204	0.00466672	0.00103892	0.00096222	0.00154900	0.00059063	0.00119436
0.43000000	0.00201787	0.00434566	0.00330137	0.00507396	0.00348250	0.00976890	0.01502847	0.00332365	0.00219556	0.00600623	0.00357090	0.00496910	0.00261100	0.00260322	0.00185448	0.00067805	0.00091454	0.00151061	0.00271914	0.00481731	0.00082793	0.00058433	0.00150909	0.00035170	0.00111631
0.44000000	0.00170445	0.00476184	0.00358724	0.00523438	0.00355911	0.00979393	0.01476263	0.00299430	0.00218758	0.00685780	0.00384392	0.00503244	0.00198810	0.00282788	0.00169142	0.00051402	0.00092327	0.00163369	0.00274277	0.00481150	0.00100754	0.00027833	0.00157357	0.00008975	0.00106132
0.45000000	0.00120532	0.00328180	0.00322931	0.00551591	0.00414147	0.01005771	0.01418394	0.00285659	0.00218289	0.00826400	0.00493408	0.00494957	0.00160975	0.00365615	0.00335484	0.00073093	0.00086688	0.00182959	0.00282257	0.00495050	0.00138144	0.00061245	0.00186522	0.00043469	0.00118701
0.46000000	0.00175221	0.00479961	0.00347802	0.00563972	0.00382122	0.01050686	0.01367494	0.00299013	0.00226789	0.00836806	0.00438560	0.00545757	0.00165459	0.00349015	0.00242970	0.00060116	0.00085114	0.00198884	0.00273754	0.00466898	0.00146837	0.00062551	0.00170942	0.00043674	0.00089461
0.47000000	0.00170036	0.00475331	0.00366946	0.00572500	0.00402098	0.01028433	0.01373283	0.00238375	0.00204485	0.00825799	0.00442122	0.00584438	0.00163377	0.00372663	0.00236056	0.00056923	0.00082072	0.00194810	0.00279133	0.00464448	0.00145316	0.00024391	0.00148467	0.00015973	0.00082077
0.48000000	0.00202219	0.00469165	0.00368210	0.00589198	0.00411708	0.01053912	0.01349424	0.00228639	0.00200434	0.00853348	0.00462551	0.00628529	0.00216674	0.00392893	0.00303211	0.00066311	0.00071047	0.00204886	0.00277846	0.00450152	0.00150827	0.00031433	0.00141634	0.00024141	0.00074134
0.49000000	0.00252246	0.00415552	0.00352379	0.00605839	0.00438176	0.01083249	0.01332180	0.00206933	0.00189410	0.00878713	0.00517229	0.00686419	0.00254114	0.00421666	0.00352273	0.00079937	0.00060913	0.00213732	0.00276833	0.00439942	0.00151826	0.00076898	0.00138787	0.00042604	0.00069064
0.50000000	0.00275172	0.00364925	0.00354495	0.00620008	0.00473875	0.01090772	0.01342903	0.00160646	0.00188758	0.00884410	0.00555533	0.00783094	0.00275763	0.00442438	0.00390013	0.00102788	0.00059132	0.00228363	0.00266893	0.00433776	0.00163797	0.00148747	0.00138532	0.00037637	0.00081965
0.51000000	0.00296538	0.00368065	0.00335940	0.00614191	0.00464324	0.01127610	0.01336399	0.00185752	0.00169681	0.00884019	0.00599996	0.00919909	0.00276324	0.00436973	0.00331585	0.00147349	0.00048532	0.00212396	0.00279168	0.00417069	0.00200761	0.00151657	0.00130808	0.00093419	0.00057876
0.52000000	0.00335899	0.00336248	0.00368751	0.00598872	0.00452861	0.01157077	0.01332605	0.00199544	0.00182944	0.00876701	0.00623298	0.01089324	0.00264456	0.00462033	0.00315026	0.00164749	0.00058999	0.00221838	0.00271947	0.00406444	0.00232031	0.00111140	0.00115077	0.00084274	0.00056755
0.53000000	0.00323553	0.00310893	0.00328665	0.00587809	0.00458684	0.01187964	0.01335304	0.00184962	0.00186020	0.00883372	0.00650556	0.01293862	0.00249445	0.00485796	0.00256016	0.00199734	0.00069599	0.00217131	0.00277727	0.00399005	0.00280450	0.00139503	0.00112618	0.00087031	0.00050281
0.54000000	0.00309305	0.00271475	0.00286756	0.00582736	0.00477397	0.01199290	0.01344942	0.00186719	0.00188035	0.00906947	0.00669161	0.01517729	0.00230882	0.00507419	0.00238714	0.00223124	0.00085136	0.00217753	0.00279333	0.00401072	0.00320878	0.00160334	0.00101665	0.00086549	0.00044751
0.55000000	0.00367627	0.00174625	0.00299391	0.00559602	0.00450448	0.01243794	0.01333712	0.00211625	0.00206471	0.00963230	0.00687055	0.01716470	0.00218627	0.00544157	0.00276811	0.00232440	0.00102908	0.00228012	0.00277980	0.00404386	0.00340854	0.00134324	0.00097430	0.00084642	0.00050774
0.56000000	0.00341462	0.00168774	0.00226521	0.00565306	0.00474222	0.01261236	0.01343514	0.00207184	0.00201631	0.01016656	0.00682689	0.01936919	0.00224559	0.00566282	0.00290807	0.00246097	0.00109591	0.00229955	0.00281054	0.00415928	0.00374287	0.00145875	0.00088230	0.00076468	0.00037694
0.57000000	0.00399449	0.00129784	0.00219942	0.00566719	0.00447143	0.01308262	0.01336518	0.00234021	0.00208553	0.01079837	0.00674650	0.02107672	0.00236270	0.00596341	0.00341721	0.00252462	0.00119828	0.00242361	0.00278300	0.00431864	0.00381895	0.00125920	0.00078587	0.00070747	0.00036136
0.58000000	0.00401875	0.00139608	0.00168337	0.00586857	0.00465115	0.01353603	0.01336671	0.00224424	0.00197638	0.01139655	0.00656633	0.02250536	0.00256865	0.00622975	0.00392729	0.00265236	0.00129965	0.00252766	0.00276274	0.00453903	0.00385781	0.00118368	0.00063331	0.00064014	0.00026891
0.59000000	0.00397898	0.00155088	0.00128656	0.00630221	0.00494224	0.01403727	0.01334182	0.00217234	0.00174304	0.01216372	0.00644603	0.02327350	0.00289359	0.00638237	0.00435357	0.00272633	0.00130883	0.00264623	0.00274846	0.00477221	0.00389937	0.00115236	0.00052772	0.00056093	0.00019214
0.60000000	0.00404079	0.00183885	0.00127108	0.00680110	0.00513844	0.01471591	0.01327195	0.00224133	0.00135651	0.01274299	0.00629196	0.02341231	0.00322787	0.00659972	0.00478165	0.00289139	0.00135893	0.00277626	0.00275679	0.00496042	0.00384762	0.00107363	0.00041264	0.00056506	0.00020604
0.61000000	0.00470240	0.00187186	0.00164068	0.00722494	0.00492045	0.01557707	0.01328512	0.00228175	0.00127046	0.01267292	0.00619150	0.02312612	0.00340105	0.00654820	0.00473498	0.00283178	0.00124008	0.00295534	0.00267868	0.00532573	0.00366474	0.00080946	0.00019564	0.00041417	0.00012367
0.62000000	0.00479430	0.00213543	0.00175287	0.00794517	0.00506532	0.01645888	0.01313995	0.00239121	0.00111723	0.01284116	0.00604682	0.02226342	0.00366440	0.00665535	0.00483401	0.00290175	0.00120953	0.00310609	0.00266853	0.00559555	0.00349209	0.00063757	0.00018503	0.00037329	0.00007606
0.63000000	0.00467871	0.00270814	0.00192904	0.00885283	0.00546878	0.01724958	0.01301123	0.00259565	0.00072743	0.01315544	0.00594876	0.02090202	0.00386137	0.00676994	0.00490437	0.00306628	0.00126436	0.00323487	0.00271775	0.00571316	0.00340504	0.00057155	0.00033531	0.00049045	0.00041817
0.64000000	0.00499291	0.00279904	0.00213982	0.00951974	0.00538181	0.01823769	0.01299135	0.00272383	0.00104321	0.01280937	0.00582518	0.01952145	0.00394836	0.00668177	0.00468598	0.00300655	0.00111573	0.00334820	0.00265224	0.00603499	0.00316276	0.00031129	0.00045823	0.00025438	0.00023937
0.65000000	0.00502293	0.00309199	0.00228261	0.01027772	0.00553125	0.01913499	0.01290477	0.00292856	0.00103881	0.01256441	0.00570882	0.01793872	0.00398172	0.00651383	0.00442525	0.00299955	0.00109107	0.00345955	0.00262363	0.00621398	0.00301921	0.00016763	0.00058769	0.00014658	0.00035764
0.66000000	0.00526308	0.00500890	0.00190053	0.01128036	0.00682513	0.01956333	0.01262537	0.00275834	0.00063481	0.01325205	0.00525711	0.01593805	0.00406342	0.00620336	0.00382220	0.00268344	0.00089406	0.00345281	0.00261263	0.00661865	0.00302105	0.00026211	0.00103876	0.00025074	0.00086786
0.67000000	0.00499869	0.00325373	0.00244229	0.01150237	0.00594162	0.02068319	0.01273238	0.00330877	0.00090551	0.01186293	0.00562734	0.01445713	0.00378924	0.00575068	0.00368952	0.00289235	0.00094409	0.00350754	0.00255817	0.00645264	0.00281532	0.00025932	0.00079662	0.00023202	0.00058888
0.68000000	0.00487224	0.00359517	0.00251016	0.01191169	0.00616713	0.02122369	0.01271442	0.00340332	0.00093266	0.01106417	0.00541441	0.01278428	0.00357230	0.00516841	0.00337763	0.00280047	0.00097517	0.00357943	0.00252976	0.00647582	0.00282714	0.00044816	0.00098750	0.00023655	0.00063740
0.69000000	0.00469847	0.00363326	0.00254042	0.01217691	0.00640138	0.02169606	0.01264526	0.00348101	0.00097123	0.01011704	0.00533533	0.01088670	0.00327706	0.00456072	0.00300254	0.00275610	0.00099969	0.00357655	0.00252928	0.00642836	0.00283836	0.00056349	0.00111132	0.00028191	0.00074330
0.70000000	0.00458318	0.00379942	0.00252985	0.01229552	0.00665915	0.02201376	0.01263214	0.00351768	0.00094794	0.00885451	0.00517245	0.00890663	0.00300548	0.00376016	0.00253680	0.00266411	0.00105342	0.00356039	0.00250851	0.00639216	0.00284623	0.00066567	0.00127785	0.00034710	0.00082778
0.71000000	0.00440553	0.00388760	0.00253777	0.01234359	0.00692530	0.02227181	0.01260063	0.00353031	0.00089592	0.00725281	0.00498251	0.00669496	0.00273000	0.00295051	0.00201418	0.00259565	0.00111600	0.00350455	0.00250323	0.00631108	0.00287254	0.00072654	0.00139548	0.00036268	0.00095293
0.72000000	0.00450858	0.00479712	0.00251231	0.01232270	0.00733764	0.02230282	0.01264069	0.00339409	0.00078854	0.00545334	0.00456100	0.00432598	0.00235132	0.00207311	0.00155826	0.00251812	0.00121746	0.00339881	0.00250507	0.00627935	0.00290022	0.00070321	0.00160577	0.00046779	0.00108134
0.73000000	0.00438996	0.00508162	0.00271765	0.01226380	0.00755967	0.02243391	0.01268725	0.00333481	0.00079611	0.00375975	0.00412248	0.00160390	0.00208379	0.00121002	0.00100321	0.00242343	0.00127172	0.00333571	0.00247459	0.00623885	0.00292933	0.00073749	0.00168709	0.00047376	0.00116474
0.74000000	0.00406308	0.00506601	0.00294177	0.01226127	0.00770998	0.02262813	0.01263718	0.00336945	0.00082525	0.00359199	0.00374210	0.00169111	0.00203456	0.00117169	0.00046142	0.00230208	0.00128654	0.00317253	0.00248421	0.00625371	0.00300066	0.00078313	0.00172760	0.00041014	0.00125357
0.75000000	0.00406194	0.00576234	0.00331645	0.01221399	0.00796243	0.02260533	0.01275990	0.00325530	0.00075830	0.00568811	0.00322390	0.00476860	0.00196015	0.00205817	0.00079291	0.00223892	0.00139640	0.00304962	0.00245227	0.00624734	0.00305870	0.00082990	0.00186158	0.00043538	0.00135627
0.76000000	0.00398086	0.00649787	0.00380525	0.01220959	0.00824873	0.02254560	0.01287274	0.00316411	0.00074058	0.00852712	0.00275506	0.00793448	0.00203531	0.00331729	0.00146347	0.00216446	0.00145195	0.00291103	0.00243166	0.00623359	0.00314508	0.00085945	0.00194648	0.00045625	0.00141023
0.77000000	0.00400118	0.00767790	0.00416356	0.01210208	0.00863072	0.02244175	0.01303666	0.00296989	0.00071023	0.01077268	0.00187748	0.01111929	0.00235459	0.00487855	0.00224314	0.00204268	0.00150814	0.00282260	0.00243052	0.00630762	0.00331238	0.00085594	0.00201269	0.00050735	0.00155108
0.78000000	0.00389848	0.00829692	0.00470158	0.01208777	0.00894983	0.02229956	0.01314558	0.00285057	0.00058755	0.01312233	0.00189977	0.01354385	0.00249215	0.00588269	0.00288329	0.00204044	0.00160183	0.00270102	0.00243157	0.00626423	0.00346477	0.00087732	0.00211704	0.00044788	0.00162771
0.79000000	0.00375731	0.00923694	0.00552706	0.01209665	0.00894804	0.02214734	0.01316699	0.00287441	0.00060357	0.01544243	0.00184621	0.01476009	0.00276145	0.00621674	0.00351409	0.00198010	0.00175463	0.00244536	0.00242785	0.00630319	0.00353547	0.00092945	0.00219192	0.00050858	0.00193612
0.80000000	0.00378226	0.00957484	0.00540241	0.01193528	0.00974294	0.02178116	0.01349788	0.00247891	0.00058214	0.01521792	0.00188949	0.01620537	0.00273596	0.00705652	0.00359631	0.00181975	0.00181856	0.00248745	0.00246674	0.00635120	0.00384855	0.00074311	0.00234996	0.00047541	0.00183421
0.81000000	0.00384243	0.01010719	0.00566005	0.01196925	0.00967845	0.02136893	0.01359953	0.00238627	0.00063480	0.01557343	0.00204871	0.01588039	0.00261517	0.00669671	0.00350672	0.00191363	0.00195788	0.00234925	0.00259518	0.00636181	0.00414573	0.00076628	0.00237217	0.00019278	0.00221458
0.82000000	0.00383436	0.00976349	0.00566203	0.01158678	0.01022333	0.02119491	0.01368857	0.00228344	0.00052586	0.01459728	0.00196042	0.01526598	0.00260009	0.00646195	0.00357783	0.00185038	0.00204645	0.00233315	0.00265101	0.00641298	0.00438938	0.00043785	0.00252948	0.00029357	0.00212875
0.83000000	0.00400774	0.00997876	0.00582875	0.01148807	0.01016499	0.02062341	0.01379527	0.00218320	0.00048740	0.01335226	0.00180002	0.01386535	0.00254157	0.00569625	0.00339675	0.00181721	0.00221573	0.00231320	0.00273071	0.00650181	0.00462776	0.00023811	0.00269526	0.00019707	0.00229505
0.84000000	0.00433531	0.00995641	0.00599871	0.01133970	0.01007393	0.01986300	0.01394977	0.00198116	0.00058396	0.01179774	0.00174735	0.01222053	0.00260282	0.00486760	0.00318626	0.00191168	0.00242168	0.00226486	0.00280438	0.00659571	0.00480533	0.00013886	0.00289746	0.00009401	0.00249608
0.85000000	0.00484001	0.00979079	0.00614748	0.01098713	0.00977719	0.01901270	0.01415539	0.00179417	0.00080167	0.01019384	0.00188057	0.01052794	0.00278940	0.00405004	0.00290873	0.00202440	0.00263803	0.00220439	0.00283257	0.00677323	0.00485556	0.00040864	0.00313345	0.00020248	0.00267244
0.86000000	0.00530021	0.00946887	0.00633111	0.01047073	0.00944993	0.01809080	0.01438139	0.00169187	0.00108095	0.00843431	0.00224766	0.00910832	0.00304952	0.00348752	0.00265417	0.00215408	0.00280708	0.00227807	0.00283961	0.00685414	0.00489660	0.00079955	0.00331023	0.00026647	0.00283954
0.87000000	0.00603723	0.00884021	0.00643484	0.00969720	0.00899755	0.01710508	0.01469592	0.00156998	0.00135205	0.00684374	0.00275741	0.00791933	0.00317229	0.00331296	0.00235806	0.00246949	0.00288961	0.00230152	0.00278288	0.00688254	0.00477508	0.00125930	0.00340647	0.00044860	0.00290440
0.88000000	0.00726653	0.00684483	0.00613559	0.00819425	0.00878207	0.01613254	0.01535123	0.00234815	0.00062699	0.00590979	0.00233387	0.00701002	0.00280507	0.00333830	0.00200549	0.00258449	0.00288737	0.00238132	0.00244305	0.00694453	0.00424429	0.00150170	0.00336853	0.00055705	0.00285380
0.89000000	0.00760636	0.00678685	0.00611845	0.00714814	0.00749676	0.01477051	0.01588116	0.00209232	0.00093282	0.00426185	0.00300781	0.00663577	0.00263910	0.00330436	0.00182988	0.00277433	0.00302122	0.00246382	0.00224033	0.00698336	0.00383962	0.00185465	0.00351968	0.00069034	0.00291523
0.90000000	0.00790925	0.00658391	0.00587271	0.00594507	0.00615466	0.01341705	0.01653490	0.00192837	0.00115352	0.00321902	0.00355818	0.00640917	0.00230412	0.00312343	0.00191991	0.00295354	0.00300509	0.00254759	0.00197026	0.00693055	0.00331181	0.00206174	0.00346250	0.00076192	0.00288607
0.91000000	0.00866995	0.00513766	0.00574031	0.00443186	0.00495543	0.01222354	0.01725222	0.00210397	0.00095456	0.00399661	0.00237319	0.00511147	0.00135371	0.00278191	0.00109303	0.00305238	0.00288357	0.00257419	0.00166493	0.00693138	0.00258161	0.00221408	0.00324760	0.00089291	0.00277839
0.92000000	0.00850153	0.00483778	0.00505762	0.00281588	0.00326546	0.01110786	0.01810486	0.00226244	0.00103691	0.00401440	0.00286816	0.00478247	0.00164170	0.00217669	0.00187123	0.00300174	0.00266175	0.00270755	0.00137006	0.00689619	0.00203329	0.00201695	0.00295293	0.00078143	0.00251557
0.93000000	0.00869644	0.00365237	0.00479540	0.00153717	0.00202243	0.01041562	0.01877183	0.00295167	0.00108139	0.00438247	0.00218658	0.00340381	0.00202559	0.00167898	0.00182512	0.00299738	0.00238745	0.00266215	0.00116552	0.00688433	0.00144487	0.00187191	0.00253902	0.00075133	0.00224628
0.94000000	0.00807212	0.00315863	0.00418495	0.00225623	0.00161716	0.00976593	0.01963415	0.00392321	0.00105053	0.00503414	0.00275739	0.00279132	0.00250677	0.00110746	0.00238050	0.00287611	0.00204859	0.00267684	0.00106238	0.00695616	0.00112731	0.00139686	0.00203604	0.00053426	0.00185440
0.95000000	0.00817314	0.00244984	0.00408849	0.00374910	0.00228607	0.00961891	0.02020724	0.00524560	0.00102446	0.00539826	0.00266302	0.00213759	0.00290226	0.00061367	0.00260444	0.00277707	0.00178258	0.00265573	0.00104241	0.00691140	0.00092313	0.00099673	0.00152429	0.00044076	0.00145772
0.96000000	0.00794645	0.00184893	0.00389988	0.00554148	0.00326833	0.00944338	0.02081980	0.00649765	0.00095305	0.00553034	0.00269143	0.00153849	0.00297165	0.00051579	0.00260160	0.00274366	0.00161952	0.00258640	0.00117596	0.00692975	0.00104456	0.00058931	0.00105737	0.00023690	0.00114351
0.97000000	0.00636108	0.00181153	0.00389682	0.00762138	0.00485970	0.00931528	0.02127889	0.00780688	0.00192511	0.00546219	0.00293348	0.00092688	0.00279793	0.00065881	0.00243471	0.00255120	0.00163065	0.00245536	0.00140502	0.00721870	0.00153449	0.00034641	0.00082298	0.00013381	0.00079314
0.98000000	0.00752722	0.00137285	0.00424600	0.00853200	0.00474936	0.00932128	0.02167927	0.00840484	0.00103117	0.00502417	0.00246995	0.00078153	0.00252081	0.00097784	0.00224415	0.00265501	0.00160280	0.00238852	0.00151213	0.00686563	0.00142424	0.00022180	0.00033949	0.00019648	0.00064740
0.99000000	0.00715585	0.00144905	0.00429346	0.00972714	0.00543519	0.00907100	0.02195760	0.00898259	0.00128732	0.00452889	0.00245116	0.00045107	0.00221458	0.00138873	0.00203259	0.00257386	0.00164316	0.00228670	0.00165850	0.00681447	0.00162828	0.00051098	0.00018947	0.00028825	0.00051471
1.00000000	0.00746025	0.00145662	0.00464025	0.00996094	0.00538583	0.00974771	0.02162220	0.00994262	0.00112881	0.00412017	0.00237605	0.00067405	0.00185401	0.00104156	0.00175070	0.00250263	0.00163339	0.00220496	0.00176118	0.00665939	0.00162976	0.00071642	0.00016107	0.00036244	0.00040768
1.01000000	0.00672326	0.00203572	0.00450006	0.01085658	0.00624029	0.00932542	0.02176562	0.00979713	0.00185132	0.00368154	0.00251168	0.00049146	0.00164604	0.00160251	0.00156932	0.00237711	0.00164993	0.00216430	0.00180974	0.00647731	0.00166707	0.00094691	0.00013600	0.00047071	0.00041134
1.02000000	0.00669237	0.00213495	0.00449605	0.01054894	0.00607886	0.01036901	0.02123369	0.01051749	0.00155132	0.00333053	0.00271017	0.00044342	0.00138773	0.00108689	0.00139186	0.00218649	0.00146709	0.00202578	0.00177904	0.00639056	0.00150849	0.00109776	0.00029611	0.00049772	0.00052795
1.03000000	0.00622112	0.00267009	0.00443092	0.01046729	0.00652006	0.01094805	0.02096812	0.01064165	0.00186731	0.00300295	0.00290210	0.00044314	0.00130197	0.00092613	0.00135338	0.00192894	0.00130185	0.00188087	0.00172498	0.00623474	0.00144176	0.00117375	0.00044769	0.00058081	0.00052399
1.04000000	0.00571251	0.00316856	0.00420846	0.01093745	0.00760547	0.01116460	0.02078419	0.01007256	0.00313175	0.00296601	0.00310538	0.00062794	0.00126455	0.00098999	0.00132699	0.00176351	0.00126005	0.00185790	0.00171218	0.00605687	0.00139176	0.00129732	0.00056903	0.00062546	0.00059079
1.05000000	0.00568241	0.00358519	0.00425222	0.01053334	0.00753709	0.01258938	0.02059056	0.00988279	0.00245158	0.00300612	0.00292454	0.00064742	0.00136797	0.00072014	0.00141990	0.00143714	0.00109804	0.00164975	0.00154937	0.00596608	0.00141637	0.00119349	0.00074528	0.00074087	0.00075614
1.06000000	0.00513096	0.00390920	0.00407985	0.01036994	0.00802940	0.01406463	0.02017740	0.00983063	0.00287282	0.00321122	0.00302063	0.00085626	0.00137124	0.00064279	0.00143859	0.00115244	0.00112346	0.00154567	0.00140127	0.00587209	0.00165565	0.00128329	0.00093073	0.00073783	0.00083351
1.07000000	0.00478837	0.00423985	0.00396960	0.01026578	0.00850969	0.01560561	0.01990822	0.00953732	0.00328147	0.00347446	0.00287903	0.00089086	0.00145030	0.00050826	0.00155971	0.00096143	0.00113104	0.00144430	0.00129872	0.00573289	0.00200406	0.00129668	0.00102012	0.00085161	0.00085157
1.08000000	0.00442169	0.00447637	0.00376177	0.01018276	0.00896073	0.01732061	0.01958486	0.00935078	0.00367191	0.00371331	0.00266891	0.00086180	0.00156146	0.00044562	0.00166288	0.00075533	0.00110263	0.00131472	0.00115718	0.00565696	0.00228517	0.00135138	0.00105778	0.00094505	0.00081559
1.09000000	0.00419574	0.00441901	0.00338630	0.01015708	0.00933544	0.01904133	0.01931984	0.00930144	0.00418182	0.00404732	0.00255365	0.00075424	0.00167326	0.00035395	0.00194536	0.00074717	0.00111350	0.00120132	0.00107289	0.00553791	0.00261420	0.00142675	0.00106662	0.00106937	0.00077210
1.10000000	0.00376657	0.00478822	0.00311791	0.01020284	0.00964800	0.02084471	0.01897913	0.00939102	0.00446569	0.00389931	0.00208096	0.00087194	0.00182291	0.00063997	0.00178717	0.00086552	0.00101383	0.00114191	0.00099400	0.00526503	0.00276992	0.00153841	0.00089226	0.00112798	0.00064002
1.11000000	0.00403997	0.00426939	0.00266188	0.01035021	0.00999627	0.02251128	0.01874902	0.00968943	0.00500688	0.00452606	0.00262491	0.00078039	0.00189496	0.00121656	0.00159047	0.00093487	0.00083723	0.00100021	0.00092077	0.00510152	0.00285814	0.00172242	0.00074281	0.00103871	0.00044762
1.12000000	0.00428731	0.00377921	0.00249870	0.01066582	0.01012830	0.02412684	0.01862884	0.01000922	0.00537618	0.00503755	0.00305009	0.00087773	0.00198582	0.00161269	0.00147986	0.00103134	0.00066564	0.00084703	0.00076505	0.00490174	0.00277633	0.00181301	0.00066745	0.00096312	0.00031971
1.13000000	0.00365432	0.00415020	0.00245829	0.01102438	0.01009421	0.02575387	0.01840425	0.01030566	0.00540628	0.00460651	0.00213325	0.00114579	0.00232359	0.00124214	0.00214276	0.00106055	0.00045903	0.00076199	0.00070160	0.00452660	0.00266314	0.00152599	0.00033056	0.00108310	0.00012440
1.14000000	0.00384478	0.00418282	0.00258129	0.01152162	0.01005669	0.02697803	0.01838670	0.01067509	0.00560537	0.00458377	0.00180639	0.00124872	0.00239457	0.00142382	0.00203368	0.00112397	0.00023790	0.00071716	0.00067771	0.00426121	0.00255899	0.00150290	0.00020180	0.00091438	0.00012813
1.15000000	0.00434028	0.00385785	0.00283930	0.01235545	0.01013273	0.02793098	0.01833046	0.01090503	0.00584097	0.00481278	0.00264691	0.00135898	0.00247761	0.00201652	0.00170438	0.00111554	0.00024642	0.00063094	0.00057167	0.00408320	0.00223415	0.00146832	0.00031898	0.00073749	0.00029954
1.16000000	0.00440917	0.00375950	0.00321147	0.01300079	0.00988216	0.02848377	0.01845564	0.01118869	0.00624794	0.00474520	0.00221981	0.00164533	0.00268593	0.00172444	0.00197922	0.00105054	0.00054672	0.00057092	0.00053727	0.00387924	0.00197817	0.00113838	0.00063361	0.00065778	0.00045850
1.17000000	0.00478240	0.00392185	0.00338340	0.01417476	0.00990140	0.02847357	0.01850894	0.01103296	0.00624696	0.00451196	0.00208099	0.00194775	0.00274452	0.00192325	0.00172409	0.00118895	0.00088817	0.00071101	0.00052532	0.00369838	0.00171952	0.00095403	0.00088397	0.00047569	0.00062381
1.18000000	0.00509742	0.00397182	0.00364867	0.01486607	0.00947941	0.02825669	0.01850075	0.01096982	0.00650552	0.00457752	0.00220901	0.00260023	0.00284890	0.00207895	0.00157150	0.00116884	0.00126263	0.00069482	0.00057239	0.00361931	0.00134567	0.00071151	0.00119193	0.00033639	0.00086047
1.19000000	0.00539710	0.00387324	0.00386903	0.01572852	0.00902545	0.02745610	0.01858960	0.01067822	0.00659556	0.00477813	0.00251898	0.00341275	0.00279403	0.00221890	0.00136094	0.00119651	0.00162935	0.00073133	0.00064058	0.00353656	0.00107086	0.00050063	0.00151998	0.00019091	0.00106649
1.20000000	0.00558578	0.00371847	0.00418374	0.01637242	0.00828305	0.02632425	0.01872735	0.01034811	0.00654155	0.00533995	0.00280191	0.00432001	0.00273458	0.00226691	0.00107870	0.00118430	0.00194094	0.00074943	0.00073397	0.00344823	0.00082704	0.00047413	0.00181114	0.00027005	0.00123955
1.21000000	0.00589718	0.00357332	0.00415812	0.01672066	0.00755325	0.02477276	0.01878655	0.00983505	0.00628603	0.00557000	0.00347825	0.00565894	0.00249998	0.00258090	0.00072238	0.00130402	0.00236136	0.00085215	0.00089848	0.00329472	0.00091838	0.00022026	0.00216361	0.00017698	0.00145155
1.22000000	0.00590895	0.00346285	0.00436072	0.01660592	0.00651940	0.02319983	0.01880926	0.00931876	0.00583949	0.00632284	0.00377609	0.00679271	0.00235761	0.00268317	0.00052225	0.00125724	0.00264724	0.00085689	0.00100197	0.00324664	0.00111769	0.00053398	0.00245579	0.00026069	0.00159677
1.23000000	0.00599099	0.00309206	0.00424338	0.01625312	0.00565992	0.02126014	0.01877534	0.00862185	0.00517113	0.00668258	0.00479098	0.00806779	0.00200731	0.00294027	0.00027933	0.00146213	0.00299860	0.00104890	0.00114842	0.00313706	0.00144946	0.00049192	0.00273559	0.00034793	0.00175038
1.24000000	0.00588548	0.00312009	0.00430549	0.01524720	0.00456948	0.01955337	0.01859251	0.00801130	0.00444910	0.00748974	0.00523181	0.00887851	0.00187014	0.00301783	0.00029027	0.00152971	0.00318853	0.00119948	0.00128426	0.00318731	0.00186066	0.00086095	0.00290782	0.00058441	0.00185126
1.25000000	0.00581555	0.00254584	0.00422350	0.01401669	0.00383947	0.01745951	0.01843053	0.00716216	0.00380728	0.00726652	0.00641757	0.01006091	0.00150751	0.00322275	0.00082039	0.00171344	0.00346338	0.00133747	0.00136663	0.00308051	0.00213179	0.00088181	0.00313027	0.00052587	0.00195505
1.26000000	0.00565634	0.00242982	0.00417408	0.01231881	0.00321137	0.01557836	0.01807664	0.00638105	0.00324362	0.00746597	0.00711673	0.01062447	0.00136690	0.00332392	0.00098608	0.00190819	0.00363872	0.00151561	0.00146238	0.00305752	0.00246254	0.00104417	0.00328787	0.00065313	0.00200062
1.27000000	0.00539340	0.00255809	0.00414742	0.01016593	0.00288395	0.01408107	0.01752799	0.00563790	0.00274754	0.00779496	0.00752566	0.01077108	0.00132375	0.00337318	0.00102540	0.00207964	0.00372910	0.00168328	0.00153705	0.00309913	0.00279525	0.00127733	0.00335692	0.00081256	0.00206457
1.28000000	0.00528207	0.00239980	0.00402305	0.00819927	0.00280995	0.01221590	0.01727144	0.00472502	0.00220586	0.00770147	0.00812744	0.01097284	0.00123264	0.00339443	0.00123731	0.00234820	0.00387883	0.00182840	0.00153500	0.00294941	0.00295515	0.00140831	0.00347890	0.00099443	0.00207203
1.29000000	0.00516882	0.00255658	0.00404747	0.00583844	0.00290623	0.01129648	0.01682038	0.00397885	0.00178271	0.00794064	0.00843563	0.01077715	0.00128134	0.00336292	0.00133770	0.00253790	0.00382126	0.00201747	0.00163765	0.00285396	0.00328295	0.00159632	0.00344270	0.00115732	0.00209238
1.30000000	0.00533878	0.00261659	0.00406434	0.00406397	0.00292781	0.01054148	0.01667960	0.00294790	0.00122863	0.00791278	0.00896811	0.01070343	0.00140563	0.00331937	0.00152429	0.00279399	0.00385820	0.00215231	0.00166935	0.00259779	0.00340827	0.00177691	0.00344527	0.00129040	0.00207963
1.31000000	0.00565118	0.00281905	0.00432597	0.00309802	0.00306306	0.01087314	0.01645174	0.00232108	0.00083816	0.00825819	0.00915847	0.01036528	0.00150265	0.00321212	0.00153596	0.00301126	0.00374703	0.00233680	0.00173481	0.00247697	0.00360893	0.00203518	0.00337752	0.00154994	0.00204973
1.32000000	0.00622804	0.00300545	0.00471317	0.00406232	0.00311369	0.01167721	0.01637478	0.00183243	0.00051485	0.00856269	0.00949092	0.01004128	0.00160219	0.00315331	0.00155391	0.00322150	0.00361514	0.00252651	0.00184439	0.00253324	0.00377978	0.00226469	0.00328741	0.00176135	0.00198062
1.33000000	0.00688793	0.00321655	0.00520006	0.00576933	0.00309306	0.01270297	0.01646345	0.00162198	0.00020772	0.00871375	0.00994089	0.00982926	0.00176702	0.00320736	0.00158903	0.00336441	0.00345288	0.00269630	0.00199413	0.00290372	0.00396741	0.00240908	0.00319923	0.00189920	0.00191780
1.34000000	0.00772407	0.00343632	0.00584211	0.00749810	0.00299800	0.01381766	0.01653402	0.00164870	0.00034626	0.00892823	0.01023077	0.00950249	0.00190115	0.00329745	0.00149031	0.00346009	0.00330368	0.00285789	0.00216923	0.00354430	0.00412760	0.00256247	0.00309743	0.00208347	0.00188324
1.35000000	0.00837901	0.00369295	0.00645150	0.00873124	0.00288544	0.01479921	0.01656789	0.00182419	0.00053667	0.00900075	0.01061394	0.00920523	0.00210421	0.00340442	0.00137835	0.00348945	0.00313941	0.00300245	0.00233602	0.00421513	0.00428485	0.00263286	0.00300473	0.00220667	0.00189234
1.36000000	0.00902526	0.00398162	0.00716413	0.00966989	0.00278033	0.01531028	0.01660771	0.00147090	0.00079141	0.00905181	0.01067029	0.00903246	0.00208348	0.00367222	0.00141552	0.00342631	0.00295449	0.00313891	0.00241034	0.00482042	0.00428815	0.00260828	0.00310010	0.00243642	0.00155705
1.37000000	0.00962779	0.00428336	0.00778292	0.00956306	0.00262333	0.01573426	0.01638160	0.00160076	0.00117827	0.00903545	0.01056650	0.00881073	0.00212771	0.00388431	0.00134972	0.00343291	0.00277644	0.00325711	0.00257520	0.00525348	0.00436156	0.00274774	0.00317381	0.00271640	0.00126625
1.38000000	0.00938630	0.00480709	0.00785755	0.00893492	0.00268746	0.01548627	0.01627529	0.00205987	0.00093509	0.00891606	0.01116769	0.00812273	0.00263703	0.00366240	0.00117088	0.00339857	0.00280775	0.00337216	0.00268170	0.00540599	0.00442555	0.00287808	0.00283109	0.00251553	0.00169186
1.39000000	0.00930328	0.00533535	0.00814216	0.00788167	0.00267699	0.01494140	0.01602483	0.00258311	0.00137999	0.00896741	0.01098519	0.00752185	0.00265620	0.00368556	0.00109833	0.00340167	0.00258470	0.00350518	0.00276818	0.00544504	0.00451197	0.00300835	0.00270578	0.00263998	0.00157152
1.40000000	0.00913249	0.00583916	0.00832648	0.00648274	0.00274234	0.01413555	0.01573469	0.00340827	0.00190059	0.00896617	0.01061034	0.00686346	0.00279213	0.00356888	0.00107817	0.00342954	0.00232731	0.00361382	0.00285274	0.00538281	0.00456953	0.00315102	0.00243927	0.00276508	0.00146950
1.41000000	0.00877385	0.00621069	0.00832827	0.00482035	0.00335750	0.01298395	0.01575741	0.00350107	0.00118659	0.00869930	0.01045020	0.00629348	0.00322163	0.00339775	0.00149550	0.00334175	0.00216204	0.00351407	0.00283744	0.00526842	0.00432677	0.00322621	0.00213534	0.00274146	0.00131115
1.42000000	0.00841252	0.00654340	0.00816401	0.00298430	0.00357498	0.01205324	0.01562760	0.00412590	0.00117876	0.00849441	0.00972663	0.00548940	0.00337335	0.00320729	0.00169439	0.00340385	0.00188992	0.00343779	0.00275374	0.00516398	0.00416011	0.00342973	0.00181287	0.00286204	0.00111718
1.43000000	0.00807931	0.00665596	0.00780348	0.00142468	0.00375067	0.01123899	0.01553795	0.00457443	0.00143201	0.00809596	0.00882578	0.00453156	0.00361854	0.00301954	0.00190800	0.00344674	0.00164862	0.00325377	0.00259818	0.00502671	0.00398457	0.00353896	0.00152345	0.00290822	0.00095422
1.44000000	0.00695618	0.00692609	0.00713082	0.00106275	0.00376144	0.01039228	0.01576852	0.00464384	0.00121820	0.00747971	0.00814816	0.00380978	0.00397096	0.00298519	0.00234604	0.00337644	0.00131894	0.00300240	0.00235687	0.00493488	0.00362623	0.00344021	0.00114241	0.00287516	0.00072242
1.45000000	0.00684278	0.00637502	0.00653709	0.00207848	0.00380365	0.00991798	0.01580448	0.00445321	0.00168952	0.00671725	0.00667140	0.00283882	0.00425172	0.00300201	0.00273299	0.00330739	0.00110874	0.00268757	0.00210428	0.00485285	0.00333661	0.00328676	0.00092801	0.00275379	0.00065468
1.46000000	0.00563135	0.00613743	0.00586461	0.00256651	0.00339602	0.00946022	0.01585426	0.00485356	0.00149363	0.00565199	0.00529425	0.00203119	0.00449219	0.00279554	0.00316470	0.00317199	0.00080471	0.00249956	0.00184460	0.00475537	0.00300007	0.00299045	0.00070004	0.00258125	0.00046505
1.47000000	0.00548522	0.00504343	0.00501304	0.00334222	0.00343026	0.00931906	0.01580792	0.00429773	0.00205660	0.00436168	0.00348865	0.00145804	0.00471618	0.00292818	0.00345929	0.00287627	0.00083759	0.00220402	0.00160698	0.00476705	0.00274872	0.00251324	0.00078779	0.00219016	0.00056070
1.48000000	0.00422815	0.00440397	0.00444580	0.00365078	0.00294443	0.00895854	0.01594327	0.00415053	0.00195262	0.00302247	0.00195571	0.00141295	0.00483015	0.00254253	0.00373913	0.00255448	0.00072494	0.00211816	0.00149186	0.00467012	0.00257499	0.00189400	0.00083056	0.00172228	0.00045126
1.49000000	0.00341582	0.00387725	0.00384638	0.00363852	0.00259289	0.00899913	0.01572090	0.00420535	0.00194414	0.00221707	0.00120648	0.00175341	0.00486646	0.00208973	0.00386121	0.00222417	0.00091432	0.00209432	0.00149951	0.00464344	0.00259591	0.00124427	0.00093116	0.00126158	0.00057847
1.50000000	0.00317147	0.00357665	0.00368566	0.00381525	0.00237095	0.00905890	0.01550629	0.00392830	0.00197870	0.00242553	0.00174079	0.00233724	0.00479605	0.00198196	0.00381059	0.00202309	0.00114364	0.00213934	0.00161576	0.00464426	0.00277093	0.00062435	0.00111901	0.00082036	0.00065984
1.51000000	0.00337550	0.00352335	0.00372878	0.00401188	0.00237713	0.00946906	0.01501815	0.00360968	0.00214698	0.00307939	0.00270225	0.00318009	0.00453378	0.00226591	0.00368860	0.00189751	0.00145092	0.00224116	0.00177067	0.00465093	0.00307378	0.00020471	0.00139237	0.00044661	0.00076437
1.52000000	0.00296243	0.00417635	0.00444444	0.00419259	0.00217484	0.00913021	0.01512786	0.00302256	0.00209556	0.00430277	0.00309719	0.00368544	0.00410873	0.00211683	0.00325875	0.00204008	0.00160883	0.00225878	0.00194644	0.00470576	0.00332577	0.00040795	0.00147498	0.00012749	0.00080986
1.53000000	0.00282715	0.00435181	0.00483279	0.00433971	0.00219363	0.00937230	0.01476951	0.00281094	0.00217123	0.00548916	0.00384033	0.00431204	0.00331825	0.00237489	0.00279459	0.00219937	0.00180125	0.00230587	0.00210261	0.00475886	0.00363646	0.00074863	0.00158607	0.00025696	0.00090100
1.54000000	0.00258787	0.00480074	0.00531239	0.00462914	0.00224673	0.00945881	0.01460991	0.00245845	0.00222889	0.00638505	0.00420012	0.00488883	0.00250699	0.00264422	0.00234462	0.00235312	0.00192963	0.00226793	0.00223486	0.00480769	0.00386592	0.00092327	0.00166493	0.00047205	0.00093617
1.55000000	0.00247988	0.00488921	0.00542800	0.00490155	0.00250293	0.00962907	0.01440900	0.00222884	0.00235591	0.00720773	0.00456393	0.00535998	0.00165418	0.00295632	0.00189658	0.00250462	0.00201105	0.00215659	0.00234081	0.00490293	0.00396610	0.00099409	0.00172004	0.00046990	0.00098179
1.56000000	0.00256287	0.00466703	0.00535267	0.00514625	0.00277243	0.00990760	0.01417429	0.00214172	0.00241666	0.00783865	0.00492410	0.00584701	0.00100368	0.00333390	0.00166957	0.00257136	0.00204177	0.00207991	0.00236877	0.00497442	0.00391654	0.00091569	0.00174055	0.00038314	0.00096979
1.57000000	0.00268684	0.00467443	0.00525506	0.00533774	0.00295626	0.01007687	0.01409883	0.00204475	0.00247164	0.00830465	0.00511813	0.00636779	0.00110599	0.00353204	0.00196062	0.00255903	0.00199927	0.00194487	0.00234283	0.00506237	0.00369987	0.00074297	0.00172274	0.00030581	0.00095380
1.58000000	0.00308277	0.00399264	0.00479039	0.00542971	0.00334372	0.01036256	0.01395136	0.00195921	0.00251765	0.00881406	0.00578791	0.00689522	0.00158064	0.00399986	0.00283544	0.00260727	0.00205018	0.00179734	0.00234968	0.00510536	0.00338106	0.00058456	0.00181690	0.00029939	0.00096637
1.59000000	0.00324717	0.00426504	0.00489367	0.00546259	0.00320498	0.01052035	0.01401275	0.00192048	0.00243829	0.00886067	0.00588320	0.00771915	0.00188536	0.00401613	0.00288138	0.00238451	0.00179949	0.00172327	0.00216013	0.00519913	0.00292347	0.00025399	0.00169488	0.00012766	0.00087278
1.60000000	0.00346282	0.00375696	0.00463209	0.00539351	0.00342499	0.01070766	0.01405199	0.00171067	0.00241232	0.00898569	0.00645401	0.00873903	0.00213230	0.00422703	0.00310192	0.00236312	0.00175567	0.00167621	0.00204356	0.00520338	0.00242920	0.00036780	0.00172477	0.00023176	0.00084058
1.61000000	0.00336692	0.00306123	0.00437681	0.00534996	0.00395804	0.01040967	0.01452497	0.00090561	0.00260526	0.00919735	0.00681227	0.01001255	0.00228371	0.00430524	0.00364869	0.00218449	0.00185853	0.00165219	0.00200134	0.00519183	0.00225605	0.00110205	0.00203318	0.00046154	0.00091269
1.62000000	0.00383543	0.00300235	0.00441366	0.00499493	0.00326216	0.01116077	0.01412093	0.00168540	0.00239405	0.00898487	0.00724107	0.01149344	0.00207046	0.00451003	0.00292757	0.00216539	0.00152388	0.00162464	0.00179174	0.00502862	0.00176384	0.00036076	0.00161723	0.00038362	0.00080711
1.63000000	0.00361981	0.00274423	0.00400313	0.00490048	0.00345203	0.01123604	0.01425397	0.00140178	0.00238179	0.00896561	0.00749351	0.01329455	0.00197502	0.00464047	0.00250910	0.00222145	0.00147984	0.00162607	0.00172912	0.00477767	0.00176355	0.00068620	0.00161386	0.00036370	0.00073010
1.64000000	0.00338951	0.00243719	0.00370451	0.00469802	0.00347910	0.01153429	0.01421997	0.00129105	0.00237549	0.00902328	0.00761525	0.01517369	0.00182554	0.00486896	0.00243197	0.00209766	0.00142071	0.00168430	0.00163122	0.00453953	0.00181903	0.00082870	0.00149532	0.00042302	0.00067345
1.65000000	0.00401395	0.00192630	0.00344828	0.00424524	0.00302194	0.01179362	0.01423102	0.00138634	0.00234542	0.00934786	0.00773239	0.01686326	0.00167242	0.00514597	0.00271880	0.00175055	0.00144265	0.00169044	0.00161890	0.00413464	0.00193615	0.00032714	0.00143017	0.00026611	0.00065942
1.66000000	0.00353349	0.00198036	0.00310148	0.00434090	0.00337721	0.01184534	0.01431579	0.00115129	0.00228428	0.00976343	0.00764839	0.01874631	0.00168579	0.00533970	0.00276093	0.00161625	0.00139192	0.00173359	0.00163308	0.00378157	0.00198801	0.00043221	0.00126203	0.00013112	0.00055588
1.67000000	0.00331767	0.00198678	0.00293544	0.00431485	0.00357088	0.01213346	0.01424605	0.00119262	0.00216254	0.01029467	0.00753311	0.02042690	0.00174454	0.00555691	0.00312016	0.00135013	0.00127572	0.00179279	0.00168980	0.00342678	0.00194455	0.00048845	0.00100590	0.00025850	0.00035247
1.68000000	0.00333882	0.00216701	0.00294195	0.00432826	0.00382302	0.01245725	0.01420143	0.00122994	0.00202983	0.01084209	0.00728594	0.02176909	0.00186677	0.00587959	0.00361294	0.00103371	0.00120640	0.00175985	0.00181978	0.00309189	0.00182179	0.00055945	0.00074493	0.00028711	0.00026180
1.69000000	0.00351567	0.00236998	0.00303248	0.00442098	0.00403792	0.01287117	0.01415234	0.00135666	0.00185411	0.01151286	0.00704732	0.02264677	0.00207857	0.00611391	0.00411382	0.00071721	0.00114814	0.00170793	0.00199114	0.00279806	0.00163621	0.00063943	0.00049472	0.00034602	0.00024412
1.70000000	0.00387919	0.00269841	0.00320768	0.00451683	0.00416073	0.01342571	0.01412287	0.00144568	0.00171256	0.01204983	0.00678961	0.02308328	0.00232519	0.00615610	0.00442254	0.00057078	0.00102085	0.00163326	0.00216106	0.00262485	0.00140073	0.00084978	0.00019079	0.00034816	0.00019246
1.71000000	0.00451072	0.00309919	0.00337058	0.00476658	0.00410991	0.01407190	0.01416166	0.00151978	0.00152825	0.01238630	0.00654392	0.02295831	0.00251851	0.00612669	0.00453235	0.00063503	0.00096920	0.00152043	0.00232842	0.00256256	0.00119444	0.00104966	0.00014761	0.00040392	0.00013916
1.72000000	0.00454193	0.00335169	0.00377504	0.00553235	0.00454143	0.01476613	0.01405492	0.00172372	0.00147562	0.01303608	0.00636795	0.02221354	0.00289560	0.00611052	0.00480977	0.00077646	0.00084859	0.00156131	0.00244763	0.00263413	0.00084567	0.00127211	0.00046095	0.00041021	0.00026044
1.73000000	0.00482554	0.00373085	0.00408439	0.00621198	0.00466542	0.01558039	0.01410699	0.00201281	0.00132644	0.01310357	0.00612216	0.02111243	0.00318622	0.00611028	0.00496501	0.00102765	0.00078183	0.00152733	0.00258062	0.00274121	0.00060511	0.00150849	0.00074659	0.00052865	0.00033140
1.74000000	0.00522760	0.00396923	0.00420417	0.00701174	0.00489143	0.01642200	0.01417644	0.00211969	0.00123102	0.01296240	0.00602556	0.01963652	0.00346811	0.00598129	0.00476137	0.00133047	0.00079957	0.00144848	0.00270226	0.00284138	0.00064392	0.00171595	0.00090080	0.00071216	0.00044170
1.75000000	0.00525380	0.00433115	0.00442792	0.00791569	0.00507099	0.01725294	0.01413314	0.00240933	0.00116089	0.01282948	0.00587619	0.01787437	0.00374616	0.00594415	0.00471325	0.00155165	0.00081567	0.00145673	0.00280613	0.00294955	0.00073506	0.00194139	0.00122042	0.00074334	0.00056453
1.76000000	0.00537339	0.00445137	0.00448765	0.00876347	0.00532817	0.01803972	0.01412518	0.00251514	0.00102235	0.01236725	0.00587585	0.01597155	0.00398262	0.00589801	0.00433393	0.00179731	0.00091106	0.00138109	0.00289576	0.00303645	0.00097518	0.00210657	0.00133831	0.00091019	0.00072032
1.77000000	0.00540567	0.00466617	0.00460412	0.00943762	0.00546120	0.01870309	0.01414723	0.00259550	0.00091929	0.01173757	0.00578609	0.01409039	0.00415028	0.00589397	0.00399393	0.00198188	0.00103061	0.00136528	0.00293730	0.00312738	0.00119662	0.00227435	0.00155940	0.00100112	0.00084256
1.78000000	0.00549410	0.00494613	0.00470258	0.01004015	0.00563369	0.01912480	0.01421284	0.00260434	0.00082227	0.01089821	0.00569817	0.01230384	0.00423775	0.00587089	0.00362162	0.00209247	0.00109735	0.00138967	0.00303237	0.00312662	0.00146897	0.00239739	0.00182879	0.00100905	0.00096269
1.79000000	0.00521757	0.00483490	0.00471923	0.01039550	0.00573416	0.01970093	0.01412672	0.00261311	0.00069311	0.00985236	0.00569877	0.01041838	0.00417060	0.00555116	0.00303874	0.00231814	0.00123045	0.00133178	0.00304621	0.00322059	0.00167784	0.00260387	0.00194520	0.00113190	0.00119559
1.80000000	0.00534578	0.00510176	0.00478023	0.01068808	0.00599287	0.01984214	0.01416358	0.00246663	0.00054790	0.00855422	0.00555340	0.00869602	0.00397076	0.00509191	0.00254902	0.00239737	0.00133995	0.00140483	0.00311980	0.00319171	0.00193414	0.00267373	0.00221055	0.00119108	0.00137062
1.81000000	0.00508178	0.00496837	0.00494534	0.01071700	0.00606826	0.02008127	0.01417708	0.00236045	0.00048173	0.00698374	0.00544458	0.00674456	0.00354277	0.00432977	0.00212514	0.00251890	0.00144745	0.00143095	0.00314056	0.00323483	0.00211185	0.00281419	0.00238361	0.00124441	0.00154977
1.82000000	0.00516081	0.00554563	0.00515903	0.01100228	0.00657399	0.01982936	0.01418727	0.00203934	0.00050123	0.00529708	0.00514814	0.00484358	0.00309005	0.00333280	0.00153548	0.00259781	0.00170076	0.00159836	0.00314359	0.00327539	0.00225023	0.00286410	0.00268643	0.00126684	0.00182198
1.83000000	0.00464061	0.00514476	0.00538564	0.01063688	0.00647105	0.02016242	0.01413272	0.00204702	0.00036175	0.00350918	0.00492280	0.00245944	0.00249234	0.00215003	0.00121066	0.00272322	0.00174936	0.00158066	0.00320802	0.00333606	0.00243919	0.00302253	0.00274214	0.00133884	0.00195251
1.84000000	0.00436390	0.00531217	0.00571110	0.01058081	0.00683251	0.02009117	0.01412023	0.00187597	0.00036650	0.00289987	0.00455564	0.00090698	0.00210929	0.00122086	0.00077780	0.00282042	0.00191250	0.00166995	0.00321145	0.00341863	0.00254902	0.00313816	0.00288135	0.00135506	0.00213405
1.85000000	0.00435267	0.00603167	0.00618112	0.01046106	0.00712177	0.01992907	0.01420362	0.00172012	0.00017352	0.00458473	0.00403046	0.00288724	0.00191406	0.00155075	0.00030179	0.00283834	0.00209530	0.00181072	0.00325653	0.00344814	0.00274874	0.00317097	0.00304707	0.00141659	0.00232535
1.86000000	0.00402562	0.00649837	0.00648813	0.01030705	0.00765099	0.01996065	0.01421242	0.00155416	0.00025367	0.00657643	0.00327724	0.00599752	0.00239074	0.00312289	0.00055696	0.00297127	0.00221681	0.00181786	0.00323746	0.00359831	0.00281916	0.00330642	0.00307364	0.00143163	0.00245216
1.87000000	0.00412613	0.00741330	0.00713741	0.01031408	0.00790528	0.01966660	0.01439177	0.00137911	0.00017467	0.00956809	0.00297762	0.00821223	0.00255573	0.00416949	0.00056569	0.00290638	0.00241836	0.00199384	0.00325071	0.00356478	0.00299151	0.00325074	0.00327898	0.00140053	0.00262946
1.88000000	0.00393874	0.00804038	0.00734502	0.01017967	0.00837617	0.01965731	0.01448310	0.00145496	0.00032053	0.01107318	0.00206085	0.01087727	0.00326834	0.00564509	0.00126317	0.00296857	0.00251299	0.00196293	0.00323995	0.00367034	0.00313196	0.00334960	0.00328107	0.00137677	0.00273095
1.89000000	0.00394036	0.00841059	0.00777605	0.01028623	0.00868314	0.01944466	0.01454892	0.00141470	0.00031019	0.01285628	0.00201966	0.01238196	0.00353130	0.00647524	0.00147792	0.00286483	0.00265033	0.00207730	0.00319458	0.00365336	0.00320363	0.00325431	0.00338154	0.00125318	0.00287815
1.90000000	0.00391110	0.00926968	0.00859665	0.01032998	0.00840762	0.01918620	0.01468901	0.00134239	0.00030787	0.01425098	0.00196064	0.01270227	0.00358368	0.00662737	0.00173610	0.00266087	0.00274611	0.00224659	0.00311314	0.00361022	0.00324942	0.00327840	0.00330212	0.00099428	0.00323640
1.91000000	0.00441955	0.00891181	0.00829701	0.01031387	0.00910981	0.01882897	0.01479547	0.00161110	0.00044950	0.01368087	0.00216948	0.01311968	0.00355914	0.00697671	0.00175918	0.00259015	0.00285231	0.00228404	0.00319663	0.00355085	0.00343763	0.00291448	0.00353159	0.00101642	0.00309642
1.92000000	0.00475776	0.00930737	0.00854347	0.01027021	0.00891901	0.01823788	0.01505275	0.00175078	0.00060514	0.01287419	0.00214443	0.01220818	0.00329966	0.00642309	0.00175444	0.00235462	0.00294630	0.00241154	0.00323040	0.00344290	0.00359431	0.00263583	0.00361932	0.00091801	0.00328405
1.93000000	0.00525931	0.00930081	0.00860023	0.01025430	0.00871427	0.01756008	0.01523598	0.00172965	0.00078290	0.01143814	0.00198655	0.01070342	0.00300272	0.00562453	0.00167839	0.00215073	0.00304905	0.00253410	0.00320224	0.00334948	0.00366341	0.00238476	0.00373355	0.00069379	0.00348336
1.94000000	0.00589553	0.00832749	0.00833192	0.00969459	0.00888783	0.01711846	0.01546319	0.00234600	0.00058970	0.00949920	0.00187845	0.00917420	0.00254171	0.00475997	0.00171355	0.00197804	0.00300357	0.00249112	0.00318099	0.00317304	0.00365663	0.00208866	0.00368879	0.00048173	0.00347645
1.95000000	0.00630013	0.00812604	0.00836559	0.00935361	0.00832629	0.01624836	0.01569571	0.00228472	0.00082794	0.00724499	0.00200920	0.00758201	0.00217721	0.00365197	0.00173708	0.00171997	0.00307678	0.00250741	0.00314077	0.00294413	0.00368635	0.00170455	0.00381298	0.00022189	0.00361920
1.96000000	0.00674645	0.00775321	0.00827366	0.00890153	0.00753801	0.01513019	0.01605749	0.00198234	0.00062437	0.00511385	0.00246812	0.00628963	0.00173106	0.00272999	0.00201483	0.00145848	0.00322806	0.00254751	0.00304655	0.00266582	0.00373910	0.00129549	0.00394480	0.00025807	0.00386903
1.97000000	0.00757130	0.00584281	0.00797043	0.00788726	0.00729979	0.01444362	0.01632258	0.00240032	0.00079535	0.00421115	0.00245127	0.00524535	0.00124310	0.00153984	0.00147240	0.00146899	0.00323446	0.00235384	0.00292410	0.00228338	0.00361851	0.00075035	0.00391986	0.00038575	0.00381821
1.98000000	0.00756393	0.00549693	0.00774432	0.00685474	0.00615591	0.01336376	0.01676665	0.00207243	0.00090874	0.00289860	0.00330204	0.00507698	0.00103016	0.00109195	0.00163041	0.00152906	0.00339815	0.00215299	0.00276578	0.00194337	0.00365086	0.00040971	0.00402277	0.00074729	0.00393590
1.99000000	0.00761981	0.00503837	0.00730707	0.00580968	0.00510363	0.01228291	0.01728393	0.00192266	0.00127286	0.00288368	0.00427397	0.00522217	0.00064239	0.00096829	0.00167628	0.00161806	0.00341423	0.00179587	0.00262217	0.00152216	0.00375375	0.00052879	0.00391232	0.00094896	0.00395744
2.00000000	0.00765472	0.00447775	0.00666249	0.00463133	0.00404421	0.01121005	0.01793576	0.00214192	0.00161711	0.00391407	0.00480017	0.00531300	0.00091278	0.00096493	0.00189956	0.00166598	0.00340530	0.00140062	0.00249473	0.00113581	0.00396766	0.00067164	0.00376598	0.00109209	0.00389812
2.01000000	0.00802785	0.00286700	0.00630560	0.00324678	0.00298683	0.01056619	0.01841619	0.00257481	0.00155696	0.00453327	0.00322772	0.00403755	0.00216297	0.00044722	0.00115995	0.00181422	0.00340146	0.00121742	0.00240857	0.00086992	0.00423440	0.00096401	0.00358505	0.00122729	0.00381466
2.02000000	0.00759701	0.00264236	0.00535621	0.00225414	0.00192517	0.00996113	0.01907488	0.00335559	0.00179422	0.00557089	0.00392379	0.00373313	0.00269917	0.00050736	0.00233290	0.00169362	0.00323713	0.00085982	0.00247260	0.00074962	0.00458961	0.00079280	0.00323467	0.00110610	0.00361125
2.03000000	0.00771470	0.00178162	0.00512529	0.00243436	0.00173759	0.00977183	0.01953679	0.00448701	0.00182246	0.00591684	0.00331597	0.00250995	0.00343524	0.00067243	0.00272046	0.00165821	0.00301135	0.00077024	0.00254776	0.00073662	0.00484708	0.00071262	0.00285722	0.00104260	0.00336597
2.04000000	0.00754060	0.00115098	0.00462564	0.00382915	0.00240078	0.00970048	0.01999943	0.00547874	0.00188271	0.00662525	0.00344075	0.00176087	0.00382756	0.00090205	0.00327328	0.00150996	0.00271384	0.00078052	0.00275538	0.00093941	0.00517280	0.00041912	0.00241058	0.00076741	0.00307220
2.05000000	0.00734207	0.00073942	0.00461012	0.00526477	0.00322057	0.00985447	0.02039966	0.00657366	0.00164395	0.00728872	0.00352370	0.00135909	0.00397729	0.00109956	0.00358090	0.00143294	0.00240893	0.00081805	0.00294514	0.00123581	0.00533457	0.00012885	0.00204552	0.00057109	0.00274071
2.06000000	0.00651635	0.00041400	0.00434210	0.00711099	0.00449428	0.00992389	0.02083132	0.00724874	0.00182980	0.00750060	0.00385748	0.00095871	0.00367474	0.00124304	0.00370223	0.00124919	0.00224894	0.00110782	0.00319246	0.00153163	0.00567255	0.00074493	0.00172699	0.00015447	0.00267353
2.07000000	0.00720657	0.00090267	0.00482433	0.00787221	0.00474993	0.01049420	0.02100466	0.00803906	0.00115933	0.00710862	0.00323539	0.00119411	0.00358061	0.00122957	0.00356909	0.00133304	0.00212867	0.00108399	0.00323677	0.00183827	0.00553822	0.00089325	0.00159339	0.00013483	0.00245059
2.08000000	0.00693423	0.00156499	0.00513100	0.00890163	0.00558962	0.01080040	0.02119111	0.00840246	0.00124067	0.00646321	0.00282569	0.00118675	0.00309021	0.00148372	0.00325639	0.00138466	0.00205615	0.00118268	0.00338617	0.00204384	0.00565731	0.00128567	0.00150363	0.00033161	0.00235134
2.09000000	0.00704259	0.00221929	0.00546682	0.00922609	0.00594307	0.01159186	0.02104674	0.00887292	0.00115711	0.00584326	0.00252708	0.00126479	0.00271080	0.00128474	0.00289257	0.00154429	0.00214406	0.00117358	0.00342337	0.00230911	0.00565326	0.00162647	0.00158851	0.00053415	0.00234182
2.10000000	0.00674613	0.00297481	0.00572790	0.00974424	0.00670635	0.01188543	0.02109074	0.00867757	0.00143454	0.00502102	0.00213541	0.00136941	0.00212672	0.00177251	0.00268148	0.00167034	0.00226541	0.00117772	0.00343803	0.00242702	0.00571487	0.00189185	0.00171215	0.00074129	0.00237507
2.11000000	0.00625798	0.00325363	0.00576915	0.00961903	0.00706337	0.01285135	0.02078166	0.00897909	0.00160269	0.00472961	0.00265989	0.00129997	0.00183303	0.00141734	0.00236068	0.00188740	0.00254517	0.00115014	0.00341574	0.00262674	0.00581342	0.00214946	0.00199707	0.00079269	0.00242687
2.12000000	0.00617858	0.00389843	0.00588033	0.00962880	0.00768568	0.01354590	0.02050504	0.00877491	0.00187066	0.00414657	0.00257074	0.00134627	0.00158607	0.00142372	0.00227236	0.00203881	0.00282542	0.00114407	0.00330254	0.00268473	0.00589519	0.00233385	0.00225161	0.00087989	0.00254546
2.13000000	0.00579451	0.00449074	0.00586126	0.00979898	0.00867069	0.01401685	0.02032414	0.00837764	0.00252429	0.00371543	0.00266247	0.00147252	0.00141556	0.00160245	0.00222897	0.00222624	0.00309364	0.00108188	0.00319152	0.00270187	0.00604148	0.00247920	0.00250034	0.00086121	0.00262235
2.14000000	0.00553791	0.00471082	0.00589489	0.00930926	0.00866664	0.01541839	0.01996058	0.00838520	0.00263258	0.00360603	0.00280049	0.00129730	0.00146284	0.00143746	0.00222856	0.00231029	0.00342267	0.00115077	0.00300744	0.00253077	0.00625437	0.00242561	0.00279943	0.00087363	0.00273951
2.15000000	0.00521452	0.00486908	0.00584911	0.00912579	0.00907851	0.01648736	0.01966318	0.00810890	0.00301581	0.00364174	0.00294019	0.00119538	0.00156287	0.00141609	0.00231184	0.00244908	0.00366928	0.00119281	0.00281300	0.00234660	0.00644581	0.00239565	0.00302030	0.00085466	0.00278356
2.16000000	0.00492290	0.00487407	0.00572520	0.00895680	0.00932743	0.01760700	0.01937438	0.00780828	0.00338825	0.00377998	0.00306116	0.00116441	0.00174663	0.00140831	0.00250427	0.00256972	0.00384612	0.00126280	0.00261857	0.00210478	0.00660389	0.00230581	0.00315581	0.00081368	0.00277893
2.17000000	0.00463108	0.00474548	0.00547791	0.00876046	0.00944495	0.01877469	0.01904492	0.00762620	0.00373220	0.00394828	0.00315903	0.00133336	0.00195382	0.00142485	0.00279256	0.00269785	0.00395298	0.00135549	0.00239734	0.00181269	0.00667212	0.00221397	0.00322877	0.00079446	0.00271340
2.18000000	0.00426555	0.00467301	0.00514259	0.00861773	0.00941608	0.02000620	0.01857451	0.00751547	0.00403416	0.00397769	0.00315987	0.00164511	0.00224800	0.00147471	0.00277394	0.00280024	0.00391636	0.00139064	0.00223829	0.00148237	0.00671439	0.00211996	0.00318950	0.00074291	0.00259766
2.19000000	0.00431963	0.00416666	0.00461617	0.00881866	0.00980084	0.02091841	0.01820740	0.00745640	0.00430608	0.00448867	0.00377718	0.00211658	0.00247700	0.00134054	0.00270882	0.00292139	0.00382810	0.00142227	0.00210340	0.00125807	0.00659611	0.00209258	0.00317107	0.00075098	0.00233780
2.20000000	0.00374473	0.00445920	0.00427618	0.00861397	0.00920688	0.02221710	0.01790980	0.00753333	0.00449282	0.00402869	0.00301747	0.00243114	0.00267624	0.00157476	0.00291301	0.00291298	0.00359381	0.00149290	0.00197069	0.00099769	0.00633900	0.00185859	0.00288800	0.00060961	0.00219743
2.21000000	0.00389157	0.00399290	0.00354790	0.00937955	0.00922853	0.02290018	0.01794015	0.00764090	0.00446904	0.00453573	0.00429763	0.00289884	0.00289132	0.00207842	0.00244337	0.00303846	0.00330499	0.00148568	0.00202046	0.00102796	0.00614067	0.00198402	0.00282580	0.00072538	0.00168727
2.22000000	0.00374545	0.00386501	0.00340629	0.00934582	0.00879337	0.02399721	0.01768530	0.00794167	0.00471819	0.00457227	0.00302862	0.00317233	0.00305843	0.00151826	0.00310141	0.00296863	0.00308321	0.00147420	0.00183281	0.00128375	0.00544826	0.00161659	0.00234501	0.00052924	0.00179078
2.23000000	0.00368367	0.00396115	0.00312226	0.00988209	0.00854955	0.02457597	0.01773059	0.00821012	0.00487145	0.00455023	0.00288209	0.00331358	0.00309661	0.00176199	0.00292130	0.00291549	0.00268532	0.00140462	0.00184021	0.00167819	0.00493632	0.00145936	0.00199481	0.00035965	0.00151059
2.24000000	0.00381750	0.00396988	0.00295370	0.01061948	0.00829963	0.02487756	0.01789073	0.00854861	0.00499906	0.00468361	0.00277880	0.00343808	0.00316315	0.00191428	0.00277872	0.00283136	0.00235468	0.00136155	0.00182350	0.00207332	0.00439121	0.00127756	0.00165170	0.00024282	0.00128338
2.25000000	0.00407333	0.00398042	0.00293546	0.01138604	0.00797533	0.02498365	0.01806466	0.00885144	0.00511030	0.00486901	0.00270268	0.00369731	0.00311223	0.00200159	0.00272158	0.00275610	0.00204140	0.00129571	0.00182665	0.00248570	0.00389010	0.00109787	0.00125349	0.00020759	0.00105350
2.26000000	0.00499907	0.00394971	0.00313170	0.01261391	0.00775174	0.02473388	0.01823707	0.00904715	0.00521472	0.00520376	0.00404897	0.00378654	0.00296374	0.00274441	0.00222819	0.00265003	0.00188784	0.00129586	0.00172547	0.00282869	0.00336599	0.00107023	0.00129299	0.00058950	0.00081538
2.27000000	0.00459795	0.00400774	0.00313567	0.01322335	0.00728005	0.02423980	0.01847200	0.00910851	0.00537944	0.00520572	0.00302655	0.00470533	0.00283932	0.00247983	0.00223196	0.00249743	0.00163385	0.00125196	0.00185260	0.00327933	0.00321608	0.00073155	0.00054539	0.00035418	0.00055322
2.28000000	0.00501744	0.00387051	0.00333484	0.01399788	0.00670197	0.02356295	0.01865379	0.00908327	0.00549303	0.00565193	0.00306426	0.00555580	0.00266499	0.00272055	0.00208529	0.00234072	0.00158347	0.00127161	0.00180698	0.00362188	0.00295447	0.00057677	0.00023513	0.00049899	0.00040155
2.29000000	0.00520456	0.00377396	0.00333454	0.01475359	0.00626908	0.02253511	0.01875690	0.00878998	0.00528343	0.00608314	0.00361082	0.00671470	0.00244710	0.00315261	0.00158671	0.00207998	0.00144815	0.00129691	0.00187266	0.00406526	0.00295406	0.00028319	0.00015426	0.00065309	0.00015841
2.30000000	0.00544285	0.00358987	0.00336160	0.01504491	0.00559552	0.02148549	0.01870551	0.00842617	0.00499643	0.00675451	0.00412397	0.00802108	0.00226713	0.00346073	0.00130466	0.00191056	0.00152178	0.00135884	0.00191155	0.00438218	0.00297105	0.00022901	0.00047920	0.00082361	0.00014399
2.31000000	0.00556909	0.00314646	0.00335190	0.01508150	0.00499685	0.02018701	0.01856091	0.00787571	0.00447743	0.00741975	0.00491039	0.00938276	0.00207444	0.00373244	0.00107581	0.00171270	0.00154196	0.00143160	0.00191644	0.00469978	0.00303646	0.00041734	0.00076550	0.00103240	0.00031738
2.32000000	0.00562771	0.00293745	0.00333406	0.01446110	0.00436003	0.01884405	0.01817404	0.00725755	0.00390966	0.00803958	0.00547646	0.01065734	0.00199587	0.00403545	0.00084283	0.00152385	0.00156652	0.00150684	0.00194683	0.00499481	0.00317977	0.00066061	0.00105072	0.00120890	0.00049884
2.33000000	0.00565419	0.00290707	0.00325754	0.01314130	0.00401277	0.01771671	0.01745862	0.00668347	0.00332634	0.00896670	0.00601220	0.01132952	0.00199730	0.00410123	0.00087342	0.00148437	0.00152446	0.00171193	0.00186221	0.00517419	0.00336578	0.00122910	0.00112821	0.00145204	0.00065791
2.34000000	0.00550938	0.00242628	0.00321656	0.01180164	0.00384373	0.01546545	0.01723756	0.00561630	0.00250739	0.00897358	0.00680415	0.01232002	0.00194787	0.00429624	0.00104618	0.00133054	0.00158870	0.00171438	0.00190492	0.00545217	0.00347651	0.00122762	0.00144203	0.00162443	0.00069284
2.35000000	0.00535011	0.00238929	0.00323813	0.00963673	0.00386970	0.01366651	0.01672185	0.00477314	0.00189884	0.00907107	0.00741925	0.01277283	0.00203702	0.00440134	0.00126981	0.00139135	0.00166849	0.00180737	0.00189664	0.00552458	0.00366926	0.00146534	0.00157627	0.00176790	0.00085420
2.36000000	0.00513113	0.00250062	0.00328312	0.00718075	0.00401827	0.01213715	0.01639060	0.00373985	0.00119852	0.00927573	0.00791579	0.01275388	0.00212667	0.00439094	0.00147667	0.00138139	0.00162202	0.00191160	0.00178522	0.00568946	0.00375007	0.00178253	0.00169365	0.00197261	0.00088604
2.37000000	0.00512641	0.00269988	0.00336936	0.00481260	0.00413912	0.01130175	0.01628318	0.00281228	0.00051176	0.00933675	0.00834483	0.01259633	0.00230519	0.00435359	0.00154671	0.00157417	0.00158584	0.00200187	0.00171186	0.00572423	0.00387835	0.00203774	0.00170812	0.00217995	0.00093732
2.38000000	0.00548376	0.00301743	0.00377003	0.00421144	0.00415476	0.01198932	0.01612563	0.00213809	0.00029725	0.00964763	0.00845568	0.01210121	0.00239121	0.00430297	0.00153980	0.00182211	0.00147665	0.00217918	0.00162810	0.00566473	0.00401325	0.00233092	0.00164955	0.00245301	0.00092431
2.39000000	0.00614578	0.00330268	0.00425730	0.00623651	0.00406540	0.01349076	0.01622539	0.00185717	0.00070861	0.00987828	0.00870001	0.01158826	0.00245771	0.00429930	0.00153467	0.00207596	0.00133058	0.00231836	0.00157244	0.00560786	0.00408710	0.00259865	0.00154715	0.00274219	0.00090217
2.40000000	0.00691410	0.00355717	0.00474531	0.00892205	0.00386298	0.01547577	0.01644504	0.00203633	0.00105247	0.01006678	0.00903556	0.01107619	0.00253586	0.00423999	0.00150535	0.00225629	0.00117161	0.00240357	0.00151547	0.00555484	0.00405368	0.00281969	0.00145754	0.00300451	0.00083974
2.41000000	0.00766426	0.00385489	0.00520606	0.01121275	0.00358893	0.01741379	0.01668425	0.00241361	0.00145951	0.01011250	0.00959681	0.01063566	0.00255554	0.00425899	0.00158496	0.00240171	0.00101748	0.00249446	0.00146498	0.00547420	0.00397853	0.00298374	0.00137153	0.00322883	0.00077832
2.42000000	0.00850393	0.00414043	0.00571822	0.01265046	0.00337877	0.01889996	0.01681393	0.00275379	0.00170770	0.01020161	0.01017410	0.01016966	0.00256849	0.00419170	0.00153802	0.00254039	0.00080813	0.00247007	0.00148157	0.00537463	0.00390272	0.00311875	0.00121100	0.00343571	0.00068653
2.43000000	0.00924415	0.00444975	0.00608296	0.01318438	0.00334690	0.01961790	0.01681593	0.00263253	0.00164287	0.01031806	0.01054322	0.00979229	0.00243774	0.00416104	0.00165409	0.00270873	0.00058128	0.00247956	0.00153568	0.00519597	0.00386714	0.00317224	0.00126015	0.00392520	0.00040573
2.44000000	0.00981162	0.00472548	0.00653555	0.01259501	0.00323911	0.01940490	0.01670234	0.00284437	0.00180382	0.01015264	0.01127295	0.00938911	0.00255234	0.00404404	0.00155966	0.00273168	0.00034450	0.00240314	0.00153952	0.00508284	0.00372910	0.00339694	0.00082622	0.00382818	0.00047584
2.45000000	0.01046987	0.00507242	0.00681050	0.01067294	0.00259613	0.01885248	0.01632868	0.00319412	0.00240325	0.01022916	0.01137672	0.00893770	0.00235471	0.00397124	0.00156183	0.00302268	0.00026567	0.00247978	0.00169767	0.00496886	0.00384020	0.00361965	0.00085759	0.00432286	0.00023856
2.46000000	0.01052906	0.00572162	0.00695512	0.00905997	0.00302091	0.01685617	0.01638438	0.00249832	0.00160997	0.01005913	0.01208562	0.00839881	0.00252179	0.00373742	0.00156695	0.00296285	0.00043332	0.00242569	0.00170042	0.00494537	0.00382399	0.00371857	0.00045333	0.00422271	0.00023412
2.47000000	0.01065959	0.00620532	0.00717365	0.00680051	0.00299357	0.01509802	0.01623373	0.00208212	0.00118885	0.01003530	0.01231443	0.00805364	0.00258062	0.00364869	0.00172967	0.00302620	0.00069498	0.00237566	0.00180039	0.00474838	0.00378256	0.00384048	0.00014835	0.00425108	0.00009556
2.48000000	0.01068230	0.00672591	0.00730613	0.00453031	0.00288985	0.01352647	0.01609171	0.00223477	0.00096257	0.00996300	0.01231647	0.00758417	0.00273538	0.00350267	0.00185315	0.00310253	0.00106033	0.00234194	0.00188680	0.00461799	0.00375516	0.00400598	0.00033527	0.00428030	0.00032264
2.49000000	0.01055016	0.00724347	0.00738016	0.00262619	0.00281845	0.01239079	0.01599221	0.00272940	0.00074477	0.00985318	0.01207548	0.00695126	0.00288945	0.00338867	0.00205824	0.00320691	0.00147950	0.00228714	0.00191691	0.00447562	0.00366851	0.00421076	0.00076338	0.00431172	0.00060160
2.50000000	0.01043668	0.00763009	0.00740847	0.00144767	0.00275311	0.01187524	0.01584375	0.00335651	0.00048670	0.00957389	0.01155956	0.00616798	0.00320326	0.00324871	0.00222539	0.00328787	0.00185827	0.00216470	0.00185903	0.00440107	0.00348520	0.00439965	0.00119961	0.00429561	0.00087062
2.51000000	0.00955702	0.00830795	0.00690188	0.00173540	0.00278532	0.01123673	0.01609891	0.00305730	0.00066046	0.00918341	0.01115170	0.00556695	0.00350150	0.00317624	0.00268403	0.00325433	0.00226864	0.00186311	0.00174735	0.00426137	0.00319092	0.00435938	0.00164790	0.00425389	0.00116299
2.52000000	0.00945473	0.00823141	0.00678748	0.00232719	0.00280164	0.01112025	0.01596908	0.00329016	0.00059219	0.00862705	0.00993625	0.00457193	0.00385605	0.00314042	0.00297081	0.00325173	0.00267321	0.00160982	0.00158981	0.00415790	0.00288797	0.00433921	0.00204406	0.00410952	0.00143743
2.53000000	0.00868383	0.00831478	0.00633989	0.00281542	0.00275222	0.01068514	0.01605238	0.00321242	0.00071432	0.00782304	0.00869848	0.00346964	0.00411340	0.00294911	0.00334126	0.00314911	0.00299651	0.00131620	0.00137678	0.00411839	0.00248788	0.00411160	0.00233968	0.00396420	0.00164803
2.54000000	0.00834236	0.00769065	0.00571840	0.00326064	0.00291053	0.01041211	0.01600403	0.00294619	0.00122467	0.00666967	0.00694908	0.00253436	0.00444671	0.00305857	0.00371393	0.00294955	0.00303038	0.00099189	0.00107443	0.00421194	0.00202848	0.00378800	0.00236251	0.00363785	0.00167016
2.55000000	0.00767488	0.00684858	0.00491148	0.00372187	0.00307783	0.01026731	0.01598474	0.00262050	0.00168535	0.00518159	0.00510326	0.00175909	0.00472773	0.00311629	0.00399989	0.00259071	0.00290673	0.00069648	0.00074587	0.00437751	0.00152619	0.00321010	0.00215478	0.00317198	0.00156599
2.56000000	0.00668208	0.00579397	0.00414055	0.00406679	0.00324840	0.01025664	0.01598997	0.00242831	0.00203162	0.00342800	0.00311238	0.00149498	0.00500389	0.00302309	0.00405042	0.00219037	0.00273938	0.00056744	0.00054660	0.00456062	0.00108994	0.00250808	0.00183607	0.00253830	0.00141409
2.57000000	0.00408530	0.00542147	0.00363934	0.00384732	0.00257633	0.01011213	0.01584713	0.00354486	0.00176498	0.00200330	0.00135302	0.00138549	0.00488858	0.00196198	0.00410929	0.00210910	0.00276562	0.00075468	0.00051009	0.00461946	0.00091492	0.00176281	0.00159558	0.00217367	0.00130762
2.58000000	0.00301695	0.00445170	0.00328377	0.00410137	0.00256473	0.01028504	0.01564925	0.00369101	0.00194655	0.00169288	0.00089230	0.00217630	0.00482395	0.00190350	0.00400036	0.00212312	0.00256831	0.00094502	0.00060329	0.00485675	0.00098916	0.00109279	0.00103299	0.00167743	0.00104425
2.59000000	0.00266855	0.00396125	0.00309582	0.00445848	0.00275643	0.01038911	0.01552545	0.00340748	0.00222091	0.00265091	0.00171605	0.00308972	0.00470784	0.00197899	0.00375522	0.00232515	0.00239710	0.00110489	0.00079486	0.00518979	0.00116744	0.00059725	0.00047037	0.00128146	0.00076388
2.60000000	0.00243890	0.00389245	0.00314917	0.00471418	0.00283189	0.01061243	0.01519777	0.00336830	0.00241838	0.00379519	0.00244672	0.00399990	0.00435413	0.00226129	0.00338827	0.00260933	0.00231469	0.00120090	0.00105983	0.00544308	0.00144619	0.00026044	0.00020422	0.00095793	0.00055169
2.61000000	0.00186799	0.00404204	0.00358230	0.00482901	0.00271128	0.01037983	0.01510951	0.00336532	0.00228726	0.00498362	0.00284321	0.00465279	0.00381064	0.00232176	0.00283384	0.00286965	0.00229473	0.00129396	0.00117924	0.00563804	0.00168751	0.00022072	0.00042695	0.00088473	0.00031152
2.62000000	0.00170912	0.00424239	0.00388586	0.00508872	0.00286143	0.01028976	0.01492082	0.00315523	0.00236409	0.00582693	0.00306991	0.00526558	0.00315183	0.00246992	0.00230894	0.00307704	0.00224895	0.00129345	0.00136053	0.00580453	0.00183943	0.00026162	0.00077814	0.00077338	0.00012402
2.63000000	0.00166940	0.00436419	0.00408468	0.00529705	0.00297527	0.01029231	0.01470730	0.00301871	0.00234826	0.00646242	0.00330638	0.00576103	0.00235351	0.00263569	0.00184312	0.00309335	0.00218526	0.00127516	0.00145552	0.00594860	0.00189463	0.00023963	0.00103443	0.00082789	0.00009631
2.64000000	0.00183490	0.00434495	0.00414692	0.00549483	0.00311258	0.01040151	0.01448627	0.00288499	0.00234292	0.00689654	0.00362530	0.00620827	0.00153848	0.00276727	0.00152242	0.00304739	0.00209838	0.00122143	0.00151293	0.00601618	0.00179682	0.00027880	0.00120520	0.00093852	0.00016746
2.65000000	0.00228264	0.00385794	0.00397394	0.00571164	0.00330447	0.01083341	0.01410224	0.00296610	0.00221714	0.00736074	0.00446022	0.00650342	0.00089121	0.00307039	0.00171267	0.00295267	0.00202511	0.00117516	0.00157078	0.00598872	0.00151782	0.00050655	0.00128439	0.00101039	0.00022700
2.66000000	0.00250759	0.00415989	0.00404562	0.00586203	0.00348530	0.01084379	0.01415313	0.00270678	0.00213566	0.00728079	0.00473297	0.00712977	0.00071130	0.00311890	0.00129146	0.00283008	0.00187810	0.00105935	0.00149221	0.00592504	0.00116278	0.00062119	0.00130453	0.00120824	0.00027869
2.67000000	0.00279417	0.00379445	0.00390756	0.00601166	0.00369519	0.01128580	0.01397497	0.00265776	0.00199105	0.00742273	0.00563954	0.00766744	0.00094303	0.00334911	0.00155672	0.00265982	0.00177800	0.00100680	0.00141813	0.00580852	0.00074245	0.00091564	0.00133874	0.00123606	0.00025574
2.68000000	0.00291507	0.00367595	0.00384392	0.00614481	0.00391171	0.01163822	0.01393808	0.00254669	0.00192752	0.00741321	0.00633414	0.00849070	0.00125808	0.00353521	0.00159599	0.00249900	0.00167593	0.00092649	0.00132759	0.00562814	0.00060683	0.00117168	0.00127982	0.00122505	0.00030344
2.69000000	0.00289124	0.00359691	0.00370034	0.00624676	0.00411156	0.01203509	0.01396111	0.00246323	0.00183405	0.00740452	0.00690504	0.00955480	0.00148400	0.00374023	0.00153609	0.00228333	0.00158328	0.00086400	0.00126961	0.00542215	0.00094482	0.00127275	0.00121724	0.00121382	0.00023497
2.70000000	0.00279202	0.00344731	0.00349822	0.00631346	0.00425603	0.01254993	0.01397658	0.00242496	0.00175765	0.00740604	0.00730803	0.01089903	0.00161199	0.00406542	0.00144906	0.00212709	0.00158661	0.00079620	0.00130113	0.00509130	0.00148253	0.00135088	0.00109834	0.00110445	0.00022108
2.71000000	0.00288281	0.00305419	0.00324133	0.00638026	0.00428668	0.01315046	0.01393919	0.00251594	0.00177152	0.00758485	0.00753498	0.01246491	0.00164005	0.00438290	0.00165320	0.00181729	0.00156581	0.00077445	0.00138943	0.00476015	0.00189516	0.00097587	0.00099137	0.00093744	0.00019608
2.72000000	0.00325907	0.00234911	0.00282293	0.00659438	0.00425488	0.01368017	0.01394659	0.00267067	0.00180339	0.00788298	0.00759346	0.01417446	0.00158995	0.00479970	0.00196556	0.00158134	0.00161805	0.00074687	0.00151435	0.00437541	0.00231578	0.00043743	0.00100668	0.00075475	0.00022725
2.73000000	0.00343770	0.00197342	0.00221877	0.00688145	0.00436294	0.01419870	0.01393633	0.00276590	0.00177501	0.00845350	0.00754934	0.01602299	0.00157561	0.00519117	0.00227848	0.00140536	0.00164883	0.00066055	0.00172147	0.00394462	0.00271483	0.00015939	0.00093545	0.00053165	0.00016013
2.74000000	0.00341351	0.00186045	0.00149925	0.00728944	0.00479157	0.01464349	0.01395034	0.00275362	0.00163460	0.00932027	0.00742266	0.01790978	0.00171731	0.00551611	0.00261123	0.00133766	0.00164442	0.00056895	0.00198465	0.00344321	0.00312584	0.00037315	0.00078688	0.00034082	0.00006174
2.75000000	0.00400312	0.00142107	0.00094481	0.00757474	0.00469179	0.01535947	0.01391787	0.00295350	0.00171674	0.01001502	0.00717588	0.01970632	0.00171206	0.00583354	0.00304921	0.00122472	0.00161379	0.00052933	0.00215999	0.00306571	0.00335564	0.00052889	0.00071350	0.00012424	0.00006671
2.76000000	0.00415470	0.00166932	0.00084747	0.00814785	0.00534247	0.01582858	0.01395053	0.00300297	0.00130251	0.01127693	0.00698813	0.02104427	0.00200249	0.00615501	0.00339347	0.00128213	0.00156491	0.00040988	0.00242293	0.00267502	0.00372424	0.00076224	0.00053145	0.00023872	0.00027399
2.77000000	0.00492500	0.00142543	0.00097441	0.00868209	0.00491844	0.01664572	0.01389361	0.00345501	0.00154155	0.01185542	0.00679366	0.02210398	0.00209457	0.00626298	0.00373254	0.00152168	0.00138563	0.00056169	0.00250636	0.00236546	0.00386941	0.00111407	0.00040240	0.00027032	0.00032866
2.78000000	0.00509427	0.00183120	0.00158992	0.00938656	0.00535353	0.01731109	0.01383407	0.00360671	0.00147918	0.01281096	0.00658181	0.02252366	0.00238495	0.00652049	0.00424147	0.00166355	0.00127192	0.00069271	0.00271627	0.00221990	0.00415894	0.00134716	0.00019511	0.00034072	0.00050590
2.79000000	0.00563579	0.00207500	0.00188120	0.00987804	0.00534349	0.01816818	0.01396961	0.00378251	0.00155118	0.01311023	0.00638200	0.02254370	0.00260295	0.00654356	0.00440508	0.00197542	0.00114637	0.00089008	0.00279418	0.00222664	0.00432207	0.00169350	0.00030070	0.00042641	0.00061756
2.80000000	0.00618010	0.00301556	0.00224518	0.01093009	0.00673030	0.01846578	0.01404704	0.00350871	0.00109427	0.01413250	0.00633250	0.02169984	0.00301223	0.00645588	0.00428963	0.00211076	0.00112945	0.00122696	0.00302136	0.00224479	0.00462818	0.00170941	0.00052962	0.00090760	0.00095958
2.81000000	0.00595250	0.00298678	0.00261039	0.01119857	0.00580363	0.01965707	0.01399091	0.00417188	0.00144722	0.01375151	0.00606405	0.02077602	0.00312558	0.00637567	0.00483158	0.00232054	0.00099243	0.00136223	0.00303831	0.00254199	0.00482366	0.00217040	0.00085595	0.00047117	0.00093367
2.82000000	0.00642779	0.00286208	0.00272220	0.01165838	0.00583416	0.02041390	0.01401395	0.00420667	0.00151404	0.01337676	0.00599771	0.01937362	0.00321988	0.00603630	0.00458989	0.00254892	0.00085483	0.00163359	0.00299111	0.00274893	0.00486368	0.00232647	0.00098547	0.00068877	0.00098842
2.83000000	0.00646347	0.00288325	0.00276727	0.01220729	0.00612998	0.02105798	0.01364693	0.00435905	0.00126096	0.01303272	0.00591429	0.01763851	0.00329677	0.00560178	0.00433325	0.00268468	0.00081761	0.00184816	0.00301195	0.00297038	0.00499792	0.00245228	0.00115056	0.00081665	0.00116257
2.84000000	0.00657026	0.00328579	0.00286096	0.01256756	0.00633764	0.02147030	0.01325489	0.00443158	0.00127212	0.01246658	0.00569346	0.01583286	0.00319715	0.00520941	0.00418150	0.00274142	0.00092333	0.00194234	0.00306104	0.00314863	0.00517282	0.00257222	0.00143774	0.00083743	0.00122938
2.85000000	0.00676576	0.00391410	0.00293687	0.01314631	0.00691747	0.02141146	0.01278279	0.00431461	0.00121228	0.01182744	0.00550062	0.01390929	0.00302783	0.00471057	0.00382687	0.00275133	0.00103218	0.00205388	0.00310597	0.00323553	0.00532857	0.00262355	0.00172361	0.00087890	0.00135498
2.86000000	0.00653304	0.00349492	0.00301697	0.01298067	0.00671030	0.02205592	0.01201249	0.00458665	0.00130806	0.01064513	0.00542747	0.01185770	0.00274522	0.00394423	0.00333755	0.00288829	0.00103180	0.00217897	0.00306344	0.00339887	0.00543721	0.00276651	0.00174900	0.00098329	0.00144307
2.87000000	0.00643861	0.00354326	0.00311108	0.01307063	0.00699047	0.02218350	0.01114719	0.00461740	0.00134713	0.00934777	0.00538695	0.00975037	0.00246718	0.00321331	0.00272522	0.00290375	0.00113620	0.00225550	0.00310770	0.00340306	0.00559939	0.00279981	0.00185667	0.00101179	0.00156553
2.88000000	0.00652059	0.00386755	0.00328672	0.01302918	0.00720189	0.02210615	0.01038564	0.00458815	0.00148891	0.00775550	0.00521294	0.00753021	0.00214713	0.00249792	0.00223194	0.00297538	0.00126439	0.00229122	0.00313707	0.00337825	0.00575363	0.00290167	0.00202067	0.00107378	0.00162243
2.89000000	0.00651446	0.00415637	0.00348352	0.01292885	0.00739462	0.02202086	0.00959449	0.00456568	0.00162309	0.00604994	0.00503853	0.00507606	0.00193930	0.00181525	0.00162434	0.00305710	0.00136961	0.00233888	0.00318318	0.00332751	0.00590470	0.00300296	0.00210936	0.00113465	0.00171283
2.90000000	0.00645025	0.00464601	0.00376305	0.01280373	0.00761310	0.02186405	0.00902935	0.00450365	0.00174139	0.00452050	0.00473078	0.00243764	0.00182888	0.00127131	0.00098043	0.00311251	0.00145640	0.00239159	0.00324374	0.00329260	0.00608224	0.00311171	0.00218854	0.00117932	0.00178463
2.91000000	0.00636878	0.00524556	0.00415148	0.01263057	0.00782461	0.02173213	0.00876078	0.00438045	0.00179564	0.00419281	0.00438206	0.00082581	0.00188529	0.00119078	0.00051850	0.00316567	0.00154901	0.00244020	0.00330138	0.00318882	0.00621037	0.00321919	0.00225919	0.00123539	0.00185672
2.92000000	0.00614339	0.00589907	0.00456852	0.01251264	0.00811372	0.02161556	0.00885331	0.00413826	0.00175349	0.00560836	0.00398834	0.00367522	0.00209574	0.00176461	0.00091247	0.00321608	0.00163044	0.00252987	0.00335974	0.00309800	0.00634309	0.00332336	0.00232388	0.00124760	0.00196273
2.93000000	0.00581148	0.00680017	0.00493111	0.01222041	0.00859956	0.02162999	0.00927816	0.00387272	0.00179237	0.00764286	0.00326808	0.00700257	0.00236019	0.00300886	0.00168402	0.00329287	0.00167717	0.00256654	0.00339375	0.00307449	0.00648858	0.00345838	0.00230254	0.00128923	0.00206431
2.94000000	0.00553380	0.00754077	0.00549844	0.01220866	0.00893604	0.02152649	0.00984839	0.00354058	0.00158831	0.01032578	0.00285843	0.00978908	0.00267169	0.00398142	0.00248510	0.00325391	0.00178451	0.00266863	0.00346689	0.00289966	0.00658508	0.00347994	0.00235640	0.00121240	0.00218448
2.95000000	0.00528641	0.00830120	0.00597942	0.01210050	0.00934984	0.02143635	0.01061337	0.00324998	0.00141439	0.01240196	0.00228554	0.01235663	0.00297961	0.00503414	0.00318785	0.00322812	0.00186819	0.00275130	0.00350174	0.00276702	0.00667195	0.00348378	0.00240782	0.00118396	0.00229595
2.96000000	0.00519331	0.00892104	0.00651908	0.01204665	0.00968770	0.02123630	0.01141324	0.00309905	0.00132292	0.01396516	0.00191887	0.01414344	0.00323371	0.00579298	0.00372431	0.00313361	0.00199761	0.00279413	0.00349168	0.00255174	0.00669329	0.00348065	0.00251458	0.00113109	0.00248255
2.97000000	0.00497420	0.00989291	0.00717866	0.01199228	0.00954562	0.02105245	0.01213891	0.00288831	0.00123772	0.01512031	0.00175744	0.01468769	0.00334517	0.00563897	0.00418946	0.00301159	0.00207101	0.00294987	0.00351675	0.00244909	0.00675818	0.00350637	0.00241312	0.00080994	0.00290439
2.98000000	0.00498552	0.00961187	0.00718258	0.01188833	0.01023779	0.02081804	0.01266816	0.00279395	0.00096504	0.01465781	0.00167488	0.01490498	0.00324978	0.00621833	0.00413145	0.00295274	0.00223271	0.00298418	0.00365444	0.00235340	0.00689477	0.00314024	0.00266972	0.00081952	0.00281770
2.99000000	0.00512878	0.01005714	0.00744082	0.01197124	0.01013119	0.02026988	0.01317507	0.00253813	0.00097444	0.01365632	0.00161455	0.01395635	0.00302471	0.00589205	0.00395813	0.00267822	0.00241601	0.00302754	0.00375226	0.00245071	0.00705979	0.00301774	0.00265697	0.00059459	0.00322991
3.00000000	0.00518646	0.00992763	0.00753392	0.01170066	0.01032517	0.01992116	0.01343334	0.00266810	0.00079626	0.01200609	0.00109356	0.01248398	0.00295995	0.00526513	0.00391899	0.00268553	0.00254112	0.00296480	0.00379995	0.00275029	0.00712095	0.00273229	0.00295374	0.00064047	0.00321772
3.01000000	0.00552959	0.00907090	0.00741329	0.01119198	0.01061798	0.01956288	0.01377208	0.00272580	0.00086655	0.01031514	0.00101674	0.01059385	0.00261702	0.00446662	0.00366348	0.00262107	0.00257355	0.00290365	0.00375147	0.00329270	0.00707840	0.00257216	0.00300177	0.00051566	0.00327819
3.02000000	0.00595425	0.00889376	0.00757298	0.01093000	0.01033980	0.01880994	0.01400499	0.00265074	0.00090299	0.00821899	0.00083609	0.00873273	0.00226288	0.00368257	0.00345218	0.00242937	0.00270324	0.00281369	0.00377591	0.00402356	0.00704989	0.00226130	0.00309830	0.00028938	0.00341910
3.03000000	0.00652794	0.00846178	0.00771661	0.01053895	0.01000813	0.01800786	0.01422655	0.00250973	0.00096728	0.00637314	0.00118378	0.00706840	0.00202751	0.00277199	0.00313698	0.00221578	0.00280313	0.00268723	0.00373762	0.00497133	0.00689471	0.00189609	0.00314890	0.00014536	0.00352547
3.04000000	0.00717567	0.00786794	0.00789842	0.00990413	0.00942513	0.01701260	0.01459793	0.00224411	0.00113636	0.00474490	0.00185851	0.00588658	0.00194268	0.00206994	0.00280215	0.00200412	0.00290139	0.00258126	0.00360754	0.00608240	0.00653802	0.00150770	0.00323756	0.00026562	0.00361277
3.05000000	0.00778082	0.00718876	0.00802462	0.00908320	0.00875839	0.01599366	0.01500766	0.00198937	0.00124798	0.00337438	0.00271724	0.00519939	0.00198160	0.00162831	0.00245470	0.00176899	0.00302960	0.00233469	0.00349551	0.00733672	0.00612870	0.00108594	0.00316850	0.00049132	0.00364527
3.06000000	0.00834122	0.00649566	0.00804587	0.00806544	0.00785769	0.01478004	0.01555193	0.00144357	0.00138006	0.00216487	0.00335280	0.00511287	0.00193830	0.00168154	0.00219402	0.00157183	0.00304353	0.00212137	0.00321887	0.00862357	0.00547925	0.00076955	0.00307400	0.00076857	0.00361144
3.07000000	0.00875066	0.00566136	0.00785339	0.00687941	0.00686013	0.01338208	0.01624789	0.00087523	0.00151991	0.00143101	0.00367833	0.00532673	0.00161122	0.00182222	0.00183727	0.00142825	0.00302951	0.00184280	0.00290640	0.00969248	0.00472737	0.00053539	0.00284604	0.00106280	0.00352220
3.08000000	0.00922343	0.00434328	0.00764446	0.00542414	0.00573257	0.01207409	0.01678083	0.00065455	0.00155125	0.00249334	0.00253784	0.00485970	0.00069635	0.00187576	0.00123077	0.00143701	0.00301767	0.00166141	0.00267478	0.01014494	0.00389692	0.00068815	0.00256969	0.00120206	0.00332537
3.09000000	0.00890880	0.00412699	0.00677169	0.00345569	0.00402328	0.01053064	0.01758793	0.00158708	0.00215807	0.00281823	0.00302582	0.00489818	0.00038606	0.00174163	0.00171448	0.00140952	0.00282152	0.00140570	0.00228022	0.01025562	0.00304826	0.00058648	0.00224056	0.00130274	0.00307453
3.10000000	0.00849077	0.00376832	0.00569617	0.00154119	0.00267716	0.00874823	0.01850028	0.00267448	0.00218854	0.00351929	0.00331698	0.00467637	0.00077935	0.00150537	0.00186952	0.00133642	0.00262541	0.00118825	0.00195206	0.00974291	0.00226455	0.00066553	0.00169112	0.00116380	0.00270790
3.11000000	0.00835922	0.00294244	0.00484323	0.00064175	0.00167786	0.00755092	0.01888975	0.00452354	0.00199052	0.00379709	0.00229840	0.00342104	0.00149715	0.00127664	0.00165412	0.00123900	0.00232442	0.00129912	0.00164696	0.00861749	0.00157613	0.00057684	0.00123206	0.00112944	0.00238958
3.12000000	0.00773477	0.00254737	0.00358768	0.00281412	0.00160281	0.00644933	0.01954027	0.00587763	0.00216484	0.00440230	0.00268898	0.00267897	0.00187206	0.00114587	0.00210791	0.00130805	0.00201589	0.00138943	0.00138965	0.00732422	0.00098296	0.00064699	0.00073294	0.00096585	0.00205216
3.13000000	0.00750964	0.00241680	0.00299763	0.00476526	0.00225322	0.00649940	0.01991524	0.00722831	0.00196466	0.00474778	0.00252865	0.00210591	0.00219521	0.00098565	0.00238155	0.00131285	0.00176168	0.00158564	0.00118811	0.00602783	0.00060420	0.00081840	0.00052510	0.00073618	0.00175214
3.14000000	0.00716900	0.00211991	0.00266415	0.00677116	0.00323466	0.00706195	0.02034764	0.00829518	0.00189189	0.00491541	0.00251807	0.00159201	0.00218933	0.00104903	0.00243674	0.00146283	0.00157458	0.00177073	0.00114608	0.00498545	0.00053848	0.00115240	0.00050966	0.00050820	0.00151161
3.15000000	0.00685599	0.00195890	0.00278984	0.00848258	0.00409491	0.00813820	0.02069174	0.00911037	0.00178629	0.00479234	0.00238409	0.00122869	0.00201307	0.00118125	0.00240735	0.00168315	0.00150661	0.00187735	0.00122666	0.00429577	0.00070042	0.00153909	0.00061203	0.00026741	0.00137816
3.16000000	0.00654806	0.00192915	0.00302940	0.00995922	0.00499800	0.00941397	0.02093503	0.00959614	0.00181300	0.00427997	0.00226823	0.00092092	0.00183433	0.00143216	0.00227514	0.00188141	0.00137749	0.00202725	0.00135166	0.00394524	0.00086238	0.00185563	0.00063721	0.00023839	0.00128007
3.17000000	0.00651253	0.00214243	0.00336332	0.01086098	0.00557968	0.01105250	0.02085779	0.00995018	0.00175275	0.00383738	0.00195329	0.00092032	0.00161889	0.00139530	0.00214784	0.00207555	0.00134728	0.00206424	0.00144624	0.00402817	0.00098746	0.00219035	0.00053941	0.00022951	0.00135800
3.18000000	0.00443959	0.00303262	0.00363274	0.01224544	0.00707814	0.01250696	0.02050932	0.01011854	0.00378173	0.00336120	0.00237557	0.00076267	0.00119707	0.00160923	0.00230852	0.00244619	0.00112874	0.00221503	0.00149094	0.00430440	0.00120268	0.00282271	0.00065108	0.00064739	0.00139265
3.19000000	0.00597667	0.00318114	0.00366910	0.01191785	0.00700137	0.01454216	0.02045913	0.00989243	0.00240989	0.00283600	0.00176523	0.00087267	0.00113752	0.00145147	0.00191442	0.00240757	0.00144186	0.00207820	0.00163668	0.00491827	0.00139315	0.00267140	0.00058130	0.00052105	0.00163256
3.20000000	0.00535482	0.00364347	0.00367836	0.01195085	0.00773835	0.01659168	0.02013866	0.00989403	0.00288624	0.00260443	0.00204732	0.00092342	0.00091465	0.00142224	0.00183817	0.00254708	0.00172346	0.00202935	0.00171839	0.00563571	0.00179090	0.00284401	0.00087333	0.00061654	0.00187564
3.21000000	0.00473635	0.00422230	0.00387953	0.01238071	0.00893064	0.01824396	0.01997092	0.00939034	0.00363850	0.00243000	0.00219596	0.00100346	0.00075955	0.00157386	0.00182358	0.00264845	0.00203797	0.00198987	0.00177991	0.00663171	0.00222315	0.00297299	0.00118965	0.00066188	0.00206018
3.22000000	0.00433732	0.00482655	0.00415066	0.01254022	0.00993915	0.02002963	0.01980356	0.00913086	0.00429174	0.00246947	0.00233575	0.00118259	0.00071688	0.00147054	0.00185956	0.00272298	0.00236385	0.00194931	0.00180816	0.00793121	0.00266228	0.00304099	0.00150036	0.00078254	0.00218484
3.23000000	0.00385974	0.00525996	0.00432561	0.01260473	0.01068227	0.02173496	0.01976060	0.00904263	0.00497062	0.00284065	0.00270710	0.00144593	0.00072410	0.00110524	0.00199223	0.00305779	0.00271102	0.00180099	0.00189531	0.00962346	0.00306152	0.00322910	0.00183827	0.00103809	0.00225865
