TVC12_2_JMP_06_shoulder_elbow_joint_personalization_task_1_finalErrors.sto
version=1
nRows=271
nColumns=28
inDegrees=no
endheader
time	R_Asis	L_Asis	R_Psis	L_Psis	Sacral	R_Thigh_Lateral	R_Knee_Lateral	R_Shank_Lateral	R_Ankle_Lateral	R_Heel	R_Toe	L_Thigh_Lateral	L_Knee_Lateral	L_Shank_Lateral	L_Ankle_Lateral	L_Heel	L_Toe	R_Shoulder	L_Shoulder	C7	J_Notch	Thoracic	Sternum	R_Elbow	L_Elbow	R_Wrist	L_Wrist
0.40000000	0.00505311	0.01073679	0.00186355	0.00588453	0.00362973	0.01147271	0.01346164	0.01511459	0.00232592	0.00330886	0.00161278	0.02160123	0.00779495	0.01686300	0.00374847	0.00428008	0.00474451	0.00203882	0.00335294	0.00368707	0.00172224	0.00340417	0.00354214	0.00192205	0.00309271	0.00341807	0.00104453
0.41000000	0.00502763	0.01069232	0.00187563	0.00569218	0.00362003	0.01150655	0.01416405	0.01509333	0.00232129	0.00306943	0.00216058	0.02143485	0.00716012	0.01716900	0.00398781	0.00452664	0.00513752	0.00190473	0.00335295	0.00337258	0.00171340	0.00307431	0.00368182	0.00182948	0.00320677	0.00332662	0.00108954
0.42000000	0.00488578	0.01083048	0.00180568	0.00532036	0.00344741	0.01160781	0.01471001	0.01495671	0.00227748	0.00297016	0.00202635	0.02059468	0.00705374	0.01688655	0.00433256	0.00474056	0.00525398	0.00187725	0.00347303	0.00303028	0.00160139	0.00270650	0.00357604	0.00168819	0.00338936	0.00323185	0.00121919
0.43000000	0.00473785	0.01037370	0.00174785	0.00487243	0.00322724	0.01140105	0.01507386	0.01498690	0.00212658	0.00283625	0.00234696	0.01930699	0.00649055	0.01659267	0.00443793	0.00499726	0.00529768	0.00177915	0.00343649	0.00267533	0.00161092	0.00232661	0.00372165	0.00178967	0.00347393	0.00295330	0.00135487
0.44000000	0.00453274	0.01070097	0.00168180	0.00443174	0.00303120	0.01131673	0.01507625	0.01486825	0.00196878	0.00298156	0.00175812	0.01731926	0.00692181	0.01531808	0.00455455	0.00533009	0.00527468	0.00187848	0.00370102	0.00241445	0.00140456	0.00210275	0.00343094	0.00173292	0.00377599	0.00272043	0.00151391
0.45000000	0.00437020	0.01018052	0.00150743	0.00386106	0.00268087	0.01099993	0.01525840	0.01467062	0.00167625	0.00311092	0.00187856	0.01492033	0.00653162	0.01447267	0.00440615	0.00544684	0.00526102	0.00181605	0.00380320	0.00203820	0.00126283	0.00187600	0.00338848	0.00175179	0.00396167	0.00254363	0.00179015
0.46000000	0.00424422	0.01062695	0.00173659	0.00384885	0.00283612	0.01077967	0.01485321	0.01440143	0.00130120	0.00323588	0.00131584	0.01377050	0.00585872	0.01220906	0.00410807	0.00450619	0.00472090	0.00201760	0.00391476	0.00198278	0.00113516	0.00173364	0.00330858	0.00175035	0.00424391	0.00219871	0.00189840
0.47000000	0.00416059	0.01000180	0.00162917	0.00339516	0.00253796	0.01056126	0.01506726	0.01391009	0.00092820	0.00332569	0.00119101	0.01072026	0.00575490	0.01091393	0.00372035	0.00470660	0.00457945	0.00213418	0.00388211	0.00172174	0.00106328	0.00165025	0.00328432	0.00198994	0.00427753	0.00185022	0.00205371
0.48000000	0.00421409	0.00998126	0.00180825	0.00357077	0.00274891	0.01041266	0.01474007	0.01326445	0.00058671	0.00310162	0.00112452	0.01000665	0.00471358	0.00842019	0.00325356	0.00325950	0.00338017	0.00248570	0.00404430	0.00173237	0.00083138	0.00158318	0.00305928	0.00209541	0.00460002	0.00155670	0.00225546
0.49000000	0.00435897	0.00952138	0.00184061	0.00349323	0.00269855	0.01028448	0.01476872	0.01241338	0.00035410	0.00288282	0.00123062	0.00833331	0.00425135	0.00664853	0.00286806	0.00266327	0.00261057	0.00270597	0.00405575	0.00161280	0.00061963	0.00152776	0.00282718	0.00227015	0.00469254	0.00126036	0.00240151
0.50000000	0.00458588	0.00879514	0.00175219	0.00322813	0.00244109	0.01021392	0.01474742	0.01168612	0.00068656	0.00283179	0.00117429	0.00643171	0.00448959	0.00529155	0.00262453	0.00254164	0.00202410	0.00293980	0.00387234	0.00143456	0.00052082	0.00152110	0.00269865	0.00241662	0.00463692	0.00100927	0.00243418
0.51000000	0.00469880	0.00868055	0.00183031	0.00342881	0.00253478	0.01024344	0.01429316	0.01056661	0.00114660	0.00257255	0.00114180	0.00600087	0.00358699	0.00385229	0.00255745	0.00174230	0.00127557	0.00320656	0.00371924	0.00143450	0.00034061	0.00140853	0.00247388	0.00261842	0.00452817	0.00066523	0.00255844
0.52000000	0.00468347	0.00860997	0.00172984	0.00321731	0.00228370	0.01026441	0.01361296	0.00983524	0.00184688	0.00305224	0.00097757	0.00482172	0.00367971	0.00308326	0.00257919	0.00145448	0.00131968	0.00333195	0.00346406	0.00129711	0.00013403	0.00146499	0.00204324	0.00269409	0.00428462	0.00039234	0.00247791
0.53000000	0.00488254	0.00799840	0.00171056	0.00310797	0.00204098	0.01052000	0.01325457	0.00879612	0.00246724	0.00308328	0.00104240	0.00413750	0.00360559	0.00278627	0.00235322	0.00180835	0.00083220	0.00341521	0.00302289	0.00115114	0.00009440	0.00141370	0.00187251	0.00262142	0.00390266	0.00031410	0.00238211
0.54000000	0.00499803	0.00839179	0.00180452	0.00326964	0.00221718	0.01091460	0.01183289	0.00700219	0.00302611	0.00247617	0.00086192	0.00385135	0.00341643	0.00254817	0.00226848	0.00180955	0.00065158	0.00357926	0.00280703	0.00131752	0.00012905	0.00136491	0.00159338	0.00268248	0.00367320	0.00016043	0.00239339
0.55000000	0.00487300	0.00828038	0.00172829	0.00313027	0.00197388	0.01111271	0.01078224	0.00613583	0.00366378	0.00302860	0.00085043	0.00396409	0.00346034	0.00248605	0.00211571	0.00195247	0.00062302	0.00350533	0.00230034	0.00122468	0.00022038	0.00133883	0.00131532	0.00252780	0.00312785	0.00028525	0.00221765
0.56000000	0.00477151	0.00788742	0.00168660	0.00306044	0.00168833	0.01133357	0.00972375	0.00507817	0.00415990	0.00316255	0.00097186	0.00403659	0.00338917	0.00278440	0.00183862	0.00211915	0.00080901	0.00343694	0.00174958	0.00117551	0.00036877	0.00132541	0.00095757	0.00232879	0.00257120	0.00010545	0.00194200
0.57000000	0.00470543	0.00779568	0.00162141	0.00309542	0.00168713	0.01140773	0.00813253	0.00359901	0.00456468	0.00307775	0.00081332	0.00362238	0.00353315	0.00270432	0.00167601	0.00207769	0.00094556	0.00332966	0.00142142	0.00133005	0.00048364	0.00133532	0.00073139	0.00214065	0.00212497	0.00029291	0.00189574
0.58000000	0.00439338	0.00770198	0.00157485	0.00295659	0.00143254	0.01138890	0.00617285	0.00283590	0.00506511	0.00336556	0.00223092	0.00303115	0.00368864	0.00202794	0.00153528	0.00242678	0.00069651	0.00318039	0.00091046	0.00136596	0.00065875	0.00139844	0.00029617	0.00187869	0.00162892	0.00044927	0.00146381
0.59000000	0.00445619	0.00674361	0.00164228	0.00309328	0.00148698	0.01105077	0.00486376	0.00182807	0.00542041	0.00341666	0.00091224	0.00273858	0.00347383	0.00132855	0.00153188	0.00179648	0.00081546	0.00302737	0.00048388	0.00154751	0.00063248	0.00138200	0.00035397	0.00165263	0.00104149	0.00027784	0.00131377
0.60000000	0.00430962	0.00601745	0.00172988	0.00299149	0.00135636	0.01077445	0.00312080	0.00161615	0.00576978	0.00383217	0.00109400	0.00188016	0.00352976	0.00060920	0.00141643	0.00176679	0.00087815	0.00278281	0.00031735	0.00159997	0.00075394	0.00146748	0.00032354	0.00131953	0.00062041	0.00023095	0.00101455
0.61000000	0.00426214	0.00542927	0.00187299	0.00307766	0.00135536	0.01000036	0.00163630	0.00236008	0.00595690	0.00375701	0.00097395	0.00203244	0.00310012	0.00079577	0.00147420	0.00154801	0.00059327	0.00264232	0.00073212	0.00171841	0.00081311	0.00152057	0.00054382	0.00106719	0.00038498	0.00032154	0.00070281
0.62000000	0.00413391	0.00485708	0.00201999	0.00293836	0.00135971	0.00944493	0.00103079	0.00297612	0.00615803	0.00401329	0.00100691	0.00213681	0.00309864	0.00152508	0.00135559	0.00159862	0.00068570	0.00240944	0.00116659	0.00178188	0.00090481	0.00160561	0.00078745	0.00073232	0.00074085	0.00030655	0.00055695
0.63000000	0.00407210	0.00467758	0.00219316	0.00278355	0.00132890	0.00859989	0.00220173	0.00388055	0.00633439	0.00403574	0.00097477	0.00215206	0.00289296	0.00168229	0.00128144	0.00159173	0.00065649	0.00221919	0.00170257	0.00177849	0.00094061	0.00165217	0.00105500	0.00045407	0.00129360	0.00022306	0.00010720
0.64000000	0.00368918	0.00456908	0.00215358	0.00248171	0.00134728	0.00770198	0.00415116	0.00476069	0.00642025	0.00416278	0.00192543	0.00179424	0.00293648	0.00194080	0.00123335	0.00175221	0.00054570	0.00195782	0.00209630	0.00178223	0.00095390	0.00166037	0.00124448	0.00036074	0.00172163	0.00032622	0.00042557
0.65000000	0.00400148	0.00451679	0.00218670	0.00233501	0.00133747	0.00735670	0.00489833	0.00569624	0.00653945	0.00409453	0.00077599	0.00194570	0.00300705	0.00138610	0.00115551	0.00175557	0.00099883	0.00199821	0.00251931	0.00186100	0.00105943	0.00185940	0.00157900	0.00030113	0.00211098	0.00023003	0.00052305
0.66000000	0.00386422	0.00471853	0.00197178	0.00208158	0.00137120	0.00684353	0.00624607	0.00682411	0.00647545	0.00415199	0.00144355	0.00366543	0.00330053	0.00135602	0.00130864	0.00182695	0.00137847	0.00195650	0.00271731	0.00200431	0.00109942	0.00198023	0.00165876	0.00054577	0.00229446	0.00012097	0.00074541
0.67000000	0.00421533	0.00497870	0.00187989	0.00185687	0.00133463	0.00685528	0.00654308	0.00795378	0.00660059	0.00427115	0.00104090	0.00522666	0.00374556	0.00161282	0.00150260	0.00211744	0.00202285	0.00197844	0.00302394	0.00198272	0.00120816	0.00214378	0.00207862	0.00046000	0.00257667	0.00036217	0.00086371
0.68000000	0.00371074	0.00511135	0.00181349	0.00135063	0.00147654	0.00662416	0.00741854	0.00920907	0.00666376	0.00421651	0.00089735	0.00477458	0.00431868	0.00278900	0.00207639	0.00312976	0.00234551	0.00177999	0.00313727	0.00187586	0.00115740	0.00210326	0.00215388	0.00047944	0.00260995	0.00021039	0.00117296
0.69000000	0.00390001	0.00533927	0.00186789	0.00124371	0.00155359	0.00711105	0.00781622	0.01011407	0.00669793	0.00444665	0.00157742	0.00690626	0.00458680	0.00357644	0.00236947	0.00312362	0.00269259	0.00178673	0.00336780	0.00180408	0.00114310	0.00220772	0.00232902	0.00051568	0.00278641	0.00029228	0.00137461
0.70000000	0.00414933	0.00588483	0.00200671	0.00113502	0.00165695	0.00794169	0.00777257	0.01089400	0.00691176	0.00480452	0.00156889	0.00765102	0.00480409	0.00423678	0.00261778	0.00349790	0.00299397	0.00176659	0.00348784	0.00177687	0.00114014	0.00229729	0.00241294	0.00057741	0.00281835	0.00014782	0.00152414
0.71000000	0.00407399	0.00573846	0.00216745	0.00133486	0.00187595	0.00874497	0.00810270	0.01163001	0.00690438	0.00513517	0.00267975	0.00836544	0.00504146	0.00439754	0.00285628	0.00331972	0.00290934	0.00179595	0.00353994	0.00175024	0.00118094	0.00243843	0.00257737	0.00062022	0.00281347	0.00026526	0.00161845
0.72000000	0.00421232	0.00594128	0.00235953	0.00151010	0.00205885	0.00930128	0.00778442	0.01247079	0.00698313	0.00556640	0.00239745	0.00758661	0.00501883	0.00450600	0.00289524	0.00370291	0.00274833	0.00173027	0.00364302	0.00159973	0.00110569	0.00250848	0.00265520	0.00048149	0.00279013	0.00020793	0.00187576
0.73000000	0.00406264	0.00549798	0.00257498	0.00189803	0.00233897	0.01009719	0.00794445	0.01278588	0.00696558	0.00593355	0.00297915	0.00699429	0.00495864	0.00433527	0.00288319	0.00336956	0.00266369	0.00167034	0.00370235	0.00156946	0.00104267	0.00259674	0.00259554	0.00054140	0.00281775	0.00010316	0.00196567
0.74000000	0.00379024	0.00527816	0.00263716	0.00206975	0.00244419	0.01026526	0.00792516	0.01337687	0.00681915	0.00641200	0.00317778	0.00627511	0.00484562	0.00356335	0.00272792	0.00304360	0.00220284	0.00163035	0.00367127	0.00151632	0.00102448	0.00262119	0.00256845	0.00049672	0.00270597	0.00009700	0.00212299
0.75000000	0.00316710	0.00453006	0.00283631	0.00257154	0.00273753	0.01119982	0.00836684	0.01310329	0.00683184	0.00656214	0.00411421	0.00530512	0.00490038	0.00286529	0.00255976	0.00259074	0.00180045	0.00154200	0.00377833	0.00144646	0.00095500	0.00272353	0.00249896	0.00055641	0.00282129	0.00016439	0.00224512
0.76000000	0.00336198	0.00405050	0.00285358	0.00281006	0.00288828	0.01158602	0.00802527	0.01320597	0.00678822	0.00674598	0.00424615	0.00405829	0.00468842	0.00251719	0.00231229	0.00225038	0.00176645	0.00149678	0.00379174	0.00144914	0.00094022	0.00282372	0.00246304	0.00058321	0.00291383	0.00025735	0.00227984
0.77000000	0.00324868	0.00368827	0.00273113	0.00286739	0.00286186	0.01174976	0.00791222	0.01318653	0.00668790	0.00690248	0.00434072	0.00307797	0.00440505	0.00207711	0.00201570	0.00198992	0.00151616	0.00142114	0.00377329	0.00139239	0.00097744	0.00283207	0.00238469	0.00059584	0.00282944	0.00029124	0.00251995
0.78000000	0.00343791	0.00372641	0.00261758	0.00271601	0.00277470	0.01130132	0.00759907	0.01339060	0.00635996	0.00714553	0.00419638	0.00247401	0.00395029	0.00208452	0.00177042	0.00166259	0.00098017	0.00138948	0.00366531	0.00139694	0.00094318	0.00276186	0.00223446	0.00049474	0.00269563	0.00023981	0.00265184
0.79000000	0.00224483	0.00301715	0.00260743	0.00293812	0.00279885	0.01179440	0.00836924	0.01267639	0.00632523	0.00681901	0.00423433	0.00199499	0.00409376	0.00152342	0.00162233	0.00122234	0.00075525	0.00128606	0.00377987	0.00154393	0.00099096	0.00277728	0.00195867	0.00064442	0.00283166	0.00039108	0.00278513
0.80000000	0.00226213	0.00244282	0.00240577	0.00300713	0.00273288	0.01177003	0.00841026	0.01244260	0.00626795	0.00667199	0.00392309	0.00164219	0.00404335	0.00145669	0.00146552	0.00092533	0.00078459	0.00119575	0.00382068	0.00155485	0.00100337	0.00273733	0.00181530	0.00070297	0.00295944	0.00041428	0.00288843
0.81000000	0.00277911	0.00216773	0.00220682	0.00283101	0.00257184	0.01145411	0.00833147	0.01247335	0.00599837	0.00656906	0.00355814	0.00148168	0.00390054	0.00163325	0.00125322	0.00085429	0.00066344	0.00118394	0.00371581	0.00146198	0.00106072	0.00262552	0.00183169	0.00070914	0.00291811	0.00036538	0.00301067
0.82000000	0.00375303	0.00204834	0.00214104	0.00243324	0.00239437	0.01053538	0.00805859	0.01293803	0.00541720	0.00661537	0.00361054	0.00178756	0.00354857	0.00228334	0.00109654	0.00054509	0.00033970	0.00120411	0.00357326	0.00144754	0.00106498	0.00242476	0.00173900	0.00064202	0.00278524	0.00034556	0.00308480
0.83000000	0.00375320	0.00177917	0.00220390	0.00236533	0.00228291	0.01087576	0.00880494	0.01245074	0.00544864	0.00601221	0.00280445	0.00201502	0.00365868	0.00198735	0.00106964	0.00082955	0.00039849	0.00110782	0.00366103	0.00151255	0.00112535	0.00232817	0.00157502	0.00075615	0.00288808	0.00046592	0.00320865
0.84000000	0.00430373	0.00176163	0.00230325	0.00225073	0.00223230	0.01088605	0.00918770	0.01237797	0.00537191	0.00569931	0.00231471	0.00233977	0.00368557	0.00190614	0.00096748	0.00116682	0.00038633	0.00108236	0.00368593	0.00147145	0.00112712	0.00224538	0.00153724	0.00077637	0.00294490	0.00045671	0.00330061
0.85000000	0.00536608	0.00157231	0.00244857	0.00206919	0.00227202	0.01032585	0.00904119	0.01301221	0.00502862	0.00572560	0.00274563	0.00259671	0.00361118	0.00233913	0.00082608	0.00092235	0.00055350	0.00109326	0.00360620	0.00141549	0.00110088	0.00214171	0.00157847	0.00073558	0.00287774	0.00045130	0.00334264
0.86000000	0.00557112	0.00162481	0.00271934	0.00190041	0.00225185	0.01061017	0.00983555	0.01295026	0.00516400	0.00534782	0.00222405	0.00327998	0.00369028	0.00220772	0.00081448	0.00120036	0.00078808	0.00104310	0.00361739	0.00143910	0.00113245	0.00200746	0.00152235	0.00080790	0.00295639	0.00057180	0.00332163
0.87000000	0.00604745	0.00170807	0.00290294	0.00177341	0.00225611	0.01072495	0.01040181	0.01314473	0.00531479	0.00516965	0.00211285	0.00394559	0.00369145	0.00234042	0.00070683	0.00145191	0.00102818	0.00101895	0.00362810	0.00145104	0.00114648	0.00192104	0.00153610	0.00089555	0.00292294	0.00060092	0.00335845
0.88000000	0.00651731	0.00179341	0.00301343	0.00172362	0.00229426	0.01062974	0.01067623	0.01370101	0.00541644	0.00530051	0.00266721	0.00442826	0.00375346	0.00253977	0.00056696	0.00139807	0.00089150	0.00099566	0.00368451	0.00142443	0.00108304	0.00192024	0.00155753	0.00088225	0.00292070	0.00058684	0.00335885
0.89000000	0.00674741	0.00167872	0.00318815	0.00159822	0.00231181	0.01082143	0.01125761	0.01414292	0.00564933	0.00528610	0.00280892	0.00494903	0.00365104	0.00286699	0.00049941	0.00156802	0.00131634	0.00095815	0.00364784	0.00140870	0.00106009	0.00184276	0.00157554	0.00089969	0.00292322	0.00066423	0.00325273
0.90000000	0.00688242	0.00166653	0.00325607	0.00152882	0.00229126	0.01097040	0.01166064	0.01469329	0.00594008	0.00548064	0.00315138	0.00537601	0.00360560	0.00308613	0.00048613	0.00162708	0.00140385	0.00093108	0.00368425	0.00141432	0.00101444	0.00182070	0.00159130	0.00090498	0.00287513	0.00072737	0.00319963
0.91000000	0.00698134	0.00157348	0.00331749	0.00151157	0.00229223	0.01116440	0.01204465	0.01534093	0.00618900	0.00566359	0.00348494	0.00561132	0.00353449	0.00334603	0.00051121	0.00173336	0.00164230	0.00092656	0.00364430	0.00135517	0.00097377	0.00182481	0.00171562	0.00085066	0.00283766	0.00072441	0.00305809
0.92000000	0.00692839	0.00184834	0.00319672	0.00167393	0.00215444	0.01141267	0.01253648	0.01584583	0.00639989	0.00585878	0.00392847	0.00549307	0.00342679	0.00386056	0.00048154	0.00187128	0.00116330	0.00085731	0.00369036	0.00136170	0.00094600	0.00186263	0.00176636	0.00102425	0.00274044	0.00077796	0.00305302
0.93000000	0.00686400	0.00170160	0.00321364	0.00169141	0.00213696	0.01174121	0.01267310	0.01658707	0.00667790	0.00618667	0.00429027	0.00564522	0.00342295	0.00395829	0.00064817	0.00187602	0.00149283	0.00087094	0.00366412	0.00135344	0.00089156	0.00191551	0.00184569	0.00089414	0.00278823	0.00084739	0.00277787
0.94000000	0.00675997	0.00173566	0.00321266	0.00179386	0.00212389	0.01215504	0.01277784	0.01725466	0.00689017	0.00643212	0.00467242	0.00578192	0.00332934	0.00414961	0.00070975	0.00184432	0.00161566	0.00087551	0.00360305	0.00131529	0.00086072	0.00195162	0.00198770	0.00082770	0.00257958	0.00085276	0.00270167
0.95000000	0.00654111	0.00237138	0.00319763	0.00219175	0.00208183	0.01275507	0.01324496	0.01743882	0.00706072	0.00642002	0.00481765	0.00587845	0.00312725	0.00439428	0.00063246	0.00206411	0.00122872	0.00080604	0.00367625	0.00135541	0.00080268	0.00198928	0.00197438	0.00101870	0.00255031	0.00090714	0.00263446
0.96000000	0.00641917	0.00248981	0.00327824	0.00234597	0.00214396	0.01332318	0.01318464	0.01796116	0.00718936	0.00657672	0.00519467	0.00598442	0.00307206	0.00451405	0.00063498	0.00204349	0.00125875	0.00087235	0.00360574	0.00135513	0.00075728	0.00206878	0.00207515	0.00093652	0.00243004	0.00088872	0.00244331
0.97000000	0.00626300	0.00295636	0.00335571	0.00265217	0.00220054	0.01402241	0.01330290	0.01813359	0.00727247	0.00649056	0.00527958	0.00611838	0.00289256	0.00470569	0.00060196	0.00206540	0.00121071	0.00084106	0.00359939	0.00135261	0.00071579	0.00209285	0.00212927	0.00096786	0.00244195	0.00094727	0.00227251
0.98000000	0.00621153	0.00318436	0.00344895	0.00282648	0.00228330	0.01455788	0.01302436	0.01846495	0.00729261	0.00646681	0.00542760	0.00629258	0.00289186	0.00477163	0.00054872	0.00206241	0.00110668	0.00085546	0.00349975	0.00136151	0.00066860	0.00212517	0.00220680	0.00087062	0.00226390	0.00097117	0.00215656
0.99000000	0.00613628	0.00329712	0.00355225	0.00290577	0.00235561	0.01509698	0.01264893	0.01871247	0.00722856	0.00637458	0.00552244	0.00635384	0.00300107	0.00482789	0.00053307	0.00202927	0.00116925	0.00099922	0.00345569	0.00126047	0.00056782	0.00221846	0.00229811	0.00085544	0.00231658	0.00080898	0.00191770
1.00000000	0.00613140	0.00371298	0.00360133	0.00317630	0.00240223	0.01553109	0.01237095	0.01854901	0.00717170	0.00615307	0.00530837	0.00651947	0.00286296	0.00496270	0.00046771	0.00202813	0.00102331	0.00093063	0.00336726	0.00138575	0.00058835	0.00221084	0.00228153	0.00082464	0.00223282	0.00098425	0.00179163
1.01000000	0.00624964	0.00340943	0.00356914	0.00281034	0.00233364	0.01612128	0.01139734	0.01875329	0.00708739	0.00624842	0.00523008	0.00699916	0.00421461	0.00427435	0.00067235	0.00159083	0.00138190	0.00120237	0.00321906	0.00127239	0.00048921	0.00233545	0.00244060	0.00073870	0.00229027	0.00075880	0.00144301
1.02000000	0.00621827	0.00410567	0.00365584	0.00331777	0.00241629	0.01601975	0.01127523	0.01809428	0.00681168	0.00573650	0.00479294	0.00673221	0.00306747	0.00502894	0.00035313	0.00209338	0.00099273	0.00103414	0.00315422	0.00141434	0.00053797	0.00226046	0.00229968	0.00069947	0.00218266	0.00102867	0.00149104
1.03000000	0.00641593	0.00432814	0.00366210	0.00332272	0.00237332	0.01610617	0.01065826	0.01750542	0.00660464	0.00551625	0.00433088	0.00692784	0.00310791	0.00500727	0.00027523	0.00211060	0.00112114	0.00101506	0.00299955	0.00142291	0.00059535	0.00225175	0.00239200	0.00076588	0.00219762	0.00102288	0.00131539
1.04000000	0.00650565	0.00447916	0.00365483	0.00324147	0.00230007	0.01604641	0.00997300	0.01683486	0.00632453	0.00525942	0.00378732	0.00710843	0.00313595	0.00502204	0.00017888	0.00221392	0.00128567	0.00105224	0.00287012	0.00139676	0.00061354	0.00225055	0.00245610	0.00074117	0.00223429	0.00099491	0.00119349
1.05000000	0.00650421	0.00455602	0.00364060	0.00301935	0.00219491	0.01576034	0.00912484	0.01617510	0.00599897	0.00512237	0.00332222	0.00738552	0.00337124	0.00500277	0.00011127	0.00235517	0.00135179	0.00115769	0.00266370	0.00140077	0.00061255	0.00222658	0.00241155	0.00061893	0.00218602	0.00103566	0.00097417
1.06000000	0.00649960	0.00476418	0.00366601	0.00287131	0.00210809	0.01532178	0.00847968	0.01521047	0.00560692	0.00486797	0.00278864	0.00759415	0.00353377	0.00504495	0.00007269	0.00251228	0.00147329	0.00115074	0.00251530	0.00137439	0.00065963	0.00217126	0.00247727	0.00059998	0.00220251	0.00102311	0.00095301
1.07000000	0.00691160	0.00512462	0.00369219	0.00282365	0.00208575	0.01495706	0.00782605	0.01360191	0.00529330	0.00448140	0.00213025	0.00791350	0.00345697	0.00506328	0.00016686	0.00263211	0.00162384	0.00118671	0.00247407	0.00145031	0.00077625	0.00225085	0.00255687	0.00073155	0.00236484	0.00101495	0.00083142
1.08000000	0.00656050	0.00520809	0.00380039	0.00241803	0.00202051	0.01418459	0.00712007	0.01264128	0.00479490	0.00419953	0.00170023	0.00822793	0.00372869	0.00512003	0.00017785	0.00281192	0.00171967	0.00127756	0.00226836	0.00137743	0.00077462	0.00215618	0.00256927	0.00059644	0.00231927	0.00103006	0.00068549
1.09000000	0.00658332	0.00518446	0.00386498	0.00186621	0.00207401	0.01322657	0.00565355	0.01177826	0.00458043	0.00479623	0.00202033	0.00892655	0.00482609	0.00465689	0.00025516	0.00261664	0.00211998	0.00145888	0.00220915	0.00133783	0.00075917	0.00223662	0.00268242	0.00066594	0.00243080	0.00087744	0.00058660
1.10000000	0.00651120	0.00571878	0.00412935	0.00217416	0.00205434	0.01262857	0.00622995	0.00903923	0.00389443	0.00324983	0.00079282	0.00852557	0.00414857	0.00543824	0.00029338	0.00306300	0.00189740	0.00126982	0.00211028	0.00149577	0.00097111	0.00213702	0.00272785	0.00077701	0.00245057	0.00104637	0.00058038
1.11000000	0.00617568	0.00562525	0.00451706	0.00147556	0.00238895	0.01197309	0.00520951	0.00791955	0.00338281	0.00316382	0.00160114	0.00898861	0.00451962	0.00533285	0.00034271	0.00325408	0.00199661	0.00149783	0.00191030	0.00128736	0.00085063	0.00204315	0.00285727	0.00077303	0.00239251	0.00084515	0.00045596
1.12000000	0.00657275	0.00590684	0.00437806	0.00166661	0.00226068	0.01154812	0.00467221	0.00480029	0.00313380	0.00260920	0.00041595	0.00916837	0.00439067	0.00550081	0.00036695	0.00338023	0.00193764	0.00143901	0.00200260	0.00160792	0.00099155	0.00219264	0.00281572	0.00069856	0.00251573	0.00098731	0.00044579
1.13000000	0.00629335	0.00595908	0.00485324	0.00123909	0.00264853	0.01147087	0.00406692	0.00381758	0.00253537	0.00224245	0.00089042	0.00930795	0.00457746	0.00549831	0.00042518	0.00358576	0.00199178	0.00158496	0.00183982	0.00148186	0.00093433	0.00204214	0.00286288	0.00072121	0.00242046	0.00086235	0.00033727
1.14000000	0.00657946	0.00611537	0.00479968	0.00127187	0.00259015	0.01145361	0.00357399	0.00291887	0.00229394	0.00286886	0.00074179	0.00937843	0.00455588	0.00545268	0.00040131	0.00359907	0.00202531	0.00161164	0.00184814	0.00168394	0.00101073	0.00214301	0.00288687	0.00068621	0.00245611	0.00094665	0.00033160
1.15000000	0.00674651	0.00618020	0.00504591	0.00118183	0.00281814	0.01198871	0.00309437	0.00425182	0.00206495	0.00334441	0.00115050	0.00942317	0.00463635	0.00522736	0.00047360	0.00370956	0.00213777	0.00174120	0.00177838	0.00171604	0.00098997	0.00211918	0.00287311	0.00072514	0.00236529	0.00088039	0.00022343
1.16000000	0.00682041	0.00626129	0.00532862	0.00117934	0.00305642	0.01293861	0.00278898	0.00611817	0.00188061	0.00377392	0.00149742	0.00933016	0.00478142	0.00499284	0.00051736	0.00379039	0.00225449	0.00183538	0.00168814	0.00174897	0.00097128	0.00206888	0.00286982	0.00081299	0.00223423	0.00078713	0.00008791
1.17000000	0.00720438	0.00654176	0.00573902	0.00146173	0.00347142	0.01438155	0.00276286	0.00732797	0.00181331	0.00367923	0.00204522	0.00916641	0.00503626	0.00488030	0.00049502	0.00375065	0.00220495	0.00202859	0.00153716	0.00169606	0.00092042	0.00196280	0.00286768	0.00089655	0.00212966	0.00067390	0.00035071
1.18000000	0.00750969	0.00625170	0.00577511	0.00149546	0.00356435	0.01467824	0.00274691	0.00959663	0.00198026	0.00459515	0.00220234	0.00922422	0.00477491	0.00439914	0.00069240	0.00400666	0.00232519	0.00219677	0.00147890	0.00176237	0.00081329	0.00196679	0.00274819	0.00098309	0.00187841	0.00057039	0.00016710
1.19000000	0.00785364	0.00653201	0.00610488	0.00185780	0.00390028	0.01582947	0.00296329	0.01025829	0.00212759	0.00427019	0.00247028	0.00904030	0.00512166	0.00426825	0.00069192	0.00384637	0.00236227	0.00226833	0.00129715	0.00177992	0.00079792	0.00187476	0.00277182	0.00106902	0.00172042	0.00047023	0.00037125
1.20000000	0.00737863	0.00623312	0.00628064	0.00188962	0.00405501	0.01657440	0.00267976	0.01128492	0.00230348	0.00433997	0.00278426	0.00894173	0.00531164	0.00387152	0.00080809	0.00412653	0.00225660	0.00241022	0.00129624	0.00182022	0.00072506	0.00180410	0.00255024	0.00117838	0.00148183	0.00040336	0.00040103
1.21000000	0.00765810	0.00651181	0.00653688	0.00222442	0.00434829	0.01670860	0.00297491	0.01152076	0.00253089	0.00386012	0.00308209	0.00880195	0.00555293	0.00387176	0.00086473	0.00392649	0.00227408	0.00257321	0.00103037	0.00172959	0.00060925	0.00167673	0.00260854	0.00138155	0.00116572	0.00015713	0.00067351
1.22000000	0.00796083	0.00658035	0.00666849	0.00247832	0.00455067	0.01664491	0.00332190	0.01123893	0.00270594	0.00330432	0.00314607	0.00884770	0.00585999	0.00374560	0.00093231	0.00374172	0.00243003	0.00277930	0.00098438	0.00171835	0.00047801	0.00159423	0.00244235	0.00167098	0.00092542	0.00030498	0.00100586
1.23000000	0.00693284	0.00608716	0.00654462	0.00238948	0.00447579	0.01585791	0.00336774	0.01155562	0.00315497	0.00342517	0.00392416	0.00876125	0.00584096	0.00354727	0.00096285	0.00408174	0.00221097	0.00287475	0.00107723	0.00175017	0.00043021	0.00154966	0.00229906	0.00175487	0.00077696	0.00025297	0.00097433
1.24000000	0.00727146	0.00617770	0.00651830	0.00259950	0.00458022	0.01475963	0.00377311	0.01106064	0.00321998	0.00287018	0.00402584	0.00883452	0.00604706	0.00354403	0.00113549	0.00377818	0.00212808	0.00315116	0.00122876	0.00166950	0.00032552	0.00145036	0.00214218	0.00205542	0.00044432	0.00073652	0.00138831
1.25000000	0.00647194	0.00552677	0.00637116	0.00279527	0.00460328	0.01330853	0.00413214	0.01088975	0.00367854	0.00307077	0.00430433	0.00878872	0.00606153	0.00289687	0.00129438	0.00372732	0.00227297	0.00320451	0.00139751	0.00163271	0.00027410	0.00140119	0.00208669	0.00211178	0.00071672	0.00068576	0.00142765
1.26000000	0.00680949	0.00560666	0.00613709	0.00284160	0.00452321	0.01152517	0.00462922	0.01042604	0.00365527	0.00297749	0.00458500	0.00886653	0.00612586	0.00302152	0.00152135	0.00346672	0.00206593	0.00359703	0.00165859	0.00152173	0.00036285	0.00129383	0.00184640	0.00249597	0.00063391	0.00126827	0.00190327
1.27000000	0.00598433	0.00494415	0.00611971	0.00324742	0.00468510	0.01031513	0.00516392	0.00951802	0.00412949	0.00278030	0.00426206	0.00910325	0.00674299	0.00238661	0.00156082	0.00329497	0.00218072	0.00359256	0.00200646	0.00140592	0.00037415	0.00114699	0.00167947	0.00252730	0.00124879	0.00115544	0.00187141
1.28000000	0.00585917	0.00472797	0.00600830	0.00350572	0.00474650	0.00869481	0.00558648	0.00886129	0.00418059	0.00284912	0.00417605	0.00935583	0.00712648	0.00210708	0.00178790	0.00301120	0.00208129	0.00376246	0.00235485	0.00122597	0.00051282	0.00097003	0.00150691	0.00269096	0.00146409	0.00143260	0.00218593
1.29000000	0.00517892	0.00471383	0.00621037	0.00392289	0.00504481	0.00828140	0.00527595	0.00769643	0.00377236	0.00244953	0.00341146	0.00959952	0.00759552	0.00165232	0.00190312	0.00285195	0.00194450	0.00386173	0.00288734	0.00086765	0.00073014	0.00068082	0.00142045	0.00291900	0.00200981	0.00158756	0.00241368
1.30000000	0.00513413	0.00465220	0.00599462	0.00409577	0.00500295	0.00657245	0.00584009	0.00705960	0.00373931	0.00271099	0.00316735	0.01004675	0.00786564	0.00139114	0.00214745	0.00245026	0.00198867	0.00394896	0.00328101	0.00068272	0.00088895	0.00055327	0.00131444	0.00296195	0.00223149	0.00177570	0.00271315
1.31000000	0.00467261	0.00476167	0.00602938	0.00441001	0.00515883	0.00563952	0.00572441	0.00617644	0.00336420	0.00266952	0.00239691	0.01053546	0.00819137	0.00132099	0.00242121	0.00206494	0.00174699	0.00397195	0.00377770	0.00044155	0.00110770	0.00061695	0.00132132	0.00309559	0.00267987	0.00188759	0.00289749
1.32000000	0.00465094	0.00484018	0.00575876	0.00455313	0.00507076	0.00382948	0.00625135	0.00555314	0.00319708	0.00273981	0.00209624	0.01113637	0.00820744	0.00147269	0.00278405	0.00151228	0.00158875	0.00402412	0.00405414	0.00040994	0.00127322	0.00071640	0.00135440	0.00311602	0.00282496	0.00199768	0.00308140
1.33000000	0.00419550	0.00527191	0.00573601	0.00474117	0.00511938	0.00318656	0.00595573	0.00433849	0.00261672	0.00283316	0.00134942	0.01155965	0.00820964	0.00187959	0.00307858	0.00109549	0.00144777	0.00395489	0.00448930	0.00061085	0.00146039	0.00107780	0.00144223	0.00310763	0.00311060	0.00204707	0.00327799
1.34000000	0.00420971	0.00547421	0.00543294	0.00482144	0.00498432	0.00243049	0.00645604	0.00346078	0.00244410	0.00263659	0.00144667	0.01207413	0.00769083	0.00236824	0.00344717	0.00069918	0.00110435	0.00390368	0.00472858	0.00078768	0.00159791	0.00126574	0.00158245	0.00300069	0.00318933	0.00205591	0.00342690
1.35000000	0.00367204	0.00605231	0.00528563	0.00491197	0.00489348	0.00284281	0.00594443	0.00238475	0.00185137	0.00284631	0.00098655	0.01230920	0.00746181	0.00292100	0.00378895	0.00040200	0.00100567	0.00370771	0.00504776	0.00110905	0.00172990	0.00165043	0.00171811	0.00286063	0.00336581	0.00198003	0.00352997
1.36000000	0.00351024	0.00620620	0.00485563	0.00489698	0.00464082	0.00448376	0.00651432	0.00180551	0.00171922	0.00244071	0.00143164	0.01257626	0.00645146	0.00339399	0.00422383	0.00085447	0.00058434	0.00359058	0.00514422	0.00130700	0.00183304	0.00180840	0.00190061	0.00270591	0.00332425	0.00189381	0.00355302
1.37000000	0.00316060	0.00647929	0.00439827	0.00485483	0.00433906	0.00624131	0.00680840	0.00185054	0.00150705	0.00225371	0.00172264	0.01259847	0.00542746	0.00393156	0.00463640	0.00154605	0.00045988	0.00338361	0.00517654	0.00148524	0.00190342	0.00195393	0.00207338	0.00249320	0.00326238	0.00174533	0.00348825
1.38000000	0.00332560	0.00661082	0.00409173	0.00476104	0.00413108	0.00768237	0.00717339	0.00252590	0.00160300	0.00187362	0.00247849	0.01221815	0.00398359	0.00452092	0.00493374	0.00217416	0.00082787	0.00314291	0.00525789	0.00162149	0.00193238	0.00216700	0.00221001	0.00217674	0.00319467	0.00142855	0.00353523
1.39000000	0.00331435	0.00727881	0.00378054	0.00482408	0.00386702	0.00781964	0.00570221	0.00284417	0.00167436	0.00236335	0.00248359	0.01146633	0.00293350	0.00519593	0.00526371	0.00268325	0.00111269	0.00279817	0.00528820	0.00186764	0.00192613	0.00242828	0.00219876	0.00183587	0.00299115	0.00133417	0.00348837
1.40000000	0.00375730	0.00690334	0.00343467	0.00455419	0.00360018	0.00818345	0.00628965	0.00353623	0.00163538	0.00187845	0.00286818	0.01062218	0.00179859	0.00555157	0.00550152	0.00333290	0.00204713	0.00269111	0.00505192	0.00188825	0.00190934	0.00251929	0.00236812	0.00151389	0.00283313	0.00098154	0.00322803
1.41000000	0.00379010	0.00711042	0.00281631	0.00439123	0.00312325	0.00767872	0.00589045	0.00316672	0.00143760	0.00185548	0.00271329	0.00992243	0.00184569	0.00596462	0.00581920	0.00403214	0.00175514	0.00212187	0.00505792	0.00193781	0.00180088	0.00253525	0.00231766	0.00107932	0.00254382	0.00074685	0.00321216
1.42000000	0.00417349	0.00682907	0.00256656	0.00431261	0.00295545	0.00648583	0.00569298	0.00295286	0.00151168	0.00170951	0.00285122	0.00890689	0.00354772	0.00657746	0.00599545	0.00473907	0.00212511	0.00181966	0.00477638	0.00204330	0.00167458	0.00258351	0.00215581	0.00086267	0.00231131	0.00063985	0.00280592
1.43000000	0.00470111	0.00665076	0.00227413	0.00416828	0.00272158	0.00520964	0.00506428	0.00209054	0.00150271	0.00162729	0.00275458	0.00792539	0.00520327	0.00735952	0.00612579	0.00529711	0.00241765	0.00149952	0.00464234	0.00203513	0.00150836	0.00261253	0.00203498	0.00057046	0.00199346	0.00037882	0.00269923
1.44000000	0.00525070	0.00650026	0.00207237	0.00401961	0.00253904	0.00455282	0.00440876	0.00142542	0.00160190	0.00165546	0.00246648	0.00716773	0.00672937	0.00828386	0.00606861	0.00566626	0.00256877	0.00129392	0.00440798	0.00201944	0.00143168	0.00263989	0.00206291	0.00036342	0.00175433	0.00027870	0.00246990
1.45000000	0.00503943	0.00548513	0.00208472	0.00369665	0.00238767	0.00476681	0.00441687	0.00280388	0.00122810	0.00156647	0.00163214	0.00532427	0.00873237	0.01014890	0.00571632	0.00522159	0.00262056	0.00120869	0.00407127	0.00196295	0.00135644	0.00257542	0.00209141	0.00024050	0.00145022	0.00014300	0.00225316
1.46000000	0.00546203	0.00493111	0.00229325	0.00342297	0.00234266	0.00661948	0.00437300	0.00388909	0.00128667	0.00175176	0.00169624	0.00573291	0.01000232	0.01098023	0.00559111	0.00578067	0.00246492	0.00102026	0.00384740	0.00199519	0.00121832	0.00255501	0.00192956	0.00034587	0.00125083	0.00048876	0.00199843
1.47000000	0.00548311	0.00479737	0.00248894	0.00310125	0.00225662	0.00753901	0.00466920	0.00629419	0.00081504	0.00261426	0.00077675	0.00561535	0.01036510	0.01291302	0.00534497	0.00571980	0.00231318	0.00096206	0.00365687	0.00195783	0.00120435	0.00245849	0.00207559	0.00036877	0.00113428	0.00025174	0.00181203
1.48000000	0.00596293	0.00430301	0.00279828	0.00279893	0.00226291	0.00984050	0.00471189	0.00734513	0.00104870	0.00268834	0.00085735	0.00701057	0.01113770	0.01377616	0.00517432	0.00607967	0.00207532	0.00077994	0.00349632	0.00200663	0.00106003	0.00244702	0.00189532	0.00065863	0.00093382	0.00025715	0.00159519
1.49000000	0.00637243	0.00415560	0.00305640	0.00269809	0.00235227	0.01154567	0.00456621	0.00857629	0.00110533	0.00292707	0.00089268	0.00847986	0.01130881	0.01473826	0.00514563	0.00634536	0.00185445	0.00066911	0.00326904	0.00197394	0.00093146	0.00237780	0.00179788	0.00063112	0.00074441	0.00050959	0.00139767
1.50000000	0.00666663	0.00459833	0.00302028	0.00254428	0.00228291	0.01231976	0.00430190	0.00980093	0.00094182	0.00332306	0.00083873	0.00932806	0.01087701	0.01620270	0.00486768	0.00645261	0.00135589	0.00063896	0.00320692	0.00197182	0.00100048	0.00238888	0.00210949	0.00056858	0.00059844	0.00032993	0.00145805
1.51000000	0.00664240	0.00414694	0.00336940	0.00239704	0.00240879	0.01292143	0.00438565	0.01043850	0.00095639	0.00344263	0.00066187	0.01021025	0.01123932	0.01696933	0.00476723	0.00663763	0.00120462	0.00048465	0.00299175	0.00195162	0.00085109	0.00229124	0.00197644	0.00060952	0.00048920	0.00037231	0.00116347
1.52000000	0.00653504	0.00371558	0.00372083	0.00229659	0.00256799	0.01293294	0.00440199	0.01084920	0.00085385	0.00351650	0.00066008	0.01092092	0.01162800	0.01755668	0.00473042	0.00671282	0.00123189	0.00036481	0.00277801	0.00189330	0.00069626	0.00216716	0.00187501	0.00060399	0.00037967	0.00045773	0.00096185
1.53000000	0.00648010	0.00356028	0.00385327	0.00217657	0.00259855	0.01228579	0.00432441	0.01109002	0.00065101	0.00362532	0.00066528	0.01102472	0.01167073	0.01843575	0.00463505	0.00690860	0.00098754	0.00033280	0.00254355	0.00188621	0.00069438	0.00211497	0.00197667	0.00053391	0.00030436	0.00047291	0.00083205
1.54000000	0.00613369	0.00313796	0.00417590	0.00206602	0.00274472	0.01151455	0.00440404	0.01098007	0.00055873	0.00358118	0.00055779	0.01116102	0.01208705	0.01891476	0.00470916	0.00704051	0.00120235	0.00020999	0.00236056	0.00183655	0.00057054	0.00202786	0.00194527	0.00063781	0.00035984	0.00045544	0.00063647
1.55000000	0.00587687	0.00275355	0.00437399	0.00193453	0.00279582	0.01053151	0.00443755	0.01068889	0.00042171	0.00353358	0.00058275	0.01117000	0.01255840	0.01937484	0.00477578	0.00701574	0.00132220	0.00029502	0.00211406	0.00186297	0.00053699	0.00193751	0.00191404	0.00069433	0.00045518	0.00054243	0.00045568
1.56000000	0.00553943	0.00238393	0.00464481	0.00183822	0.00290627	0.00947085	0.00454003	0.01034185	0.00044545	0.00342217	0.00058906	0.01100350	0.01312586	0.01967388	0.00495163	0.00718012	0.00152955	0.00024423	0.00191722	0.00183534	0.00041705	0.00188986	0.00184766	0.00067345	0.00056862	0.00075455	0.00033093
1.57000000	0.00516187	0.00215263	0.00490364	0.00178995	0.00302418	0.00852680	0.00464889	0.00993966	0.00048632	0.00324840	0.00064829	0.01065188	0.01367505	0.02000679	0.00514639	0.00725651	0.00178856	0.00033403	0.00168488	0.00175349	0.00031962	0.00180742	0.00190905	0.00075269	0.00066145	0.00098024	0.00025306
1.58000000	0.00488314	0.00197508	0.00500884	0.00167127	0.00302552	0.00769328	0.00475008	0.00947138	0.00067330	0.00316546	0.00072669	0.01030046	0.01426371	0.02035754	0.00529853	0.00730635	0.00177700	0.00047834	0.00148999	0.00177354	0.00032323	0.00179933	0.00199936	0.00092135	0.00077144	0.00102807	0.00021480
1.59000000	0.00526445	0.00250694	0.00462750	0.00144011	0.00273628	0.00741538	0.00447906	0.00851329	0.00106709	0.00284416	0.00070409	0.01002875	0.01440090	0.02095437	0.00548757	0.00746966	0.00203019	0.00050464	0.00160508	0.00196196	0.00039986	0.00195899	0.00213248	0.00078409	0.00059468	0.00125275	0.00014366
1.60000000	0.00481945	0.00203546	0.00488649	0.00135302	0.00281154	0.00696795	0.00457560	0.00835075	0.00107140	0.00265457	0.00092184	0.00983238	0.01541022	0.02102644	0.00567318	0.00739208	0.00204159	0.00061605	0.00134593	0.00192719	0.00034542	0.00191170	0.00214722	0.00111129	0.00077954	0.00130689	0.00031086
1.61000000	0.00504630	0.00271530	0.00483008	0.00144776	0.00282898	0.00691472	0.00429856	0.00795465	0.00132714	0.00255662	0.00116905	0.01032787	0.01613692	0.02085942	0.00599852	0.00730513	0.00210703	0.00055902	0.00136892	0.00193138	0.00037096	0.00194853	0.00228769	0.00111729	0.00071955	0.00164230	0.00036201
1.62000000	0.00477950	0.00242086	0.00496422	0.00133109	0.00282105	0.00681875	0.00442029	0.00783440	0.00138489	0.00255062	0.00125381	0.01035204	0.01705282	0.02099972	0.00612520	0.00722481	0.00211995	0.00059608	0.00124602	0.00191913	0.00031538	0.00200348	0.00230325	0.00131178	0.00081866	0.00181549	0.00038059
1.63000000	0.00466379	0.00256334	0.00501899	0.00127138	0.00279894	0.00688788	0.00441802	0.00785724	0.00137674	0.00253374	0.00139561	0.01074788	0.01784803	0.02092985	0.00625309	0.00729917	0.00223898	0.00061277	0.00116469	0.00193427	0.00034288	0.00205110	0.00238077	0.00140351	0.00079244	0.00202426	0.00054483
1.64000000	0.00492076	0.00337634	0.00515433	0.00162464	0.00301883	0.00715975	0.00416725	0.00800506	0.00149349	0.00268818	0.00138621	0.01151245	0.01853289	0.02040883	0.00658381	0.00709010	0.00217567	0.00051627	0.00117647	0.00185620	0.00038489	0.00203517	0.00258875	0.00146387	0.00077768	0.00227067	0.00048230
1.65000000	0.00473031	0.00333119	0.00524939	0.00156755	0.00298434	0.00744425	0.00449017	0.00811640	0.00135929	0.00274550	0.00146353	0.01195560	0.01906488	0.02043931	0.00661271	0.00704878	0.00221712	0.00055333	0.00116090	0.00185792	0.00046225	0.00208746	0.00270739	0.00158948	0.00073798	0.00238484	0.00044925
1.66000000	0.00462078	0.00349887	0.00538547	0.00156786	0.00304595	0.00794519	0.00454261	0.00832386	0.00119346	0.00270279	0.00152689	0.01241830	0.01930601	0.02033441	0.00679789	0.00714547	0.00230779	0.00045321	0.00119313	0.00182158	0.00039637	0.00218226	0.00274738	0.00159224	0.00061076	0.00260902	0.00051159
1.67000000	0.00488264	0.00362376	0.00569647	0.00187846	0.00334581	0.00828979	0.00409550	0.00898529	0.00121110	0.00299396	0.00117470	0.01309313	0.01953303	0.01978790	0.00690853	0.00688987	0.00216018	0.00029444	0.00115149	0.00168752	0.00042795	0.00220626	0.00283971	0.00168048	0.00054454	0.00276560	0.00053506
1.68000000	0.00482234	0.00389536	0.00577280	0.00185911	0.00333022	0.00887206	0.00454082	0.00923111	0.00094611	0.00296353	0.00120337	0.01360669	0.01933936	0.01966519	0.00699809	0.00689767	0.00215771	0.00027828	0.00122289	0.00171665	0.00049970	0.00232061	0.00294439	0.00172355	0.00039740	0.00283648	0.00048430
1.69000000	0.00484153	0.00400614	0.00592888	0.00191148	0.00340874	0.00939946	0.00460773	0.00977591	0.00077136	0.00300300	0.00109778	0.01410257	0.01898969	0.01943422	0.00698851	0.00684614	0.00216866	0.00019740	0.00134866	0.00171010	0.00051856	0.00244063	0.00304251	0.00173830	0.00034084	0.00294142	0.00041790
1.70000000	0.00500221	0.00382033	0.00630549	0.00214767	0.00370143	0.00992608	0.00451233	0.01049455	0.00074051	0.00327032	0.00055337	0.01456738	0.01853383	0.01899991	0.00679118	0.00662705	0.00209632	0.00010988	0.00134297	0.00160377	0.00055358	0.00249761	0.00309395	0.00180313	0.00030711	0.00303617	0.00038353
1.71000000	0.00506920	0.00417465	0.00634267	0.00209194	0.00365287	0.01052450	0.00498975	0.01095393	0.00060841	0.00322813	0.00089319	0.01508673	0.01768199	0.01874981	0.00673468	0.00661921	0.00204148	0.00020706	0.00147235	0.00167979	0.00069045	0.00264324	0.00321489	0.00184009	0.00046623	0.00302792	0.00030749
1.72000000	0.00514382	0.00437238	0.00646286	0.00210633	0.00369551	0.01105507	0.00526015	0.01159456	0.00066924	0.00324945	0.00112981	0.01549566	0.01672377	0.01846345	0.00648546	0.00645822	0.00193874	0.00027239	0.00164401	0.00172611	0.00076030	0.00276435	0.00333357	0.00185477	0.00073422	0.00307266	0.00021627
1.73000000	0.00519382	0.00417545	0.00664092	0.00202414	0.00372905	0.01149949	0.00524317	0.01238144	0.00074651	0.00343758	0.00112822	0.01589948	0.01583206	0.01796434	0.00607194	0.00626714	0.00187878	0.00028973	0.00171416	0.00173742	0.00079074	0.00287438	0.00332588	0.00183912	0.00094797	0.00313599	0.00022044
1.74000000	0.00527004	0.00390488	0.00691993	0.00207252	0.00388796	0.01203302	0.00544797	0.01299931	0.00078147	0.00362186	0.00086285	0.01619747	0.01484056	0.01728761	0.00552215	0.00604721	0.00172003	0.00034821	0.00180079	0.00176181	0.00077703	0.00300380	0.00328636	0.00188329	0.00111400	0.00319432	0.00021700
1.75000000	0.00552568	0.00349592	0.00728270	0.00227016	0.00412509	0.01230871	0.00574704	0.01373822	0.00083151	0.00376169	0.00060718	0.01636754	0.01371747	0.01651107	0.00494960	0.00579656	0.00160335	0.00055102	0.00180820	0.00178125	0.00088148	0.00316531	0.00323247	0.00181390	0.00118539	0.00331771	0.00029080
1.76000000	0.00550969	0.00341514	0.00737074	0.00213812	0.00408216	0.01262971	0.00612241	0.01425547	0.00094743	0.00385401	0.00076302	0.01667922	0.01255935	0.01569247	0.00430855	0.00559922	0.00132887	0.00060047	0.00193473	0.00184778	0.00092610	0.00326802	0.00327035	0.00188891	0.00144614	0.00332187	0.00008153
1.77000000	0.00550806	0.00381612	0.00721949	0.00182645	0.00385444	0.01292668	0.00668667	0.01459508	0.00106420	0.00383430	0.00112079	0.01691495	0.01109917	0.01514563	0.00361493	0.00545310	0.00108285	0.00059660	0.00209377	0.00199101	0.00104877	0.00340159	0.00339619	0.00191816	0.00174801	0.00328946	0.00028414
1.78000000	0.00554776	0.00324627	0.00738467	0.00172339	0.00383839	0.01297057	0.00686474	0.01512842	0.00116762	0.00406695	0.00085012	0.01695868	0.01004767	0.01417810	0.00290508	0.00522449	0.00085958	0.00071270	0.00214912	0.00208355	0.00105318	0.00354721	0.00324979	0.00187741	0.00189823	0.00341307	0.00015182
1.79000000	0.00557662	0.00279957	0.00759810	0.00172450	0.00389438	0.01306360	0.00746582	0.01547281	0.00130668	0.00406501	0.00084090	0.01694950	0.00900728	0.01289777	0.00219247	0.00492429	0.00047370	0.00084047	0.00219412	0.00213536	0.00106926	0.00365327	0.00315308	0.00203393	0.00196613	0.00343978	0.00031851
1.80000000	0.00554165	0.00284429	0.00736067	0.00141479	0.00356034	0.01304977	0.00786622	0.01572241	0.00147691	0.00421127	0.00091157	0.01682855	0.00774668	0.01209756	0.00164561	0.00473677	0.00037036	0.00082858	0.00232290	0.00234032	0.00117591	0.00380773	0.00322154	0.00197911	0.00222047	0.00345867	0.00029821
1.81000000	0.00552940	0.00244232	0.00741908	0.00136506	0.00347459	0.01297844	0.00862455	0.01598485	0.00168308	0.00410874	0.00109802	0.01664112	0.00687535	0.01048727	0.00125091	0.00431185	0.00022254	0.00093481	0.00236159	0.00241050	0.00118675	0.00391683	0.00311125	0.00207666	0.00225555	0.00352478	0.00043200
1.82000000	0.00559813	0.00311724	0.00682172	0.00122758	0.00293586	0.01302816	0.00918702	0.01597777	0.00182367	0.00416190	0.00108631	0.01619830	0.00557002	0.00969736	0.00115205	0.00411140	0.00060526	0.00090298	0.00264752	0.00270450	0.00127191	0.00417954	0.00322805	0.00212822	0.00260332	0.00346890	0.00050256
1.83000000	0.00539937	0.00235768	0.00696717	0.00134445	0.00291009	0.01290174	0.01016917	0.01622985	0.00217543	0.00406921	0.00140536	0.01558822	0.00508769	0.00752256	0.00113972	0.00345106	0.00061817	0.00101384	0.00260868	0.00266822	0.00123807	0.00419545	0.00309973	0.00215419	0.00257102	0.00358167	0.00052538
1.84000000	0.00537754	0.00234146	0.00675364	0.00144886	0.00269036	0.01251615	0.01100388	0.01663516	0.00245372	0.00405161	0.00156507	0.01492793	0.00424541	0.00550388	0.00125754	0.00283118	0.00075775	0.00104541	0.00258815	0.00270643	0.00132455	0.00423733	0.00323164	0.00204461	0.00262526	0.00371030	0.00052130
1.85000000	0.00541925	0.00326455	0.00612735	0.00177697	0.00225099	0.01231264	0.01200316	0.01673223	0.00277918	0.00425157	0.00144369	0.01424687	0.00320170	0.00398861	0.00122078	0.00243915	0.00080540	0.00106336	0.00286768	0.00289128	0.00129712	0.00439485	0.00323362	0.00219970	0.00284934	0.00361678	0.00059300
1.86000000	0.00544747	0.00385217	0.00555567	0.00232927	0.00188976	0.01232178	0.01276507	0.01673129	0.00304628	0.00414501	0.00159087	0.01386122	0.00286792	0.00333286	0.00131006	0.00203319	0.00094284	0.00107134	0.00294995	0.00301349	0.00132867	0.00454017	0.00325627	0.00209700	0.00299325	0.00364243	0.00055672
1.87000000	0.00545686	0.00450773	0.00509294	0.00266231	0.00173880	0.01208406	0.01344371	0.01698702	0.00325411	0.00417607	0.00164950	0.01368637	0.00275393	0.00433498	0.00128691	0.00276804	0.00126933	0.00114598	0.00313069	0.00306909	0.00125072	0.00453181	0.00314272	0.00212434	0.00303543	0.00362610	0.00057453
1.88000000	0.00557930	0.00596611	0.00436661	0.00303744	0.00167454	0.01199054	0.01407282	0.01706604	0.00341359	0.00425092	0.00165876	0.01377788	0.00371669	0.00663957	0.00183652	0.00372806	0.00159381	0.00108696	0.00317300	0.00306992	0.00135193	0.00450922	0.00347283	0.00218303	0.00319906	0.00352855	0.00070162
1.89000000	0.00564039	0.00697119	0.00378740	0.00355282	0.00186146	0.01196654	0.01454481	0.01701970	0.00345446	0.00418544	0.00169655	0.01486560	0.00477018	0.00942132	0.00243867	0.00476466	0.00214077	0.00110213	0.00324697	0.00305132	0.00127292	0.00446021	0.00339185	0.00218184	0.00328938	0.00344726	0.00072836
1.90000000	0.00573302	0.00820167	0.00318665	0.00411394	0.00222892	0.01192028	0.01484693	0.01690225	0.00341617	0.00409487	0.00168316	0.01652452	0.00589500	0.01216282	0.00324985	0.00570363	0.00261988	0.00108412	0.00336743	0.00308438	0.00123943	0.00440576	0.00339991	0.00208799	0.00344318	0.00334963	0.00075820
1.91000000	0.00585861	0.00952972	0.00277975	0.00462176	0.00273376	0.01187934	0.01496289	0.01673147	0.00326799	0.00399111	0.00164123	0.01869432	0.00704255	0.01446972	0.00415261	0.00631334	0.00347201	0.00116342	0.00342104	0.00303777	0.00120172	0.00429710	0.00335394	0.00212978	0.00353065	0.00315437	0.00082910
1.92000000	0.00596471	0.01078345	0.00264477	0.00516458	0.00330856	0.01182667	0.01496449	0.01646234	0.00306362	0.00388341	0.00162009	0.02123485	0.00770437	0.01637255	0.00497926	0.00662334	0.00445871	0.00122068	0.00346531	0.00297729	0.00115011	0.00416454	0.00331426	0.00213173	0.00365407	0.00296103	0.00090081
1.93000000	0.00593701	0.01164516	0.00277298	0.00559862	0.00374907	0.01144686	0.01480480	0.01641644	0.00280748	0.00402510	0.00139969	0.02444379	0.00781967	0.01763608	0.00567297	0.00646660	0.00558586	0.00129806	0.00330967	0.00280470	0.00110666	0.00387306	0.00327366	0.00244643	0.00363703	0.00253726	0.00094754
1.94000000	0.00609045	0.01278610	0.00308016	0.00589347	0.00425369	0.01186513	0.01462807	0.01559884	0.00241914	0.00363661	0.00151147	0.02528189	0.00836675	0.01861798	0.00636786	0.00661439	0.00646172	0.00150546	0.00352699	0.00272288	0.00102498	0.00371152	0.00313847	0.00235244	0.00387685	0.00237706	0.00108664
1.95000000	0.00605231	0.01313300	0.00332816	0.00600856	0.00447451	0.01161582	0.01437362	0.01530112	0.00202916	0.00372637	0.00117010	0.02625403	0.00807162	0.01918986	0.00682877	0.00642747	0.00686415	0.00162763	0.00349140	0.00242898	0.00085136	0.00333394	0.00290059	0.00234388	0.00391518	0.00218755	0.00117890
1.96000000	0.00595797	0.01302061	0.00340029	0.00577813	0.00440727	0.01124396	0.01402373	0.01513510	0.00155699	0.00380540	0.00096708	0.02617238	0.00793802	0.01922076	0.00702447	0.00600857	0.00704403	0.00184412	0.00338969	0.00211215	0.00079610	0.00284443	0.00273064	0.00259560	0.00392192	0.00171823	0.00116455
1.97000000	0.00579005	0.01263251	0.00339771	0.00541698	0.00423275	0.01109140	0.01378575	0.01472031	0.00115209	0.00390358	0.00073150	0.02486295	0.00802283	0.01861542	0.00712171	0.00563054	0.00677798	0.00202261	0.00332720	0.00176142	0.00070143	0.00232928	0.00249294	0.00269548	0.00392892	0.00137722	0.00124560
1.98000000	0.00562903	0.01204470	0.00349807	0.00498290	0.00411424	0.01171951	0.01313894	0.01346863	0.00072259	0.00287015	0.00161358	0.02205996	0.00810398	0.01772537	0.00707894	0.00542347	0.00637606	0.00225293	0.00327545	0.00143828	0.00083964	0.00196679	0.00277892	0.00284311	0.00409445	0.00106872	0.00154154
1.99000000	0.00536389	0.01127244	0.00339182	0.00436227	0.00375211	0.01153928	0.01293553	0.01303746	0.00041065	0.00313583	0.00122976	0.01843656	0.00819582	0.01634453	0.00673987	0.00496458	0.00582391	0.00250808	0.00327172	0.00119800	0.00081779	0.00140690	0.00247781	0.00311123	0.00405667	0.00046341	0.00178409
2.00000000	0.00512308	0.01006317	0.00337722	0.00387444	0.00350677	0.01146439	0.01266688	0.01256203	0.00042764	0.00287111	0.00103660	0.01445039	0.00863472	0.01418769	0.00640136	0.00503054	0.00509462	0.00284384	0.00326463	0.00096242	0.00079563	0.00104824	0.00215368	0.00326247	0.00419537	0.00025498	0.00162356
2.01000000	0.00502741	0.00935024	0.00348027	0.00385131	0.00355820	0.01134043	0.01256787	0.01179824	0.00074753	0.00270547	0.00100812	0.01201597	0.00718964	0.01145196	0.00573756	0.00351263	0.00431178	0.00321653	0.00330698	0.00091506	0.00087236	0.00089214	0.00187798	0.00357619	0.00426622	0.00030118	0.00188785
2.02000000	0.00500014	0.00849574	0.00355880	0.00374794	0.00353998	0.01116450	0.01269470	0.01117335	0.00100022	0.00263129	0.00100464	0.00883069	0.00657185	0.00855172	0.00519745	0.00239410	0.00342680	0.00358852	0.00331527	0.00089975	0.00099619	0.00076445	0.00162837	0.00389547	0.00431741	0.00078947	0.00201442
2.03000000	0.00502162	0.00766608	0.00361297	0.00368060	0.00349879	0.01099960	0.01304420	0.01056583	0.00124192	0.00259937	0.00102586	0.00593118	0.00600933	0.00574002	0.00478037	0.00141215	0.00253261	0.00390697	0.00332330	0.00087211	0.00111906	0.00072860	0.00140853	0.00415039	0.00433699	0.00121675	0.00217889
2.04000000	0.00519117	0.00653881	0.00369236	0.00340025	0.00333913	0.01099673	0.01347745	0.00985359	0.00166650	0.00267143	0.00125814	0.00309394	0.00639636	0.00362705	0.00444559	0.00108802	0.00189191	0.00408897	0.00331421	0.00083288	0.00123435	0.00062629	0.00125425	0.00429913	0.00435252	0.00148920	0.00219258
2.05000000	0.00539553	0.00661606	0.00375484	0.00381103	0.00351520	0.01086654	0.01353873	0.00925757	0.00188383	0.00270443	0.00111018	0.00282946	0.00509706	0.00154742	0.00421353	0.00174951	0.00105334	0.00444912	0.00323471	0.00096133	0.00140358	0.00086248	0.00106555	0.00456164	0.00420783	0.00194470	0.00237435
2.06000000	0.00562057	0.00621320	0.00376784	0.00374731	0.00341402	0.01102836	0.01331040	0.00871978	0.00225314	0.00304811	0.00094163	0.00363090	0.00508385	0.00110043	0.00391715	0.00197934	0.00152508	0.00458224	0.00313550	0.00106704	0.00155382	0.00089807	0.00096699	0.00457558	0.00400902	0.00228764	0.00250054
2.07000000	0.00582462	0.00581151	0.00375888	0.00368363	0.00329728	0.01115050	0.01338792	0.00802064	0.00274672	0.00342192	0.00105746	0.00426437	0.00495602	0.00155993	0.00360727	0.00225233	0.00141653	0.00461713	0.00296502	0.00102973	0.00161879	0.00094694	0.00094333	0.00457660	0.00378526	0.00231726	0.00242651
2.08000000	0.00598915	0.00582948	0.00364454	0.00369384	0.00318412	0.01136158	0.01288499	0.00753147	0.00310723	0.00373323	0.00132819	0.00417705	0.00458770	0.00185769	0.00334946	0.00261439	0.00131329	0.00464085	0.00284479	0.00108658	0.00173843	0.00107706	0.00101346	0.00451735	0.00356238	0.00236587	0.00245386
2.09000000	0.00626311	0.00597190	0.00362900	0.00379086	0.00316918	0.01158363	0.01225660	0.00696118	0.00345361	0.00411543	0.00170064	0.00329850	0.00431522	0.00204226	0.00306790	0.00260187	0.00141563	0.00452312	0.00263524	0.00111717	0.00177176	0.00114343	0.00096788	0.00433747	0.00323533	0.00232884	0.00238209
2.10000000	0.00644763	0.00610291	0.00354986	0.00383111	0.00309882	0.01176904	0.01148657	0.00641158	0.00381246	0.00451837	0.00186122	0.00231954	0.00404023	0.00201499	0.00283950	0.00267633	0.00120304	0.00436643	0.00241137	0.00120647	0.00181844	0.00123705	0.00096269	0.00414044	0.00289712	0.00213775	0.00226082
2.11000000	0.00652909	0.00593887	0.00341598	0.00374376	0.00291401	0.01182915	0.01065088	0.00584321	0.00425618	0.00472472	0.00148667	0.00180433	0.00358353	0.00145874	0.00284714	0.00297283	0.00075014	0.00415256	0.00223114	0.00119474	0.00185629	0.00135809	0.00108394	0.00380939	0.00262230	0.00195293	0.00213851
2.12000000	0.00665885	0.00600006	0.00334982	0.00377035	0.00287026	0.01187862	0.00936272	0.00511675	0.00453189	0.00501304	0.00181644	0.00154445	0.00362924	0.00140597	0.00273521	0.00271380	0.00101357	0.00389112	0.00205322	0.00127848	0.00188484	0.00151470	0.00112760	0.00352388	0.00232203	0.00166202	0.00201713
2.13000000	0.00648499	0.00576000	0.00323904	0.00370790	0.00286078	0.01172147	0.00765833	0.00385063	0.00484469	0.00445474	0.00133519	0.00188963	0.00394549	0.00102880	0.00271485	0.00260496	0.00070830	0.00364210	0.00208224	0.00147099	0.00201611	0.00174238	0.00127937	0.00317702	0.00217493	0.00150262	0.00196579
2.14000000	0.00634812	0.00556642	0.00314561	0.00352325	0.00265365	0.01145326	0.00607541	0.00323690	0.00514034	0.00475691	0.00148056	0.00190843	0.00419578	0.00113427	0.00270381	0.00231234	0.00093137	0.00329895	0.00177166	0.00145319	0.00197100	0.00186909	0.00136068	0.00282636	0.00182299	0.00106245	0.00169280
2.15000000	0.00629129	0.00519848	0.00308528	0.00327371	0.00236775	0.01103521	0.00472996	0.00257048	0.00539663	0.00475234	0.00137173	0.00211773	0.00392487	0.00107084	0.00259426	0.00245222	0.00073166	0.00296412	0.00160020	0.00149954	0.00194030	0.00196640	0.00139747	0.00238459	0.00142658	0.00077603	0.00154980
2.16000000	0.00596372	0.00490661	0.00303433	0.00300319	0.00215555	0.01059750	0.00297287	0.00198711	0.00565096	0.00490155	0.00123173	0.00249975	0.00408317	0.00139640	0.00264156	0.00239828	0.00083632	0.00262359	0.00141445	0.00152093	0.00187633	0.00208334	0.00140345	0.00203030	0.00111809	0.00049419	0.00127772
2.17000000	0.00556599	0.00474904	0.00299383	0.00267573	0.00196311	0.00991623	0.00137201	0.00187020	0.00570776	0.00431395	0.00131818	0.00283656	0.00424631	0.00211386	0.00260156	0.00237267	0.00063184	0.00220819	0.00137635	0.00151295	0.00181647	0.00212962	0.00143154	0.00166796	0.00086778	0.00022637	0.00105261
2.18000000	0.00483685	0.00488846	0.00279524	0.00243218	0.00183080	0.00937468	0.00093422	0.00221262	0.00583335	0.00436261	0.00136153	0.00434800	0.00444525	0.00290984	0.00282717	0.00248253	0.00111198	0.00188340	0.00119270	0.00156636	0.00175190	0.00226646	0.00143025	0.00130224	0.00062308	0.00032569	0.00090458
2.19000000	0.00418586	0.00456743	0.00263569	0.00193892	0.00158706	0.00887108	0.00223977	0.00349519	0.00592164	0.00384300	0.00110686	0.00469885	0.00512764	0.00458297	0.00292377	0.00305212	0.00068484	0.00155774	0.00116194	0.00150140	0.00163809	0.00220448	0.00137799	0.00107008	0.00037515	0.00054770	0.00060694
2.20000000	0.00368755	0.00498430	0.00236923	0.00182767	0.00150272	0.00855170	0.00381575	0.00465159	0.00587322	0.00389210	0.00132209	0.00758653	0.00503252	0.00565891	0.00327809	0.00314949	0.00128597	0.00136448	0.00094337	0.00155274	0.00157345	0.00232383	0.00136386	0.00080985	0.00020508	0.00087097	0.00053803
2.21000000	0.00356629	0.00496881	0.00207716	0.00150924	0.00131573	0.00872632	0.00440773	0.00645156	0.00589530	0.00351305	0.00067502	0.00784128	0.00593557	0.00747021	0.00348621	0.00403965	0.00133741	0.00111597	0.00109016	0.00153650	0.00154152	0.00222995	0.00135379	0.00083518	0.00010647	0.00091204	0.00026472
2.22000000	0.00362519	0.00526190	0.00181517	0.00142894	0.00120113	0.00903914	0.00542409	0.00787304	0.00584778	0.00378905	0.00130158	0.01055978	0.00569165	0.00849710	0.00380239	0.00416050	0.00180740	0.00097970	0.00102432	0.00154432	0.00143138	0.00225465	0.00122853	0.00082489	0.00019331	0.00102865	0.00031477
2.23000000	0.00421471	0.00585841	0.00155993	0.00141413	0.00110901	0.01002571	0.00522586	0.00966251	0.00597372	0.00393783	0.00065816	0.01128905	0.00566564	0.00959095	0.00388248	0.00469064	0.00217644	0.00090471	0.00091420	0.00153473	0.00139726	0.00222298	0.00121708	0.00079789	0.00028138	0.00108220	0.00014408
2.24000000	0.00458211	0.00565592	0.00134261	0.00119717	0.00087982	0.01101161	0.00570588	0.01119395	0.00597309	0.00433378	0.00119946	0.01223462	0.00565012	0.01008671	0.00407701	0.00478986	0.00237513	0.00076168	0.00092114	0.00143861	0.00128809	0.00209831	0.00114042	0.00078087	0.00048866	0.00113550	0.00032697
2.25000000	0.00492897	0.00586005	0.00106040	0.00107838	0.00070131	0.01188935	0.00583723	0.01289979	0.00600778	0.00474905	0.00123738	0.01179746	0.00574683	0.01014978	0.00406098	0.00507030	0.00210446	0.00064778	0.00076637	0.00137949	0.00124518	0.00198207	0.00112590	0.00079473	0.00051413	0.00114702	0.00040080
2.26000000	0.00523063	0.00541699	0.00092064	0.00095328	0.00050426	0.01295274	0.00611321	0.01416784	0.00606720	0.00521868	0.00184688	0.01115778	0.00546219	0.00988848	0.00403525	0.00493424	0.00208949	0.00056489	0.00082066	0.00124198	0.00108794	0.00179240	0.00099414	0.00077556	0.00072555	0.00120035	0.00059769
2.27000000	0.00549098	0.00511295	0.00083222	0.00099780	0.00049170	0.01389101	0.00621249	0.01533593	0.00610940	0.00567554	0.00224834	0.00984685	0.00513164	0.00910523	0.00382224	0.00478685	0.00180079	0.00052135	0.00086415	0.00108547	0.00096727	0.00160522	0.00092661	0.00077432	0.00090648	0.00122545	0.00075672
2.28000000	0.00566632	0.00497591	0.00078525	0.00108541	0.00062471	0.01446888	0.00618881	0.01646589	0.00609785	0.00606795	0.00257747	0.00809580	0.00467950	0.00794004	0.00357468	0.00443749	0.00130483	0.00049773	0.00094836	0.00100168	0.00092356	0.00146657	0.00094753	0.00079638	0.00096407	0.00115717	0.00095719
2.29000000	0.00572772	0.00482329	0.00083326	0.00125847	0.00084793	0.01483520	0.00632692	0.01730346	0.00606039	0.00634231	0.00304382	0.00643185	0.00415908	0.00637125	0.00331741	0.00386130	0.00087995	0.00056182	0.00108102	0.00092246	0.00087337	0.00137141	0.00095940	0.00075914	0.00103972	0.00114000	0.00116332
2.30000000	0.00601342	0.00421978	0.00110911	0.00216948	0.00145339	0.01555477	0.00755214	0.01699770	0.00610650	0.00642925	0.00401929	0.00396270	0.00440403	0.00501100	0.00321134	0.00354144	0.00048846	0.00075148	0.00145845	0.00056923	0.00063477	0.00108777	0.00087419	0.00081330	0.00130882	0.00129036	0.00154222
2.31000000	0.00569173	0.00480889	0.00118250	0.00179405	0.00144322	0.01528073	0.00656888	0.01813350	0.00601038	0.00671177	0.00406205	0.00238673	0.00318450	0.00358078	0.00274205	0.00276363	0.00099280	0.00071638	0.00155799	0.00075932	0.00079085	0.00120565	0.00103529	0.00070021	0.00138537	0.00111132	0.00162556
2.32000000	0.00545536	0.00463415	0.00144012	0.00252427	0.00192824	0.01547280	0.00745588	0.01779282	0.00611391	0.00662538	0.00445431	0.00113573	0.00324703	0.00253755	0.00275568	0.00260992	0.00140480	0.00089094	0.00184234	0.00070592	0.00073218	0.00115582	0.00106700	0.00092914	0.00175731	0.00109812	0.00182369
2.33000000	0.00518719	0.00497114	0.00160228	0.00280217	0.00218735	0.01519433	0.00755814	0.01785449	0.00613060	0.00661317	0.00463335	0.00240879	0.00293361	0.00229207	0.00264823	0.00251143	0.00196633	0.00108755	0.00203523	0.00072318	0.00077866	0.00122433	0.00124994	0.00089023	0.00197372	0.00114665	0.00197979
2.34000000	0.00525005	0.00573152	0.00154817	0.00236466	0.00202066	0.01439793	0.00766494	0.01806043	0.00584016	0.00661363	0.00492478	0.00248423	0.00192068	0.00360176	0.00253135	0.00239873	0.00235605	0.00112383	0.00222741	0.00083334	0.00084729	0.00123300	0.00127355	0.00069226	0.00189978	0.00109026	0.00227295
2.35000000	0.00502804	0.00593264	0.00175716	0.00285416	0.00232504	0.01417925	0.00868883	0.01743296	0.00577029	0.00621910	0.00474444	0.00383804	0.00214367	0.00379968	0.00259347	0.00269058	0.00247100	0.00125233	0.00253545	0.00090582	0.00084934	0.00130872	0.00126308	0.00078210	0.00228942	0.00117478	0.00244630
2.36000000	0.00473762	0.00613580	0.00181548	0.00300549	0.00243302	0.01369730	0.00912074	0.01714961	0.00580485	0.00604814	0.00452954	0.00452326	0.00207022	0.00407313	0.00260773	0.00307193	0.00264579	0.00133550	0.00268980	0.00103761	0.00094047	0.00136856	0.00131719	0.00083212	0.00241310	0.00121499	0.00267485
2.37000000	0.00500557	0.00600232	0.00178011	0.00265656	0.00228704	0.01289713	0.00907405	0.01732375	0.00563397	0.00602224	0.00458851	0.00453830	0.00184760	0.00482980	0.00231671	0.00304776	0.00288189	0.00136378	0.00275540	0.00110280	0.00104729	0.00141252	0.00144918	0.00077431	0.00245098	0.00114179	0.00282183
2.38000000	0.00481250	0.00601625	0.00188895	0.00273127	0.00231352	0.01254862	0.00999099	0.01685727	0.00552487	0.00574639	0.00414712	0.00390535	0.00188853	0.00456388	0.00233788	0.00340787	0.00292341	0.00144667	0.00295356	0.00118249	0.00105897	0.00139663	0.00142322	0.00080018	0.00262048	0.00125884	0.00302897
2.39000000	0.00511620	0.00563560	0.00189246	0.00246498	0.00220616	0.01210208	0.01017978	0.01689584	0.00546986	0.00577440	0.00406064	0.00326313	0.00191486	0.00446419	0.00208368	0.00338226	0.00292297	0.00145962	0.00300246	0.00123597	0.00114696	0.00145290	0.00153285	0.00078876	0.00264672	0.00121367	0.00314847
2.40000000	0.00501008	0.00539610	0.00200849	0.00234337	0.00213214	0.01193099	0.01099812	0.01661520	0.00537495	0.00559031	0.00360634	0.00183884	0.00198891	0.00392119	0.00205590	0.00370165	0.00292743	0.00145086	0.00311900	0.00128772	0.00116554	0.00141152	0.00154784	0.00076120	0.00278473	0.00128246	0.00328579
2.41000000	0.00512827	0.00505682	0.00210466	0.00215928	0.00205146	0.01182003	0.01159095	0.01646434	0.00533899	0.00556233	0.00331145	0.00070368	0.00213489	0.00342400	0.00193150	0.00383143	0.00291924	0.00144025	0.00324354	0.00130084	0.00116022	0.00139718	0.00156290	0.00077945	0.00281525	0.00129882	0.00342860
2.42000000	0.00534685	0.00392807	0.00226468	0.00225591	0.00208244	0.01151681	0.01190377	0.01658020	0.00542157	0.00583207	0.00354621	0.00055354	0.00326866	0.00309582	0.00134030	0.00294376	0.00230704	0.00151919	0.00318373	0.00125961	0.00120898	0.00143360	0.00167921	0.00081293	0.00285214	0.00135806	0.00343967
2.43000000	0.00548241	0.00367580	0.00241654	0.00205416	0.00200195	0.01160310	0.01251236	0.01640666	0.00547704	0.00584545	0.00317704	0.00144490	0.00336968	0.00286576	0.00133239	0.00313031	0.00239938	0.00145820	0.00326579	0.00132320	0.00121927	0.00141840	0.00170082	0.00080734	0.00289899	0.00139219	0.00346590
2.44000000	0.00589409	0.00326887	0.00245408	0.00207572	0.00200492	0.01152805	0.01275530	0.01647265	0.00559037	0.00607080	0.00330011	0.00175157	0.00376090	0.00324868	0.00105907	0.00278296	0.00190397	0.00140643	0.00332269	0.00131112	0.00122361	0.00148025	0.00173348	0.00086876	0.00289465	0.00140052	0.00347754
2.45000000	0.00590287	0.00292840	0.00258639	0.00215166	0.00199813	0.01167802	0.01325001	0.01632534	0.00572856	0.00609413	0.00321480	0.00251396	0.00429092	0.00349226	0.00107501	0.00269433	0.00164671	0.00135423	0.00334956	0.00128957	0.00120757	0.00146841	0.00179266	0.00088716	0.00291075	0.00143032	0.00345543
2.46000000	0.00614644	0.00267568	0.00272237	0.00203608	0.00196475	0.01190602	0.01350001	0.01629787	0.00596819	0.00613639	0.00317520	0.00367668	0.00444512	0.00361980	0.00119596	0.00274371	0.00186689	0.00124489	0.00333339	0.00128349	0.00121879	0.00148181	0.00189420	0.00085324	0.00291150	0.00141304	0.00336082
2.47000000	0.00643534	0.00259872	0.00279567	0.00197437	0.00193614	0.01218120	0.01362086	0.01631354	0.00617796	0.00618075	0.00327777	0.00439484	0.00458958	0.00377630	0.00132042	0.00272880	0.00199438	0.00122149	0.00334950	0.00122566	0.00120395	0.00151710	0.00205828	0.00084362	0.00285795	0.00139838	0.00326668
2.48000000	0.00663708	0.00284664	0.00276559	0.00207603	0.00192513	0.01247142	0.01357997	0.01636301	0.00637777	0.00620739	0.00351701	0.00461730	0.00454764	0.00407780	0.00138448	0.00283687	0.00176303	0.00109041	0.00341947	0.00123130	0.00116156	0.00156721	0.00205826	0.00080637	0.00274766	0.00144310	0.00322633
2.49000000	0.00679302	0.00333808	0.00274070	0.00234491	0.00196798	0.01268940	0.01341217	0.01654225	0.00652550	0.00617906	0.00374841	0.00454125	0.00453260	0.00440504	0.00148557	0.00285823	0.00139976	0.00105744	0.00346942	0.00115416	0.00110004	0.00157712	0.00218536	0.00085346	0.00271060	0.00145310	0.00314288
2.50000000	0.00701479	0.00333455	0.00278985	0.00234219	0.00195291	0.01330370	0.01312892	0.01675513	0.00680851	0.00621358	0.00405462	0.00432285	0.00483924	0.00445630	0.00154268	0.00274650	0.00156298	0.00095505	0.00344880	0.00115517	0.00109426	0.00164707	0.00224207	0.00083134	0.00267255	0.00144116	0.00288820
2.51000000	0.00709253	0.00377077	0.00279863	0.00256213	0.00200923	0.01385105	0.01276253	0.01705189	0.00692924	0.00614539	0.00434784	0.00406220	0.00481302	0.00467490	0.00157919	0.00292495	0.00135197	0.00085380	0.00350005	0.00108063	0.00100143	0.00164053	0.00224688	0.00077165	0.00257495	0.00148738	0.00276459
2.52000000	0.00724092	0.00462305	0.00283657	0.00289049	0.00211870	0.01429474	0.01233328	0.01741830	0.00695489	0.00602746	0.00450410	0.00381719	0.00472606	0.00477892	0.00167458	0.00305332	0.00117797	0.00084530	0.00353745	0.00102188	0.00092900	0.00164424	0.00242098	0.00088375	0.00253927	0.00148078	0.00268247
2.53000000	0.00741333	0.00501202	0.00291914	0.00301175	0.00218156	0.01508159	0.01174860	0.01784172	0.00702826	0.00601354	0.00469065	0.00351528	0.00489565	0.00490105	0.00174878	0.00317527	0.00122465	0.00077411	0.00351632	0.00097645	0.00086725	0.00164757	0.00245848	0.00084741	0.00243160	0.00149842	0.00249903
2.54000000	0.00767930	0.00573972	0.00300214	0.00317985	0.00224689	0.01584221	0.01119655	0.01815873	0.00698464	0.00590440	0.00467965	0.00364270	0.00482362	0.00496584	0.00183615	0.00326009	0.00150535	0.00075494	0.00354556	0.00093206	0.00079113	0.00166187	0.00259848	0.00099239	0.00248572	0.00146435	0.00231565
2.55000000	0.00784159	0.00621907	0.00307779	0.00320092	0.00226616	0.01653615	0.01044891	0.01866855	0.00684055	0.00588175	0.00475794	0.00356451	0.00507294	0.00515169	0.00187905	0.00344058	0.00142563	0.00073006	0.00355045	0.00088671	0.00071560	0.00169638	0.00265718	0.00087234	0.00231392	0.00153524	0.00222016
2.56000000	0.00777188	0.00627281	0.00316731	0.00306238	0.00221515	0.01737150	0.00957954	0.01909302	0.00674724	0.00592420	0.00469193	0.00353579	0.00579048	0.00538862	0.00194235	0.00354877	0.00156661	0.00065702	0.00348519	0.00087690	0.00065667	0.00173015	0.00266375	0.00086122	0.00222898	0.00150743	0.00197704
2.57000000	0.00810172	0.00698238	0.00330044	0.00317727	0.00225915	0.01759661	0.00896951	0.01910795	0.00641392	0.00581055	0.00453184	0.00385510	0.00571115	0.00589761	0.00208434	0.00376523	0.00161589	0.00071862	0.00348513	0.00081998	0.00058176	0.00171597	0.00282813	0.00094720	0.00217382	0.00153871	0.00190757
2.58000000	0.00790192	0.00701757	0.00342626	0.00286884	0.00218334	0.01798140	0.00811036	0.01909955	0.00616201	0.00574251	0.00429138	0.00425301	0.00639995	0.00623542	0.00215440	0.00391964	0.00166796	0.00065057	0.00339559	0.00083400	0.00053205	0.00177370	0.00285293	0.00083088	0.00199687	0.00156502	0.00174885
2.59000000	0.00811194	0.00752906	0.00357345	0.00282965	0.00218439	0.01768384	0.00755632	0.01850576	0.00576184	0.00548752	0.00395637	0.00481582	0.00639484	0.00693023	0.00229646	0.00408708	0.00176354	0.00077380	0.00343127	0.00083003	0.00045471	0.00181334	0.00293510	0.00094876	0.00199926	0.00158249	0.00165590
2.60000000	0.00760272	0.00738642	0.00373409	0.00227790	0.00213828	0.01742028	0.00664253	0.01790889	0.00549297	0.00525708	0.00359596	0.00545811	0.00722970	0.00722435	0.00235487	0.00422787	0.00183239	0.00071469	0.00331042	0.00090474	0.00043689	0.00190185	0.00302737	0.00093131	0.00191323	0.00154481	0.00146266
2.61000000	0.00777937	0.00775836	0.00393742	0.00225999	0.00219596	0.01639659	0.00635233	0.01635062	0.00502561	0.00479014	0.00324141	0.00604711	0.00701276	0.00813935	0.00258332	0.00446753	0.00192106	0.00082783	0.00336013	0.00078127	0.00035904	0.00183525	0.00310019	0.00101416	0.00189548	0.00161889	0.00146200
2.62000000	0.00709577	0.00765525	0.00418561	0.00171629	0.00236473	0.01526604	0.00566801	0.01501936	0.00464590	0.00440053	0.00300396	0.00672960	0.00758044	0.00844447	0.00266499	0.00460007	0.00193098	0.00079098	0.00325406	0.00084312	0.00030738	0.00188910	0.00308695	0.00094121	0.00173817	0.00161395	0.00134507
2.63000000	0.00650432	0.00769404	0.00444598	0.00134708	0.00258742	0.01380228	0.00534808	0.01319350	0.00422003	0.00380607	0.00271030	0.00718665	0.00782780	0.00887724	0.00273302	0.00478264	0.00187491	0.00085171	0.00320481	0.00082635	0.00026046	0.00187625	0.00308513	0.00087042	0.00168668	0.00169744	0.00120848
2.64000000	0.00672122	0.00788995	0.00453933	0.00135677	0.00269578	0.01251370	0.00478539	0.01022635	0.00399443	0.00296598	0.00207813	0.00760496	0.00774617	0.00935219	0.00278133	0.00481573	0.00200570	0.00100926	0.00330084	0.00061607	0.00030484	0.00168585	0.00311724	0.00108595	0.00176289	0.00169120	0.00129265
2.65000000	0.00590464	0.00767314	0.00484212	0.00113131	0.00309948	0.01095225	0.00426166	0.00851761	0.00364867	0.00238671	0.00201402	0.00777137	0.00812761	0.00926795	0.00281339	0.00491933	0.00208302	0.00094023	0.00310334	0.00065526	0.00028564	0.00164224	0.00315200	0.00108258	0.00162171	0.00163628	0.00114123
2.66000000	0.00525052	0.00769225	0.00508057	0.00130973	0.00341687	0.00967770	0.00415226	0.00669253	0.00319933	0.00174960	0.00178527	0.00768147	0.00830486	0.00916030	0.00276466	0.00499223	0.00206333	0.00107097	0.00304558	0.00059155	0.00025242	0.00150737	0.00299780	0.00101034	0.00148871	0.00171632	0.00109042
2.67000000	0.00478544	0.00768494	0.00524309	0.00157474	0.00366243	0.00912183	0.00393166	0.00515138	0.00286120	0.00110340	0.00152138	0.00756695	0.00841727	0.00881120	0.00270973	0.00504523	0.00216641	0.00119654	0.00296994	0.00043107	0.00027121	0.00126175	0.00288499	0.00102552	0.00135533	0.00177286	0.00108737
2.68000000	0.00459346	0.00771394	0.00538459	0.00193445	0.00394347	0.00924704	0.00364438	0.00454891	0.00251503	0.00079836	0.00179144	0.00725368	0.00846797	0.00837704	0.00256747	0.00501162	0.00226439	0.00128943	0.00286203	0.00047283	0.00032497	0.00111048	0.00281572	0.00106542	0.00137080	0.00177885	0.00093468
2.69000000	0.00490967	0.00786313	0.00518694	0.00204946	0.00391318	0.00951512	0.00353889	0.00493768	0.00231337	0.00154076	0.00045652	0.00768592	0.00704951	0.00747130	0.00255347	0.00506441	0.00279574	0.00152826	0.00290700	0.00063620	0.00044795	0.00089962	0.00265714	0.00123639	0.00137184	0.00182326	0.00097541
2.70000000	0.00470747	0.00785626	0.00525466	0.00233913	0.00410444	0.01017138	0.00348109	0.00602047	0.00196358	0.00174254	0.00038106	0.00768058	0.00666026	0.00643036	0.00254062	0.00513431	0.00320620	0.00162064	0.00282043	0.00083836	0.00047759	0.00085840	0.00244988	0.00122089	0.00131231	0.00182245	0.00089332
2.71000000	0.00459482	0.00816714	0.00515900	0.00267451	0.00421989	0.01105778	0.00346865	0.00654732	0.00150169	0.00130592	0.00081468	0.00750240	0.00661555	0.00582002	0.00235747	0.00485573	0.00329348	0.00177103	0.00265549	0.00107618	0.00051060	0.00090834	0.00220495	0.00119756	0.00117338	0.00185242	0.00077142
2.72000000	0.00413006	0.00799137	0.00527571	0.00281218	0.00435767	0.01184351	0.00307503	0.00697298	0.00124949	0.00104009	0.00108994	0.00782568	0.00674846	0.00473516	0.00237297	0.00514290	0.00321329	0.00191604	0.00230112	0.00125966	0.00049018	0.00099166	0.00200798	0.00116958	0.00080221	0.00186672	0.00067466
2.73000000	0.00393214	0.00802045	0.00513324	0.00285536	0.00432242	0.01185705	0.00315900	0.00751356	0.00121511	0.00164813	0.00124720	0.00792578	0.00541598	0.00355218	0.00263407	0.00527907	0.00367655	0.00208868	0.00214958	0.00158219	0.00057749	0.00130572	0.00184283	0.00128453	0.00070500	0.00182211	0.00055028
2.74000000	0.00411715	0.00835832	0.00497986	0.00316769	0.00440108	0.01211864	0.00288239	0.00681113	0.00117917	0.00108852	0.00128435	0.00836832	0.00494786	0.00320452	0.00284142	0.00489346	0.00430848	0.00215617	0.00175603	0.00173790	0.00046506	0.00150296	0.00149255	0.00142819	0.00077481	0.00158942	0.00032506
2.75000000	0.00287598	0.00784385	0.00510210	0.00293151	0.00435167	0.01189321	0.00238402	0.00679424	0.00151633	0.00120911	0.00193641	0.00852047	0.00510731	0.00216612	0.00280140	0.00529593	0.00396382	0.00234382	0.00157951	0.00198601	0.00059482	0.00173282	0.00138217	0.00122376	0.00030180	0.00171030	0.00016835
2.76000000	0.00258272	0.00767712	0.00504436	0.00298221	0.00434484	0.01151404	0.00232784	0.00597014	0.00195209	0.00091244	0.00225648	0.00889270	0.00475713	0.00175127	0.00307417	0.00531658	0.00409295	0.00246044	0.00124141	0.00214479	0.00058455	0.00192717	0.00127128	0.00118004	0.00024166	0.00164149	0.00006735
2.77000000	0.00220358	0.00748303	0.00494304	0.00295187	0.00426824	0.01070719	0.00200842	0.00560306	0.00239585	0.00121761	0.00258708	0.00900979	0.00437708	0.00164541	0.00332369	0.00538473	0.00413755	0.00257455	0.00101283	0.00231281	0.00066422	0.00213792	0.00132907	0.00108172	0.00053712	0.00161125	0.00044303
2.78000000	0.00216784	0.00740510	0.00472152	0.00287254	0.00411171	0.01021517	0.00234553	0.00450933	0.00292786	0.00116381	0.00243622	0.00928303	0.00401683	0.00186806	0.00362455	0.00521785	0.00414319	0.00283917	0.00073447	0.00249182	0.00061011	0.00233989	0.00139099	0.00119926	0.00090498	0.00152406	0.00062980
2.79000000	0.00217898	0.00720978	0.00455246	0.00276365	0.00395648	0.00960149	0.00259543	0.00371827	0.00327274	0.00150623	0.00243113	0.00944537	0.00393011	0.00220175	0.00389038	0.00504125	0.00428817	0.00302160	0.00086173	0.00263687	0.00068086	0.00250034	0.00169860	0.00113936	0.00121698	0.00151230	0.00091383
2.80000000	0.00204775	0.00669837	0.00461594	0.00279942	0.00396300	0.00862061	0.00267683	0.00370753	0.00350643	0.00196187	0.00275066	0.00972246	0.00376697	0.00245721	0.00405775	0.00521989	0.00423915	0.00308659	0.00116173	0.00267068	0.00072538	0.00255624	0.00196497	0.00102749	0.00165308	0.00134923	0.00110330
2.81000000	0.00197847	0.00622639	0.00451148	0.00279821	0.00385088	0.00741860	0.00308796	0.00406890	0.00373569	0.00240266	0.00265912	0.00957919	0.00359101	0.00303858	0.00433872	0.00539302	0.00432030	0.00321980	0.00147261	0.00277809	0.00078165	0.00268004	0.00225608	0.00103383	0.00192391	0.00122188	0.00140316
2.82000000	0.00248360	0.00611701	0.00425334	0.00271356	0.00365119	0.00685825	0.00354044	0.00393265	0.00374049	0.00286553	0.00229904	0.00966191	0.00345465	0.00342484	0.00477355	0.00506183	0.00435548	0.00342827	0.00180485	0.00291556	0.00090227	0.00278694	0.00268280	0.00115212	0.00209940	0.00112013	0.00170828
2.83000000	0.00248178	0.00570851	0.00417503	0.00261545	0.00351385	0.00618905	0.00403144	0.00413961	0.00368529	0.00303784	0.00210997	0.00993941	0.00311906	0.00370197	0.00486366	0.00504007	0.00430018	0.00356958	0.00215933	0.00295845	0.00096095	0.00285730	0.00305251	0.00109042	0.00239404	0.00113159	0.00193465
2.84000000	0.00243773	0.00521672	0.00420813	0.00265784	0.00348885	0.00524015	0.00440939	0.00463567	0.00356629	0.00325490	0.00191361	0.01004241	0.00306094	0.00413118	0.00496572	0.00503811	0.00421369	0.00367372	0.00248666	0.00296900	0.00100371	0.00284758	0.00330112	0.00106358	0.00267810	0.00101412	0.00210955
2.85000000	0.00237805	0.00476812	0.00414994	0.00265421	0.00339889	0.00416427	0.00475841	0.00498170	0.00329726	0.00357390	0.00192850	0.00995615	0.00305378	0.00443022	0.00527054	0.00486425	0.00408803	0.00378014	0.00272227	0.00297674	0.00104291	0.00283968	0.00361133	0.00113339	0.00281604	0.00103337	0.00234662
2.86000000	0.00215848	0.00425577	0.00412821	0.00265486	0.00332011	0.00290417	0.00515167	0.00522634	0.00316732	0.00367939	0.00212160	0.00980140	0.00304077	0.00474197	0.00554646	0.00469235	0.00389109	0.00387698	0.00288513	0.00303238	0.00114267	0.00283382	0.00391614	0.00123188	0.00285101	0.00098625	0.00242910
2.87000000	0.00183245	0.00375307	0.00414501	0.00265007	0.00326527	0.00153113	0.00563985	0.00525347	0.00309133	0.00367838	0.00241720	0.00958659	0.00296200	0.00502201	0.00567269	0.00451264	0.00377131	0.00396207	0.00301111	0.00302300	0.00112688	0.00280554	0.00406315	0.00138694	0.00290682	0.00096566	0.00251030
2.88000000	0.00258103	0.00371546	0.00441599	0.00286310	0.00355136	0.00219597	0.00504602	0.00342276	0.00208208	0.00365878	0.00104988	0.00946352	0.00256579	0.00537852	0.00545484	0.00448566	0.00340782	0.00392589	0.00332754	0.00280701	0.00128213	0.00245590	0.00426921	0.00106708	0.00314246	0.00095656	0.00257192
2.89000000	0.00211396	0.00321662	0.00434140	0.00280268	0.00345547	0.00077728	0.00543516	0.00325163	0.00209907	0.00331160	0.00134812	0.00918044	0.00243419	0.00560264	0.00560193	0.00422017	0.00319592	0.00396992	0.00338348	0.00276622	0.00127159	0.00242049	0.00431294	0.00124347	0.00310064	0.00102748	0.00258509
2.90000000	0.00233040	0.00319637	0.00444540	0.00274335	0.00347602	0.00060886	0.00501016	0.00245350	0.00177090	0.00356510	0.00117376	0.00906683	0.00229415	0.00583012	0.00561314	0.00387215	0.00274537	0.00395682	0.00341148	0.00270917	0.00136904	0.00229653	0.00449725	0.00128496	0.00298017	0.00112542	0.00255929
2.91000000	0.00197576	0.00293191	0.00430639	0.00269889	0.00339633	0.00078664	0.00531798	0.00205028	0.00175090	0.00324790	0.00129817	0.00873475	0.00254871	0.00610819	0.00570239	0.00361422	0.00252137	0.00389971	0.00334709	0.00265750	0.00137624	0.00223468	0.00441863	0.00140475	0.00288584	0.00126673	0.00237965
2.92000000	0.00174924	0.00277386	0.00421987	0.00269142	0.00336426	0.00087379	0.00529421	0.00179190	0.00175289	0.00304626	0.00119594	0.00842339	0.00303256	0.00647259	0.00570078	0.00342388	0.00230636	0.00375915	0.00322697	0.00259972	0.00143429	0.00214171	0.00437114	0.00147680	0.00258915	0.00127770	0.00228362
2.93000000	0.00189490	0.00295677	0.00406157	0.00254011	0.00323663	0.00051582	0.00479593	0.00175069	0.00164819	0.00299449	0.00116037	0.00811248	0.00346968	0.00693938	0.00570304	0.00355931	0.00167447	0.00366421	0.00312460	0.00255534	0.00147868	0.00208866	0.00436334	0.00158170	0.00229454	0.00145894	0.00217329
2.94000000	0.00188781	0.00299249	0.00379608	0.00241997	0.00309276	0.00055050	0.00459749	0.00171916	0.00152034	0.00296945	0.00091085	0.00784249	0.00428861	0.00753209	0.00557067	0.00344547	0.00173604	0.00347598	0.00301423	0.00247589	0.00152976	0.00205772	0.00423193	0.00169973	0.00206523	0.00155608	0.00197337
2.95000000	0.00207163	0.00303599	0.00346612	0.00231790	0.00291923	0.00201565	0.00435813	0.00178984	0.00148728	0.00296964	0.00076424	0.00760445	0.00516460	0.00827745	0.00549845	0.00355251	0.00176352	0.00332536	0.00288103	0.00242089	0.00149980	0.00200371	0.00402645	0.00185273	0.00178648	0.00171562	0.00172329
2.96000000	0.00198098	0.00314803	0.00310240	0.00211903	0.00265821	0.00275689	0.00429407	0.00284464	0.00185260	0.00257736	0.00073196	0.00736208	0.00587367	0.00924475	0.00530422	0.00417785	0.00090284	0.00308402	0.00260962	0.00237478	0.00156161	0.00202449	0.00395569	0.00193749	0.00140556	0.00191007	0.00151494
2.97000000	0.00232074	0.00306131	0.00266362	0.00203643	0.00244754	0.00484128	0.00429010	0.00303153	0.00187511	0.00278619	0.00037549	0.00751710	0.00699987	0.01014186	0.00512373	0.00434669	0.00172101	0.00281620	0.00248965	0.00229707	0.00159358	0.00200659	0.00375973	0.00202860	0.00117273	0.00200395	0.00126329
2.98000000	0.00281989	0.00352177	0.00224696	0.00183709	0.00217020	0.00621271	0.00432926	0.00404267	0.00210925	0.00288234	0.00068875	0.00771849	0.00728721	0.01149768	0.00492227	0.00506570	0.00083053	0.00260323	0.00239043	0.00221276	0.00163364	0.00208148	0.00361648	0.00211779	0.00092558	0.00220170	0.00110882
2.99000000	0.00308345	0.00355071	0.00180150	0.00179290	0.00193364	0.00761104	0.00455555	0.00500562	0.00231017	0.00309397	0.00091081	0.00804754	0.00796265	0.01290070	0.00471649	0.00556769	0.00095341	0.00232872	0.00221079	0.00218727	0.00169011	0.00211486	0.00341306	0.00219451	0.00066092	0.00225537	0.00088865
3.00000000	0.00326224	0.00352743	0.00136166	0.00174986	0.00168541	0.00910673	0.00469802	0.00583816	0.00238963	0.00330428	0.00109165	0.00890238	0.00875378	0.01411443	0.00456135	0.00590177	0.00137406	0.00210462	0.00211974	0.00216808	0.00167743	0.00218774	0.00316283	0.00224774	0.00049931	0.00239183	0.00069920
3.01000000	0.00349408	0.00315631	0.00104658	0.00189466	0.00154394	0.00947242	0.00496378	0.00717643	0.00269263	0.00355103	0.00140849	0.00885452	0.00954122	0.01590579	0.00429520	0.00660333	0.00107933	0.00175608	0.00190534	0.00207675	0.00170908	0.00217063	0.00295070	0.00217831	0.00023353	0.00242875	0.00040107
3.02000000	0.00381096	0.00348226	0.00098026	0.00193419	0.00144419	0.01026848	0.00493020	0.00813120	0.00259789	0.00368543	0.00154634	0.01011387	0.00997967	0.01711856	0.00421040	0.00686734	0.00125032	0.00157600	0.00173710	0.00207137	0.00171212	0.00221021	0.00281572	0.00222649	0.00009840	0.00248424	0.00033153
3.03000000	0.00409670	0.00372589	0.00112830	0.00203442	0.00144980	0.01067084	0.00489121	0.00897105	0.00244462	0.00376156	0.00163472	0.01119772	0.01028393	0.01844786	0.00414939	0.00720751	0.00128145	0.00141925	0.00167821	0.00202902	0.00167806	0.00228263	0.00258300	0.00224564	0.00015707	0.00252338	0.00009729
3.04000000	0.00439720	0.00388667	0.00140858	0.00218801	0.00154923	0.01070675	0.00480699	0.00973064	0.00222839	0.00379925	0.00173411	0.01215990	0.01071884	0.01966092	0.00400300	0.00747393	0.00143888	0.00122373	0.00162828	0.00203998	0.00164511	0.00232330	0.00233028	0.00214718	0.00028772	0.00257504	0.00012963
3.05000000	0.00460659	0.00382932	0.00161100	0.00223370	0.00158164	0.01068493	0.00470323	0.01003389	0.00191162	0.00366791	0.00157660	0.01250992	0.01091908	0.02115256	0.00398032	0.00781591	0.00161095	0.00105778	0.00146275	0.00191800	0.00163692	0.00232723	0.00234091	0.00212246	0.00030803	0.00247872	0.00026198
3.06000000	0.00467972	0.00380926	0.00191891	0.00234532	0.00172851	0.01051093	0.00457710	0.01019059	0.00158385	0.00350074	0.00145881	0.01302327	0.01126910	0.02219523	0.00392667	0.00811915	0.00185438	0.00092536	0.00134806	0.00180332	0.00159498	0.00233250	0.00222256	0.00203895	0.00034417	0.00244102	0.00037796
3.07000000	0.00424260	0.00370782	0.00262105	0.00256125	0.00212803	0.00993526	0.00458016	0.01058682	0.00133746	0.00335569	0.00173448	0.01417975	0.01214505	0.02241939	0.00413754	0.00797569	0.00255785	0.00090420	0.00118428	0.00180219	0.00141849	0.00232054	0.00202364	0.00210358	0.00060533	0.00244898	0.00049108
3.08000000	0.00479644	0.00378179	0.00245277	0.00250502	0.00201810	0.00973024	0.00418949	0.01001344	0.00127867	0.00305379	0.00102957	0.01393227	0.01191207	0.02365166	0.00408234	0.00839544	0.00235019	0.00074258	0.00110302	0.00163259	0.00143653	0.00230887	0.00203805	0.00189700	0.00048306	0.00233940	0.00055970
3.09000000	0.00473649	0.00390938	0.00279059	0.00263838	0.00225397	0.00879472	0.00409744	0.01002547	0.00150361	0.00292323	0.00116343	0.01437986	0.01221592	0.02402736	0.00422154	0.00849120	0.00271824	0.00070738	0.00094265	0.00157253	0.00132427	0.00231667	0.00192710	0.00183288	0.00057477	0.00231607	0.00064411
3.10000000	0.00490165	0.00441872	0.00363543	0.00324906	0.00286100	0.00777907	0.00422480	0.01019187	0.00203153	0.00285302	0.00124565	0.01483836	0.01381116	0.02349672	0.00440920	0.00799225	0.00348666	0.00078653	0.00052377	0.00162153	0.00105404	0.00221905	0.00197092	0.00184264	0.00083906	0.00241613	0.00089989
