TVC12_2_JMP_06_shoulder_elbow_joint_personalization_task_1_initialErrors.sto
version=1
nRows=271
nColumns=28
inDegrees=no
endheader
time	R_Asis	L_Asis	R_Psis	L_Psis	Sacral	R_Thigh_Lateral	R_Knee_Lateral	R_Shank_Lateral	R_Ankle_Lateral	R_Heel	R_Toe	L_Thigh_Lateral	L_Knee_Lateral	L_Shank_Lateral	L_Ankle_Lateral	L_Heel	L_Toe	R_Shoulder	L_Shoulder	C7	J_Notch	Thoracic	Sternum	R_Elbow	L_Elbow	R_Wrist	L_Wrist
0.40000000	0.00504772	0.01071067	0.00185843	0.00588299	0.00362635	0.01148275	0.01347364	0.01510417	0.00232764	0.00330483	0.00161556	0.02159875	0.00775610	0.01689116	0.00373769	0.00429733	0.00477406	0.00203755	0.00334999	0.00368723	0.00172923	0.00340495	0.00355099	0.00193588	0.00311821	0.00342433	0.00103860
0.41000000	0.00501754	0.01084197	0.00185900	0.00567292	0.00359492	0.01158406	0.01416472	0.01504440	0.00234978	0.00307121	0.00194480	0.02144906	0.00734807	0.01701020	0.00399954	0.00453402	0.00509838	0.00197662	0.00342985	0.00335618	0.00165377	0.00307818	0.00353426	0.00194227	0.00324946	0.00329951	0.00107463
0.42000000	0.00485744	0.01050061	0.00182684	0.00531827	0.00345810	0.01153303	0.01475871	0.01507033	0.00227630	0.00280752	0.00238371	0.02065620	0.00664840	0.01715197	0.00425052	0.00472875	0.00527547	0.00182014	0.00339504	0.00308261	0.00168870	0.00269530	0.00372913	0.00187279	0.00336576	0.00306026	0.00125207
0.43000000	0.00474584	0.01100875	0.00181430	0.00494911	0.00333097	0.01144350	0.01489774	0.01503295	0.00216609	0.00303287	0.00193919	0.01921027	0.00706773	0.01612180	0.00453875	0.00496484	0.00540735	0.00187209	0.00359159	0.00275762	0.00152654	0.00240716	0.00354294	0.00167943	0.00362191	0.00296926	0.00139948
0.44000000	0.00453163	0.01036956	0.00165004	0.00435652	0.00296874	0.01121741	0.01527084	0.01492891	0.00195664	0.00297099	0.00226079	0.01731233	0.00645264	0.01569359	0.00447207	0.00512820	0.00542367	0.00183181	0.00355446	0.00238090	0.00150589	0.00204318	0.00364377	0.00182303	0.00372657	0.00267047	0.00161365
0.45000000	0.00439380	0.01078127	0.00171359	0.00411943	0.00293407	0.01097715	0.01496765	0.01473899	0.00162369	0.00327348	0.00147835	0.01574643	0.00635177	0.01387159	0.00444152	0.00484047	0.00509563	0.00191938	0.00383277	0.00218463	0.00126158	0.00189626	0.00335439	0.00167778	0.00405940	0.00248749	0.00173060
0.46000000	0.00422204	0.01039684	0.00164774	0.00370164	0.00270921	0.01077683	0.01496488	0.01448664	0.00133816	0.00318482	0.00133237	0.01308564	0.00628608	0.01246763	0.00417978	0.00511137	0.00466754	0.00205465	0.00386325	0.00195055	0.00117945	0.00174883	0.00332886	0.00176810	0.00423950	0.00218296	0.00184920
0.47000000	0.00418462	0.01033740	0.00180336	0.00371944	0.00281965	0.01058333	0.01477506	0.01391329	0.00095259	0.00318309	0.00123365	0.01182947	0.00519828	0.01037715	0.00367621	0.00398124	0.00413092	0.00223796	0.00402287	0.00186212	0.00096291	0.00164182	0.00314995	0.00188977	0.00448129	0.00187929	0.00209437
0.48000000	0.00429083	0.00974072	0.00172140	0.00329554	0.00254686	0.01041708	0.01504432	0.01322876	0.00060291	0.00306399	0.00119128	0.00891531	0.00549621	0.00882888	0.00329087	0.00414024	0.00350197	0.00241809	0.00403939	0.00164442	0.00081165	0.00165188	0.00297401	0.00202936	0.00459397	0.00159406	0.00215628
0.49000000	0.00432755	0.00949813	0.00183492	0.00351952	0.00270606	0.01027563	0.01474909	0.01246220	0.00030423	0.00288112	0.00119312	0.00841152	0.00419846	0.00662912	0.00288074	0.00262804	0.00256489	0.00275690	0.00400949	0.00163408	0.00066538	0.00151142	0.00287867	0.00229099	0.00469524	0.00123110	0.00238691
0.50000000	0.00460614	0.00889437	0.00180687	0.00338267	0.00256230	0.01021663	0.01463297	0.01163383	0.00057720	0.00278381	0.00119407	0.00670700	0.00416579	0.00515694	0.00251808	0.00241332	0.00204740	0.00297611	0.00395113	0.00151515	0.00048327	0.00154536	0.00261275	0.00242246	0.00469945	0.00097425	0.00245273
0.51000000	0.00461873	0.00863536	0.00171402	0.00308952	0.00226546	0.01015032	0.01439711	0.01077357	0.00132343	0.00316245	0.00088754	0.00528744	0.00427739	0.00411794	0.00256548	0.00204809	0.00194541	0.00308241	0.00367931	0.00129332	0.00032842	0.00154479	0.00233283	0.00249370	0.00446143	0.00073094	0.00244210
0.52000000	0.00472061	0.00830841	0.00166899	0.00294392	0.00203681	0.01027542	0.01389993	0.00998123	0.00193674	0.00338776	0.00105173	0.00435517	0.00425222	0.00333281	0.00250741	0.00190940	0.00187387	0.00323485	0.00336156	0.00115846	0.00022211	0.00155906	0.00204198	0.00257666	0.00419298	0.00042962	0.00237449
0.53000000	0.00494272	0.00767144	0.00170433	0.00293083	0.00186669	0.01054975	0.01355768	0.00888040	0.00254875	0.00326529	0.00111042	0.00377802	0.00394068	0.00306839	0.00226955	0.00201298	0.00112606	0.00333680	0.00292346	0.00103717	0.00017553	0.00146277	0.00194726	0.00251649	0.00386724	0.00041987	0.00228075
0.54000000	0.00500118	0.00828012	0.00178414	0.00330531	0.00219588	0.01084532	0.01204085	0.00706156	0.00299673	0.00251087	0.00096168	0.00394321	0.00322851	0.00264517	0.00233121	0.00172390	0.00068955	0.00352637	0.00277765	0.00129811	0.00009180	0.00134923	0.00170056	0.00261460	0.00366188	0.00013300	0.00243377
0.55000000	0.00488900	0.00816224	0.00173698	0.00315830	0.00193717	0.01111462	0.01089869	0.00621042	0.00361473	0.00300261	0.00090377	0.00399463	0.00331947	0.00260454	0.00203844	0.00203402	0.00064480	0.00349351	0.00224707	0.00119720	0.00024201	0.00130387	0.00133031	0.00245760	0.00315193	0.00025619	0.00215761
0.56000000	0.00478569	0.00806178	0.00164819	0.00312333	0.00181089	0.01129804	0.00961492	0.00472852	0.00411041	0.00285998	0.00093149	0.00366003	0.00343539	0.00296369	0.00188220	0.00203774	0.00081058	0.00346078	0.00186191	0.00127349	0.00035420	0.00135377	0.00102082	0.00233710	0.00267452	0.00015977	0.00206326
0.57000000	0.00466616	0.00775873	0.00162952	0.00300902	0.00160302	0.01148842	0.00810091	0.00384956	0.00466833	0.00340079	0.00101909	0.00371033	0.00362007	0.00260193	0.00168780	0.00207091	0.00086481	0.00330204	0.00135790	0.00127404	0.00045174	0.00134591	0.00073766	0.00208440	0.00214718	0.00015320	0.00177804
0.58000000	0.00450795	0.00730809	0.00162785	0.00292142	0.00139453	0.01154728	0.00662370	0.00289330	0.00512356	0.00383451	0.00137643	0.00314547	0.00373084	0.00218115	0.00155701	0.00199879	0.00090312	0.00314540	0.00082992	0.00131469	0.00048752	0.00138280	0.00053692	0.00184072	0.00159534	0.00016111	0.00150930
0.59000000	0.00449668	0.00646557	0.00181728	0.00291890	0.00119665	0.01132106	0.00522887	0.00200474	0.00553876	0.00396020	0.00111385	0.00242209	0.00353565	0.00163543	0.00141605	0.00187427	0.00119288	0.00297158	0.00035419	0.00133626	0.00064124	0.00138945	0.00021611	0.00155744	0.00095397	0.00021594	0.00118660
0.60000000	0.00436219	0.00606365	0.00188290	0.00286491	0.00122271	0.01101661	0.00324638	0.00142009	0.00581223	0.00424166	0.00214974	0.00165298	0.00365613	0.00053901	0.00136133	0.00204357	0.00103036	0.00268133	0.00036872	0.00146605	0.00073203	0.00143681	0.00028005	0.00120665	0.00072241	0.00019402	0.00092480
0.61000000	0.00426442	0.00548394	0.00187976	0.00308259	0.00137808	0.00998913	0.00169656	0.00229692	0.00599420	0.00379250	0.00098784	0.00201409	0.00309385	0.00090112	0.00143922	0.00163834	0.00058076	0.00261173	0.00069808	0.00172429	0.00083455	0.00152071	0.00055619	0.00101592	0.00038486	0.00027581	0.00069087
0.62000000	0.00404211	0.00499149	0.00198274	0.00290000	0.00136325	0.00938527	0.00111294	0.00300667	0.00613822	0.00398611	0.00155639	0.00209950	0.00314253	0.00162400	0.00137487	0.00172638	0.00046465	0.00237069	0.00114934	0.00177115	0.00085927	0.00158797	0.00070946	0.00068308	0.00077187	0.00023249	0.00036444
0.63000000	0.00410733	0.00460083	0.00222561	0.00276105	0.00130797	0.00870377	0.00222715	0.00374333	0.00637510	0.00409086	0.00094810	0.00213603	0.00290867	0.00170412	0.00126649	0.00162260	0.00068589	0.00221627	0.00173620	0.00175743	0.00092650	0.00165097	0.00104116	0.00042623	0.00129486	0.00022613	0.00016284
0.64000000	0.00374789	0.00454065	0.00215778	0.00249296	0.00134085	0.00784853	0.00418886	0.00464647	0.00637067	0.00411002	0.00197293	0.00176845	0.00295528	0.00196643	0.00124589	0.00172551	0.00057080	0.00200785	0.00210013	0.00183930	0.00097750	0.00169901	0.00121534	0.00030745	0.00167926	0.00040570	0.00043875
0.65000000	0.00405416	0.00449624	0.00215673	0.00237369	0.00132764	0.00743719	0.00489714	0.00566654	0.00652513	0.00412352	0.00079896	0.00190743	0.00298562	0.00140383	0.00114340	0.00177710	0.00104490	0.00204510	0.00252200	0.00185550	0.00106188	0.00189039	0.00162791	0.00037696	0.00207066	0.00030979	0.00057634
0.66000000	0.00375670	0.00473700	0.00199808	0.00200861	0.00134572	0.00684747	0.00637567	0.00668231	0.00648394	0.00429223	0.00176282	0.00383052	0.00331551	0.00139153	0.00134802	0.00176424	0.00138894	0.00195002	0.00280078	0.00198750	0.00102238	0.00194825	0.00151942	0.00044293	0.00233428	0.00028256	0.00081714
0.67000000	0.00426024	0.00513165	0.00191595	0.00177514	0.00131503	0.00694792	0.00633147	0.00790579	0.00673680	0.00418573	0.00074922	0.00466139	0.00366136	0.00142745	0.00145055	0.00234715	0.00195633	0.00193039	0.00306800	0.00196128	0.00115901	0.00209509	0.00197864	0.00034639	0.00255484	0.00027688	0.00092545
0.68000000	0.00334145	0.00573823	0.00183261	0.00119964	0.00125077	0.00661086	0.00820227	0.00854255	0.00663200	0.00447479	0.00268789	0.00737669	0.00409044	0.00213145	0.00197715	0.00244402	0.00244161	0.00179418	0.00330979	0.00187854	0.00109176	0.00206068	0.00200381	0.00066282	0.00266364	0.00040191	0.00141438
0.69000000	0.00386545	0.00569119	0.00181310	0.00115199	0.00141777	0.00737441	0.00806447	0.00972499	0.00678820	0.00480984	0.00273227	0.00911252	0.00458860	0.00299205	0.00228685	0.00241268	0.00259774	0.00188952	0.00340952	0.00198495	0.00108957	0.00220639	0.00200299	0.00069746	0.00282187	0.00022078	0.00132597
0.70000000	0.00466535	0.00584657	0.00195536	0.00127777	0.00163822	0.00837479	0.00751366	0.01082596	0.00693282	0.00479370	0.00224266	0.00920691	0.00485785	0.00379127	0.00249979	0.00284356	0.00296395	0.00196582	0.00350335	0.00186383	0.00117195	0.00244390	0.00244907	0.00053539	0.00290914	0.00028042	0.00133368
0.71000000	0.00379698	0.00574259	0.00213789	0.00136002	0.00188933	0.00816431	0.00812468	0.01198155	0.00683319	0.00523563	0.00197471	0.00740436	0.00512290	0.00461177	0.00294696	0.00382306	0.00294385	0.00173459	0.00352551	0.00171836	0.00111108	0.00236775	0.00248972	0.00056523	0.00273125	0.00016761	0.00170368
0.72000000	0.00395008	0.00571255	0.00239192	0.00161675	0.00211933	0.00920002	0.00803879	0.01241237	0.00693107	0.00559626	0.00245895	0.00741579	0.00510960	0.00462517	0.00295756	0.00367289	0.00281885	0.00170025	0.00363014	0.00162197	0.00109544	0.00249048	0.00260276	0.00058501	0.00277762	0.00015331	0.00183168
0.73000000	0.00355358	0.00529515	0.00260828	0.00201906	0.00237898	0.01020803	0.00846754	0.01254984	0.00692554	0.00598983	0.00373329	0.00713708	0.00527541	0.00403834	0.00286130	0.00326211	0.00252111	0.00167880	0.00374767	0.00157810	0.00099786	0.00259391	0.00249666	0.00064835	0.00283997	0.00003316	0.00198353
0.74000000	0.00393511	0.00529669	0.00262456	0.00205444	0.00243070	0.01036634	0.00782601	0.01335970	0.00684787	0.00643714	0.00321021	0.00619761	0.00483992	0.00352437	0.00274555	0.00322483	0.00205992	0.00166088	0.00371443	0.00149265	0.00101944	0.00265868	0.00259887	0.00047852	0.00266711	0.00015789	0.00220461
0.75000000	0.00388089	0.00471149	0.00281276	0.00250693	0.00273897	0.01100130	0.00774037	0.01332839	0.00683140	0.00668258	0.00353894	0.00522514	0.00449937	0.00334210	0.00248139	0.00278213	0.00202256	0.00158598	0.00378077	0.00147738	0.00089420	0.00277740	0.00245527	0.00055402	0.00289955	0.00016314	0.00213351
0.76000000	0.00358923	0.00458701	0.00271960	0.00243717	0.00266741	0.01105578	0.00773182	0.01360336	0.00664202	0.00696028	0.00387756	0.00436005	0.00438952	0.00239242	0.00225724	0.00229063	0.00144033	0.00152808	0.00368001	0.00143038	0.00097548	0.00271510	0.00245047	0.00048319	0.00261555	0.00014720	0.00241927
0.77000000	0.00302880	0.00390407	0.00273650	0.00275489	0.00280352	0.01158460	0.00801774	0.01323017	0.00660991	0.00692098	0.00426976	0.00334358	0.00431673	0.00196120	0.00202166	0.00184414	0.00130377	0.00141207	0.00374923	0.00140722	0.00097086	0.00276635	0.00232571	0.00060871	0.00271032	0.00023595	0.00258280
0.78000000	0.00294614	0.00332837	0.00262765	0.00290026	0.00283026	0.01167650	0.00792415	0.01309778	0.00652559	0.00695071	0.00426066	0.00255284	0.00414816	0.00172841	0.00178295	0.00148795	0.00107302	0.00136269	0.00377155	0.00142567	0.00096246	0.00280341	0.00220841	0.00057648	0.00282493	0.00040804	0.00264006
0.79000000	0.00270081	0.00295215	0.00251240	0.00292307	0.00278669	0.01167290	0.00803998	0.01287558	0.00634657	0.00690507	0.00418117	0.00193261	0.00410533	0.00152236	0.00157410	0.00117205	0.00095725	0.00129643	0.00373456	0.00142523	0.00099866	0.00275951	0.00210249	0.00066072	0.00280882	0.00032343	0.00279103
0.80000000	0.00331046	0.00286669	0.00231404	0.00266818	0.00261392	0.01105168	0.00776420	0.01306891	0.00593547	0.00696316	0.00411324	0.00174730	0.00367196	0.00210178	0.00140796	0.00085950	0.00042467	0.00127250	0.00362090	0.00141401	0.00101398	0.00265010	0.00198457	0.00058385	0.00271710	0.00033365	0.00290435
0.81000000	0.00269865	0.00225832	0.00226960	0.00273468	0.00253785	0.01136934	0.00846035	0.01245567	0.00590518	0.00652810	0.00365394	0.00161874	0.00381117	0.00175233	0.00129980	0.00065381	0.00040114	0.00118614	0.00372290	0.00151195	0.00106573	0.00260213	0.00176866	0.00070830	0.00283516	0.00041676	0.00304681
0.82000000	0.00321247	0.00199923	0.00213730	0.00264997	0.00243143	0.01116500	0.00850474	0.01240995	0.00573336	0.00632343	0.00315401	0.00161123	0.00377806	0.00176711	0.00112001	0.00086621	0.00038399	0.00114618	0.00371287	0.00140584	0.00106822	0.00250882	0.00173549	0.00083997	0.00295467	0.00035740	0.00312367
0.83000000	0.00372656	0.00183450	0.00215829	0.00245846	0.00230778	0.01103079	0.00881336	0.01233918	0.00552184	0.00602993	0.00278453	0.00180852	0.00373445	0.00184040	0.00106731	0.00096360	0.00026624	0.00112658	0.00371210	0.00145775	0.00110238	0.00239381	0.00162811	0.00073085	0.00291806	0.00045677	0.00324956
0.84000000	0.00479806	0.00164807	0.00225973	0.00219617	0.00226893	0.01041353	0.00867501	0.01284649	0.00514761	0.00597480	0.00290296	0.00216839	0.00357074	0.00231480	0.00090657	0.00078843	0.00042370	0.00109891	0.00362051	0.00138112	0.00108303	0.00223427	0.00161165	0.00070395	0.00285147	0.00046686	0.00332548
0.85000000	0.00510512	0.00157529	0.00249345	0.00205659	0.00221635	0.01064941	0.00946467	0.01263728	0.00520408	0.00550280	0.00230947	0.00280082	0.00366392	0.00210663	0.00087618	0.00108368	0.00074075	0.00104695	0.00365923	0.00148102	0.00111758	0.00215614	0.00148066	0.00083872	0.00301302	0.00050266	0.00326796
0.86000000	0.00585076	0.00157833	0.00264693	0.00194756	0.00227782	0.01034050	0.00951025	0.01321878	0.00503583	0.00551053	0.00268802	0.00308836	0.00367511	0.00240542	0.00073537	0.00102839	0.00062361	0.00105489	0.00361827	0.00140899	0.00110742	0.00205359	0.00156787	0.00084864	0.00291868	0.00046838	0.00334844
0.87000000	0.00611678	0.00165933	0.00288870	0.00180688	0.00228036	0.01058208	0.01024714	0.01330690	0.00522494	0.00523834	0.00238885	0.00380753	0.00369440	0.00244848	0.00069157	0.00131220	0.00088855	0.00099976	0.00365219	0.00143057	0.00108242	0.00194689	0.00148769	0.00086024	0.00294247	0.00058526	0.00333938
0.88000000	0.00658739	0.00168166	0.00302083	0.00174818	0.00232760	0.01053102	0.01056737	0.01386863	0.00531705	0.00534976	0.00293121	0.00411804	0.00380812	0.00271227	0.00056800	0.00127968	0.00071309	0.00098261	0.00362852	0.00140754	0.00107305	0.00190834	0.00155774	0.00092135	0.00284778	0.00060118	0.00336662
0.89000000	0.00673720	0.00166144	0.00317951	0.00163839	0.00231979	0.01073187	0.01116294	0.01424936	0.00560638	0.00534373	0.00299535	0.00471991	0.00370049	0.00299501	0.00054600	0.00148182	0.00114264	0.00095456	0.00364706	0.00138141	0.00103845	0.00183954	0.00159114	0.00092530	0.00289616	0.00063433	0.00326327
0.90000000	0.00685493	0.00164239	0.00326186	0.00156564	0.00230223	0.01092579	0.01162304	0.01475464	0.00591309	0.00549981	0.00322539	0.00522502	0.00365506	0.00316400	0.00053284	0.00156315	0.00133233	0.00092323	0.00366226	0.00138195	0.00100304	0.00181957	0.00161519	0.00092444	0.00283528	0.00071272	0.00321508
0.91000000	0.00695329	0.00156536	0.00330054	0.00153100	0.00227660	0.01112085	0.01200348	0.01538227	0.00618444	0.00569370	0.00353834	0.00550844	0.00359635	0.00336762	0.00050240	0.00170907	0.00152584	0.00090925	0.00366328	0.00134653	0.00096059	0.00183437	0.00170545	0.00089248	0.00281095	0.00072931	0.00309473
0.92000000	0.00692074	0.00183480	0.00318988	0.00168899	0.00214977	0.01141315	0.01253288	0.01583510	0.00641483	0.00587804	0.00393474	0.00544615	0.00349585	0.00384860	0.00051686	0.00185484	0.00114223	0.00084456	0.00370811	0.00135628	0.00092822	0.00186710	0.00175345	0.00104716	0.00274495	0.00077440	0.00305121
0.93000000	0.00682146	0.00169241	0.00320569	0.00173173	0.00213329	0.01175838	0.01269899	0.01655727	0.00666752	0.00617271	0.00434752	0.00564862	0.00345312	0.00395842	0.00063314	0.00183887	0.00149571	0.00082400	0.00367444	0.00127147	0.00087583	0.00187687	0.00192686	0.00097836	0.00265298	0.00073689	0.00293500
0.94000000	0.00671800	0.00203781	0.00320162	0.00196131	0.00209670	0.01217811	0.01302680	0.01700117	0.00688132	0.00633095	0.00457990	0.00575233	0.00332719	0.00414867	0.00057625	0.00199134	0.00122972	0.00083201	0.00370369	0.00133633	0.00083859	0.00196982	0.00193794	0.00099757	0.00255703	0.00082353	0.00282868
0.95000000	0.00654221	0.00207394	0.00321504	0.00205994	0.00211007	0.01272626	0.01303997	0.01765481	0.00705393	0.00651706	0.00494306	0.00583719	0.00321053	0.00437920	0.00069525	0.00192793	0.00147864	0.00085104	0.00362434	0.00129316	0.00077032	0.00200416	0.00201240	0.00085776	0.00253473	0.00088020	0.00255558
0.96000000	0.00640686	0.00260107	0.00329972	0.00238788	0.00216267	0.01331808	0.01325654	0.01792265	0.00717467	0.00652414	0.00514942	0.00596254	0.00304604	0.00455080	0.00060850	0.00207058	0.00118817	0.00083042	0.00361236	0.00131377	0.00073487	0.00203487	0.00207306	0.00091866	0.00233448	0.00092028	0.00254831
0.97000000	0.00631247	0.00300122	0.00337061	0.00266483	0.00221952	0.01402311	0.01332004	0.01810972	0.00728091	0.00649421	0.00522554	0.00612381	0.00289977	0.00473590	0.00063742	0.00199646	0.00121855	0.00085714	0.00358031	0.00136831	0.00071664	0.00209275	0.00211140	0.00102482	0.00239689	0.00094400	0.00226214
0.98000000	0.00619912	0.00324175	0.00345537	0.00285965	0.00229361	0.01459456	0.01309680	0.01840006	0.00729109	0.00642841	0.00537905	0.00628833	0.00283235	0.00479166	0.00057969	0.00202932	0.00113862	0.00087286	0.00354099	0.00137021	0.00066946	0.00215141	0.00220179	0.00092939	0.00232030	0.00095743	0.00212106
0.99000000	0.00617105	0.00351762	0.00353557	0.00305067	0.00235808	0.01515462	0.01281523	0.01848077	0.00727966	0.00630117	0.00535849	0.00643813	0.00278760	0.00488040	0.00052583	0.00201349	0.00114799	0.00089646	0.00346946	0.00137315	0.00063471	0.00219056	0.00225822	0.00093647	0.00230927	0.00096452	0.00192103
1.00000000	0.00603523	0.00342830	0.00348640	0.00289476	0.00229157	0.01565729	0.01209356	0.01878296	0.00721700	0.00628702	0.00540023	0.00659576	0.00311578	0.00488961	0.00063453	0.00184336	0.00133894	0.00095625	0.00333651	0.00127170	0.00058120	0.00221847	0.00244137	0.00076031	0.00223822	0.00086975	0.00173887
1.01000000	0.00615737	0.00391814	0.00364174	0.00324930	0.00241842	0.01579984	0.01181392	0.01845200	0.00703867	0.00597652	0.00511818	0.00662778	0.00293530	0.00499883	0.00041349	0.00202809	0.00101599	0.00097931	0.00326730	0.00137261	0.00055606	0.00223751	0.00232719	0.00079729	0.00216040	0.00098401	0.00167215
1.02000000	0.00631528	0.00419697	0.00365363	0.00333970	0.00242236	0.01606532	0.01129253	0.01799580	0.00685333	0.00571804	0.00471084	0.00684242	0.00306159	0.00492853	0.00037617	0.00199033	0.00108600	0.00106969	0.00320323	0.00141599	0.00051207	0.00226610	0.00221446	0.00084311	0.00221350	0.00099788	0.00149937
1.03000000	0.00635861	0.00427872	0.00366354	0.00326731	0.00236444	0.01610669	0.01060241	0.01757842	0.00660843	0.00553992	0.00436664	0.00695229	0.00306130	0.00499500	0.00025198	0.00215275	0.00112129	0.00101680	0.00297733	0.00138208	0.00056684	0.00223208	0.00241741	0.00073805	0.00214703	0.00099695	0.00132094
1.04000000	0.00649934	0.00450899	0.00365540	0.00322722	0.00230047	0.01597484	0.00993941	0.01689412	0.00630079	0.00531129	0.00387949	0.00709829	0.00317980	0.00500316	0.00020359	0.00222424	0.00119821	0.00106005	0.00288000	0.00140413	0.00060207	0.00224910	0.00242802	0.00071090	0.00219335	0.00101512	0.00120684
1.05000000	0.00647144	0.00453536	0.00363527	0.00303028	0.00219179	0.01576412	0.00913247	0.01618183	0.00598962	0.00511890	0.00333291	0.00738315	0.00338171	0.00501608	0.00008941	0.00234966	0.00138916	0.00114280	0.00267119	0.00139094	0.00060313	0.00221538	0.00241173	0.00067677	0.00215859	0.00101736	0.00101708
1.06000000	0.00653887	0.00480431	0.00367769	0.00288184	0.00211302	0.01529802	0.00850255	0.01519417	0.00560481	0.00484580	0.00278172	0.00753818	0.00350345	0.00507287	0.00008971	0.00251913	0.00142616	0.00114577	0.00253470	0.00136174	0.00067471	0.00218495	0.00252649	0.00059706	0.00220380	0.00104450	0.00095858
1.07000000	0.00678698	0.00511436	0.00371553	0.00283447	0.00207032	0.01481613	0.00792486	0.01374750	0.00522120	0.00448112	0.00213839	0.00780623	0.00363292	0.00509505	0.00011640	0.00259500	0.00162072	0.00117803	0.00246155	0.00143753	0.00077617	0.00221529	0.00253355	0.00076478	0.00231690	0.00102343	0.00084093
1.08000000	0.00690411	0.00532620	0.00375467	0.00260379	0.00203882	0.01433640	0.00716131	0.01216704	0.00486546	0.00413815	0.00168089	0.00820426	0.00362446	0.00513553	0.00020421	0.00277950	0.00171814	0.00123696	0.00236971	0.00147179	0.00083246	0.00225111	0.00260652	0.00071340	0.00237832	0.00103167	0.00077254
1.09000000	0.00648838	0.00536219	0.00395308	0.00211538	0.00205865	0.01347646	0.00642200	0.01113113	0.00436713	0.00381706	0.00122940	0.00854396	0.00392445	0.00518896	0.00023961	0.00298450	0.00181515	0.00134903	0.00216773	0.00136191	0.00080495	0.00213785	0.00264101	0.00063535	0.00234104	0.00097810	0.00061539
1.10000000	0.00624898	0.00544691	0.00427205	0.00167629	0.00224515	0.01269161	0.00578558	0.00982476	0.00387045	0.00330294	0.00110019	0.00877098	0.00411931	0.00539143	0.00027207	0.00318561	0.00182943	0.00146402	0.00200002	0.00127178	0.00079200	0.00205970	0.00271104	0.00071833	0.00229575	0.00088584	0.00057190
1.11000000	0.00664255	0.00580705	0.00417522	0.00190299	0.00213398	0.01211485	0.00526792	0.00678513	0.00360380	0.00287988	0.00060476	0.00895063	0.00417993	0.00552466	0.00024969	0.00317419	0.00194070	0.00139069	0.00207979	0.00156433	0.00097325	0.00220818	0.00275473	0.00067614	0.00246833	0.00104428	0.00055510
1.12000000	0.00632484	0.00597764	0.00446547	0.00163561	0.00227271	0.01157770	0.00490272	0.00497629	0.00303764	0.00243050	0.00039346	0.00907169	0.00445551	0.00549670	0.00033396	0.00330606	0.00202628	0.00146445	0.00199196	0.00156634	0.00100817	0.00214608	0.00279097	0.00069283	0.00247126	0.00102747	0.00047823
1.13000000	0.00609278	0.00604442	0.00491392	0.00124545	0.00266809	0.01155994	0.00424542	0.00394568	0.00245244	0.00210030	0.00092055	0.00922837	0.00461199	0.00549863	0.00040461	0.00357308	0.00197792	0.00158237	0.00180454	0.00144607	0.00093587	0.00199557	0.00285849	0.00067473	0.00235367	0.00090076	0.00037631
1.14000000	0.00658137	0.00609053	0.00482024	0.00127197	0.00261355	0.01144157	0.00356656	0.00286325	0.00235609	0.00289523	0.00087375	0.00940870	0.00458069	0.00540403	0.00043959	0.00361475	0.00209634	0.00162118	0.00184054	0.00167296	0.00099728	0.00213294	0.00286249	0.00069144	0.00239212	0.00094104	0.00029330
1.15000000	0.00681400	0.00621260	0.00506384	0.00116172	0.00285037	0.01197149	0.00302005	0.00423715	0.00209552	0.00331559	0.00120433	0.00942762	0.00467542	0.00515728	0.00049188	0.00366624	0.00213209	0.00175078	0.00178543	0.00170221	0.00098612	0.00212753	0.00291512	0.00073372	0.00234787	0.00085491	0.00029903
1.16000000	0.00688782	0.00629233	0.00551630	0.00131026	0.00325958	0.01328304	0.00266110	0.00574364	0.00167049	0.00326078	0.00153607	0.00932706	0.00484922	0.00507812	0.00052322	0.00385657	0.00210101	0.00189087	0.00163412	0.00164406	0.00092458	0.00197970	0.00283057	0.00064251	0.00210626	0.00099128	0.00022680
1.17000000	0.00729049	0.00624529	0.00552456	0.00133709	0.00330453	0.01375991	0.00264191	0.00796474	0.00192382	0.00430862	0.00188317	0.00932888	0.00471262	0.00472975	0.00062200	0.00391995	0.00227707	0.00196936	0.00154100	0.00175899	0.00090277	0.00201026	0.00288040	0.00082285	0.00203112	0.00072434	0.00005764
1.18000000	0.00767171	0.00653139	0.00591260	0.00165970	0.00369011	0.01510233	0.00278292	0.00901417	0.00196348	0.00405477	0.00221651	0.00912362	0.00497159	0.00462494	0.00056846	0.00383586	0.00232635	0.00217953	0.00140714	0.00173078	0.00081279	0.00190762	0.00280937	0.00105092	0.00191779	0.00048939	0.00039570
1.19000000	0.00806631	0.00672944	0.00622619	0.00204705	0.00402035	0.01647960	0.00308926	0.00951562	0.00212508	0.00379485	0.00242735	0.00907294	0.00551731	0.00426239	0.00063268	0.00366706	0.00246741	0.00218989	0.00122410	0.00176449	0.00078647	0.00179097	0.00278921	0.00113340	0.00171012	0.00036595	0.00047240
1.20000000	0.00716282	0.00637441	0.00645479	0.00192530	0.00415934	0.01691012	0.00231589	0.01115887	0.00215134	0.00401583	0.00283123	0.00885931	0.00546098	0.00394873	0.00079340	0.00429179	0.00222725	0.00240555	0.00120863	0.00173191	0.00069012	0.00170517	0.00259262	0.00119112	0.00140194	0.00036803	0.00031547
1.21000000	0.00755075	0.00657302	0.00665113	0.00226614	0.00442306	0.01725910	0.00271379	0.01116080	0.00231758	0.00355573	0.00294318	0.00881615	0.00576853	0.00384766	0.00080024	0.00399665	0.00230422	0.00255823	0.00105695	0.00171904	0.00059809	0.00162152	0.00253695	0.00140296	0.00112341	0.00012052	0.00066327
1.22000000	0.00723842	0.00607207	0.00633218	0.00213230	0.00423803	0.01579438	0.00332459	0.01234013	0.00297207	0.00432723	0.00369681	0.00876539	0.00535214	0.00349540	0.00098264	0.00401786	0.00244668	0.00273368	0.00106485	0.00183560	0.00054699	0.00172918	0.00244577	0.00149079	0.00092924	0.00010269	0.00080647
1.23000000	0.00754311	0.00617082	0.00643140	0.00242501	0.00444186	0.01512952	0.00372586	0.01188853	0.00309263	0.00377657	0.00394700	0.00879403	0.00558404	0.00346597	0.00106015	0.00377650	0.00251858	0.00295068	0.00105080	0.00174895	0.00039859	0.00160246	0.00235165	0.00180047	0.00055717	0.00049228	0.00121671
1.24000000	0.00693529	0.00574382	0.00633909	0.00253548	0.00445706	0.01432421	0.00407684	0.01144389	0.00358216	0.00349312	0.00418552	0.00879417	0.00577611	0.00324529	0.00117903	0.00385256	0.00225817	0.00305562	0.00117381	0.00176245	0.00034774	0.00155951	0.00219762	0.00188016	0.00064316	0.00045509	0.00116266
1.25000000	0.00727018	0.00585088	0.00620116	0.00264949	0.00445741	0.01278389	0.00449650	0.01097602	0.00359890	0.00311040	0.00450417	0.00886034	0.00592325	0.00332532	0.00135452	0.00357636	0.00214898	0.00340039	0.00136748	0.00165759	0.00027954	0.00145019	0.00200017	0.00224766	0.00038132	0.00101076	0.00163523
1.26000000	0.00631341	0.00520872	0.00616600	0.00295568	0.00457082	0.01169761	0.00485335	0.01024571	0.00403677	0.00298914	0.00437938	0.00895096	0.00640802	0.00281706	0.00140471	0.00351192	0.00216827	0.00340272	0.00163997	0.00158434	0.00027285	0.00133143	0.00188264	0.00228530	0.00091739	0.00094079	0.00162950
1.27000000	0.00596384	0.00486525	0.00608007	0.00324420	0.00466033	0.01022356	0.00519624	0.00960480	0.00414693	0.00285805	0.00430546	0.00914967	0.00683755	0.00241935	0.00156237	0.00331366	0.00208562	0.00357219	0.00198295	0.00141735	0.00037688	0.00115062	0.00172913	0.00250451	0.00128596	0.00115082	0.00182954
1.28000000	0.00597302	0.00480046	0.00595332	0.00343066	0.00468161	0.00850281	0.00560113	0.00896824	0.00409566	0.00303574	0.00438786	0.00936317	0.00706041	0.00226794	0.00180131	0.00304401	0.00198305	0.00372952	0.00234477	0.00125543	0.00052114	0.00097376	0.00157724	0.00265078	0.00141276	0.00148579	0.00224455
1.29000000	0.00517708	0.00471922	0.00620918	0.00391609	0.00504265	0.00825884	0.00527920	0.00771442	0.00379658	0.00243645	0.00340258	0.00958176	0.00760445	0.00167657	0.00192103	0.00283779	0.00194222	0.00388416	0.00289119	0.00085104	0.00074243	0.00066724	0.00142339	0.00291330	0.00202991	0.00158534	0.00241829
1.30000000	0.00517146	0.00464515	0.00601465	0.00411112	0.00502340	0.00651099	0.00580919	0.00710560	0.00373658	0.00273721	0.00319575	0.01004656	0.00781146	0.00144005	0.00216921	0.00246975	0.00191053	0.00396959	0.00327620	0.00066884	0.00089259	0.00055257	0.00129126	0.00294543	0.00222680	0.00177137	0.00273709
1.31000000	0.00512678	0.00460694	0.00580931	0.00429957	0.00499788	0.00466947	0.00628729	0.00657685	0.00367874	0.00296950	0.00303704	0.01060361	0.00797970	0.00145042	0.00248726	0.00204879	0.00175671	0.00401873	0.00367942	0.00046451	0.00108093	0.00048583	0.00130475	0.00299492	0.00248079	0.00192964	0.00300974
1.32000000	0.00468640	0.00463805	0.00549631	0.00449160	0.00489956	0.00316705	0.00680846	0.00596544	0.00351659	0.00271998	0.00240813	0.01130236	0.00833091	0.00148315	0.00283350	0.00137843	0.00169623	0.00403154	0.00396196	0.00044423	0.00126945	0.00059425	0.00143939	0.00310417	0.00284003	0.00195410	0.00298104
1.33000000	0.00397180	0.00516877	0.00552099	0.00471896	0.00498379	0.00270823	0.00627235	0.00479437	0.00283229	0.00268130	0.00148822	0.01162569	0.00844750	0.00205441	0.00311076	0.00108017	0.00160093	0.00394275	0.00440520	0.00060081	0.00145216	0.00097242	0.00150886	0.00311987	0.00309351	0.00197193	0.00320556
1.34000000	0.00385813	0.00560769	0.00548170	0.00485535	0.00500756	0.00243290	0.00602661	0.00343322	0.00224503	0.00286176	0.00092744	0.01204221	0.00797361	0.00239569	0.00343475	0.00064091	0.00125584	0.00389033	0.00477015	0.00083760	0.00161209	0.00133718	0.00157505	0.00300373	0.00325974	0.00201519	0.00342545
1.35000000	0.00360183	0.00586496	0.00510106	0.00488968	0.00479503	0.00318072	0.00647496	0.00249780	0.00204229	0.00254865	0.00102205	0.01245494	0.00739637	0.00293280	0.00386220	0.00039694	0.00101286	0.00376150	0.00494948	0.00102204	0.00172362	0.00152432	0.00175166	0.00285516	0.00332321	0.00190413	0.00348733
1.36000000	0.00345478	0.00608256	0.00472186	0.00487648	0.00456737	0.00492878	0.00689877	0.00181239	0.00183490	0.00226604	0.00156020	0.01265825	0.00640633	0.00342515	0.00426007	0.00088691	0.00057571	0.00362461	0.00506704	0.00126014	0.00182904	0.00171184	0.00193021	0.00269656	0.00329373	0.00189419	0.00350784
1.37000000	0.00319112	0.00683785	0.00459769	0.00493775	0.00444219	0.00553965	0.00579327	0.00198511	0.00151722	0.00265638	0.00185534	0.01235658	0.00575864	0.00410501	0.00455354	0.00144117	0.00073347	0.00332774	0.00533384	0.00158621	0.00190567	0.00214033	0.00199886	0.00241266	0.00335213	0.00172533	0.00359459
1.38000000	0.00315371	0.00690955	0.00413830	0.00482932	0.00413057	0.00705756	0.00629482	0.00251321	0.00144353	0.00234551	0.00210633	0.01215443	0.00424138	0.00449067	0.00496817	0.00211784	0.00066883	0.00310950	0.00529868	0.00170659	0.00194521	0.00224463	0.00216373	0.00216029	0.00322122	0.00150906	0.00352660
1.39000000	0.00348192	0.00683498	0.00375285	0.00461112	0.00383652	0.00808451	0.00681769	0.00336969	0.00154764	0.00195230	0.00261713	0.01156301	0.00265426	0.00496522	0.00521216	0.00285589	0.00134793	0.00282631	0.00525161	0.00177444	0.00193338	0.00236248	0.00230244	0.00180120	0.00309470	0.00119065	0.00344364
1.40000000	0.00355687	0.00725769	0.00334828	0.00469874	0.00355399	0.00811272	0.00571132	0.00308848	0.00155686	0.00209003	0.00263893	0.01072663	0.00159614	0.00554057	0.00562226	0.00340550	0.00148321	0.00252964	0.00513665	0.00194263	0.00187082	0.00249621	0.00222225	0.00148524	0.00275388	0.00104719	0.00331928
1.41000000	0.00380250	0.00712517	0.00284986	0.00444007	0.00315922	0.00761147	0.00577170	0.00315263	0.00151000	0.00188394	0.00271189	0.00990730	0.00177480	0.00600332	0.00580723	0.00399648	0.00176738	0.00215797	0.00503783	0.00198487	0.00181857	0.00255868	0.00229952	0.00111330	0.00261194	0.00076964	0.00313033
1.42000000	0.00418607	0.00683424	0.00258053	0.00433800	0.00297343	0.00645334	0.00563741	0.00294262	0.00152874	0.00172640	0.00284959	0.00889229	0.00353911	0.00659751	0.00599974	0.00471143	0.00214639	0.00185337	0.00475242	0.00204698	0.00167873	0.00258620	0.00215200	0.00082888	0.00231249	0.00063607	0.00279238
1.43000000	0.00471650	0.00665031	0.00228027	0.00417035	0.00272563	0.00519936	0.00504622	0.00209583	0.00151111	0.00163821	0.00275912	0.00791149	0.00521017	0.00736653	0.00611654	0.00528351	0.00242169	0.00151118	0.00463811	0.00204602	0.00151517	0.00261900	0.00203591	0.00055417	0.00201577	0.00038117	0.00268614
1.44000000	0.00524693	0.00648268	0.00208248	0.00402517	0.00254910	0.00455988	0.00443031	0.00143996	0.00161967	0.00167752	0.00247964	0.00716469	0.00673651	0.00828813	0.00608430	0.00564426	0.00260549	0.00128309	0.00438750	0.00200590	0.00141819	0.00263641	0.00204763	0.00035760	0.00176008	0.00026028	0.00244911
1.45000000	0.00567270	0.00621553	0.00201635	0.00382072	0.00241593	0.00537644	0.00401004	0.00204022	0.00165204	0.00179801	0.00235935	0.00680660	0.00797876	0.00944490	0.00604628	0.00597342	0.00269473	0.00112270	0.00418338	0.00202922	0.00135220	0.00266151	0.00204611	0.00040509	0.00154466	0.00034523	0.00224596
1.46000000	0.00632104	0.00635968	0.00191890	0.00363022	0.00226820	0.00684155	0.00355736	0.00380997	0.00149421	0.00203452	0.00175516	0.00665995	0.00867015	0.01098337	0.00573722	0.00594715	0.00246196	0.00119606	0.00403869	0.00204270	0.00138233	0.00269216	0.00224329	0.00039094	0.00128138	0.00018105	0.00224265
1.47000000	0.00644007	0.00573919	0.00214660	0.00330451	0.00221531	0.00909496	0.00377857	0.00516801	0.00150034	0.00222426	0.00179194	0.00725825	0.00954616	0.01230974	0.00563797	0.00624083	0.00236593	0.00091183	0.00383855	0.00206970	0.00124750	0.00266767	0.00209559	0.00054881	0.00112217	0.00044478	0.00196959
1.48000000	0.00576814	0.00448671	0.00276849	0.00283135	0.00225539	0.00913823	0.00482689	0.00790435	0.00071450	0.00308615	0.00054939	0.00642577	0.01082413	0.01426321	0.00512335	0.00590279	0.00205455	0.00085448	0.00344099	0.00195908	0.00113724	0.00239044	0.00207507	0.00041569	0.00092650	0.00026917	0.00164080
1.49000000	0.00615730	0.00391702	0.00314185	0.00256960	0.00232786	0.01109100	0.00489271	0.00879482	0.00099828	0.00313876	0.00063332	0.00800889	0.01158748	0.01493278	0.00496327	0.00616659	0.00184101	0.00069288	0.00323829	0.00197673	0.00097241	0.00234849	0.00186506	0.00059075	0.00075964	0.00044499	0.00138537
1.50000000	0.00669078	0.00438963	0.00311661	0.00247992	0.00229596	0.01179760	0.00453728	0.01009714	0.00068558	0.00357371	0.00075971	0.00880547	0.01098300	0.01639141	0.00476699	0.00639321	0.00121474	0.00068649	0.00312425	0.00196226	0.00101095	0.00231873	0.00211263	0.00046083	0.00063802	0.00030116	0.00134060
1.51000000	0.00649333	0.00384289	0.00347545	0.00231225	0.00241535	0.01259350	0.00465885	0.01059684	0.00089762	0.00357426	0.00061111	0.00993235	0.01149358	0.01704245	0.00468198	0.00656170	0.00120810	0.00051741	0.00293348	0.00195535	0.00084577	0.00224515	0.00194245	0.00060345	0.00050309	0.00031458	0.00110857
1.52000000	0.00638040	0.00368292	0.00374031	0.00225074	0.00255415	0.01258988	0.00457230	0.01105904	0.00081245	0.00364765	0.00067489	0.01063806	0.01158125	0.01775352	0.00468085	0.00673235	0.00102937	0.00036709	0.00275646	0.00188817	0.00073404	0.00215576	0.00195205	0.00062064	0.00035862	0.00037635	0.00097398
1.53000000	0.00638547	0.00344746	0.00390948	0.00214859	0.00260971	0.01205886	0.00450388	0.01120791	0.00059503	0.00373755	0.00072376	0.01088355	0.01172063	0.01850184	0.00460809	0.00689822	0.00091319	0.00035569	0.00249196	0.00187723	0.00070050	0.00208609	0.00197068	0.00050285	0.00029999	0.00049999	0.00079817
1.54000000	0.00610114	0.00313038	0.00416575	0.00203476	0.00272027	0.01129427	0.00452155	0.01109342	0.00047766	0.00368878	0.00068269	0.01100399	0.01204239	0.01904102	0.00465602	0.00704040	0.00105104	0.00026114	0.00232866	0.00183804	0.00060744	0.00201003	0.00199469	0.00061827	0.00030912	0.00044092	0.00066012
1.55000000	0.00613187	0.00300182	0.00415544	0.00182008	0.00261387	0.01032057	0.00444829	0.01070705	0.00026898	0.00360884	0.00054904	0.01056784	0.01202322	0.01993210	0.00471530	0.00720583	0.00102703	0.00035259	0.00217134	0.00193818	0.00056749	0.00200264	0.00199574	0.00049706	0.00032940	0.00051610	0.00044939
1.56000000	0.00546018	0.00237428	0.00461517	0.00177468	0.00286064	0.00946667	0.00470173	0.01027142	0.00035716	0.00341607	0.00044766	0.01065357	0.01304114	0.01992159	0.00482477	0.00719961	0.00139945	0.00031036	0.00189476	0.00181919	0.00046341	0.00189694	0.00197896	0.00059644	0.00047969	0.00070595	0.00029785
1.57000000	0.00517935	0.00212784	0.00483184	0.00171600	0.00294947	0.00846380	0.00473594	0.00990108	0.00050618	0.00331214	0.00062742	0.01038588	0.01356930	0.02021849	0.00509069	0.00731373	0.00158342	0.00036519	0.00168166	0.00179643	0.00036244	0.00182838	0.00193097	0.00081531	0.00063601	0.00079647	0.00013384
1.58000000	0.00486422	0.00199867	0.00492888	0.00162567	0.00297020	0.00767684	0.00474040	0.00944930	0.00065506	0.00313451	0.00079271	0.01014358	0.01407128	0.02056293	0.00530322	0.00735510	0.00169910	0.00045480	0.00154499	0.00180970	0.00037154	0.00182368	0.00205331	0.00095964	0.00073500	0.00092432	0.00006440
1.59000000	0.00476047	0.00188878	0.00495906	0.00147974	0.00291449	0.00705637	0.00474921	0.00899262	0.00084269	0.00300086	0.00088436	0.00991583	0.01470428	0.02082914	0.00551949	0.00740165	0.00184375	0.00051273	0.00140844	0.00184113	0.00033395	0.00184002	0.00206164	0.00095192	0.00076071	0.00122855	0.00026450
1.60000000	0.00452641	0.00174405	0.00504096	0.00135555	0.00289134	0.00664637	0.00479564	0.00864957	0.00099776	0.00288419	0.00093907	0.00981381	0.01551852	0.02098493	0.00568664	0.00739770	0.00194734	0.00059917	0.00130016	0.00185988	0.00029801	0.00185583	0.00213560	0.00112122	0.00083228	0.00139809	0.00027563
1.61000000	0.00448213	0.00192363	0.00503323	0.00128692	0.00284958	0.00649182	0.00478450	0.00830546	0.00115585	0.00279205	0.00108370	0.00991845	0.01624722	0.02109342	0.00589446	0.00741955	0.00207932	0.00060982	0.00124694	0.00189795	0.00031644	0.00190354	0.00221862	0.00124781	0.00084548	0.00159551	0.00033869
1.62000000	0.00435509	0.00206236	0.00506319	0.00120175	0.00280261	0.00646082	0.00476739	0.00816460	0.00125991	0.00275299	0.00114093	0.01019369	0.01708017	0.02111254	0.00606559	0.00739913	0.00217991	0.00068230	0.00118391	0.00192577	0.00031984	0.00194399	0.00233068	0.00137991	0.00084163	0.00177779	0.00042618
1.63000000	0.00429934	0.00232124	0.00510672	0.00118058	0.00278738	0.00659906	0.00481544	0.00810268	0.00127079	0.00271624	0.00123008	0.01061979	0.01783934	0.02107214	0.00621310	0.00738228	0.00229353	0.00071838	0.00109965	0.00193611	0.00036345	0.00199031	0.00244068	0.00151096	0.00081372	0.00194082	0.00059804
1.64000000	0.00441719	0.00283756	0.00515906	0.00130928	0.00286487	0.00690653	0.00470708	0.00808096	0.00127880	0.00269569	0.00142035	0.01115128	0.01840987	0.02093168	0.00652645	0.00730887	0.00235461	0.00057097	0.00118395	0.00189722	0.00032714	0.00206897	0.00251165	0.00152906	0.00076976	0.00224466	0.00045953
1.65000000	0.00483768	0.00346677	0.00538215	0.00175246	0.00317690	0.00736557	0.00423607	0.00833942	0.00139773	0.00284256	0.00133882	0.01207907	0.01917301	0.02009533	0.00674064	0.00693616	0.00215433	0.00043012	0.00111838	0.00176085	0.00040122	0.00204209	0.00268968	0.00149130	0.00072307	0.00251236	0.00056234
1.66000000	0.00468941	0.00356633	0.00544673	0.00169069	0.00312748	0.00779958	0.00460554	0.00847013	0.00118522	0.00281608	0.00138156	0.01255302	0.01944618	0.02009017	0.00680117	0.00695356	0.00216505	0.00045967	0.00115753	0.00177432	0.00045050	0.00212112	0.00281413	0.00158411	0.00061727	0.00260094	0.00048274
1.67000000	0.00463490	0.00377197	0.00554362	0.00171441	0.00315317	0.00828836	0.00477439	0.00877073	0.00096812	0.00280652	0.00144717	0.01303777	0.01945725	0.02000916	0.00692259	0.00699385	0.00219473	0.00043193	0.00121980	0.00180376	0.00051264	0.00223288	0.00292201	0.00167942	0.00051518	0.00269196	0.00047985
1.68000000	0.00465575	0.00387952	0.00575301	0.00177396	0.00328188	0.00884441	0.00467002	0.00922824	0.00093687	0.00298102	0.00117366	0.01354190	0.01931816	0.01977146	0.00698509	0.00695773	0.00221979	0.00031383	0.00123118	0.00173736	0.00050592	0.00231485	0.00296898	0.00175085	0.00035513	0.00280244	0.00054211
1.69000000	0.00477914	0.00392447	0.00595774	0.00189811	0.00342030	0.00935582	0.00464726	0.00980928	0.00079362	0.00306467	0.00099299	0.01407384	0.01900992	0.01946062	0.00694669	0.00683378	0.00216017	0.00020865	0.00132490	0.00169713	0.00052698	0.00241881	0.00305025	0.00175635	0.00030958	0.00293046	0.00044041
1.70000000	0.00484666	0.00410604	0.00612038	0.00194636	0.00348978	0.00990384	0.00486863	0.01038691	0.00066129	0.00312884	0.00102294	0.01458538	0.01839911	0.01918901	0.00689607	0.00679981	0.00214401	0.00025259	0.00135947	0.00171033	0.00065830	0.00251506	0.00315079	0.00179433	0.00032907	0.00296012	0.00045543
1.71000000	0.00502347	0.00375863	0.00657162	0.00225222	0.00386431	0.01046685	0.00473710	0.01116302	0.00065214	0.00337059	0.00031180	0.01498865	0.01784034	0.01863060	0.00657080	0.00651366	0.00202835	0.00019572	0.00141425	0.00156930	0.00062894	0.00258627	0.00318525	0.00186365	0.00043331	0.00309736	0.00041290
1.72000000	0.00512289	0.00408771	0.00658183	0.00213565	0.00377806	0.01104199	0.00516732	0.01165423	0.00065166	0.00336210	0.00078728	0.01548330	0.01682973	0.01833151	0.00643248	0.00648122	0.00200679	0.00021236	0.00157505	0.00168080	0.00068003	0.00275049	0.00323129	0.00185890	0.00069119	0.00311096	0.00024833
1.73000000	0.00525304	0.00373435	0.00693067	0.00228804	0.00401137	0.01149955	0.00519218	0.01246550	0.00067396	0.00355642	0.00041493	0.01581614	0.01598936	0.01769877	0.00595829	0.00618844	0.00184901	0.00034119	0.00161361	0.00164141	0.00074438	0.00286398	0.00324740	0.00183350	0.00082821	0.00321252	0.00018003
1.74000000	0.00528751	0.00391543	0.00697538	0.00214310	0.00394756	0.01202568	0.00559397	0.01298217	0.00078597	0.00359121	0.00077171	0.01620722	0.01483706	0.01720874	0.00553037	0.00603868	0.00170462	0.00037620	0.00177029	0.00172835	0.00079245	0.00299950	0.00329395	0.00182686	0.00110796	0.00324216	0.00012553
1.75000000	0.00542908	0.00353571	0.00727252	0.00223762	0.00411073	0.01234049	0.00580081	0.01371072	0.00082967	0.00376431	0.00067710	0.01644645	0.01376644	0.01641077	0.00493943	0.00579084	0.00149324	0.00051088	0.00181898	0.00175280	0.00086151	0.00312808	0.00327475	0.00189680	0.00125587	0.00327315	0.00002436
1.76000000	0.00538781	0.00337068	0.00747722	0.00221301	0.00418027	0.01274476	0.00624487	0.01421869	0.00095907	0.00384147	0.00065660	0.01667594	0.01261980	0.01555876	0.00424991	0.00556288	0.00124160	0.00059629	0.00187351	0.00177082	0.00096290	0.00319474	0.00335994	0.00199134	0.00145913	0.00327906	0.00015882
1.77000000	0.00554575	0.00325781	0.00747837	0.00202995	0.00405558	0.01281839	0.00654573	0.01475812	0.00104175	0.00397368	0.00082978	0.01686598	0.01133706	0.01483561	0.00361561	0.00537162	0.00105154	0.00067796	0.00201165	0.00194219	0.00100352	0.00337334	0.00328111	0.00192212	0.00166807	0.00335524	0.00016748
1.78000000	0.00597672	0.00469372	0.00697344	0.00177496	0.00367849	0.01296402	0.00785826	0.01474921	0.00127922	0.00356335	0.00164243	0.01696175	0.00901357	0.01476437	0.00278859	0.00584067	0.00126834	0.00071199	0.00240551	0.00219574	0.00115849	0.00367236	0.00352299	0.00197750	0.00214947	0.00332530	0.00064039
1.79000000	0.00557072	0.00280483	0.00759619	0.00171975	0.00388757	0.01302727	0.00749769	0.01549398	0.00131673	0.00405826	0.00090040	0.01696860	0.00900649	0.01288370	0.00222274	0.00490493	0.00044000	0.00084197	0.00216982	0.00214475	0.00109955	0.00364754	0.00317113	0.00203502	0.00198098	0.00343542	0.00032160
1.80000000	0.00552053	0.00287375	0.00736508	0.00140717	0.00356618	0.01304823	0.00788284	0.01573949	0.00148947	0.00418576	0.00089424	0.01682882	0.00772388	0.01209760	0.00163495	0.00474296	0.00036307	0.00082737	0.00229983	0.00232235	0.00119389	0.00379504	0.00325196	0.00196083	0.00225202	0.00347576	0.00028859
1.81000000	0.00552919	0.00251649	0.00731888	0.00133728	0.00339411	0.01300009	0.00846109	0.01595999	0.00167070	0.00421423	0.00095853	0.01654647	0.00685914	0.01075083	0.00125681	0.00437818	0.00037429	0.00089707	0.00239759	0.00246106	0.00121975	0.00394809	0.00317430	0.00204574	0.00236023	0.00350138	0.00039309
1.82000000	0.00549027	0.00236730	0.00713669	0.00129339	0.00312531	0.01296904	0.00915871	0.01610902	0.00189619	0.00416334	0.00111084	0.01612921	0.00599204	0.00932960	0.00117375	0.00395216	0.00050554	0.00094273	0.00248719	0.00258455	0.00125971	0.00410003	0.00315285	0.00201222	0.00251197	0.00357618	0.00041108
1.83000000	0.00550915	0.00231993	0.00691798	0.00141063	0.00288239	0.01289253	0.01011557	0.01619437	0.00213684	0.00404866	0.00127202	0.01559761	0.00520186	0.00754921	0.00124366	0.00339245	0.00064525	0.00103125	0.00261741	0.00269849	0.00126401	0.00426217	0.00310015	0.00208467	0.00262573	0.00362760	0.00048286
1.84000000	0.00542528	0.00281985	0.00658496	0.00147247	0.00260814	0.01250577	0.01113747	0.01654239	0.00247206	0.00425004	0.00130885	0.01495853	0.00395633	0.00563562	0.00121817	0.00288933	0.00069801	0.00106053	0.00272612	0.00277031	0.00129768	0.00429908	0.00321048	0.00215775	0.00275458	0.00362862	0.00053040
1.85000000	0.00548319	0.00391927	0.00575651	0.00209150	0.00200367	0.01248271	0.01170741	0.01657400	0.00276529	0.00426206	0.00145504	0.01433918	0.00320955	0.00460154	0.00134730	0.00234661	0.00113318	0.00095024	0.00293922	0.00305392	0.00138762	0.00454978	0.00338394	0.00209669	0.00306417	0.00359281	0.00066899
1.86000000	0.00543849	0.00402906	0.00558993	0.00213215	0.00192990	0.01219888	0.01279983	0.01686256	0.00302258	0.00431409	0.00145516	0.01367185	0.00269484	0.00313373	0.00121674	0.00239436	0.00099472	0.00111782	0.00298260	0.00296557	0.00131379	0.00446862	0.00326785	0.00217012	0.00301910	0.00362830	0.00055562
1.87000000	0.00546917	0.00493810	0.00499885	0.00257724	0.00170936	0.01210271	0.01352887	0.01696753	0.00325864	0.00434178	0.00152380	0.01345854	0.00284483	0.00425313	0.00135050	0.00287146	0.00127135	0.00111290	0.00308958	0.00303196	0.00132266	0.00450058	0.00333883	0.00216080	0.00312916	0.00360337	0.00060500
1.88000000	0.00555884	0.00590042	0.00438651	0.00304825	0.00167210	0.01200254	0.01409139	0.01704977	0.00339633	0.00424917	0.00164109	0.01382093	0.00367117	0.00666403	0.00177883	0.00373798	0.00162469	0.00110504	0.00317106	0.00305580	0.00131673	0.00450291	0.00340069	0.00218667	0.00323215	0.00353725	0.00068562
1.89000000	0.00562653	0.00744131	0.00357224	0.00396396	0.00199233	0.01194780	0.01445027	0.01698087	0.00345710	0.00430774	0.00159420	0.01578356	0.00356135	0.00920055	0.00212139	0.00415788	0.00228081	0.00107778	0.00330064	0.00324450	0.00133762	0.00460709	0.00340044	0.00207597	0.00342253	0.00340678	0.00070151
1.90000000	0.00576060	0.00827511	0.00318974	0.00406664	0.00222346	0.01190869	0.01481677	0.01692723	0.00338521	0.00412635	0.00165492	0.01647533	0.00612608	0.01203339	0.00328904	0.00567840	0.00270457	0.00105578	0.00333727	0.00305961	0.00125323	0.00438335	0.00344689	0.00217970	0.00344875	0.00331350	0.00076754
1.91000000	0.00581657	0.00948551	0.00277240	0.00460922	0.00270267	0.01188643	0.01500872	0.01673226	0.00330889	0.00396418	0.00164826	0.01871736	0.00693826	0.01455397	0.00413797	0.00630789	0.00340420	0.00117885	0.00339447	0.00302573	0.00122949	0.00428952	0.00339277	0.00209179	0.00357254	0.00316867	0.00085679
1.92000000	0.00585036	0.01067473	0.00274981	0.00529030	0.00331591	0.01153753	0.01491491	0.01668822	0.00307478	0.00410231	0.00141294	0.02249199	0.00731556	0.01600518	0.00491212	0.00620431	0.00487426	0.00111351	0.00316779	0.00287754	0.00116565	0.00405961	0.00335994	0.00235138	0.00350665	0.00283614	0.00082844
1.93000000	0.00601707	0.01178284	0.00277161	0.00559600	0.00380738	0.01166640	0.01490128	0.01622423	0.00282029	0.00379914	0.00151653	0.02363565	0.00805532	0.01780746	0.00569733	0.00677240	0.00551794	0.00137348	0.00347934	0.00286163	0.00109150	0.00396674	0.00321742	0.00215417	0.00378592	0.00273445	0.00097046
1.94000000	0.00601135	0.01259405	0.00301823	0.00590151	0.00418965	0.01151531	0.01473589	0.01588875	0.00247861	0.00398376	0.00117039	0.02563058	0.00781659	0.01874832	0.00622614	0.00665026	0.00638396	0.00154208	0.00348384	0.00267728	0.00096861	0.00366351	0.00300968	0.00231483	0.00383889	0.00239654	0.00102072
1.95000000	0.00589857	0.01284172	0.00315486	0.00584923	0.00427820	0.01117809	0.01443990	0.01581405	0.00213341	0.00409912	0.00105182	0.02669108	0.00766781	0.01937377	0.00664433	0.00631513	0.00682636	0.00177869	0.00340861	0.00241285	0.00095274	0.00324451	0.00294914	0.00265767	0.00392037	0.00188641	0.00122342
1.96000000	0.00585442	0.01307904	0.00346514	0.00577557	0.00445807	0.01154612	0.01416204	0.01496797	0.00171194	0.00363787	0.00121116	0.02588085	0.00816754	0.01917361	0.00706704	0.00629986	0.00713597	0.00198680	0.00339853	0.00213546	0.00090154	0.00290728	0.00283930	0.00251902	0.00400878	0.00181356	0.00125576
1.97000000	0.00561773	0.01278599	0.00339738	0.00531579	0.00420990	0.01134573	0.01393081	0.01472763	0.00130575	0.00372336	0.00084127	0.02444926	0.00795085	0.01886790	0.00707584	0.00568354	0.00690610	0.00230459	0.00338513	0.00186490	0.00095580	0.00236401	0.00278299	0.00293377	0.00408738	0.00116254	0.00155052
1.98000000	0.00566774	0.01212781	0.00360037	0.00507633	0.00421304	0.01183935	0.01306590	0.01333523	0.00067518	0.00274417	0.00155504	0.02207269	0.00809789	0.01764984	0.00704919	0.00545214	0.00638615	0.00230738	0.00332489	0.00151502	0.00076743	0.00200437	0.00253053	0.00280878	0.00411748	0.00108109	0.00144544
1.99000000	0.00540297	0.01122101	0.00348492	0.00448718	0.00386722	0.01167413	0.01270523	0.01290918	0.00044769	0.00287872	0.00116926	0.01865220	0.00828142	0.01614388	0.00680293	0.00516159	0.00575547	0.00257585	0.00331207	0.00119833	0.00074360	0.00150897	0.00230026	0.00300210	0.00417937	0.00066329	0.00156358
2.00000000	0.00512005	0.01027789	0.00327892	0.00375269	0.00339988	0.01149936	0.01256646	0.01249878	0.00055603	0.00307694	0.00092139	0.01418873	0.00850680	0.01439121	0.00635210	0.00488829	0.00523827	0.00277815	0.00331205	0.00095754	0.00083025	0.00096100	0.00224904	0.00324967	0.00420366	0.00023883	0.00191817
2.01000000	0.00504358	0.00932290	0.00348652	0.00384119	0.00355678	0.01135980	0.01252362	0.01177855	0.00075958	0.00269872	0.00104330	0.01203708	0.00726195	0.01139558	0.00571432	0.00356457	0.00429796	0.00322632	0.00326993	0.00090199	0.00088275	0.00089871	0.00192228	0.00356280	0.00427803	0.00028802	0.00185176
2.02000000	0.00497821	0.00842907	0.00354939	0.00369060	0.00350538	0.01122016	0.01275002	0.01112259	0.00100713	0.00261179	0.00101721	0.00870617	0.00665302	0.00860453	0.00523255	0.00241795	0.00345006	0.00359837	0.00333854	0.00087289	0.00099026	0.00074972	0.00160388	0.00386531	0.00437221	0.00078965	0.00202870
2.03000000	0.00503118	0.00765892	0.00362765	0.00368668	0.00350885	0.01103511	0.01305386	0.01054142	0.00123331	0.00257265	0.00099978	0.00587022	0.00605790	0.00575079	0.00478997	0.00138184	0.00249617	0.00392956	0.00330315	0.00087919	0.00112717	0.00072754	0.00141561	0.00414751	0.00435976	0.00121038	0.00215064
2.04000000	0.00520108	0.00652228	0.00370041	0.00341020	0.00334826	0.01100069	0.01343806	0.00987562	0.00165107	0.00265740	0.00123866	0.00311537	0.00640891	0.00357568	0.00441834	0.00111804	0.00191923	0.00412371	0.00328505	0.00083987	0.00124872	0.00063093	0.00128767	0.00429530	0.00436922	0.00154941	0.00216393
2.05000000	0.00538259	0.00660558	0.00375597	0.00381818	0.00351623	0.01086274	0.01350736	0.00926319	0.00188431	0.00273939	0.00107854	0.00284844	0.00502936	0.00159060	0.00422696	0.00176156	0.00109012	0.00446314	0.00322901	0.00096713	0.00140258	0.00087798	0.00103496	0.00453348	0.00424041	0.00195904	0.00236405
2.06000000	0.00560954	0.00598883	0.00377577	0.00370736	0.00339263	0.01096428	0.01361406	0.00862486	0.00234712	0.00304945	0.00111598	0.00351270	0.00507981	0.00122287	0.00393320	0.00202041	0.00105198	0.00457691	0.00313556	0.00097875	0.00152550	0.00088116	0.00098527	0.00458799	0.00409352	0.00217377	0.00238812
2.07000000	0.00587700	0.00582779	0.00378012	0.00375497	0.00334320	0.01112961	0.01345533	0.00805222	0.00270682	0.00327938	0.00122719	0.00389416	0.00477344	0.00170670	0.00362587	0.00249751	0.00103663	0.00461490	0.00301928	0.00102552	0.00161955	0.00097566	0.00093702	0.00455824	0.00390904	0.00225981	0.00238631
2.08000000	0.00607257	0.00601524	0.00368897	0.00381822	0.00327008	0.01136661	0.01280621	0.00753346	0.00302913	0.00362089	0.00147150	0.00382060	0.00447994	0.00203744	0.00335052	0.00258659	0.00150562	0.00467583	0.00279620	0.00110275	0.00173054	0.00108805	0.00094745	0.00450408	0.00354692	0.00244744	0.00243560
2.09000000	0.00625106	0.00594195	0.00364358	0.00382074	0.00319536	0.01153389	0.01235953	0.00693625	0.00348043	0.00410508	0.00136195	0.00310303	0.00409719	0.00207967	0.00310398	0.00291648	0.00101690	0.00452436	0.00264284	0.00110795	0.00176446	0.00115796	0.00095512	0.00432678	0.00329989	0.00226086	0.00234525
2.10000000	0.00643706	0.00613140	0.00356142	0.00395639	0.00322666	0.01170849	0.01145015	0.00598733	0.00378893	0.00389741	0.00140386	0.00244829	0.00369625	0.00179651	0.00294843	0.00302034	0.00111387	0.00443387	0.00255940	0.00120717	0.00188653	0.00130786	0.00105073	0.00412208	0.00309332	0.00230486	0.00232865
2.11000000	0.00651780	0.00611046	0.00343697	0.00388796	0.00307424	0.01182837	0.01039853	0.00549441	0.00417899	0.00434434	0.00138379	0.00179399	0.00362718	0.00163017	0.00285542	0.00301375	0.00091778	0.00421418	0.00232006	0.00125649	0.00191231	0.00142843	0.00110218	0.00384155	0.00275479	0.00202158	0.00216573
2.12000000	0.00664022	0.00634400	0.00325416	0.00388168	0.00292370	0.01188837	0.00901040	0.00497172	0.00438467	0.00454385	0.00212750	0.00151740	0.00376205	0.00166103	0.00268855	0.00261677	0.00145333	0.00398847	0.00214026	0.00133151	0.00196852	0.00158515	0.00122967	0.00360781	0.00244899	0.00170530	0.00203973
2.13000000	0.00660482	0.00582868	0.00326204	0.00369045	0.00276816	0.01174070	0.00791815	0.00427684	0.00487924	0.00514892	0.00155909	0.00173408	0.00371521	0.00139638	0.00274444	0.00271138	0.00103586	0.00359856	0.00190880	0.00138774	0.00191870	0.00169721	0.00120939	0.00316558	0.00208489	0.00129918	0.00188658
2.14000000	0.00658543	0.00552245	0.00321108	0.00351381	0.00257897	0.01152818	0.00651142	0.00360646	0.00519532	0.00536640	0.00148983	0.00200976	0.00378472	0.00128224	0.00264697	0.00260830	0.00091584	0.00327407	0.00167748	0.00141155	0.00190873	0.00182420	0.00130430	0.00279879	0.00173390	0.00101555	0.00170628
2.15000000	0.00633271	0.00513615	0.00312933	0.00330557	0.00240625	0.01102931	0.00475277	0.00252295	0.00536476	0.00463954	0.00144368	0.00215978	0.00386312	0.00102792	0.00255699	0.00241463	0.00075439	0.00295100	0.00162038	0.00149562	0.00193010	0.00197305	0.00137008	0.00236647	0.00147263	0.00083776	0.00150760
2.16000000	0.00596148	0.00487988	0.00302711	0.00297878	0.00214336	0.01059623	0.00290686	0.00198881	0.00561744	0.00481531	0.00127842	0.00246207	0.00412589	0.00140268	0.00265618	0.00238823	0.00083899	0.00263239	0.00141972	0.00152108	0.00188889	0.00206963	0.00142506	0.00200212	0.00114195	0.00042226	0.00127814
2.17000000	0.00547778	0.00504996	0.00292828	0.00281292	0.00205796	0.01005429	0.00115690	0.00163406	0.00576036	0.00493039	0.00162040	0.00341532	0.00429957	0.00181666	0.00269892	0.00230546	0.00117801	0.00228680	0.00124238	0.00158627	0.00181044	0.00222219	0.00141521	0.00163530	0.00094260	0.00035411	0.00105906
2.18000000	0.00470904	0.00447427	0.00281423	0.00225470	0.00176977	0.00936057	0.00091188	0.00241170	0.00586286	0.00407814	0.00116809	0.00340550	0.00482721	0.00324539	0.00277471	0.00267956	0.00054967	0.00185581	0.00127063	0.00152140	0.00173283	0.00218376	0.00141234	0.00130542	0.00063723	0.00029534	0.00082661
2.19000000	0.00437607	0.00475378	0.00265663	0.00206060	0.00161257	0.00896549	0.00212775	0.00328983	0.00594492	0.00400915	0.00092694	0.00545905	0.00472668	0.00438483	0.00293877	0.00286357	0.00110965	0.00162721	0.00112769	0.00153031	0.00163495	0.00226072	0.00135056	0.00107873	0.00030307	0.00052752	0.00064942
2.20000000	0.00374610	0.00472665	0.00236156	0.00169231	0.00144709	0.00865188	0.00347032	0.00490547	0.00590339	0.00360073	0.00089978	0.00619292	0.00554084	0.00605244	0.00318043	0.00355219	0.00095942	0.00131406	0.00112206	0.00152806	0.00160214	0.00223461	0.00138986	0.00090346	0.00022454	0.00074970	0.00043746
2.21000000	0.00358419	0.00504668	0.00211807	0.00158989	0.00135955	0.00870236	0.00457309	0.00630701	0.00585317	0.00370785	0.00092290	0.00911665	0.00534567	0.00721074	0.00353972	0.00367294	0.00153029	0.00121465	0.00102524	0.00159223	0.00151310	0.00232059	0.00128627	0.00075693	0.00019549	0.00102146	0.00047265
2.22000000	0.00356518	0.00526378	0.00167886	0.00132154	0.00112492	0.00916249	0.00516497	0.00799018	0.00595274	0.00367979	0.00075692	0.00920476	0.00622569	0.00885097	0.00382554	0.00449635	0.00186679	0.00095232	0.00103359	0.00157257	0.00156579	0.00220209	0.00142428	0.00074995	0.00010169	0.00103739	0.00020026
2.23000000	0.00408904	0.00556212	0.00156421	0.00132626	0.00106551	0.00989540	0.00540388	0.00970471	0.00594660	0.00393171	0.00064122	0.01106913	0.00587262	0.00967619	0.00392953	0.00474966	0.00212235	0.00085535	0.00096118	0.00150891	0.00138818	0.00218036	0.00121852	0.00084788	0.00031353	0.00105940	0.00016808
2.24000000	0.00452324	0.00572670	0.00132948	0.00120270	0.00089971	0.01092865	0.00566016	0.01128358	0.00599156	0.00432107	0.00096057	0.01189443	0.00575997	0.01017148	0.00406179	0.00490486	0.00231604	0.00075668	0.00089078	0.00145154	0.00129657	0.00209481	0.00114006	0.00076332	0.00042325	0.00115492	0.00029570
2.25000000	0.00491433	0.00557847	0.00111998	0.00104255	0.00068234	0.01202187	0.00583814	0.01277385	0.00607597	0.00477521	0.00136021	0.01196434	0.00560500	0.01024570	0.00409021	0.00496511	0.00230120	0.00062630	0.00083829	0.00132789	0.00119951	0.00194168	0.00108476	0.00073367	0.00064052	0.00120435	0.00041614
2.26000000	0.00569888	0.00594948	0.00070847	0.00154960	0.00061100	0.01301260	0.00787840	0.01305983	0.00603130	0.00531550	0.00347623	0.01164365	0.00574796	0.00954293	0.00411853	0.00488638	0.00180717	0.00059785	0.00095650	0.00104821	0.00080592	0.00162341	0.00079785	0.00067283	0.00057794	0.00158763	0.00097794
2.27000000	0.00560825	0.00537160	0.00076673	0.00092566	0.00042647	0.01394025	0.00605633	0.01535826	0.00611149	0.00569421	0.00221088	0.00977920	0.00502609	0.00913256	0.00381815	0.00479383	0.00170719	0.00049489	0.00087093	0.00113365	0.00103351	0.00163618	0.00101994	0.00080768	0.00080889	0.00114408	0.00078465
2.28000000	0.00573394	0.00456563	0.00076069	0.00127787	0.00066981	0.01471844	0.00651185	0.01617816	0.00614850	0.00600672	0.00309695	0.00816376	0.00496791	0.00792180	0.00367806	0.00440886	0.00132069	0.00047046	0.00108044	0.00092908	0.00086191	0.00142400	0.00099197	0.00093648	0.00111993	0.00109771	0.00098755
2.29000000	0.00572681	0.00486795	0.00078693	0.00122689	0.00079301	0.01481953	0.00633286	0.01731039	0.00605601	0.00636922	0.00304677	0.00647663	0.00416253	0.00630765	0.00328480	0.00386961	0.00089164	0.00053987	0.00111780	0.00092594	0.00086062	0.00138599	0.00094235	0.00070573	0.00099303	0.00116375	0.00122792
2.30000000	0.00583984	0.00426049	0.00107719	0.00198999	0.00137617	0.01539024	0.00706036	0.01734801	0.00612632	0.00650168	0.00382437	0.00405723	0.00424377	0.00500152	0.00320799	0.00346129	0.00075905	0.00067098	0.00144363	0.00066076	0.00070035	0.00118618	0.00090835	0.00083952	0.00134678	0.00120393	0.00148223
2.31000000	0.00557883	0.00460297	0.00126293	0.00192332	0.00154410	0.01542151	0.00659046	0.01809197	0.00607162	0.00662348	0.00408182	0.00183945	0.00310021	0.00395327	0.00276660	0.00293071	0.00088723	0.00073276	0.00153169	0.00076475	0.00079327	0.00117098	0.00097259	0.00084811	0.00147788	0.00109957	0.00150749
2.32000000	0.00546695	0.00452192	0.00144320	0.00258793	0.00196127	0.01548332	0.00738868	0.01781414	0.00611982	0.00665291	0.00449348	0.00118363	0.00337086	0.00255980	0.00274914	0.00265386	0.00149963	0.00087892	0.00185448	0.00067000	0.00073777	0.00117347	0.00114952	0.00090441	0.00174242	0.00109488	0.00186212
2.33000000	0.00540769	0.00524292	0.00148733	0.00227081	0.00191799	0.01485308	0.00708616	0.01828605	0.00593561	0.00671305	0.00477531	0.00179393	0.00232596	0.00296772	0.00246104	0.00213855	0.00182496	0.00098763	0.00197911	0.00077908	0.00083233	0.00120696	0.00121934	0.00074100	0.00176308	0.00107689	0.00200575
2.34000000	0.00510794	0.00542561	0.00172586	0.00291667	0.00232301	0.01478427	0.00824449	0.01758776	0.00589792	0.00641914	0.00480324	0.00340432	0.00264320	0.00293227	0.00257647	0.00234287	0.00222562	0.00110870	0.00228501	0.00083324	0.00082641	0.00126062	0.00120790	0.00079487	0.00200067	0.00117300	0.00232132
2.35000000	0.00479817	0.00576497	0.00177981	0.00309863	0.00245167	0.01427133	0.00857578	0.01739539	0.00596187	0.00628585	0.00468962	0.00453576	0.00246509	0.00337893	0.00259394	0.00273693	0.00250069	0.00121306	0.00255389	0.00094022	0.00086857	0.00136323	0.00122415	0.00090496	0.00230078	0.00116443	0.00246567
2.36000000	0.00504017	0.00600264	0.00169681	0.00258087	0.00222473	0.01334977	0.00851618	0.01764393	0.00568568	0.00626209	0.00481605	0.00428903	0.00183546	0.00468657	0.00243043	0.00288915	0.00283405	0.00127926	0.00260801	0.00102151	0.00097892	0.00134956	0.00136082	0.00070709	0.00224281	0.00113936	0.00264872
2.37000000	0.00475267	0.00613851	0.00181871	0.00280427	0.00234180	0.01301618	0.00946463	0.01708327	0.00562212	0.00592671	0.00443740	0.00423621	0.00189889	0.00465853	0.00248264	0.00325552	0.00287640	0.00140515	0.00279427	0.00108718	0.00100623	0.00136278	0.00142026	0.00073318	0.00243920	0.00125102	0.00289138
2.38000000	0.00524357	0.00602027	0.00206063	0.00268866	0.00225052	0.01254878	0.01057441	0.01665556	0.00540837	0.00556404	0.00451842	0.00388070	0.00208805	0.00472188	0.00214730	0.00302912	0.00317387	0.00166001	0.00282775	0.00121784	0.00111892	0.00127494	0.00168644	0.00098564	0.00263672	0.00135839	0.00314061
2.39000000	0.00463682	0.00598677	0.00196641	0.00267914	0.00226852	0.01236531	0.01084822	0.01648272	0.00544973	0.00546968	0.00358052	0.00281330	0.00181705	0.00406246	0.00239055	0.00383392	0.00287884	0.00151671	0.00305353	0.00125998	0.00111611	0.00139117	0.00152279	0.00082166	0.00270996	0.00133229	0.00320454
2.40000000	0.00533250	0.00524691	0.00197032	0.00228678	0.00212787	0.01184382	0.01069831	0.01675925	0.00543020	0.00577158	0.00380888	0.00221819	0.00208767	0.00404522	0.00188685	0.00337368	0.00286218	0.00147752	0.00308569	0.00127432	0.00119026	0.00146727	0.00160545	0.00081904	0.00271848	0.00123391	0.00328061
2.41000000	0.00525966	0.00494126	0.00212668	0.00214752	0.00205752	0.01174619	0.01149778	0.01654782	0.00536092	0.00561258	0.00336605	0.00068379	0.00227218	0.00349583	0.00182537	0.00364249	0.00289836	0.00147916	0.00318875	0.00130648	0.00118712	0.00140801	0.00161300	0.00077115	0.00276223	0.00132597	0.00343340
2.42000000	0.00561459	0.00411552	0.00222994	0.00217137	0.00208387	0.01152547	0.01181056	0.01660499	0.00540420	0.00585148	0.00348975	0.00026373	0.00306889	0.00315855	0.00133587	0.00298651	0.00236861	0.00155262	0.00313534	0.00128695	0.00124321	0.00144482	0.00171873	0.00087526	0.00278695	0.00133110	0.00341987
2.43000000	0.00558519	0.00376036	0.00240114	0.00198167	0.00199004	0.01160928	0.01247646	0.01642704	0.00545463	0.00585292	0.00319274	0.00165960	0.00321203	0.00287979	0.00137561	0.00325038	0.00250355	0.00142619	0.00328081	0.00132990	0.00121739	0.00142239	0.00168150	0.00075456	0.00292668	0.00141083	0.00343148
2.44000000	0.00585227	0.00322568	0.00246918	0.00211376	0.00201783	0.01153578	0.01280363	0.01645735	0.00557684	0.00603147	0.00328724	0.00163952	0.00387888	0.00323664	0.00104200	0.00273532	0.00185442	0.00140989	0.00330774	0.00130113	0.00122497	0.00147464	0.00174004	0.00088970	0.00289360	0.00139976	0.00347187
2.45000000	0.00595007	0.00298164	0.00258766	0.00211232	0.00199937	0.01167720	0.01321166	0.01635644	0.00574751	0.00609195	0.00319338	0.00264027	0.00417934	0.00346576	0.00109889	0.00274456	0.00170346	0.00135308	0.00333801	0.00129933	0.00121876	0.00147494	0.00180342	0.00088412	0.00283189	0.00143111	0.00348927
2.46000000	0.00619864	0.00271302	0.00272696	0.00197635	0.00194628	0.01190739	0.01349829	0.01629805	0.00592590	0.00617519	0.00323371	0.00377741	0.00439043	0.00359228	0.00120099	0.00273831	0.00192614	0.00126994	0.00337237	0.00125890	0.00119718	0.00148231	0.00191598	0.00086397	0.00291451	0.00140999	0.00336459
2.47000000	0.00648199	0.00262336	0.00280882	0.00194963	0.00194511	0.01218139	0.01361323	0.01632707	0.00617157	0.00617222	0.00325660	0.00449264	0.00456009	0.00372084	0.00132360	0.00274575	0.00208868	0.00119098	0.00334456	0.00123070	0.00121207	0.00153059	0.00206241	0.00085410	0.00287138	0.00137986	0.00325446
2.48000000	0.00665100	0.00283190	0.00277609	0.00202985	0.00191797	0.01249135	0.01356150	0.01636694	0.00641307	0.00622812	0.00352920	0.00472261	0.00448820	0.00407931	0.00140852	0.00280075	0.00188454	0.00111143	0.00341208	0.00121757	0.00116128	0.00156025	0.00207768	0.00076885	0.00270627	0.00146171	0.00322775
2.49000000	0.00703669	0.00281128	0.00286080	0.00202200	0.00194822	0.01300790	0.01345596	0.01653888	0.00660130	0.00620886	0.00367812	0.00477651	0.00505600	0.00388894	0.00161508	0.00252805	0.00206179	0.00110200	0.00329405	0.00111230	0.00121490	0.00162286	0.00239608	0.00096749	0.00270846	0.00127272	0.00300075
2.50000000	0.00703506	0.00328986	0.00279381	0.00230228	0.00195956	0.01333818	0.01311099	0.01676898	0.00679832	0.00618995	0.00407395	0.00451777	0.00468464	0.00444802	0.00155175	0.00281579	0.00170935	0.00091222	0.00345335	0.00110121	0.00108431	0.00164399	0.00225165	0.00079162	0.00254758	0.00142585	0.00299283
2.51000000	0.00712014	0.00368263	0.00278139	0.00243449	0.00195998	0.01393597	0.01275445	0.01711104	0.00694740	0.00609490	0.00431102	0.00418807	0.00486780	0.00456979	0.00152873	0.00284934	0.00155019	0.00086552	0.00340979	0.00104633	0.00105038	0.00163240	0.00241826	0.00073496	0.00246829	0.00147716	0.00286128
2.52000000	0.00721359	0.00445021	0.00284271	0.00281707	0.00210787	0.01437954	0.01229811	0.01745529	0.00697044	0.00605799	0.00455422	0.00379797	0.00470022	0.00486140	0.00169254	0.00304258	0.00125427	0.00081682	0.00349336	0.00102218	0.00094176	0.00163426	0.00236801	0.00073024	0.00240094	0.00153991	0.00270119
2.53000000	0.00733899	0.00461663	0.00286613	0.00279056	0.00207643	0.01531192	0.01163271	0.01797331	0.00711220	0.00603441	0.00471518	0.00341592	0.00543363	0.00474544	0.00166411	0.00295962	0.00140591	0.00070431	0.00344740	0.00097614	0.00092897	0.00169644	0.00255710	0.00085345	0.00239245	0.00142896	0.00251259
2.54000000	0.00746347	0.00533236	0.00297767	0.00307361	0.00220569	0.01589740	0.01108143	0.01839051	0.00698187	0.00596659	0.00484215	0.00321573	0.00525960	0.00510184	0.00175756	0.00334719	0.00122873	0.00070086	0.00350535	0.00094308	0.00079227	0.00165899	0.00246927	0.00075443	0.00228481	0.00155503	0.00236324
2.55000000	0.00756661	0.00577253	0.00306463	0.00312571	0.00222859	0.01669408	0.01036883	0.01879193	0.00689454	0.00595417	0.00483866	0.00317919	0.00566029	0.00524430	0.00182859	0.00340698	0.00135703	0.00065728	0.00347236	0.00087417	0.00073192	0.00166277	0.00261134	0.00075908	0.00221045	0.00155503	0.00220891
2.56000000	0.00792747	0.00650825	0.00320678	0.00325038	0.00229337	0.01710564	0.00971245	0.01905158	0.00666979	0.00588716	0.00475745	0.00335872	0.00553611	0.00561329	0.00197398	0.00366624	0.00136975	0.00071650	0.00346575	0.00084627	0.00065074	0.00165355	0.00271028	0.00084983	0.00215419	0.00157666	0.00205787
2.57000000	0.00772509	0.00657295	0.00325900	0.00294000	0.00217458	0.01791179	0.00880328	0.01927907	0.00653048	0.00582615	0.00449162	0.00365690	0.00648799	0.00575650	0.00191265	0.00364443	0.00151968	0.00066492	0.00334288	0.00089193	0.00064344	0.00171941	0.00282065	0.00086054	0.00197524	0.00155174	0.00197235
2.58000000	0.00816326	0.00725791	0.00343722	0.00307806	0.00222636	0.01779097	0.00827773	0.01894425	0.00610861	0.00568249	0.00426831	0.00418351	0.00609439	0.00643250	0.00220433	0.00394367	0.00168851	0.00072988	0.00347179	0.00080213	0.00050514	0.00174815	0.00289214	0.00096486	0.00208613	0.00155962	0.00178790
2.59000000	0.00778499	0.00719848	0.00356207	0.00263748	0.00213870	0.01788910	0.00738464	0.01867759	0.00584105	0.00552599	0.00393961	0.00478885	0.00687693	0.00672576	0.00226329	0.00409023	0.00174271	0.00070042	0.00336303	0.00086650	0.00046257	0.00182173	0.00290506	0.00089452	0.00192945	0.00156183	0.00160681
2.60000000	0.00804711	0.00761857	0.00376878	0.00259292	0.00224528	0.01702333	0.00681337	0.01785276	0.00531656	0.00528066	0.00375087	0.00537752	0.00680669	0.00757983	0.00246796	0.00432455	0.00170355	0.00081920	0.00326736	0.00086144	0.00044506	0.00178816	0.00292895	0.00099957	0.00173852	0.00162378	0.00153529
2.61000000	0.00781254	0.00778606	0.00392966	0.00227874	0.00219970	0.01642097	0.00635137	0.01630689	0.00501651	0.00478031	0.00323653	0.00607239	0.00701560	0.00812569	0.00256673	0.00445385	0.00190894	0.00082744	0.00338714	0.00077699	0.00033908	0.00183265	0.00308000	0.00099845	0.00188250	0.00162850	0.00149486
2.62000000	0.00705562	0.00764005	0.00417564	0.00162453	0.00236677	0.01536145	0.00553503	0.01505661	0.00472516	0.00435766	0.00295539	0.00674145	0.00772785	0.00832090	0.00258940	0.00458270	0.00188273	0.00075858	0.00323240	0.00086704	0.00035136	0.00192290	0.00317010	0.00098875	0.00173233	0.00158138	0.00133935
2.63000000	0.00649704	0.00767058	0.00446533	0.00128153	0.00264435	0.01379718	0.00514751	0.01336004	0.00422731	0.00382333	0.00276808	0.00714433	0.00791642	0.00884544	0.00268237	0.00474086	0.00186381	0.00074988	0.00320473	0.00086509	0.00026831	0.00193847	0.00310846	0.00096438	0.00164929	0.00157143	0.00123226
2.64000000	0.00674558	0.00785854	0.00455437	0.00134753	0.00271765	0.01249667	0.00475811	0.01027260	0.00400428	0.00298021	0.00210482	0.00761188	0.00771991	0.00936276	0.00280638	0.00481645	0.00203071	0.00099913	0.00322818	0.00065331	0.00032129	0.00168238	0.00314678	0.00109744	0.00169626	0.00169220	0.00125295
2.65000000	0.00602788	0.00785182	0.00477537	0.00118687	0.00299910	0.01086527	0.00443015	0.00826507	0.00357317	0.00240138	0.00190826	0.00778882	0.00808296	0.00931344	0.00278137	0.00478727	0.00219740	0.00106725	0.00327806	0.00055241	0.00028438	0.00163624	0.00301443	0.00109435	0.00161845	0.00171335	0.00123967
2.66000000	0.00553440	0.00776761	0.00483695	0.00130398	0.00323710	0.00946250	0.00406474	0.00654870	0.00336651	0.00262780	0.00277337	0.00762117	0.00849268	0.00927450	0.00272823	0.00470772	0.00243118	0.00116489	0.00313709	0.00045719	0.00033116	0.00139122	0.00301438	0.00106406	0.00158013	0.00179818	0.00114779
2.67000000	0.00482958	0.00761558	0.00526211	0.00162802	0.00371102	0.00911402	0.00388511	0.00526357	0.00286799	0.00118625	0.00168015	0.00758380	0.00847562	0.00879848	0.00270900	0.00506673	0.00216302	0.00114397	0.00296922	0.00045319	0.00023377	0.00128870	0.00285838	0.00101357	0.00136062	0.00174512	0.00103529
2.68000000	0.00518650	0.00783471	0.00511319	0.00178626	0.00372691	0.00905421	0.00363475	0.00417436	0.00264198	0.00140474	0.00076733	0.00785159	0.00744029	0.00821488	0.00261357	0.00500801	0.00258941	0.00136475	0.00303203	0.00047122	0.00038964	0.00105542	0.00278433	0.00114684	0.00142735	0.00181819	0.00107682
2.69000000	0.00495113	0.00785339	0.00517047	0.00207063	0.00391566	0.00949749	0.00356899	0.00493462	0.00228188	0.00150639	0.00046485	0.00774539	0.00709188	0.00740723	0.00255684	0.00506128	0.00282216	0.00152519	0.00291810	0.00064549	0.00044197	0.00090731	0.00261270	0.00116102	0.00132809	0.00187420	0.00100675
2.70000000	0.00468002	0.00790897	0.00524139	0.00233216	0.00409085	0.01021582	0.00347613	0.00597259	0.00194284	0.00164082	0.00035840	0.00760164	0.00679477	0.00647562	0.00247148	0.00508693	0.00307966	0.00163134	0.00281902	0.00084391	0.00047753	0.00086054	0.00243736	0.00122119	0.00124323	0.00184250	0.00092192
2.71000000	0.00454193	0.00811632	0.00515262	0.00268437	0.00421555	0.01114158	0.00376739	0.00635370	0.00145253	0.00126600	0.00068704	0.00758741	0.00682619	0.00576206	0.00240153	0.00474217	0.00376534	0.00179682	0.00250440	0.00105530	0.00045386	0.00081835	0.00218671	0.00133690	0.00120312	0.00179535	0.00064735
2.72000000	0.00421125	0.00800754	0.00519156	0.00272994	0.00428123	0.01154053	0.00321326	0.00740195	0.00132466	0.00169285	0.00083702	0.00773070	0.00582833	0.00453304	0.00250910	0.00525076	0.00349592	0.00193472	0.00241106	0.00133456	0.00054264	0.00107421	0.00202335	0.00129231	0.00091311	0.00183344	0.00068175
2.73000000	0.00404274	0.00826093	0.00506483	0.00293633	0.00432116	0.01205847	0.00305361	0.00717158	0.00112504	0.00112394	0.00110764	0.00796969	0.00573197	0.00390234	0.00254318	0.00498753	0.00362229	0.00209632	0.00215286	0.00157756	0.00059584	0.00127686	0.00181854	0.00128868	0.00073344	0.00183120	0.00051759
2.74000000	0.00369456	0.00792988	0.00507615	0.00296635	0.00435489	0.01187583	0.00303505	0.00730269	0.00136367	0.00147768	0.00159573	0.00822635	0.00500089	0.00273702	0.00275223	0.00533922	0.00388432	0.00218663	0.00190573	0.00180089	0.00057042	0.00154560	0.00156709	0.00125577	0.00044584	0.00176935	0.00038815
2.75000000	0.00314539	0.00781250	0.00511950	0.00304874	0.00441778	0.01180878	0.00263333	0.00672861	0.00158131	0.00110879	0.00194478	0.00855080	0.00499147	0.00202090	0.00283077	0.00529531	0.00411576	0.00226422	0.00160850	0.00193495	0.00057080	0.00170543	0.00135420	0.00113578	0.00018657	0.00175303	0.00031260
2.76000000	0.00265526	0.00766193	0.00503295	0.00299610	0.00434750	0.01150934	0.00241554	0.00593253	0.00198535	0.00087208	0.00224720	0.00892519	0.00468727	0.00177685	0.00307067	0.00536347	0.00404919	0.00244422	0.00125505	0.00213525	0.00058049	0.00192993	0.00123870	0.00114637	0.00029298	0.00166584	0.00007823
2.77000000	0.00269367	0.00781048	0.00475633	0.00296466	0.00419164	0.01114765	0.00228285	0.00487208	0.00240739	0.00104336	0.00214871	0.00914911	0.00440198	0.00193316	0.00340652	0.00501213	0.00411680	0.00266916	0.00100194	0.00234390	0.00069743	0.00214536	0.00141787	0.00112884	0.00054205	0.00172304	0.00037835
2.78000000	0.00202360	0.00731013	0.00484538	0.00289157	0.00418176	0.01040410	0.00221391	0.00437326	0.00284529	0.00125638	0.00268618	0.00943363	0.00429260	0.00181752	0.00353612	0.00523516	0.00412327	0.00278270	0.00083460	0.00244026	0.00063887	0.00227265	0.00143075	0.00108955	0.00099390	0.00154381	0.00054200
2.79000000	0.00194541	0.00703365	0.00474225	0.00281862	0.00406893	0.00969232	0.00231946	0.00380410	0.00321272	0.00155306	0.00266872	0.00961752	0.00405619	0.00207349	0.00378728	0.00521240	0.00414664	0.00295936	0.00090171	0.00258127	0.00071515	0.00242610	0.00171783	0.00106693	0.00131208	0.00147581	0.00079677
2.80000000	0.00209946	0.00677271	0.00461625	0.00275449	0.00394663	0.00889174	0.00260702	0.00349546	0.00344556	0.00198178	0.00261706	0.00978192	0.00381664	0.00242432	0.00403728	0.00515820	0.00421536	0.00313354	0.00118373	0.00270285	0.00076044	0.00256613	0.00197700	0.00106839	0.00168715	0.00135042	0.00106262
2.81000000	0.00239408	0.00651587	0.00444051	0.00267372	0.00378739	0.00822689	0.00297925	0.00332917	0.00363176	0.00233188	0.00227623	0.00989681	0.00368635	0.00284686	0.00437338	0.00501208	0.00426197	0.00333343	0.00152210	0.00279624	0.00079723	0.00267073	0.00233922	0.00114101	0.00197262	0.00127275	0.00142219
2.82000000	0.00244811	0.00606881	0.00440722	0.00266943	0.00371165	0.00727271	0.00335251	0.00371285	0.00368977	0.00269141	0.00232167	0.01006052	0.00351971	0.00326932	0.00451523	0.00509068	0.00424373	0.00342229	0.00188012	0.00285014	0.00089869	0.00273944	0.00271303	0.00106380	0.00230612	0.00118358	0.00159166
2.83000000	0.00255957	0.00568660	0.00427401	0.00258944	0.00355701	0.00661538	0.00380658	0.00392563	0.00361890	0.00296464	0.00196580	0.01014106	0.00333085	0.00366962	0.00473489	0.00499742	0.00428625	0.00360631	0.00221914	0.00294254	0.00097644	0.00281909	0.00306835	0.00107871	0.00250849	0.00112809	0.00188657
2.84000000	0.00266445	0.00529642	0.00415758	0.00258487	0.00344146	0.00572577	0.00416608	0.00430824	0.00341349	0.00334128	0.00175594	0.01014417	0.00323932	0.00404301	0.00506765	0.00481047	0.00423858	0.00372034	0.00250963	0.00292934	0.00098470	0.00282288	0.00343255	0.00115892	0.00270371	0.00119582	0.00222638
2.85000000	0.00254956	0.00488836	0.00414758	0.00258674	0.00337682	0.00462032	0.00459569	0.00467213	0.00312242	0.00358246	0.00186460	0.01010523	0.00306559	0.00432538	0.00524744	0.00469615	0.00413824	0.00382973	0.00273315	0.00298773	0.00104834	0.00283032	0.00366428	0.00122823	0.00285902	0.00103955	0.00234441
2.86000000	0.00229475	0.00433951	0.00413102	0.00259780	0.00330381	0.00327780	0.00498181	0.00499365	0.00304736	0.00364856	0.00195710	0.00996078	0.00302540	0.00465013	0.00554549	0.00454348	0.00389324	0.00390187	0.00289621	0.00303084	0.00116000	0.00282462	0.00398819	0.00127717	0.00287956	0.00103453	0.00244385
2.87000000	0.00264581	0.00406301	0.00431607	0.00280537	0.00350310	0.00316243	0.00487248	0.00397276	0.00237389	0.00369162	0.00098760	0.00958631	0.00277538	0.00516144	0.00538667	0.00466692	0.00372241	0.00389303	0.00322185	0.00284846	0.00124429	0.00256527	0.00416194	0.00105656	0.00316726	0.00096382	0.00252076
2.88000000	0.00211414	0.00352858	0.00426731	0.00273519	0.00342037	0.00114149	0.00522077	0.00421125	0.00219289	0.00370381	0.00161996	0.00933614	0.00298525	0.00520796	0.00571121	0.00456473	0.00317181	0.00395542	0.00335813	0.00284669	0.00129308	0.00258138	0.00413633	0.00120989	0.00318620	0.00083372	0.00267292
2.89000000	0.00244059	0.00341893	0.00444083	0.00282519	0.00352655	0.00101880	0.00507913	0.00307651	0.00188581	0.00362050	0.00123657	0.00927034	0.00238265	0.00563631	0.00553760	0.00426501	0.00303790	0.00392394	0.00339210	0.00276208	0.00133682	0.00238744	0.00439815	0.00117148	0.00306702	0.00104126	0.00262858
2.90000000	0.00195496	0.00300435	0.00438903	0.00279814	0.00346522	0.00058784	0.00546375	0.00271535	0.00193088	0.00328314	0.00127716	0.00899762	0.00232386	0.00589412	0.00565205	0.00391392	0.00285918	0.00390057	0.00332186	0.00275135	0.00137175	0.00232856	0.00443321	0.00129681	0.00294223	0.00107701	0.00249094
2.91000000	0.00175668	0.00283608	0.00433289	0.00274740	0.00342233	0.00111171	0.00548295	0.00235717	0.00187777	0.00312462	0.00129270	0.00869468	0.00251078	0.00622795	0.00572440	0.00369581	0.00255266	0.00383604	0.00327331	0.00270804	0.00142365	0.00225717	0.00441182	0.00137234	0.00272797	0.00115360	0.00244870
2.92000000	0.00157102	0.00266999	0.00422406	0.00272233	0.00337273	0.00116254	0.00542855	0.00198508	0.00181261	0.00292786	0.00133597	0.00838408	0.00302084	0.00654258	0.00569546	0.00354691	0.00234579	0.00371845	0.00319062	0.00264229	0.00145994	0.00216952	0.00435465	0.00146140	0.00256312	0.00125712	0.00224476
2.93000000	0.00193779	0.00303905	0.00411723	0.00254762	0.00325979	0.00055778	0.00471626	0.00182543	0.00167114	0.00293775	0.00130561	0.00807543	0.00329192	0.00703088	0.00563552	0.00360645	0.00170751	0.00365053	0.00311457	0.00255321	0.00149055	0.00209200	0.00437847	0.00160827	0.00234235	0.00145527	0.00213909
2.94000000	0.00188177	0.00300449	0.00380497	0.00241800	0.00309182	0.00053152	0.00458232	0.00174989	0.00153353	0.00295150	0.00091556	0.00784881	0.00428251	0.00751724	0.00557692	0.00342823	0.00172340	0.00347687	0.00299985	0.00248610	0.00152854	0.00205789	0.00424082	0.00172573	0.00208495	0.00157003	0.00195166
2.95000000	0.00206430	0.00304853	0.00346967	0.00231468	0.00291796	0.00199924	0.00435748	0.00180607	0.00149194	0.00295884	0.00075814	0.00762195	0.00515596	0.00826630	0.00549943	0.00353903	0.00177363	0.00332448	0.00287660	0.00242953	0.00150317	0.00200761	0.00402803	0.00187824	0.00180759	0.00172044	0.00171432
2.96000000	0.00194568	0.00304650	0.00306901	0.00210023	0.00263575	0.00265321	0.00427726	0.00291331	0.00184141	0.00263892	0.00062878	0.00738554	0.00592310	0.00923173	0.00531466	0.00415314	0.00100783	0.00308760	0.00262994	0.00235618	0.00155259	0.00202753	0.00397902	0.00197359	0.00147079	0.00194682	0.00149763
2.97000000	0.00230664	0.00298434	0.00264693	0.00206846	0.00245108	0.00486887	0.00435670	0.00299808	0.00189411	0.00275594	0.00040177	0.00746111	0.00709612	0.01014724	0.00515430	0.00430587	0.00188862	0.00285073	0.00252452	0.00236913	0.00156287	0.00200861	0.00363781	0.00204027	0.00118102	0.00200604	0.00120996
2.98000000	0.00260765	0.00324239	0.00223307	0.00187279	0.00218104	0.00673957	0.00435607	0.00365058	0.00199386	0.00297227	0.00051657	0.00799527	0.00760042	0.01129077	0.00493324	0.00477583	0.00197662	0.00262661	0.00243892	0.00221289	0.00161604	0.00208582	0.00349730	0.00219858	0.00089857	0.00217309	0.00122885
2.99000000	0.00308323	0.00345670	0.00183817	0.00180793	0.00196578	0.00834892	0.00445886	0.00447409	0.00208036	0.00319090	0.00078064	0.00847092	0.00817295	0.01266649	0.00475669	0.00527337	0.00202261	0.00229879	0.00234449	0.00221137	0.00167536	0.00216409	0.00335213	0.00226910	0.00068812	0.00217678	0.00091719
3.00000000	0.00310086	0.00306212	0.00134039	0.00186505	0.00171152	0.00838175	0.00488898	0.00628814	0.00266689	0.00336836	0.00126663	0.00812104	0.00902563	0.01442461	0.00447764	0.00612547	0.00106304	0.00200934	0.00203050	0.00214282	0.00168693	0.00213354	0.00313002	0.00219418	0.00040582	0.00236606	0.00061750
3.01000000	0.00355592	0.00336854	0.00107192	0.00187889	0.00154576	0.00953923	0.00491856	0.00721819	0.00269098	0.00350445	0.00136251	0.00918344	0.00949525	0.01572285	0.00435226	0.00645976	0.00126214	0.00178163	0.00192981	0.00209299	0.00168343	0.00219301	0.00293583	0.00224743	0.00016487	0.00244433	0.00048072
3.02000000	0.00368446	0.00348174	0.00099022	0.00191151	0.00144292	0.01040967	0.00492290	0.00806173	0.00250520	0.00368199	0.00156160	0.01036258	0.01011986	0.01697099	0.00421559	0.00669241	0.00196710	0.00162622	0.00179603	0.00202473	0.00167755	0.00225083	0.00279566	0.00234550	0.00014672	0.00249431	0.00037389
3.03000000	0.00419310	0.00380449	0.00108045	0.00203728	0.00144543	0.01068518	0.00486969	0.00894312	0.00243292	0.00376517	0.00161283	0.01124056	0.01020286	0.01847076	0.00415422	0.00719814	0.00123021	0.00140568	0.00168645	0.00202672	0.00169935	0.00229076	0.00259233	0.00224619	0.00010277	0.00253235	0.00009378
3.04000000	0.00438017	0.00386734	0.00136749	0.00215569	0.00152225	0.01076777	0.00479967	0.00965308	0.00220778	0.00376498	0.00165973	0.01200439	0.01059133	0.01981431	0.00404877	0.00750481	0.00139459	0.00123614	0.00153466	0.00196245	0.00166638	0.00230627	0.00247401	0.00221147	0.00025673	0.00253639	0.00013858
3.05000000	0.00417333	0.00376428	0.00192599	0.00233665	0.00176992	0.01069352	0.00482701	0.01017715	0.00182529	0.00372048	0.00184506	0.01318762	0.01139816	0.02060660	0.00408300	0.00753149	0.00248979	0.00110869	0.00142862	0.00194755	0.00157920	0.00234162	0.00227355	0.00227258	0.00048531	0.00247056	0.00022888
3.06000000	0.00462768	0.00371720	0.00195026	0.00235531	0.00173566	0.01064003	0.00457417	0.01011960	0.00154401	0.00344741	0.00133002	0.01295132	0.01137601	0.02217727	0.00390216	0.00813350	0.00179536	0.00092353	0.00134107	0.00178409	0.00157805	0.00231545	0.00221210	0.00205842	0.00035989	0.00244743	0.00038246
3.07000000	0.00426277	0.00365181	0.00259004	0.00253014	0.00208831	0.01001713	0.00455518	0.01049725	0.00127615	0.00334917	0.00172866	0.01410128	0.01212744	0.02248505	0.00415710	0.00798616	0.00247951	0.00088668	0.00117847	0.00181228	0.00142377	0.00229770	0.00203378	0.00217722	0.00056313	0.00240094	0.00052421
3.08000000	0.00404384	0.00372678	0.00302405	0.00267583	0.00239162	0.00920112	0.00447709	0.01068972	0.00123272	0.00323531	0.00201723	0.01477883	0.01237536	0.02296257	0.00431577	0.00816642	0.00274913	0.00079742	0.00106535	0.00182734	0.00131049	0.00234419	0.00186894	0.00211473	0.00068546	0.00239499	0.00062066
3.09000000	0.00466941	0.00375018	0.00269921	0.00254876	0.00214488	0.00884566	0.00423129	0.00986156	0.00150909	0.00286695	0.00115771	0.01421299	0.01214227	0.02424019	0.00420471	0.00854975	0.00271500	0.00061384	0.00096100	0.00158980	0.00139310	0.00229479	0.00192549	0.00179664	0.00045122	0.00225649	0.00069066
3.10000000	0.00485955	0.00427932	0.00356968	0.00317966	0.00277744	0.00778486	0.00435228	0.01009210	0.00202547	0.00284987	0.00124983	0.01466044	0.01373995	0.02366729	0.00436215	0.00808625	0.00350175	0.00075065	0.00052126	0.00159194	0.00110072	0.00219510	0.00198781	0.00177370	0.00076108	0.00242119	0.00091326
