TVC09_2_JMP_08_wrist_axis_personalization_task_1_initialErrors.sto
version=1
nRows=256
nColumns=28
inDegrees=no
endheader
time	R_Asis	L_Asis	R_Psis	L_Psis	Sacral	R_Thigh_Lateral	R_Knee_Lateral	R_Shank_Lateral	R_Ankle_Lateral	R_Heel	R_Toe	L_Thigh_Lateral	L_Knee_Lateral	L_Shank_Lateral	L_Ankle_Lateral	L_Heel	L_Toe	R_Shoulder	L_Shoulder	C7	J_Notch	Thoracic	Sternum	R_Elbow	L_Elbow	R_Wrist	L_Wrist
0.40000000	0.00394016	0.00587859	0.00165184	0.00282946	0.00107565	0.00749571	0.00700402	0.00552537	0.00409695	0.00698233	0.00351897	0.01411507	0.00468020	0.01252869	0.00110140	0.00421847	0.00198801	0.00536015	0.00610201	0.00224349	0.00162527	0.00279104	0.00932606	0.00257963	0.00162854	0.00259877	0.00315142
0.41000000	0.00392138	0.00615122	0.00160356	0.00324182	0.00144836	0.00753266	0.00714048	0.00541709	0.00421690	0.00687058	0.00362044	0.01436412	0.00448920	0.01291903	0.00114850	0.00425345	0.00177760	0.00527682	0.00629001	0.00217682	0.00165712	0.00278348	0.00936197	0.00257625	0.00171138	0.00259125	0.00335168
0.42000000	0.00365782	0.00614982	0.00166991	0.00364375	0.00182072	0.00765329	0.00743892	0.00517455	0.00427748	0.00687392	0.00360034	0.01398047	0.00458251	0.01278486	0.00108113	0.00401769	0.00172637	0.00516551	0.00644194	0.00210133	0.00169244	0.00279930	0.00941910	0.00254184	0.00214770	0.00258118	0.00381084
0.43000000	0.00329312	0.00648967	0.00171366	0.00399835	0.00215664	0.00786685	0.00782672	0.00494299	0.00429734	0.00691579	0.00351850	0.01292120	0.00489579	0.01211233	0.00098068	0.00369641	0.00163841	0.00493623	0.00648137	0.00204642	0.00182172	0.00285857	0.00959636	0.00260933	0.00264740	0.00246722	0.00451731
0.44000000	0.00314804	0.00691803	0.00183134	0.00434954	0.00252151	0.00797747	0.00812445	0.00469562	0.00439448	0.00682700	0.00346590	0.01148230	0.00503502	0.01105591	0.00086588	0.00322019	0.00164784	0.00473946	0.00649549	0.00196463	0.00191717	0.00291428	0.00972986	0.00256603	0.00307189	0.00244821	0.00527383
0.45000000	0.00294871	0.00711012	0.00204343	0.00467933	0.00285569	0.00808576	0.00849788	0.00431638	0.00451183	0.00653999	0.00351484	0.00990294	0.00458570	0.00986688	0.00115626	0.00301023	0.00164560	0.00455307	0.00679161	0.00183481	0.00196010	0.00286922	0.00966205	0.00270141	0.00310696	0.00226093	0.00584769
0.46000000	0.00303032	0.00766012	0.00217767	0.00494391	0.00314013	0.00816005	0.00878282	0.00402773	0.00460650	0.00646386	0.00348150	0.00834812	0.00465953	0.00803734	0.00091800	0.00244978	0.00148222	0.00429261	0.00672706	0.00165973	0.00205466	0.00297005	0.00983883	0.00260553	0.00313168	0.00226967	0.00593156
0.47000000	0.00325740	0.00787954	0.00240620	0.00531628	0.00349504	0.00819092	0.00861076	0.00360378	0.00474734	0.00619534	0.00361005	0.00693024	0.00352378	0.00678489	0.00156081	0.00281462	0.00236391	0.00403999	0.00677643	0.00144070	0.00222545	0.00299245	0.00992108	0.00285135	0.00305516	0.00208506	0.00566453
0.48000000	0.00384737	0.00834124	0.00267020	0.00554969	0.00377395	0.00780603	0.00910400	0.00333469	0.00513935	0.00572901	0.00308043	0.00629139	0.00359088	0.00398104	0.00088228	0.00153903	0.00144678	0.00390302	0.00681870	0.00120306	0.00215907	0.00310878	0.00972031	0.00267915	0.00291399	0.00200806	0.00501154
0.49000000	0.00450523	0.00855694	0.00279494	0.00568471	0.00393066	0.00772939	0.00903501	0.00278688	0.00532059	0.00553468	0.00316412	0.00549465	0.00328061	0.00233276	0.00076061	0.00127802	0.00138118	0.00382721	0.00680002	0.00103108	0.00221756	0.00319954	0.00965506	0.00268872	0.00271884	0.00188525	0.00457737
0.50000000	0.00517553	0.00879160	0.00294424	0.00576594	0.00406584	0.00753565	0.00872626	0.00243199	0.00557129	0.00535690	0.00312098	0.00484348	0.00313694	0.00108169	0.00066913	0.00121829	0.00135839	0.00380989	0.00675506	0.00087758	0.00226586	0.00330658	0.00949202	0.00268281	0.00270013	0.00178799	0.00417244
0.51000000	0.00586401	0.00886975	0.00301636	0.00577213	0.00411727	0.00728004	0.00829793	0.00222844	0.00587784	0.00510433	0.00306442	0.00426641	0.00303495	0.00072030	0.00057740	0.00131829	0.00133175	0.00388024	0.00671765	0.00074044	0.00226740	0.00339204	0.00922906	0.00269870	0.00271458	0.00164597	0.00387355
0.52000000	0.00645009	0.00891962	0.00311012	0.00571426	0.00413698	0.00702388	0.00760109	0.00223936	0.00616755	0.00487338	0.00289799	0.00361852	0.00297988	0.00090336	0.00054977	0.00156121	0.00139751	0.00407166	0.00661234	0.00069539	0.00229728	0.00349160	0.00886749	0.00279469	0.00277682	0.00147763	0.00360451
0.53000000	0.00695819	0.00889392	0.00314939	0.00562682	0.00412603	0.00667713	0.00636883	0.00263056	0.00636582	0.00470067	0.00249983	0.00269865	0.00303888	0.00120988	0.00071771	0.00205595	0.00193562	0.00434096	0.00642677	0.00073441	0.00220737	0.00353046	0.00844951	0.00274224	0.00293702	0.00152071	0.00358107
0.54000000	0.00732329	0.00874925	0.00297686	0.00517823	0.00379742	0.00643742	0.00565113	0.00299834	0.00678859	0.00437048	0.00244948	0.00258619	0.00323601	0.00088218	0.00067196	0.00199632	0.00163476	0.00458027	0.00620301	0.00064618	0.00211405	0.00359989	0.00794661	0.00281709	0.00272899	0.00124668	0.00340008
0.55000000	0.00760862	0.00821734	0.00267754	0.00465218	0.00335237	0.00600410	0.00456303	0.00366627	0.00712960	0.00419161	0.00240359	0.00270860	0.00360049	0.00069178	0.00084685	0.00206888	0.00158681	0.00486200	0.00584158	0.00064577	0.00203299	0.00365787	0.00749719	0.00287357	0.00262681	0.00103939	0.00333445
0.56000000	0.00803799	0.00702926	0.00225918	0.00415618	0.00278614	0.00535321	0.00349753	0.00423641	0.00739869	0.00395676	0.00220546	0.00320766	0.00362143	0.00065118	0.00111894	0.00234924	0.00162560	0.00510346	0.00536734	0.00062269	0.00195615	0.00376015	0.00700144	0.00297405	0.00254297	0.00073943	0.00315086
0.57000000	0.00772637	0.00674383	0.00200799	0.00338339	0.00222553	0.00469075	0.00196213	0.00486452	0.00752032	0.00400674	0.00119181	0.00401817	0.00437020	0.00110374	0.00125724	0.00258189	0.00195209	0.00532150	0.00491203	0.00052941	0.00175010	0.00370582	0.00633205	0.00296550	0.00216835	0.00056603	0.00313693
0.58000000	0.00736868	0.00587917	0.00187189	0.00247835	0.00157952	0.00390714	0.00141942	0.00544981	0.00786676	0.00383623	0.00112412	0.00499679	0.00493427	0.00147120	0.00110714	0.00263539	0.00210030	0.00544107	0.00429219	0.00056606	0.00156763	0.00369426	0.00570539	0.00284602	0.00189347	0.00055563	0.00299798
0.59000000	0.00699674	0.00482053	0.00183126	0.00167398	0.00101945	0.00321925	0.00217451	0.00597245	0.00802475	0.00383650	0.00139471	0.00584586	0.00502846	0.00177037	0.00094637	0.00289405	0.00189557	0.00562740	0.00358542	0.00065239	0.00145976	0.00371278	0.00506474	0.00287633	0.00157030	0.00025739	0.00282928
0.60000000	0.00665853	0.00354145	0.00194931	0.00112528	0.00074109	0.00272240	0.00332068	0.00646256	0.00801091	0.00397961	0.00188404	0.00600020	0.00483067	0.00202064	0.00081682	0.00307416	0.00181128	0.00577596	0.00274210	0.00082907	0.00146940	0.00384091	0.00448238	0.00295867	0.00128301	0.00012286	0.00262151
0.61000000	0.00628894	0.00290755	0.00221524	0.00079855	0.00092895	0.00296255	0.00447228	0.00684643	0.00793074	0.00435148	0.00164760	0.00560986	0.00431454	0.00219546	0.00068867	0.00316132	0.00170914	0.00590244	0.00211156	0.00103676	0.00156932	0.00382165	0.00372959	0.00306791	0.00103983	0.00030856	0.00235502
0.62000000	0.00583659	0.00242453	0.00232570	0.00063964	0.00118702	0.00371035	0.00540005	0.00752208	0.00794259	0.00441085	0.00188784	0.00482772	0.00407988	0.00215437	0.00049183	0.00319728	0.00157733	0.00595812	0.00145493	0.00129680	0.00175165	0.00377580	0.00305757	0.00316471	0.00085766	0.00054238	0.00222568
0.63000000	0.00527178	0.00256521	0.00223553	0.00059519	0.00129574	0.00482293	0.00606731	0.00808058	0.00804807	0.00464463	0.00155411	0.00434154	0.00370410	0.00178810	0.00042381	0.00297478	0.00134504	0.00601362	0.00100894	0.00153812	0.00195358	0.00363332	0.00238589	0.00329573	0.00085162	0.00078724	0.00214043
0.64000000	0.00473741	0.00249909	0.00207958	0.00061184	0.00133583	0.00578372	0.00664194	0.00883525	0.00818122	0.00484901	0.00163651	0.00383437	0.00344595	0.00133462	0.00045778	0.00273279	0.00110556	0.00601634	0.00094566	0.00179207	0.00220631	0.00347392	0.00176418	0.00343767	0.00097575	0.00102421	0.00210407
0.65000000	0.00421048	0.00243913	0.00188696	0.00063437	0.00131759	0.00659658	0.00717568	0.00963608	0.00834345	0.00514643	0.00184175	0.00362646	0.00329323	0.00092803	0.00054261	0.00234051	0.00103681	0.00599756	0.00127508	0.00203261	0.00247917	0.00325398	0.00122155	0.00360919	0.00111780	0.00128415	0.00210389
0.66000000	0.00339213	0.00201770	0.00170395	0.00085893	0.00135497	0.00767435	0.00783017	0.01031023	0.00868371	0.00496372	0.00237859	0.00355228	0.00299949	0.00044160	0.00074655	0.00249002	0.00102709	0.00591957	0.00178458	0.00227768	0.00275569	0.00305536	0.00092881	0.00377548	0.00115412	0.00151991	0.00223520
0.67000000	0.00265921	0.00222432	0.00155917	0.00099897	0.00134883	0.00830182	0.00832610	0.01109013	0.00897882	0.00509468	0.00254832	0.00388408	0.00290211	0.00028594	0.00077039	0.00223383	0.00100589	0.00583886	0.00235811	0.00247567	0.00299864	0.00286985	0.00094503	0.00387146	0.00135429	0.00175968	0.00220080
0.68000000	0.00197112	0.00245791	0.00143121	0.00113993	0.00132729	0.00871574	0.00900615	0.01178520	0.00917740	0.00534238	0.00264303	0.00423441	0.00290253	0.00038337	0.00078101	0.00196237	0.00109085	0.00573937	0.00281076	0.00267245	0.00324510	0.00262766	0.00127937	0.00398277	0.00151214	0.00196258	0.00215099
0.69000000	0.00102981	0.00275889	0.00132291	0.00138142	0.00133361	0.00894428	0.00984293	0.01250603	0.00931501	0.00557140	0.00268422	0.00453078	0.00301867	0.00050293	0.00083041	0.00164688	0.00105961	0.00560568	0.00319284	0.00284539	0.00347929	0.00236333	0.00169718	0.00409141	0.00158967	0.00207272	0.00214874
0.70000000	0.00026119	0.00306296	0.00121336	0.00161317	0.00131449	0.00889090	0.01066530	0.01342953	0.00937996	0.00587535	0.00271065	0.00476028	0.00303709	0.00071959	0.00087441	0.00153126	0.00114410	0.00547715	0.00354595	0.00296200	0.00366780	0.00214624	0.00208277	0.00417017	0.00163351	0.00231769	0.00213074
0.71000000	0.00078626	0.00341108	0.00114335	0.00182370	0.00128557	0.00877338	0.01156025	0.01450690	0.00937808	0.00613239	0.00264308	0.00489783	0.00308404	0.00084203	0.00098900	0.00131222	0.00107592	0.00534216	0.00378693	0.00302845	0.00382897	0.00190605	0.00242695	0.00429934	0.00166189	0.00250944	0.00211293
0.72000000	0.00272859	0.00348728	0.00119059	0.00253075	0.00151535	0.00908306	0.01251791	0.01558038	0.00949980	0.00562800	0.00357430	0.00512614	0.00362574	0.00101550	0.00114339	0.00065003	0.00051790	0.00498437	0.00379260	0.00316722	0.00416930	0.00160329	0.00286309	0.00414892	0.00156197	0.00252421	0.00234754
0.73000000	0.00296264	0.00372511	0.00117762	0.00244057	0.00132331	0.00874357	0.01316770	0.01718886	0.00939652	0.00646862	0.00271819	0.00504362	0.00292221	0.00151573	0.00116821	0.00122716	0.00113567	0.00500309	0.00408447	0.00312236	0.00404240	0.00156048	0.00298218	0.00437222	0.00142066	0.00270951	0.00236180
0.74000000	0.00263542	0.00430926	0.00122306	0.00231729	0.00127497	0.00849743	0.01395042	0.01891610	0.00920014	0.00664969	0.00287810	0.00502603	0.00248792	0.00168849	0.00126385	0.00083097	0.00080873	0.00487602	0.00408837	0.00315000	0.00413448	0.00154097	0.00324454	0.00447574	0.00147269	0.00284153	0.00217870
0.75000000	0.00360276	0.00425969	0.00130700	0.00256748	0.00125057	0.00872341	0.01457752	0.02043535	0.00912722	0.00678925	0.00303533	0.00525500	0.00231495	0.00216277	0.00118076	0.00080044	0.00074021	0.00476292	0.00407534	0.00308159	0.00408905	0.00152098	0.00346173	0.00442543	0.00125502	0.00302505	0.00224824
0.76000000	0.00434949	0.00410190	0.00151805	0.00275617	0.00123493	0.00899982	0.01505364	0.02201147	0.00906331	0.00681628	0.00331036	0.00565165	0.00205840	0.00270912	0.00121352	0.00081938	0.00056534	0.00458462	0.00399167	0.00304543	0.00406397	0.00159288	0.00360244	0.00438706	0.00100335	0.00314041	0.00231699
0.77000000	0.00455381	0.00417525	0.00148943	0.00288774	0.00121394	0.00927804	0.01545108	0.02343288	0.00898163	0.00687986	0.00365504	0.00607172	0.00190721	0.00325739	0.00125391	0.00055458	0.00069488	0.00444468	0.00400301	0.00295216	0.00403269	0.00172135	0.00380335	0.00435040	0.00093673	0.00320478	0.00216983
0.78000000	0.00504472	0.00388657	0.00173690	0.00302957	0.00115514	0.00974203	0.01573808	0.02465040	0.00891939	0.00669517	0.00398868	0.00663946	0.00187168	0.00371879	0.00130828	0.00058727	0.00060506	0.00425810	0.00389926	0.00287052	0.00396242	0.00188571	0.00392107	0.00425530	0.00065450	0.00331835	0.00220158
0.79000000	0.00508990	0.00380316	0.00190950	0.00305922	0.00112602	0.01009477	0.01583237	0.02563483	0.00890418	0.00667158	0.00424996	0.00711165	0.00178526	0.00421838	0.00123419	0.00058888	0.00074341	0.00410622	0.00385811	0.00277664	0.00384267	0.00203628	0.00404550	0.00419770	0.00053966	0.00334282	0.00214752
0.80000000	0.00482089	0.00371392	0.00188132	0.00310069	0.00108211	0.01044932	0.01590521	0.02625352	0.00888307	0.00664981	0.00451465	0.00744011	0.00177573	0.00463057	0.00126930	0.00051256	0.00092552	0.00397010	0.00375313	0.00265619	0.00380826	0.00215301	0.00430287	0.00409977	0.00063843	0.00343059	0.00187629
0.81000000	0.00465311	0.00370282	0.00197533	0.00310467	0.00103428	0.01062489	0.01579872	0.02659595	0.00884499	0.00659784	0.00478442	0.00773107	0.00191374	0.00499591	0.00125399	0.00053710	0.00099485	0.00381292	0.00379448	0.00248985	0.00363533	0.00224964	0.00442630	0.00399064	0.00061365	0.00342514	0.00175289
0.82000000	0.00466224	0.00357498	0.00184812	0.00345327	0.00099172	0.01080189	0.01536532	0.02671887	0.00922604	0.00613874	0.00517558	0.00806109	0.00325730	0.00455941	0.00159746	0.00133024	0.00104105	0.00351892	0.00365451	0.00241477	0.00381362	0.00243123	0.00493276	0.00352908	0.00065347	0.00350393	0.00135202
0.83000000	0.00386935	0.00375141	0.00187962	0.00311615	0.00098068	0.01089754	0.01541047	0.02627115	0.00889702	0.00645802	0.00493670	0.00800042	0.00231476	0.00550277	0.00123923	0.00074607	0.00122444	0.00349095	0.00383557	0.00220870	0.00342714	0.00235556	0.00486399	0.00367251	0.00059061	0.00339299	0.00134595
0.84000000	0.00346624	0.00371955	0.00195899	0.00306657	0.00097277	0.01091101	0.01504384	0.02578718	0.00897778	0.00640662	0.00492809	0.00814568	0.00229791	0.00571757	0.00119175	0.00068567	0.00130920	0.00331137	0.00387227	0.00207339	0.00328231	0.00242974	0.00502025	0.00348792	0.00057259	0.00338087	0.00119210
0.85000000	0.00290253	0.00350484	0.00205455	0.00295422	0.00071676	0.01115140	0.01471326	0.02509660	0.00911320	0.00623811	0.00486106	0.00839734	0.00289677	0.00550711	0.00123795	0.00084940	0.00113228	0.00319906	0.00399523	0.00196581	0.00317212	0.00244926	0.00519664	0.00319474	0.00061679	0.00351461	0.00090516
0.86000000	0.00247652	0.00350049	0.00195063	0.00296346	0.00077527	0.01108558	0.01423883	0.02433141	0.00921983	0.00627290	0.00482870	0.00845580	0.00256314	0.00597579	0.00121856	0.00063822	0.00131140	0.00301638	0.00412497	0.00178215	0.00308411	0.00247687	0.00535429	0.00322330	0.00047658	0.00325651	0.00064382
0.87000000	0.00209051	0.00348894	0.00189895	0.00296010	0.00081448	0.01121972	0.01391928	0.02342916	0.00922142	0.00630220	0.00469026	0.00870728	0.00271108	0.00608764	0.00133254	0.00072583	0.00133639	0.00281680	0.00425145	0.00164501	0.00297727	0.00251532	0.00554403	0.00292027	0.00042084	0.00325210	0.00041149
0.88000000	0.00160148	0.00331058	0.00191251	0.00287500	0.00071205	0.01129647	0.01339684	0.02271261	0.00935202	0.00630430	0.00461331	0.00892669	0.00270351	0.00629719	0.00145124	0.00072326	0.00135566	0.00267844	0.00438688	0.00156260	0.00293081	0.00253575	0.00572046	0.00274759	0.00035865	0.00316151	0.00016996
0.89000000	0.00108834	0.00304927	0.00195821	0.00271671	0.00059685	0.01145150	0.01292842	0.02198828	0.00942690	0.00637032	0.00457340	0.00922484	0.00283566	0.00637230	0.00161830	0.00079490	0.00135322	0.00254707	0.00443317	0.00144944	0.00288033	0.00257412	0.00596857	0.00250351	0.00026070	0.00317252	0.00012204
0.90000000	0.00114958	0.00254231	0.00207694	0.00240747	0.00043016	0.01161795	0.01233635	0.02136326	0.00969206	0.00632031	0.00471016	0.00960146	0.00329240	0.00623665	0.00154103	0.00106966	0.00142737	0.00264063	0.00478316	0.00144008	0.00285952	0.00243522	0.00592672	0.00218454	0.00033151	0.00336113	0.00031173
0.91000000	0.00141901	0.00267814	0.00198312	0.00285573	0.00082301	0.01168573	0.01217413	0.02031617	0.00941354	0.00642168	0.00436960	0.00959714	0.00291948	0.00683500	0.00181229	0.00100808	0.00149217	0.00231740	0.00474829	0.00128791	0.00282024	0.00267905	0.00620675	0.00216714	0.00034801	0.00296810	0.00037460
0.92000000	0.00163192	0.00239823	0.00203753	0.00279928	0.00086610	0.01174399	0.01177140	0.01944158	0.00938104	0.00636250	0.00436685	0.00979864	0.00299114	0.00689168	0.00197549	0.00106571	0.00137816	0.00224984	0.00492211	0.00118088	0.00276388	0.00276627	0.00629062	0.00204442	0.00040494	0.00290733	0.00046558
0.93000000	0.00191086	0.00216097	0.00212868	0.00274220	0.00087396	0.01175189	0.01142156	0.01841469	0.00925869	0.00629167	0.00423743	0.00988760	0.00299259	0.00692342	0.00202483	0.00116908	0.00138035	0.00226742	0.00500326	0.00114970	0.00273747	0.00285664	0.00639333	0.00196278	0.00046632	0.00282254	0.00053023
0.94000000	0.00215377	0.00199636	0.00223344	0.00273588	0.00093025	0.01171757	0.01108981	0.01713596	0.00907326	0.00613802	0.00404371	0.00994446	0.00304124	0.00682439	0.00205167	0.00121489	0.00135701	0.00231685	0.00505165	0.00111784	0.00269522	0.00295332	0.00651569	0.00185441	0.00056816	0.00278704	0.00056104
0.95000000	0.00234608	0.00211717	0.00228734	0.00294749	0.00115860	0.01180618	0.01043685	0.01548621	0.00898960	0.00565017	0.00352972	0.00996081	0.00287579	0.00678767	0.00193928	0.00119017	0.00131520	0.00249050	0.00513719	0.00115393	0.00268805	0.00304242	0.00658994	0.00169301	0.00078444	0.00278146	0.00056431
0.96000000	0.00316112	0.00207172	0.00238740	0.00239974	0.00088238	0.01114671	0.00992012	0.01427928	0.00856813	0.00571530	0.00348128	0.00998213	0.00281161	0.00649928	0.00208754	0.00120051	0.00121340	0.00261597	0.00499453	0.00113505	0.00260318	0.00308038	0.00681340	0.00168402	0.00083154	0.00278359	0.00050502
0.97000000	0.00331967	0.00252691	0.00248343	0.00271230	0.00121551	0.01111418	0.00915728	0.01199262	0.00846131	0.00466717	0.00274362	0.01006207	0.00276974	0.00618020	0.00191414	0.00099611	0.00112071	0.00281932	0.00515592	0.00119850	0.00253092	0.00318808	0.00685255	0.00172723	0.00101282	0.00272052	0.00054612
0.98000000	0.00415018	0.00274963	0.00256889	0.00222648	0.00099151	0.01037470	0.00857360	0.01034710	0.00792618	0.00474891	0.00269408	0.01013839	0.00272824	0.00579994	0.00207550	0.00087526	0.00098601	0.00290171	0.00503742	0.00117519	0.00239412	0.00324742	0.00704878	0.00177464	0.00103281	0.00272544	0.00052836
0.99000000	0.00399878	0.00329438	0.00268902	0.00246637	0.00117221	0.01006317	0.00773143	0.00804640	0.00772674	0.00383036	0.00201849	0.01010996	0.00266080	0.00558701	0.00185777	0.00079515	0.00105050	0.00320331	0.00499041	0.00126993	0.00234395	0.00331594	0.00715530	0.00179069	0.00117270	0.00270771	0.00049035
1.00000000	0.00445047	0.00364509	0.00278189	0.00221645	0.00109832	0.00969316	0.00702474	0.00620439	0.00725693	0.00369618	0.00194081	0.01017194	0.00272254	0.00519629	0.00193999	0.00062364	0.00102279	0.00344546	0.00492815	0.00129319	0.00227035	0.00332984	0.00724810	0.00188632	0.00120096	0.00268113	0.00046633
1.01000000	0.00491372	0.00400196	0.00283099	0.00210444	0.00109115	0.00941047	0.00590615	0.00477715	0.00705096	0.00300093	0.00145455	0.01031125	0.00254826	0.00491283	0.00188000	0.00057642	0.00106594	0.00373927	0.00484187	0.00135393	0.00221508	0.00333672	0.00733706	0.00190402	0.00123879	0.00270380	0.00035469
1.02000000	0.00560559	0.00408655	0.00294852	0.00177955	0.00109644	0.00969423	0.00521243	0.00400316	0.00659246	0.00310813	0.00158365	0.01041353	0.00268015	0.00453589	0.00197469	0.00040912	0.00107620	0.00384053	0.00466152	0.00132659	0.00211671	0.00334722	0.00751112	0.00194346	0.00120702	0.00272629	0.00035007
1.03000000	0.00637161	0.00423521	0.00307770	0.00151364	0.00121358	0.01020450	0.00437291	0.00446727	0.00618062	0.00349255	0.00160715	0.01054756	0.00253194	0.00428573	0.00216244	0.00052268	0.00110763	0.00388549	0.00446060	0.00133404	0.00199919	0.00333393	0.00773444	0.00190530	0.00116674	0.00280868	0.00034469
1.04000000	0.00649099	0.00437556	0.00320052	0.00152098	0.00134103	0.01093979	0.00378425	0.00584671	0.00594561	0.00347277	0.00166339	0.01053175	0.00252242	0.00411432	0.00215385	0.00048641	0.00116656	0.00411532	0.00437431	0.00133723	0.00199765	0.00328837	0.00776204	0.00198853	0.00108765	0.00280448	0.00024782
1.05000000	0.00607507	0.00483601	0.00323493	0.00167768	0.00132254	0.01162840	0.00295764	0.00771130	0.00598991	0.00340858	0.00174586	0.01051229	0.00258928	0.00393069	0.00192268	0.00049113	0.00122126	0.00442974	0.00422282	0.00129827	0.00202714	0.00329775	0.00776911	0.00198522	0.00111702	0.00280387	0.00008645
1.06000000	0.00637246	0.00498119	0.00328693	0.00165518	0.00142520	0.01262552	0.00232311	0.00914608	0.00583790	0.00377921	0.00186166	0.01052713	0.00256626	0.00376921	0.00202663	0.00062018	0.00115538	0.00450724	0.00407383	0.00128814	0.00199099	0.00326272	0.00785760	0.00201316	0.00103709	0.00282045	0.00010997
1.07000000	0.00708791	0.00466053	0.00341816	0.00169958	0.00170272	0.01372893	0.00177349	0.01027166	0.00560576	0.00431689	0.00163580	0.01064318	0.00241758	0.00371679	0.00208757	0.00072839	0.00123725	0.00445628	0.00390969	0.00128073	0.00193095	0.00320903	0.00797595	0.00201508	0.00091365	0.00286639	0.00016963
1.08000000	0.00832236	0.00515919	0.00345631	0.00178853	0.00198548	0.01495982	0.00052884	0.01057953	0.00552153	0.00539409	0.00166625	0.01076105	0.00258798	0.00355128	0.00210304	0.00061030	0.00114531	0.00447792	0.00366932	0.00117180	0.00192714	0.00317972	0.00803725	0.00183815	0.00101245	0.00305105	0.00040994
1.09000000	0.00702126	0.00448220	0.00363167	0.00198971	0.00203776	0.01553012	0.00102791	0.01211275	0.00528607	0.00505306	0.00216318	0.01059198	0.00261355	0.00341095	0.00219598	0.00073071	0.00111575	0.00456890	0.00370529	0.00116353	0.00194926	0.00309196	0.00786453	0.00213327	0.00080252	0.00286498	0.00029602
1.10000000	0.00656225	0.00441267	0.00375533	0.00209458	0.00213860	0.01601347	0.00082794	0.01259968	0.00507964	0.00533348	0.00236411	0.01052141	0.00265749	0.00322588	0.00221374	0.00061139	0.00103299	0.00456190	0.00356483	0.00109171	0.00191809	0.00303364	0.00777151	0.00207278	0.00071321	0.00291768	0.00045031
1.11000000	0.00701169	0.00417885	0.00378126	0.00212116	0.00227175	0.01574773	0.00041472	0.01240748	0.00470128	0.00580031	0.00216983	0.01062410	0.00257346	0.00307335	0.00233637	0.00041696	0.00093636	0.00448487	0.00346609	0.00108025	0.00188210	0.00290502	0.00764914	0.00190115	0.00060507	0.00308732	0.00062520
1.12000000	0.00568383	0.00385375	0.00391052	0.00215849	0.00224123	0.01503936	0.00040449	0.01229731	0.00452822	0.00547364	0.00265910	0.01039156	0.00270797	0.00264677	0.00244787	0.00047579	0.00079235	0.00437946	0.00341638	0.00102342	0.00181208	0.00281880	0.00745516	0.00197669	0.00057691	0.00303842	0.00067481
1.13000000	0.00613573	0.00331130	0.00384755	0.00207193	0.00229632	0.01314202	0.00102924	0.01132088	0.00408372	0.00551872	0.00273489	0.01050608	0.00246669	0.00236228	0.00270237	0.00080538	0.00110746	0.00404659	0.00339451	0.00112341	0.00167679	0.00266752	0.00733067	0.00134735	0.00045817	0.00354218	0.00081233
1.14000000	0.00462164	0.00284702	0.00379538	0.00203315	0.00211235	0.01110908	0.00214029	0.01022746	0.00407066	0.00526265	0.00253441	0.01014595	0.00264869	0.00203028	0.00295511	0.00053985	0.00073967	0.00393856	0.00335899	0.00099721	0.00161048	0.00256284	0.00700175	0.00203999	0.00058595	0.00303215	0.00073601
1.15000000	0.00411451	0.00206923	0.00346179	0.00190689	0.00186797	0.00811127	0.00340664	0.00881085	0.00387929	0.00470579	0.00286443	0.00995439	0.00237225	0.00149704	0.00312697	0.00118689	0.00132364	0.00379850	0.00348283	0.00104459	0.00150191	0.00234115	0.00660397	0.00168233	0.00072308	0.00329607	0.00069091
1.16000000	0.00249869	0.00208181	0.00334663	0.00159320	0.00148262	0.00531065	0.00415076	0.00763871	0.00366673	0.00514797	0.00257221	0.00949739	0.00241905	0.00082364	0.00329121	0.00114726	0.00097920	0.00335162	0.00339638	0.00106834	0.00136494	0.00213729	0.00643234	0.00198189	0.00058468	0.00308273	0.00082582
1.17000000	0.00188317	0.00170927	0.00264199	0.00149255	0.00100779	0.00240638	0.00558461	0.00635914	0.00371774	0.00440431	0.00331086	0.00912918	0.00245917	0.00128854	0.00319061	0.00255582	0.00194459	0.00311102	0.00364996	0.00122703	0.00121296	0.00190684	0.00590824	0.00142496	0.00087923	0.00337197	0.00063151
1.18000000	0.00051245	0.00169417	0.00278942	0.00141585	0.00103039	0.00263677	0.00460646	0.00478175	0.00316759	0.00696358	0.00330524	0.00868558	0.00267255	0.00307509	0.00342654	0.00274177	0.00130557	0.00274935	0.00349938	0.00130779	0.00121532	0.00180587	0.00559009	0.00180239	0.00054459	0.00320585	0.00046299
1.19000000	0.00128972	0.00233153	0.00226653	0.00147002	0.00074990	0.00239463	0.00535793	0.00416698	0.00334776	0.00701932	0.00335930	0.00863795	0.00281833	0.00507183	0.00339169	0.00365592	0.00160847	0.00249675	0.00359139	0.00134261	0.00120455	0.00153646	0.00522765	0.00178926	0.00055937	0.00320293	0.00034533
1.20000000	0.00199543	0.00309808	0.00150222	0.00172506	0.00065715	0.00336427	0.00577795	0.00407021	0.00352352	0.00699534	0.00330899	0.00904911	0.00308063	0.00711974	0.00336903	0.00450323	0.00198338	0.00227869	0.00379618	0.00138859	0.00119124	0.00122099	0.00486967	0.00166244	0.00068974	0.00325468	0.00014950
1.21000000	0.00307589	0.00358814	0.00148360	0.00194306	0.00099647	0.00289343	0.00529608	0.00375986	0.00369742	0.00799584	0.00350136	0.01000578	0.00293587	0.00929313	0.00330785	0.00532899	0.00182191	0.00213771	0.00377886	0.00158210	0.00132595	0.00109965	0.00447202	0.00173019	0.00054742	0.00319978	0.00038536
1.22000000	0.00359869	0.00498494	0.00090644	0.00245455	0.00151245	0.00300917	0.00524817	0.00411030	0.00383723	0.00762786	0.00357800	0.01094331	0.00374060	0.01080173	0.00320876	0.00598758	0.00204270	0.00211717	0.00403492	0.00164415	0.00138857	0.00072019	0.00414626	0.00155203	0.00071186	0.00321619	0.00088852
1.23000000	0.00421565	0.00482874	0.00116787	0.00257620	0.00162728	0.00264836	0.00480667	0.00433487	0.00396626	0.00763027	0.00351890	0.01217340	0.00289481	0.01290210	0.00334432	0.00621605	0.00116983	0.00217324	0.00389243	0.00167238	0.00155871	0.00067452	0.00393005	0.00172429	0.00096673	0.00316202	0.00090077
1.24000000	0.00440758	0.00516050	0.00126197	0.00273140	0.00184203	0.00217791	0.00423594	0.00463155	0.00389242	0.00763414	0.00344019	0.01319212	0.00282163	0.01418890	0.00330711	0.00632284	0.00112119	0.00232030	0.00394393	0.00177580	0.00170311	0.00045719	0.00367429	0.00176453	0.00100004	0.00315935	0.00111379
1.25000000	0.00489548	0.00488557	0.00150019	0.00273856	0.00183448	0.00213252	0.00388507	0.00499887	0.00394412	0.00723040	0.00347582	0.01326563	0.00298104	0.01542225	0.00333039	0.00634761	0.00077037	0.00253603	0.00388354	0.00185646	0.00183973	0.00037293	0.00345933	0.00207478	0.00091607	0.00299006	0.00119042
1.26000000	0.00466032	0.00525097	0.00180336	0.00276105	0.00202828	0.00244523	0.00325952	0.00533833	0.00369858	0.00733919	0.00334499	0.01376576	0.00285825	0.01556888	0.00348710	0.00590755	0.00156248	0.00270461	0.00388136	0.00189007	0.00191276	0.00023225	0.00329181	0.00206792	0.00104365	0.00301155	0.00118475
1.27000000	0.00465581	0.00477700	0.00192147	0.00257942	0.00195265	0.00295134	0.00280952	0.00564199	0.00354576	0.00729568	0.00330838	0.01353384	0.00285116	0.01578675	0.00361492	0.00544170	0.00194432	0.00292960	0.00372664	0.00189152	0.00199526	0.00024143	0.00315203	0.00221922	0.00108714	0.00299496	0.00107060
1.28000000	0.00486911	0.00389955	0.00198614	0.00223765	0.00169480	0.00332573	0.00306652	0.00582613	0.00362531	0.00672671	0.00327302	0.01227991	0.00356974	0.01616168	0.00340705	0.00519177	0.00221039	0.00322119	0.00364493	0.00185079	0.00194092	0.00024868	0.00296960	0.00266966	0.00073700	0.00278687	0.00100515
1.29000000	0.00438082	0.00455657	0.00237180	0.00220654	0.00193681	0.00357687	0.00294992	0.00608816	0.00334622	0.00687030	0.00316475	0.01241705	0.00315674	0.01540830	0.00367469	0.00440995	0.00223900	0.00331469	0.00356702	0.00187438	0.00197375	0.00024198	0.00286329	0.00271882	0.00078490	0.00276519	0.00081536
1.30000000	0.00415583	0.00465014	0.00265736	0.00216061	0.00210707	0.00373698	0.00304175	0.00622238	0.00318391	0.00688828	0.00319671	0.01208770	0.00346376	0.01508726	0.00377611	0.00391727	0.00222113	0.00341462	0.00340176	0.00188072	0.00195955	0.00042499	0.00268701	0.00276582	0.00070398	0.00276947	0.00064504
1.31000000	0.00432065	0.00390041	0.00254905	0.00178987	0.00185078	0.00388135	0.00332173	0.00618606	0.00318745	0.00674884	0.00323243	0.01124070	0.00421434	0.01524550	0.00364753	0.00374334	0.00238597	0.00363168	0.00325709	0.00189346	0.00194108	0.00043480	0.00257868	0.00307236	0.00053094	0.00265426	0.00033122
1.32000000	0.00425315	0.00429195	0.00278911	0.00163989	0.00191829	0.00389505	0.00369690	0.00639913	0.00312339	0.00670287	0.00310826	0.01130527	0.00464786	0.01484264	0.00376508	0.00349706	0.00233637	0.00374543	0.00325213	0.00184346	0.00181507	0.00051923	0.00249287	0.00326215	0.00057968	0.00249234	0.00010624
1.33000000	0.00422962	0.00422553	0.00284560	0.00151581	0.00189497	0.00407626	0.00399399	0.00646086	0.00306952	0.00671695	0.00308371	0.01124654	0.00535273	0.01468797	0.00371503	0.00337620	0.00238500	0.00390152	0.00312673	0.00177938	0.00171461	0.00062566	0.00236830	0.00343969	0.00042538	0.00243143	0.00047972
1.34000000	0.00457407	0.00330719	0.00263883	0.00121968	0.00169689	0.00432985	0.00423618	0.00648341	0.00313842	0.00653955	0.00322901	0.01074385	0.00599498	0.01497352	0.00351252	0.00355830	0.00266597	0.00395472	0.00303861	0.00182767	0.00169930	0.00070461	0.00234631	0.00354976	0.00029802	0.00221004	0.00056270
1.35000000	0.00435214	0.00376020	0.00281434	0.00130281	0.00178206	0.00462588	0.00451599	0.00667993	0.00304731	0.00666047	0.00306965	0.01128166	0.00639295	0.01446169	0.00371834	0.00352005	0.00281638	0.00404791	0.00298571	0.00178888	0.00159209	0.00078848	0.00224038	0.00371010	0.00046119	0.00194361	0.00083806
1.36000000	0.00430563	0.00375914	0.00289970	0.00136969	0.00183269	0.00496526	0.00460155	0.00696013	0.00301775	0.00667212	0.00300386	0.01166306	0.00669090	0.01425205	0.00386739	0.00354890	0.00301353	0.00403429	0.00295602	0.00184916	0.00157614	0.00085435	0.00217037	0.00361693	0.00056561	0.00184544	0.00099650
1.37000000	0.00453906	0.00338376	0.00281162	0.00131851	0.00176980	0.00521162	0.00455507	0.00735179	0.00311240	0.00637934	0.00322383	0.01162451	0.00681994	0.01448515	0.00378410	0.00378142	0.00315033	0.00404432	0.00286354	0.00178472	0.00152255	0.00097502	0.00215276	0.00357693	0.00049230	0.00166920	0.00083920
1.38000000	0.00423928	0.00329858	0.00272903	0.00142387	0.00165540	0.00568922	0.00487194	0.00750464	0.00307709	0.00654355	0.00307875	0.01206152	0.00700487	0.01448281	0.00389290	0.00393872	0.00342935	0.00417428	0.00281478	0.00170665	0.00140944	0.00099719	0.00203232	0.00365989	0.00065094	0.00143598	0.00083855
1.39000000	0.00410171	0.00302621	0.00266893	0.00153788	0.00161357	0.00604359	0.00498245	0.00774603	0.00309803	0.00658187	0.00296047	0.01227576	0.00710986	0.01478071	0.00391253	0.00417592	0.00380994	0.00413313	0.00281019	0.00177049	0.00138714	0.00103291	0.00190161	0.00353292	0.00073850	0.00119511	0.00086747
1.40000000	0.00422665	0.00282197	0.00272754	0.00151778	0.00164338	0.00619200	0.00496482	0.00815443	0.00326240	0.00627130	0.00287891	0.01222380	0.00709069	0.01534323	0.00392643	0.00438241	0.00401490	0.00396099	0.00279022	0.00182755	0.00139787	0.00109037	0.00181151	0.00324209	0.00057659	0.00105411	0.00070935
1.41000000	0.00424794	0.00327231	0.00289080	0.00155461	0.00164892	0.00617801	0.00504440	0.00856884	0.00350809	0.00580107	0.00305443	0.01212001	0.00696007	0.01589852	0.00405786	0.00451349	0.00379047	0.00394894	0.00271537	0.00176959	0.00133091	0.00113161	0.00176564	0.00313272	0.00040207	0.00072130	0.00045485
1.42000000	0.00417968	0.00295103	0.00274113	0.00160225	0.00149868	0.00632178	0.00528320	0.00877089	0.00362258	0.00577662	0.00279471	0.01202502	0.00693769	0.01661981	0.00402784	0.00461378	0.00409963	0.00391426	0.00262920	0.00175953	0.00132983	0.00115934	0.00158732	0.00299179	0.00041705	0.00057697	0.00034331
1.43000000	0.00411381	0.00273776	0.00247918	0.00172322	0.00126519	0.00658148	0.00557215	0.00873398	0.00369037	0.00586681	0.00274541	0.01196689	0.00676578	0.01734818	0.00391820	0.00471172	0.00441997	0.00392879	0.00252703	0.00177806	0.00135612	0.00119081	0.00143112	0.00289308	0.00051555	0.00037966	0.00028654
1.44000000	0.00400235	0.00364722	0.00296419	0.00177554	0.00139522	0.00640989	0.00563431	0.00923298	0.00392144	0.00547727	0.00292133	0.01205775	0.00652785	0.01749394	0.00408594	0.00463605	0.00398299	0.00387461	0.00237533	0.00166393	0.00132414	0.00122707	0.00133296	0.00273982	0.00032635	0.00002587	0.00010394
1.45000000	0.00404228	0.00374592	0.00300267	0.00184362	0.00134270	0.00649139	0.00582645	0.00941013	0.00407104	0.00544303	0.00288239	0.01210452	0.00625961	0.01771762	0.00396223	0.00454190	0.00397240	0.00377595	0.00224657	0.00163842	0.00133595	0.00126528	0.00123076	0.00255675	0.00031010	0.00017488	0.00008096
1.46000000	0.00419775	0.00361628	0.00298660	0.00190583	0.00134385	0.00651351	0.00609395	0.00958603	0.00425134	0.00545270	0.00265230	0.01195250	0.00585026	0.01778563	0.00374434	0.00438564	0.00399844	0.00357933	0.00213380	0.00164615	0.00133373	0.00131434	0.00122366	0.00232167	0.00031565	0.00037879	0.00013939
1.47000000	0.00406830	0.00380450	0.00312842	0.00202221	0.00139659	0.00653306	0.00629271	0.00978020	0.00431865	0.00547185	0.00278884	0.01190839	0.00527454	0.01723378	0.00356582	0.00409337	0.00383851	0.00346628	0.00192668	0.00150371	0.00131843	0.00138869	0.00127511	0.00219337	0.00026317	0.00049783	0.00004457
1.48000000	0.00397190	0.00381045	0.00314581	0.00215357	0.00141814	0.00653065	0.00649653	0.00994738	0.00437358	0.00557770	0.00286112	0.01173038	0.00463668	0.01614178	0.00328328	0.00369867	0.00364779	0.00327264	0.00178377	0.00146924	0.00133100	0.00144196	0.00146755	0.00195830	0.00022641	0.00083665	0.00011272
1.49000000	0.00388546	0.00308348	0.00227958	0.00241726	0.00117934	0.00695246	0.00711427	0.00951839	0.00425385	0.00589216	0.00319148	0.01122391	0.00360490	0.01507240	0.00295932	0.00332944	0.00358835	0.00313866	0.00155754	0.00151676	0.00142607	0.00164475	0.00182071	0.00185462	0.00046331	0.00111369	0.00057642
1.50000000	0.00356261	0.00350544	0.00312959	0.00238793	0.00154201	0.00661778	0.00681644	0.01022976	0.00435808	0.00587759	0.00309869	0.01039957	0.00298275	0.01230824	0.00277405	0.00260098	0.00303771	0.00287091	0.00152614	0.00125079	0.00130484	0.00159854	0.00200420	0.00163346	0.00013067	0.00127051	0.00025432
1.51000000	0.00353838	0.00315148	0.00293740	0.00243320	0.00156494	0.00681760	0.00692454	0.01026556	0.00433673	0.00610773	0.00304223	0.00911302	0.00211399	0.00983361	0.00248596	0.00198768	0.00271551	0.00262616	0.00146612	0.00112808	0.00123908	0.00166531	0.00237946	0.00158451	0.00013429	0.00141640	0.00026239
1.52000000	0.00349620	0.00307653	0.00249982	0.00247097	0.00146763	0.00716838	0.00701383	0.01020875	0.00426013	0.00644043	0.00294676	0.00782115	0.00117053	0.00714552	0.00223432	0.00146156	0.00246547	0.00240715	0.00145381	0.00102514	0.00119882	0.00175169	0.00275748	0.00162720	0.00030809	0.00156592	0.00033856
1.53000000	0.00330729	0.00314714	0.00237266	0.00256869	0.00155495	0.00746621	0.00695746	0.01034890	0.00420567	0.00652952	0.00302807	0.00676966	0.00080455	0.00424250	0.00203518	0.00087085	0.00216734	0.00228846	0.00148766	0.00093275	0.00115680	0.00182000	0.00307756	0.00174498	0.00026631	0.00170819	0.00044954
1.54000000	0.00283711	0.00304492	0.00251241	0.00276424	0.00177006	0.00769726	0.00681362	0.01062661	0.00407332	0.00647520	0.00342386	0.00648071	0.00094735	0.00178923	0.00194491	0.00059343	0.00181681	0.00216002	0.00164061	0.00077506	0.00109116	0.00194840	0.00339036	0.00174849	0.00019191	0.00198465	0.00046400
1.55000000	0.00281954	0.00369117	0.00209293	0.00280377	0.00172135	0.00828100	0.00666951	0.01066249	0.00400794	0.00668919	0.00330862	0.00716113	0.00157999	0.00274454	0.00184861	0.00088787	0.00165333	0.00206755	0.00179304	0.00075738	0.00109212	0.00202833	0.00366778	0.00203191	0.00033675	0.00206146	0.00047925
1.56000000	0.00255953	0.00375858	0.00207681	0.00299236	0.00186805	0.00867098	0.00657444	0.01087132	0.00397585	0.00655678	0.00352585	0.00830964	0.00195817	0.00491279	0.00182433	0.00146410	0.00143095	0.00204176	0.00195948	0.00073094	0.00111942	0.00213773	0.00392376	0.00215159	0.00033093	0.00226915	0.00053920
1.57000000	0.00222874	0.00396175	0.00195233	0.00315859	0.00191371	0.00908378	0.00659685	0.01103410	0.00390796	0.00651449	0.00362630	0.00953222	0.00241230	0.00680584	0.00180571	0.00194926	0.00136934	0.00202112	0.00224741	0.00071611	0.00117758	0.00222992	0.00404129	0.00237061	0.00042537	0.00238996	0.00054984
1.58000000	0.00202482	0.00425181	0.00177630	0.00332293	0.00197373	0.00943572	0.00653952	0.01120610	0.00388700	0.00646530	0.00368594	0.01066893	0.00283470	0.00804842	0.00180529	0.00239139	0.00127502	0.00208624	0.00236404	0.00086303	0.00130691	0.00225865	0.00419310	0.00250127	0.00055650	0.00258755	0.00061398
1.59000000	0.00204608	0.00497883	0.00132192	0.00344364	0.00198170	0.00982648	0.00642843	0.01120255	0.00393682	0.00640900	0.00368717	0.01168350	0.00327235	0.00865860	0.00161488	0.00257355	0.00135714	0.00199339	0.00252093	0.00092974	0.00145644	0.00225022	0.00431522	0.00280749	0.00061298	0.00256749	0.00068776
1.60000000	0.00200829	0.00574002	0.00096591	0.00362237	0.00203749	0.00999301	0.00633653	0.01126141	0.00385776	0.00645772	0.00385906	0.01230320	0.00399581	0.00869148	0.00148658	0.00268408	0.00157555	0.00196089	0.00278163	0.00101721	0.00166288	0.00227672	0.00428102	0.00285615	0.00066425	0.00275955	0.00086889
1.61000000	0.00171696	0.00543946	0.00078526	0.00386153	0.00213424	0.01000725	0.00655499	0.01107166	0.00407513	0.00622918	0.00377462	0.01263952	0.00363948	0.00922325	0.00128959	0.00288525	0.00136138	0.00188997	0.00285253	0.00113247	0.00181454	0.00214137	0.00431155	0.00311667	0.00080395	0.00275662	0.00083613
1.62000000	0.00171474	0.00609016	0.00051360	0.00411013	0.00225792	0.00977674	0.00659701	0.01099018	0.00404258	0.00625664	0.00389946	0.01268249	0.00380420	0.00907867	0.00106689	0.00283829	0.00146081	0.00185892	0.00315068	0.00127457	0.00205361	0.00208325	0.00407348	0.00305564	0.00090892	0.00296937	0.00090701
1.63000000	0.00164771	0.00594333	0.00061631	0.00442281	0.00246174	0.00956865	0.00696861	0.01059407	0.00422167	0.00612062	0.00384591	0.01262619	0.00362716	0.00910021	0.00091262	0.00278514	0.00137120	0.00175626	0.00319241	0.00137798	0.00220621	0.00200324	0.00410336	0.00326030	0.00095141	0.00295363	0.00095986
1.64000000	0.00178600	0.00581531	0.00073541	0.00475295	0.00267014	0.00941730	0.00752896	0.01007014	0.00431857	0.00629126	0.00343749	0.01195040	0.00358560	0.00939063	0.00092463	0.00294331	0.00082664	0.00169462	0.00317271	0.00159308	0.00249060	0.00199378	0.00409154	0.00335146	0.00101571	0.00300573	0.00093463
1.65000000	0.00214769	0.00648400	0.00114747	0.00520965	0.00309347	0.00891290	0.00744811	0.00983703	0.00439594	0.00628117	0.00362947	0.01190454	0.00286043	0.00919079	0.00102012	0.00284026	0.00102112	0.00153170	0.00324708	0.00187925	0.00285447	0.00196240	0.00392968	0.00306752	0.00087959	0.00335938	0.00112814
1.66000000	0.00273752	0.00698132	0.00147559	0.00546511	0.00335873	0.00881750	0.00797013	0.00915912	0.00455097	0.00620810	0.00358966	0.01171477	0.00313640	0.00882681	0.00110997	0.00262845	0.00070253	0.00166253	0.00325505	0.00182283	0.00284144	0.00198300	0.00396910	0.00359091	0.00088332	0.00302930	0.00111942
1.67000000	0.00316927	0.00747655	0.00195392	0.00591319	0.00380831	0.00856603	0.00797605	0.00871421	0.00480017	0.00611743	0.00357574	0.01188217	0.00214485	0.00885230	0.00147132	0.00263141	0.00117596	0.00150666	0.00334784	0.00216779	0.00322929	0.00204664	0.00372508	0.00317635	0.00072085	0.00344063	0.00126486
1.68000000	0.00368455	0.00878604	0.00221463	0.00586025	0.00392553	0.00856275	0.00847991	0.00810584	0.00504111	0.00588830	0.00330692	0.01083008	0.00323543	0.00893245	0.00170441	0.00262815	0.00106897	0.00189028	0.00327393	0.00206350	0.00315049	0.00223353	0.00385486	0.00362875	0.00083163	0.00319506	0.00107897
1.69000000	0.00448200	0.00944771	0.00258242	0.00626581	0.00431063	0.00864893	0.00860935	0.00746124	0.00521524	0.00579940	0.00327150	0.01122323	0.00303333	0.00874465	0.00175887	0.00248891	0.00131471	0.00189876	0.00328150	0.00220750	0.00330012	0.00231926	0.00371745	0.00363153	0.00067603	0.00322173	0.00116820
1.70000000	0.00525562	0.01019475	0.00294320	0.00661283	0.00467008	0.00878140	0.00871717	0.00676790	0.00545818	0.00565985	0.00312352	0.01158782	0.00308459	0.00867445	0.00175298	0.00240172	0.00151179	0.00193817	0.00329728	0.00234709	0.00341831	0.00247745	0.00357523	0.00363720	0.00056165	0.00324265	0.00121835
1.71000000	0.00616334	0.01052666	0.00334573	0.00702115	0.00506932	0.00919089	0.00854093	0.00586312	0.00570432	0.00548389	0.00302238	0.01188656	0.00325496	0.00904188	0.00158386	0.00236932	0.00177594	0.00177267	0.00336746	0.00261531	0.00359727	0.00263606	0.00334660	0.00331037	0.00051010	0.00358184	0.00126124
1.72000000	0.00662952	0.01184928	0.00353520	0.00706244	0.00520502	0.00895809	0.00854195	0.00543524	0.00600614	0.00521105	0.00303402	0.01139846	0.00378736	0.00904243	0.00155734	0.00247277	0.00156267	0.00207398	0.00302198	0.00252983	0.00355653	0.00273938	0.00353254	0.00380446	0.00053485	0.00317091	0.00127988
1.73000000	0.00746315	0.01238682	0.00370618	0.00723177	0.00538302	0.00912355	0.00828930	0.00459295	0.00620683	0.00507198	0.00287804	0.01080582	0.00394615	0.00925023	0.00132545	0.00255220	0.00154735	0.00206970	0.00307206	0.00261425	0.00358299	0.00296110	0.00334017	0.00380748	0.00053865	0.00321326	0.00138725
1.74000000	0.00824201	0.01257720	0.00388246	0.00734737	0.00553302	0.00936097	0.00764942	0.00368021	0.00641784	0.00486882	0.00236820	0.00978483	0.00406010	0.00938891	0.00111513	0.00255860	0.00173493	0.00194221	0.00316533	0.00277806	0.00365160	0.00317202	0.00305985	0.00366422	0.00066029	0.00344643	0.00151987
1.75000000	0.00877239	0.01300773	0.00388818	0.00724113	0.00548563	0.00904237	0.00721537	0.00304315	0.00672586	0.00468031	0.00264406	0.00836533	0.00415632	0.00879864	0.00124661	0.00257357	0.00157547	0.00199732	0.00302415	0.00272958	0.00357738	0.00327473	0.00297936	0.00393102	0.00076914	0.00323208	0.00163850
1.76000000	0.00960970	0.01217434	0.00367007	0.00743858	0.00546745	0.00840498	0.00648608	0.00267938	0.00698688	0.00417269	0.00274363	0.00785429	0.00368852	0.00721938	0.00078215	0.00168040	0.00075824	0.00189033	0.00275003	0.00281371	0.00352561	0.00317557	0.00292905	0.00403433	0.00094359	0.00316172	0.00177471
1.77000000	0.00994043	0.01174104	0.00353632	0.00720520	0.00528080	0.00792829	0.00531762	0.00244891	0.00717685	0.00398850	0.00287527	0.00617731	0.00366685	0.00601811	0.00091672	0.00143104	0.00077266	0.00181011	0.00264996	0.00282784	0.00344961	0.00323246	0.00282326	0.00417676	0.00103823	0.00309621	0.00191020
1.78000000	0.00999898	0.01128641	0.00335898	0.00672900	0.00495056	0.00741923	0.00380671	0.00251078	0.00729026	0.00391150	0.00246163	0.00491111	0.00379638	0.00455661	0.00109125	0.00115505	0.00107338	0.00179949	0.00263998	0.00277743	0.00325806	0.00326980	0.00266155	0.00415246	0.00104497	0.00333385	0.00196743
1.79000000	0.01044630	0.00941810	0.00275912	0.00655787	0.00454632	0.00630810	0.00249739	0.00286724	0.00729035	0.00370395	0.00295495	0.00429518	0.00319673	0.00301569	0.00093275	0.00113329	0.00093980	0.00163442	0.00232049	0.00278070	0.00314762	0.00310885	0.00277144	0.00436887	0.00112018	0.00311043	0.00197960
1.80000000	0.00969556	0.00880332	0.00252646	0.00575062	0.00401247	0.00557382	0.00081138	0.00346487	0.00731830	0.00378409	0.00229559	0.00358302	0.00340228	0.00185569	0.00108550	0.00110837	0.00077162	0.00172430	0.00224785	0.00268088	0.00286367	0.00304333	0.00291500	0.00434408	0.00094718	0.00338388	0.00191346
1.81000000	0.00943845	0.00683770	0.00195203	0.00521120	0.00340313	0.00427720	0.00141399	0.00404123	0.00722873	0.00383821	0.00299804	0.00281837	0.00278756	0.00147206	0.00109522	0.00140911	0.00084103	0.00161600	0.00192426	0.00254742	0.00266135	0.00283002	0.00308417	0.00466620	0.00091311	0.00308419	0.00181112
1.82000000	0.00858105	0.00562130	0.00174681	0.00445809	0.00288688	0.00347519	0.00307403	0.00471491	0.00712633	0.00391953	0.00259740	0.00197428	0.00257113	0.00145752	0.00122141	0.00177911	0.00051573	0.00169141	0.00175668	0.00246878	0.00241998	0.00269392	0.00339371	0.00467184	0.00074108	0.00317724	0.00167933
1.83000000	0.00791110	0.00415460	0.00159305	0.00388736	0.00243461	0.00280831	0.00427454	0.00555247	0.00703566	0.00404246	0.00260287	0.00192073	0.00207135	0.00192985	0.00133603	0.00183834	0.00062916	0.00171419	0.00145716	0.00234513	0.00218908	0.00247525	0.00375645	0.00478886	0.00063789	0.00307541	0.00150328
1.84000000	0.00721865	0.00328060	0.00175570	0.00347083	0.00222683	0.00322226	0.00510297	0.00643881	0.00704947	0.00423187	0.00218241	0.00272341	0.00166144	0.00279712	0.00142357	0.00188780	0.00085572	0.00173544	0.00124465	0.00225530	0.00195946	0.00233645	0.00402673	0.00483163	0.00049514	0.00296930	0.00139462
1.85000000	0.00653161	0.00281701	0.00191306	0.00314907	0.00215738	0.00411579	0.00577940	0.00768913	0.00710506	0.00459405	0.00194963	0.00413046	0.00154217	0.00356085	0.00153549	0.00187806	0.00093164	0.00175238	0.00111992	0.00224053	0.00173765	0.00223074	0.00427908	0.00475092	0.00044283	0.00289127	0.00128926
1.86000000	0.00584990	0.00276957	0.00219091	0.00294371	0.00220023	0.00543446	0.00633677	0.00893272	0.00731583	0.00509449	0.00167403	0.00505092	0.00150811	0.00446980	0.00160826	0.00186340	0.00109550	0.00176503	0.00100879	0.00220097	0.00155070	0.00214362	0.00440120	0.00468624	0.00050045	0.00273420	0.00122585
1.87000000	0.00508983	0.00266534	0.00245882	0.00278882	0.00229722	0.00632030	0.00701081	0.01032178	0.00757477	0.00575480	0.00201451	0.00563794	0.00160157	0.00516248	0.00166569	0.00189187	0.00125883	0.00175081	0.00105741	0.00224678	0.00136054	0.00210174	0.00443581	0.00457928	0.00046607	0.00240887	0.00123296
1.88000000	0.00413724	0.00222616	0.00255548	0.00257096	0.00226829	0.00761803	0.00773546	0.01143705	0.00816160	0.00557235	0.00268940	0.00609105	0.00137763	0.00558497	0.00162181	0.00187414	0.00138582	0.00172762	0.00119049	0.00221953	0.00118282	0.00194105	0.00456638	0.00428492	0.00027487	0.00244467	0.00128344
1.89000000	0.00346761	0.00254630	0.00268025	0.00244295	0.00223283	0.00736862	0.00860581	0.01259660	0.00830885	0.00663911	0.00290700	0.00601886	0.00147132	0.00538046	0.00159436	0.00178060	0.00123700	0.00173653	0.00136304	0.00226777	0.00102216	0.00183133	0.00460549	0.00412167	0.00046629	0.00210504	0.00128085
1.90000000	0.00254082	0.00233359	0.00278078	0.00237376	0.00222533	0.00815826	0.00958431	0.01321852	0.00880841	0.00627817	0.00311613	0.00554163	0.00122983	0.00539859	0.00144731	0.00168256	0.00151714	0.00171600	0.00156216	0.00225922	0.00086950	0.00169001	0.00464620	0.00386633	0.00036193	0.00196108	0.00137905
1.91000000	0.00206383	0.00250394	0.00287808	0.00235937	0.00222542	0.00812950	0.01060981	0.01398773	0.00903191	0.00642687	0.00298210	0.00485280	0.00105180	0.00509890	0.00132793	0.00154178	0.00172496	0.00170040	0.00181561	0.00225009	0.00081845	0.00155654	0.00458104	0.00353260	0.00060581	0.00182873	0.00151313
1.92000000	0.00175952	0.00265750	0.00293353	0.00239819	0.00217431	0.00795416	0.01181724	0.01475133	0.00914619	0.00638094	0.00287233	0.00419498	0.00099463	0.00466879	0.00122073	0.00142879	0.00174390	0.00166087	0.00201345	0.00224580	0.00077596	0.00139937	0.00462723	0.00329765	0.00059544	0.00158118	0.00164749
1.93000000	0.00217954	0.00292425	0.00291432	0.00243806	0.00198802	0.00784063	0.01295979	0.01556416	0.00926750	0.00602703	0.00312576	0.00372836	0.00109480	0.00434918	0.00123576	0.00126931	0.00171029	0.00172209	0.00216104	0.00218349	0.00090503	0.00123476	0.00482330	0.00320325	0.00059092	0.00143187	0.00193799
1.94000000	0.00131686	0.00321716	0.00299562	0.00227563	0.00195779	0.00708028	0.01423439	0.01679718	0.00902794	0.00643095	0.00276790	0.00362243	0.00105111	0.00358684	0.00110927	0.00106446	0.00122825	0.00166083	0.00246262	0.00235449	0.00081755	0.00108586	0.00464682	0.00261492	0.00094325	0.00103893	0.00197439
1.95000000	0.00239072	0.00329292	0.00296416	0.00239480	0.00182260	0.00697316	0.01519189	0.01783430	0.00905656	0.00619830	0.00287435	0.00352806	0.00074739	0.00343888	0.00097674	0.00112973	0.00132632	0.00176558	0.00262219	0.00238482	0.00093295	0.00092605	0.00472211	0.00228373	0.00103844	0.00089085	0.00221785
1.96000000	0.00303195	0.00343707	0.00291973	0.00245615	0.00163290	0.00686585	0.01600420	0.01890000	0.00907538	0.00602425	0.00302491	0.00367335	0.00069740	0.00332656	0.00099444	0.00108039	0.00126121	0.00187181	0.00276474	0.00245076	0.00105248	0.00078250	0.00485049	0.00201110	0.00116572	0.00073211	0.00241825
1.97000000	0.00275169	0.00389166	0.00289667	0.00231287	0.00149959	0.00660611	0.01677899	0.02001963	0.00895758	0.00582144	0.00319015	0.00402177	0.00083425	0.00298650	0.00085030	0.00123255	0.00084285	0.00196518	0.00300178	0.00247149	0.00106215	0.00062795	0.00482233	0.00159384	0.00142663	0.00047150	0.00252041
1.98000000	0.00355380	0.00385117	0.00292461	0.00251523	0.00139381	0.00664875	0.01719989	0.02088932	0.00901481	0.00568220	0.00337696	0.00441167	0.00092891	0.00305850	0.00085731	0.00132839	0.00086067	0.00209733	0.00311692	0.00250514	0.00116125	0.00053831	0.00491396	0.00132962	0.00147121	0.00036798	0.00267507
1.99000000	0.00392808	0.00381566	0.00296417	0.00264297	0.00130184	0.00665843	0.01744931	0.02171465	0.00908068	0.00559128	0.00358493	0.00490538	0.00102583	0.00320505	0.00090418	0.00139102	0.00079205	0.00221537	0.00330465	0.00245363	0.00122915	0.00046663	0.00493329	0.00109769	0.00162348	0.00023324	0.00279388
2.00000000	0.00412789	0.00375957	0.00303269	0.00271878	0.00118799	0.00684395	0.01753810	0.02240144	0.00919511	0.00549013	0.00377610	0.00543943	0.00106856	0.00342640	0.00100989	0.00140306	0.00068035	0.00234241	0.00348858	0.00245308	0.00126919	0.00048753	0.00494380	0.00091604	0.00176989	0.00007936	0.00286003
2.01000000	0.00412165	0.00366959	0.00303234	0.00284532	0.00109971	0.00719563	0.01753324	0.02293693	0.00935505	0.00550622	0.00392124	0.00593996	0.00117224	0.00367118	0.00106621	0.00143048	0.00064893	0.00248176	0.00362778	0.00241770	0.00131808	0.00046384	0.00496889	0.00076741	0.00185896	0.00019798	0.00281002
2.02000000	0.00394160	0.00377969	0.00310423	0.00287265	0.00102066	0.00739014	0.01729314	0.02349964	0.00952426	0.00556175	0.00409981	0.00634467	0.00122728	0.00404232	0.00108961	0.00153082	0.00065130	0.00257804	0.00386426	0.00234346	0.00131636	0.00049191	0.00489641	0.00069513	0.00194779	0.00011601	0.00286240
2.03000000	0.00366732	0.00400604	0.00302868	0.00292153	0.00094660	0.00741061	0.01713653	0.02394456	0.00950103	0.00582640	0.00417379	0.00663910	0.00144078	0.00449725	0.00113521	0.00146522	0.00095190	0.00273112	0.00404286	0.00230029	0.00130288	0.00051183	0.00483327	0.00060624	0.00203774	0.00024149	0.00261684
2.04000000	0.00337275	0.00395141	0.00308897	0.00296139	0.00088483	0.00780204	0.01679304	0.02433410	0.00964801	0.00605405	0.00440065	0.00693671	0.00157653	0.00474436	0.00118762	0.00149460	0.00092660	0.00285705	0.00421334	0.00227108	0.00128717	0.00058296	0.00476444	0.00058423	0.00207347	0.00030318	0.00254455
2.05000000	0.00291410	0.00386278	0.00323395	0.00292485	0.00082131	0.00828633	0.01634239	0.02476269	0.00982664	0.00614275	0.00452777	0.00721092	0.00164759	0.00498909	0.00130863	0.00152073	0.00071043	0.00295315	0.00442046	0.00224571	0.00124912	0.00064337	0.00464589	0.00061227	0.00210797	0.00047997	0.00260355
2.06000000	0.00313284	0.00404987	0.00314625	0.00317652	0.00086480	0.00855938	0.01585360	0.02498316	0.00977818	0.00649092	0.00467681	0.00735084	0.00181771	0.00540226	0.00127479	0.00149651	0.00108853	0.00309409	0.00454787	0.00218957	0.00123421	0.00068518	0.00455990	0.00070994	0.00213053	0.00049347	0.00236152
2.07000000	0.00233406	0.00395020	0.00325974	0.00302750	0.00076280	0.00918793	0.01525977	0.02535395	0.00984188	0.00664064	0.00483695	0.00761770	0.00197302	0.00547103	0.00142635	0.00154358	0.00086566	0.00318854	0.00470372	0.00217452	0.00119455	0.00075649	0.00445184	0.00080966	0.00211955	0.00061480	0.00241087
2.08000000	0.00222078	0.00400872	0.00329304	0.00316447	0.00086323	0.00975539	0.01459511	0.02546717	0.00973242	0.00689437	0.00495933	0.00779768	0.00205646	0.00580109	0.00150228	0.00154045	0.00104112	0.00331127	0.00483236	0.00214066	0.00115116	0.00082666	0.00428255	0.00110391	0.00221124	0.00044700	0.00223579
2.09000000	0.00198504	0.00392301	0.00333514	0.00322339	0.00088322	0.01036932	0.01380461	0.02552883	0.00954070	0.00708202	0.00504747	0.00806089	0.00214852	0.00604484	0.00165295	0.00151379	0.00099290	0.00344198	0.00491873	0.00212191	0.00111482	0.00088661	0.00417157	0.00126986	0.00215418	0.00046950	0.00216053
2.10000000	0.00146730	0.00374278	0.00340723	0.00307641	0.00086701	0.01099240	0.01279217	0.02551220	0.00933297	0.00730635	0.00509124	0.00837069	0.00229343	0.00612877	0.00175448	0.00160956	0.00095845	0.00357594	0.00496589	0.00213323	0.00106052	0.00093886	0.00407822	0.00138511	0.00204734	0.00067530	0.00216773
2.11000000	0.00159549	0.00360758	0.00346814	0.00324832	0.00098510	0.01154726	0.01192312	0.02491326	0.00895932	0.00732415	0.00499743	0.00866649	0.00234266	0.00649647	0.00185687	0.00160057	0.00105201	0.00375499	0.00503089	0.00212686	0.00103083	0.00104734	0.00389845	0.00167050	0.00203821	0.00058762	0.00192813
2.12000000	0.00198494	0.00316555	0.00344936	0.00356418	0.00113361	0.01195491	0.01076834	0.02387245	0.00852821	0.00758217	0.00479934	0.00899918	0.00240382	0.00678995	0.00176047	0.00172388	0.00132975	0.00393648	0.00495754	0.00205282	0.00106607	0.00110574	0.00384240	0.00192962	0.00179807	0.00067604	0.00172831
2.13000000	0.00194714	0.00283943	0.00354353	0.00356885	0.00129449	0.01187328	0.00939693	0.02264572	0.00810457	0.00758605	0.00452617	0.00932743	0.00245394	0.00706407	0.00181647	0.00174152	0.00123876	0.00413425	0.00491738	0.00203160	0.00103863	0.00113413	0.00367844	0.00216624	0.00169034	0.00082222	0.00154668
2.14000000	0.00208473	0.00225442	0.00373842	0.00314005	0.00133241	0.01161246	0.00804603	0.02092310	0.00769715	0.00759589	0.00425496	0.00967642	0.00247832	0.00702873	0.00197062	0.00166353	0.00110635	0.00423577	0.00485771	0.00214797	0.00099339	0.00124580	0.00369066	0.00238131	0.00160686	0.00079206	0.00131612
2.15000000	0.00215053	0.00185998	0.00375163	0.00362705	0.00155072	0.01119994	0.00689492	0.01787875	0.00724410	0.00718872	0.00375502	0.00988359	0.00246200	0.00744925	0.00179126	0.00178868	0.00139574	0.00459535	0.00471774	0.00205898	0.00107439	0.00131077	0.00353343	0.00274428	0.00137275	0.00071390	0.00107243
2.16000000	0.00252959	0.00168182	0.00384346	0.00358380	0.00178779	0.01044691	0.00540887	0.01463604	0.00695012	0.00640624	0.00318834	0.01025740	0.00253182	0.00732544	0.00180040	0.00164193	0.00133960	0.00481026	0.00453095	0.00208230	0.00111724	0.00134554	0.00351586	0.00298899	0.00119041	0.00070024	0.00081492
2.17000000	0.00372952	0.00128767	0.00408137	0.00298013	0.00187054	0.00843140	0.00417219	0.01162144	0.00654591	0.00619087	0.00295644	0.01051087	0.00250461	0.00717043	0.00188437	0.00158899	0.00119642	0.00494344	0.00449543	0.00218997	0.00111870	0.00143080	0.00345415	0.00313552	0.00120364	0.00070426	0.00067463
2.18000000	0.00478295	0.00141040	0.00428204	0.00270828	0.00208876	0.00682100	0.00346899	0.00794560	0.00611928	0.00573989	0.00277886	0.01068954	0.00269098	0.00704909	0.00202683	0.00145333	0.00122010	0.00515567	0.00438509	0.00230172	0.00115312	0.00154580	0.00347579	0.00328763	0.00113968	0.00066922	0.00048889
2.19000000	0.00389140	0.00215848	0.00429828	0.00315179	0.00212580	0.00634320	0.00284264	0.00364355	0.00611146	0.00419625	0.00221709	0.01078894	0.00245626	0.00732489	0.00174504	0.00157453	0.00158649	0.00565280	0.00417978	0.00222853	0.00124566	0.00158367	0.00338870	0.00367373	0.00091460	0.00047867	0.00033602
2.20000000	0.00535032	0.00254727	0.00430357	0.00288067	0.00227630	0.00657279	0.00186792	0.00271321	0.00607687	0.00265342	0.00159033	0.01118659	0.00250323	0.00693252	0.00178171	0.00140438	0.00152422	0.00596720	0.00402165	0.00226635	0.00132182	0.00156645	0.00333764	0.00380976	0.00084239	0.00036721	0.00029023
2.21000000	0.00676669	0.00277920	0.00446136	0.00251915	0.00244805	0.00876720	0.00185875	0.00509513	0.00575017	0.00274933	0.00142196	0.01141060	0.00259125	0.00670765	0.00186682	0.00132912	0.00154159	0.00607182	0.00393081	0.00241184	0.00139736	0.00169360	0.00348814	0.00389677	0.00082494	0.00029738	0.00009049
2.22000000	0.00734853	0.00302029	0.00455747	0.00239592	0.00255006	0.01132591	0.00213301	0.00814824	0.00557743	0.00285673	0.00132252	0.01158589	0.00257189	0.00670468	0.00192682	0.00120062	0.00162404	0.00637735	0.00383381	0.00245714	0.00142248	0.00175852	0.00349756	0.00399931	0.00081379	0.00020301	0.00006134
2.23000000	0.00766733	0.00343036	0.00469692	0.00239335	0.00267881	0.01300842	0.00181194	0.01067762	0.00572349	0.00349527	0.00137915	0.01181743	0.00250004	0.00670895	0.00179874	0.00123265	0.00168896	0.00661249	0.00371437	0.00251954	0.00152295	0.00178598	0.00351327	0.00407743	0.00081407	0.00019484	0.00018961
2.24000000	0.00845498	0.00336787	0.00474474	0.00219069	0.00273922	0.01491846	0.00186183	0.01190753	0.00543556	0.00407121	0.00154394	0.01201781	0.00259274	0.00675694	0.00196889	0.00110829	0.00167539	0.00672723	0.00367820	0.00259564	0.00159649	0.00185775	0.00355691	0.00412590	0.00090388	0.00005178	0.00016966
2.25000000	0.00959076	0.00396509	0.00485276	0.00183231	0.00283328	0.01581074	0.00137946	0.01177768	0.00536121	0.00460873	0.00220370	0.01213412	0.00274393	0.00684850	0.00193605	0.00124114	0.00178909	0.00691725	0.00376966	0.00253448	0.00171413	0.00188865	0.00332307	0.00405216	0.00124535	0.00033369	0.00046864
2.26000000	0.00817923	0.00335760	0.00502716	0.00210710	0.00287930	0.01502979	0.00159384	0.01199600	0.00515666	0.00462005	0.00186400	0.01213545	0.00262147	0.00715895	0.00202982	0.00112951	0.00180013	0.00696960	0.00358128	0.00272409	0.00165868	0.00193284	0.00351105	0.00408716	0.00111064	0.00017412	0.00040554
2.27000000	0.00788264	0.00322652	0.00505017	0.00202946	0.00284342	0.01347658	0.00106054	0.01067741	0.00499073	0.00423762	0.00170160	0.01208432	0.00274417	0.00736563	0.00223759	0.00125600	0.00174372	0.00701682	0.00351998	0.00270471	0.00170093	0.00191369	0.00343326	0.00408350	0.00125822	0.00019805	0.00050416
2.28000000	0.00839050	0.00328567	0.00524678	0.00190684	0.00304437	0.01060048	0.00060760	0.00882997	0.00461942	0.00345356	0.00212803	0.01204422	0.00287917	0.00733492	0.00245331	0.00142445	0.00170874	0.00682275	0.00366175	0.00254522	0.00191906	0.00177268	0.00324089	0.00395720	0.00180689	0.00052425	0.00118061
2.29000000	0.00659322	0.00320516	0.00516849	0.00191883	0.00276627	0.00820740	0.00098318	0.00687264	0.00467855	0.00351293	0.00161295	0.01181642	0.00276799	0.00746482	0.00254363	0.00155579	0.00168414	0.00689682	0.00336613	0.00269109	0.00168891	0.00173031	0.00322816	0.00390528	0.00158771	0.00018620	0.00073991
2.30000000	0.00635605	0.00312920	0.00509552	0.00177855	0.00268327	0.00543864	0.00155315	0.00496703	0.00451295	0.00298416	0.00258924	0.01172573	0.00280293	0.00708848	0.00288254	0.00164323	0.00161559	0.00682766	0.00336419	0.00239782	0.00174889	0.00162189	0.00287056	0.00391357	0.00187641	0.00031034	0.00141310
2.31000000	0.00472087	0.00308194	0.00507399	0.00185499	0.00256660	0.00459598	0.00182446	0.00341238	0.00402439	0.00485740	0.00247939	0.01127893	0.00293368	0.00678322	0.00291449	0.00162008	0.00126443	0.00651345	0.00319011	0.00257066	0.00166298	0.00156811	0.00280371	0.00359258	0.00199768	0.00007240	0.00099700
2.32000000	0.00405786	0.00313333	0.00491452	0.00173982	0.00240274	0.00350671	0.00261304	0.00289247	0.00403848	0.00521469	0.00261907	0.01088082	0.00307355	0.00626641	0.00310786	0.00164667	0.00119561	0.00622026	0.00304873	0.00244054	0.00153956	0.00144125	0.00262754	0.00346888	0.00209423	0.00016289	0.00125980
2.33000000	0.00357969	0.00308483	0.00471094	0.00167681	0.00229034	0.00310139	0.00312009	0.00268562	0.00391667	0.00569793	0.00280133	0.01039756	0.00336362	0.00551231	0.00328530	0.00146663	0.00115360	0.00583219	0.00286659	0.00233341	0.00153282	0.00124754	0.00232048	0.00316838	0.00227856	0.00028147	0.00144922
2.34000000	0.00320039	0.00300932	0.00449156	0.00152722	0.00217836	0.00263310	0.00334271	0.00264836	0.00383657	0.00617914	0.00291658	0.00987287	0.00356169	0.00442581	0.00332887	0.00102710	0.00124422	0.00537129	0.00272695	0.00215679	0.00142265	0.00115070	0.00206268	0.00290185	0.00252887	0.00041098	0.00166199
2.35000000	0.00275702	0.00273523	0.00415461	0.00139274	0.00199188	0.00195893	0.00348982	0.00275705	0.00383687	0.00638174	0.00299475	0.00911644	0.00382939	0.00336258	0.00335718	0.00044529	0.00154294	0.00485929	0.00253982	0.00201830	0.00139663	0.00111508	0.00175093	0.00257008	0.00270736	0.00069642	0.00199628
2.36000000	0.00240412	0.00233007	0.00373905	0.00120984	0.00175722	0.00130151	0.00345000	0.00307472	0.00387619	0.00645567	0.00303980	0.00820612	0.00413118	0.00226620	0.00329660	0.00053637	0.00196368	0.00433263	0.00236655	0.00181387	0.00135830	0.00116258	0.00143286	0.00224058	0.00290394	0.00096680	0.00235969
2.37000000	0.00212883	0.00191713	0.00326522	0.00104001	0.00147439	0.00113287	0.00328516	0.00351426	0.00391389	0.00646415	0.00307147	0.00716983	0.00431530	0.00177466	0.00317594	0.00147093	0.00249071	0.00377574	0.00217443	0.00158920	0.00139968	0.00128410	0.00113562	0.00190965	0.00315406	0.00123209	0.00268533
2.38000000	0.00210199	0.00159790	0.00280282	0.00097556	0.00119849	0.00155047	0.00306268	0.00388270	0.00394537	0.00638526	0.00318155	0.00610278	0.00426709	0.00265749	0.00307627	0.00250903	0.00291690	0.00318451	0.00195306	0.00140744	0.00150280	0.00146984	0.00092439	0.00158675	0.00338178	0.00151151	0.00303752
2.39000000	0.00181811	0.00156186	0.00217192	0.00100830	0.00081186	0.00199468	0.00267669	0.00426526	0.00398315	0.00631889	0.00307023	0.00528266	0.00442976	0.00400110	0.00281262	0.00344400	0.00335609	0.00270727	0.00178558	0.00115210	0.00156099	0.00169192	0.00086551	0.00129486	0.00346060	0.00185509	0.00351487
2.40000000	0.00227101	0.00178147	0.00176157	0.00109341	0.00055438	0.00225937	0.00233718	0.00437819	0.00403468	0.00619702	0.00313682	0.00521460	0.00405509	0.00568578	0.00281750	0.00421183	0.00322043	0.00217529	0.00171882	0.00095447	0.00173308	0.00189163	0.00095974	0.00122534	0.00374236	0.00203081	0.00374386
2.41000000	0.00225754	0.00220222	0.00127330	0.00132583	0.00051464	0.00264106	0.00187396	0.00446101	0.00398884	0.00631760	0.00308259	0.00610071	0.00380001	0.00733293	0.00256369	0.00474994	0.00305938	0.00168090	0.00168645	0.00078725	0.00192020	0.00216926	0.00113927	0.00108234	0.00389988	0.00241976	0.00403286
2.42000000	0.00297852	0.00255123	0.00106689	0.00156481	0.00062365	0.00274774	0.00157975	0.00459875	0.00413437	0.00615309	0.00317725	0.00714954	0.00339457	0.00897822	0.00267323	0.00518306	0.00212741	0.00130618	0.00172772	0.00078466	0.00207552	0.00236110	0.00139313	0.00143703	0.00403114	0.00257531	0.00427253
2.43000000	0.00294421	0.00292642	0.00075576	0.00182168	0.00093792	0.00284900	0.00110712	0.00485404	0.00412740	0.00629052	0.00305845	0.00872237	0.00318574	0.01039965	0.00277426	0.00524893	0.00179042	0.00102634	0.00185098	0.00086992	0.00224031	0.00259953	0.00157836	0.00167382	0.00420428	0.00290692	0.00442315
2.44000000	0.00328578	0.00310890	0.00076494	0.00199148	0.00114376	0.00291795	0.00082854	0.00516139	0.00425232	0.00629001	0.00303584	0.01001620	0.00305713	0.01171658	0.00299566	0.00531684	0.00143764	0.00099899	0.00195204	0.00103514	0.00235058	0.00285181	0.00179222	0.00215138	0.00431385	0.00313236	0.00457659
2.45000000	0.00354182	0.00324220	0.00101348	0.00208472	0.00135126	0.00300996	0.00075825	0.00551574	0.00446414	0.00619588	0.00306433	0.01083968	0.00308229	0.01305869	0.00328939	0.00537573	0.00178105	0.00114518	0.00210466	0.00121682	0.00245528	0.00307542	0.00194383	0.00264029	0.00435092	0.00332695	0.00474501
2.46000000	0.00357821	0.00326114	0.00136202	0.00196651	0.00145927	0.00312214	0.00096725	0.00574378	0.00469644	0.00627623	0.00313664	0.01063643	0.00339391	0.01473387	0.00353747	0.00564790	0.00216776	0.00145663	0.00230641	0.00137779	0.00260483	0.00328212	0.00197642	0.00310821	0.00437119	0.00353006	0.00487117
2.47000000	0.00342416	0.00359286	0.00198136	0.00218409	0.00194768	0.00328018	0.00109558	0.00605604	0.00485064	0.00617985	0.00312884	0.01170410	0.00388080	0.01572587	0.00379619	0.00535493	0.00266186	0.00163510	0.00241332	0.00171351	0.00266782	0.00352815	0.00206550	0.00346774	0.00449178	0.00364066	0.00488252
2.48000000	0.00354967	0.00347559	0.00223258	0.00205519	0.00198332	0.00362167	0.00126796	0.00623302	0.00506703	0.00614022	0.00311675	0.01203444	0.00458186	0.01714892	0.00387331	0.00528731	0.00296848	0.00203079	0.00254213	0.00182601	0.00266743	0.00366058	0.00199395	0.00402931	0.00448599	0.00378174	0.00494948
2.49000000	0.00385462	0.00301561	0.00222036	0.00166215	0.00173613	0.00378883	0.00156252	0.00625072	0.00535588	0.00623263	0.00303464	0.01122270	0.00543055	0.01911447	0.00366993	0.00544743	0.00330404	0.00243521	0.00266382	0.00187760	0.00266169	0.00369812	0.00188017	0.00450141	0.00442795	0.00390112	0.00496081
2.50000000	0.00363990	0.00355196	0.00284265	0.00165097	0.00205756	0.00387600	0.00180309	0.00639481	0.00556702	0.00600791	0.00299266	0.01159646	0.00630934	0.02006552	0.00381207	0.00518472	0.00320801	0.00270559	0.00263176	0.00203196	0.00258692	0.00379490	0.00180753	0.00501908	0.00421827	0.00375941	0.00505968
2.51000000	0.00384898	0.00436030	0.00353633	0.00139628	0.00223356	0.00404009	0.00221463	0.00647519	0.00586646	0.00562143	0.00305095	0.01169927	0.00718191	0.02066286	0.00421984	0.00466023	0.00330969	0.00291818	0.00263143	0.00212829	0.00252675	0.00398969	0.00171931	0.00550093	0.00401506	0.00347249	0.00511078
2.52000000	0.00327755	0.00415370	0.00351892	0.00106612	0.00206567	0.00403904	0.00196024	0.00633845	0.00572137	0.00591943	0.00287930	0.01137494	0.00786994	0.02119626	0.00414098	0.00466068	0.00326125	0.00315598	0.00269317	0.00207438	0.00240195	0.00375471	0.00150644	0.00560870	0.00397370	0.00363411	0.00486962
2.53000000	0.00299682	0.00389014	0.00351154	0.00084081	0.00190726	0.00395617	0.00198806	0.00630127	0.00572455	0.00598581	0.00267085	0.01082839	0.00841777	0.02115606	0.00408183	0.00445661	0.00335762	0.00322682	0.00276733	0.00212074	0.00230065	0.00356130	0.00145683	0.00565373	0.00399810	0.00340871	0.00452404
2.54000000	0.00315545	0.00294790	0.00328774	0.00069723	0.00169903	0.00386034	0.00200826	0.00622266	0.00576462	0.00594731	0.00284085	0.00959542	0.00859891	0.02086470	0.00367555	0.00452843	0.00367252	0.00320422	0.00265366	0.00209830	0.00211380	0.00332327	0.00145043	0.00547156	0.00368944	0.00337040	0.00447159
2.55000000	0.00277747	0.00263418	0.00327536	0.00095096	0.00163324	0.00392735	0.00224735	0.00616031	0.00572750	0.00600915	0.00262430	0.00939360	0.00880313	0.01959427	0.00386523	0.00435633	0.00376619	0.00313507	0.00260631	0.00206802	0.00196709	0.00301535	0.00140414	0.00544181	0.00360759	0.00288175	0.00424381
2.56000000	0.00255640	0.00227827	0.00324380	0.00120786	0.00157776	0.00405855	0.00242233	0.00610950	0.00566428	0.00601194	0.00263159	0.00904704	0.00879571	0.01819073	0.00393474	0.00421215	0.00375208	0.00300402	0.00247011	0.00202279	0.00178988	0.00273036	0.00139519	0.00520649	0.00338274	0.00255876	0.00416280
2.57000000	0.00221209	0.00185606	0.00302397	0.00163498	0.00138825	0.00450611	0.00278604	0.00588992	0.00555485	0.00618093	0.00260262	0.00895906	0.00871405	0.01666467	0.00408965	0.00408060	0.00360362	0.00298962	0.00233215	0.00175304	0.00159181	0.00232176	0.00134451	0.00528409	0.00354793	0.00199662	0.00382430
2.58000000	0.00206437	0.00126425	0.00297718	0.00173900	0.00140566	0.00446971	0.00295738	0.00611954	0.00552022	0.00611753	0.00244824	0.00854872	0.00840815	0.01542016	0.00406328	0.00404948	0.00389698	0.00257747	0.00211810	0.00185139	0.00137614	0.00204066	0.00156678	0.00455436	0.00298125	0.00181977	0.00405513
2.59000000	0.00205502	0.00146494	0.00307016	0.00182390	0.00141597	0.00453300	0.00311410	0.00643755	0.00555013	0.00581030	0.00277329	0.00820166	0.00797002	0.01436356	0.00408655	0.00381323	0.00362908	0.00229044	0.00195868	0.00176320	0.00123503	0.00173711	0.00160152	0.00410433	0.00290405	0.00140239	0.00396909
2.60000000	0.00183437	0.00103574	0.00279298	0.00204036	0.00125246	0.00479373	0.00354349	0.00658142	0.00550385	0.00597711	0.00245529	0.00810946	0.00753545	0.01358204	0.00398690	0.00366303	0.00383846	0.00202669	0.00180146	0.00166877	0.00112595	0.00139901	0.00173399	0.00366858	0.00269981	0.00097858	0.00392878
2.61000000	0.00166888	0.00126205	0.00259655	0.00223070	0.00110916	0.00517903	0.00383617	0.00675307	0.00543465	0.00608018	0.00243039	0.00808225	0.00696786	0.01304392	0.00374185	0.00356034	0.00400053	0.00181577	0.00161788	0.00159984	0.00106637	0.00117801	0.00191671	0.00324512	0.00240440	0.00063613	0.00391993
2.62000000	0.00169765	0.00269340	0.00183025	0.00279156	0.00117983	0.00571819	0.00517413	0.00655816	0.00548670	0.00621092	0.00259848	0.00837563	0.00631121	0.01303517	0.00367996	0.00353410	0.00390550	0.00181851	0.00170644	0.00114140	0.00119829	0.00088469	0.00190255	0.00340715	0.00327358	0.00079111	0.00317976
2.63000000	0.00155737	0.00190567	0.00284220	0.00245576	0.00112096	0.00535537	0.00438434	0.00789455	0.00556244	0.00552606	0.00287372	0.00843037	0.00555149	0.01233009	0.00360824	0.00294667	0.00369037	0.00145255	0.00150413	0.00133787	0.00103365	0.00087314	0.00217986	0.00228691	0.00231345	0.00022083	0.00349876
2.64000000	0.00161363	0.00219723	0.00259449	0.00258999	0.00102918	0.00576968	0.00479607	0.00823286	0.00559226	0.00574404	0.00235210	0.00873289	0.00467140	0.01222048	0.00331004	0.00280019	0.00387422	0.00151068	0.00148004	0.00130423	0.00111211	0.00085884	0.00242676	0.00187238	0.00182157	0.00051054	0.00338948
2.65000000	0.00163731	0.00242064	0.00263956	0.00273785	0.00105392	0.00601881	0.00505489	0.00874497	0.00563136	0.00559714	0.00245573	0.00912500	0.00394578	0.01178192	0.00321561	0.00241934	0.00374606	0.00164312	0.00150041	0.00118211	0.00112392	0.00090816	0.00269794	0.00159001	0.00165370	0.00084912	0.00308813
2.66000000	0.00158935	0.00272838	0.00241900	0.00293468	0.00105530	0.00654764	0.00535415	0.00904707	0.00562038	0.00569033	0.00232160	0.00936497	0.00314150	0.01122028	0.00298400	0.00226113	0.00378284	0.00194676	0.00159401	0.00106260	0.00124399	0.00101563	0.00299155	0.00147438	0.00141158	0.00115859	0.00270300
2.67000000	0.00136023	0.00262814	0.00274262	0.00310333	0.00117498	0.00668106	0.00548411	0.00967112	0.00555329	0.00543357	0.00280425	0.00943522	0.00275633	0.01000957	0.00289047	0.00193034	0.00363770	0.00226467	0.00176755	0.00084644	0.00126660	0.00104308	0.00332254	0.00141050	0.00146351	0.00153342	0.00228531
2.68000000	0.00118838	0.00272570	0.00270818	0.00325862	0.00123585	0.00705426	0.00566692	0.01008354	0.00547633	0.00543745	0.00284660	0.00924697	0.00244516	0.00866560	0.00282838	0.00164601	0.00346722	0.00264680	0.00196394	0.00070950	0.00131314	0.00110356	0.00367302	0.00159399	0.00135853	0.00180707	0.00193197
2.69000000	0.00111516	0.00313272	0.00245358	0.00338119	0.00131220	0.00750570	0.00581108	0.01038236	0.00541961	0.00560637	0.00263034	0.00872237	0.00223288	0.00726043	0.00274837	0.00140984	0.00330470	0.00307724	0.00211449	0.00062000	0.00134409	0.00115117	0.00405226	0.00198315	0.00112957	0.00199335	0.00167560
2.70000000	0.00081488	0.00307216	0.00252201	0.00354807	0.00140921	0.00776763	0.00592742	0.01077199	0.00528424	0.00554125	0.00294079	0.00830044	0.00235676	0.00527288	0.00270501	0.00130186	0.00311072	0.00344728	0.00234163	0.00051853	0.00135649	0.00114719	0.00443459	0.00219938	0.00123735	0.00228663	0.00139185
2.71000000	0.00070386	0.00367955	0.00222140	0.00365963	0.00149980	0.00819226	0.00596913	0.01097998	0.00518588	0.00572167	0.00284076	0.00794794	0.00234241	0.00372303	0.00261733	0.00116960	0.00292110	0.00379671	0.00253391	0.00049055	0.00135916	0.00114999	0.00482051	0.00257246	0.00110276	0.00245067	0.00129029
2.72000000	0.00081569	0.00394711	0.00213072	0.00380880	0.00161826	0.00848457	0.00602089	0.01122044	0.00507556	0.00573049	0.00303021	0.00808863	0.00240364	0.00240308	0.00260008	0.00126045	0.00260779	0.00407205	0.00275182	0.00051535	0.00133921	0.00110254	0.00519080	0.00281636	0.00115494	0.00268385	0.00115740
2.73000000	0.00110640	0.00447654	0.00188592	0.00391158	0.00165979	0.00881519	0.00602099	0.01134995	0.00495651	0.00587601	0.00308683	0.00875350	0.00238890	0.00225649	0.00252847	0.00144428	0.00236424	0.00424136	0.00297050	0.00057823	0.00129393	0.00100322	0.00552935	0.00302169	0.00119361	0.00291243	0.00114158
2.74000000	0.00159081	0.00490074	0.00174831	0.00408976	0.00183981	0.00896939	0.00604846	0.01149348	0.00487608	0.00598077	0.00317646	0.00965546	0.00227936	0.00315009	0.00239664	0.00163800	0.00213633	0.00444747	0.00319500	0.00066123	0.00129145	0.00091352	0.00579299	0.00331771	0.00119825	0.00297446	0.00102018
2.75000000	0.00214537	0.00507499	0.00171339	0.00419176	0.00186329	0.00917382	0.00634677	0.01148485	0.00485097	0.00588591	0.00336243	0.01042195	0.00214172	0.00451577	0.00237602	0.00220319	0.00169344	0.00445569	0.00343879	0.00080505	0.00126945	0.00077616	0.00607064	0.00347437	0.00134280	0.00308913	0.00092993
2.76000000	0.00302672	0.00594256	0.00128778	0.00446371	0.00203572	0.00897010	0.00630674	0.01166936	0.00465616	0.00627863	0.00357342	0.01136369	0.00214173	0.00481249	0.00225629	0.00221075	0.00190754	0.00447893	0.00375158	0.00106679	0.00137032	0.00064583	0.00618077	0.00320451	0.00126875	0.00354628	0.00090274
2.77000000	0.00299731	0.00627844	0.00133486	0.00450620	0.00216487	0.00910138	0.00650930	0.01147454	0.00484318	0.00611999	0.00337733	0.01157517	0.00177678	0.00613668	0.00213288	0.00278713	0.00127851	0.00430822	0.00385355	0.00095252	0.00128051	0.00061333	0.00642885	0.00365159	0.00141444	0.00332792	0.00079222
2.78000000	0.00342063	0.00678293	0.00111378	0.00477650	0.00238321	0.00898410	0.00667189	0.01129244	0.00493859	0.00613054	0.00341206	0.01200955	0.00169199	0.00647834	0.00188067	0.00270558	0.00117991	0.00405169	0.00412613	0.00100092	0.00134898	0.00064701	0.00642122	0.00368800	0.00132993	0.00335866	0.00072708
2.79000000	0.00431166	0.00736447	0.00076541	0.00516299	0.00263180	0.00883624	0.00677619	0.01106777	0.00491153	0.00623531	0.00376192	0.01223245	0.00162699	0.00619974	0.00170404	0.00257102	0.00113349	0.00366840	0.00417416	0.00134512	0.00161720	0.00084242	0.00656873	0.00342664	0.00134545	0.00361670	0.00063436
2.80000000	0.00441514	0.00780903	0.00116208	0.00537781	0.00293764	0.00876448	0.00722812	0.01055584	0.00518153	0.00610704	0.00339304	0.01190925	0.00141344	0.00654161	0.00130503	0.00257802	0.00110279	0.00336331	0.00442216	0.00125761	0.00161098	0.00113415	0.00646832	0.00366211	0.00124324	0.00337076	0.00064950
2.81000000	0.00479991	0.00890422	0.00121889	0.00553529	0.00316502	0.00866760	0.00754545	0.01007503	0.00534587	0.00605848	0.00326272	0.01093407	0.00102868	0.00661763	0.00126998	0.00298857	0.00059143	0.00299114	0.00451720	0.00135535	0.00178340	0.00146125	0.00655905	0.00367889	0.00119335	0.00335614	0.00052136
2.82000000	0.00550724	0.00961911	0.00150979	0.00600581	0.00360808	0.00847110	0.00752437	0.00965341	0.00540156	0.00621025	0.00347018	0.01069541	0.00108056	0.00609084	0.00100848	0.00264671	0.00063172	0.00249685	0.00459539	0.00168306	0.00210467	0.00178586	0.00651816	0.00336663	0.00107446	0.00360124	0.00034296
2.83000000	0.00609785	0.01034442	0.00192303	0.00632846	0.00397246	0.00864972	0.00795018	0.00889847	0.00565266	0.00596143	0.00348389	0.01052541	0.00130671	0.00547641	0.00070515	0.00230307	0.00055856	0.00227753	0.00514118	0.00190704	0.00237527	0.00196765	0.00610140	0.00318839	0.00084913	0.00354481	0.00042607
2.84000000	0.00701317	0.01111783	0.00247278	0.00671296	0.00443025	0.00885635	0.00832608	0.00815849	0.00577771	0.00588916	0.00354301	0.01048540	0.00104576	0.00458109	0.00045857	0.00215327	0.00037838	0.00175481	0.00506398	0.00200238	0.00239867	0.00229053	0.00617164	0.00322413	0.00077975	0.00345766	0.00029501
2.85000000	0.00765579	0.01194260	0.00293530	0.00710553	0.00488862	0.00906111	0.00808478	0.00767356	0.00593596	0.00594694	0.00344925	0.01043945	0.00212452	0.00435315	0.00056164	0.00176464	0.00032156	0.00149528	0.00520316	0.00232237	0.00275928	0.00250344	0.00607838	0.00312151	0.00071449	0.00350082	0.00016419
2.86000000	0.00855967	0.01293052	0.00331406	0.00727283	0.00516829	0.00920095	0.00832995	0.00720645	0.00616930	0.00592404	0.00347479	0.01049383	0.00178928	0.00381500	0.00063196	0.00191626	0.00082125	0.00109858	0.00506959	0.00240624	0.00269991	0.00271423	0.00612779	0.00319505	0.00052699	0.00332735	0.00024850
2.87000000	0.00920393	0.01383114	0.00346433	0.00719793	0.00522774	0.00925911	0.00838614	0.00693330	0.00657677	0.00559908	0.00328438	0.00980233	0.00240644	0.00446994	0.00091627	0.00222860	0.00049673	0.00096231	0.00503205	0.00245189	0.00273742	0.00277096	0.00615288	0.00339313	0.00049795	0.00315136	0.00027335
2.88000000	0.01000998	0.01435684	0.00377725	0.00735172	0.00546749	0.00968837	0.00787030	0.00652166	0.00669351	0.00554062	0.00328647	0.00997044	0.00251388	0.00459506	0.00089615	0.00202660	0.00052229	0.00086307	0.00515198	0.00262150	0.00281512	0.00279778	0.00594565	0.00322291	0.00051762	0.00325224	0.00026764
2.89000000	0.01067775	0.01471306	0.00400988	0.00740360	0.00561824	0.00999593	0.00724294	0.00619207	0.00690056	0.00540855	0.00331627	0.00983879	0.00252093	0.00483619	0.00091218	0.00196630	0.00056848	0.00087914	0.00515157	0.00273029	0.00284377	0.00281901	0.00579015	0.00329551	0.00052625	0.00317505	0.00027056
2.90000000	0.01128584	0.01483187	0.00417252	0.00736876	0.00568837	0.01021370	0.00635115	0.00587473	0.00704146	0.00525957	0.00320926	0.00939001	0.00241694	0.00502804	0.00096386	0.00180942	0.00082957	0.00097160	0.00513806	0.00280120	0.00281040	0.00277536	0.00559861	0.00336122	0.00057736	0.00313881	0.00035925
2.91000000	0.01170575	0.01474112	0.00410548	0.00710792	0.00553353	0.01008318	0.00546745	0.00570654	0.00731951	0.00502072	0.00339170	0.00841874	0.00225838	0.00513588	0.00116226	0.00179343	0.00074309	0.00103912	0.00492625	0.00276414	0.00270322	0.00273472	0.00548781	0.00354174	0.00066558	0.00306987	0.00030886
2.92000000	0.01203833	0.01424941	0.00395611	0.00678278	0.00530071	0.00978093	0.00434478	0.00550067	0.00753257	0.00469994	0.00335294	0.00746291	0.00198532	0.00481900	0.00135512	0.00161152	0.00092088	0.00119414	0.00474817	0.00271500	0.00256485	0.00267063	0.00524758	0.00372115	0.00083876	0.00300967	0.00036105
2.93000000	0.01234337	0.01313780	0.00365983	0.00647334	0.00499424	0.00912281	0.00319626	0.00528814	0.00773514	0.00434158	0.00313394	0.00677609	0.00171895	0.00399876	0.00146186	0.00124513	0.00102388	0.00123768	0.00461948	0.00259616	0.00223137	0.00271374	0.00484802	0.00394836	0.00107412	0.00298602	0.00055136
2.94000000	0.01217456	0.01230978	0.00341585	0.00591036	0.00460098	0.00830581	0.00177487	0.00517196	0.00781458	0.00406529	0.00305820	0.00595975	0.00171303	0.00315344	0.00142212	0.00092567	0.00113241	0.00155124	0.00437630	0.00248446	0.00209373	0.00248484	0.00452069	0.00412550	0.00133634	0.00300271	0.00056148
2.95000000	0.01237407	0.01019773	0.00277747	0.00556782	0.00410553	0.00707043	0.00129055	0.00502947	0.00786444	0.00386837	0.00315967	0.00563708	0.00130772	0.00204309	0.00115350	0.00045782	0.00080179	0.00163829	0.00408936	0.00241780	0.00184127	0.00258701	0.00413771	0.00432141	0.00161823	0.00289740	0.00084870
