SUBJ59_1_JMP_02_knee_ankle_joint_personalization_task_1_finalErrors.sto
version=1
nRows=292
nColumns=26
inDegrees=no
endheader
time	R_Asis	L_Asis	Sacral	R_Thigh_Lateral	R_Knee_Lateral	R_Shank_Lateral	R_Ankle_Lateral	R_Heel	R_Toe	L_Thigh_Lateral	L_Knee_Lateral	L_Shank_Lateral	L_Ankle_Lateral	L_Heel	L_Toe	R_Shoulder	L_Shoulder	C7	J_Notch	Thoracic	Sternum	R_Elbow	L_Elbow	R_Wrist	L_Wrist
0.00000000	0.00402676	0.00254091	0.00305162	0.01101835	0.00536301	0.01170363	0.00317224	0.00486805	0.00072312	0.00738292	0.00299164	0.00649635	0.00217210	0.00362763	0.00269157	0.00514952	0.00467636	0.00862332	0.00490318	0.00344737	0.00552512	0.00070984	0.00680834	0.00091767	0.00629122
0.01000000	0.00414137	0.00251099	0.00308437	0.01122528	0.00486618	0.01212863	0.00307558	0.00505852	0.00056046	0.00741460	0.00317824	0.00645796	0.00215470	0.00371419	0.00265797	0.00532785	0.00453930	0.00879021	0.00500459	0.00323904	0.00564183	0.00095045	0.00673277	0.00065670	0.00658416
0.02000000	0.00437156	0.00249968	0.00322462	0.01158969	0.00461360	0.01251326	0.00279958	0.00499359	0.00047058	0.00744957	0.00328695	0.00639468	0.00214328	0.00368161	0.00270513	0.00533792	0.00450927	0.00888596	0.00515459	0.00313281	0.00585111	0.00124114	0.00672446	0.00045304	0.00682058
0.03000000	0.00391090	0.00256941	0.00304758	0.01182152	0.00480552	0.01247993	0.00275202	0.00473152	0.00045037	0.00730814	0.00319870	0.00654755	0.00217023	0.00359037	0.00266510	0.00543765	0.00473758	0.00889983	0.00515881	0.00293968	0.00587620	0.00120284	0.00721508	0.00024610	0.00697778
0.04000000	0.00413599	0.00261783	0.00318816	0.01209375	0.00411790	0.01265700	0.00276852	0.00472151	0.00073622	0.00741917	0.00345346	0.00645552	0.00213434	0.00366200	0.00268392	0.00563290	0.00465274	0.00915468	0.00534748	0.00259241	0.00603189	0.00159598	0.00705929	0.00043172	0.00732732
0.05000000	0.00384118	0.00273069	0.00303881	0.01212004	0.00443409	0.01224905	0.00270977	0.00426064	0.00046693	0.00736563	0.00341345	0.00658275	0.00217152	0.00359944	0.00268766	0.00568232	0.00495396	0.00920550	0.00541257	0.00233376	0.00605842	0.00162558	0.00761826	0.00035584	0.00734691
0.06000000	0.00404021	0.00268898	0.00298461	0.01198302	0.00414446	0.01197084	0.00271423	0.00392917	0.00030952	0.00754055	0.00356876	0.00650341	0.00227087	0.00356473	0.00272997	0.00594976	0.00501306	0.00940544	0.00553840	0.00200927	0.00610438	0.00196093	0.00759816	0.00083606	0.00757547
0.07000000	0.00374044	0.00276069	0.00294486	0.01151880	0.00414346	0.01090476	0.00290461	0.00356214	0.00054063	0.00748207	0.00365877	0.00679609	0.00223172	0.00366660	0.00271385	0.00597135	0.00540288	0.00950537	0.00569121	0.00165237	0.00608523	0.00203993	0.00811621	0.00087606	0.00770034
0.08000000	0.00406024	0.00266707	0.00286703	0.01089672	0.00386220	0.00991791	0.00295286	0.00320922	0.00045809	0.00761024	0.00379463	0.00690020	0.00232341	0.00368301	0.00273115	0.00619801	0.00555877	0.00968303	0.00585979	0.00143902	0.00615282	0.00232753	0.00817228	0.00131434	0.00790187
0.09000000	0.00448381	0.00254465	0.00280746	0.01020290	0.00369340	0.00859202	0.00297631	0.00281466	0.00050412	0.00768431	0.00385989	0.00709696	0.00250663	0.00374744	0.00265532	0.00635051	0.00581461	0.00978853	0.00601471	0.00137067	0.00626758	0.00252990	0.00829686	0.00166607	0.00813603
0.10000000	0.00459250	0.00239940	0.00282862	0.00947611	0.00372107	0.00684254	0.00292132	0.00245983	0.00059984	0.00782359	0.00405566	0.00720380	0.00260297	0.00373217	0.00276079	0.00642148	0.00609968	0.00988393	0.00621306	0.00132940	0.00635705	0.00268290	0.00865636	0.00183631	0.00821963
0.11000000	0.00475430	0.00219777	0.00296999	0.00899173	0.00360038	0.00505818	0.00293129	0.00221437	0.00073668	0.00779254	0.00404179	0.00745501	0.00275531	0.00380236	0.00271851	0.00653233	0.00634516	0.00994474	0.00637365	0.00141523	0.00653512	0.00284185	0.00885052	0.00209720	0.00838539
0.12000000	0.00381359	0.00202718	0.00297523	0.00891133	0.00354682	0.00322408	0.00309809	0.00220726	0.00105294	0.00770525	0.00408099	0.00759638	0.00273007	0.00392474	0.00282704	0.00663996	0.00669640	0.00999070	0.00646135	0.00152740	0.00658426	0.00284269	0.00924144	0.00207783	0.00851936
0.13000000	0.00442780	0.00178032	0.00364645	0.00929622	0.00327806	0.00189395	0.00298119	0.00208937	0.00116789	0.00764984	0.00388595	0.00765150	0.00296360	0.00393247	0.00278518	0.00682690	0.00667854	0.01010193	0.00659748	0.00163286	0.00678279	0.00298369	0.00911291	0.00235932	0.00871715
0.14000000	0.00466777	0.00158156	0.00420729	0.00989167	0.00322380	0.00179595	0.00275485	0.00194435	0.00127417	0.00762127	0.00380043	0.00750059	0.00315049	0.00393398	0.00279833	0.00692131	0.00677108	0.01005983	0.00667497	0.00166377	0.00702977	0.00314519	0.00927654	0.00257031	0.00880318
0.15000000	0.00445542	0.00142759	0.00444545	0.01045835	0.00298632	0.00290506	0.00259669	0.00189960	0.00135501	0.00754252	0.00376863	0.00732165	0.00322633	0.00390227	0.00289115	0.00702326	0.00693084	0.01000151	0.00676316	0.00168631	0.00734245	0.00332967	0.00958851	0.00277971	0.00884856
0.16000000	0.00441901	0.00114739	0.00513508	0.01094260	0.00283784	0.00378051	0.00244351	0.00182637	0.00138826	0.00759474	0.00355685	0.00723098	0.00336322	0.00394183	0.00283613	0.00701160	0.00689080	0.01000545	0.00685967	0.00163802	0.00764652	0.00331890	0.00958959	0.00284472	0.00897518
0.17000000	0.00374341	0.00101066	0.00521916	0.01095020	0.00257309	0.00468054	0.00238134	0.00180075	0.00163492	0.00750242	0.00342374	0.00717049	0.00335545	0.00401607	0.00285972	0.00734373	0.00696425	0.01000094	0.00684320	0.00171753	0.00780895	0.00347651	0.00970357	0.00293996	0.00913966
0.18000000	0.00402101	0.00114265	0.00574512	0.01063535	0.00212559	0.00470401	0.00220120	0.00133529	0.00165231	0.00748825	0.00321807	0.00710281	0.00359749	0.00384174	0.00289907	0.00766470	0.00677273	0.01015840	0.00700762	0.00178202	0.00801082	0.00373687	0.00908859	0.00328629	0.00976337
0.19000000	0.00334266	0.00071076	0.00584298	0.00986306	0.00223597	0.00472702	0.00203945	0.00105829	0.00169249	0.00766643	0.00305991	0.00701814	0.00358283	0.00395516	0.00270328	0.00763397	0.00695205	0.00989488	0.00696742	0.00166485	0.00835645	0.00380070	0.00987607	0.00328788	0.00919988
0.20000000	0.00352591	0.00076082	0.00636917	0.00889831	0.00199226	0.00405594	0.00182142	0.00050035	0.00173041	0.00784221	0.00274388	0.00683714	0.00380032	0.00372012	0.00268320	0.00782719	0.00681590	0.00989772	0.00705791	0.00161048	0.00852685	0.00399575	0.00958108	0.00354380	0.00937766
0.21000000	0.00312277	0.00073063	0.00650882	0.00766667	0.00171083	0.00377039	0.00177848	0.00074304	0.00191151	0.00775500	0.00235911	0.00684787	0.00382587	0.00376095	0.00249955	0.00803047	0.00687548	0.00972387	0.00701174	0.00159595	0.00873590	0.00421005	0.00984692	0.00378111	0.00905407
0.22000000	0.00292502	0.00112804	0.00667923	0.00650635	0.00169825	0.00359007	0.00184604	0.00121503	0.00202487	0.00768387	0.00204170	0.00664681	0.00399627	0.00360743	0.00235442	0.00829565	0.00677792	0.00968858	0.00702027	0.00157736	0.00882274	0.00443294	0.00968265	0.00402123	0.00888010
0.23000000	0.00332495	0.00159463	0.00721228	0.00556553	0.00188294	0.00333126	0.00215310	0.00227206	0.00187547	0.00773762	0.00158030	0.00616275	0.00439468	0.00307850	0.00221717	0.00842292	0.00664452	0.00962029	0.00705265	0.00142321	0.00879266	0.00463847	0.00919410	0.00421093	0.00893523
0.24000000	0.00338094	0.00220604	0.00754432	0.00470078	0.00241163	0.00380781	0.00253144	0.00279779	0.00191920	0.00747610	0.00131470	0.00566597	0.00459376	0.00301175	0.00200104	0.00865469	0.00646994	0.00956675	0.00702743	0.00129601	0.00875768	0.00489242	0.00899863	0.00443043	0.00844628
0.25000000	0.00354424	0.00350979	0.00752396	0.00447041	0.00206629	0.00387645	0.00244359	0.00368713	0.00173779	0.00682173	0.00157580	0.00551298	0.00455813	0.00261520	0.00147484	0.00882153	0.00641735	0.00945541	0.00692965	0.00116560	0.00861327	0.00501564	0.00856452	0.00437792	0.00826626
0.26000000	0.00380536	0.00400684	0.00785254	0.00406449	0.00268201	0.00437824	0.00276885	0.00435053	0.00170900	0.00643927	0.00127757	0.00479780	0.00491396	0.00207820	0.00121540	0.00900927	0.00642919	0.00932287	0.00682215	0.00101680	0.00845404	0.00514433	0.00828391	0.00458406	0.00801541
0.27000000	0.00404573	0.00492055	0.00799407	0.00414205	0.00318826	0.00530616	0.00271802	0.00454925	0.00173778	0.00606109	0.00148967	0.00397104	0.00500656	0.00168901	0.00084546	0.00897428	0.00651244	0.00915365	0.00675878	0.00078968	0.00837293	0.00518352	0.00788930	0.00462632	0.00784230
0.28000000	0.00429775	0.00587868	0.00799606	0.00485882	0.00265235	0.00551635	0.00252736	0.00490365	0.00160209	0.00542816	0.00187370	0.00324824	0.00500995	0.00104796	0.00042146	0.00890431	0.00655606	0.00902681	0.00668047	0.00058143	0.00818416	0.00509541	0.00763076	0.00450336	0.00762167
0.29000000	0.00418121	0.00610291	0.00798279	0.00495296	0.00286229	0.00593137	0.00245507	0.00490255	0.00150206	0.00474591	0.00253171	0.00249091	0.00513647	0.00102358	0.00104895	0.00880791	0.00663252	0.00887969	0.00658176	0.00039572	0.00799277	0.00492049	0.00747968	0.00435895	0.00748838
0.30000000	0.00400524	0.00629959	0.00775695	0.00479178	0.00288563	0.00593986	0.00225967	0.00468136	0.00133339	0.00396050	0.00323379	0.00184376	0.00510554	0.00176913	0.00183510	0.00866521	0.00677460	0.00870244	0.00640534	0.00021842	0.00778042	0.00462650	0.00739585	0.00407508	0.00739151
0.31000000	0.00380285	0.00652401	0.00749979	0.00436890	0.00277479	0.00555715	0.00194818	0.00428877	0.00120780	0.00311859	0.00385084	0.00143860	0.00489091	0.00268358	0.00265699	0.00834350	0.00681000	0.00857835	0.00628538	0.00025498	0.00756890	0.00418851	0.00728142	0.00360526	0.00732502
0.32000000	0.00343977	0.00694665	0.00713775	0.00380003	0.00253891	0.00495068	0.00160369	0.00360566	0.00126109	0.00240815	0.00415924	0.00137611	0.00446428	0.00352831	0.00346195	0.00803216	0.00680423	0.00838231	0.00609866	0.00061492	0.00736378	0.00379914	0.00717982	0.00313639	0.00724519
0.33000000	0.00338281	0.00659090	0.00670020	0.00318474	0.00241296	0.00435550	0.00143124	0.00328947	0.00094232	0.00159998	0.00458361	0.00194207	0.00427142	0.00435012	0.00415449	0.00757334	0.00692023	0.00816773	0.00585338	0.00097036	0.00707042	0.00310998	0.00726367	0.00243996	0.00721526
0.34000000	0.00322934	0.00686750	0.00643225	0.00264515	0.00222586	0.00381005	0.00120713	0.00270932	0.00100951	0.00184685	0.00461114	0.00226733	0.00367527	0.00485608	0.00460767	0.00710927	0.00681720	0.00795988	0.00563220	0.00146115	0.00680362	0.00254601	0.00714804	0.00178390	0.00705860
0.35000000	0.00311282	0.00663930	0.00591561	0.00247217	0.00208398	0.00330494	0.00111159	0.00246840	0.00095654	0.00269697	0.00462918	0.00281262	0.00323019	0.00520074	0.00484336	0.00664851	0.00686104	0.00773095	0.00539558	0.00184476	0.00650185	0.00189384	0.00727333	0.00106547	0.00688504
0.36000000	0.00313735	0.00691443	0.00575636	0.00241836	0.00212186	0.00299720	0.00098824	0.00211751	0.00095276	0.00386978	0.00440447	0.00289953	0.00227241	0.00534551	0.00457712	0.00617348	0.00669899	0.00747588	0.00515199	0.00242110	0.00628513	0.00144119	0.00691373	0.00052836	0.00659603
0.37000000	0.00308128	0.00647517	0.00548604	0.00253787	0.00184686	0.00276943	0.00115591	0.00215070	0.00088326	0.00509171	0.00442664	0.00335895	0.00202604	0.00527683	0.00438335	0.00572057	0.00674686	0.00720146	0.00488876	0.00265586	0.00588537	0.00086287	0.00685129	0.00026961	0.00631335
0.38000000	0.00289031	0.00658543	0.00528708	0.00272046	0.00194702	0.00273507	0.00118543	0.00200701	0.00094368	0.00609759	0.00401524	0.00335188	0.00188454	0.00544657	0.00373815	0.00533073	0.00655723	0.00699653	0.00469118	0.00301306	0.00570883	0.00068656	0.00642705	0.00056689	0.00584362
0.39000000	0.00257156	0.00631242	0.00518910	0.00297990	0.00181964	0.00274472	0.00136487	0.00200932	0.00097151	0.00704800	0.00374087	0.00363078	0.00246265	0.00552225	0.00318146	0.00502004	0.00644875	0.00677419	0.00445644	0.00311854	0.00539863	0.00057419	0.00609300	0.00093315	0.00537069
0.40000000	0.00242629	0.00549828	0.00495448	0.00339773	0.00160318	0.00276286	0.00166016	0.00217976	0.00100613	0.00801763	0.00354166	0.00416456	0.00312191	0.00564069	0.00278125	0.00469668	0.00645837	0.00651579	0.00424109	0.00305652	0.00505456	0.00054532	0.00581659	0.00136577	0.00498392
0.41000000	0.00206150	0.00533617	0.00487489	0.00364705	0.00170609	0.00309162	0.00174796	0.00217138	0.00099486	0.00855410	0.00293627	0.00449206	0.00372299	0.00601616	0.00193684	0.00461445	0.00614178	0.00639767	0.00406161	0.00306267	0.00493149	0.00060057	0.00529189	0.00119908	0.00444937
0.42000000	0.00226176	0.00436616	0.00451089	0.00403453	0.00170775	0.00343808	0.00193926	0.00224394	0.00104366	0.00931785	0.00248415	0.00529287	0.00417839	0.00618478	0.00171476	0.00452041	0.00604077	0.00621827	0.00393337	0.00290939	0.00472445	0.00056128	0.00504714	0.00127621	0.00405895
0.43000000	0.00265111	0.00351057	0.00422825	0.00431261	0.00188802	0.00378865	0.00202619	0.00227454	0.00105312	0.00990453	0.00192384	0.00649309	0.00439909	0.00645807	0.00161628	0.00454704	0.00592005	0.00610113	0.00384287	0.00278640	0.00459252	0.00065164	0.00477731	0.00128113	0.00372645
0.44000000	0.00319051	0.00266042	0.00396403	0.00441233	0.00215890	0.00406646	0.00201389	0.00218015	0.00110623	0.01036551	0.00143379	0.00810680	0.00447002	0.00674339	0.00162037	0.00464484	0.00579024	0.00606041	0.00382125	0.00272848	0.00458067	0.00079514	0.00447987	0.00124654	0.00340630
0.45000000	0.00353838	0.00162823	0.00334142	0.00442197	0.00277822	0.00430227	0.00191733	0.00208977	0.00166293	0.01067365	0.00157677	0.00999526	0.00452595	0.00687157	0.00241272	0.00478273	0.00595502	0.00589693	0.00381641	0.00266040	0.00457551	0.00096744	0.00460962	0.00121456	0.00310211
0.46000000	0.00360945	0.00144310	0.00392199	0.00433755	0.00259021	0.00390659	0.00201007	0.00213034	0.00124636	0.01144393	0.00134809	0.01119403	0.00423614	0.00682905	0.00175891	0.00477750	0.00568285	0.00598321	0.00404084	0.00272950	0.00493381	0.00081897	0.00381616	0.00129390	0.00310009
0.47000000	0.00384490	0.00101246	0.00310065	0.00422799	0.00317943	0.00392853	0.00175834	0.00190201	0.00168049	0.01138307	0.00158681	0.01281178	0.00397611	0.00713621	0.00207229	0.00470276	0.00606424	0.00579399	0.00418564	0.00271419	0.00500616	0.00089572	0.00405360	0.00159797	0.00289301
0.48000000	0.00370617	0.00069064	0.00276291	0.00419829	0.00298282	0.00358797	0.00176531	0.00205158	0.00146133	0.01140934	0.00173903	0.01376944	0.00366552	0.00744590	0.00161236	0.00465340	0.00600817	0.00586847	0.00448710	0.00263179	0.00542430	0.00076603	0.00373222	0.00197887	0.00281867
0.49000000	0.00384048	0.00090389	0.00227469	0.00426737	0.00361334	0.00365266	0.00118092	0.00198558	0.00159121	0.01105610	0.00188146	0.01474073	0.00378251	0.00725196	0.00258370	0.00455901	0.00624848	0.00575379	0.00459999	0.00267095	0.00568005	0.00103464	0.00402301	0.00249838	0.00245793
0.50000000	0.00292883	0.00093819	0.00200009	0.00432353	0.00316842	0.00322645	0.00177120	0.00218506	0.00180364	0.01116091	0.00213198	0.01460796	0.00342211	0.00751635	0.00154943	0.00437362	0.00641148	0.00566708	0.00485434	0.00262152	0.00600706	0.00132380	0.00362773	0.00292576	0.00264007
0.51000000	0.00292273	0.00098263	0.00154218	0.00458120	0.00368516	0.00350823	0.00134934	0.00205623	0.00174310	0.01088368	0.00201463	0.01454764	0.00351692	0.00742265	0.00206541	0.00414967	0.00668712	0.00551515	0.00494213	0.00267485	0.00615153	0.00163356	0.00381073	0.00364155	0.00260888
0.52000000	0.00227346	0.00210208	0.00151539	0.00449198	0.00320718	0.00298830	0.00173019	0.00227094	0.00205628	0.01157092	0.00274336	0.01310358	0.00382237	0.00675373	0.00103497	0.00377654	0.00704044	0.00531612	0.00506189	0.00290526	0.00640249	0.00222666	0.00314139	0.00400537	0.00257853
0.53000000	0.00213219	0.00181549	0.00158867	0.00449575	0.00340573	0.00351139	0.00172188	0.00228376	0.00206421	0.01139147	0.00265831	0.01255282	0.00405943	0.00669352	0.00084873	0.00362260	0.00708272	0.00526193	0.00520936	0.00292457	0.00666232	0.00245247	0.00301043	0.00447842	0.00244204
0.54000000	0.00189529	0.00237177	0.00144139	0.00448049	0.00291822	0.00320311	0.00198460	0.00249797	0.00229850	0.01099251	0.00249183	0.01212975	0.00432314	0.00682041	0.00098190	0.00342143	0.00731265	0.00508591	0.00523817	0.00308162	0.00677166	0.00290703	0.00265566	0.00472907	0.00235063
0.55000000	0.00174141	0.00219499	0.00189343	0.00466618	0.00300425	0.00349157	0.00206514	0.00256228	0.00237396	0.01077644	0.00215544	0.01189256	0.00457408	0.00693037	0.00133878	0.00321300	0.00741231	0.00501311	0.00534217	0.00312837	0.00692123	0.00309982	0.00253553	0.00493622	0.00217475
0.56000000	0.00192686	0.00161775	0.00237733	0.00478892	0.00348014	0.00382663	0.00200906	0.00244405	0.00243276	0.01134536	0.00201409	0.01156550	0.00482988	0.00671899	0.00125061	0.00320564	0.00725296	0.00510066	0.00546104	0.00317120	0.00722007	0.00307241	0.00229308	0.00531011	0.00198415
0.57000000	0.00210341	0.00171341	0.00286276	0.00499469	0.00378579	0.00401310	0.00200956	0.00247531	0.00248979	0.01185266	0.00182254	0.01162353	0.00500931	0.00662519	0.00133031	0.00303267	0.00726068	0.00515532	0.00558078	0.00331277	0.00745095	0.00309313	0.00231016	0.00550744	0.00182498
0.58000000	0.00201717	0.00227962	0.00251678	0.00501400	0.00332228	0.00333488	0.00240275	0.00237513	0.00285644	0.01148360	0.00171654	0.01223384	0.00503652	0.00685998	0.00223737	0.00333006	0.00735531	0.00496733	0.00547180	0.00328988	0.00753233	0.00375649	0.00169854	0.00517719	0.00153217
0.59000000	0.00222552	0.00325759	0.00238288	0.00496394	0.00314477	0.00310181	0.00239888	0.00243804	0.00276625	0.01187590	0.00185947	0.01246269	0.00517282	0.00671290	0.00175122	0.00310859	0.00763623	0.00488668	0.00550781	0.00360318	0.00760490	0.00363776	0.00107909	0.00533734	0.00134468
0.60000000	0.00252597	0.00221797	0.00294598	0.00542075	0.00344567	0.00305156	0.00206104	0.00258452	0.00281386	0.01256946	0.00134834	0.01286851	0.00503006	0.00678076	0.00171027	0.00292862	0.00782202	0.00498859	0.00562066	0.00398148	0.00788723	0.00356596	0.00110388	0.00554997	0.00108266
0.61000000	0.00261509	0.00354742	0.00288302	0.00531873	0.00317675	0.00268665	0.00237613	0.00227112	0.00295090	0.01260654	0.00211103	0.01316423	0.00507134	0.00634926	0.00188081	0.00310437	0.00787562	0.00497889	0.00568285	0.00411766	0.00815591	0.00387015	0.00059649	0.00549043	0.00085323
0.62000000	0.00286533	0.00270033	0.00331562	0.00563966	0.00337560	0.00266572	0.00234685	0.00219303	0.00296511	0.01266037	0.00204748	0.01352310	0.00487117	0.00616610	0.00193206	0.00318694	0.00791584	0.00508442	0.00583757	0.00441708	0.00863423	0.00395388	0.00078012	0.00564877	0.00048922
0.63000000	0.00301384	0.00361686	0.00341907	0.00576163	0.00324915	0.00250199	0.00226766	0.00217594	0.00299039	0.01242188	0.00262646	0.01307161	0.00470310	0.00567762	0.00188878	0.00328304	0.00813388	0.00514819	0.00592115	0.00478042	0.00889970	0.00436434	0.00054314	0.00582877	0.00040779
0.64000000	0.00316527	0.00353238	0.00359406	0.00595429	0.00334239	0.00246002	0.00223710	0.00212555	0.00297623	0.01190598	0.00294466	0.01241460	0.00448211	0.00517954	0.00172413	0.00335898	0.00836493	0.00521764	0.00604117	0.00522713	0.00925856	0.00471513	0.00067309	0.00610452	0.00016934
0.65000000	0.00330617	0.00326797	0.00380514	0.00612889	0.00343223	0.00245080	0.00218559	0.00212693	0.00293986	0.01099626	0.00324687	0.01136707	0.00420846	0.00467700	0.00150521	0.00347217	0.00851960	0.00531591	0.00620630	0.00562714	0.00966045	0.00509546	0.00080829	0.00642506	0.00014711
0.66000000	0.00341423	0.00239638	0.00409962	0.00639091	0.00359024	0.00245594	0.00219457	0.00208171	0.00295328	0.00966295	0.00335441	0.01026229	0.00387209	0.00421173	0.00117177	0.00360547	0.00867681	0.00533269	0.00636808	0.00597950	0.01013098	0.00539865	0.00106219	0.00675602	0.00062290
0.67000000	0.00353948	0.00259078	0.00417444	0.00644488	0.00361686	0.00245162	0.00210677	0.00219546	0.00289325	0.00830331	0.00371676	0.00815295	0.00363804	0.00344714	0.00073002	0.00369787	0.00888899	0.00541892	0.00650596	0.00633157	0.01036977	0.00589262	0.00110224	0.00710837	0.00066506
0.68000000	0.00360677	0.00183523	0.00451185	0.00668503	0.00373901	0.00247269	0.00217499	0.00219963	0.00286666	0.00687816	0.00375312	0.00640277	0.00317551	0.00297601	0.00039349	0.00376986	0.00897728	0.00540688	0.00669463	0.00652866	0.01084140	0.00614121	0.00134409	0.00738375	0.00111679
0.69000000	0.00373258	0.00171766	0.00460252	0.00674715	0.00385130	0.00247973	0.00208463	0.00234589	0.00284544	0.00604039	0.00384072	0.00382169	0.00289639	0.00212399	0.00033376	0.00377447	0.00924341	0.00541688	0.00677790	0.00677840	0.01100264	0.00658141	0.00145394	0.00765295	0.00114597
0.70000000	0.00379269	0.00150589	0.00513740	0.00702778	0.00392582	0.00254374	0.00216828	0.00240321	0.00280327	0.00618398	0.00376025	0.00178595	0.00237335	0.00170687	0.00068935	0.00372211	0.00921973	0.00536812	0.00697696	0.00673503	0.01149673	0.00668945	0.00166691	0.00779341	0.00154412
0.71000000	0.00380945	0.00181857	0.00566850	0.00727231	0.00406176	0.00252159	0.00220157	0.00246487	0.00280601	0.00735988	0.00371203	0.00068744	0.00192033	0.00124713	0.00109933	0.00358362	0.00926651	0.00532714	0.00711428	0.00667015	0.01185649	0.00681951	0.00189649	0.00794841	0.00177564
0.72000000	0.00376719	0.00123686	0.00573612	0.00732136	0.00415520	0.00238579	0.00211972	0.00263584	0.00284396	0.00880690	0.00344262	0.00329596	0.00201502	0.00141116	0.00156946	0.00338757	0.00964096	0.00519929	0.00709674	0.00680761	0.01190993	0.00717072	0.00195586	0.00801565	0.00172994
0.73000000	0.00369722	0.00189624	0.00640689	0.00759320	0.00415234	0.00232222	0.00226510	0.00260657	0.00286959	0.01067533	0.00329244	0.00520808	0.00184989	0.00164378	0.00185101	0.00307336	0.00960008	0.00514156	0.00724737	0.00657196	0.01232909	0.00712263	0.00216047	0.00802136	0.00197362
0.74000000	0.00356785	0.00235953	0.00694542	0.00781114	0.00424246	0.00218044	0.00231934	0.00261208	0.00288070	0.01229523	0.00316624	0.00696787	0.00185100	0.00201670	0.00204610	0.00279021	0.00967058	0.00502261	0.00730356	0.00636511	0.01263742	0.00716483	0.00233968	0.00803183	0.00213743
0.75000000	0.00340666	0.00209187	0.00700754	0.00791612	0.00413454	0.00194444	0.00231268	0.00267648	0.00294807	0.01293973	0.00275944	0.00893079	0.00234386	0.00287719	0.00240853	0.00250565	0.00999386	0.00488090	0.00727987	0.00640152	0.01278531	0.00734985	0.00240943	0.00795733	0.00214364
0.76000000	0.00330602	0.00247073	0.00753750	0.00811502	0.00413636	0.00183649	0.00242534	0.00264245	0.00286480	0.01362844	0.00268601	0.00962124	0.00233296	0.00295566	0.00245920	0.00221906	0.00995640	0.00479608	0.00735105	0.00609494	0.01311822	0.00726360	0.00249986	0.00793144	0.00226534
0.77000000	0.00299863	0.00278583	0.00799387	0.00829153	0.00407964	0.00174255	0.00241692	0.00261335	0.00287878	0.01358332	0.00262341	0.00969358	0.00245379	0.00274641	0.00246753	0.00200408	0.00998264	0.00469168	0.00739216	0.00586990	0.01346534	0.00740471	0.00256588	0.00775670	0.00252733
0.78000000	0.00292647	0.00289668	0.00836337	0.00841364	0.00399005	0.00172309	0.00247356	0.00258586	0.00278689	0.01269898	0.00237061	0.00932570	0.00241019	0.00248562	0.00246702	0.00176370	0.01003559	0.00465472	0.00744879	0.00570700	0.01376262	0.00750240	0.00262549	0.00752294	0.00280256
0.79000000	0.00283553	0.00220281	0.00798154	0.00839686	0.00383917	0.00168426	0.00253352	0.00248712	0.00265963	0.01146577	0.00246725	0.00844153	0.00261888	0.00244438	0.00234306	0.00166930	0.01013553	0.00456382	0.00745063	0.00561879	0.01382360	0.00710513	0.00264753	0.00782475	0.00246336
0.80000000	0.00259884	0.00201749	0.00788217	0.00839097	0.00369132	0.00174363	0.00261056	0.00239710	0.00251025	0.00963198	0.00250434	0.00718043	0.00277499	0.00220792	0.00220692	0.00154531	0.01023663	0.00451202	0.00747482	0.00557964	0.01395524	0.00708832	0.00263164	0.00770602	0.00249560
0.81000000	0.00234891	0.00217474	0.00775155	0.00841913	0.00361480	0.00178984	0.00262025	0.00231775	0.00240271	0.00769700	0.00264826	0.00575754	0.00300527	0.00195195	0.00196644	0.00146711	0.01033231	0.00446778	0.00747193	0.00552366	0.01400714	0.00702919	0.00265496	0.00758976	0.00257492
0.82000000	0.00219612	0.00237364	0.00797929	0.00841532	0.00339944	0.00180378	0.00292876	0.00203035	0.00214832	0.00559421	0.00298282	0.00458573	0.00339212	0.00199775	0.00180488	0.00137685	0.01049126	0.00438405	0.00745877	0.00555186	0.01403550	0.00692207	0.00265869	0.00742730	0.00280086
0.83000000	0.00207096	0.00285939	0.00793782	0.00832634	0.00333000	0.00183262	0.00306426	0.00203066	0.00195525	0.00387181	0.00369760	0.00422138	0.00371147	0.00233157	0.00155884	0.00128178	0.01061107	0.00435550	0.00747560	0.00554032	0.01397923	0.00662199	0.00282096	0.00723895	0.00286091
0.84000000	0.00170655	0.00413233	0.00802538	0.00821106	0.00356091	0.00188488	0.00303055	0.00174023	0.00146371	0.00398163	0.00296434	0.00375157	0.00342464	0.00292375	0.00118839	0.00133669	0.01068160	0.00427535	0.00742930	0.00535373	0.01380516	0.00625448	0.00286790	0.00689107	0.00298647
0.85000000	0.00186754	0.00443746	0.00827897	0.00806520	0.00350518	0.00171151	0.00327341	0.00148935	0.00117181	0.00353909	0.00359759	0.00469859	0.00355462	0.00355763	0.00125343	0.00135532	0.01078137	0.00426352	0.00739627	0.00534094	0.01363039	0.00591635	0.00290734	0.00658872	0.00311925
0.86000000	0.00211844	0.00474891	0.00844795	0.00784245	0.00360221	0.00174009	0.00343546	0.00131037	0.00089190	0.00396853	0.00410424	0.00604403	0.00345598	0.00412987	0.00130276	0.00145991	0.01080774	0.00429948	0.00730582	0.00526081	0.01340035	0.00560772	0.00292917	0.00633587	0.00322030
0.87000000	0.00267851	0.00535255	0.00857193	0.00763309	0.00379039	0.00204728	0.00352863	0.00100426	0.00021336	0.00551369	0.00365493	0.00690359	0.00300304	0.00456440	0.00128232	0.00168916	0.01077331	0.00425680	0.00715580	0.00509170	0.01314841	0.00522062	0.00285852	0.00609726	0.00321882
0.88000000	0.00285933	0.00536564	0.00865840	0.00722396	0.00391181	0.00301309	0.00372693	0.00132630	0.00047518	0.00632352	0.00379137	0.00802265	0.00289218	0.00475422	0.00126228	0.00168887	0.01075962	0.00427280	0.00696942	0.00508851	0.01279401	0.00505677	0.00271055	0.00592406	0.00314951
0.89000000	0.00313461	0.00529726	0.00851303	0.00682867	0.00407278	0.00429051	0.00387021	0.00203417	0.00107331	0.00691412	0.00371911	0.00860079	0.00266618	0.00477911	0.00123671	0.00165556	0.01063811	0.00427440	0.00681376	0.00513632	0.01252017	0.00494089	0.00249523	0.00579191	0.00298423
0.90000000	0.00384807	0.00509368	0.00834580	0.00665144	0.00421515	0.00566931	0.00385378	0.00277462	0.00158170	0.00717496	0.00347317	0.00854305	0.00234719	0.00455370	0.00134605	0.00169820	0.01043952	0.00424485	0.00662807	0.00516508	0.01223708	0.00486111	0.00226385	0.00566403	0.00270629
0.91000000	0.00412572	0.00497107	0.00814705	0.00651190	0.00434984	0.00700007	0.00396064	0.00335012	0.00215369	0.00710944	0.00313784	0.00820807	0.00225430	0.00439749	0.00105176	0.00172454	0.01018328	0.00415776	0.00639007	0.00528549	0.01187888	0.00496062	0.00179537	0.00572493	0.00233099
0.92000000	0.00426928	0.00481238	0.00793685	0.00638975	0.00461945	0.00818929	0.00397124	0.00391584	0.00248746	0.00694348	0.00297391	0.00746757	0.00219526	0.00407352	0.00103831	0.00194233	0.00987820	0.00407881	0.00613183	0.00550082	0.01153128	0.00528112	0.00132837	0.00590363	0.00197058
0.93000000	0.00537524	0.00457345	0.00769679	0.00672927	0.00451195	0.00897514	0.00387044	0.00409672	0.00291510	0.00630582	0.00251156	0.00684077	0.00204851	0.00380188	0.00089433	0.00216640	0.00949516	0.00393868	0.00595715	0.00567520	0.01126290	0.00523728	0.00095495	0.00588372	0.00153808
0.94000000	0.00607343	0.00442977	0.00753407	0.00676491	0.00451420	0.00946245	0.00374623	0.00424701	0.00299381	0.00597361	0.00239185	0.00601035	0.00196147	0.00356671	0.00086300	0.00255352	0.00902334	0.00386871	0.00579237	0.00589567	0.01096928	0.00544314	0.00058691	0.00598216	0.00115078
0.95000000	0.00696023	0.00427996	0.00733289	0.00647693	0.00439697	0.00967820	0.00335886	0.00433661	0.00293590	0.00570740	0.00241851	0.00529043	0.00185928	0.00333303	0.00078104	0.00296085	0.00872693	0.00375235	0.00556331	0.00623024	0.01059077	0.00557078	0.00028736	0.00604261	0.00085573
0.96000000	0.00713639	0.00439890	0.00741434	0.00641953	0.00458293	0.00928850	0.00304018	0.00416266	0.00302513	0.00561182	0.00223920	0.00490457	0.00193656	0.00324245	0.00074945	0.00336511	0.00837632	0.00368207	0.00536129	0.00645845	0.01014377	0.00562669	0.00044232	0.00606497	0.00060943
0.97000000	0.00744345	0.00446781	0.00746504	0.00612564	0.00457314	0.00873142	0.00256214	0.00411844	0.00307288	0.00567480	0.00213080	0.00470946	0.00197292	0.00318246	0.00074632	0.00368374	0.00816672	0.00360141	0.00508905	0.00666563	0.00965758	0.00557081	0.00068481	0.00594864	0.00042349
0.98000000	0.00797344	0.00448752	0.00739486	0.00568630	0.00435793	0.00804486	0.00197513	0.00423654	0.00314851	0.00590315	0.00234074	0.00458477	0.00194028	0.00307770	0.00075960	0.00383430	0.00790007	0.00365459	0.00489353	0.00678383	0.00927044	0.00535130	0.00066789	0.00566237	0.00033854
0.99000000	0.00751816	0.00467543	0.00765821	0.00573813	0.00437702	0.00731377	0.00161348	0.00422773	0.00328084	0.00628717	0.00214300	0.00479939	0.00216771	0.00306357	0.00079246	0.00392156	0.00774691	0.00369567	0.00459824	0.00679285	0.00870038	0.00507056	0.00081539	0.00534069	0.00045227
1.00000000	0.00790037	0.00472448	0.00760864	0.00559146	0.00383855	0.00662548	0.00132897	0.00424949	0.00337715	0.00657154	0.00249690	0.00505960	0.00212132	0.00310257	0.00075383	0.00382247	0.00748377	0.00382464	0.00442878	0.00663769	0.00831942	0.00461460	0.00071319	0.00489236	0.00030502
1.01000000	0.00698266	0.00493926	0.00772894	0.00569862	0.00371556	0.00618902	0.00108374	0.00426990	0.00348092	0.00702657	0.00231392	0.00537318	0.00232821	0.00305721	0.00090015	0.00367267	0.00744758	0.00391054	0.00416622	0.00657531	0.00784162	0.00410841	0.00080914	0.00445563	0.00040382
1.02000000	0.00611488	0.00516165	0.00773350	0.00580375	0.00355471	0.00581661	0.00090585	0.00424077	0.00359422	0.00743978	0.00241659	0.00552184	0.00237615	0.00303974	0.00108712	0.00347755	0.00752900	0.00398722	0.00391094	0.00653052	0.00736897	0.00365262	0.00107307	0.00395778	0.00041220
1.03000000	0.00594627	0.00504297	0.00740350	0.00573006	0.00314760	0.00540296	0.00094483	0.00428314	0.00350803	0.00752564	0.00203952	0.00602249	0.00244485	0.00309097	0.00102979	0.00321089	0.00745024	0.00418454	0.00389484	0.00632026	0.00706638	0.00304153	0.00112847	0.00354892	0.00039702
1.04000000	0.00613249	0.00494614	0.00736648	0.00560278	0.00278339	0.00502643	0.00105343	0.00379922	0.00352576	0.00747445	0.00243950	0.00614352	0.00225321	0.00307418	0.00107594	0.00311679	0.00730022	0.00441525	0.00390719	0.00595088	0.00671711	0.00266948	0.00076904	0.00313057	0.00013723
1.05000000	0.00527313	0.00498970	0.00683228	0.00582289	0.00288945	0.00482991	0.00094836	0.00363508	0.00358611	0.00746697	0.00281519	0.00611310	0.00211473	0.00304948	0.00151745	0.00311568	0.00746395	0.00457467	0.00387276	0.00591683	0.00637627	0.00251701	0.00114773	0.00283047	0.00041220
1.06000000	0.00500629	0.00500710	0.00644428	0.00576731	0.00272076	0.00485928	0.00093716	0.00377297	0.00317839	0.00731046	0.00268329	0.00600464	0.00206141	0.00294930	0.00140869	0.00306804	0.00736463	0.00478136	0.00403196	0.00567107	0.00612447	0.00209849	0.00158935	0.00256935	0.00086987
1.07000000	0.00461355	0.00477562	0.00575780	0.00598461	0.00277518	0.00484961	0.00093221	0.00369997	0.00300960	0.00710444	0.00289772	0.00584380	0.00190798	0.00291335	0.00164490	0.00317215	0.00738001	0.00502077	0.00415073	0.00559751	0.00588302	0.00205212	0.00209312	0.00241180	0.00124503
1.08000000	0.00449282	0.00454651	0.00517619	0.00612062	0.00285221	0.00488772	0.00089575	0.00371819	0.00268934	0.00683482	0.00285312	0.00565625	0.00181323	0.00289130	0.00165378	0.00339709	0.00724781	0.00534008	0.00425600	0.00540726	0.00567593	0.00181662	0.00252754	0.00242069	0.00163703
1.09000000	0.00449286	0.00434557	0.00469976	0.00623222	0.00304027	0.00491413	0.00071476	0.00359935	0.00258530	0.00662390	0.00294689	0.00541715	0.00175174	0.00283999	0.00178030	0.00345738	0.00712075	0.00560220	0.00440794	0.00529207	0.00546597	0.00180364	0.00268825	0.00219643	0.00224409
1.10000000	0.00384127	0.00430737	0.00463249	0.00633833	0.00322761	0.00511557	0.00075811	0.00344264	0.00244192	0.00644530	0.00291757	0.00520853	0.00176134	0.00275880	0.00199901	0.00395304	0.00653168	0.00609018	0.00454987	0.00487493	0.00539473	0.00153903	0.00275845	0.00215842	0.00228234
1.11000000	0.00419106	0.00409572	0.00385916	0.00652924	0.00326933	0.00534394	0.00081715	0.00335529	0.00231126	0.00627828	0.00322015	0.00525962	0.00156677	0.00284028	0.00207948	0.00405776	0.00640497	0.00633825	0.00460934	0.00487656	0.00528368	0.00148680	0.00315955	0.00207588	0.00287283
1.12000000	0.00450017	0.00380134	0.00330722	0.00668703	0.00333210	0.00569058	0.00095625	0.00333547	0.00210149	0.00621580	0.00344622	0.00534479	0.00161794	0.00285705	0.00218791	0.00412057	0.00617055	0.00662787	0.00471047	0.00484655	0.00525930	0.00149671	0.00353693	0.00195241	0.00343659
1.13000000	0.00437493	0.00346373	0.00291883	0.00677180	0.00341002	0.00623734	0.00116803	0.00348057	0.00184123	0.00619312	0.00331709	0.00550186	0.00187118	0.00284359	0.00232702	0.00417818	0.00600498	0.00690230	0.00474249	0.00483528	0.00516449	0.00151836	0.00389732	0.00184458	0.00393213
1.14000000	0.00483641	0.00336599	0.00242515	0.00710326	0.00352079	0.00651640	0.00136095	0.00335365	0.00176670	0.00616835	0.00394113	0.00560217	0.00178733	0.00295184	0.00239588	0.00437203	0.00562724	0.00724341	0.00481009	0.00466159	0.00518569	0.00142489	0.00418555	0.00179440	0.00446262
1.15000000	0.00353540	0.00329794	0.00236767	0.00706065	0.00395602	0.00714913	0.00145248	0.00360292	0.00151046	0.00612589	0.00359194	0.00553475	0.00213747	0.00289015	0.00258807	0.00460682	0.00542596	0.00748702	0.00475090	0.00454801	0.00500674	0.00110185	0.00470371	0.00157424	0.00475086
1.16000000	0.00374674	0.00301046	0.00185849	0.00736500	0.00396344	0.00764150	0.00175127	0.00364627	0.00141557	0.00615439	0.00366542	0.00565968	0.00231508	0.00285833	0.00267699	0.00472852	0.00520183	0.00777232	0.00480031	0.00444354	0.00502355	0.00099206	0.00490485	0.00137728	0.00510114
1.17000000	0.00326808	0.00304015	0.00179216	0.00754900	0.00420806	0.00822650	0.00191362	0.00376999	0.00109160	0.00608291	0.00354757	0.00555686	0.00239515	0.00292585	0.00281687	0.00496343	0.00500085	0.00807011	0.00480490	0.00422183	0.00495801	0.00067000	0.00515740	0.00117924	0.00542894
1.18000000	0.00372835	0.00290854	0.00160056	0.00813213	0.00390697	0.00875160	0.00228532	0.00386199	0.00094031	0.00606261	0.00378305	0.00560954	0.00250450	0.00300080	0.00278841	0.00505120	0.00494821	0.00828721	0.00487308	0.00401362	0.00503420	0.00085603	0.00533028	0.00086499	0.00580100
1.19000000	0.00466227	0.00280142	0.00187334	0.00876637	0.00332497	0.00927161	0.00273264	0.00415259	0.00078912	0.00613786	0.00415463	0.00559133	0.00240485	0.00314871	0.00290877	0.00545722	0.00469006	0.00867699	0.00499628	0.00347023	0.00514225	0.00127313	0.00550818	0.00061730	0.00615260
1.20000000	0.00317861	0.00279491	0.00195336	0.00905772	0.00420455	0.00989163	0.00262744	0.00400166	0.00079641	0.00597409	0.00368387	0.00546624	0.00261911	0.00297284	0.00305201	0.00540051	0.00500916	0.00876870	0.00499135	0.00345989	0.00518038	0.00113038	0.00608024	0.00036734	0.00615018
1.21000000	0.00381143	0.00295753	0.00215910	0.00981154	0.00315304	0.01043124	0.00322155	0.00443614	0.00090336	0.00612338	0.00396896	0.00550789	0.00237418	0.00325670	0.00308423	0.00593172	0.00492081	0.00919094	0.00512444	0.00278259	0.00534765	0.00160997	0.00622698	0.00045920	0.00651653
1.22000000	0.00336940	0.00321804	0.00207301	0.01028700	0.00396196	0.01083870	0.00295262	0.00397915	0.00079500	0.00615581	0.00370116	0.00533588	0.00264508	0.00303014	0.00315283	0.00581385	0.00533339	0.00923251	0.00524715	0.00272729	0.00576254	0.00182227	0.00673144	0.00030127	0.00653723
1.23000000	0.00324949	0.00358870	0.00223511	0.01065382	0.00386561	0.01101477	0.00315001	0.00387392	0.00054509	0.00620710	0.00372139	0.00539982	0.00258578	0.00307458	0.00319389	0.00610136	0.00556109	0.00951189	0.00539735	0.00226786	0.00609851	0.00213554	0.00708543	0.00058904	0.00672701
1.24000000	0.00350922	0.00393328	0.00223550	0.01080135	0.00353607	0.01108111	0.00315822	0.00365941	0.00048508	0.00649152	0.00373702	0.00542211	0.00255134	0.00309743	0.00318504	0.00643688	0.00575068	0.00977638	0.00559040	0.00186954	0.00655443	0.00257657	0.00733293	0.00102395	0.00689694
1.25000000	0.00327968	0.00422006	0.00239164	0.01057072	0.00346552	0.01042925	0.00327830	0.00333685	0.00046095	0.00657388	0.00380613	0.00561054	0.00252146	0.00321938	0.00308268	0.00666704	0.00617708	0.01000383	0.00571788	0.00150615	0.00694430	0.00281567	0.00782823	0.00119120	0.00710720
1.26000000	0.00318116	0.00426195	0.00253763	0.00993539	0.00328724	0.00950861	0.00326535	0.00301719	0.00037965	0.00669697	0.00383793	0.00587248	0.00245834	0.00332554	0.00298502	0.00693334	0.00652597	0.01021767	0.00589275	0.00130434	0.00743233	0.00317480	0.00821053	0.00157112	0.00731174
1.27000000	0.00355571	0.00414465	0.00286604	0.00916378	0.00301450	0.00845611	0.00304169	0.00251367	0.00023867	0.00705768	0.00386972	0.00597382	0.00253041	0.00328293	0.00294040	0.00720040	0.00662393	0.01047352	0.00611830	0.00133159	0.00793930	0.00350893	0.00828845	0.00199825	0.00744592
1.28000000	0.00315483	0.00393612	0.00318273	0.00817973	0.00294981	0.00659661	0.00303839	0.00214800	0.00039690	0.00709365	0.00389320	0.00623573	0.00243232	0.00340828	0.00287604	0.00740197	0.00694146	0.01068977	0.00625761	0.00139619	0.00831937	0.00373068	0.00871935	0.00217391	0.00755752
1.29000000	0.00353228	0.00365427	0.00393860	0.00758969	0.00282967	0.00480680	0.00274285	0.00176927	0.00043434	0.00731475	0.00381407	0.00624434	0.00257509	0.00337762	0.00280275	0.00764656	0.00698893	0.01087187	0.00644888	0.00158600	0.00878672	0.00406501	0.00878610	0.00258599	0.00766730
1.30000000	0.00301472	0.00330662	0.00429503	0.00760416	0.00271261	0.00274265	0.00272020	0.00162269	0.00071415	0.00731985	0.00384050	0.00627698	0.00251792	0.00346340	0.00281301	0.00787100	0.00726348	0.01101159	0.00652796	0.00172458	0.00916386	0.00427699	0.00913880	0.00276315	0.00779538
1.31000000	0.00349730	0.00318778	0.00546876	0.00840559	0.00259736	0.00135901	0.00247440	0.00150889	0.00089317	0.00745987	0.00362144	0.00625609	0.00269390	0.00349888	0.00267554	0.00805953	0.00717160	0.01117179	0.00668608	0.00185340	0.00950451	0.00446676	0.00910586	0.00307445	0.00787502
1.32000000	0.00374073	0.00312058	0.00669870	0.00958929	0.00187213	0.00176717	0.00266667	0.00201746	0.00197479	0.00741567	0.00341870	0.00619480	0.00277848	0.00344966	0.00272568	0.00842563	0.00728174	0.01125572	0.00671324	0.00188823	0.00972448	0.00470959	0.00919057	0.00344484	0.00813595
1.33000000	0.00300208	0.00275455	0.00636413	0.01036812	0.00236778	0.00373643	0.00222762	0.00170436	0.00135003	0.00762905	0.00371918	0.00581975	0.00273826	0.00343651	0.00279185	0.00851278	0.00742513	0.01125680	0.00689877	0.00194208	0.01033086	0.00493345	0.00955368	0.00358400	0.00804928
1.34000000	0.00334097	0.00275807	0.00744014	0.01089591	0.00222361	0.00452395	0.00208768	0.00153969	0.00153550	0.00767213	0.00342440	0.00579414	0.00295703	0.00345059	0.00260142	0.00878328	0.00738069	0.01136554	0.00702433	0.00189687	0.01050127	0.00507726	0.00953206	0.00388058	0.00817582
1.35000000	0.00374510	0.00277347	0.00830704	0.01105480	0.00180582	0.00447764	0.00190922	0.00115822	0.00150591	0.00769928	0.00321270	0.00568200	0.00315395	0.00322859	0.00263718	0.00902360	0.00744203	0.01133317	0.00709840	0.00187514	0.01075801	0.00522060	0.00949896	0.00422682	0.00844043
1.36000000	0.00343363	0.00231765	0.00806039	0.01027499	0.00197607	0.00470928	0.00171454	0.00107920	0.00167009	0.00795580	0.00318586	0.00538054	0.00315262	0.00328246	0.00260936	0.00909750	0.00742473	0.01124499	0.00733292	0.00193503	0.01127221	0.00549512	0.00973159	0.00437489	0.00819681
1.37000000	0.00310286	0.00205212	0.00810252	0.00913902	0.00157003	0.00433831	0.00181484	0.00089425	0.00178523	0.00782166	0.00308190	0.00529560	0.00324398	0.00319789	0.00253486	0.00934628	0.00759097	0.01124082	0.00738126	0.00190647	0.01140578	0.00557074	0.00981734	0.00453008	0.00828582
1.38000000	0.00327446	0.00200482	0.00833300	0.00755462	0.00120285	0.00369122	0.00187410	0.00085782	0.00187658	0.00772756	0.00280950	0.00513739	0.00346973	0.00301723	0.00243248	0.00954907	0.00768584	0.01116799	0.00742924	0.00189018	0.01147205	0.00571400	0.00982075	0.00474329	0.00831773
1.39000000	0.00365339	0.00231985	0.00853202	0.00560849	0.00055123	0.00293387	0.00221490	0.00219574	0.00181696	0.00736471	0.00203979	0.00508693	0.00415242	0.00268320	0.00198090	0.00996942	0.00772705	0.01128774	0.00754851	0.00190911	0.01145876	0.00591702	0.00964083	0.00524505	0.00829424
1.40000000	0.00400326	0.00254178	0.00892536	0.00457645	0.00168725	0.00310427	0.00246574	0.00194708	0.00170194	0.00744068	0.00209427	0.00434047	0.00427743	0.00217350	0.00232298	0.00998907	0.00768470	0.01106726	0.00748400	0.00180632	0.01142220	0.00597483	0.00958357	0.00527033	0.00808788
1.41000000	0.00463441	0.00339285	0.00850873	0.00382274	0.00149960	0.00352427	0.00229138	0.00273379	0.00156442	0.00685062	0.00232571	0.00412287	0.00428380	0.00197986	0.00184920	0.01001513	0.00762940	0.01096099	0.00747685	0.00190801	0.01146006	0.00592493	0.00929858	0.00521006	0.00802043
1.42000000	0.00486865	0.00385405	0.00883094	0.00304714	0.00260974	0.00380008	0.00247247	0.00350243	0.00153256	0.00644590	0.00216393	0.00346063	0.00469393	0.00141162	0.00173013	0.01027429	0.00757300	0.01075869	0.00732848	0.00182154	0.01124155	0.00609221	0.00915414	0.00545864	0.00785784
1.43000000	0.00515020	0.00456149	0.00888954	0.00258028	0.00362063	0.00441555	0.00243480	0.00399348	0.00166951	0.00602037	0.00225726	0.00252721	0.00492668	0.00113263	0.00176556	0.01031442	0.00747413	0.01057129	0.00729657	0.00172560	0.01119252	0.00614777	0.00899382	0.00559246	0.00766768
1.44000000	0.00566395	0.00568898	0.00912370	0.00300184	0.00260098	0.00447510	0.00211783	0.00496025	0.00159063	0.00520748	0.00250387	0.00194519	0.00500342	0.00060667	0.00059522	0.01031858	0.00726378	0.01037101	0.00714385	0.00178859	0.01103272	0.00604505	0.00853763	0.00545635	0.00762472
1.45000000	0.00559406	0.00584643	0.00918505	0.00321261	0.00331712	0.00547230	0.00220743	0.00539401	0.00172497	0.00447617	0.00307609	0.00107932	0.00524719	0.00128471	0.00039766	0.01039415	0.00736132	0.01022013	0.00696490	0.00160956	0.01078781	0.00589782	0.00852251	0.00544042	0.00760382
1.46000000	0.00545155	0.00681967	0.00924525	0.00415349	0.00346812	0.00593470	0.00214918	0.00529405	0.00227221	0.00382168	0.00350802	0.00079841	0.00510242	0.00227352	0.00131803	0.01033005	0.00730070	0.01008203	0.00687755	0.00161838	0.01056531	0.00577513	0.00825897	0.00525205	0.00760589
1.47000000	0.00527727	0.00718201	0.00924773	0.00450347	0.00286885	0.00627505	0.00203167	0.00562436	0.00195928	0.00285194	0.00392093	0.00163318	0.00515128	0.00328491	0.00221060	0.01016093	0.00754654	0.00987199	0.00670763	0.00162896	0.01037388	0.00549690	0.00828438	0.00494587	0.00762519
1.48000000	0.00510690	0.00706145	0.00907302	0.00466244	0.00292095	0.00659325	0.00206579	0.00550873	0.00194277	0.00178565	0.00460730	0.00251533	0.00514055	0.00438673	0.00316493	0.00997967	0.00790179	0.00972527	0.00649973	0.00168665	0.01008740	0.00508153	0.00844994	0.00457411	0.00766852
1.49000000	0.00462016	0.00751352	0.00892960	0.00464399	0.00277371	0.00658179	0.00205505	0.00507698	0.00210047	0.00119016	0.00481261	0.00345618	0.00484855	0.00528912	0.00404811	0.00974672	0.00811110	0.00959509	0.00639991	0.00196495	0.00989723	0.00478202	0.00841678	0.00418484	0.00766414
1.50000000	0.00460866	0.00749023	0.00877633	0.00448628	0.00272564	0.00647160	0.00196519	0.00485970	0.00200805	0.00122731	0.00506051	0.00398624	0.00467510	0.00595491	0.00482036	0.00941975	0.00842171	0.00941456	0.00613593	0.00226267	0.00954279	0.00425570	0.00856206	0.00361305	0.00764522
1.51000000	0.00431363	0.00779445	0.00862988	0.00423575	0.00260296	0.00620957	0.00194187	0.00446722	0.00206193	0.00217499	0.00483216	0.00463911	0.00420103	0.00626413	0.00521889	0.00911177	0.00859070	0.00922602	0.00593824	0.00268583	0.00930593	0.00388576	0.00852163	0.00313051	0.00755729
1.52000000	0.00431046	0.00759114	0.00845046	0.00399063	0.00247249	0.00598882	0.00204062	0.00431995	0.00202262	0.00361415	0.00473601	0.00466908	0.00381482	0.00625189	0.00544463	0.00867327	0.00883962	0.00901315	0.00569378	0.00294765	0.00900226	0.00337549	0.00858751	0.00257423	0.00747887
1.53000000	0.00417357	0.00776780	0.00839130	0.00375060	0.00234327	0.00584067	0.00214757	0.00411094	0.00207452	0.00475532	0.00423039	0.00476443	0.00313511	0.00590837	0.00535420	0.00832026	0.00892377	0.00878849	0.00543010	0.00323919	0.00867902	0.00301756	0.00844607	0.00211610	0.00729046
1.54000000	0.00404552	0.00776928	0.00821801	0.00358945	0.00228476	0.00578979	0.00227173	0.00403680	0.00199956	0.00566438	0.00365626	0.00491526	0.00223489	0.00550634	0.00496501	0.00811241	0.00888405	0.00861120	0.00519862	0.00348598	0.00834757	0.00286245	0.00819463	0.00184976	0.00702411
1.55000000	0.00410175	0.00755453	0.00810974	0.00368465	0.00223814	0.00573327	0.00247776	0.00402807	0.00207508	0.00655140	0.00322110	0.00480099	0.00135661	0.00515950	0.00444309	0.00777666	0.00885215	0.00839900	0.00499037	0.00355643	0.00801461	0.00269238	0.00790603	0.00162354	0.00676784
1.56000000	0.00414215	0.00639512	0.00787233	0.00411185	0.00232555	0.00557804	0.00277988	0.00427767	0.00217970	0.00764128	0.00332945	0.00442265	0.00028218	0.00520368	0.00426925	0.00772669	0.00902234	0.00817828	0.00461501	0.00345588	0.00753093	0.00264458	0.00781969	0.00137155	0.00664978
1.57000000	0.00434786	0.00689808	0.00779945	0.00408931	0.00208819	0.00597108	0.00299652	0.00415666	0.00207516	0.00776283	0.00242361	0.00466980	0.00077571	0.00485374	0.00317823	0.00745491	0.00860557	0.00807989	0.00457083	0.00347685	0.00725115	0.00258514	0.00715617	0.00145821	0.00613573
1.58000000	0.00457824	0.00570053	0.00732060	0.00463592	0.00234993	0.00614320	0.00311563	0.00434776	0.00219383	0.00837424	0.00240526	0.00463698	0.00169311	0.00492239	0.00310531	0.00754705	0.00859901	0.00793631	0.00436361	0.00327484	0.00682671	0.00272039	0.00700974	0.00138944	0.00589518
1.59000000	0.00503265	0.00559904	0.00719167	0.00499657	0.00215943	0.00660325	0.00325702	0.00438488	0.00193719	0.00856538	0.00162873	0.00492828	0.00217352	0.00508074	0.00197730	0.00744994	0.00823312	0.00791888	0.00433311	0.00316625	0.00636240	0.00267577	0.00649136	0.00127815	0.00545374
1.60000000	0.00526514	0.00447884	0.00653041	0.00536678	0.00268148	0.00712398	0.00314010	0.00427993	0.00216951	0.00886804	0.00172615	0.00550451	0.00280887	0.00503124	0.00245330	0.00758793	0.00815433	0.00781894	0.00432909	0.00302383	0.00610838	0.00288261	0.00634147	0.00122120	0.00513972
1.61000000	0.00520762	0.00491619	0.00696683	0.00562815	0.00262628	0.00719935	0.00311911	0.00421001	0.00203498	0.00887559	0.00086076	0.00635929	0.00285747	0.00544242	0.00100376	0.00748442	0.00764390	0.00783355	0.00445092	0.00316856	0.00563498	0.00263567	0.00554802	0.00114817	0.00478217
1.62000000	0.00538859	0.00408279	0.00611921	0.00572418	0.00313876	0.00752934	0.00288932	0.00398672	0.00214794	0.00898823	0.00083847	0.00752130	0.00307389	0.00570170	0.00104936	0.00749289	0.00766243	0.00773253	0.00454876	0.00309708	0.00537807	0.00257186	0.00552572	0.00081893	0.00449195
1.63000000	0.00498572	0.00368331	0.00608245	0.00564348	0.00309311	0.00745564	0.00297675	0.00405614	0.00215927	0.00924717	0.00120111	0.00846517	0.00315164	0.00595712	0.00079111	0.00739529	0.00740992	0.00776015	0.00480101	0.00318262	0.00510342	0.00238836	0.00498417	0.00055274	0.00427910
1.64000000	0.00488773	0.00317811	0.00523038	0.00535077	0.00351695	0.00750084	0.00268554	0.00384857	0.00215245	0.00946385	0.00130299	0.00961818	0.00317441	0.00633445	0.00073710	0.00717152	0.00757201	0.00764775	0.00496249	0.00322795	0.00494557	0.00208465	0.00494251	0.00016800	0.00404025
1.65000000	0.00429928	0.00267589	0.00438448	0.00507914	0.00387961	0.00736960	0.00255818	0.00375384	0.00222382	0.00970269	0.00140045	0.01074409	0.00321825	0.00675269	0.00116459	0.00694466	0.00779203	0.00750149	0.00516313	0.00327105	0.00486305	0.00189782	0.00490478	0.00050065	0.00385195
1.66000000	0.00397897	0.00245760	0.00383966	0.00465258	0.00438423	0.00740132	0.00222755	0.00363095	0.00224174	0.01002157	0.00169237	0.01192528	0.00349686	0.00688183	0.00208123	0.00651433	0.00789251	0.00739093	0.00542650	0.00345352	0.00485320	0.00159353	0.00484271	0.00117775	0.00351324
1.67000000	0.00319976	0.00215677	0.00363808	0.00446977	0.00409302	0.00699407	0.00255201	0.00377842	0.00252282	0.01034355	0.00197766	0.01284948	0.00348154	0.00743266	0.00110477	0.00665487	0.00755767	0.00749385	0.00558166	0.00339505	0.00473830	0.00139493	0.00436316	0.00162879	0.00331816
1.68000000	0.00311105	0.00205572	0.00318949	0.00462122	0.00330917	0.00630872	0.00267810	0.00407107	0.00273782	0.01163703	0.00272580	0.01281656	0.00389550	0.00707670	0.00053262	0.00596536	0.00798545	0.00718941	0.00566681	0.00373611	0.00461531	0.00125277	0.00404581	0.00221589	0.00328522
1.69000000	0.00276277	0.00199458	0.00280811	0.00460842	0.00313831	0.00605108	0.00279823	0.00421551	0.00292003	0.01202011	0.00288396	0.01377851	0.00413987	0.00732660	0.00057245	0.00577114	0.00791117	0.00709466	0.00580439	0.00385702	0.00464213	0.00133097	0.00370858	0.00268255	0.00302504
1.70000000	0.00255364	0.00161903	0.00249514	0.00456536	0.00374448	0.00625526	0.00274911	0.00416363	0.00288089	0.01251149	0.00299685	0.01464814	0.00432091	0.00752263	0.00072992	0.00554343	0.00782422	0.00703373	0.00595080	0.00393845	0.00469023	0.00127317	0.00358109	0.00317220	0.00261693
1.71000000	0.00253531	0.00156726	0.00253912	0.00467669	0.00423313	0.00640426	0.00268295	0.00419000	0.00295658	0.01306992	0.00321286	0.01530548	0.00447393	0.00755187	0.00090690	0.00518819	0.00777493	0.00696445	0.00610571	0.00408092	0.00474419	0.00122244	0.00352687	0.00364093	0.00237774
1.72000000	0.00228708	0.00258087	0.00201914	0.00465621	0.00356270	0.00605492	0.00309953	0.00423335	0.00321800	0.01328439	0.00335414	0.01550157	0.00465835	0.00760582	0.00102975	0.00507220	0.00784465	0.00668885	0.00606369	0.00434926	0.00472030	0.00181046	0.00268129	0.00379109	0.00227780
1.73000000	0.00256905	0.00189967	0.00224292	0.00481639	0.00410909	0.00609984	0.00282689	0.00436389	0.00320189	0.01372806	0.00338959	0.01571165	0.00471233	0.00747240	0.00115190	0.00478014	0.00781245	0.00665672	0.00617655	0.00452397	0.00480949	0.00172992	0.00259988	0.00422766	0.00188168
1.74000000	0.00279114	0.00167727	0.00266615	0.00491803	0.00441904	0.00605759	0.00290255	0.00428203	0.00317256	0.01398110	0.00337552	0.01573282	0.00472845	0.00725000	0.00121373	0.00469518	0.00760708	0.00667055	0.00633722	0.00466714	0.00507413	0.00179493	0.00265145	0.00456807	0.00155497
1.75000000	0.00272946	0.00305239	0.00211237	0.00491385	0.00375177	0.00578246	0.00317516	0.00412978	0.00341104	0.01355352	0.00347423	0.01545522	0.00468487	0.00709306	0.00135869	0.00464793	0.00778885	0.00645069	0.00631145	0.00493439	0.00519722	0.00246754	0.00164526	0.00453922	0.00144792
1.76000000	0.00307564	0.00241741	0.00256355	0.00511428	0.00412524	0.00569936	0.00283759	0.00433411	0.00333776	0.01347757	0.00327640	0.01502041	0.00454427	0.00691373	0.00132760	0.00445178	0.00781207	0.00648524	0.00647273	0.00521684	0.00551493	0.00249209	0.00166564	0.00493132	0.00100063
1.77000000	0.00309126	0.00291175	0.00253651	0.00518454	0.00377383	0.00562824	0.00306577	0.00411238	0.00342781	0.01286708	0.00354361	0.01449575	0.00443036	0.00652120	0.00123718	0.00441726	0.00794128	0.00641292	0.00655502	0.00546089	0.00581811	0.00285677	0.00105695	0.00504177	0.00086635
1.78000000	0.00332148	0.00240177	0.00293225	0.00543325	0.00399814	0.00550878	0.00293956	0.00408790	0.00346134	0.01233129	0.00354044	0.01386737	0.00424563	0.00617815	0.00096268	0.00435357	0.00804603	0.00639997	0.00669552	0.00575899	0.00622695	0.00303505	0.00092368	0.00529204	0.00053376
1.79000000	0.00348856	0.00209507	0.00320139	0.00563647	0.00410514	0.00554525	0.00287833	0.00405795	0.00343606	0.01164931	0.00366613	0.01300442	0.00400418	0.00579597	0.00075760	0.00436525	0.00809057	0.00646246	0.00685567	0.00602136	0.00670285	0.00332845	0.00077056	0.00557737	0.00034401
1.80000000	0.00360451	0.00192814	0.00338132	0.00579105	0.00423577	0.00566938	0.00275567	0.00411696	0.00336760	0.01086558	0.00381182	0.01195390	0.00374964	0.00536075	0.00060432	0.00442079	0.00812563	0.00655231	0.00701733	0.00629455	0.00722594	0.00377324	0.00084577	0.00587992	0.00036580
1.81000000	0.00371483	0.00190122	0.00347375	0.00609250	0.00420886	0.00578457	0.00273501	0.00409521	0.00338879	0.01004964	0.00411648	0.01058393	0.00343080	0.00495852	0.00036776	0.00429800	0.00837246	0.00649391	0.00715047	0.00656876	0.00751878	0.00400944	0.00041603	0.00609188	0.00046376
1.82000000	0.00372034	0.00182072	0.00346363	0.00622944	0.00426139	0.00597461	0.00271638	0.00407232	0.00330860	0.00929030	0.00443488	0.00901129	0.00315713	0.00437018	0.00011521	0.00422200	0.00846139	0.00658107	0.00732193	0.00682285	0.00793456	0.00446069	0.00035105	0.00640291	0.00054452
1.83000000	0.00372027	0.00173901	0.00308360	0.00630504	0.00418975	0.00622639	0.00263160	0.00409530	0.00325646	0.00855131	0.00480832	0.00695957	0.00298303	0.00372433	0.00055746	0.00401976	0.00873637	0.00661389	0.00743439	0.00713978	0.00814551	0.00497142	0.00027362	0.00670361	0.00046678
1.84000000	0.00367792	0.00165207	0.00312367	0.00645316	0.00422169	0.00621378	0.00262542	0.00403002	0.00320483	0.00803836	0.00498110	0.00503770	0.00276728	0.00314509	0.00090233	0.00391358	0.00882727	0.00663576	0.00756262	0.00733535	0.00852652	0.00542024	0.00019116	0.00694497	0.00062729
1.85000000	0.00357292	0.00206406	0.00352675	0.00661118	0.00433347	0.00605974	0.00263888	0.00391552	0.00314780	0.00796431	0.00504403	0.00328787	0.00254079	0.00264349	0.00125096	0.00382394	0.00874885	0.00663933	0.00772271	0.00741127	0.00905749	0.00576921	0.00013960	0.00713703	0.00090935
1.86000000	0.00355917	0.00162370	0.00337518	0.00666944	0.00422521	0.00600015	0.00261226	0.00385143	0.00309554	0.00845416	0.00529228	0.00104007	0.00253041	0.00213055	0.00165886	0.00354445	0.00896389	0.00657979	0.00776168	0.00758301	0.00925137	0.00616031	0.00022718	0.00735611	0.00080536
1.87000000	0.00352798	0.00196508	0.00358759	0.00677042	0.00419391	0.00583234	0.00262271	0.00380270	0.00299171	0.00950531	0.00526972	0.00134119	0.00252223	0.00182338	0.00204501	0.00339183	0.00896593	0.00653644	0.00781798	0.00761666	0.00966440	0.00647276	0.00027764	0.00756773	0.00087872
1.88000000	0.00344747	0.00225821	0.00383828	0.00694908	0.00417797	0.00557154	0.00270848	0.00359302	0.00307928	0.01081614	0.00531232	0.00345420	0.00257060	0.00185834	0.00242609	0.00315100	0.00903528	0.00643600	0.00787425	0.00767750	0.01005779	0.00673942	0.00038064	0.00765166	0.00098483
1.89000000	0.00334417	0.00317616	0.00443620	0.00716046	0.00402514	0.00533823	0.00274370	0.00369497	0.00298821	0.01238546	0.00508969	0.00505369	0.00271946	0.00199141	0.00259800	0.00297857	0.00899585	0.00635773	0.00793676	0.00760793	0.01052901	0.00693306	0.00019348	0.00771229	0.00118010
1.90000000	0.00332061	0.00360260	0.00482304	0.00735591	0.00389517	0.00512556	0.00274964	0.00365581	0.00299710	0.01370282	0.00496406	0.00659676	0.00277925	0.00234712	0.00276577	0.00285686	0.00909363	0.00621233	0.00795653	0.00759024	0.01093577	0.00709379	0.00032019	0.00781663	0.00130125
1.91000000	0.00324026	0.00383655	0.00526774	0.00759315	0.00375891	0.00494872	0.00281443	0.00360563	0.00295897	0.01470873	0.00482121	0.00778297	0.00286681	0.00268947	0.00283868	0.00272099	0.00910440	0.00611342	0.00806814	0.00749819	0.01136601	0.00719347	0.00038546	0.00783076	0.00137698
1.92000000	0.00302194	0.00441771	0.00598679	0.00774560	0.00338686	0.00495777	0.00275015	0.00373794	0.00280088	0.01537812	0.00425589	0.00825010	0.00329815	0.00291680	0.00322072	0.00273030	0.00933020	0.00596149	0.00803890	0.00748844	0.01165266	0.00759768	0.00049968	0.00775597	0.00156179
1.93000000	0.00288754	0.00290798	0.00551653	0.00793770	0.00352366	0.00499960	0.00272947	0.00351478	0.00272456	0.01510688	0.00417173	0.00928460	0.00318835	0.00341269	0.00293978	0.00264122	0.00953901	0.00586115	0.00814578	0.00751432	0.01190383	0.00757480	0.00039926	0.00778827	0.00148033
1.94000000	0.00253542	0.00360263	0.00631739	0.00817691	0.00327408	0.00480891	0.00277188	0.00347655	0.00253254	0.01512763	0.00388858	0.00836491	0.00334531	0.00294970	0.00248056	0.00266643	0.00956859	0.00569942	0.00819238	0.00730369	0.01227623	0.00786776	0.00029760	0.00775378	0.00172008
1.95000000	0.00244259	0.00245589	0.00610914	0.00823819	0.00325169	0.00491584	0.00276577	0.00321941	0.00237398	0.01368068	0.00365779	0.00865650	0.00317707	0.00315603	0.00279387	0.00253494	0.00988728	0.00563965	0.00831789	0.00740309	0.01235496	0.00764938	0.00064405	0.00773219	0.00172883
1.96000000	0.00236398	0.00281004	0.00676776	0.00833582	0.00292329	0.00468538	0.00298178	0.00298325	0.00216013	0.01240813	0.00322297	0.00772061	0.00318637	0.00252492	0.00265906	0.00238559	0.00991675	0.00558043	0.00847705	0.00727253	0.01256701	0.00769827	0.00059055	0.00750372	0.00195731
1.97000000	0.00211024	0.00224870	0.00683328	0.00835868	0.00290511	0.00445218	0.00297245	0.00285963	0.00196291	0.01091884	0.00311732	0.00692722	0.00337224	0.00256446	0.00238292	0.00225898	0.01003072	0.00542873	0.00856392	0.00709561	0.01258576	0.00734343	0.00087185	0.00752707	0.00196721
1.98000000	0.00203786	0.00225309	0.00703573	0.00820739	0.00263806	0.00415310	0.00320969	0.00256861	0.00171461	0.00924219	0.00277104	0.00623381	0.00346682	0.00246264	0.00216105	0.00213260	0.01019612	0.00528779	0.00859581	0.00701629	0.01249884	0.00720535	0.00096432	0.00734673	0.00211994
1.99000000	0.00202068	0.00210088	0.00710837	0.00797857	0.00250017	0.00378078	0.00335055	0.00243644	0.00143248	0.00765649	0.00277806	0.00596056	0.00353334	0.00258480	0.00187555	0.00205418	0.01020645	0.00522596	0.00863498	0.00681886	0.01231815	0.00691590	0.00105852	0.00712164	0.00220863
2.00000000	0.00216991	0.00216787	0.00703976	0.00768413	0.00249170	0.00327525	0.00349371	0.00219762	0.00113354	0.00632964	0.00297261	0.00601922	0.00338352	0.00275486	0.00158339	0.00201251	0.01020612	0.00507161	0.00859876	0.00663433	0.01209134	0.00655368	0.00105830	0.00687812	0.00223472
2.01000000	0.00264984	0.00274103	0.00697113	0.00725783	0.00265597	0.00296144	0.00348629	0.00174662	0.00052693	0.00618245	0.00225322	0.00586338	0.00257480	0.00288366	0.00118383	0.00221262	0.01003976	0.00493944	0.00853296	0.00626918	0.01172023	0.00599624	0.00103669	0.00653234	0.00219233
2.02000000	0.00276685	0.00274499	0.00679484	0.00665437	0.00273041	0.00253920	0.00384431	0.00156431	0.00042151	0.00533027	0.00264281	0.00637219	0.00231152	0.00298728	0.00100512	0.00231204	0.00997874	0.00481813	0.00835684	0.00616810	0.01131662	0.00574122	0.00089052	0.00631183	0.00216094
2.03000000	0.00299801	0.00274197	0.00651260	0.00600753	0.00316239	0.00249120	0.00404509	0.00175125	0.00078379	0.00478099	0.00311130	0.00679567	0.00189743	0.00301607	0.00109925	0.00248244	0.00987068	0.00462957	0.00813749	0.00607750	0.01089624	0.00547690	0.00069752	0.00606621	0.00204573
2.04000000	0.00326708	0.00259574	0.00610660	0.00534109	0.00365809	0.00303104	0.00416435	0.00228870	0.00125218	0.00440682	0.00324818	0.00700562	0.00140698	0.00309671	0.00107550	0.00272986	0.00949324	0.00462037	0.00799185	0.00591888	0.01055409	0.00524164	0.00060219	0.00591385	0.00185978
2.05000000	0.00326334	0.00252582	0.00554636	0.00455035	0.00439659	0.00429597	0.00418262	0.00272449	0.00172149	0.00440360	0.00346260	0.00670431	0.00108239	0.00287137	0.00149515	0.00289499	0.00941664	0.00438132	0.00764636	0.00598904	0.01017776	0.00523935	0.00056807	0.00586308	0.00166044
2.06000000	0.00332070	0.00244536	0.00531865	0.00395081	0.00524116	0.00572308	0.00402179	0.00326517	0.00201631	0.00439210	0.00345180	0.00632354	0.00086266	0.00272253	0.00162830	0.00312319	0.00919033	0.00422247	0.00740213	0.00600134	0.00975064	0.00520902	0.00081988	0.00577911	0.00130060
2.07000000	0.00418395	0.00229555	0.00532309	0.00403781	0.00522623	0.00676200	0.00404002	0.00383905	0.00261886	0.00418282	0.00250135	0.00609172	0.00055944	0.00278623	0.00122328	0.00351486	0.00854754	0.00423444	0.00731626	0.00577517	0.00954470	0.00494723	0.00095332	0.00565197	0.00090565
2.08000000	0.00450396	0.00225392	0.00526639	0.00417898	0.00557363	0.00784983	0.00384642	0.00408701	0.00283116	0.00441613	0.00196336	0.00572479	0.00050272	0.00269697	0.00115856	0.00376914	0.00834414	0.00406179	0.00701836	0.00584578	0.00916559	0.00500278	0.00134242	0.00566889	0.00051277
2.09000000	0.00559922	0.00208640	0.00536971	0.00482119	0.00533187	0.00821098	0.00369105	0.00421284	0.00279526	0.00500896	0.00141816	0.00512684	0.00035693	0.00265679	0.00107402	0.00406600	0.00789010	0.00407913	0.00683311	0.00579320	0.00891123	0.00501353	0.00161253	0.00569537	0.00023641
2.10000000	0.00554287	0.00212485	0.00541838	0.00504618	0.00566816	0.00851834	0.00328383	0.00420525	0.00258017	0.00547770	0.00107571	0.00508088	0.00037241	0.00276921	0.00106113	0.00427589	0.00775229	0.00398075	0.00654313	0.00593426	0.00848662	0.00511263	0.00200491	0.00576959	0.00026522
2.11000000	0.00633554	0.00197305	0.00555475	0.00487032	0.00553833	0.00852294	0.00257084	0.00394835	0.00237887	0.00584863	0.00105919	0.00521075	0.00037961	0.00275197	0.00104971	0.00438753	0.00747029	0.00396113	0.00641782	0.00605099	0.00819392	0.00501084	0.00221189	0.00559441	0.00049978
2.12000000	0.00525696	0.00222045	0.00586610	0.00524140	0.00625397	0.00798960	0.00182445	0.00383407	0.00274051	0.00666193	0.00137234	0.00508074	0.00077849	0.00278677	0.00124088	0.00452398	0.00762835	0.00386858	0.00599908	0.00627402	0.00760169	0.00530507	0.00253518	0.00557953	0.00085220
2.13000000	0.00687803	0.00204769	0.00584523	0.00494430	0.00523840	0.00756634	0.00129389	0.00378532	0.00218562	0.00678771	0.00110274	0.00550668	0.00079252	0.00294083	0.00105351	0.00442548	0.00717262	0.00401391	0.00607798	0.00618436	0.00732378	0.00471341	0.00251130	0.00516594	0.00083774
2.14000000	0.00615361	0.00231461	0.00609043	0.00548036	0.00535294	0.00714648	0.00097658	0.00380203	0.00239077	0.00718397	0.00107138	0.00572818	0.00127684	0.00308282	0.00103717	0.00436130	0.00708496	0.00408674	0.00582301	0.00608998	0.00689351	0.00443853	0.00269487	0.00495369	0.00108825
2.15000000	0.00615504	0.00239509	0.00626722	0.00577640	0.00510072	0.00677279	0.00076328	0.00397281	0.00254384	0.00735248	0.00096174	0.00613036	0.00159994	0.00324085	0.00100275	0.00418204	0.00690383	0.00418988	0.00576612	0.00594325	0.00645497	0.00394847	0.00265539	0.00453495	0.00114158
2.16000000	0.00503822	0.00267164	0.00635589	0.00632253	0.00529189	0.00639741	0.00070335	0.00410476	0.00296973	0.00782905	0.00184429	0.00597649	0.00184381	0.00320551	0.00127270	0.00399852	0.00695990	0.00423486	0.00551812	0.00590367	0.00614931	0.00362037	0.00276906	0.00420159	0.00125474
2.17000000	0.00553988	0.00262304	0.00626035	0.00631658	0.00460256	0.00609777	0.00045870	0.00436098	0.00279262	0.00765956	0.00141284	0.00652048	0.00198006	0.00339344	0.00105620	0.00378338	0.00670196	0.00438809	0.00555567	0.00563289	0.00585530	0.00298656	0.00250694	0.00364726	0.00115899
2.18000000	0.00583853	0.00274010	0.00619825	0.00634335	0.00405022	0.00580831	0.00040836	0.00419192	0.00289595	0.00771391	0.00198492	0.00660824	0.00190016	0.00334928	0.00115694	0.00374483	0.00648727	0.00459949	0.00551068	0.00525980	0.00565627	0.00257320	0.00233640	0.00322806	0.00089658
2.19000000	0.00484785	0.00296706	0.00596335	0.00657348	0.00403794	0.00577204	0.00034716	0.00428968	0.00284868	0.00782601	0.00236886	0.00662764	0.00205374	0.00330182	0.00130288	0.00364327	0.00651802	0.00468928	0.00546682	0.00515433	0.00551008	0.00212589	0.00241099	0.00283209	0.00107245
2.20000000	0.00478566	0.00294063	0.00580894	0.00671374	0.00383845	0.00567005	0.00060986	0.00390396	0.00295795	0.00771161	0.00225975	0.00687224	0.00201200	0.00338788	0.00125217	0.00379326	0.00627857	0.00500293	0.00552719	0.00481142	0.00535177	0.00176391	0.00236043	0.00251199	0.00104988
2.21000000	0.00416442	0.00292758	0.00539785	0.00693577	0.00382079	0.00595216	0.00078717	0.00402461	0.00276862	0.00773491	0.00239633	0.00686287	0.00202600	0.00335103	0.00134208	0.00384767	0.00630239	0.00519411	0.00554973	0.00478506	0.00518003	0.00142858	0.00251664	0.00220328	0.00127524
2.22000000	0.00359959	0.00295393	0.00486622	0.00726960	0.00385743	0.00643709	0.00085548	0.00395735	0.00283462	0.00764789	0.00274558	0.00674034	0.00183800	0.00335736	0.00150121	0.00393166	0.00647606	0.00531521	0.00548974	0.00488717	0.00503346	0.00124126	0.00301256	0.00195944	0.00163241
2.23000000	0.00355131	0.00267149	0.00477434	0.00753531	0.00385377	0.00649490	0.00108074	0.00373306	0.00264572	0.00762816	0.00243491	0.00667623	0.00178420	0.00326691	0.00155851	0.00434849	0.00592672	0.00586604	0.00570012	0.00447158	0.00487602	0.00106113	0.00301821	0.00175945	0.00194601
2.24000000	0.00336638	0.00279913	0.00413910	0.00786579	0.00393509	0.00698241	0.00076907	0.00350072	0.00308351	0.00735469	0.00302007	0.00652336	0.00128041	0.00355753	0.00200853	0.00440015	0.00612252	0.00599303	0.00563542	0.00468178	0.00468861	0.00114616	0.00367976	0.00151976	0.00239241
2.25000000	0.00330242	0.00216926	0.00353484	0.00802522	0.00377319	0.00733346	0.00120797	0.00397624	0.00216838	0.00741507	0.00235608	0.00629650	0.00146579	0.00320755	0.00176538	0.00459008	0.00580790	0.00644741	0.00576603	0.00462691	0.00455795	0.00101147	0.00399807	0.00161505	0.00296215
2.26000000	0.00319259	0.00178705	0.00322650	0.00823088	0.00391871	0.00747121	0.00100992	0.00393517	0.00209912	0.00728160	0.00220218	0.00611535	0.00131956	0.00316477	0.00188076	0.00480647	0.00557659	0.00682622	0.00583475	0.00461468	0.00448139	0.00119678	0.00430249	0.00139196	0.00344875
2.27000000	0.00342599	0.00191649	0.00245844	0.00831219	0.00361319	0.00784999	0.00136421	0.00409690	0.00194579	0.00704060	0.00290582	0.00585060	0.00077732	0.00342677	0.00210547	0.00484117	0.00572938	0.00693137	0.00573605	0.00471958	0.00458014	0.00151103	0.00518313	0.00133798	0.00427560
2.28000000	0.00242440	0.00163391	0.00245901	0.00844577	0.00419656	0.00737094	0.00111429	0.00386901	0.00195384	0.00704215	0.00233500	0.00578677	0.00106735	0.00303780	0.00199258	0.00555143	0.00489377	0.00763283	0.00587220	0.00422694	0.00448162	0.00094207	0.00528100	0.00125779	0.00429310
2.29000000	0.00270560	0.00129200	0.00220051	0.00841078	0.00414312	0.00743178	0.00124836	0.00399417	0.00177526	0.00704030	0.00232181	0.00567481	0.00105549	0.00283999	0.00210394	0.00572617	0.00469887	0.00794891	0.00594073	0.00417007	0.00459233	0.00111419	0.00569393	0.00110336	0.00471620
2.30000000	0.00238565	0.00133307	0.00194139	0.00832125	0.00432304	0.00748175	0.00132939	0.00401331	0.00166876	0.00697315	0.00242328	0.00567657	0.00108513	0.00270964	0.00211956	0.00602440	0.00452991	0.00827741	0.00594879	0.00397726	0.00472392	0.00116788	0.00615311	0.00093869	0.00508683
2.31000000	0.00236079	0.00131629	0.00186016	0.00826366	0.00441355	0.00760850	0.00149544	0.00405778	0.00151165	0.00698200	0.00254312	0.00569829	0.00117835	0.00257315	0.00214354	0.00624119	0.00444509	0.00857488	0.00598525	0.00383072	0.00492102	0.00137028	0.00650901	0.00072786	0.00541442
2.32000000	0.00257426	0.00129117	0.00206681	0.00829019	0.00439385	0.00784618	0.00171950	0.00406581	0.00142789	0.00708178	0.00261770	0.00574097	0.00132544	0.00238624	0.00223101	0.00641147	0.00442578	0.00883765	0.00604467	0.00369938	0.00515461	0.00165567	0.00679085	0.00049304	0.00570682
2.33000000	0.00266959	0.00155698	0.00223909	0.00845690	0.00446703	0.00812286	0.00192682	0.00400910	0.00139675	0.00715401	0.00277237	0.00580983	0.00144968	0.00232619	0.00230718	0.00658969	0.00447626	0.00907953	0.00608337	0.00354893	0.00543858	0.00193192	0.00706336	0.00033660	0.00594878
2.34000000	0.00348280	0.00189297	0.00268480	0.00887050	0.00398012	0.00842830	0.00240412	0.00406525	0.00110500	0.00728914	0.00351223	0.00576032	0.00121758	0.00259767	0.00251582	0.00697836	0.00453132	0.00942523	0.00619589	0.00308486	0.00564969	0.00242665	0.00721310	0.00053171	0.00635106
2.35000000	0.00238563	0.00237965	0.00212888	0.00900592	0.00465984	0.00899791	0.00236230	0.00392231	0.00087163	0.00713102	0.00319803	0.00603032	0.00142913	0.00237242	0.00250056	0.00697159	0.00477084	0.00954718	0.00616748	0.00305094	0.00598102	0.00246219	0.00767597	0.00037500	0.00637585
2.36000000	0.00244538	0.00279162	0.00227756	0.00945392	0.00460430	0.00960920	0.00258772	0.00387850	0.00072860	0.00716662	0.00334644	0.00607488	0.00142997	0.00241385	0.00262230	0.00715965	0.00494236	0.00975447	0.00622403	0.00284626	0.00627762	0.00278426	0.00790742	0.00068268	0.00651170
2.37000000	0.00275543	0.00315282	0.00267895	0.01012121	0.00429346	0.01019951	0.00283493	0.00373287	0.00078954	0.00734442	0.00353794	0.00597757	0.00142407	0.00240021	0.00277167	0.00744319	0.00505752	0.00999538	0.00630690	0.00265032	0.00658165	0.00318332	0.00797493	0.00117829	0.00665927
2.38000000	0.00353057	0.00352966	0.00316021	0.01085816	0.00335208	0.01049281	0.00333081	0.00400607	0.00076015	0.00743625	0.00385296	0.00597553	0.00124352	0.00252548	0.00294646	0.00780278	0.00529466	0.01030519	0.00642268	0.00235846	0.00685185	0.00358983	0.00791803	0.00177167	0.00711150
2.39000000	0.00286022	0.00400037	0.00274579	0.01097711	0.00397899	0.01066272	0.00320158	0.00351305	0.00072569	0.00730019	0.00371820	0.00608474	0.00135168	0.00232199	0.00281417	0.00774330	0.00563882	0.01037339	0.00641182	0.00239612	0.00726930	0.00369473	0.00865127	0.00174843	0.00689744
2.40000000	0.00321832	0.00432926	0.00330567	0.01123328	0.00283528	0.01075314	0.00351955	0.00362591	0.00083639	0.00744721	0.00388655	0.00612584	0.00125801	0.00232869	0.00287391	0.00812593	0.00575804	0.01072688	0.00657098	0.00233106	0.00752978	0.00402813	0.00850400	0.00232754	0.00723316
2.41000000	0.00294584	0.00450538	0.00313259	0.01112073	0.00345227	0.01023456	0.00329177	0.00312274	0.00060861	0.00744465	0.00396200	0.00609108	0.00139235	0.00215064	0.00274256	0.00814941	0.00607890	0.01073808	0.00658846	0.00244694	0.00795407	0.00424241	0.00907351	0.00245961	0.00720279
2.42000000	0.00313383	0.00467465	0.00345657	0.01085238	0.00309644	0.00963218	0.00313958	0.00286308	0.00040949	0.00763989	0.00405440	0.00600908	0.00148555	0.00202881	0.00269958	0.00845914	0.00612955	0.01092847	0.00672173	0.00253403	0.00822916	0.00455916	0.00901104	0.00297235	0.00739356
2.43000000	0.00274955	0.00478733	0.00362363	0.01011807	0.00296097	0.00844480	0.00309296	0.00256444	0.00036462	0.00755133	0.00410373	0.00613835	0.00151012	0.00202044	0.00264511	0.00852594	0.00638169	0.01100103	0.00678400	0.00270301	0.00862440	0.00470573	0.00934882	0.00315787	0.00755558
2.44000000	0.00255452	0.00481676	0.00388664	0.00934315	0.00275987	0.00706276	0.00292019	0.00223680	0.00039367	0.00757897	0.00414439	0.00614515	0.00156349	0.00196849	0.00264093	0.00867601	0.00647299	0.01105720	0.00688019	0.00282660	0.00897051	0.00492344	0.00945811	0.00346426	0.00772620
2.45000000	0.00282185	0.00481834	0.00436134	0.00866192	0.00253043	0.00554115	0.00256631	0.00185630	0.00042557	0.00770250	0.00409819	0.00607364	0.00173216	0.00198007	0.00256462	0.00887309	0.00638539	0.01111292	0.00700526	0.00292409	0.00928990	0.00514986	0.00938142	0.00382775	0.00786792
2.46000000	0.00295116	0.00474859	0.00480333	0.00822995	0.00242895	0.00375778	0.00227064	0.00147773	0.00062668	0.00773472	0.00405176	0.00598955	0.00185723	0.00197046	0.00255465	0.00896185	0.00635203	0.01106717	0.00710348	0.00300386	0.00965600	0.00536484	0.00946741	0.00405872	0.00800180
2.47000000	0.00222110	0.00455317	0.00500259	0.00824637	0.00220614	0.00195148	0.00227159	0.00132698	0.00096864	0.00767514	0.00417159	0.00585590	0.00183596	0.00196908	0.00264110	0.00901208	0.00644757	0.01104256	0.00710274	0.00304174	0.00992446	0.00546076	0.00973482	0.00403789	0.00814805
2.48000000	0.00264816	0.00440674	0.00563595	0.00868977	0.00210960	0.00113982	0.00195517	0.00109868	0.00110192	0.00776627	0.00401983	0.00569567	0.00201156	0.00197341	0.00258693	0.00914561	0.00626130	0.01105050	0.00719363	0.00303448	0.01012825	0.00559727	0.00968313	0.00424615	0.00825124
2.49000000	0.00241314	0.00410749	0.00588540	0.00922677	0.00185238	0.00245960	0.00190018	0.00117170	0.00138276	0.00776108	0.00408067	0.00551920	0.00207852	0.00199035	0.00260313	0.00916408	0.00620136	0.01100069	0.00724154	0.00302914	0.01039240	0.00568805	0.00982545	0.00423723	0.00840042
2.50000000	0.00281218	0.00381946	0.00636931	0.00962144	0.00178357	0.00340348	0.00162066	0.00099005	0.00149930	0.00785086	0.00392137	0.00530214	0.00230178	0.00199830	0.00252213	0.00926851	0.00601885	0.01096411	0.00730044	0.00299986	0.01058130	0.00577576	0.00989269	0.00440995	0.00845211
2.51000000	0.00310173	0.00365183	0.00689325	0.00972174	0.00166405	0.00391556	0.00142710	0.00076208	0.00164794	0.00794787	0.00376273	0.00513730	0.00249806	0.00189984	0.00256173	0.00929563	0.00580461	0.01099010	0.00739515	0.00297178	0.01063923	0.00580275	0.00989596	0.00449897	0.00850801
2.52000000	0.00320334	0.00333403	0.00707460	0.00927658	0.00161440	0.00406792	0.00135279	0.00058190	0.00172981	0.00803062	0.00359684	0.00496739	0.00269497	0.00191083	0.00254083	0.00933409	0.00564069	0.01090371	0.00743625	0.00301016	0.01078923	0.00588124	0.01006582	0.00460174	0.00850562
2.53000000	0.00355627	0.00343412	0.00740174	0.00826496	0.00138410	0.00375659	0.00145245	0.00085855	0.00169820	0.00791902	0.00319876	0.00479558	0.00319698	0.00178929	0.00238289	0.00954533	0.00548141	0.01113055	0.00765509	0.00280351	0.01069186	0.00599963	0.00931242	0.00484384	0.00922305
2.54000000	0.00326291	0.00295681	0.00680706	0.00716000	0.00106829	0.00375041	0.00163705	0.00101388	0.00183075	0.00791971	0.00355096	0.00461634	0.00301549	0.00186550	0.00244381	0.00929208	0.00527961	0.01084095	0.00759968	0.00307924	0.01104412	0.00590334	0.01003649	0.00468610	0.00877718
2.55000000	0.00332821	0.00317174	0.00698750	0.00543060	0.00091977	0.00329749	0.00225182	0.00264748	0.00186066	0.00760016	0.00298724	0.00449273	0.00369971	0.00178923	0.00212264	0.00957925	0.00508742	0.01106079	0.00778586	0.00291032	0.01085268	0.00603181	0.00942215	0.00499704	0.00927518
2.56000000	0.00389366	0.00294070	0.00688196	0.00442729	0.00175858	0.00351937	0.00236732	0.00260949	0.00174020	0.00769917	0.00335664	0.00395878	0.00351892	0.00167136	0.00229055	0.00937027	0.00473075	0.01075594	0.00767381	0.00319724	0.01102504	0.00588474	0.00994647	0.00490951	0.00870060
2.57000000	0.00456694	0.00310462	0.00691157	0.00367331	0.00154337	0.00356085	0.00250892	0.00369849	0.00159479	0.00717679	0.00335790	0.00381142	0.00380208	0.00144187	0.00188902	0.00951293	0.00443716	0.01072597	0.00759797	0.00318357	0.01078511	0.00589144	0.00975110	0.00490660	0.00869108
2.58000000	0.00453922	0.00331275	0.00739369	0.00258388	0.00240394	0.00373283	0.00327588	0.00513665	0.00146191	0.00662210	0.00311358	0.00345623	0.00445386	0.00140333	0.00178542	0.00956876	0.00415515	0.01077134	0.00763621	0.00312992	0.01054288	0.00579015	0.00937579	0.00504928	0.00880535
2.59000000	0.00510670	0.00361966	0.00730597	0.00220033	0.00369329	0.00457389	0.00305827	0.00519552	0.00175037	0.00636860	0.00320333	0.00246969	0.00457363	0.00086180	0.00153169	0.00966193	0.00408125	0.01047406	0.00741017	0.00310201	0.01043697	0.00580578	0.00949334	0.00515885	0.00854732
2.60000000	0.00583930	0.00464855	0.00721346	0.00276824	0.00288583	0.00490498	0.00278240	0.00566418	0.00187204	0.00580417	0.00338396	0.00170979	0.00454392	0.00058035	0.00102990	0.00964594	0.00391665	0.01036775	0.00729886	0.00309025	0.01017169	0.00568331	0.00921670	0.00497095	0.00846672
2.61000000	0.00576489	0.00470814	0.00737158	0.00304373	0.00356431	0.00574643	0.00285679	0.00587254	0.00198898	0.00501032	0.00382971	0.00101710	0.00489373	0.00150266	0.00071134	0.00965730	0.00409704	0.01017983	0.00706626	0.00291998	0.00989540	0.00545931	0.00920019	0.00487650	0.00844631
2.62000000	0.00549813	0.00559267	0.00731561	0.00359237	0.00343127	0.00627018	0.00265831	0.00572381	0.00205999	0.00429180	0.00421728	0.00141869	0.00487402	0.00233590	0.00160094	0.00953283	0.00428281	0.00990249	0.00692413	0.00294020	0.00966009	0.00529184	0.00916041	0.00465420	0.00836584
2.63000000	0.00532488	0.00558913	0.00724976	0.00387641	0.00354562	0.00663028	0.00256789	0.00559011	0.00202813	0.00317510	0.00489950	0.00241360	0.00524437	0.00351604	0.00223800	0.00931127	0.00462575	0.00971243	0.00669276	0.00286594	0.00935863	0.00478167	0.00922404	0.00424106	0.00833595
2.64000000	0.00494049	0.00648677	0.00713266	0.00406295	0.00299000	0.00646145	0.00239466	0.00515916	0.00210166	0.00217756	0.00513381	0.00369318	0.00534001	0.00449751	0.00320731	0.00908481	0.00490885	0.00947529	0.00650881	0.00300055	0.00903301	0.00434975	0.00926127	0.00369910	0.00821866
2.65000000	0.00461119	0.00679229	0.00693050	0.00394021	0.00264066	0.00615283	0.00232284	0.00489397	0.00214196	0.00109497	0.00560809	0.00477182	0.00551203	0.00536051	0.00405118	0.00879118	0.00536032	0.00920976	0.00627177	0.00319051	0.00873088	0.00378046	0.00939171	0.00308692	0.00818515
2.66000000	0.00436086	0.00644964	0.00664412	0.00353946	0.00280439	0.00594888	0.00236207	0.00462980	0.00223000	0.00153287	0.00633936	0.00557959	0.00563068	0.00601194	0.00460117	0.00844533	0.00604594	0.00888711	0.00594890	0.00344127	0.00849996	0.00309074	0.00967730	0.00243828	0.00819393
2.67000000	0.00410065	0.00694245	0.00655204	0.00296620	0.00267076	0.00579803	0.00237863	0.00437030	0.00233139	0.00267417	0.00645707	0.00627354	0.00559430	0.00609021	0.00511548	0.00801283	0.00645013	0.00856653	0.00581149	0.00389357	0.00826351	0.00254209	0.00973153	0.00182437	0.00803232
2.68000000	0.00403239	0.00698302	0.00634372	0.00260755	0.00270949	0.00554436	0.00248688	0.00430447	0.00252312	0.00408852	0.00648675	0.00644470	0.00556251	0.00601883	0.00524036	0.00761798	0.00700296	0.00829065	0.00560800	0.00418940	0.00801345	0.00194665	0.00981432	0.00123513	0.00796782
2.69000000	0.00386468	0.00744334	0.00636998	0.00246529	0.00263354	0.00529901	0.00257924	0.00419681	0.00264490	0.00518594	0.00599988	0.00663130	0.00515086	0.00542789	0.00525042	0.00731627	0.00732376	0.00803828	0.00545665	0.00456418	0.00783205	0.00153316	0.00967052	0.00079336	0.00770234
2.70000000	0.00384913	0.00644846	0.00662457	0.00258600	0.00326228	0.00498616	0.00267295	0.00437737	0.00281750	0.00672154	0.00649035	0.00566943	0.00434464	0.00553362	0.00526011	0.00719186	0.00783778	0.00786130	0.00504886	0.00462668	0.00735563	0.00106632	0.00965053	0.00029320	0.00759009
2.71000000	0.00377185	0.00743032	0.00639321	0.00248343	0.00254560	0.00500299	0.00298328	0.00449011	0.00276911	0.00716408	0.00506795	0.00508572	0.00397466	0.00432135	0.00507956	0.00677066	0.00780674	0.00766832	0.00510525	0.00473511	0.00727708	0.00097856	0.00910802	0.00018477	0.00717286
2.72000000	0.00418306	0.00695137	0.00644375	0.00268774	0.00253558	0.00469408	0.00329330	0.00464605	0.00292485	0.00773962	0.00469555	0.00404593	0.00308373	0.00410403	0.00488352	0.00649262	0.00792284	0.00749085	0.00477414	0.00463857	0.00685328	0.00076195	0.00868392	0.00028885	0.00686893
2.73000000	0.00425119	0.00676197	0.00640216	0.00295674	0.00227477	0.00465564	0.00355503	0.00479174	0.00297304	0.00803254	0.00403547	0.00343024	0.00214670	0.00376564	0.00465085	0.00635413	0.00777887	0.00734354	0.00462406	0.00437225	0.00643153	0.00091300	0.00803709	0.00031705	0.00649313
2.74000000	0.00471189	0.00594682	0.00625245	0.00351026	0.00263818	0.00448018	0.00362996	0.00487844	0.00313031	0.00821603	0.00358855	0.00327104	0.00092552	0.00392598	0.00434673	0.00639702	0.00762815	0.00720011	0.00427047	0.00406818	0.00593678	0.00108254	0.00746981	0.00030779	0.00600136
2.75000000	0.00506166	0.00603251	0.00620315	0.00385574	0.00235152	0.00478968	0.00386611	0.00504084	0.00291313	0.00788446	0.00281406	0.00333574	0.00031077	0.00369865	0.00376347	0.00632338	0.00706783	0.00708535	0.00424203	0.00378440	0.00546117	0.00130281	0.00647001	0.00039242	0.00542201
2.76000000	0.00533457	0.00604133	0.00631274	0.00428527	0.00270260	0.00503059	0.00385665	0.00495286	0.00292387	0.00750583	0.00199075	0.00306447	0.00094750	0.00387737	0.00303858	0.00635696	0.00650115	0.00688456	0.00417970	0.00363074	0.00497122	0.00149266	0.00538750	0.00045644	0.00487128
2.77000000	0.00577770	0.00547128	0.00559945	0.00481627	0.00298351	0.00533839	0.00388824	0.00502488	0.00287324	0.00723100	0.00174337	0.00302873	0.00154699	0.00402669	0.00235701	0.00641771	0.00619998	0.00669601	0.00413766	0.00333907	0.00449663	0.00170840	0.00470005	0.00053833	0.00423179
2.78000000	0.00602005	0.00498115	0.00492892	0.00517377	0.00320003	0.00561316	0.00390106	0.00494594	0.00288985	0.00699503	0.00169773	0.00314750	0.00201793	0.00417350	0.00169448	0.00650996	0.00589789	0.00655931	0.00420713	0.00313445	0.00405532	0.00185960	0.00392411	0.00057901	0.00363897
2.79000000	0.00599372	0.00448913	0.00437457	0.00536438	0.00336661	0.00570631	0.00394386	0.00484361	0.00289978	0.00685338	0.00186499	0.00356147	0.00238399	0.00430332	0.00116762	0.00659973	0.00565679	0.00646253	0.00435556	0.00306123	0.00371340	0.00191626	0.00300850	0.00053681	0.00310448
2.80000000	0.00584941	0.00396075	0.00298333	0.00563231	0.00394307	0.00569116	0.00375092	0.00458386	0.00309112	0.00694425	0.00184542	0.00438259	0.00252770	0.00452314	0.00098434	0.00661908	0.00598298	0.00624710	0.00441231	0.00298432	0.00353189	0.00188800	0.00338989	0.00040832	0.00229506
2.81000000	0.00559620	0.00327374	0.00284474	0.00553728	0.00364007	0.00537698	0.00388213	0.00458846	0.00304637	0.00698641	0.00247958	0.00516466	0.00266320	0.00461942	0.00041644	0.00646038	0.00597855	0.00623050	0.00464823	0.00333758	0.00354718	0.00163842	0.00171092	0.00012876	0.00205482
2.82000000	0.00514469	0.00291767	0.00169171	0.00557264	0.00369360	0.00530560	0.00378217	0.00437668	0.00307646	0.00721867	0.00261458	0.00625394	0.00263486	0.00489883	0.00024430	0.00637421	0.00619592	0.00624434	0.00485692	0.00344322	0.00377613	0.00137752	0.00148016	0.00046623	0.00160276
2.83000000	0.00473354	0.00213585	0.00098062	0.00564340	0.00359824	0.00493415	0.00379730	0.00430410	0.00320255	0.00768370	0.00294428	0.00722505	0.00260636	0.00508365	0.00021717	0.00610530	0.00657773	0.00620394	0.00501324	0.00376414	0.00412101	0.00108863	0.00100128	0.00099030	0.00122608
2.84000000	0.00414899	0.00194054	0.00068569	0.00568767	0.00389497	0.00514689	0.00362107	0.00409929	0.00313411	0.00814262	0.00297932	0.00851684	0.00254885	0.00539835	0.00015303	0.00592172	0.00679133	0.00625777	0.00519762	0.00388877	0.00456206	0.00083079	0.00166827	0.00163025	0.00096139
2.85000000	0.00355775	0.00157582	0.00137884	0.00579304	0.00388812	0.00514425	0.00367605	0.00389971	0.00329911	0.00855736	0.00297744	0.00985518	0.00248502	0.00581542	0.00065013	0.00575543	0.00660626	0.00642872	0.00554800	0.00397914	0.00534699	0.00086899	0.00182047	0.00226485	0.00093884
2.86000000	0.00347171	0.00143365	0.00173287	0.00582435	0.00346407	0.00475093	0.00371629	0.00397171	0.00349501	0.00944269	0.00334439	0.01065242	0.00267271	0.00592497	0.00028612	0.00510585	0.00737576	0.00616406	0.00554435	0.00460942	0.00564789	0.00145966	0.00069220	0.00288340	0.00040920
2.87000000	0.00317359	0.00121563	0.00308409	0.00604586	0.00410611	0.00503041	0.00331517	0.00390103	0.00347784	0.01017182	0.00321423	0.01180377	0.00281265	0.00610416	0.00029896	0.00454920	0.00747462	0.00630616	0.00583706	0.00486009	0.00614359	0.00212332	0.00217559	0.00340844	0.00101261
2.88000000	0.00315403	0.00223769	0.00309611	0.00597842	0.00347804	0.00476551	0.00359456	0.00390071	0.00367945	0.01087073	0.00338858	0.01258208	0.00306215	0.00638356	0.00057812	0.00434552	0.00764679	0.00609692	0.00591590	0.00512722	0.00673615	0.00263529	0.00076529	0.00403085	0.00029540
2.89000000	0.00323655	0.00133136	0.00431243	0.00616201	0.00399384	0.00499484	0.00312230	0.00401365	0.00358336	0.01178569	0.00315363	0.01337003	0.00329441	0.00651485	0.00067629	0.00387477	0.00785062	0.00615141	0.00605406	0.00544874	0.00715361	0.00325412	0.00226964	0.00463468	0.00146337
2.90000000	0.00345042	0.00283744	0.00423298	0.00605177	0.00342455	0.00469190	0.00340703	0.00387557	0.00369332	0.01214584	0.00332548	0.01410300	0.00354950	0.00655663	0.00100917	0.00368832	0.00803352	0.00594783	0.00619923	0.00580161	0.00778324	0.00372148	0.00044105	0.00500597	0.00060128
2.91000000	0.00379688	0.00337630	0.00468179	0.00610109	0.00348752	0.00468169	0.00329931	0.00378757	0.00364224	0.01279379	0.00338939	0.01446513	0.00370526	0.00652489	0.00121989	0.00361413	0.00807380	0.00598647	0.00633147	0.00601686	0.00837490	0.00430860	0.00063824	0.00542539	0.00102414
