SUBJ63_3_JMP_05_torso_marker_adjustment_task_1_initialErrors.sto
version=1
nRows=171
nColumns=26
inDegrees=no
endheader
time	R_Asis	L_Asis	Sacral	R_Thigh_Lateral	R_Knee_Lateral	R_Shank_Lateral	R_Ankle_Lateral	R_Heel	R_Toe	L_Thigh_Lateral	L_Knee_Lateral	L_Shank_Lateral	L_Ankle_Lateral	L_Heel	L_Toe	R_Shoulder	L_Shoulder	C7	J_Notch	Thoracic	Sternum	R_Elbow	L_Elbow	R_Wrist	L_Wrist
0.00000000	0.00471002	0.00146148	0.00457049	0.00994928	0.00371237	0.01425193	0.00216188	0.00383981	0.00166154	0.00172981	0.00132560	0.00315603	0.00332893	0.00500850	0.00208931	0.00424838	0.01011558	0.00886162	0.00582104	0.00262311	0.00795859	0.00738990	0.00103445	0.00508051	0.00148927
0.01000000	0.00502390	0.00077713	0.00391130	0.01053140	0.00348956	0.01381105	0.00240343	0.00381061	0.00163016	0.00217337	0.00164752	0.00360214	0.00327168	0.00497547	0.00226971	0.00429409	0.00938068	0.00873220	0.00581119	0.00274409	0.00721347	0.00689852	0.00123281	0.00471663	0.00188594
0.02000000	0.00515527	0.00079676	0.00340451	0.01079806	0.00307434	0.01338743	0.00248229	0.00383913	0.00182668	0.00274140	0.00205718	0.00387382	0.00317822	0.00480597	0.00231285	0.00397937	0.00889705	0.00852164	0.00575750	0.00297719	0.00620503	0.00608703	0.00182634	0.00429226	0.00229224
0.03000000	0.00549430	0.00103220	0.00282410	0.01108486	0.00269698	0.01257968	0.00263171	0.00367819	0.00173960	0.00310066	0.00251561	0.00423949	0.00296815	0.00444861	0.00224260	0.00408849	0.00805813	0.00812389	0.00565755	0.00304441	0.00545374	0.00551635	0.00178965	0.00388932	0.00260752
0.04000000	0.00554017	0.00163699	0.00267951	0.01097157	0.00221592	0.01212384	0.00256616	0.00358398	0.00190619	0.00364716	0.00289838	0.00443984	0.00267792	0.00395012	0.00208027	0.00398220	0.00776295	0.00774310	0.00553900	0.00304673	0.00466841	0.00470285	0.00243601	0.00330594	0.00291888
0.05000000	0.00557436	0.00180738	0.00234435	0.01085964	0.00193675	0.01134884	0.00252482	0.00334487	0.00175513	0.00397002	0.00352670	0.00459510	0.00250067	0.00319546	0.00167653	0.00424142	0.00727368	0.00744809	0.00550742	0.00293905	0.00429937	0.00417992	0.00262520	0.00297190	0.00336497
0.06000000	0.00532270	0.00232808	0.00256193	0.01026548	0.00167377	0.01077262	0.00226426	0.00306637	0.00169132	0.00434503	0.00397488	0.00465666	0.00214890	0.00248534	0.00130184	0.00443603	0.00724840	0.00719783	0.00549695	0.00276418	0.00400367	0.00356446	0.00333414	0.00263505	0.00391794
0.07000000	0.00514594	0.00249290	0.00283538	0.00933387	0.00171762	0.00994677	0.00201161	0.00265959	0.00149236	0.00459823	0.00445423	0.00472847	0.00186930	0.00159735	0.00091635	0.00486071	0.00714016	0.00708762	0.00560501	0.00259418	0.00405415	0.00310623	0.00401337	0.00220780	0.00465909
0.08000000	0.00437082	0.00307931	0.00389627	0.00780765	0.00167156	0.00907746	0.00150207	0.00231642	0.00146155	0.00517831	0.00471040	0.00441784	0.00145753	0.00106417	0.00069941	0.00528889	0.00717823	0.00704133	0.00581982	0.00249662	0.00429895	0.00257622	0.00495650	0.00183118	0.00531708
0.09000000	0.00394688	0.00320164	0.00419432	0.00593203	0.00199560	0.00736772	0.00112658	0.00189211	0.00118509	0.00527061	0.00474904	0.00444707	0.00120455	0.00054394	0.00066988	0.00569390	0.00732415	0.00683574	0.00594827	0.00224320	0.00477267	0.00233200	0.00602487	0.00176913	0.00604202
0.10000000	0.00344167	0.00306937	0.00469348	0.00387375	0.00219046	0.00527766	0.00099714	0.00182701	0.00102259	0.00556004	0.00486066	0.00435010	0.00099676	0.00052160	0.00079217	0.00622324	0.00735175	0.00671003	0.00617184	0.00218428	0.00557454	0.00214420	0.00702821	0.00159505	0.00656792
0.11000000	0.00296000	0.00296943	0.00595788	0.00301493	0.00222458	0.00335855	0.00105114	0.00238422	0.00080936	0.00618906	0.00471636	0.00404896	0.00090595	0.00065339	0.00089105	0.00671062	0.00729844	0.00666402	0.00650906	0.00220703	0.00657307	0.00193621	0.00779711	0.00138514	0.00698639
0.12000000	0.00299127	0.00266409	0.00660377	0.00493254	0.00249824	0.00264783	0.00120831	0.00295693	0.00089619	0.00646896	0.00459806	0.00395313	0.00096776	0.00072152	0.00096436	0.00715674	0.00743460	0.00646019	0.00670492	0.00232118	0.00748764	0.00183156	0.00879007	0.00132183	0.00733396
0.13000000	0.00257473	0.00175543	0.00696542	0.00744050	0.00233255	0.00509532	0.00191141	0.00413839	0.00172253	0.00656891	0.00539090	0.00416562	0.00109532	0.00112894	0.00082949	0.00749469	0.00731182	0.00638976	0.00701430	0.00248776	0.00858029	0.00179438	0.00946077	0.00135119	0.00758916
0.14000000	0.00407569	0.00119691	0.00794303	0.01026026	0.00217194	0.00718382	0.00192613	0.00443303	0.00175318	0.00702087	0.00522143	0.00412259	0.00146107	0.00104350	0.00090627	0.00803812	0.00730711	0.00631964	0.00715800	0.00283586	0.00938244	0.00151885	0.01006615	0.00107053	0.00778651
0.15000000	0.00534764	0.00095789	0.00892211	0.01220411	0.00210082	0.00879340	0.00203070	0.00448590	0.00231738	0.00746091	0.00526901	0.00393976	0.00177636	0.00108082	0.00101991	0.00851509	0.00709441	0.00640993	0.00739283	0.00312483	0.01022105	0.00135486	0.01019690	0.00092800	0.00806593
0.16000000	0.00533038	0.00210165	0.00886596	0.01288322	0.00221964	0.01002014	0.00210526	0.00451043	0.00231508	0.00742875	0.00635455	0.00431644	0.00238135	0.00145656	0.00096323	0.00883710	0.00700933	0.00644122	0.00760950	0.00329645	0.01096207	0.00092209	0.01044691	0.00075011	0.00806133
0.17000000	0.00646014	0.00339094	0.00951928	0.01249116	0.00226478	0.00958250	0.00203198	0.00396065	0.00231487	0.00768753	0.00658747	0.00399918	0.00296111	0.00145496	0.00133488	0.00916182	0.00683782	0.00655935	0.00780328	0.00337602	0.01153276	0.00065751	0.01046220	0.00051528	0.00800456
0.18000000	0.00694022	0.00481426	0.00980334	0.01097162	0.00223132	0.00821288	0.00212475	0.00323549	0.00219238	0.00779126	0.00690545	0.00356196	0.00347376	0.00165875	0.00180508	0.00940142	0.00658004	0.00669306	0.00797582	0.00336555	0.01199805	0.00050597	0.01025679	0.00035013	0.00790687
0.19000000	0.00664687	0.00626757	0.00961761	0.00860556	0.00236821	0.00608888	0.00202439	0.00244156	0.00192233	0.00735017	0.00752273	0.00360801	0.00444825	0.00240651	0.00179670	0.00946606	0.00648816	0.00669018	0.00796350	0.00329986	0.01205555	0.00028739	0.01010937	0.00018587	0.00790455
0.20000000	0.00681453	0.00730533	0.00952064	0.00567519	0.00206605	0.00372905	0.00202001	0.00172769	0.00166345	0.00706369	0.00706605	0.00281886	0.00506076	0.00256784	0.00234008	0.00956499	0.00639432	0.00669191	0.00793377	0.00323016	0.01200521	0.00025362	0.00986001	0.00026629	0.00789498
0.21000000	0.00661892	0.00789840	0.00933822	0.00294934	0.00164096	0.00211473	0.00202968	0.00116546	0.00144229	0.00649726	0.00632540	0.00202443	0.00575763	0.00281680	0.00266526	0.00948981	0.00637061	0.00659506	0.00781434	0.00308595	0.01168524	0.00032891	0.00968181	0.00022725	0.00780003
0.22000000	0.00615876	0.00805046	0.00914239	0.00164825	0.00115169	0.00199420	0.00193110	0.00085229	0.00126683	0.00565322	0.00510321	0.00155531	0.00629642	0.00303356	0.00302717	0.00930228	0.00642859	0.00639807	0.00755868	0.00291764	0.01107495	0.00041216	0.00951612	0.00020078	0.00774057
0.23000000	0.00531338	0.00770193	0.00894283	0.00180357	0.00086652	0.00250683	0.00168793	0.00067326	0.00120435	0.00451048	0.00357118	0.00154793	0.00665280	0.00314396	0.00335151	0.00896200	0.00663599	0.00607232	0.00715942	0.00272005	0.01018953	0.00064879	0.00950587	0.00029741	0.00767909
0.24000000	0.00437259	0.00680738	0.00871609	0.00185378	0.00080625	0.00270960	0.00128856	0.00068979	0.00151981	0.00310141	0.00206279	0.00166560	0.00682298	0.00323862	0.00334795	0.00858003	0.00693092	0.00570007	0.00667789	0.00263295	0.00915065	0.00110891	0.00955784	0.00057283	0.00766476
0.25000000	0.00292483	0.00586104	0.00879287	0.00093671	0.00066208	0.00259177	0.00088519	0.00116535	0.00111460	0.00243369	0.00164723	0.00176184	0.00656192	0.00251688	0.00339816	0.00812308	0.00713174	0.00541233	0.00625911	0.00238164	0.00814420	0.00160348	0.00945390	0.00094999	0.00760074
0.26000000	0.00277033	0.00529765	0.00856302	0.00051971	0.00063247	0.00284963	0.00099738	0.00123588	0.00138860	0.00259461	0.00230156	0.00194920	0.00624240	0.00281758	0.00312829	0.00774627	0.00745514	0.00504793	0.00576718	0.00241706	0.00726146	0.00217877	0.00955635	0.00131963	0.00758363
0.27000000	0.00296972	0.00534001	0.00856486	0.00072834	0.00074195	0.00319330	0.00139681	0.00123178	0.00169271	0.00335383	0.00278216	0.00206081	0.00578140	0.00306674	0.00273864	0.00741680	0.00770139	0.00477420	0.00537352	0.00238671	0.00661801	0.00269494	0.00951900	0.00171076	0.00750842
0.28000000	0.00287169	0.00578322	0.00888297	0.00093088	0.00088169	0.00320286	0.00175884	0.00120283	0.00164602	0.00393128	0.00287478	0.00222495	0.00527509	0.00308816	0.00215209	0.00711283	0.00785646	0.00456406	0.00505740	0.00234693	0.00624600	0.00312559	0.00941114	0.00200920	0.00733259
0.29000000	0.00251396	0.00636338	0.00926561	0.00088388	0.00094463	0.00304067	0.00184515	0.00098492	0.00135997	0.00451321	0.00281341	0.00236031	0.00452039	0.00302938	0.00143946	0.00681027	0.00794431	0.00437982	0.00478680	0.00222353	0.00609940	0.00337315	0.00917969	0.00236672	0.00710614
0.30000000	0.00267203	0.00678577	0.00904461	0.00104190	0.00115335	0.00239882	0.00205516	0.00082570	0.00117954	0.00514135	0.00289785	0.00277601	0.00362937	0.00282113	0.00085205	0.00658225	0.00797946	0.00419790	0.00450059	0.00221346	0.00611456	0.00371679	0.00896775	0.00255336	0.00675429
0.31000000	0.00319167	0.00681405	0.00844943	0.00090409	0.00128387	0.00157455	0.00223433	0.00130577	0.00113917	0.00567397	0.00333970	0.00346935	0.00280009	0.00262772	0.00136525	0.00636812	0.00796407	0.00401554	0.00422210	0.00210099	0.00626019	0.00400856	0.00854945	0.00273581	0.00649555
0.32000000	0.00320822	0.00681833	0.00798958	0.00071306	0.00132188	0.00183118	0.00188064	0.00075638	0.00097513	0.00615043	0.00315320	0.00338055	0.00180967	0.00209264	0.00140454	0.00621574	0.00781886	0.00390239	0.00401114	0.00200328	0.00657568	0.00409072	0.00810389	0.00293496	0.00611951
0.33000000	0.00348056	0.00635040	0.00702455	0.00087092	0.00150690	0.00167755	0.00185831	0.00088318	0.00100477	0.00639131	0.00335552	0.00372610	0.00152082	0.00163444	0.00201366	0.00619111	0.00772885	0.00375972	0.00368624	0.00195283	0.00687336	0.00420480	0.00773007	0.00298999	0.00578611
0.34000000	0.00364053	0.00528009	0.00608949	0.00097691	0.00191199	0.00175545	0.00174280	0.00090040	0.00126764	0.00665601	0.00388612	0.00391267	0.00152644	0.00186956	0.00311409	0.00615475	0.00773493	0.00357977	0.00333691	0.00192214	0.00700387	0.00431063	0.00768176	0.00314174	0.00537283
0.35000000	0.00364344	0.00466440	0.00541515	0.00113059	0.00209691	0.00185412	0.00174809	0.00093453	0.00129951	0.00669125	0.00408609	0.00407895	0.00172268	0.00206058	0.00339414	0.00622171	0.00757744	0.00355051	0.00312575	0.00183871	0.00731615	0.00434747	0.00742368	0.00305813	0.00497971
0.36000000	0.00363244	0.00442911	0.00501608	0.00129952	0.00226111	0.00183779	0.00165139	0.00086624	0.00107344	0.00661289	0.00408010	0.00469693	0.00182878	0.00211211	0.00317682	0.00628686	0.00730239	0.00362104	0.00310826	0.00165857	0.00768581	0.00434850	0.00683954	0.00308733	0.00473079
0.37000000	0.00368349	0.00378813	0.00457559	0.00125922	0.00202415	0.00217278	0.00165310	0.00078115	0.00105260	0.00661906	0.00424973	0.00589145	0.00186917	0.00247541	0.00296336	0.00630623	0.00723934	0.00363911	0.00298688	0.00151843	0.00774019	0.00433214	0.00647712	0.00310129	0.00462647
0.38000000	0.00343682	0.00323461	0.00437498	0.00124570	0.00202461	0.00233469	0.00159399	0.00070870	0.00119011	0.00680608	0.00461663	0.00741438	0.00188064	0.00288223	0.00277031	0.00633895	0.00713556	0.00376571	0.00299447	0.00138582	0.00772605	0.00435830	0.00617154	0.00306064	0.00437900
0.39000000	0.00276255	0.00361475	0.00408847	0.00159063	0.00247458	0.00269422	0.00145401	0.00024506	0.00107730	0.00702835	0.00484699	0.00917918	0.00194738	0.00312227	0.00239046	0.00642013	0.00702522	0.00399450	0.00305336	0.00134020	0.00759961	0.00425819	0.00606439	0.00302728	0.00395333
0.40000000	0.00240889	0.00321826	0.00393716	0.00169863	0.00243355	0.00250530	0.00144601	0.00035342	0.00137749	0.00722808	0.00508888	0.01064905	0.00197466	0.00356265	0.00254606	0.00630067	0.00687501	0.00420977	0.00323534	0.00148532	0.00732326	0.00441516	0.00550849	0.00308772	0.00389323
0.41000000	0.00194082	0.00286788	0.00364204	0.00181224	0.00241209	0.00262673	0.00146606	0.00024078	0.00141971	0.00764896	0.00540747	0.01171722	0.00216800	0.00370509	0.00254460	0.00619428	0.00680608	0.00444003	0.00341529	0.00177261	0.00684119	0.00449486	0.00519103	0.00312631	0.00363801
0.42000000	0.00174193	0.00486364	0.00318075	0.00228494	0.00382578	0.00314179	0.00118214	0.00150323	0.00083964	0.00789877	0.00511195	0.01264647	0.00236395	0.00395916	0.00259536	0.00594174	0.00671754	0.00466493	0.00358721	0.00219045	0.00632166	0.00458576	0.00515046	0.00334540	0.00315584
0.43000000	0.00105742	0.00335349	0.00300680	0.00234909	0.00259898	0.00281587	0.00137285	0.00071066	0.00152078	0.00818405	0.00543098	0.01279830	0.00264776	0.00407494	0.00295126	0.00590165	0.00648476	0.00498897	0.00389860	0.00254490	0.00586872	0.00469287	0.00423935	0.00328595	0.00310986
0.44000000	0.00103969	0.00277595	0.00286933	0.00231200	0.00250512	0.00293572	0.00141485	0.00047744	0.00081461	0.00850060	0.00547698	0.01265153	0.00300657	0.00410928	0.00279925	0.00561312	0.00659302	0.00507383	0.00402184	0.00305958	0.00523804	0.00488897	0.00380063	0.00331478	0.00265747
0.45000000	0.00124251	0.00282925	0.00242539	0.00256867	0.00239376	0.00250805	0.00145153	0.00048682	0.00071471	0.00867102	0.00520486	0.01247814	0.00328439	0.00416174	0.00279059	0.00538400	0.00649394	0.00534211	0.00426784	0.00359309	0.00487304	0.00488667	0.00314222	0.00333278	0.00222037
0.46000000	0.00150973	0.00278124	0.00230033	0.00300872	0.00249396	0.00265365	0.00137524	0.00051877	0.00066052	0.00902732	0.00481641	0.01205076	0.00349301	0.00425471	0.00293740	0.00524911	0.00636321	0.00553167	0.00442268	0.00392567	0.00466877	0.00509236	0.00256598	0.00342802	0.00177855
0.47000000	0.00195509	0.00270828	0.00231740	0.00351405	0.00264869	0.00273553	0.00131087	0.00053551	0.00062371	0.00918481	0.00426975	0.01161170	0.00354435	0.00430949	0.00304130	0.00508486	0.00618304	0.00573209	0.00456730	0.00422578	0.00468180	0.00530960	0.00188398	0.00363205	0.00131723
0.48000000	0.00207190	0.00218767	0.00247948	0.00403346	0.00303985	0.00283549	0.00112986	0.00038966	0.00057584	0.00914901	0.00382936	0.01108955	0.00355528	0.00413041	0.00274468	0.00472654	0.00628943	0.00584497	0.00463408	0.00455258	0.00481138	0.00551920	0.00108514	0.00376326	0.00075127
0.49000000	0.00217265	0.00173867	0.00287365	0.00446417	0.00329667	0.00308970	0.00100000	0.00027643	0.00058599	0.00880364	0.00321490	0.01036873	0.00327200	0.00386176	0.00246578	0.00447556	0.00625418	0.00593168	0.00471074	0.00467491	0.00520154	0.00594670	0.00065446	0.00400044	0.00036909
0.50000000	0.00247028	0.00158823	0.00326501	0.00492989	0.00357225	0.00325245	0.00089021	0.00021331	0.00057815	0.00788979	0.00267222	0.00942062	0.00278799	0.00351685	0.00215228	0.00417449	0.00628570	0.00601887	0.00483555	0.00479549	0.00582344	0.00632962	0.00096323	0.00434036	0.00066755
0.51000000	0.00203405	0.00119426	0.00389152	0.00527810	0.00396125	0.00353844	0.00066013	0.00022682	0.00072106	0.00678416	0.00237584	0.00801034	0.00235215	0.00301838	0.00138132	0.00369509	0.00653139	0.00602602	0.00497921	0.00496405	0.00657766	0.00687257	0.00119723	0.00459738	0.00089311
0.52000000	0.00195454	0.00164991	0.00459592	0.00560410	0.00413716	0.00379103	0.00063297	0.00039375	0.00075365	0.00514371	0.00204389	0.00637299	0.00172698	0.00259933	0.00099226	0.00334599	0.00674486	0.00597754	0.00515673	0.00509002	0.00747954	0.00752741	0.00192402	0.00506541	0.00133391
0.53000000	0.00182650	0.00235401	0.00539725	0.00595309	0.00434184	0.00387748	0.00069522	0.00051061	0.00066477	0.00385354	0.00179665	0.00449943	0.00114923	0.00231570	0.00072824	0.00301502	0.00701081	0.00592440	0.00545056	0.00528782	0.00855745	0.00819857	0.00268321	0.00551687	0.00173587
0.54000000	0.00118604	0.00283084	0.00614256	0.00626413	0.00474341	0.00434542	0.00071309	0.00085727	0.00070053	0.00386428	0.00157271	0.00268644	0.00104975	0.00268774	0.00089298	0.00262952	0.00739359	0.00586927	0.00582084	0.00560450	0.00971532	0.00884076	0.00308461	0.00583746	0.00182649
0.55000000	0.00108157	0.00387333	0.00704624	0.00671627	0.00477168	0.00449555	0.00088281	0.00096705	0.00063557	0.00517180	0.00151645	0.00237541	0.00103086	0.00303728	0.00113642	0.00250629	0.00759970	0.00579894	0.00625042	0.00571524	0.01090370	0.00943225	0.00380703	0.00626741	0.00227739
0.56000000	0.00090353	0.00457756	0.00772177	0.00715306	0.00485897	0.00476908	0.00099525	0.00104803	0.00085325	0.00663216	0.00156207	0.00343441	0.00121508	0.00342109	0.00151777	0.00240718	0.00792038	0.00569985	0.00666650	0.00590676	0.01206602	0.00995548	0.00455941	0.00658272	0.00268018
0.57000000	0.00141624	0.00499550	0.00820146	0.00757090	0.00595655	0.00523230	0.00122906	0.00118370	0.00097927	0.00746360	0.00120747	0.00455687	0.00157683	0.00394788	0.00213048	0.00222554	0.00830019	0.00570621	0.00710598	0.00621747	0.01302747	0.01031930	0.00485266	0.00669344	0.00259509
0.58000000	0.00234864	0.00636726	0.00935404	0.00812286	0.00573506	0.00556402	0.00132344	0.00170077	0.00154468	0.00778441	0.00108197	0.00496601	0.00165455	0.00389696	0.00223951	0.00201636	0.00826363	0.00568353	0.00762413	0.00578967	0.01422724	0.01041664	0.00535229	0.00671258	0.00329333
0.59000000	0.00373882	0.00631760	0.00889403	0.00841392	0.00765241	0.00574184	0.00203651	0.00120266	0.00156004	0.00734151	0.00105581	0.00506682	0.00167894	0.00375571	0.00237063	0.00186211	0.00873822	0.00578030	0.00786163	0.00621951	0.01463754	0.01046897	0.00578451	0.00676980	0.00311915
0.60000000	0.00490432	0.00718914	0.00910818	0.00884146	0.00802333	0.00544007	0.00246949	0.00101065	0.00208685	0.00651597	0.00092088	0.00436340	0.00166654	0.00317513	0.00229955	0.00159097	0.00887836	0.00585671	0.00810663	0.00609397	0.01515258	0.01031330	0.00623633	0.00671317	0.00357018
0.61000000	0.00591481	0.00788711	0.00918522	0.00912782	0.00805325	0.00471380	0.00292904	0.00098522	0.00219213	0.00538652	0.00111633	0.00327152	0.00152871	0.00251498	0.00235383	0.00135735	0.00901263	0.00593178	0.00818859	0.00602327	0.01531653	0.01012705	0.00668110	0.00657877	0.00414938
0.62000000	0.00728902	0.00742824	0.00888409	0.00845760	0.00841079	0.00521196	0.00392631	0.00160610	0.00290327	0.00424791	0.00117807	0.00186057	0.00153733	0.00180637	0.00191171	0.00110977	0.00878733	0.00592591	0.00815909	0.00575202	0.01521144	0.00988036	0.00611795	0.00643705	0.00350924
0.63000000	0.00796650	0.00751459	0.00861793	0.00804891	0.00771587	0.00446692	0.00450774	0.00175294	0.00341015	0.00329102	0.00119582	0.00071527	0.00161042	0.00110413	0.00163925	0.00092738	0.00866676	0.00591892	0.00800911	0.00556645	0.01484390	0.00959071	0.00608829	0.00628496	0.00362659
0.64000000	0.00831022	0.00707453	0.00818630	0.00721410	0.00666411	0.00373034	0.00504211	0.00201962	0.00373177	0.00285356	0.00124945	0.00132750	0.00153837	0.00037264	0.00116438	0.00086171	0.00845876	0.00590306	0.00779556	0.00539902	0.01422995	0.00932890	0.00560471	0.00610307	0.00321235
0.65000000	0.00793809	0.00670470	0.00770040	0.00612593	0.00525276	0.00290403	0.00554137	0.00233786	0.00379400	0.00284127	0.00100796	0.00207724	0.00148845	0.00095609	0.00165603	0.00100237	0.00831258	0.00571384	0.00736131	0.00538600	0.01324466	0.00921681	0.00537469	0.00607061	0.00320235
0.66000000	0.00747028	0.00604028	0.00753027	0.00488593	0.00365722	0.00247075	0.00576054	0.00227291	0.00409866	0.00298094	0.00161570	0.00264331	0.00148193	0.00059735	0.00122988	0.00123051	0.00796469	0.00541934	0.00686521	0.00510397	0.01213363	0.00905314	0.00492318	0.00590095	0.00264202
0.67000000	0.00646140	0.00539448	0.00687720	0.00362372	0.00187489	0.00219826	0.00570432	0.00269706	0.00376368	0.00292852	0.00202370	0.00281029	0.00112359	0.00112142	0.00204091	0.00154876	0.00770694	0.00503976	0.00629805	0.00518364	0.01092966	0.00917197	0.00463095	0.00605289	0.00241585
0.68000000	0.00560672	0.00485755	0.00671152	0.00364504	0.00063651	0.00133369	0.00531267	0.00219906	0.00350404	0.00225607	0.00210044	0.00308419	0.00070820	0.00120097	0.00186682	0.00163708	0.00730051	0.00485381	0.00593869	0.00506792	0.00991021	0.00903350	0.00367238	0.00587522	0.00167896
0.69000000	0.00516513	0.00488010	0.00632919	0.00344393	0.00072627	0.00177452	0.00504453	0.00250138	0.00302475	0.00230994	0.00254338	0.00352405	0.00069499	0.00148517	0.00253579	0.00189092	0.00694645	0.00445824	0.00547439	0.00510349	0.00894712	0.00907230	0.00317441	0.00589529	0.00147935
0.70000000	0.00526259	0.00502040	0.00626602	0.00346890	0.00106797	0.00220298	0.00461155	0.00260906	0.00239288	0.00216270	0.00307046	0.00405763	0.00114304	0.00157497	0.00292691	0.00199123	0.00657125	0.00413605	0.00511036	0.00515877	0.00815093	0.00901615	0.00279667	0.00582294	0.00117415
0.71000000	0.00547578	0.00526315	0.00636518	0.00351007	0.00122017	0.00279974	0.00387699	0.00272559	0.00169621	0.00210982	0.00356896	0.00444729	0.00153207	0.00158563	0.00314362	0.00204168	0.00620555	0.00383475	0.00481334	0.00525809	0.00755613	0.00888703	0.00238799	0.00571547	0.00124390
0.72000000	0.00552702	0.00543268	0.00662706	0.00393681	0.00131070	0.00305173	0.00295169	0.00264320	0.00102072	0.00179924	0.00382540	0.00454509	0.00184696	0.00125733	0.00266776	0.00206588	0.00579281	0.00362595	0.00459823	0.00532385	0.00723827	0.00865400	0.00195329	0.00559581	0.00126400
0.73000000	0.00568334	0.00572546	0.00663606	0.00409277	0.00122725	0.00390832	0.00199378	0.00237259	0.00086031	0.00185004	0.00381977	0.00447855	0.00218238	0.00142118	0.00267022	0.00208109	0.00540471	0.00336528	0.00439125	0.00538422	0.00707346	0.00843454	0.00148481	0.00540381	0.00125708
0.74000000	0.00552244	0.00610828	0.00645206	0.00439106	0.00113808	0.00414030	0.00097248	0.00237136	0.00100406	0.00188160	0.00396417	0.00430913	0.00220664	0.00124902	0.00225567	0.00208981	0.00515331	0.00318843	0.00416825	0.00549361	0.00713842	0.00817063	0.00140138	0.00524716	0.00118771
0.75000000	0.00531212	0.00639491	0.00615150	0.00446467	0.00088422	0.00485242	0.00052381	0.00217941	0.00167751	0.00203816	0.00397190	0.00391977	0.00235088	0.00147217	0.00212957	0.00207803	0.00489906	0.00299021	0.00398677	0.00558185	0.00739354	0.00795494	0.00111300	0.00507426	0.00101408
0.76000000	0.00499631	0.00666029	0.00604464	0.00437460	0.00076252	0.00481662	0.00093820	0.00232169	0.00176562	0.00216143	0.00389883	0.00361035	0.00228994	0.00133130	0.00198292	0.00205897	0.00482824	0.00291268	0.00375507	0.00567108	0.00775442	0.00770342	0.00139414	0.00492990	0.00073375
0.77000000	0.00453410	0.00670256	0.00607429	0.00436000	0.00096100	0.00497626	0.00132259	0.00243529	0.00213899	0.00238360	0.00405266	0.00329365	0.00217368	0.00132934	0.00174401	0.00198857	0.00475831	0.00291364	0.00367937	0.00574415	0.00834545	0.00746577	0.00145652	0.00477708	0.00043415
0.78000000	0.00419357	0.00663509	0.00628008	0.00438409	0.00145696	0.00524676	0.00154171	0.00257771	0.00217849	0.00253370	0.00394076	0.00313993	0.00204891	0.00128021	0.00162843	0.00195399	0.00481690	0.00302675	0.00358069	0.00576668	0.00893431	0.00725664	0.00230152	0.00461630	0.00096860
0.79000000	0.00346456	0.00674966	0.00677176	0.00461829	0.00183624	0.00590081	0.00165087	0.00251667	0.00212506	0.00232508	0.00336135	0.00305466	0.00204539	0.00121686	0.00171413	0.00205297	0.00494634	0.00304157	0.00334453	0.00583627	0.00918367	0.00721980	0.00163939	0.00461816	0.00071065
0.80000000	0.00309261	0.00639168	0.00722116	0.00506737	0.00233294	0.00701398	0.00160363	0.00261830	0.00202949	0.00226971	0.00304335	0.00309198	0.00191276	0.00109601	0.00156986	0.00209227	0.00500940	0.00327584	0.00333279	0.00580051	0.00951538	0.00706095	0.00175489	0.00454191	0.00099423
0.81000000	0.00253932	0.00588074	0.00767420	0.00568095	0.00268508	0.00841342	0.00156963	0.00275686	0.00184774	0.00219843	0.00276063	0.00332207	0.00170180	0.00081292	0.00150487	0.00216840	0.00507415	0.00355295	0.00334079	0.00579677	0.00959725	0.00695047	0.00179320	0.00445304	0.00108295
0.82000000	0.00212812	0.00506121	0.00784400	0.00642962	0.00289436	0.00993652	0.00161754	0.00285236	0.00170322	0.00223143	0.00257363	0.00359332	0.00149387	0.00058845	0.00138216	0.00224489	0.00508184	0.00391282	0.00345204	0.00579775	0.00954610	0.00677004	0.00191426	0.00438832	0.00115194
0.83000000	0.00192263	0.00421956	0.00793319	0.00730788	0.00307272	0.01127460	0.00179274	0.00298022	0.00164557	0.00230985	0.00244244	0.00392515	0.00128790	0.00047130	0.00122364	0.00231841	0.00502216	0.00430652	0.00353822	0.00567223	0.00919894	0.00656422	0.00186994	0.00427329	0.00110557
0.84000000	0.00188527	0.00332236	0.00774287	0.00830085	0.00321442	0.01228296	0.00201978	0.00304994	0.00152193	0.00252474	0.00243617	0.00425070	0.00111341	0.00058959	0.00105069	0.00232739	0.00498480	0.00473805	0.00369134	0.00557794	0.00867958	0.00625211	0.00173690	0.00407201	0.00093242
0.85000000	0.00238517	0.00232573	0.00705366	0.00901197	0.00314774	0.01316561	0.00230817	0.00336577	0.00168205	0.00287292	0.00258859	0.00451115	0.00101824	0.00076166	0.00113544	0.00222267	0.00502162	0.00526170	0.00392757	0.00553339	0.00805934	0.00571087	0.00181587	0.00376798	0.00083720
0.86000000	0.00223035	0.00196177	0.00664191	0.00975980	0.00304868	0.01343436	0.00254116	0.00343784	0.00171957	0.00317276	0.00268537	0.00486050	0.00093727	0.00101156	0.00110672	0.00227649	0.00511989	0.00563253	0.00405825	0.00542712	0.00722695	0.00531282	0.00152454	0.00354648	0.00067496
0.87000000	0.00223493	0.00216955	0.00603874	0.01061733	0.00290155	0.01322333	0.00280083	0.00339515	0.00162954	0.00354054	0.00310203	0.00508001	0.00073108	0.00108114	0.00060148	0.00249150	0.00515421	0.00594422	0.00417838	0.00524828	0.00641244	0.00505972	0.00110283	0.00325682	0.00013032
0.88000000	0.00254128	0.00246486	0.00519226	0.01120391	0.00263005	0.01297366	0.00296363	0.00342194	0.00172106	0.00391372	0.00341294	0.00519264	0.00069144	0.00114691	0.00048808	0.00261325	0.00540519	0.00624168	0.00427998	0.00515016	0.00563442	0.00456150	0.00081863	0.00294084	0.00063597
0.89000000	0.00298042	0.00289009	0.00431246	0.01148009	0.00220799	0.01272125	0.00301112	0.00343810	0.00187469	0.00429536	0.00374240	0.00526190	0.00063197	0.00117455	0.00048583	0.00281417	0.00565266	0.00649891	0.00437822	0.00502585	0.00483572	0.00403439	0.00084674	0.00260637	0.00113012
0.90000000	0.00333910	0.00316732	0.00346916	0.01164442	0.00180880	0.01219735	0.00299378	0.00326488	0.00185776	0.00462413	0.00423432	0.00524093	0.00054296	0.00116524	0.00032402	0.00319044	0.00576293	0.00667564	0.00443313	0.00485299	0.00420276	0.00359735	0.00107418	0.00231916	0.00170455
0.91000000	0.00361014	0.00348803	0.00262636	0.01132442	0.00142761	0.01164838	0.00277300	0.00305254	0.00187855	0.00498446	0.00465242	0.00519465	0.00050507	0.00122341	0.00040501	0.00362094	0.00588398	0.00679496	0.00444849	0.00467452	0.00361296	0.00315035	0.00161166	0.00201578	0.00230469
0.92000000	0.00368448	0.00375769	0.00193432	0.01057772	0.00124892	0.01084539	0.00239995	0.00269550	0.00182696	0.00538577	0.00501776	0.00513692	0.00052417	0.00131376	0.00056136	0.00408354	0.00597300	0.00685341	0.00446359	0.00447082	0.00310963	0.00278701	0.00225785	0.00174897	0.00290879
0.93000000	0.00356836	0.00392245	0.00168484	0.00928520	0.00124166	0.00975161	0.00192752	0.00220556	0.00168624	0.00575797	0.00522815	0.00511031	0.00059164	0.00147993	0.00068742	0.00461466	0.00604093	0.00684106	0.00447579	0.00421171	0.00287063	0.00244523	0.00304267	0.00150174	0.00355858
0.94000000	0.00311531	0.00403376	0.00188728	0.00752942	0.00138388	0.00826947	0.00140790	0.00163431	0.00147255	0.00614095	0.00531912	0.00506128	0.00066896	0.00162955	0.00075371	0.00515661	0.00608595	0.00677295	0.00451376	0.00392014	0.00309542	0.00217054	0.00394731	0.00136426	0.00416606
0.95000000	0.00246512	0.00393000	0.00229856	0.00549134	0.00156409	0.00643145	0.00097561	0.00123406	0.00123696	0.00652605	0.00529360	0.00500318	0.00077381	0.00176300	0.00081093	0.00573343	0.00613954	0.00669868	0.00464874	0.00363586	0.00376241	0.00197532	0.00487237	0.00123702	0.00477828
0.96000000	0.00192032	0.00359930	0.00284877	0.00373990	0.00167408	0.00450010	0.00094722	0.00143370	0.00115692	0.00689092	0.00518732	0.00495704	0.00097641	0.00182630	0.00083382	0.00629982	0.00616767	0.00662721	0.00484030	0.00335178	0.00478117	0.00182932	0.00583314	0.00115452	0.00532144
0.97000000	0.00281414	0.00316524	0.00333108	0.00371265	0.00165862	0.00323757	0.00110367	0.00218542	0.00096799	0.00728567	0.00493746	0.00486860	0.00119364	0.00185716	0.00079321	0.00684811	0.00632313	0.00662439	0.00516511	0.00314154	0.00596604	0.00168666	0.00666408	0.00097511	0.00591216
0.98000000	0.00384746	0.00232334	0.00370585	0.00535053	0.00173709	0.00338737	0.00146732	0.00294708	0.00107532	0.00758720	0.00473329	0.00487320	0.00146881	0.00192888	0.00086630	0.00736364	0.00644924	0.00662723	0.00549442	0.00295508	0.00709933	0.00159149	0.00750823	0.00097437	0.00634476
0.99000000	0.00434079	0.00116960	0.00402363	0.00697750	0.00139900	0.00462206	0.00199123	0.00378041	0.00138104	0.00767212	0.00523716	0.00509931	0.00197295	0.00210483	0.00083063	0.00780895	0.00652181	0.00663218	0.00575273	0.00282499	0.00805564	0.00144088	0.00819809	0.00097902	0.00671877
1.00000000	0.00570169	0.00044197	0.00424740	0.00789392	0.00136351	0.00547563	0.00203516	0.00394258	0.00148835	0.00797331	0.00528580	0.00487377	0.00234409	0.00212864	0.00107883	0.00811752	0.00664289	0.00672882	0.00613026	0.00288250	0.00895168	0.00125422	0.00876779	0.00083604	0.00696171
1.01000000	0.00658674	0.00162987	0.00445041	0.00793085	0.00128675	0.00563319	0.00209025	0.00377442	0.00154969	0.00815688	0.00559401	0.00458488	0.00281595	0.00208663	0.00141719	0.00833065	0.00661172	0.00687651	0.00650359	0.00316208	0.00971252	0.00105401	0.00905564	0.00068868	0.00708971
1.02000000	0.00684387	0.00316161	0.00445780	0.00719419	0.00160425	0.00497392	0.00195820	0.00333731	0.00133536	0.00791229	0.00630166	0.00463641	0.00357949	0.00242140	0.00153489	0.00836841	0.00658367	0.00695625	0.00677493	0.00371625	0.01016210	0.00092104	0.00915112	0.00060288	0.00725050
1.03000000	0.00748544	0.00436997	0.00453260	0.00558933	0.00176438	0.00376988	0.00187370	0.00268271	0.00130287	0.00790948	0.00622090	0.00388824	0.00410584	0.00246620	0.00191063	0.00832060	0.00646417	0.00707246	0.00706859	0.00453279	0.01050546	0.00071945	0.00907905	0.00048443	0.00729817
1.04000000	0.00767104	0.00547752	0.00455910	0.00392932	0.00181353	0.00218171	0.00191789	0.00203142	0.00117679	0.00765124	0.00598751	0.00319972	0.00473382	0.00250512	0.00245732	0.00809371	0.00640615	0.00706065	0.00714042	0.00541455	0.01054363	0.00058380	0.00905527	0.00036370	0.00724800
1.05000000	0.00713150	0.00647361	0.00443496	0.00279594	0.00234960	0.00135721	0.00176487	0.00114635	0.00078755	0.00694717	0.00582958	0.00286740	0.00561018	0.00299265	0.00288350	0.00767623	0.00636752	0.00691982	0.00709418	0.00615903	0.01024388	0.00072151	0.00892298	0.00039603	0.00725712
1.06000000	0.00688641	0.00675307	0.00442539	0.00247357	0.00229507	0.00232422	0.00183755	0.00059167	0.00076178	0.00627909	0.00482028	0.00211813	0.00618268	0.00305027	0.00335481	0.00728352	0.00633328	0.00675543	0.00696602	0.00679442	0.00980487	0.00079416	0.00875638	0.00043416	0.00722384
1.07000000	0.00645405	0.00631514	0.00438639	0.00295339	0.00221140	0.00298893	0.00160175	0.00095561	0.00170313	0.00538893	0.00332653	0.00136547	0.00656314	0.00332086	0.00341691	0.00689604	0.00645585	0.00650153	0.00671860	0.00723871	0.00913173	0.00098438	0.00858239	0.00055676	0.00737578
1.08000000	0.00556977	0.00597869	0.00454659	0.00295906	0.00176193	0.00324673	0.00168474	0.00040245	0.00097308	0.00432104	0.00202235	0.00164551	0.00690523	0.00296004	0.00396082	0.00634461	0.00645870	0.00610852	0.00638640	0.00742708	0.00839568	0.00140634	0.00849301	0.00081530	0.00717508
1.09000000	0.00461566	0.00479012	0.00464228	0.00233862	0.00144282	0.00292103	0.00128097	0.00103693	0.00198157	0.00350827	0.00138873	0.00153242	0.00665682	0.00390449	0.00381816	0.00583697	0.00675431	0.00561933	0.00596732	0.00752529	0.00750128	0.00193874	0.00847088	0.00115970	0.00733757
1.10000000	0.00385223	0.00489434	0.00494884	0.00154068	0.00131202	0.00298108	0.00087383	0.00107439	0.00139159	0.00329942	0.00141508	0.00197634	0.00673480	0.00293365	0.00406444	0.00547977	0.00679195	0.00528463	0.00566306	0.00757092	0.00704771	0.00241073	0.00835215	0.00138744	0.00710280
1.11000000	0.00345359	0.00501899	0.00583857	0.00140571	0.00128723	0.00304266	0.00056939	0.00161708	0.00110857	0.00353640	0.00158960	0.00216199	0.00644441	0.00313398	0.00378545	0.00522965	0.00682743	0.00509315	0.00538835	0.00749851	0.00675996	0.00276357	0.00812843	0.00163629	0.00697068
1.12000000	0.00383388	0.00542303	0.00625044	0.00172042	0.00111784	0.00353210	0.00091012	0.00207025	0.00137588	0.00379823	0.00192517	0.00260561	0.00578540	0.00338970	0.00329482	0.00507634	0.00699857	0.00480444	0.00509472	0.00755931	0.00652252	0.00326153	0.00801385	0.00187395	0.00690599
1.13000000	0.00435978	0.00597685	0.00700349	0.00193465	0.00109816	0.00374319	0.00121992	0.00203628	0.00135117	0.00375880	0.00189611	0.00312895	0.00505710	0.00324706	0.00258087	0.00505022	0.00705656	0.00460985	0.00485360	0.00767469	0.00649151	0.00357297	0.00785394	0.00205099	0.00671241
1.14000000	0.00494399	0.00642899	0.00759441	0.00186360	0.00127714	0.00362852	0.00133702	0.00164979	0.00113244	0.00397763	0.00179302	0.00349449	0.00400007	0.00298166	0.00188989	0.00509143	0.00716138	0.00444374	0.00459893	0.00778730	0.00654538	0.00370492	0.00769352	0.00226944	0.00653626
1.15000000	0.00557842	0.00665618	0.00767524	0.00166356	0.00129420	0.00312966	0.00139076	0.00156042	0.00105227	0.00431798	0.00201147	0.00392431	0.00285265	0.00259767	0.00145873	0.00520849	0.00724513	0.00428091	0.00438096	0.00789810	0.00670241	0.00388350	0.00752820	0.00242613	0.00631456
1.16000000	0.00601038	0.00650564	0.00725322	0.00167766	0.00138352	0.00219888	0.00149686	0.00187157	0.00110951	0.00463950	0.00259198	0.00460098	0.00196758	0.00230584	0.00199906	0.00532007	0.00738896	0.00407577	0.00416204	0.00803968	0.00698170	0.00407437	0.00746022	0.00242907	0.00607562
1.17000000	0.00634578	0.00623124	0.00696351	0.00130685	0.00128781	0.00180558	0.00143555	0.00176955	0.00102634	0.00492863	0.00279433	0.00471812	0.00141927	0.00190971	0.00252869	0.00546933	0.00743636	0.00395944	0.00396977	0.00807493	0.00739911	0.00410308	0.00725339	0.00256448	0.00580517
1.18000000	0.00634994	0.00549374	0.00654394	0.00102957	0.00148185	0.00193056	0.00116046	0.00130778	0.00095946	0.00506130	0.00288000	0.00440892	0.00125352	0.00176310	0.00258822	0.00565973	0.00754590	0.00391654	0.00378953	0.00813868	0.00781784	0.00400805	0.00714977	0.00254564	0.00554055
1.19000000	0.00619564	0.00458110	0.00625167	0.00109653	0.00161009	0.00193788	0.00110814	0.00119928	0.00108554	0.00510894	0.00338947	0.00448093	0.00158061	0.00211389	0.00335659	0.00576585	0.00768276	0.00392543	0.00357299	0.00815859	0.00807276	0.00396640	0.00720171	0.00248143	0.00515732
1.20000000	0.00600275	0.00419286	0.00604325	0.00098260	0.00152138	0.00213938	0.00113738	0.00102718	0.00090710	0.00503877	0.00350921	0.00496409	0.00179993	0.00210704	0.00346531	0.00591180	0.00765153	0.00397188	0.00350682	0.00807676	0.00828861	0.00386990	0.00685472	0.00244158	0.00497716
1.21000000	0.00538261	0.00360308	0.00592730	0.00120998	0.00176163	0.00268752	0.00104961	0.00080016	0.00098013	0.00511932	0.00388052	0.00594014	0.00188844	0.00250615	0.00332282	0.00596921	0.00786079	0.00418602	0.00334148	0.00808317	0.00814771	0.00363221	0.00708804	0.00220864	0.00459249
1.22000000	0.00521447	0.00306802	0.00589324	0.00095058	0.00156459	0.00279273	0.00123028	0.00056598	0.00103007	0.00528058	0.00422764	0.00738234	0.00183707	0.00278250	0.00313319	0.00603832	0.00777123	0.00428182	0.00348429	0.00770642	0.00789199	0.00361535	0.00655005	0.00229805	0.00455092
1.23000000	0.00484280	0.00274071	0.00591126	0.00103656	0.00160525	0.00283754	0.00137004	0.00051481	0.00104854	0.00567194	0.00465948	0.00896868	0.00179486	0.00304870	0.00283301	0.00595159	0.00781911	0.00454232	0.00355351	0.00734038	0.00732660	0.00357252	0.00646399	0.00222778	0.00424039
1.24000000	0.00404746	0.00388179	0.00594832	0.00126486	0.00226190	0.00349515	0.00132328	0.00116774	0.00086032	0.00585534	0.00466074	0.01074179	0.00171113	0.00328234	0.00255936	0.00586591	0.00774950	0.00488843	0.00371796	0.00702303	0.00681891	0.00340736	0.00651721	0.00204404	0.00365898
1.25000000	0.00376762	0.00293824	0.00574270	0.00108503	0.00208900	0.00332167	0.00153907	0.00028967	0.00105885	0.00644800	0.00523249	0.01187676	0.00192182	0.00349628	0.00261378	0.00554283	0.00775098	0.00510737	0.00405875	0.00649610	0.00582874	0.00350617	0.00591377	0.00220364	0.00394817
1.26000000	0.00322622	0.00327383	0.00562557	0.00125128	0.00222562	0.00332503	0.00161992	0.00046114	0.00087126	0.00705601	0.00549190	0.01265370	0.00216374	0.00361947	0.00254095	0.00517236	0.00769193	0.00540549	0.00437984	0.00588579	0.00489996	0.00355265	0.00564194	0.00222538	0.00367277
1.27000000	0.00263046	0.00382588	0.00538590	0.00147048	0.00242755	0.00332661	0.00167215	0.00057738	0.00072389	0.00755754	0.00559998	0.01306934	0.00240564	0.00372060	0.00258530	0.00473286	0.00755736	0.00571032	0.00474465	0.00529927	0.00390232	0.00361422	0.00524659	0.00227694	0.00341699
1.28000000	0.00204168	0.00479273	0.00528203	0.00183122	0.00264750	0.00326495	0.00164106	0.00054087	0.00081349	0.00793720	0.00543136	0.01323537	0.00263802	0.00389899	0.00286710	0.00428306	0.00721338	0.00608112	0.00510049	0.00470892	0.00297091	0.00366808	0.00463130	0.00234684	0.00306217
1.29000000	0.00164115	0.00512599	0.00500946	0.00200835	0.00284102	0.00341717	0.00163448	0.00048400	0.00071285	0.00835117	0.00537471	0.01301092	0.00283779	0.00383383	0.00288663	0.00371710	0.00700346	0.00627798	0.00549683	0.00412653	0.00190111	0.00388944	0.00410106	0.00248134	0.00275676
1.30000000	0.00159769	0.00528323	0.00463711	0.00239393	0.00318850	0.00333370	0.00151615	0.00038564	0.00049244	0.00872674	0.00525057	0.01264765	0.00305330	0.00380169	0.00288457	0.00316359	0.00686530	0.00649600	0.00576849	0.00350599	0.00105658	0.00406997	0.00349271	0.00261171	0.00232535
1.31000000	0.00189138	0.00540058	0.00435958	0.00275461	0.00339525	0.00340757	0.00140324	0.00022849	0.00044420	0.00892827	0.00489430	0.01224628	0.00307433	0.00370435	0.00295948	0.00265237	0.00657748	0.00670082	0.00603083	0.00306252	0.00032533	0.00430679	0.00278680	0.00274030	0.00187348
1.32000000	0.00227967	0.00527512	0.00410039	0.00317138	0.00370173	0.00345102	0.00123930	0.00021574	0.00052773	0.00887712	0.00441768	0.01175643	0.00298586	0.00348151	0.00284326	0.00219087	0.00629868	0.00685002	0.00621338	0.00277400	0.00036117	0.00459362	0.00205912	0.00296446	0.00139653
1.33000000	0.00258055	0.00477661	0.00378051	0.00345073	0.00388228	0.00367422	0.00111066	0.00043501	0.00055016	0.00857603	0.00395402	0.01101779	0.00279394	0.00314428	0.00261115	0.00181184	0.00607251	0.00693422	0.00633111	0.00264817	0.00099545	0.00498649	0.00140100	0.00326038	0.00098076
1.34000000	0.00307095	0.00425718	0.00366484	0.00403310	0.00424255	0.00351872	0.00105109	0.00062281	0.00068656	0.00779772	0.00334570	0.01005773	0.00235475	0.00264482	0.00239772	0.00152986	0.00579726	0.00706295	0.00640139	0.00270806	0.00162996	0.00544416	0.00137752	0.00351950	0.00080509
1.35000000	0.00274155	0.00324076	0.00330727	0.00416819	0.00439616	0.00380301	0.00083936	0.00093698	0.00074603	0.00679798	0.00293157	0.00858004	0.00219672	0.00192457	0.00166261	0.00144789	0.00580873	0.00697534	0.00645308	0.00290059	0.00245016	0.00606474	0.00061359	0.00387228	0.00038625
1.36000000	0.00299147	0.00255114	0.00331034	0.00464234	0.00456234	0.00377836	0.00081088	0.00111250	0.00066922	0.00542355	0.00243277	0.00685324	0.00175630	0.00120389	0.00136656	0.00163698	0.00571546	0.00698538	0.00647068	0.00323600	0.00346618	0.00665797	0.00149618	0.00431807	0.00087847
1.37000000	0.00259790	0.00162247	0.00313726	0.00489399	0.00466722	0.00399070	0.00065573	0.00138683	0.00078309	0.00442830	0.00216365	0.00463669	0.00185188	0.00075801	0.00066869	0.00203060	0.00597517	0.00689307	0.00651327	0.00368564	0.00447226	0.00735422	0.00128622	0.00467784	0.00050125
1.38000000	0.00253215	0.00252648	0.00382508	0.00555455	0.00475651	0.00411452	0.00066643	0.00163632	0.00084474	0.00431268	0.00164380	0.00273836	0.00190848	0.00110191	0.00066883	0.00226622	0.00596881	0.00700822	0.00664904	0.00414006	0.00584060	0.00787876	0.00239938	0.00489636	0.00143052
1.39000000	0.00210871	0.00172494	0.00353269	0.00566568	0.00475209	0.00435025	0.00059775	0.00159803	0.00082246	0.00535338	0.00173440	0.00180107	0.00206398	0.00188854	0.00045641	0.00301531	0.00635503	0.00674039	0.00670344	0.00462605	0.00676855	0.00870940	0.00211276	0.00544714	0.00087416
1.40000000	0.00179964	0.00297806	0.00410018	0.00608945	0.00464081	0.00459175	0.00076429	0.00156152	0.00073283	0.00672042	0.00142441	0.00295080	0.00218875	0.00251651	0.00057702	0.00337025	0.00657619	0.00672666	0.00682657	0.00506740	0.00790563	0.00918192	0.00286295	0.00581240	0.00123469
1.41000000	0.00106239	0.00327023	0.00424982	0.00642472	0.00517423	0.00482548	0.00080046	0.00161925	0.00090101	0.00760131	0.00138686	0.00427285	0.00251150	0.00308781	0.00095108	0.00378728	0.00684759	0.00675483	0.00706131	0.00543061	0.00893112	0.00960767	0.00263342	0.00592111	0.00089670
1.42000000	0.00140213	0.00492156	0.00532003	0.00694731	0.00483801	0.00495130	0.00085708	0.00216768	0.00105118	0.00781578	0.00134455	0.00474807	0.00277531	0.00331124	0.00129521	0.00347494	0.00688855	0.00683895	0.00731123	0.00574786	0.01018454	0.00963944	0.00343517	0.00598013	0.00174319
1.43000000	0.00199929	0.00516420	0.00505507	0.00692151	0.00646374	0.00516983	0.00154659	0.00132591	0.00124563	0.00724612	0.00125833	0.00480863	0.00248261	0.00334700	0.00108862	0.00397545	0.00713708	0.00690610	0.00748454	0.00583163	0.01068577	0.00983659	0.00310324	0.00602781	0.00109846
1.44000000	0.00333723	0.00592419	0.00540620	0.00704039	0.00713759	0.00520951	0.00212523	0.00118573	0.00146676	0.00625261	0.00132455	0.00399687	0.00242632	0.00299288	0.00095675	0.00388742	0.00721805	0.00695432	0.00756283	0.00587815	0.01113289	0.00977316	0.00320249	0.00595984	0.00117638
1.45000000	0.00437050	0.00702853	0.00564111	0.00716161	0.00713515	0.00460160	0.00259709	0.00098510	0.00179685	0.00477183	0.00131050	0.00283198	0.00233962	0.00252134	0.00109161	0.00377060	0.00728986	0.00704131	0.00763746	0.00583861	0.01146456	0.00957550	0.00365874	0.00590133	0.00172913
1.46000000	0.00534785	0.00769014	0.00577840	0.00699311	0.00692033	0.00401046	0.00309141	0.00096830	0.00217204	0.00346570	0.00138056	0.00156868	0.00235844	0.00197268	0.00111459	0.00357160	0.00724286	0.00703436	0.00764202	0.00570984	0.01151664	0.00936667	0.00400944	0.00577947	0.00212690
1.47000000	0.00603263	0.00810719	0.00597096	0.00676501	0.00607211	0.00307679	0.00326708	0.00106369	0.00218511	0.00295918	0.00136209	0.00108957	0.00223529	0.00197748	0.00225287	0.00323441	0.00733430	0.00703221	0.00748898	0.00557445	0.01118276	0.00904241	0.00441195	0.00562882	0.00237447
1.48000000	0.00694629	0.00676400	0.00574126	0.00542477	0.00555931	0.00338599	0.00403098	0.00146481	0.00284626	0.00276446	0.00160129	0.00242587	0.00218065	0.00080207	0.00082370	0.00295526	0.00707727	0.00681514	0.00743336	0.00530514	0.01073358	0.00890994	0.00309695	0.00540875	0.00125687
1.49000000	0.00649434	0.00634647	0.00583147	0.00438842	0.00406339	0.00288191	0.00435507	0.00171993	0.00299146	0.00311573	0.00126357	0.00293408	0.00214834	0.00096610	0.00137778	0.00280513	0.00706641	0.00658400	0.00725289	0.00505324	0.00997123	0.00874839	0.00317932	0.00541306	0.00144395
1.50000000	0.00595590	0.00525652	0.00611806	0.00363239	0.00235184	0.00217248	0.00434199	0.00133338	0.00303929	0.00279555	0.00119555	0.00312410	0.00207189	0.00121027	0.00123228	0.00255737	0.00700485	0.00638651	0.00714401	0.00483710	0.00915994	0.00849514	0.00264287	0.00522132	0.00092125
1.51000000	0.00475357	0.00425980	0.00606383	0.00308039	0.00051507	0.00189268	0.00397884	0.00261932	0.00299916	0.00195993	0.00128231	0.00267945	0.00192388	0.00176782	0.00229703	0.00275066	0.00721421	0.00593777	0.00684257	0.00468061	0.00811297	0.00864094	0.00248419	0.00539726	0.00102678
1.52000000	0.00486328	0.00379473	0.00644498	0.00304898	0.00041832	0.00207306	0.00420383	0.00176637	0.00269837	0.00160551	0.00169820	0.00226380	0.00165741	0.00201482	0.00170622	0.00245670	0.00694995	0.00567739	0.00683055	0.00473679	0.00769304	0.00842164	0.00229016	0.00519791	0.00103055
1.53000000	0.00483312	0.00372381	0.00690999	0.00351549	0.00085933	0.00217430	0.00397865	0.00206731	0.00226575	0.00124545	0.00211473	0.00266154	0.00131650	0.00221836	0.00208437	0.00247501	0.00690649	0.00539783	0.00668162	0.00483954	0.00726044	0.00844860	0.00199602	0.00519553	0.00111825
1.54000000	0.00505421	0.00384826	0.00760234	0.00389970	0.00104338	0.00248090	0.00358928	0.00237079	0.00158974	0.00121137	0.00260175	0.00333562	0.00114907	0.00227208	0.00225223	0.00249263	0.00680378	0.00520770	0.00659073	0.00499235	0.00704642	0.00844441	0.00159868	0.00514882	0.00120765
1.55000000	0.00548405	0.00411147	0.00818973	0.00408630	0.00108604	0.00294948	0.00295170	0.00259391	0.00095949	0.00136481	0.00316726	0.00376114	0.00120316	0.00221094	0.00239102	0.00248636	0.00666930	0.00502641	0.00648215	0.00523388	0.00693158	0.00841600	0.00125595	0.00515513	0.00130361
1.56000000	0.00564754	0.00424347	0.00866677	0.00452843	0.00113258	0.00327146	0.00209941	0.00265513	0.00061006	0.00143017	0.00344672	0.00378799	0.00137903	0.00195378	0.00211046	0.00257150	0.00657501	0.00493051	0.00635722	0.00544225	0.00689749	0.00842448	0.00123281	0.00512428	0.00139165
1.57000000	0.00594029	0.00462118	0.00850328	0.00486677	0.00119942	0.00405077	0.00127297	0.00239181	0.00117089	0.00164336	0.00349812	0.00368800	0.00162604	0.00197380	0.00234038	0.00271712	0.00645631	0.00474262	0.00628504	0.00566514	0.00685753	0.00844133	0.00074232	0.00511136	0.00149696
1.58000000	0.00586433	0.00469524	0.00846129	0.00511715	0.00100871	0.00427218	0.00028079	0.00254792	0.00148104	0.00182088	0.00356884	0.00350572	0.00165057	0.00159227	0.00205860	0.00278323	0.00636310	0.00467463	0.00608494	0.00589187	0.00691827	0.00839339	0.00093345	0.00506682	0.00132067
1.59000000	0.00570823	0.00487726	0.00802463	0.00526465	0.00085611	0.00475872	0.00064236	0.00248546	0.00196256	0.00199366	0.00343104	0.00329702	0.00174882	0.00151969	0.00197525	0.00292462	0.00629281	0.00457692	0.00593282	0.00604388	0.00697691	0.00832970	0.00100478	0.00501383	0.00113272
1.60000000	0.00537788	0.00493040	0.00739422	0.00548897	0.00109321	0.00521552	0.00127862	0.00239418	0.00252481	0.00223098	0.00351059	0.00303598	0.00179416	0.00153475	0.00179331	0.00306206	0.00621036	0.00447375	0.00582547	0.00613372	0.00715386	0.00824004	0.00080400	0.00494820	0.00095144
1.61000000	0.00489636	0.00511406	0.00692186	0.00539352	0.00111035	0.00569172	0.00165631	0.00272333	0.00243380	0.00227523	0.00319363	0.00294026	0.00172711	0.00127867	0.00178620	0.00315490	0.00621497	0.00442833	0.00562598	0.00615724	0.00728231	0.00812085	0.00082010	0.00491647	0.00043164
1.62000000	0.00430534	0.00519211	0.00657388	0.00563128	0.00175695	0.00636186	0.00191417	0.00262024	0.00255743	0.00236930	0.00296961	0.00271692	0.00176948	0.00125138	0.00179414	0.00320298	0.00620945	0.00439945	0.00549770	0.00608356	0.00748201	0.00798494	0.00099501	0.00484318	0.00027870
1.63000000	0.00369772	0.00482422	0.00648856	0.00573174	0.00230561	0.00749298	0.00194921	0.00299043	0.00244126	0.00261788	0.00316028	0.00260376	0.00159215	0.00103342	0.00150155	0.00316712	0.00617831	0.00454376	0.00550659	0.00582140	0.00789166	0.00772755	0.00173111	0.00469435	0.00076685
1.64000000	0.00323111	0.00454940	0.00617947	0.00602439	0.00271999	0.00895891	0.00180310	0.00329947	0.00216417	0.00276825	0.00302582	0.00249441	0.00145843	0.00085766	0.00158662	0.00326335	0.00620227	0.00464774	0.00555026	0.00551264	0.00811411	0.00756241	0.00271494	0.00463197	0.00145577
1.65000000	0.00240632	0.00474034	0.00647971	0.00694544	0.00348350	0.01000261	0.00180349	0.00301302	0.00197411	0.00256846	0.00246102	0.00251814	0.00143393	0.00073051	0.00149260	0.00327951	0.00616617	0.00455926	0.00548119	0.00513924	0.00787137	0.00758889	0.00161825	0.00461861	0.00115428
1.66000000	0.00235569	0.00411817	0.00619800	0.00711623	0.00374939	0.01175824	0.00179430	0.00336904	0.00172357	0.00272598	0.00246220	0.00258067	0.00121031	0.00056677	0.00140269	0.00311992	0.00616242	0.00479994	0.00564451	0.00462329	0.00788113	0.00719734	0.00217344	0.00449072	0.00139429
1.67000000	0.00184185	0.00391830	0.00626251	0.00804192	0.00419906	0.01248601	0.00187214	0.00330267	0.00152042	0.00267945	0.00219066	0.00281870	0.00108287	0.00046406	0.00135383	0.00300788	0.00609486	0.00479395	0.00573138	0.00408240	0.00748135	0.00712278	0.00176853	0.00439795	0.00138632
1.68000000	0.00225810	0.00301269	0.00557364	0.00830374	0.00415851	0.01360758	0.00213202	0.00360800	0.00161230	0.00302264	0.00234112	0.00296444	0.00096431	0.00052667	0.00123080	0.00264387	0.00608166	0.00512083	0.00595885	0.00352381	0.00713620	0.00657475	0.00222977	0.00412775	0.00146996
1.69000000	0.00224355	0.00275987	0.00513009	0.00873476	0.00412916	0.01388649	0.00224370	0.00355166	0.00163311	0.00314928	0.00222037	0.00345929	0.00082908	0.00068405	0.00135189	0.00239174	0.00614154	0.00522956	0.00611907	0.00303190	0.00641830	0.00618248	0.00196023	0.00397797	0.00131639
1.70000000	0.00248638	0.00267315	0.00469325	0.00948162	0.00403818	0.01349383	0.00249760	0.00347491	0.00144101	0.00344881	0.00250082	0.00378098	0.00064401	0.00070006	0.00089619	0.00203471	0.00603538	0.00525380	0.00628372	0.00263357	0.00570052	0.00596979	0.00133345	0.00367917	0.00083058
