Model Marker Errors from IK
version=1
nRows=538
nColumns=4
inDegrees=no
endheader
time	total_squared_error	marker_error_RMS	marker_error_max
      0.94000000	      0.00354257	      0.01145453	      0.02354269
      0.95000000	      0.00360748	      0.01155899	      0.02387642
      0.96000000	      0.00366824	      0.01165593	      0.02387277
      0.97000000	      0.00371124	      0.01172405	      0.02368425
      0.98000000	      0.00374837	      0.01178256	      0.02352417
      0.99000000	      0.00376418	      0.01180737	      0.02361410
      1.00000000	      0.00378723	      0.01184348	      0.02412378
      1.01000000	      0.00380661	      0.01187373	      0.02455187
      1.02000000	      0.00383389	      0.01191620	      0.02523408
      1.03000000	      0.00387915	      0.01198633	      0.02563555
      1.04000000	      0.00390837	      0.01203139	      0.02637327
      1.05000000	      0.00395836	      0.01210809	      0.02720151
      1.06000000	      0.00402528	      0.01221001	      0.02777597
      1.07000000	      0.00409151	      0.01231005	      0.02900657
      1.08000000	      0.00418571	      0.01245096	      0.02950469
      1.09000000	      0.00428381	      0.01259601	      0.03040983
      1.10000000	      0.00440048	      0.01276639	      0.03137185
      1.11000000	      0.00451598	      0.01293285	      0.03239458
      1.12000000	      0.00464717	      0.01311935	      0.03337922
      1.13000000	      0.00476880	      0.01328993	      0.03439958
      1.14000000	      0.00489745	      0.01346800	      0.03528717
      1.15000000	      0.00501366	      0.01362685	      0.03620830
      1.16000000	      0.00512459	      0.01377678	      0.03703277
      1.17000000	      0.00522748	      0.01391439	      0.03785376
      1.18000000	      0.00533635	      0.01405854	      0.03836307
      1.19000000	      0.00542226	      0.01417125	      0.03905494
      1.20000000	      0.00552766	      0.01430833	      0.03955637
      1.21000000	      0.00561711	      0.01442363	      0.04013172
      1.22000000	      0.00571209	      0.01454506	      0.04085330
      1.23000000	      0.00583276	      0.01469789	      0.04141176
      1.24000000	      0.00599817	      0.01490484	      0.04161229
      1.25000000	      0.00614134	      0.01508168	      0.04231521
      1.26000000	      0.00634187	      0.01532593	      0.04263101
      1.27000000	      0.00650461	      0.01552133	      0.04340141
      1.28000000	      0.00670012	      0.01575286	      0.04381481
      1.29000000	      0.00686025	      0.01593999	      0.04439320
      1.30000000	      0.00697372	      0.01607128	      0.04500724
      1.31000000	      0.00705755	      0.01616758	      0.04552823
      1.32000000	      0.00710668	      0.01622376	      0.04581306
      1.33000000	      0.00712893	      0.01624914	      0.04608887
      1.34000000	      0.00708267	      0.01619633	      0.04611949
      1.35000000	      0.00699678	      0.01609782	      0.04620373
      1.36000000	      0.00689092	      0.01597558	      0.04611235
      1.37000000	      0.00685102	      0.01592926	      0.04552136
      1.38000000	      0.00669206	      0.01574339	      0.04525980
      1.39000000	      0.00662508	      0.01566440	      0.04450857
      1.40000000	      0.00638504	      0.01537800	      0.04422567
      1.41000000	      0.00633787	      0.01532110	      0.04296619
      1.42000000	      0.00614747	      0.01508920	      0.04207362
      1.43000000	      0.00612197	      0.01505788	      0.04046052
      1.44000000	      0.00597844	      0.01488031	      0.03919045
      1.45000000	      0.00602706	      0.01494069	      0.03737260
      1.46000000	      0.00604079	      0.01495770	      0.03575509
      1.47000000	      0.00613939	      0.01507928	      0.03389929
      1.48000000	      0.00634543	      0.01533022	      0.03435945
      1.49000000	      0.00653199	      0.01555396	      0.03654847
      1.50000000	      0.00673762	      0.01579689	      0.03887043
      1.51000000	      0.00690196	      0.01598837	      0.04039663
      1.52000000	      0.00695826	      0.01605345	      0.04127281
      1.53000000	      0.00693015	      0.01602100	      0.04146330
      1.54000000	      0.00679557	      0.01586467	      0.04061802
      1.55000000	      0.00658630	      0.01561849	      0.03888096
      1.56000000	      0.00633362	      0.01531596	      0.03690063
      1.57000000	      0.00607160	      0.01499580	      0.03434630
      1.58000000	      0.00581191	      0.01467160	      0.03113286
      1.59000000	      0.00561206	      0.01441715	      0.02852103
      1.60000000	      0.00543323	      0.01418559	      0.02565824
      1.61000000	      0.00528948	      0.01399667	      0.02350718
      1.62000000	      0.00517176	      0.01384003	      0.02320614
      1.63000000	      0.00507402	      0.01370864	      0.02304080
      1.64000000	      0.00500961	      0.01362134	      0.02308932
      1.65000000	      0.00495455	      0.01354629	      0.02305984
      1.66000000	      0.00493854	      0.01352439	      0.02308100
      1.67000000	      0.00492053	      0.01349969	      0.02292230
      1.68000000	      0.00493552	      0.01352025	      0.02300274
      1.69000000	      0.00493486	      0.01351934	      0.02264779
      1.70000000	      0.00495633	      0.01354872	      0.02263506
      1.71000000	      0.00495119	      0.01354170	      0.02249132
      1.72000000	      0.00493909	      0.01352514	      0.02245904
      1.73000000	      0.00491644	      0.01349409	      0.02260590
      1.74000000	      0.00491583	      0.01349325	      0.02259209
      1.75000000	      0.00484902	      0.01340124	      0.02295446
      1.76000000	      0.00481465	      0.01335367	      0.02308634
      1.77000000	      0.00477596	      0.01329990	      0.02311682
      1.78000000	      0.00475274	      0.01326753	      0.02306532
      1.79000000	      0.00471676	      0.01321722	      0.02321222
      1.80000000	      0.00469440	      0.01318586	      0.02407971
      1.81000000	      0.00467356	      0.01315655	      0.02489363
      1.82000000	      0.00462030	      0.01308137	      0.02499325
      1.83000000	      0.00458672	      0.01303375	      0.02554824
      1.84000000	      0.00452840	      0.01295062	      0.02593719
      1.85000000	      0.00446537	      0.01286017	      0.02604495
      1.86000000	      0.00436493	      0.01271472	      0.02587122
      1.87000000	      0.00426273	      0.01256499	      0.02515397
      1.88000000	      0.00414158	      0.01238514	      0.02427403
      1.89000000	      0.00401399	      0.01219287	      0.02318789
      1.90000000	      0.00388577	      0.01199656	      0.02189476
      1.91000000	      0.00377270	      0.01182073	      0.02075989
      1.92000000	      0.00367770	      0.01167095	      0.02075415
      1.93000000	      0.00358117	      0.01151677	      0.02096935
      1.94000000	      0.00350559	      0.01139459	      0.02109759
      1.95000000	      0.00346234	      0.01132407	      0.02151816
      1.96000000	      0.00340754	      0.01123410	      0.02105728
      1.97000000	      0.00336778	      0.01116838	      0.02120853
      1.98000000	      0.00335240	      0.01114285	      0.02108157
      1.99000000	      0.00335341	      0.01114453	      0.02161136
      2.00000000	      0.00333584	      0.01111528	      0.02124520
      2.01000000	      0.00334339	      0.01112785	      0.02113844
      2.02000000	      0.00337264	      0.01117643	      0.02135820
      2.03000000	      0.00338470	      0.01119639	      0.02127509
      2.04000000	      0.00342874	      0.01126901	      0.02144189
      2.05000000	      0.00346642	      0.01133074	      0.02125402
      2.06000000	      0.00351057	      0.01140268	      0.02138934
      2.07000000	      0.00355197	      0.01146972	      0.02161426
      2.08000000	      0.00359803	      0.01154385	      0.02175530
      2.09000000	      0.00363848	      0.01160855	      0.02192203
      2.10000000	      0.00369419	      0.01169709	      0.02224500
      2.11000000	      0.00370762	      0.01171833	      0.02254204
      2.12000000	      0.00374256	      0.01177341	      0.02307269
      2.13000000	      0.00375249	      0.01178902	      0.02335339
      2.14000000	      0.00373818	      0.01176652	      0.02340299
      2.15000000	      0.00375439	      0.01179201	      0.02381921
      2.16000000	      0.00376217	      0.01180422	      0.02403546
      2.17000000	      0.00373040	      0.01175428	      0.02415672
      2.18000000	      0.00372706	      0.01174901	      0.02432285
      2.19000000	      0.00372239	      0.01174164	      0.02448215
      2.20000000	      0.00368399	      0.01168093	      0.02501312
      2.21000000	      0.00365763	      0.01163907	      0.02506417
      2.22000000	      0.00363334	      0.01160035	      0.02512959
      2.23000000	      0.00359499	      0.01153897	      0.02515018
      2.24000000	      0.00355668	      0.01147732	      0.02509771
      2.25000000	      0.00352030	      0.01141847	      0.02491030
      2.26000000	      0.00348856	      0.01136687	      0.02456700
      2.27000000	      0.00343859	      0.01128518	      0.02434854
      2.28000000	      0.00340130	      0.01122382	      0.02406625
      2.29000000	      0.00337308	      0.01117715	      0.02368913
      2.30000000	      0.00335588	      0.01114863	      0.02334677
      2.31000000	      0.00334302	      0.01112725	      0.02310879
      2.32000000	      0.00334513	      0.01113076	      0.02303259
      2.33000000	      0.00334625	      0.01113262	      0.02265696
      2.34000000	      0.00336081	      0.01115681	      0.02263044
      2.35000000	      0.00335604	      0.01114890	      0.02279198
      2.36000000	      0.00340727	      0.01123367	      0.02244570
      2.37000000	      0.00338979	      0.01120481	      0.02326762
      2.38000000	      0.00339169	      0.01120794	      0.02346957
      2.39000000	      0.00343520	      0.01127962	      0.02344453
      2.40000000	      0.00343067	      0.01127217	      0.02361151
      2.41000000	      0.00342479	      0.01126251	      0.02363528
      2.42000000	      0.00341405	      0.01124483	      0.02338140
      2.43000000	      0.00338824	      0.01120225	      0.02297189
      2.44000000	      0.00334967	      0.01113830	      0.02235812
      2.45000000	      0.00330363	      0.01106149	      0.02146823
      2.46000000	      0.00322301	      0.01092569	      0.02075938
      2.47000000	      0.00315391	      0.01080794	      0.01978146
      2.48000000	      0.00307619	      0.01067394	      0.01999460
      2.49000000	      0.00303225	      0.01059743	      0.02011439
      2.50000000	      0.00300332	      0.01054676	      0.01991192
      2.51000000	      0.00299656	      0.01053488	      0.02036967
      2.52000000	      0.00297918	      0.01050429	      0.02047075
      2.53000000	      0.00299628	      0.01053439	      0.02049402
      2.54000000	      0.00302005	      0.01057610	      0.02029914
      2.55000000	      0.00304335	      0.01061681	      0.02050980
      2.56000000	      0.00306067	      0.01064698	      0.02024538
      2.57000000	      0.00308404	      0.01068755	      0.02010925
      2.58000000	      0.00309767	      0.01071114	      0.02029248
      2.59000000	      0.00311200	      0.01073589	      0.02013968
      2.60000000	      0.00316655	      0.01082958	      0.01979905
      2.61000000	      0.00319642	      0.01088053	      0.01981565
      2.62000000	      0.00324180	      0.01095749	      0.01965817
      2.63000000	      0.00328310	      0.01102707	      0.01993171
      2.64000000	      0.00330911	      0.01107067	      0.01987413
      2.65000000	      0.00333373	      0.01111177	      0.01997802
      2.66000000	      0.00335219	      0.01114249	      0.01998983
      2.67000000	      0.00336154	      0.01115803	      0.01997743
      2.68000000	      0.00339346	      0.01121088	      0.02007504
      2.69000000	      0.00342953	      0.01127029	      0.02002207
      2.70000000	      0.00347423	      0.01134351	      0.01998069
      2.71000000	      0.00351477	      0.01140950	      0.01988141
      2.72000000	      0.00355528	      0.01147506	      0.01970038
      2.73000000	      0.00358919	      0.01152965	      0.01949009
      2.74000000	      0.00361504	      0.01157110	      0.01946603
      2.75000000	      0.00364199	      0.01161415	      0.01924704
      2.76000000	      0.00367863	      0.01167243	      0.01956579
      2.77000000	      0.00372238	      0.01174164	      0.02028409
      2.78000000	      0.00376849	      0.01181412	      0.02132716
      2.79000000	      0.00383558	      0.01191884	      0.02203056
      2.80000000	      0.00389954	      0.01201779	      0.02323788
      2.81000000	      0.00397791	      0.01213796	      0.02390158
      2.82000000	      0.00406135	      0.01226460	      0.02494602
      2.83000000	      0.00414971	      0.01239730	      0.02616161
      2.84000000	      0.00423819	      0.01252877	      0.02734232
      2.85000000	      0.00433544	      0.01267169	      0.02900666
      2.86000000	      0.00444546	      0.01283147	      0.02978823
      2.87000000	      0.00454093	      0.01296852	      0.03109378
      2.88000000	      0.00465130	      0.01312518	      0.03225746
      2.89000000	      0.00475477	      0.01327037	      0.03351165
      2.90000000	      0.00487678	      0.01343955	      0.03447076
      2.91000000	      0.00497751	      0.01357764	      0.03551629
      2.92000000	      0.00508918	      0.01372909	      0.03644293
      2.93000000	      0.00519389	      0.01386962	      0.03730563
      2.94000000	      0.00532308	      0.01404105	      0.03795289
      2.95000000	      0.00543897	      0.01419307	      0.03861814
      2.96000000	      0.00554032	      0.01432469	      0.03954917
      2.97000000	      0.00567339	      0.01449570	      0.03980296
      2.98000000	      0.00578871	      0.01464230	      0.04047217
      2.99000000	      0.00590810	      0.01479252	      0.04105977
      3.00000000	      0.00604661	      0.01496491	      0.04147788
      3.01000000	      0.00618080	      0.01513005	      0.04199964
      3.02000000	      0.00631025	      0.01528767	      0.04258779
      3.03000000	      0.00646831	      0.01547795	      0.04321648
      3.04000000	      0.00661453	      0.01565191	      0.04380389
      3.05000000	      0.00676150	      0.01582486	      0.04457836
      3.06000000	      0.00689518	      0.01598052	      0.04539630
      3.07000000	      0.00702282	      0.01612775	      0.04632673
      3.08000000	      0.00716300	      0.01628791	      0.04710532
      3.09000000	      0.00738281	      0.01653594	      0.04711987
      3.10000000	      0.00740140	      0.01655675	      0.04843691
      3.11000000	      0.00750507	      0.01667230	      0.04875808
      3.12000000	      0.00762322	      0.01680302	      0.04881532
      3.13000000	      0.00770911	      0.01689742	      0.04864240
      3.14000000	      0.00757621	      0.01675113	      0.04903780
      3.15000000	      0.00756188	      0.01673528	      0.04855948
      3.16000000	      0.00748360	      0.01664843	      0.04807910
      3.17000000	      0.00746546	      0.01662825	      0.04694853
      3.18000000	      0.00729517	      0.01643750	      0.04633103
      3.19000000	      0.00717772	      0.01630465	      0.04523214
      3.20000000	      0.00706293	      0.01617375	      0.04387822
      3.21000000	      0.00695444	      0.01604905	      0.04242587
      3.22000000	      0.00682707	      0.01590139	      0.04089360
      3.23000000	      0.00674945	      0.01581074	      0.03924235
      3.24000000	      0.00665547	      0.01570029	      0.03752124
      3.25000000	      0.00659059	      0.01562357	      0.03583518
      3.26000000	      0.00652895	      0.01555033	      0.03401646
      3.27000000	      0.00648478	      0.01549764	      0.03228654
      3.28000000	      0.00646260	      0.01547112	      0.03321518
      3.29000000	      0.00641379	      0.01541259	      0.03374229
      3.30000000	      0.00633378	      0.01531615	      0.03315362
      3.31000000	      0.00625085	      0.01521555	      0.03300893
      3.32000000	      0.00614730	      0.01508899	      0.03276187
      3.33000000	      0.00603046	      0.01494491	      0.03187266
      3.34000000	      0.00590083	      0.01478341	      0.03092403
      3.35000000	      0.00574971	      0.01459288	      0.02957080
      3.36000000	      0.00563095	      0.01444139	      0.02819269
      3.37000000	      0.00551412	      0.01429078	      0.02650006
      3.38000000	      0.00541774	      0.01416535	      0.02522295
      3.39000000	      0.00534087	      0.01406450	      0.02406748
      3.40000000	      0.00526997	      0.01397083	      0.02385829
      3.41000000	      0.00520745	      0.01388771	      0.02360874
      3.42000000	      0.00515071	      0.01381184	      0.02347739
      3.43000000	      0.00508661	      0.01372564	      0.02374414
      3.44000000	      0.00504031	      0.01366302	      0.02323117
      3.45000000	      0.00500151	      0.01361034	      0.02340514
      3.46000000	      0.00496329	      0.01355823	      0.02261668
      3.47000000	      0.00493286	      0.01351660	      0.02288009
      3.48000000	      0.00491260	      0.01348881	      0.02368241
      3.49000000	      0.00487878	      0.01344230	      0.02380343
      3.50000000	      0.00483245	      0.01337833	      0.02406236
      3.51000000	      0.00477666	      0.01330088	      0.02393159
      3.52000000	      0.00472948	      0.01323502	      0.02334094
      3.53000000	      0.00464254	      0.01311282	      0.02328213
      3.54000000	      0.00459058	      0.01303923	      0.02268853
      3.55000000	      0.00450566	      0.01291806	      0.02245711
      3.56000000	      0.00446813	      0.01286414	      0.02219362
      3.57000000	      0.00439573	      0.01275950	      0.02189472
      3.58000000	      0.00436456	      0.01271417	      0.02176603
      3.59000000	      0.00432609	      0.01265802	      0.02178747
      3.60000000	      0.00431338	      0.01263941	      0.02213902
      3.61000000	      0.00428341	      0.01259543	      0.02203537
      3.62000000	      0.00426284	      0.01256515	      0.02238974
      3.63000000	      0.00425065	      0.01254717	      0.02279653
      3.64000000	      0.00423052	      0.01251743	      0.02301664
      3.65000000	      0.00417929	      0.01244141	      0.02274272
      3.66000000	      0.00412985	      0.01236760	      0.02253755
      3.67000000	      0.00406780	      0.01227433	      0.02207396
      3.68000000	      0.00401479	      0.01219409	      0.02153825
      3.69000000	      0.00394783	      0.01209197	      0.02154607
      3.70000000	      0.00387159	      0.01197466	      0.02145354
      3.71000000	      0.00380880	      0.01187715	      0.02112772
      3.72000000	      0.00373716	      0.01176492	      0.02107277
      3.73000000	      0.00369518	      0.01169866	      0.02066550
      3.74000000	      0.00364643	      0.01162123	      0.02045713
      3.75000000	      0.00362828	      0.01159227	      0.02053891
      3.76000000	      0.00360478	      0.01155467	      0.01986482
      3.77000000	      0.00361283	      0.01156756	      0.01995747
      3.78000000	      0.00361575	      0.01157223	      0.01948674
      3.79000000	      0.00364409	      0.01161750	      0.01944912
      3.80000000	      0.00368574	      0.01168369	      0.01968133
      3.81000000	      0.00374767	      0.01178144	      0.01986945
      3.82000000	      0.00383191	      0.01191312	      0.02021985
      3.83000000	      0.00394469	      0.01208717	      0.02057344
      3.84000000	      0.00404988	      0.01224727	      0.02183298
      3.85000000	      0.00417189	      0.01243038	      0.02374955
      3.86000000	      0.00428715	      0.01260093	      0.02553311
      3.87000000	      0.00440557	      0.01277378	      0.02722924
      3.88000000	      0.00449168	      0.01289801	      0.02855109
      3.89000000	      0.00455918	      0.01299456	      0.02961469
      3.90000000	      0.00456213	      0.01299876	      0.02972817
      3.91000000	      0.00454107	      0.01296872	      0.02984295
      3.92000000	      0.00446881	      0.01286513	      0.02940018
      3.93000000	      0.00436316	      0.01271214	      0.02819544
      3.94000000	      0.00419939	      0.01247128	      0.02626401
      3.95000000	      0.00401792	      0.01219884	      0.02403196
      3.96000000	      0.00386691	      0.01196741	      0.02219843
      3.97000000	      0.00371809	      0.01173486	      0.02194704
      3.98000000	      0.00358357	      0.01152062	      0.02158634
      3.99000000	      0.00349143	      0.01137155	      0.02095963
      4.00000000	      0.00341442	      0.01124544	      0.02053692
      4.01000000	      0.00335007	      0.01113898	      0.02004032
      4.02000000	      0.00330596	      0.01106539	      0.01957558
      4.03000000	      0.00326620	      0.01099865	      0.01934803
      4.04000000	      0.00323368	      0.01094375	      0.01914855
      4.05000000	      0.00323489	      0.01094580	      0.01922512
      4.06000000	      0.00325086	      0.01097279	      0.01958621
      4.07000000	      0.00327097	      0.01100668	      0.02015646
      4.08000000	      0.00330150	      0.01105794	      0.02051655
      4.09000000	      0.00330417	      0.01106240	      0.02086814
      4.10000000	      0.00333170	      0.01110839	      0.02102281
      4.11000000	      0.00333535	      0.01111448	      0.02141367
      4.12000000	      0.00333375	      0.01111181	      0.02135781
      4.13000000	      0.00331761	      0.01108488	      0.02167718
      4.14000000	      0.00327734	      0.01101739	      0.02166815
      4.15000000	      0.00326467	      0.01099607	      0.02137093
      4.16000000	      0.00325157	      0.01097399	      0.02100312
      4.17000000	      0.00322819	      0.01093447	      0.02111874
      4.18000000	      0.00322278	      0.01092531	      0.02078345
      4.19000000	      0.00322499	      0.01092904	      0.02048419
      4.20000000	      0.00322240	      0.01092466	      0.01988428
      4.21000000	      0.00322363	      0.01092674	      0.01974080
      4.22000000	      0.00322425	      0.01092779	      0.01941436
      4.23000000	      0.00322271	      0.01092519	      0.01897058
      4.24000000	      0.00322149	      0.01092311	      0.01890576
      4.25000000	      0.00322140	      0.01092295	      0.01873506
      4.26000000	      0.00321256	      0.01090796	      0.01851116
      4.27000000	      0.00320766	      0.01089965	      0.01841421
      4.28000000	      0.00318682	      0.01086418	      0.01853357
      4.29000000	      0.00317554	      0.01084493	      0.01864769
      4.30000000	      0.00318535	      0.01086166	      0.01885219
      4.31000000	      0.00318033	      0.01085310	      0.01878220
      4.32000000	      0.00320360	      0.01089274	      0.01913306
      4.33000000	      0.00318861	      0.01086722	      0.01901525
      4.34000000	      0.00319923	      0.01088531	      0.01922241
      4.35000000	      0.00320817	      0.01090051	      0.01934373
      4.36000000	      0.00319579	      0.01087946	      0.01919471
      4.37000000	      0.00319579	      0.01087946	      0.01939059
      4.38000000	      0.00318833	      0.01086676	      0.01927574
      4.39000000	      0.00319358	      0.01087569	      0.01953220
      4.40000000	      0.00319031	      0.01087013	      0.01943054
      4.41000000	      0.00319594	      0.01087971	      0.01968887
      4.42000000	      0.00319100	      0.01087130	      0.01965639
      4.43000000	      0.00319589	      0.01087963	      0.01976499
      4.44000000	      0.00321071	      0.01090482	      0.02030651
      4.45000000	      0.00322784	      0.01093388	      0.02044701
      4.46000000	      0.00325703	      0.01098321	      0.02084224
      4.47000000	      0.00329451	      0.01104621	      0.02121839
      4.48000000	      0.00333863	      0.01111993	      0.02172849
      4.49000000	      0.00337977	      0.01118823	      0.02218525
      4.50000000	      0.00343721	      0.01128291	      0.02252969
      4.51000000	      0.00350581	      0.01139495	      0.02287380
      4.52000000	      0.00350556	      0.01139455	      0.02290669
      4.53000000	      0.00352708	      0.01142946	      0.02298967
      4.54000000	      0.00352088	      0.01141941	      0.02287582
      4.55000000	      0.00348786	      0.01136573	      0.02238222
      4.56000000	      0.00345009	      0.01130402	      0.02222229
      4.57000000	      0.00339533	      0.01121397	      0.02191107
      4.58000000	      0.00334535	      0.01113112	      0.02143138
      4.59000000	      0.00329966	      0.01105485	      0.02108237
      4.60000000	      0.00327631	      0.01101566	      0.02109857
      4.61000000	      0.00325355	      0.01097733	      0.02116507
      4.62000000	      0.00323676	      0.01094898	      0.02115202
      4.63000000	      0.00324319	      0.01095985	      0.02136245
      4.64000000	      0.00325920	      0.01098687	      0.02147845
      4.65000000	      0.00329448	      0.01104617	      0.02165003
      4.66000000	      0.00333728	      0.01111769	      0.02206524
      4.67000000	      0.00340663	      0.01123261	      0.02245847
      4.68000000	      0.00347847	      0.01135043	      0.02287389
      4.69000000	      0.00355446	      0.01147374	      0.02372750
      4.70000000	      0.00363370	      0.01160092	      0.02414298
      4.71000000	      0.00372868	      0.01175156	      0.02487513
      4.72000000	      0.00382458	      0.01190173	      0.02573919
      4.73000000	      0.00392800	      0.01206158	      0.02668947
      4.74000000	      0.00404230	      0.01223580	      0.02762758
      4.75000000	      0.00415892	      0.01241105	      0.02861990
      4.76000000	      0.00428361	      0.01259573	      0.03002898
      4.77000000	      0.00438367	      0.01274198	      0.03094405
      4.78000000	      0.00449284	      0.01289967	      0.03196373
      4.79000000	      0.00458472	      0.01303090	      0.03310901
      4.80000000	      0.00468212	      0.01316859	      0.03409512
      4.81000000	      0.00479551	      0.01332710	      0.03493852
      4.82000000	      0.00488118	      0.01344560	      0.03585594
      4.83000000	      0.00496586	      0.01356174	      0.03673328
      4.84000000	      0.00507030	      0.01370361	      0.03716817
      4.85000000	      0.00514314	      0.01380170	      0.03771034
      4.86000000	      0.00522292	      0.01390832	      0.03812288
      4.87000000	      0.00528747	      0.01399400	      0.03847040
      4.88000000	      0.00534212	      0.01406614	      0.03880535
      4.89000000	      0.00538797	      0.01412638	      0.03920624
      4.90000000	      0.00545798	      0.01421786	      0.03940894
      4.91000000	      0.00554614	      0.01433222	      0.03945735
      4.92000000	      0.00561364	      0.01441917	      0.03998476
      4.93000000	      0.00569894	      0.01452831	      0.04049906
      4.94000000	      0.00581092	      0.01467035	      0.04089535
      4.95000000	      0.00592494	      0.01481358	      0.04144143
      4.96000000	      0.00605893	      0.01498014	      0.04199236
      4.97000000	      0.00617121	      0.01511831	      0.04276190
      4.98000000	      0.00630330	      0.01527925	      0.04346669
      4.99000000	      0.00641777	      0.01541737	      0.04425946
      5.00000000	      0.00651574	      0.01553459	      0.04497618
      5.01000000	      0.00664359	      0.01568626	      0.04556283
      5.02000000	      0.00668329	      0.01573307	      0.04606610
      5.03000000	      0.00665138	      0.01569546	      0.04688822
      5.04000000	      0.00670598	      0.01575975	      0.04675282
      5.05000000	      0.00663406	      0.01567500	      0.04673510
      5.06000000	      0.00661457	      0.01565196	      0.04617085
      5.07000000	      0.00641755	      0.01541710	      0.04602007
      5.08000000	      0.00626232	      0.01522950	      0.04519850
      5.09000000	      0.00615325	      0.01509630	      0.04369743
      5.10000000	      0.00602540	      0.01493864	      0.04209841
      5.11000000	      0.00575856	      0.01460410	      0.04083208
      5.12000000	      0.00562663	      0.01443585	      0.03883087
      5.13000000	      0.00550450	      0.01427832	      0.03693049
      5.14000000	      0.00529165	      0.01399953	      0.03522229
      5.15000000	      0.00522379	      0.01390948	      0.03315830
      5.16000000	      0.00516522	      0.01383129	      0.03134419
      5.17000000	      0.00507438	      0.01370913	      0.02961363
      5.18000000	      0.00508007	      0.01371681	      0.02777838
      5.19000000	      0.00504019	      0.01366286	      0.02667117
      5.20000000	      0.00502031	      0.01363589	      0.02742977
      5.21000000	      0.00497487	      0.01357404	      0.02700237
      5.22000000	      0.00491836	      0.01349672	      0.02699102
      5.23000000	      0.00485701	      0.01341228	      0.02705958
      5.24000000	      0.00475637	      0.01327259	      0.02573334
      5.25000000	      0.00467442	      0.01315777	      0.02502932
      5.26000000	      0.00458822	      0.01303587	      0.02410495
      5.27000000	      0.00452015	      0.01293881	      0.02361504
      5.28000000	      0.00443273	      0.01281309	      0.02254768
      5.29000000	      0.00434914	      0.01269170	      0.02250885
      5.30000000	      0.00426341	      0.01256599	      0.02248573
      5.31000000	      0.00417162	      0.01242998	      0.02238921
      5.32000000	      0.00408206	      0.01229583	      0.02220817
      5.33000000	      0.00400406	      0.01217778	      0.02192598
      5.34000000	      0.00394168	      0.01208256	      0.02160059
      5.35000000	      0.00389833	      0.01201594	      0.02139317
      5.36000000	      0.00386928	      0.01197108	      0.02176352
      5.37000000	      0.00385275	      0.01194547	      0.02167618
      5.38000000	      0.00384651	      0.01193579	      0.02195064
      5.39000000	      0.00383681	      0.01192074	      0.02208259
      5.40000000	      0.00382564	      0.01190337	      0.02239028
      5.41000000	      0.00381497	      0.01188676	      0.02281213
      5.42000000	      0.00380883	      0.01187719	      0.02306527
      5.43000000	      0.00380444	      0.01187036	      0.02326907
      5.44000000	      0.00379921	      0.01186218	      0.02354908
      5.45000000	      0.00381696	      0.01188987	      0.02341053
      5.46000000	      0.00378289	      0.01183668	      0.02356107
      5.47000000	      0.00379113	      0.01184957	      0.02317278
      5.48000000	      0.00376475	      0.01180826	      0.02336981
      5.49000000	      0.00373938	      0.01176842	      0.02289508
      5.50000000	      0.00373108	      0.01175534	      0.02257748
      5.51000000	      0.00371745	      0.01173385	      0.02225196
      5.52000000	      0.00370583	      0.01171550	      0.02258441
      5.53000000	      0.00366350	      0.01164839	      0.02211542
      5.54000000	      0.00364453	      0.01161821	      0.02250260
      5.55000000	      0.00360668	      0.01155772	      0.02251514
      5.56000000	      0.00354906	      0.01146503	      0.02189375
      5.57000000	      0.00349521	      0.01137770	      0.02118852
      5.58000000	      0.00344011	      0.01128767	      0.02093615
      5.59000000	      0.00338778	      0.01120149	      0.02045260
      5.60000000	      0.00334877	      0.01113681	      0.02054273
      5.61000000	      0.00330181	      0.01105844	      0.02088899
      5.62000000	      0.00326677	      0.01099962	      0.02087287
      5.63000000	      0.00323523	      0.01094638	      0.02100421
      5.64000000	      0.00321763	      0.01091658	      0.02094388
      5.65000000	      0.00321913	      0.01091912	      0.02129634
      5.66000000	      0.00324044	      0.01095519	      0.02147383
      5.67000000	      0.00321519	      0.01091243	      0.02115967
      5.68000000	      0.00323839	      0.01095173	      0.02091359
      5.69000000	      0.00327914	      0.01102042	      0.02097520
      5.70000000	      0.00335874	      0.01115337	      0.02135221
      5.71000000	      0.00340912	      0.01123671	      0.02144896
      5.72000000	      0.00352424	      0.01142486	      0.02168631
      5.73000000	      0.00360011	      0.01154718	      0.02328608
      5.74000000	      0.00371767	      0.01173420	      0.02492635
      5.75000000	      0.00382203	      0.01189776	      0.02643586
      5.76000000	      0.00393169	      0.01206723	      0.02792816
      5.77000000	      0.00399120	      0.01215822	      0.02862479
      5.78000000	      0.00403054	      0.01221799	      0.02924819
      5.79000000	      0.00404984	      0.01224720	      0.02966135
      5.80000000	      0.00403974	      0.01223193	      0.02950115
      5.81000000	      0.00397737	      0.01213714	      0.02833882
      5.82000000	      0.00391907	      0.01204786	      0.02769203
      5.83000000	      0.00383926	      0.01192455	      0.02629650
      5.84000000	      0.00377910	      0.01183076	      0.02514690
      5.85000000	      0.00371282	      0.01172654	      0.02365141
      5.86000000	      0.00364647	      0.01162130	      0.02223797
      5.87000000	      0.00356736	      0.01149453	      0.02224671
      5.88000000	      0.00351707	      0.01141324	      0.02188447
      5.89000000	      0.00348020	      0.01135325	      0.02164660
      5.90000000	      0.00344551	      0.01129653	      0.02129192
      5.91000000	      0.00340793	      0.01123475	      0.02103364
      5.92000000	      0.00337217	      0.01117566	      0.02070768
      5.93000000	      0.00333776	      0.01111849	      0.02043135
      5.94000000	      0.00331233	      0.01107604	      0.02012440
      5.95000000	      0.00329679	      0.01105004	      0.01970869
      5.96000000	      0.00329114	      0.01104057	      0.01956123
      5.97000000	      0.00331742	      0.01108456	      0.01907130
      5.98000000	      0.00331221	      0.01107585	      0.01964183
      5.99000000	      0.00333057	      0.01110651	      0.02042242
      6.00000000	      0.00335284	      0.01114358	      0.02105477
      6.01000000	      0.00336518	      0.01116407	      0.02136146
      6.02000000	      0.00336634	      0.01116598	      0.02140664
      6.03000000	      0.00335652	      0.01114969	      0.02113151
      6.04000000	      0.00332415	      0.01109579	      0.02049564
      6.05000000	      0.00330491	      0.01106363	      0.01986356
      6.06000000	      0.00327063	      0.01100610	      0.01880846
      6.07000000	      0.00325979	      0.01098786	      0.01805078
      6.08000000	      0.00325917	      0.01098681	      0.01791040
      6.09000000	      0.00322731	      0.01093298	      0.01778061
      6.10000000	      0.00322712	      0.01093266	      0.01780856
      6.11000000	      0.00326126	      0.01099034	      0.01800484
      6.12000000	      0.00322092	      0.01092214	      0.01805173
      6.13000000	      0.00321706	      0.01091561	      0.01832093
      6.14000000	      0.00322734	      0.01093303	      0.01858434
      6.15000000	      0.00317955	      0.01085177	      0.01865234
      6.16000000	      0.00316894	      0.01083366	      0.01893894
      6.17000000	      0.00312709	      0.01076188	      0.01910323
      6.18000000	      0.00310131	      0.01071743	      0.01936736
      6.19000000	      0.00306879	      0.01066109	      0.01959669
      6.20000000	      0.00304176	      0.01061404	      0.01960879
      6.21000000	      0.00302923	      0.01059216	      0.01992344
      6.22000000	      0.00302639	      0.01058718	      0.01999943
      6.23000000	      0.00302728	      0.01058874	      0.02024475
      6.24000000	      0.00303953	      0.01061015	      0.02030846
      6.25000000	      0.00306256	      0.01065026	      0.02053736
      6.26000000	      0.00309361	      0.01070411	      0.02086580
      6.27000000	      0.00313892	      0.01078221	      0.02102989
      6.28000000	      0.00319397	      0.01087636	      0.02124549
      6.29000000	      0.00324607	      0.01096471	      0.02155830
      6.30000000	      0.00330365	      0.01106153	      0.02200580
      6.31000000	      0.00335849	      0.01115295	      0.02236647
