Model Marker Errors from IK
version=1
nRows=632
nColumns=4
inDegrees=no
endheader
time	total_squared_error	marker_error_RMS	marker_error_max
      0.15000000	      0.00526080	      0.01395867	      0.02954518
      0.16000000	      0.00493219	      0.01351569	      0.02763156
      0.17000000	      0.00454121	      0.01296892	      0.02603489
      0.18000000	      0.00424462	      0.01253827	      0.02527490
      0.19000000	      0.00419175	      0.01245993	      0.02552771
      0.20000000	      0.00429014	      0.01260532	      0.02600431
      0.21000000	      0.00447156	      0.01286909	      0.02766225
      0.22000000	      0.00458402	      0.01302990	      0.02886919
      0.23000000	      0.00453925	      0.01296612	      0.02861626
      0.24000000	      0.00433769	      0.01267498	      0.02801911
      0.25000000	      0.00406110	      0.01226423	      0.02594541
      0.26000000	      0.00379439	      0.01185466	      0.02499046
      0.27000000	      0.00361350	      0.01156864	      0.02407312
      0.28000000	      0.00353621	      0.01144424	      0.02393616
      0.29000000	      0.00351643	      0.01141219	      0.02415165
      0.30000000	      0.00352133	      0.01142014	      0.02383084
      0.31000000	      0.00355383	      0.01147271	      0.02399491
      0.32000000	      0.00361817	      0.01157610	      0.02419050
      0.33000000	      0.00364915	      0.01162557	      0.02413115
      0.34000000	      0.00369673	      0.01170111	      0.02436156
      0.35000000	      0.00371848	      0.01173548	      0.02455589
      0.36000000	      0.00369629	      0.01170041	      0.02461254
      0.37000000	      0.00367818	      0.01167172	      0.02409507
      0.38000000	      0.00367509	      0.01166681	      0.02393648
      0.39000000	      0.00364777	      0.01162336	      0.02353714
      0.40000000	      0.00367931	      0.01167351	      0.02339596
      0.41000000	      0.00360637	      0.01155721	      0.02251315
      0.42000000	      0.00358956	      0.01153026	      0.02189052
      0.43000000	      0.00355872	      0.01148061	      0.02089087
      0.44000000	      0.00355138	      0.01146877	      0.02049888
      0.45000000	      0.00358557	      0.01152384	      0.02041973
      0.46000000	      0.00368378	      0.01168059	      0.02074003
      0.47000000	      0.00373357	      0.01175926	      0.02074403
      0.48000000	      0.00379327	      0.01185291	      0.02094672
      0.49000000	      0.00384509	      0.01193359	      0.02143932
      0.50000000	      0.00392697	      0.01205998	      0.02145240
      0.51000000	      0.00397175	      0.01212856	      0.02148740
      0.52000000	      0.00398523	      0.01214912	      0.02115533
      0.53000000	      0.00405688	      0.01225785	      0.02091277
      0.54000000	      0.00415429	      0.01240414	      0.02190870
      0.55000000	      0.00427490	      0.01258291	      0.02275762
      0.56000000	      0.00430082	      0.01262100	      0.02326294
      0.57000000	      0.00429830	      0.01261731	      0.02351759
      0.58000000	      0.00429943	      0.01261896	      0.02374331
      0.59000000	      0.00431069	      0.01263548	      0.02371367
      0.60000000	      0.00429149	      0.01260730	      0.02429316
      0.61000000	      0.00430293	      0.01262409	      0.02387590
      0.62000000	      0.00428894	      0.01260355	      0.02423060
      0.63000000	      0.00431438	      0.01264088	      0.02380442
      0.64000000	      0.00443547	      0.01281704	      0.02546912
      0.65000000	      0.00448633	      0.01289032	      0.02634940
      0.66000000	      0.00462717	      0.01309109	      0.02623067
      0.67000000	      0.00480581	      0.01334140	      0.02796873
      0.68000000	      0.00498088	      0.01358223	      0.02830610
      0.69000000	      0.00503487	      0.01365565	      0.02806561
      0.70000000	      0.00509662	      0.01373913	      0.02773139
      0.71000000	      0.00499139	      0.01359655	      0.02630630
      0.72000000	      0.00474787	      0.01326074	      0.02363176
      0.73000000	      0.00449383	      0.01290109	      0.02124585
      0.74000000	      0.00425529	      0.01255402	      0.02155937
      0.75000000	      0.00416549	      0.01242085	      0.02136011
      0.76000000	      0.00410591	      0.01233170	      0.02175623
      0.77000000	      0.00407863	      0.01229066	      0.02163977
      0.78000000	      0.00415026	      0.01239812	      0.02163436
      0.79000000	      0.00426242	      0.01256453	      0.02235196
      0.80000000	      0.00452701	      0.01294863	      0.02484810
      0.81000000	      0.00480145	      0.01333535	      0.02808207
      0.82000000	      0.00493848	      0.01352430	      0.02659263
      0.83000000	      0.00502942	      0.01364825	      0.02752239
      0.84000000	      0.00507686	      0.01371246	      0.02677948
      0.85000000	      0.00499809	      0.01360567	      0.02597139
      0.86000000	      0.00496230	      0.01355688	      0.02520615
      0.87000000	      0.00490191	      0.01347414	      0.02508153
      0.88000000	      0.00480130	      0.01333513	      0.02488215
      0.89000000	      0.00462169	      0.01308334	      0.02386059
      0.90000000	      0.00456995	      0.01300990	      0.02385306
      0.91000000	      0.00456311	      0.01300016	      0.02417271
      0.92000000	      0.00458243	      0.01302765	      0.02430869
      0.93000000	      0.00458456	      0.01303067	      0.02445979
      0.94000000	      0.00463863	      0.01310729	      0.02487474
      0.95000000	      0.00477005	      0.01329167	      0.02529923
      0.96000000	      0.00479356	      0.01332439	      0.02542356
      0.97000000	      0.00476970	      0.01329118	      0.02560350
      0.98000000	      0.00475957	      0.01327706	      0.02587897
      0.99000000	      0.00469149	      0.01318176	      0.02623738
      1.00000000	      0.00461829	      0.01307852	      0.02635171
      1.01000000	      0.00462901	      0.01309369	      0.02665001
      1.02000000	      0.00468141	      0.01316760	      0.02660339
      1.03000000	      0.00469871	      0.01319190	      0.02672814
      1.04000000	      0.00459188	      0.01304107	      0.02678466
      1.05000000	      0.00456011	      0.01299588	      0.02679944
      1.06000000	      0.00447976	      0.01288088	      0.02666326
      1.07000000	      0.00425578	      0.01255474	      0.02659358
      1.08000000	      0.00427905	      0.01258902	      0.02639402
      1.09000000	      0.00427333	      0.01258061	      0.02635154
      1.10000000	      0.00420739	      0.01248316	      0.02635297
      1.11000000	      0.00410419	      0.01232911	      0.02629174
      1.12000000	      0.00411976	      0.01235248	      0.02633654
      1.13000000	      0.00409174	      0.01231040	      0.02598276
      1.14000000	      0.00401597	      0.01219589	      0.02553117
      1.15000000	      0.00397944	      0.01214029	      0.02530580
      1.16000000	      0.00395308	      0.01210001	      0.02490480
      1.17000000	      0.00392987	      0.01206444	      0.02492972
      1.18000000	      0.00388417	      0.01199408	      0.02433525
      1.19000000	      0.00378106	      0.01183381	      0.02418355
      1.20000000	      0.00371836	      0.01173529	      0.02360847
      1.21000000	      0.00366827	      0.01165597	      0.02310385
      1.22000000	      0.00361751	      0.01157506	      0.02248140
      1.23000000	      0.00356892	      0.01149705	      0.02250455
      1.24000000	      0.00351856	      0.01141566	      0.02149976
      1.25000000	      0.00343693	      0.01128245	      0.02049423
      1.26000000	      0.00336477	      0.01116338	      0.02061576
      1.27000000	      0.00336137	      0.01115774	      0.02071042
      1.28000000	      0.00330261	      0.01105978	      0.02068922
      1.29000000	      0.00331822	      0.01108589	      0.02075802
      1.30000000	      0.00328688	      0.01103342	      0.02092054
      1.31000000	      0.00331711	      0.01108404	      0.02094013
      1.32000000	      0.00320555	      0.01089607	      0.02110690
      1.33000000	      0.00325758	      0.01098412	      0.02139164
      1.34000000	      0.00330933	      0.01107103	      0.02149624
      1.35000000	      0.00339290	      0.01120995	      0.02179615
      1.36000000	      0.00336718	      0.01116738	      0.02202405
      1.37000000	      0.00341217	      0.01124173	      0.02261170
      1.38000000	      0.00352533	      0.01142662	      0.02354643
      1.39000000	      0.00360076	      0.01154822	      0.02446454
      1.40000000	      0.00366713	      0.01165417	      0.02507449
      1.41000000	      0.00375765	      0.01179713	      0.02634188
      1.42000000	      0.00387232	      0.01197578	      0.02719716
      1.43000000	      0.00400408	      0.01217782	      0.02839893
      1.44000000	      0.00411169	      0.01234037	      0.02967882
      1.45000000	      0.00426314	      0.01256560	      0.03110374
      1.46000000	      0.00446623	      0.01286142	      0.03245336
      1.47000000	      0.00458297	      0.01302841	      0.03393765
      1.48000000	      0.00473271	      0.01323954	      0.03537825
      1.49000000	      0.00474844	      0.01326153	      0.03669658
      1.50000000	      0.00478238	      0.01330884	      0.03770252
      1.51000000	      0.00479338	      0.01332414	      0.03832362
      1.52000000	      0.00484276	      0.01339259	      0.03868785
      1.53000000	      0.00492373	      0.01350408	      0.03877756
      1.54000000	      0.00520935	      0.01389025	      0.04016559
      1.55000000	      0.00550656	      0.01428100	      0.04196727
      1.56000000	      0.00584195	      0.01470947	      0.04385947
      1.57000000	      0.00596469	      0.01486319	      0.04422254
      1.58000000	      0.00607916	      0.01500514	      0.04430379
      1.59000000	      0.00625312	      0.01521831	      0.04456903
      1.60000000	      0.00633791	      0.01532114	      0.04490212
      1.61000000	      0.00636241	      0.01535072	      0.04573251
      1.62000000	      0.00619562	      0.01514819	      0.04529563
      1.63000000	      0.00602110	      0.01493331	      0.04496689
      1.64000000	      0.00601573	      0.01492665	      0.04520030
      1.65000000	      0.00607052	      0.01499447	      0.04539864
      1.66000000	      0.00613856	      0.01507826	      0.04559732
      1.67000000	      0.00618166	      0.01513111	      0.04576576
      1.68000000	      0.00613873	      0.01507848	      0.04536456
      1.69000000	      0.00602337	      0.01493613	      0.04435365
      1.70000000	      0.00608486	      0.01501216	      0.04417304
      1.71000000	      0.00613158	      0.01506969	      0.04340874
      1.72000000	      0.00600266	      0.01491043	      0.04247706
      1.73000000	      0.00587232	      0.01474766	      0.04072947
      1.74000000	      0.00556170	      0.01435231	      0.03775542
      1.75000000	      0.00536489	      0.01409609	      0.03590265
      1.76000000	      0.00533736	      0.01405988	      0.03416129
      1.77000000	      0.00534794	      0.01407380	      0.03335065
      1.78000000	      0.00527073	      0.01397184	      0.03199960
      1.79000000	      0.00523956	      0.01393046	      0.03115002
      1.80000000	      0.00521592	      0.01389900	      0.03106479
      1.81000000	      0.00519257	      0.01386785	      0.03051499
      1.82000000	      0.00519624	      0.01387275	      0.03063881
      1.83000000	      0.00487249	      0.01343364	      0.02865320
      1.84000000	      0.00444220	      0.01282676	      0.02589750
      1.85000000	      0.00426802	      0.01257278	      0.02571663
      1.86000000	      0.00415619	      0.01240697	      0.02582208
      1.87000000	      0.00414635	      0.01239228	      0.02567770
      1.88000000	      0.00416866	      0.01242557	      0.02641313
      1.89000000	      0.00411145	      0.01234001	      0.02571746
      1.90000000	      0.00406661	      0.01227254	      0.02534409
      1.91000000	      0.00401277	      0.01219102	      0.02514420
      1.92000000	      0.00399980	      0.01217130	      0.02466374
      1.93000000	      0.00393649	      0.01207460	      0.02464358
      1.94000000	      0.00391024	      0.01203427	      0.02471630
      1.95000000	      0.00390555	      0.01202706	      0.02493554
      1.96000000	      0.00389266	      0.01200719	      0.02508873
      1.97000000	      0.00389742	      0.01201453	      0.02503922
      1.98000000	      0.00383328	      0.01191525	      0.02485369
      1.99000000	      0.00376484	      0.01180841	      0.02451488
      2.00000000	      0.00375638	      0.01179514	      0.02438182
      2.01000000	      0.00373036	      0.01175421	      0.02407007
      2.02000000	      0.00369172	      0.01169317	      0.02398613
      2.03000000	      0.00367324	      0.01166387	      0.02384472
      2.04000000	      0.00361911	      0.01157762	      0.02384026
      2.05000000	      0.00356758	      0.01149490	      0.02389756
      2.06000000	      0.00355378	      0.01147264	      0.02347460
      2.07000000	      0.00353852	      0.01144799	      0.02352335
      2.08000000	      0.00351071	      0.01140290	      0.02278671
      2.09000000	      0.00344497	      0.01129564	      0.02254154
      2.10000000	      0.00347876	      0.01135091	      0.02213661
      2.11000000	      0.00351434	      0.01140881	      0.02197364
      2.12000000	      0.00350335	      0.01139096	      0.02184385
      2.13000000	      0.00349905	      0.01138396	      0.02176697
      2.14000000	      0.00356776	      0.01149519	      0.02161860
      2.15000000	      0.00361010	      0.01156319	      0.02173250
      2.16000000	      0.00362863	      0.01159284	      0.02124071
      2.17000000	      0.00360076	      0.01154823	      0.02153523
      2.18000000	      0.00357924	      0.01151366	      0.02164862
      2.19000000	      0.00354001	      0.01145040	      0.02152650
      2.20000000	      0.00351244	      0.01140572	      0.02127362
      2.21000000	      0.00347364	      0.01134254	      0.02098182
      2.22000000	      0.00347721	      0.01134837	      0.02085003
      2.23000000	      0.00345541	      0.01131274	      0.02081746
      2.24000000	      0.00345517	      0.01131235	      0.02074176
      2.25000000	      0.00344623	      0.01129771	      0.02079718
      2.26000000	      0.00349013	      0.01136943	      0.02132575
      2.27000000	      0.00354582	      0.01145979	      0.02202939
      2.28000000	      0.00354541	      0.01145913	      0.02194471
      2.29000000	      0.00361697	      0.01157419	      0.02206443
      2.30000000	      0.00365761	      0.01163903	      0.02249887
      2.31000000	      0.00376307	      0.01180563	      0.02338725
      2.32000000	      0.00387684	      0.01198276	      0.02380012
      2.33000000	      0.00393439	      0.01207137	      0.02366156
      2.34000000	      0.00395438	      0.01210201	      0.02295632
      2.35000000	      0.00397940	      0.01214023	      0.02228477
      2.36000000	      0.00400653	      0.01218154	      0.02134060
      2.37000000	      0.00401204	      0.01218992	      0.02095256
      2.38000000	      0.00405729	      0.01225846	      0.02140086
      2.39000000	      0.00412179	      0.01235552	      0.02177277
      2.40000000	      0.00418612	      0.01245156	      0.02226099
      2.41000000	      0.00426628	      0.01257021	      0.02259534
      2.42000000	      0.00436135	      0.01270950	      0.02304910
      2.43000000	      0.00444130	      0.01282546	      0.02355705
      2.44000000	      0.00459329	      0.01304308	      0.02370853
      2.45000000	      0.00458589	      0.01303257	      0.02376998
      2.46000000	      0.00465732	      0.01313367	      0.02410292
      2.47000000	      0.00478415	      0.01331131	      0.02506819
      2.48000000	      0.00483848	      0.01338668	      0.02534815
      2.49000000	      0.00486107	      0.01341789	      0.02548649
      2.50000000	      0.00485780	      0.01341337	      0.02592473
      2.51000000	      0.00484965	      0.01340211	      0.02628266
      2.52000000	      0.00487443	      0.01343631	      0.02658964
      2.53000000	      0.00491930	      0.01349801	      0.02710121
      2.54000000	      0.00493197	      0.01351539	      0.02753306
      2.55000000	      0.00489684	      0.01346716	      0.02785424
      2.56000000	      0.00486962	      0.01342968	      0.02811451
      2.57000000	      0.00494868	      0.01353825	      0.02857244
      2.58000000	      0.00496172	      0.01355609	      0.02864795
      2.59000000	      0.00492327	      0.01350345	      0.02853495
      2.60000000	      0.00495183	      0.01354256	      0.02894910
      2.61000000	      0.00494859	      0.01353813	      0.02904433
      2.62000000	      0.00497677	      0.01357662	      0.02862409
      2.63000000	      0.00506012	      0.01368984	      0.02906550
      2.64000000	      0.00517919	      0.01384998	      0.02923167
      2.65000000	      0.00531592	      0.01403160	      0.02926886
      2.66000000	      0.00530826	      0.01402150	      0.02929307
      2.67000000	      0.00529559	      0.01400474	      0.02913271
      2.68000000	      0.00534667	      0.01407213	      0.02893233
      2.69000000	      0.00547350	      0.01423806	      0.02906672
      2.70000000	      0.00451614	      0.01293308	      0.02861333
      2.71000000	      0.00416014	      0.01241286	      0.02871189
      2.72000000	      0.00402979	      0.01221685	      0.02869354
      2.73000000	      0.00401277	      0.01219103	      0.02845674
      2.74000000	      0.00394671	      0.01209027	      0.02794855
      2.75000000	      0.00391484	      0.01204136	      0.02834869
      2.76000000	      0.00387651	      0.01198226	      0.02788348
      2.77000000	      0.00383464	      0.01191737	      0.02752543
      2.78000000	      0.00378006	      0.01183225	      0.02718689
      2.79000000	      0.00373172	      0.01175636	      0.02692876
      2.80000000	      0.00371926	      0.01173671	      0.02663505
      2.81000000	      0.00371883	      0.01173603	      0.02652873
      2.82000000	      0.00369071	      0.01169157	      0.02582967
      2.83000000	      0.00369267	      0.01169468	      0.02538768
      2.84000000	      0.00363982	      0.01161069	      0.02503915
      2.85000000	      0.00359977	      0.01154663	      0.02442676
      2.86000000	      0.00354838	      0.01146392	      0.02399924
      2.87000000	      0.00350891	      0.01139999	      0.02366752
      2.88000000	      0.00352301	      0.01142286	      0.02353654
      2.89000000	      0.00348815	      0.01136620	      0.02289701
      2.90000000	      0.00347411	      0.01134332	      0.02259781
      2.91000000	      0.00346651	      0.01133091	      0.02250218
      2.92000000	      0.00349309	      0.01137425	      0.02211271
      2.93000000	      0.00342103	      0.01125632	      0.02176944
      2.94000000	      0.00335552	      0.01114802	      0.02130637
      2.95000000	      0.00330417	      0.01106239	      0.02130391
      2.96000000	      0.00337520	      0.01118067	      0.02140816
      2.97000000	      0.00343194	      0.01127425	      0.02132629
      2.98000000	      0.00354185	      0.01145336	      0.02224093
      2.99000000	      0.00353524	      0.01144268	      0.02204728
      3.00000000	      0.00354921	      0.01146526	      0.02219931
      3.01000000	      0.00355833	      0.01147998	      0.02269744
      3.02000000	      0.00353108	      0.01143594	      0.02272170
      3.03000000	      0.00356597	      0.01149230	      0.02303053
      3.04000000	      0.00355775	      0.01147904	      0.02314438
      3.05000000	      0.00362694	      0.01159013	      0.02321678
      3.06000000	      0.00384073	      0.01192683	      0.02359069
      3.07000000	      0.00399403	      0.01216252	      0.02457726
      3.08000000	      0.00413898	      0.01238126	      0.02484722
      3.09000000	      0.00415596	      0.01240664	      0.02545227
      3.10000000	      0.00418816	      0.01245460	      0.02640693
      3.11000000	      0.00415394	      0.01240362	      0.02762904
      3.12000000	      0.00417086	      0.01242884	      0.02871206
      3.13000000	      0.00427735	      0.01258652	      0.03025813
      3.14000000	      0.00443003	      0.01280918	      0.03176341
      3.15000000	      0.00455579	      0.01298972	      0.03348270
      3.16000000	      0.00473552	      0.01324347	      0.03512038
      3.17000000	      0.00488763	      0.01345449	      0.03667793
      3.18000000	      0.00494716	      0.01353618	      0.03746504
      3.19000000	      0.00501357	      0.01362673	      0.03850035
      3.20000000	      0.00515248	      0.01381422	      0.03919617
      3.21000000	      0.00522182	      0.01390686	      0.03956406
      3.22000000	      0.00545434	      0.01421311	      0.04070027
      3.23000000	      0.00564386	      0.01445793	      0.04074276
      3.24000000	      0.00586710	      0.01474109	      0.04084765
      3.25000000	      0.00617396	      0.01512168	      0.04146423
      3.26000000	      0.00637127	      0.01536141	      0.04177675
      3.27000000	      0.00638475	      0.01537766	      0.04212797
      3.28000000	      0.00626259	      0.01522983	      0.04227840
      3.29000000	      0.00612864	      0.01506607	      0.04291465
      3.30000000	      0.00603992	      0.01495662	      0.04356586
      3.31000000	      0.00596641	      0.01486533	      0.04366906
      3.32000000	      0.00599126	      0.01489626	      0.04431224
      3.33000000	      0.00608544	      0.01501288	      0.04491959
      3.34000000	      0.00622112	      0.01517932	      0.04526872
      3.35000000	      0.00620931	      0.01516491	      0.04512200
      3.36000000	      0.00611538	      0.01504977	      0.04478861
      3.37000000	      0.00607003	      0.01499387	      0.04439328
      3.38000000	      0.00594448	      0.01483800	      0.04341074
      3.39000000	      0.00587943	      0.01475658	      0.04264824
      3.40000000	      0.00580948	      0.01466854	      0.04088787
      3.41000000	      0.00563523	      0.01444688	      0.03894789
      3.42000000	      0.00562155	      0.01442933	      0.03712095
      3.43000000	      0.00543714	      0.01419069	      0.03434217
      3.44000000	      0.00530626	      0.01401885	      0.03124670
      3.45000000	      0.00513431	      0.01378984	      0.03032658
      3.46000000	      0.00487917	      0.01344284	      0.02931324
      3.47000000	      0.00456330	      0.01300043	      0.02850372
      3.48000000	      0.00440299	      0.01277003	      0.02936125
      3.49000000	      0.00428524	      0.01259811	      0.02961325
      3.50000000	      0.00421567	      0.01249543	      0.03074154
      3.51000000	      0.00411535	      0.01234587	      0.03112228
      3.52000000	      0.00415591	      0.01240655	      0.03223886
      3.53000000	      0.00429951	      0.01261907	      0.03319739
      3.54000000	      0.00438350	      0.01274174	      0.03212239
      3.55000000	      0.00444905	      0.01283665	      0.03064524
      3.56000000	      0.00444292	      0.01282781	      0.02830220
      3.57000000	      0.00428138	      0.01259244	      0.02473410
      3.58000000	      0.00392734	      0.01206056	      0.02332601
      3.59000000	      0.00362305	      0.01158392	      0.02326702
      3.60000000	      0.00342951	      0.01127027	      0.02350198
      3.61000000	      0.00354738	      0.01146231	      0.02385929
      3.62000000	      0.00361646	      0.01157338	      0.02383062
      3.63000000	      0.00374350	      0.01177490	      0.02366348
      3.64000000	      0.00368620	      0.01168444	      0.02338493
      3.65000000	      0.00364035	      0.01161154	      0.02330578
      3.66000000	      0.00356242	      0.01148658	      0.02308684
      3.67000000	      0.00354541	      0.01145912	      0.02329723
      3.68000000	      0.00355945	      0.01148178	      0.02322493
      3.69000000	      0.00357023	      0.01149916	      0.02300393
      3.70000000	      0.00357842	      0.01151235	      0.02269717
      3.71000000	      0.00360603	      0.01155668	      0.02296808
      3.72000000	      0.00367095	      0.01166024	      0.02341201
      3.73000000	      0.00373729	      0.01176512	      0.02374839
      3.74000000	      0.00375295	      0.01178975	      0.02413645
      3.75000000	      0.00371738	      0.01173374	      0.02424668
      3.76000000	      0.00368951	      0.01168967	      0.02405649
      3.77000000	      0.00366311	      0.01164779	      0.02376480
      3.78000000	      0.00361430	      0.01156992	      0.02388459
      3.79000000	      0.00362541	      0.01158769	      0.02408168
      3.80000000	      0.00363814	      0.01160801	      0.02398010
      3.81000000	      0.00362337	      0.01158443	      0.02343523
      3.82000000	      0.00357357	      0.01150454	      0.02319619
      3.83000000	      0.00354272	      0.01145477	      0.02222533
      3.84000000	      0.00349844	      0.01138296	      0.02172608
      3.85000000	      0.00345480	      0.01131175	      0.02143895
      3.86000000	      0.00340106	      0.01122342	      0.02107588
      3.87000000	      0.00338138	      0.01119090	      0.02149664
      3.88000000	      0.00340488	      0.01122971	      0.02243559
      3.89000000	      0.00341344	      0.01124383	      0.02309804
      3.90000000	      0.00340735	      0.01123379	      0.02384880
      3.91000000	      0.00344698	      0.01129894	      0.02452253
      3.92000000	      0.00349580	      0.01137867	      0.02511252
      3.93000000	      0.00349669	      0.01138012	      0.02503604
      3.94000000	      0.00351892	      0.01141623	      0.02444088
      3.95000000	      0.00356891	      0.01149704	      0.02417234
      3.96000000	      0.00352281	      0.01142254	      0.02334551
      3.97000000	      0.00352765	      0.01143038	      0.02281752
      3.98000000	      0.00354784	      0.01146305	      0.02249751
      3.99000000	      0.00354496	      0.01145839	      0.02280616
      4.00000000	      0.00354142	      0.01145267	      0.02286150
      4.01000000	      0.00349951	      0.01138470	      0.02304693
      4.02000000	      0.00348568	      0.01136219	      0.02321050
      4.03000000	      0.00347337	      0.01134211	      0.02348035
      4.04000000	      0.00350911	      0.01140031	      0.02365299
      4.05000000	      0.00345894	      0.01131851	      0.02215622
      4.06000000	      0.00344519	      0.01129601	      0.02165510
      4.07000000	      0.00357989	      0.01151471	      0.02292947
      4.08000000	      0.00373384	      0.01175969	      0.02473678
      4.09000000	      0.00372829	      0.01175095	      0.02350282
      4.10000000	      0.00382574	      0.01190353	      0.02275724
      4.11000000	      0.00395243	      0.01209902	      0.02311048
      4.12000000	      0.00407154	      0.01227997	      0.02339144
      4.13000000	      0.00424641	      0.01254091	      0.02443493
      4.14000000	      0.00440381	      0.01277121	      0.02536514
      4.15000000	      0.00447325	      0.01287152	      0.02552442
      4.16000000	      0.00450281	      0.01291397	      0.02518092
      4.17000000	      0.00449971	      0.01290952	      0.02406459
      4.18000000	      0.00452223	      0.01294180	      0.02309684
      4.19000000	      0.00449137	      0.01289757	      0.02376339
      4.20000000	      0.00454709	      0.01297732	      0.02456055
      4.21000000	      0.00460471	      0.01305928	      0.02503064
      4.22000000	      0.00467729	      0.01316180	      0.02535773
      4.23000000	      0.00481015	      0.01334742	      0.02596256
      4.24000000	      0.00488012	      0.01344415	      0.02668771
      4.25000000	      0.00490039	      0.01347204	      0.02699793
      4.26000000	      0.00492224	      0.01350205	      0.02735509
      4.27000000	      0.00488767	      0.01345454	      0.02727150
      4.28000000	      0.00488920	      0.01345665	      0.02753686
      4.29000000	      0.00490025	      0.01347185	      0.02751240
      4.30000000	      0.00494374	      0.01353150	      0.02748359
      4.31000000	      0.00495847	      0.01355164	      0.02756929
      4.32000000	      0.00501114	      0.01362343	      0.02746025
      4.33000000	      0.00502703	      0.01364501	      0.02734112
      4.34000000	      0.00498832	      0.01359238	      0.02717148
      4.35000000	      0.00492310	      0.01350322	      0.02699508
      4.36000000	      0.00486925	      0.01342917	      0.02699618
      4.37000000	      0.00478456	      0.01331187	      0.02703479
      4.38000000	      0.00478904	      0.01331811	      0.02688871
      4.39000000	      0.00485471	      0.01340910	      0.02704217
      4.40000000	      0.00484068	      0.01338971	      0.02684102
      4.41000000	      0.00483140	      0.01337688	      0.02660625
      4.42000000	      0.00472282	      0.01322570	      0.02643929
      4.43000000	      0.00464728	      0.01311950	      0.02619408
      4.44000000	      0.00458619	      0.01303299	      0.02575302
      4.45000000	      0.00450377	      0.01291536	      0.02559887
      4.46000000	      0.00440393	      0.01277139	      0.02518348
      4.47000000	      0.00436990	      0.01272196	      0.02571385
      4.48000000	      0.00428736	      0.01260124	      0.02590295
      4.49000000	      0.00420053	      0.01247298	      0.02564057
      4.50000000	      0.00410502	      0.01233036	      0.02542902
      4.51000000	      0.00401002	      0.01218684	      0.02529280
      4.52000000	      0.00395342	      0.01210053	      0.02542951
      4.53000000	      0.00385361	      0.01194682	      0.02516547
      4.54000000	      0.00379434	      0.01185458	      0.02492788
      4.55000000	      0.00371150	      0.01172446	      0.02464518
      4.56000000	      0.00374315	      0.01177435	      0.02460632
      4.57000000	      0.00375707	      0.01179621	      0.02446263
      4.58000000	      0.00372386	      0.01174397	      0.02389626
      4.59000000	      0.00367258	      0.01166283	      0.02337904
      4.60000000	      0.00360883	      0.01156115	      0.02290066
      4.61000000	      0.00359637	      0.01154118	      0.02323109
      4.62000000	      0.00353876	      0.01144837	      0.02277861
      4.63000000	      0.00345310	      0.01130896	      0.02228373
      4.64000000	      0.00346728	      0.01133216	      0.02217471
      4.65000000	      0.00339744	      0.01121745	      0.02167830
      4.66000000	      0.00336404	      0.01116218	      0.02092968
      4.67000000	      0.00333673	      0.01111678	      0.02067002
      4.68000000	      0.00335228	      0.01114265	      0.02055177
      4.69000000	      0.00327497	      0.01101341	      0.02022455
      4.70000000	      0.00329131	      0.01104084	      0.02043871
      4.71000000	      0.00328449	      0.01102940	      0.02044428
      4.72000000	      0.00325498	      0.01097975	      0.02060010
      4.73000000	      0.00329539	      0.01104769	      0.02127177
      4.74000000	      0.00336048	      0.01115626	      0.02128255
      4.75000000	      0.00345260	      0.01130814	      0.02174799
      4.76000000	      0.00347643	      0.01134711	      0.02226232
      4.77000000	      0.00344750	      0.01129978	      0.02236660
      4.78000000	      0.00352037	      0.01141858	      0.02304003
      4.79000000	      0.00357923	      0.01151364	      0.02373233
      4.80000000	      0.00359994	      0.01154690	      0.02431149
      4.81000000	      0.00369666	      0.01170099	      0.02531504
      4.82000000	      0.00384050	      0.01192647	      0.02662618
      4.83000000	      0.00393029	      0.01206509	      0.02760771
      4.84000000	      0.00406828	      0.01227505	      0.02874611
      4.85000000	      0.00425720	      0.01255683	      0.03013525
      4.86000000	      0.00448194	      0.01288402	      0.03194431
      4.87000000	      0.00470465	      0.01320024	      0.03364922
      4.88000000	      0.00495583	      0.01354803	      0.03602994
      4.89000000	      0.00506284	      0.01369352	      0.03715195
      4.90000000	      0.00519917	      0.01387666	      0.03787898
      4.91000000	      0.00525853	      0.01395566	      0.03871540
      4.92000000	      0.00535721	      0.01408599	      0.03941232
      4.93000000	      0.00546865	      0.01423174	      0.03979770
      4.94000000	      0.00555115	      0.01433869	      0.04000338
      4.95000000	      0.00566639	      0.01448676	      0.04049195
      4.96000000	      0.00576246	      0.01460905	      0.04123061
      4.97000000	      0.00589722	      0.01477889	      0.04211001
      4.98000000	      0.00595422	      0.01485014	      0.04261243
      4.99000000	      0.00608092	      0.01500731	      0.04327625
      5.00000000	      0.00623344	      0.01519435	      0.04370495
      5.01000000	      0.00635081	      0.01533673	      0.04358550
      5.02000000	      0.00648850	      0.01550209	      0.04349224
      5.03000000	      0.00660976	      0.01564628	      0.04370767
      5.04000000	      0.00663141	      0.01567188	      0.04363212
      5.05000000	      0.00661508	      0.01565257	      0.04368902
      5.06000000	      0.00644669	      0.01545207	      0.04356791
      5.07000000	      0.00636824	      0.01535776	      0.04315952
      5.08000000	      0.00608870	      0.01501691	      0.04237748
      5.09000000	      0.00598062	      0.01488302	      0.04127814
      5.10000000	      0.00600563	      0.01491411	      0.04037968
      5.11000000	      0.00596425	      0.01486264	      0.03868577
      5.12000000	      0.00578409	      0.01463644	      0.03618067
      5.13000000	      0.00567853	      0.01450227	      0.03397718
      5.14000000	      0.00551017	      0.01428567	      0.03187448
      5.15000000	      0.00535492	      0.01408298	      0.03068513
      5.16000000	      0.00533776	      0.01406040	      0.03098637
      5.17000000	      0.00541385	      0.01416026	      0.03266027
      5.18000000	      0.00535311	      0.01408060	      0.03323868
      5.19000000	      0.00504975	      0.01367581	      0.03196852
      5.20000000	      0.00491576	      0.01349315	      0.03092449
      5.21000000	      0.00484501	      0.01339570	      0.03032323
      5.22000000	      0.00493146	      0.01351469	      0.03037810
      5.23000000	      0.00487053	      0.01343094	      0.02999823
      5.24000000	      0.00485154	      0.01340473	      0.02962811
      5.25000000	      0.00471899	      0.01322033	      0.02913147
      5.26000000	      0.00459368	      0.01304363	      0.02866133
      5.27000000	      0.00443496	      0.01281630	      0.02823461
      5.28000000	      0.00428989	      0.01260495	      0.02764632
      5.29000000	      0.00415503	      0.01240525	      0.02694716
      5.30000000	      0.00409156	      0.01231013	      0.02645393
      5.31000000	      0.00404914	      0.01224614	      0.02612227
      5.32000000	      0.00391142	      0.01203609	      0.02582357
      5.33000000	      0.00382499	      0.01190237	      0.02541411
      5.34000000	      0.00376906	      0.01181503	      0.02518372
      5.35000000	      0.00376174	      0.01180354	      0.02500164
      5.36000000	      0.00371375	      0.01172802	      0.02466425
      5.37000000	      0.00371023	      0.01172246	      0.02448866
      5.38000000	      0.00368902	      0.01168889	      0.02375811
      5.39000000	      0.00374607	      0.01177894	      0.02418654
      5.40000000	      0.00381244	      0.01188282	      0.02430648
      5.41000000	      0.00377785	      0.01182879	      0.02433386
      5.42000000	      0.00383467	      0.01191742	      0.02435646
      5.43000000	      0.00382889	      0.01190843	      0.02426373
      5.44000000	      0.00381985	      0.01189436	      0.02402103
      5.45000000	      0.00380340	      0.01186872	      0.02406693
      5.46000000	      0.00373821	      0.01176657	      0.02396060
      5.47000000	      0.00374077	      0.01177060	      0.02392345
      5.48000000	      0.00377954	      0.01183143	      0.02400992
      5.49000000	      0.00372365	      0.01174364	      0.02390307
      5.50000000	      0.00372615	      0.01174758	      0.02360483
      5.51000000	      0.00371323	      0.01172719	      0.02352690
      5.52000000	      0.00368645	      0.01168483	      0.02330881
      5.53000000	      0.00365779	      0.01163931	      0.02301126
      5.54000000	      0.00364607	      0.01162066	      0.02314779
      5.55000000	      0.00365640	      0.01163710	      0.02295033
      5.56000000	      0.00364261	      0.01161514	      0.02336061
      5.57000000	      0.00364251	      0.01161498	      0.02344393
      5.58000000	      0.00363089	      0.01159644	      0.02357141
      5.59000000	      0.00367151	      0.01166112	      0.02376853
      5.60000000	      0.00373862	      0.01176721	      0.02345722
      5.61000000	      0.00378295	      0.01183678	      0.02350966
      5.62000000	      0.00382120	      0.01189647	      0.02356999
      5.63000000	      0.00384695	      0.01193649	      0.02369121
      5.64000000	      0.00392566	      0.01205797	      0.02341889
      5.65000000	      0.00392106	      0.01205091	      0.02358524
      5.66000000	      0.00389576	      0.01201197	      0.02302544
      5.67000000	      0.00389981	      0.01201822	      0.02411174
      5.68000000	      0.00395026	      0.01209570	      0.02448675
      5.69000000	      0.00399379	      0.01216217	      0.02456034
      5.70000000	      0.00404994	      0.01224736	      0.02432418
      5.71000000	      0.00402817	      0.01221439	      0.02360550
      5.72000000	      0.00404840	      0.01224503	      0.02363074
      5.73000000	      0.00411284	      0.01234210	      0.02375026
      5.74000000	      0.00413960	      0.01238218	      0.02372086
      5.75000000	      0.00421595	      0.01249585	      0.02382282
      5.76000000	      0.00423540	      0.01252465	      0.02394560
      5.77000000	      0.00428921	      0.01260396	      0.02421390
      5.78000000	      0.00434213	      0.01268147	      0.02450235
      5.79000000	      0.00443101	      0.01281060	      0.02463466
      5.80000000	      0.00444167	      0.01282600	      0.02445834
      5.81000000	      0.00447888	      0.01287962	      0.02406592
      5.82000000	      0.00446852	      0.01286471	      0.02329788
      5.83000000	      0.00443871	      0.01282173	      0.02275183
      5.84000000	      0.00442251	      0.01279831	      0.02247803
      5.85000000	      0.00439202	      0.01275411	      0.02208804
      5.86000000	      0.00440690	      0.01277569	      0.02243422
      5.87000000	      0.00438164	      0.01273903	      0.02280456
      5.88000000	      0.00443263	      0.01281294	      0.02289951
      5.89000000	      0.00444367	      0.01282889	      0.02307046
      5.90000000	      0.00449961	      0.01290938	      0.02331360
      5.91000000	      0.00443672	      0.01281886	      0.02291609
      5.92000000	      0.00440575	      0.01277404	      0.02292190
      5.93000000	      0.00444961	      0.01283746	      0.02295183
      5.94000000	      0.00447743	      0.01287752	      0.02347472
      5.95000000	      0.00450088	      0.01291121	      0.02347736
      5.96000000	      0.00446458	      0.01285903	      0.02376366
      5.97000000	      0.00444284	      0.01282769	      0.02373013
      5.98000000	      0.00441523	      0.01278777	      0.02363186
      5.99000000	      0.00439186	      0.01275388	      0.02377132
      6.00000000	      0.00438349	      0.01274173	      0.02415874
      6.01000000	      0.00434679	      0.01268828	      0.02429004
      6.02000000	      0.00427323	      0.01258045	      0.02444932
      6.03000000	      0.00422078	      0.01250301	      0.02458965
      6.04000000	      0.00418322	      0.01244725	      0.02470673
      6.05000000	      0.00417342	      0.01243266	      0.02489202
      6.06000000	      0.00416985	      0.01242734	      0.02497989
      6.07000000	      0.00409896	      0.01232126	      0.02490980
      6.08000000	      0.00404954	      0.01224675	      0.02492454
      6.09000000	      0.00401691	      0.01219731	      0.02487394
      6.10000000	      0.00398014	      0.01214136	      0.02488718
      6.11000000	      0.00393526	      0.01207271	      0.02495216
      6.12000000	      0.00389778	      0.01201508	      0.02457608
      6.13000000	      0.00384947	      0.01194039	      0.02449446
      6.14000000	      0.00381045	      0.01187972	      0.02444798
      6.15000000	      0.00378080	      0.01183341	      0.02444966
      6.16000000	      0.00375708	      0.01179624	      0.02451333
      6.17000000	      0.00377471	      0.01182388	      0.02445544
      6.18000000	      0.00376357	      0.01180642	      0.02404444
      6.19000000	      0.00378178	      0.01183495	      0.02416337
      6.20000000	      0.00375128	      0.01178713	      0.02394907
      6.21000000	      0.00373206	      0.01175689	      0.02361631
      6.22000000	      0.00371087	      0.01172347	      0.02368632
      6.23000000	      0.00370727	      0.01171777	      0.02357419
      6.24000000	      0.00368227	      0.01167821	      0.02338166
      6.25000000	      0.00368308	      0.01167948	      0.02335440
      6.26000000	      0.00361657	      0.01157354	      0.02296113
      6.27000000	      0.00357936	      0.01151386	      0.02268208
      6.28000000	      0.00357771	      0.01151120	      0.02251815
      6.29000000	      0.00357774	      0.01151124	      0.02261146
      6.30000000	      0.00356676	      0.01149357	      0.02226784
      6.31000000	      0.00356325	      0.01148791	      0.02197100
      6.32000000	      0.00352264	      0.01142227	      0.02161569
      6.33000000	      0.00355965	      0.01148212	      0.02135523
      6.34000000	      0.00354332	      0.01145575	      0.02121381
      6.35000000	      0.00352004	      0.01141804	      0.02112178
      6.36000000	      0.00342629	      0.01126497	      0.02039071
      6.37000000	      0.00340607	      0.01123168	      0.02039814
      6.38000000	      0.00337473	      0.01117989	      0.01991294
      6.39000000	      0.00340139	      0.01122397	      0.01975169
      6.40000000	      0.00337982	      0.01118832	      0.01995897
      6.41000000	      0.00332674	      0.01110011	      0.01983888
      6.42000000	      0.00335322	      0.01114420	      0.01991892
      6.43000000	      0.00338751	      0.01120104	      0.01994077
      6.44000000	      0.00341069	      0.01123930	      0.02045918
      6.45000000	      0.00348549	      0.01136187	      0.02136350
      6.46000000	      0.00354652	      0.01146092	      0.02187909
