global_final_errors.sto
version=1
nRows=271
nColumns=28
inDegrees=no
endheader
time	R_Asis	L_Asis	R_Psis	L_Psis	Sacral	R_Thigh_Lateral	R_Knee_Lateral	R_Shank_Lateral	R_Ankle_Lateral	R_Heel	R_Toe	L_Thigh_Lateral	L_Knee_Lateral	L_Shank_Lateral	L_Ankle_Lateral	L_Heel	L_Toe	R_Shoulder	L_Shoulder	C7	J_Notch	Thoracic	Sternum	R_Elbow	L_Elbow	R_Wrist	L_Wrist
0.40000000	0.00503760	0.01087920	0.00188910	0.00586705	0.00359773	0.01137847	0.01350052	0.01522134	0.00237606	0.00339904	0.00153610	0.02157031	0.00784088	0.01679512	0.00373916	0.00432329	0.00478289	0.00195754	0.00328020	0.00358374	0.00168008	0.00334690	0.00367032	0.00132919	0.00307803	0.00228052	0.00130848
0.41000000	0.00502931	0.01081250	0.00184682	0.00564463	0.00355380	0.01141931	0.01419048	0.01516978	0.00235336	0.00317126	0.00198660	0.02142966	0.00728307	0.01709011	0.00403517	0.00452926	0.00507296	0.00183162	0.00333431	0.00324561	0.00162715	0.00302424	0.00375846	0.00116017	0.00322622	0.00227013	0.00145448
0.42000000	0.00486519	0.01051387	0.00181335	0.00528014	0.00340721	0.01141876	0.01477683	0.01516753	0.00231873	0.00291714	0.00238279	0.02061395	0.00663127	0.01719958	0.00424340	0.00474634	0.00530187	0.00176329	0.00333227	0.00297228	0.00165227	0.00267533	0.00382605	0.00122240	0.00332867	0.00193529	0.00151698
0.43000000	0.00475381	0.01107107	0.00180859	0.00488673	0.00327169	0.01137610	0.01493118	0.01511051	0.00216701	0.00313462	0.00182544	0.01923718	0.00711350	0.01608514	0.00455017	0.00487415	0.00542396	0.00180472	0.00357346	0.00266113	0.00146905	0.00238379	0.00357084	0.00109141	0.00360824	0.00178637	0.00164140
0.44000000	0.00454039	0.01077713	0.00167427	0.00437455	0.00297697	0.01119653	0.01508315	0.01498446	0.00196210	0.00316346	0.00168312	0.01738730	0.00694033	0.01527068	0.00458195	0.00516796	0.00529153	0.00177040	0.00366914	0.00231463	0.00136277	0.00208200	0.00350253	0.00113130	0.00379238	0.00155337	0.00180864
0.45000000	0.00439413	0.01078309	0.00171493	0.00409544	0.00289705	0.01094578	0.01500346	0.01479554	0.00165320	0.00325533	0.00146036	0.01577799	0.00631440	0.01386873	0.00441143	0.00484615	0.00511810	0.00178382	0.00377043	0.00209060	0.00124497	0.00187197	0.00344859	0.00111749	0.00402474	0.00132011	0.00196160
0.46000000	0.00417140	0.01010276	0.00149756	0.00347456	0.00248760	0.01065094	0.01516274	0.01456310	0.00131254	0.00329386	0.00165312	0.01277131	0.00590937	0.01302276	0.00404678	0.00491364	0.00533801	0.00179859	0.00382020	0.00179526	0.00114459	0.00171613	0.00346537	0.00145248	0.00413715	0.00089259	0.00232647
0.47000000	0.00421956	0.01038198	0.00179615	0.00367575	0.00277749	0.01055070	0.01481576	0.01391986	0.00094710	0.00317443	0.00129799	0.01185404	0.00521143	0.01035437	0.00368761	0.00397528	0.00407738	0.00204836	0.00398324	0.00177531	0.00094180	0.00163126	0.00325631	0.00149060	0.00447262	0.00074296	0.00232720
0.48000000	0.00433538	0.00974703	0.00173062	0.00327051	0.00252588	0.01042132	0.01502885	0.01329092	0.00058509	0.00305415	0.00130586	0.00900605	0.00548161	0.00877765	0.00332704	0.00403724	0.00341161	0.00224141	0.00401082	0.00156878	0.00078699	0.00161452	0.00312471	0.00170850	0.00462306	0.00042928	0.00247099
0.49000000	0.00444300	0.00921474	0.00176877	0.00325675	0.00249644	0.01037135	0.01498782	0.01251574	0.00034297	0.00288004	0.00124666	0.00763424	0.00493375	0.00687006	0.00288095	0.00326897	0.00267632	0.00255905	0.00395056	0.00149317	0.00063585	0.00151180	0.00298598	0.00203178	0.00469828	0.00016949	0.00260311
0.50000000	0.00468356	0.00894699	0.00184664	0.00332493	0.00254270	0.01018129	0.01475026	0.01159296	0.00062461	0.00270534	0.00129770	0.00683380	0.00413151	0.00511362	0.00265711	0.00220949	0.00182060	0.00272338	0.00396448	0.00142356	0.00043485	0.00151600	0.00274051	0.00216301	0.00474060	0.00029575	0.00276125
0.51000000	0.00458505	0.00875844	0.00172756	0.00306609	0.00223552	0.01017524	0.01443755	0.01076758	0.00126962	0.00316242	0.00085132	0.00531652	0.00419012	0.00409647	0.00257235	0.00190384	0.00194908	0.00287356	0.00362312	0.00119634	0.00031663	0.00143960	0.00250900	0.00227726	0.00439962	0.00065296	0.00289309
0.52000000	0.00490394	0.00840903	0.00184778	0.00330458	0.00234515	0.01039908	0.01395345	0.00946011	0.00170690	0.00246774	0.00107800	0.00500927	0.00341197	0.00314927	0.00250588	0.00164282	0.00095147	0.00317477	0.00342753	0.00127944	0.00015735	0.00133731	0.00224374	0.00249254	0.00432433	0.00069629	0.00277975
0.53000000	0.00480056	0.00850978	0.00177210	0.00312364	0.00210623	0.01051075	0.01302293	0.00871736	0.00243583	0.00308154	0.00105326	0.00424302	0.00348609	0.00260443	0.00248039	0.00148839	0.00092555	0.00323081	0.00306502	0.00116328	0.00020655	0.00135238	0.00189512	0.00244963	0.00395997	0.00093219	0.00267991
0.54000000	0.00506034	0.00834547	0.00186273	0.00322396	0.00217056	0.01089324	0.01199080	0.00704358	0.00302159	0.00251040	0.00091475	0.00382354	0.00334680	0.00263670	0.00226207	0.00178953	0.00076934	0.00336348	0.00277345	0.00126769	0.00019322	0.00127828	0.00173386	0.00250825	0.00370082	0.00108428	0.00264689
0.55000000	0.00487626	0.00836265	0.00178027	0.00304984	0.00191754	0.01111009	0.01084922	0.00617848	0.00366048	0.00310061	0.00092356	0.00391254	0.00349082	0.00250923	0.00211706	0.00192332	0.00054682	0.00327378	0.00229344	0.00118648	0.00032475	0.00126558	0.00145949	0.00233938	0.00319626	0.00111230	0.00245792
0.56000000	0.00483773	0.00810869	0.00174227	0.00305245	0.00176291	0.01130647	0.00972306	0.00479935	0.00410630	0.00291415	0.00098043	0.00366870	0.00343733	0.00296290	0.00187422	0.00204139	0.00080417	0.00326068	0.00183744	0.00123183	0.00043486	0.00127148	0.00109321	0.00222071	0.00266179	0.00125650	0.00229680
0.57000000	0.00469733	0.00786381	0.00168776	0.00294957	0.00157294	0.01153998	0.00814305	0.00392159	0.00463079	0.00349817	0.00118055	0.00372476	0.00366088	0.00254550	0.00172404	0.00202842	0.00079260	0.00312742	0.00138638	0.00128670	0.00051319	0.00128505	0.00086074	0.00202779	0.00221090	0.00125947	0.00205394
0.58000000	0.00458500	0.00749838	0.00174136	0.00286378	0.00137897	0.01159376	0.00652610	0.00296983	0.00510442	0.00389112	0.00195564	0.00322362	0.00373954	0.00197581	0.00154189	0.00214313	0.00070082	0.00289886	0.00093460	0.00132569	0.00069848	0.00129504	0.00046692	0.00171075	0.00169751	0.00124718	0.00177663
0.59000000	0.00451899	0.00663229	0.00187621	0.00279407	0.00120870	0.01152876	0.00518874	0.00200817	0.00555048	0.00434267	0.00173776	0.00228472	0.00378604	0.00146958	0.00147537	0.00186577	0.00102291	0.00272578	0.00045067	0.00135798	0.00065669	0.00132411	0.00032030	0.00146720	0.00115986	0.00128023	0.00150670
0.60000000	0.00448300	0.00612322	0.00194621	0.00299673	0.00125625	0.01072428	0.00355729	0.00167769	0.00569884	0.00378184	0.00112997	0.00198836	0.00330413	0.00069861	0.00148995	0.00162477	0.00084778	0.00266414	0.00046158	0.00156188	0.00078572	0.00134497	0.00030440	0.00123606	0.00051464	0.00143838	0.00130930
0.61000000	0.00430808	0.00548875	0.00196524	0.00300092	0.00131084	0.01002502	0.00169856	0.00237708	0.00595062	0.00375251	0.00094719	0.00199307	0.00313628	0.00086619	0.00151509	0.00152546	0.00053605	0.00249581	0.00077394	0.00171854	0.00086149	0.00142166	0.00049939	0.00102645	0.00049437	0.00141785	0.00095294
0.62000000	0.00417695	0.00498142	0.00212159	0.00290379	0.00130655	0.00926633	0.00101032	0.00315948	0.00615185	0.00386802	0.00094589	0.00210877	0.00297886	0.00146351	0.00141642	0.00154677	0.00052868	0.00228717	0.00123210	0.00176700	0.00092272	0.00148539	0.00073241	0.00074844	0.00082005	0.00140037	0.00063464
0.63000000	0.00387040	0.00470650	0.00216261	0.00264555	0.00130800	0.00847598	0.00257956	0.00397056	0.00627839	0.00405638	0.00169463	0.00204914	0.00301245	0.00204208	0.00134243	0.00168502	0.00043052	0.00204098	0.00168128	0.00180307	0.00093779	0.00151859	0.00087322	0.00062516	0.00132578	0.00130095	0.00024871
0.64000000	0.00375008	0.00456361	0.00227541	0.00241790	0.00137883	0.00772107	0.00408566	0.00474150	0.00644869	0.00432761	0.00170665	0.00173755	0.00296970	0.00210406	0.00123568	0.00176643	0.00052874	0.00183364	0.00210704	0.00186959	0.00097270	0.00154397	0.00097082	0.00075316	0.00171659	0.00115120	0.00044213
0.65000000	0.00407082	0.00467085	0.00224375	0.00226715	0.00129883	0.00732158	0.00485554	0.00573877	0.00652664	0.00408432	0.00075018	0.00183661	0.00299815	0.00138750	0.00111512	0.00179095	0.00103787	0.00190514	0.00251788	0.00189464	0.00108264	0.00176197	0.00144111	0.00056806	0.00206242	0.00135673	0.00033615
0.66000000	0.00377827	0.00451107	0.00203432	0.00187628	0.00133414	0.00666716	0.00603022	0.00712338	0.00651243	0.00395533	0.00068442	0.00217107	0.00342988	0.00096058	0.00128639	0.00221499	0.00141506	0.00178848	0.00276746	0.00187856	0.00110414	0.00181679	0.00166132	0.00059444	0.00229653	0.00134694	0.00051820
0.67000000	0.00384681	0.00488015	0.00194776	0.00157033	0.00130399	0.00657962	0.00675261	0.00801834	0.00664546	0.00403942	0.00072986	0.00416484	0.00373724	0.00161570	0.00156749	0.00240952	0.00190000	0.00178637	0.00305913	0.00190646	0.00115745	0.00193640	0.00188025	0.00066880	0.00255726	0.00136441	0.00067951
0.68000000	0.00404848	0.00528546	0.00186313	0.00132658	0.00135341	0.00683243	0.00711119	0.00907251	0.00676688	0.00426236	0.00082856	0.00582298	0.00413730	0.00255809	0.00193310	0.00277677	0.00236499	0.00179248	0.00324538	0.00189199	0.00116294	0.00205282	0.00205416	0.00080204	0.00265681	0.00134294	0.00095137
0.69000000	0.00410424	0.00572509	0.00185906	0.00109821	0.00144860	0.00718636	0.00743066	0.01016059	0.00682315	0.00453268	0.00107373	0.00673180	0.00455041	0.00346005	0.00233239	0.00334714	0.00263233	0.00175944	0.00334924	0.00184996	0.00120311	0.00213998	0.00226332	0.00082882	0.00269031	0.00132673	0.00110396
0.70000000	0.00406369	0.00591662	0.00200533	0.00108839	0.00162249	0.00782329	0.00776225	0.01096110	0.00690158	0.00480555	0.00153921	0.00746868	0.00483942	0.00424546	0.00264589	0.00362982	0.00286850	0.00174980	0.00347094	0.00181422	0.00122324	0.00224622	0.00240822	0.00088534	0.00271403	0.00127951	0.00127777
0.71000000	0.00410808	0.00594282	0.00218612	0.00127563	0.00184135	0.00855090	0.00788532	0.01174262	0.00693257	0.00518121	0.00198031	0.00778109	0.00504475	0.00457884	0.00285104	0.00367873	0.00291326	0.00172302	0.00358220	0.00171922	0.00115931	0.00234275	0.00246220	0.00082630	0.00276740	0.00129347	0.00141168
0.72000000	0.00411069	0.00576722	0.00236777	0.00155394	0.00206493	0.00938761	0.00797712	0.01229444	0.00697766	0.00554610	0.00255329	0.00762566	0.00506081	0.00462409	0.00293061	0.00354987	0.00290977	0.00168645	0.00366796	0.00165699	0.00111150	0.00243044	0.00245979	0.00086690	0.00278135	0.00120010	0.00155593
0.73000000	0.00398011	0.00539617	0.00255487	0.00192413	0.00231155	0.01015661	0.00808633	0.01269827	0.00693255	0.00593745	0.00331811	0.00705448	0.00502953	0.00428438	0.00288304	0.00331009	0.00268483	0.00165301	0.00376746	0.00156397	0.00108861	0.00256277	0.00252841	0.00083462	0.00280762	0.00119714	0.00171675
0.74000000	0.00395729	0.00535693	0.00260589	0.00204540	0.00240682	0.01037375	0.00781440	0.01333460	0.00684209	0.00639714	0.00320777	0.00618685	0.00485046	0.00359775	0.00271718	0.00318486	0.00213820	0.00160152	0.00369262	0.00153373	0.00108092	0.00258415	0.00251143	0.00075290	0.00263288	0.00116065	0.00187175
0.75000000	0.00324687	0.00453044	0.00280187	0.00258663	0.00271536	0.01127061	0.00833025	0.01305686	0.00684505	0.00655714	0.00414087	0.00524940	0.00491033	0.00291965	0.00256667	0.00262966	0.00182230	0.00150353	0.00380853	0.00145688	0.00101957	0.00268744	0.00243181	0.00072742	0.00275248	0.00111022	0.00199869
0.76000000	0.00344417	0.00402472	0.00278136	0.00280675	0.00283826	0.01163883	0.00799243	0.01318502	0.00680789	0.00669943	0.00430566	0.00405858	0.00471608	0.00252283	0.00230452	0.00225564	0.00180546	0.00146966	0.00382347	0.00148603	0.00101591	0.00279219	0.00234444	0.00066804	0.00286122	0.00110984	0.00200280
0.77000000	0.00334295	0.00424894	0.00263136	0.00253483	0.00266127	0.01117799	0.00776521	0.01350882	0.00643857	0.00711128	0.00407141	0.00367805	0.00422348	0.00183802	0.00198535	0.00173218	0.00117160	0.00142509	0.00368609	0.00143752	0.00106855	0.00267279	0.00226406	0.00067051	0.00254896	0.00099841	0.00229266
0.78000000	0.00242419	0.00342779	0.00265421	0.00289851	0.00279755	0.01174084	0.00826310	0.01291222	0.00648760	0.00688272	0.00432277	0.00286192	0.00425499	0.00140905	0.00182636	0.00131706	0.00083868	0.00133062	0.00383697	0.00150953	0.00103195	0.00274772	0.00201265	0.00068535	0.00271508	0.00091603	0.00244080
0.79000000	0.00228990	0.00292110	0.00248721	0.00297567	0.00275717	0.01184083	0.00829955	0.01267087	0.00643002	0.00679192	0.00415303	0.00212920	0.00412306	0.00140372	0.00159523	0.00110502	0.00084424	0.00125608	0.00382315	0.00152062	0.00110392	0.00274100	0.00191189	0.00071866	0.00278116	0.00086249	0.00255008
0.80000000	0.00247991	0.00249313	0.00228650	0.00295213	0.00266007	0.01168965	0.00825268	0.01254572	0.00624928	0.00670069	0.00386484	0.00171924	0.00403516	0.00143920	0.00141321	0.00094008	0.00079010	0.00120943	0.00383287	0.00155400	0.00110428	0.00270636	0.00176647	0.00070934	0.00284600	0.00083991	0.00263712
0.81000000	0.00336412	0.00251747	0.00209158	0.00243362	0.00237373	0.01079826	0.00795379	0.01299188	0.00562128	0.00679721	0.00389110	0.00166687	0.00361490	0.00213459	0.00122960	0.00060806	0.00034706	0.00123692	0.00361407	0.00146761	0.00117863	0.00247905	0.00177024	0.00069855	0.00257535	0.00081216	0.00281414
0.82000000	0.00331654	0.00208085	0.00209697	0.00249200	0.00232332	0.01098125	0.00849292	0.01249943	0.00559970	0.00631818	0.00334112	0.00174123	0.00369136	0.00194284	0.00115785	0.00068605	0.00028415	0.00115190	0.00372384	0.00149765	0.00118959	0.00245852	0.00161478	0.00072872	0.00284402	0.00086446	0.00283895
0.83000000	0.00397863	0.00191174	0.00206573	0.00244280	0.00227358	0.01080626	0.00861228	0.01249291	0.00543685	0.00611984	0.00276141	0.00193567	0.00376758	0.00184800	0.00111689	0.00094222	0.00022605	0.00116170	0.00369576	0.00157850	0.00122157	0.00238002	0.00155999	0.00077777	0.00285479	0.00083026	0.00287261
0.84000000	0.00475947	0.00165366	0.00218095	0.00214933	0.00218860	0.01039477	0.00867199	0.01286178	0.00512382	0.00596233	0.00291033	0.00220186	0.00359194	0.00226937	0.00094857	0.00080024	0.00047131	0.00116069	0.00361829	0.00148101	0.00124648	0.00221870	0.00159617	0.00077395	0.00274593	0.00075204	0.00302534
0.85000000	0.00530546	0.00158956	0.00235450	0.00203726	0.00218046	0.01031527	0.00904366	0.01299708	0.00503331	0.00572167	0.00270807	0.00261023	0.00363453	0.00232624	0.00085397	0.00091074	0.00051660	0.00112383	0.00362958	0.00150293	0.00123980	0.00212702	0.00151828	0.00083428	0.00275996	0.00069560	0.00307975
0.86000000	0.00556507	0.00160706	0.00262600	0.00186702	0.00215631	0.01057769	0.00981532	0.01295394	0.00516683	0.00533346	0.00223680	0.00329501	0.00371048	0.00221142	0.00080315	0.00123965	0.00077683	0.00109179	0.00366809	0.00153320	0.00123616	0.00199840	0.00142804	0.00090973	0.00282720	0.00063231	0.00307422
0.87000000	0.00599185	0.00174984	0.00279348	0.00174140	0.00214973	0.01068861	0.01038879	0.01316562	0.00526559	0.00518430	0.00210817	0.00397104	0.00371455	0.00230662	0.00064772	0.00144116	0.00095387	0.00106862	0.00371531	0.00150884	0.00123882	0.00191908	0.00145812	0.00097658	0.00283752	0.00056150	0.00312384
0.88000000	0.00651245	0.00153855	0.00300480	0.00154421	0.00215005	0.01074832	0.01085071	0.01353287	0.00557777	0.00520981	0.00244005	0.00455277	0.00373677	0.00251467	0.00062835	0.00166949	0.00150555	0.00114172	0.00363435	0.00142816	0.00131854	0.00182350	0.00172119	0.00104228	0.00290901	0.00057423	0.00300777
0.89000000	0.00673128	0.00174093	0.00303007	0.00167101	0.00220467	0.01061512	0.01108656	0.01432710	0.00553902	0.00543126	0.00325021	0.00442395	0.00381012	0.00315409	0.00058046	0.00139756	0.00074611	0.00101602	0.00368536	0.00144984	0.00115789	0.00187075	0.00155785	0.00098603	0.00279376	0.00054500	0.00303398
0.90000000	0.00685348	0.00161117	0.00315702	0.00158458	0.00220479	0.01084783	0.01159218	0.01481801	0.00586495	0.00551786	0.00336109	0.00494325	0.00375731	0.00333683	0.00057858	0.00156286	0.00116734	0.00099176	0.00366681	0.00143944	0.00110908	0.00183065	0.00157611	0.00099577	0.00278791	0.00046929	0.00290058
0.91000000	0.00689706	0.00153334	0.00322121	0.00153483	0.00218913	0.01109980	0.01201250	0.01540219	0.00615539	0.00569904	0.00361058	0.00531413	0.00369844	0.00348898	0.00059127	0.00166558	0.00141473	0.00097191	0.00365740	0.00139271	0.00106532	0.00181381	0.00166551	0.00096663	0.00272275	0.00044180	0.00281137
0.92000000	0.00691829	0.00147818	0.00323954	0.00154767	0.00216938	0.01137157	0.01232107	0.01605891	0.00642138	0.00593979	0.00393364	0.00554830	0.00361192	0.00367719	0.00063528	0.00172843	0.00162246	0.00095931	0.00363338	0.00135805	0.00101510	0.00183440	0.00176103	0.00091244	0.00265105	0.00042939	0.00267611
0.93000000	0.00684768	0.00194486	0.00306947	0.00185765	0.00202019	0.01172186	0.01280830	0.01641783	0.00666546	0.00610894	0.00424219	0.00567036	0.00339292	0.00406074	0.00058051	0.00192093	0.00120783	0.00092565	0.00370515	0.00143620	0.00100185	0.00190865	0.00177549	0.00103921	0.00257533	0.00036272	0.00265258
0.94000000	0.00668045	0.00184381	0.00309911	0.00186669	0.00201049	0.01217781	0.01287881	0.01714999	0.00689656	0.00638922	0.00463344	0.00573934	0.00334519	0.00421323	0.00070950	0.00189135	0.00151355	0.00091184	0.00365076	0.00137025	0.00094898	0.00193757	0.00189792	0.00095059	0.00253044	0.00030394	0.00244751
0.95000000	0.00653578	0.00201820	0.00311014	0.00204224	0.00201712	0.01267541	0.01295436	0.01771574	0.00704510	0.00654789	0.00499604	0.00587580	0.00320487	0.00439809	0.00067876	0.00191797	0.00150352	0.00089889	0.00362170	0.00135066	0.00087486	0.00198603	0.00195726	0.00088874	0.00237004	0.00029326	0.00235886
0.96000000	0.00636101	0.00263023	0.00318082	0.00242707	0.00206788	0.01329477	0.01324760	0.01792491	0.00717379	0.00651327	0.00512084	0.00597693	0.00304204	0.00457730	0.00062364	0.00208484	0.00117117	0.00088531	0.00363246	0.00139041	0.00085419	0.00203014	0.00200527	0.00092966	0.00229968	0.00027296	0.00226619
0.97000000	0.00623598	0.00287834	0.00326153	0.00266981	0.00214053	0.01395603	0.01320804	0.01821854	0.00725157	0.00652554	0.00534086	0.00614849	0.00297412	0.00467774	0.00057365	0.00207145	0.00117794	0.00085767	0.00359469	0.00137271	0.00078908	0.00207410	0.00207505	0.00087862	0.00224328	0.00024619	0.00211687
0.98000000	0.00617375	0.00320625	0.00334377	0.00289092	0.00221501	0.01453419	0.01302932	0.01845649	0.00728307	0.00645414	0.00541126	0.00627928	0.00291131	0.00481474	0.00055593	0.00208949	0.00107340	0.00088445	0.00352297	0.00141385	0.00077251	0.00212261	0.00212657	0.00087055	0.00220302	0.00018037	0.00189933
0.99000000	0.00610466	0.00339574	0.00342753	0.00301214	0.00227236	0.01507747	0.01268735	0.01863395	0.00725868	0.00636735	0.00546233	0.00638250	0.00289473	0.00492956	0.00054147	0.00204064	0.00108740	0.00093086	0.00345354	0.00137876	0.00070900	0.00217812	0.00218048	0.00076625	0.00219210	0.00023726	0.00169435
1.00000000	0.00597761	0.00341729	0.00338080	0.00294081	0.00222905	0.01559837	0.01206282	0.01883947	0.00719027	0.00627414	0.00542053	0.00655633	0.00312659	0.00502752	0.00066646	0.00184702	0.00131731	0.00092480	0.00331218	0.00132779	0.00068151	0.00219753	0.00234063	0.00064382	0.00215476	0.00024972	0.00145347
1.01000000	0.00612063	0.00392039	0.00353486	0.00333937	0.00236010	0.01583589	0.01186801	0.01837880	0.00702227	0.00593544	0.00507536	0.00663059	0.00295599	0.00503181	0.00041440	0.00203585	0.00102907	0.00093139	0.00329704	0.00141058	0.00068292	0.00223806	0.00226781	0.00071535	0.00218612	0.00019958	0.00138466
1.02000000	0.00627596	0.00414048	0.00355504	0.00338289	0.00235283	0.01607208	0.01130505	0.01799477	0.00683761	0.00570809	0.00472728	0.00683661	0.00299363	0.00501188	0.00033451	0.00205385	0.00107463	0.00098422	0.00314426	0.00143905	0.00069270	0.00224907	0.00227075	0.00070696	0.00213764	0.00013867	0.00123239
1.03000000	0.00636165	0.00433651	0.00355036	0.00334619	0.00229907	0.01611669	0.01063739	0.01751203	0.00659823	0.00550197	0.00430757	0.00696981	0.00309162	0.00498589	0.00027069	0.00209799	0.00115020	0.00101346	0.00305495	0.00143216	0.00070493	0.00228133	0.00232577	0.00062921	0.00219667	0.00016411	0.00107136
1.04000000	0.00649148	0.00451736	0.00354537	0.00329281	0.00223893	0.01596682	0.00992223	0.01687497	0.00628116	0.00530319	0.00387706	0.00713296	0.00317882	0.00501342	0.00019085	0.00221508	0.00122371	0.00105170	0.00292939	0.00143962	0.00071721	0.00228700	0.00232723	0.00057551	0.00221723	0.00013814	0.00094924
1.05000000	0.00645774	0.00455640	0.00353492	0.00309812	0.00212121	0.01574283	0.00915051	0.01615617	0.00598163	0.00511158	0.00333577	0.00739238	0.00335278	0.00503629	0.00008071	0.00237245	0.00138354	0.00106980	0.00269359	0.00141765	0.00073433	0.00222728	0.00236774	0.00052289	0.00216174	0.00014345	0.00076427
1.06000000	0.00641413	0.00469197	0.00353997	0.00285211	0.00200734	0.01534815	0.00836407	0.01527316	0.00563129	0.00488765	0.00273056	0.00766502	0.00363872	0.00504970	0.00005729	0.00247727	0.00150971	0.00113561	0.00254287	0.00139297	0.00075772	0.00220430	0.00238538	0.00045546	0.00218469	0.00012964	0.00063459
1.07000000	0.00667244	0.00514892	0.00360605	0.00286850	0.00197744	0.01472711	0.00792646	0.01385192	0.00516796	0.00451102	0.00220805	0.00779056	0.00369853	0.00510944	0.00010181	0.00260926	0.00154397	0.00107739	0.00248169	0.00145043	0.00088594	0.00221554	0.00249331	0.00046969	0.00231020	0.00012185	0.00062925
1.08000000	0.00674051	0.00528236	0.00369402	0.00265892	0.00191617	0.01420013	0.00730623	0.01229857	0.00482015	0.00410774	0.00159913	0.00810676	0.00376952	0.00519679	0.00019702	0.00279006	0.00172440	0.00115327	0.00235639	0.00145587	0.00096374	0.00221504	0.00256646	0.00045171	0.00237952	0.00020029	0.00050643
1.09000000	0.00672864	0.00549180	0.00381167	0.00244920	0.00191554	0.01348098	0.00664369	0.01064445	0.00440643	0.00370768	0.00115216	0.00839120	0.00392170	0.00530612	0.00022201	0.00290548	0.00184109	0.00118892	0.00227584	0.00149672	0.00102216	0.00223336	0.00263735	0.00041487	0.00244414	0.00016976	0.00042130
1.10000000	0.00628839	0.00555937	0.00407996	0.00191154	0.00204094	0.01265731	0.00591816	0.00947863	0.00384805	0.00332685	0.00092739	0.00873797	0.00415105	0.00535844	0.00028086	0.00315917	0.00182807	0.00125671	0.00209150	0.00138708	0.00097295	0.00212203	0.00269903	0.00017838	0.00238062	0.00018886	0.00035197
1.11000000	0.00643784	0.00578649	0.00412221	0.00193683	0.00198986	0.01211068	0.00549602	0.00685683	0.00351780	0.00275799	0.00040367	0.00891612	0.00430631	0.00548189	0.00032698	0.00320528	0.00188343	0.00123985	0.00207048	0.00157144	0.00114555	0.00218538	0.00278565	0.00034578	0.00248295	0.00019955	0.00033646
1.12000000	0.00642395	0.00597607	0.00429149	0.00164489	0.00213443	0.01159113	0.00475456	0.00477965	0.00310847	0.00256559	0.00034432	0.00913235	0.00441913	0.00550967	0.00027796	0.00329592	0.00188792	0.00146533	0.00211392	0.00161093	0.00112481	0.00225221	0.00271849	0.00016643	0.00257142	0.00011755	0.00032872
1.13000000	0.00626372	0.00593166	0.00478409	0.00121622	0.00255419	0.01144367	0.00402894	0.00388194	0.00251472	0.00225563	0.00098975	0.00933486	0.00461341	0.00548875	0.00044798	0.00360362	0.00202851	0.00145541	0.00188396	0.00148333	0.00103725	0.00208256	0.00288670	0.00024076	0.00245989	0.00042025	0.00013808
1.14000000	0.00633341	0.00611740	0.00523398	0.00118100	0.00298594	0.01197393	0.00355162	0.00340956	0.00194026	0.00229381	0.00203917	0.00935834	0.00482365	0.00550948	0.00043851	0.00372761	0.00197307	0.00161191	0.00166655	0.00136136	0.00097254	0.00193550	0.00292574	0.00031093	0.00228258	0.00042183	0.00010688
1.15000000	0.00577225	0.00642635	0.00542340	0.00115990	0.00298305	0.01298054	0.00371215	0.00417638	0.00146177	0.00209282	0.00087044	0.00908613	0.00495638	0.00531727	0.00047168	0.00381449	0.00202770	0.00156530	0.00174311	0.00158757	0.00107702	0.00195136	0.00279712	0.00029118	0.00221701	0.00023678	0.00016949
1.16000000	0.00653793	0.00629184	0.00526770	0.00111406	0.00292909	0.01304615	0.00286807	0.00624593	0.00178247	0.00373799	0.00145752	0.00925654	0.00494738	0.00497573	0.00046121	0.00374859	0.00226205	0.00169391	0.00176452	0.00179255	0.00110825	0.00212082	0.00284463	0.00028230	0.00225611	0.00031193	0.00014167
1.17000000	0.00704027	0.00625125	0.00545729	0.00126420	0.00318715	0.01386720	0.00257000	0.00807584	0.00186825	0.00424796	0.00187299	0.00928801	0.00481018	0.00475547	0.00056415	0.00386805	0.00229994	0.00180511	0.00162879	0.00181828	0.00104376	0.00206618	0.00283532	0.00045805	0.00212818	0.00041431	0.00023538
1.18000000	0.00720505	0.00630866	0.00573904	0.00141642	0.00346210	0.01486689	0.00259082	0.00959759	0.00194894	0.00451071	0.00219400	0.00915206	0.00495566	0.00443000	0.00064720	0.00396790	0.00233862	0.00196803	0.00152776	0.00182579	0.00098062	0.00201519	0.00278274	0.00063805	0.00194422	0.00051189	0.00035957
1.19000000	0.00746086	0.00628723	0.00609813	0.00171330	0.00383592	0.01592160	0.00243809	0.01051055	0.00208112	0.00429950	0.00253280	0.00906465	0.00508518	0.00426419	0.00075781	0.00415704	0.00229666	0.00214878	0.00133303	0.00174706	0.00085308	0.00187677	0.00273312	0.00090402	0.00168523	0.00070104	0.00052980
1.20000000	0.00783497	0.00653867	0.00636570	0.00209520	0.00414332	0.01687098	0.00293494	0.01067478	0.00230335	0.00387452	0.00250353	0.00898885	0.00558629	0.00397590	0.00073808	0.00386878	0.00250077	0.00213066	0.00118558	0.00178396	0.00083857	0.00178909	0.00276785	0.00097865	0.00140651	0.00094254	0.00085854
1.21000000	0.00735384	0.00616978	0.00621436	0.00196404	0.00405087	0.01614851	0.00302533	0.01219115	0.00268224	0.00454752	0.00335439	0.00884216	0.00520363	0.00378392	0.00086208	0.00405265	0.00241557	0.00232670	0.00109843	0.00184964	0.00074436	0.00181122	0.00265334	0.00120979	0.00125811	0.00105063	0.00087221
1.22000000	0.00746287	0.00623754	0.00641170	0.00224149	0.00430716	0.01598915	0.00335898	0.01197235	0.00293772	0.00406954	0.00362006	0.00875561	0.00546684	0.00365609	0.00099242	0.00391241	0.00235451	0.00259176	0.00116482	0.00185778	0.00065448	0.00180481	0.00241557	0.00142521	0.00102100	0.00115404	0.00110096
1.23000000	0.00716454	0.00593872	0.00638882	0.00236989	0.00437745	0.01538363	0.00369963	0.01179556	0.00329702	0.00373629	0.00392717	0.00880599	0.00562614	0.00347843	0.00103781	0.00399614	0.00228789	0.00272176	0.00112713	0.00181523	0.00052428	0.00169849	0.00232228	0.00166868	0.00091002	0.00137830	0.00119001
1.24000000	0.00703541	0.00592805	0.00642465	0.00260193	0.00451007	0.01454410	0.00405430	0.01116697	0.00354619	0.00329176	0.00403678	0.00875019	0.00597478	0.00332458	0.00122708	0.00372592	0.00224911	0.00287028	0.00118665	0.00179355	0.00043550	0.00165112	0.00218729	0.00180733	0.00072618	0.00158987	0.00144949
1.25000000	0.00740205	0.00601011	0.00626044	0.00268754	0.00448623	0.01294893	0.00449500	0.01076358	0.00355291	0.00300216	0.00445254	0.00885508	0.00608112	0.00342366	0.00138152	0.00347764	0.00213955	0.00320512	0.00138574	0.00168364	0.00024197	0.00152487	0.00196135	0.00210422	0.00043556	0.00216482	0.00192870
1.26000000	0.00625857	0.00520981	0.00614774	0.00295064	0.00454307	0.01177568	0.00485541	0.01020309	0.00401207	0.00294107	0.00437571	0.00898377	0.00648466	0.00288667	0.00136675	0.00351896	0.00213832	0.00322839	0.00168735	0.00161216	0.00025662	0.00141014	0.00182032	0.00231847	0.00106834	0.00205753	0.00186354
1.27000000	0.00581168	0.00504724	0.00627966	0.00332890	0.00479667	0.01064464	0.00486215	0.00938005	0.00392898	0.00260011	0.00418182	0.00908013	0.00688583	0.00222335	0.00146620	0.00337457	0.00224446	0.00345212	0.00205661	0.00135638	0.00030361	0.00117113	0.00156856	0.00254940	0.00129606	0.00234093	0.00221320
1.28000000	0.00597969	0.00496189	0.00599723	0.00340487	0.00469018	0.00881544	0.00534400	0.00887662	0.00385025	0.00294871	0.00426164	0.00929956	0.00694479	0.00229921	0.00179415	0.00308610	0.00189833	0.00365728	0.00237621	0.00119476	0.00048195	0.00099711	0.00149295	0.00272194	0.00138396	0.00275091	0.00259863
1.29000000	0.00553309	0.00454621	0.00597127	0.00384562	0.00487068	0.00732672	0.00589795	0.00811481	0.00412483	0.00284271	0.00384857	0.00972335	0.00762640	0.00170492	0.00199645	0.00265354	0.00200760	0.00368481	0.00276882	0.00099503	0.00055301	0.00084662	0.00128314	0.00283193	0.00192224	0.00272954	0.00263892
1.30000000	0.00495561	0.00468058	0.00615578	0.00422991	0.00514414	0.00693758	0.00554332	0.00694411	0.00359921	0.00257708	0.00294747	0.01005553	0.00801186	0.00142684	0.00216363	0.00248999	0.00179665	0.00380336	0.00330376	0.00059142	0.00080318	0.00065670	0.00119104	0.00306959	0.00240724	0.00291307	0.00289631
1.31000000	0.00499399	0.00467585	0.00592052	0.00437461	0.00508341	0.00509223	0.00603877	0.00640429	0.00352577	0.00277941	0.00266482	0.01060438	0.00814479	0.00141753	0.00248232	0.00207202	0.00165231	0.00380566	0.00375381	0.00042108	0.00099395	0.00059863	0.00121606	0.00305952	0.00258143	0.00304228	0.00329330
1.32000000	0.00474025	0.00473638	0.00562690	0.00454674	0.00498961	0.00343625	0.00659588	0.00577400	0.00336235	0.00273748	0.00228841	0.01125917	0.00832228	0.00148340	0.00281239	0.00142586	0.00162875	0.00384844	0.00398148	0.00032281	0.00115197	0.00067081	0.00128725	0.00316461	0.00286461	0.00311806	0.00326600
1.33000000	0.00407960	0.00534961	0.00572871	0.00479845	0.00512733	0.00317808	0.00596027	0.00439548	0.00263245	0.00278271	0.00138996	0.01158128	0.00831267	0.00191747	0.00301275	0.00121487	0.00146857	0.00387206	0.00442853	0.00050988	0.00138227	0.00106833	0.00134429	0.00323331	0.00314443	0.00320742	0.00352863
1.34000000	0.00419539	0.00549275	0.00543246	0.00486502	0.00499655	0.00243372	0.00647374	0.00349932	0.00245374	0.00264136	0.00146392	0.01210811	0.00778807	0.00240797	0.00343573	0.00070847	0.00111285	0.00371532	0.00472049	0.00069897	0.00148418	0.00125118	0.00148964	0.00304658	0.00325579	0.00319074	0.00366045
1.35000000	0.00372365	0.00609257	0.00533543	0.00497331	0.00494240	0.00280235	0.00589899	0.00236570	0.00182210	0.00287545	0.00100652	0.01232206	0.00750378	0.00289530	0.00379519	0.00041818	0.00102635	0.00359452	0.00500348	0.00104922	0.00162987	0.00165306	0.00160893	0.00294127	0.00341609	0.00314750	0.00374761
1.36000000	0.00357727	0.00626748	0.00489058	0.00495265	0.00467839	0.00442424	0.00651009	0.00179106	0.00171103	0.00250282	0.00138711	0.01261024	0.00653189	0.00340382	0.00420187	0.00085172	0.00058728	0.00338276	0.00513539	0.00120609	0.00169581	0.00178393	0.00179052	0.00274407	0.00338130	0.00297952	0.00381242
1.37000000	0.00321515	0.00652186	0.00441952	0.00488822	0.00436117	0.00619880	0.00677229	0.00188343	0.00147716	0.00227647	0.00171958	0.01262208	0.00550258	0.00393684	0.00463743	0.00155141	0.00045656	0.00318478	0.00518958	0.00141776	0.00179297	0.00194682	0.00199681	0.00253999	0.00334621	0.00288739	0.00374724
1.38000000	0.00341077	0.00712805	0.00427836	0.00492686	0.00422512	0.00654897	0.00576962	0.00271435	0.00150108	0.00269007	0.00217363	0.01205618	0.00445857	0.00457569	0.00493429	0.00208725	0.00077286	0.00288812	0.00535601	0.00169617	0.00182963	0.00232999	0.00205172	0.00221835	0.00331373	0.00268335	0.00379826
1.39000000	0.00371632	0.00700696	0.00390308	0.00472890	0.00395316	0.00760652	0.00635625	0.00353652	0.00159107	0.00220114	0.00273270	0.01149812	0.00276584	0.00501332	0.00521751	0.00273028	0.00137352	0.00261154	0.00529510	0.00177864	0.00181837	0.00245844	0.00219047	0.00191752	0.00320685	0.00237301	0.00368774
1.40000000	0.00354035	0.00708562	0.00333522	0.00463084	0.00355258	0.00780776	0.00639971	0.00370215	0.00142799	0.00212486	0.00278653	0.01094977	0.00131683	0.00539547	0.00562695	0.00354303	0.00128649	0.00225253	0.00514364	0.00190759	0.00175928	0.00249199	0.00215026	0.00162310	0.00293098	0.00224118	0.00345323
1.41000000	0.00391197	0.00718733	0.00288038	0.00450203	0.00320251	0.00745769	0.00578091	0.00330503	0.00150260	0.00201980	0.00275311	0.00995952	0.00168933	0.00595421	0.00584901	0.00413423	0.00169670	0.00196472	0.00500892	0.00191038	0.00168902	0.00254361	0.00222200	0.00123387	0.00265208	0.00192275	0.00336709
1.42000000	0.00428342	0.00693415	0.00258584	0.00439748	0.00300040	0.00633359	0.00554880	0.00301613	0.00157724	0.00184314	0.00287889	0.00895638	0.00341566	0.00657785	0.00601830	0.00474880	0.00213735	0.00164455	0.00475961	0.00196069	0.00155435	0.00258860	0.00210285	0.00090461	0.00239423	0.00173541	0.00306503
1.43000000	0.00482319	0.00673364	0.00230799	0.00424368	0.00277436	0.00513283	0.00497064	0.00215187	0.00155277	0.00172948	0.00279954	0.00794995	0.00512046	0.00735253	0.00612533	0.00530180	0.00243138	0.00131361	0.00463780	0.00197126	0.00138392	0.00262314	0.00196453	0.00067036	0.00209976	0.00145963	0.00294340
1.44000000	0.00533352	0.00655373	0.00211577	0.00410472	0.00260607	0.00455146	0.00437918	0.00145925	0.00165655	0.00174248	0.00252245	0.00720146	0.00666148	0.00827547	0.00609550	0.00565981	0.00261445	0.00110597	0.00438100	0.00192362	0.00128398	0.00264119	0.00198513	0.00046973	0.00184958	0.00124193	0.00270746
1.45000000	0.00510693	0.00552487	0.00213778	0.00377585	0.00245494	0.00477074	0.00438391	0.00281540	0.00124698	0.00158271	0.00162224	0.00530703	0.00870856	0.01014477	0.00571020	0.00521669	0.00259864	0.00107093	0.00405063	0.00187820	0.00123124	0.00256887	0.00205369	0.00038998	0.00155682	0.00109830	0.00250985
1.46000000	0.00563749	0.00546947	0.00222648	0.00352390	0.00236554	0.00623606	0.00423120	0.00432619	0.00111578	0.00188726	0.00143671	0.00565318	0.00938561	0.01124519	0.00568571	0.00552245	0.00262160	0.00095651	0.00388748	0.00186904	0.00115541	0.00255306	0.00205926	0.00050720	0.00142265	0.00093463	0.00230536
1.47000000	0.00547768	0.00479282	0.00259343	0.00318215	0.00235177	0.00751810	0.00473613	0.00633980	0.00079602	0.00260931	0.00076543	0.00568130	0.01038092	0.01283505	0.00537539	0.00571619	0.00232866	0.00086193	0.00361168	0.00186358	0.00107371	0.00242623	0.00202220	0.00051979	0.00117155	0.00092155	0.00209352
1.48000000	0.00579925	0.00453763	0.00284325	0.00289868	0.00233237	0.00910159	0.00486772	0.00792311	0.00073851	0.00312153	0.00054526	0.00647804	0.01077951	0.01423420	0.00513401	0.00592365	0.00202721	0.00075532	0.00343388	0.00188117	0.00101286	0.00237684	0.00203189	0.00052738	0.00105584	0.00090590	0.00190429
1.49000000	0.00609460	0.00414004	0.00315732	0.00267811	0.00239329	0.01103986	0.00485736	0.00886768	0.00099463	0.00317029	0.00060949	0.00803007	0.01135808	0.01503398	0.00495855	0.00616532	0.00179581	0.00060999	0.00326085	0.00190123	0.00087319	0.00233936	0.00187522	0.00050274	0.00087916	0.00098944	0.00169737
1.50000000	0.00671295	0.00443038	0.00320173	0.00259303	0.00239594	0.01178508	0.00454413	0.01012512	0.00067354	0.00360121	0.00074243	0.00880370	0.01089923	0.01641189	0.00479625	0.00638819	0.00122083	0.00053810	0.00311630	0.00189482	0.00084871	0.00230460	0.00199503	0.00052608	0.00081984	0.00087164	0.00155743
1.51000000	0.00647484	0.00382700	0.00364407	0.00241374	0.00256480	0.01265095	0.00472846	0.01056810	0.00092696	0.00356774	0.00058228	0.00995566	0.01158797	0.01691844	0.00467208	0.00658784	0.00127149	0.00041403	0.00289802	0.00185466	0.00070523	0.00222105	0.00186154	0.00047738	0.00068834	0.00093105	0.00131926
1.52000000	0.00639480	0.00366194	0.00385039	0.00235317	0.00266162	0.01261403	0.00458979	0.01106971	0.00082177	0.00363470	0.00067104	0.01068679	0.01163346	0.01768281	0.00467040	0.00670375	0.00108175	0.00028792	0.00271658	0.00181551	0.00059890	0.00213741	0.00185520	0.00044829	0.00051429	0.00090391	0.00121051
1.53000000	0.00640765	0.00347163	0.00400051	0.00224853	0.00270741	0.01206543	0.00450976	0.01122327	0.00060098	0.00374243	0.00072785	0.01088754	0.01170257	0.01848242	0.00461107	0.00689631	0.00092293	0.00023102	0.00248212	0.00181653	0.00056988	0.00207705	0.00188463	0.00037729	0.00044705	0.00086112	0.00105338
1.54000000	0.00612688	0.00315275	0.00425252	0.00213185	0.00281276	0.01129848	0.00452486	0.01110858	0.00047990	0.00369423	0.00068949	0.01099758	0.01202144	0.01902927	0.00465593	0.00704031	0.00105881	0.00014260	0.00232196	0.00178668	0.00048259	0.00200282	0.00190900	0.00037701	0.00042976	0.00074022	0.00091413
1.55000000	0.00618530	0.00297438	0.00424269	0.00189419	0.00269387	0.01037773	0.00452364	0.01063280	0.00027023	0.00360018	0.00046064	0.01044863	0.01201829	0.01996641	0.00467928	0.00722968	0.00103891	0.00018367	0.00215240	0.00188669	0.00043935	0.00199297	0.00189622	0.00018017	0.00045746	0.00064811	0.00069107
1.56000000	0.00545718	0.00236121	0.00469593	0.00184806	0.00293670	0.00950747	0.00470173	0.01026038	0.00036687	0.00339137	0.00042561	0.01059394	0.01302570	0.01994025	0.00480261	0.00721216	0.00136589	0.00017090	0.00188006	0.00177375	0.00036162	0.00189897	0.00191133	0.00025319	0.00058155	0.00053879	0.00054195
1.57000000	0.00522467	0.00211681	0.00487004	0.00176808	0.00299598	0.00848844	0.00470191	0.00987099	0.00053594	0.00332268	0.00063044	0.01035879	0.01350478	0.02026847	0.00510115	0.00730196	0.00151087	0.00024379	0.00167507	0.00179927	0.00031970	0.00185150	0.00183001	0.00031107	0.00065651	0.00041333	0.00032923
1.58000000	0.00490318	0.00192878	0.00501939	0.00167802	0.00303865	0.00768246	0.00474750	0.00944046	0.00068601	0.00316065	0.00074755	0.01012846	0.01410388	0.02053348	0.00530199	0.00736032	0.00169213	0.00035127	0.00154986	0.00178834	0.00024924	0.00181884	0.00188732	0.00044015	0.00071219	0.00027484	0.00026654
1.59000000	0.00474842	0.00181728	0.00510246	0.00157225	0.00303122	0.00704129	0.00479365	0.00902401	0.00085391	0.00304027	0.00081661	0.00983379	0.01476370	0.02080142	0.00548908	0.00739666	0.00186001	0.00041700	0.00139456	0.00181221	0.00024988	0.00182394	0.00192286	0.00058212	0.00081462	0.00018686	0.00018769
1.60000000	0.00510548	0.00261226	0.00483157	0.00150037	0.00286341	0.00693349	0.00450825	0.00833516	0.00113626	0.00272893	0.00094435	0.01007084	0.01517149	0.02099515	0.00579314	0.00734939	0.00199180	0.00047589	0.00144083	0.00192944	0.00029359	0.00192124	0.00210309	0.00037015	0.00067417	0.00030583	0.00007150
1.61000000	0.00472934	0.00213814	0.00503038	0.00137839	0.00289454	0.00669358	0.00459752	0.00814665	0.00119931	0.00263179	0.00106874	0.00997046	0.01620745	0.02105933	0.00588640	0.00736111	0.00211409	0.00052730	0.00128908	0.00190312	0.00023120	0.00193655	0.00210809	0.00054938	0.00076592	0.00049459	0.00009311
1.62000000	0.00449634	0.00201584	0.00515816	0.00128320	0.00288812	0.00660169	0.00465857	0.00807919	0.00126129	0.00263363	0.00117616	0.01016199	0.01702920	0.02111875	0.00606053	0.00741959	0.00224393	0.00057235	0.00112979	0.00187510	0.00022181	0.00194582	0.00218368	0.00075062	0.00085988	0.00070539	0.00016737
1.63000000	0.00494109	0.00311212	0.00512628	0.00159560	0.00302141	0.00691693	0.00431908	0.00791731	0.00138842	0.00255261	0.00139772	0.01103635	0.01786348	0.02058640	0.00643322	0.00704501	0.00208140	0.00048085	0.00121957	0.00186621	0.00026973	0.00199976	0.00237885	0.00071701	0.00070960	0.00095604	0.00021184
1.64000000	0.00471335	0.00298643	0.00523425	0.00147846	0.00298824	0.00712952	0.00446781	0.00797369	0.00135153	0.00260033	0.00145129	0.01135980	0.01856810	0.02060562	0.00646758	0.00711647	0.00220212	0.00049941	0.00113330	0.00184961	0.00025822	0.00205033	0.00243771	0.00083766	0.00069863	0.00110345	0.00027530
1.65000000	0.00457657	0.00314409	0.00531941	0.00146111	0.00298403	0.00743807	0.00460369	0.00813717	0.00126674	0.00267605	0.00152450	0.01184704	0.01901920	0.02058163	0.00658861	0.00716061	0.00225535	0.00049776	0.00113106	0.00185248	0.00031797	0.00210139	0.00257475	0.00104121	0.00067243	0.00119828	0.00024044
1.66000000	0.00460945	0.00346515	0.00547062	0.00158679	0.00311229	0.00789414	0.00459203	0.00835101	0.00120410	0.00274825	0.00148310	0.01233533	0.01925742	0.02043505	0.00678391	0.00713967	0.00233203	0.00039977	0.00118336	0.00179035	0.00028254	0.00220402	0.00264317	0.00106369	0.00058463	0.00140411	0.00020376
1.67000000	0.00469487	0.00364885	0.00567818	0.00171131	0.00327002	0.00837606	0.00442571	0.00875211	0.00123134	0.00298869	0.00121271	0.01292846	0.01941457	0.02007522	0.00691348	0.00704100	0.00226701	0.00032313	0.00119236	0.00171702	0.00027799	0.00225336	0.00270518	0.00101701	0.00040442	0.00163479	0.00026582
1.68000000	0.00473304	0.00387827	0.00578740	0.00178219	0.00330444	0.00883901	0.00468857	0.00920974	0.00091745	0.00295120	0.00129317	0.01350644	0.01923330	0.01985990	0.00697097	0.00704584	0.00224953	0.00028740	0.00125973	0.00175085	0.00037608	0.00233073	0.00285133	0.00110910	0.00029659	0.00167063	0.00021214
1.69000000	0.00472933	0.00397306	0.00602030	0.00188217	0.00345867	0.00942794	0.00468626	0.00977183	0.00081165	0.00304037	0.00110731	0.01399429	0.01891134	0.01955719	0.00694750	0.00694879	0.00222845	0.00020208	0.00129102	0.00170694	0.00044260	0.00241007	0.00296557	0.00114491	0.00023844	0.00173866	0.00022127
1.70000000	0.00485314	0.00408322	0.00618723	0.00194095	0.00353798	0.00992672	0.00480822	0.01040457	0.00067831	0.00312315	0.00106191	0.01453124	0.01836236	0.01924420	0.00688023	0.00682533	0.00216530	0.00017049	0.00135125	0.00169266	0.00053250	0.00252027	0.00305231	0.00119241	0.00027963	0.00177752	0.00022048
1.71000000	0.00511037	0.00376334	0.00662911	0.00225411	0.00390537	0.01044603	0.00469005	0.01118881	0.00063261	0.00337269	0.00035910	0.01497450	0.01780446	0.01864463	0.00660137	0.00649673	0.00202413	0.00025597	0.00138350	0.00157135	0.00049797	0.00262703	0.00303430	0.00118656	0.00034202	0.00194225	0.00007403
1.72000000	0.00515240	0.00408795	0.00665709	0.00214949	0.00384043	0.01105152	0.00514331	0.01166754	0.00065489	0.00336017	0.00082185	0.01545666	0.01680969	0.01833558	0.00643420	0.00647405	0.00199937	0.00027896	0.00155128	0.00165224	0.00056834	0.00276199	0.00313267	0.00121745	0.00063716	0.00194343	0.00009906
1.73000000	0.00526766	0.00376041	0.00699962	0.00229201	0.00406933	0.01155819	0.00523303	0.01242186	0.00067931	0.00352460	0.00040643	0.01578909	0.01595413	0.01770387	0.00594777	0.00622736	0.00187003	0.00041100	0.00158596	0.00159178	0.00064548	0.00288097	0.00316174	0.00117837	0.00078597	0.00205101	0.00010525
1.74000000	0.00541959	0.00417455	0.00696292	0.00215641	0.00396190	0.01200067	0.00571084	0.01294182	0.00074637	0.00355638	0.00102625	0.01615784	0.01467123	0.01733054	0.00553993	0.00609811	0.00178852	0.00040757	0.00178732	0.00175608	0.00071322	0.00305950	0.00322897	0.00120343	0.00108247	0.00203165	0.00049757
1.75000000	0.00547553	0.00350090	0.00736367	0.00225579	0.00418541	0.01232084	0.00577234	0.01374125	0.00083302	0.00377336	0.00072201	0.01643539	0.01378225	0.01637148	0.00493270	0.00576147	0.00145941	0.00060604	0.00178623	0.00170741	0.00074049	0.00314333	0.00314951	0.00126219	0.00121273	0.00212009	0.00026476
1.76000000	0.00554377	0.00338146	0.00750693	0.00218897	0.00420084	0.01261805	0.00615943	0.01429043	0.00092817	0.00386393	0.00079666	0.01666728	0.01255712	0.01560737	0.00430822	0.00556249	0.00126738	0.00069666	0.00186709	0.00177009	0.00081926	0.00326566	0.00316209	0.00126978	0.00141327	0.00216779	0.00034137
1.77000000	0.00553277	0.00363881	0.00734959	0.00184446	0.00394927	0.01290710	0.00666017	0.01460588	0.00105323	0.00391927	0.00103657	0.01690614	0.01115843	0.01506601	0.00364717	0.00542118	0.00106393	0.00069074	0.00204961	0.00193435	0.00089484	0.00342049	0.00322772	0.00123990	0.00174650	0.00218474	0.00043221
1.78000000	0.00604366	0.00508053	0.00689204	0.00171280	0.00364074	0.01299181	0.00799695	0.01464742	0.00129252	0.00352960	0.00184416	0.01694465	0.00879153	0.01498262	0.00277617	0.00594062	0.00141198	0.00071612	0.00246572	0.00220541	0.00106722	0.00372521	0.00350887	0.00130591	0.00218911	0.00213740	0.00095265
1.79000000	0.00554600	0.00298145	0.00742583	0.00149770	0.00372546	0.01299015	0.00718126	0.01550790	0.00130694	0.00428857	0.00078815	0.01689145	0.00887953	0.01332235	0.00225563	0.00503220	0.00070757	0.00080219	0.00224638	0.00221525	0.00098141	0.00370066	0.00312019	0.00124093	0.00217330	0.00228669	0.00040938
1.80000000	0.00558576	0.00258446	0.00762927	0.00150418	0.00377955	0.01305018	0.00805518	0.01574664	0.00146959	0.00411387	0.00098391	0.01684107	0.00788164	0.01175909	0.00164274	0.00463026	0.00022073	0.00094509	0.00220397	0.00221590	0.00105129	0.00377969	0.00306572	0.00139329	0.00209443	0.00231949	0.00063449
1.81000000	0.00567064	0.00331201	0.00707365	0.00120325	0.00327597	0.01304673	0.00858194	0.01581284	0.00162816	0.00412768	0.00114952	0.01658229	0.00635225	0.01118034	0.00120751	0.00460955	0.00057106	0.00094045	0.00251287	0.00249251	0.00111499	0.00406603	0.00316510	0.00146546	0.00249294	0.00230547	0.00072380
1.82000000	0.00553231	0.00232322	0.00730481	0.00129270	0.00329416	0.01295337	0.00929780	0.01612345	0.00189363	0.00408655	0.00119016	0.01610471	0.00593914	0.00917146	0.00113220	0.00393689	0.00048837	0.00104049	0.00245242	0.00248808	0.00112204	0.00409173	0.00306355	0.00145262	0.00244935	0.00241027	0.00073961
1.83000000	0.00547800	0.00235178	0.00702354	0.00133898	0.00297642	0.01288037	0.01015803	0.01623305	0.00217075	0.00407865	0.00130921	0.01556906	0.00509423	0.00753175	0.00122255	0.00338938	0.00063514	0.00107268	0.00256288	0.00263167	0.00116604	0.00423781	0.00306806	0.00147441	0.00258728	0.00242162	0.00074530
1.84000000	0.00548401	0.00272479	0.00650104	0.00158413	0.00248686	0.01280970	0.01090979	0.01631658	0.00241218	0.00410881	0.00139174	0.01498808	0.00431757	0.00601609	0.00140901	0.00278841	0.00078158	0.00100620	0.00267546	0.00282608	0.00120023	0.00438422	0.00310150	0.00134598	0.00277137	0.00248732	0.00074968
1.85000000	0.00546572	0.00288530	0.00623603	0.00191086	0.00231431	0.01254464	0.01195534	0.01652858	0.00275902	0.00405324	0.00158164	0.01429631	0.00365248	0.00414151	0.00137372	0.00218218	0.00084004	0.00110779	0.00279819	0.00287533	0.00119795	0.00447961	0.00312713	0.00145558	0.00285062	0.00248985	0.00080030
1.86000000	0.00546522	0.00361936	0.00576886	0.00219354	0.00207231	0.01226666	0.01279001	0.01681966	0.00307721	0.00410240	0.00162609	0.01375732	0.00279680	0.00319849	0.00124538	0.00220212	0.00097767	0.00114586	0.00290219	0.00291097	0.00121377	0.00450597	0.00323197	0.00150287	0.00294830	0.00248411	0.00087738
1.87000000	0.00553140	0.00486543	0.00511155	0.00257735	0.00183506	0.01208603	0.01350183	0.01698042	0.00325575	0.00430345	0.00155671	0.01345036	0.00285491	0.00427645	0.00132751	0.00288448	0.00127473	0.00117595	0.00305928	0.00297297	0.00119553	0.00452815	0.00326354	0.00152836	0.00308070	0.00244168	0.00089291
1.88000000	0.00555402	0.00577768	0.00447381	0.00322079	0.00177479	0.01203837	0.01406797	0.01698471	0.00341547	0.00419076	0.00167079	0.01426578	0.00315468	0.00670888	0.00162773	0.00345476	0.00148346	0.00112776	0.00314660	0.00306703	0.00118637	0.00457283	0.00327313	0.00137980	0.00321370	0.00241801	0.00086806
1.89000000	0.00569582	0.00711151	0.00382871	0.00354643	0.00192266	0.01193760	0.01450328	0.01705042	0.00343973	0.00421891	0.00163135	0.01478498	0.00491325	0.00936342	0.00246897	0.00474245	0.00210424	0.00108986	0.00324529	0.00302926	0.00117336	0.00447679	0.00340651	0.00151540	0.00332417	0.00228060	0.00098394
1.90000000	0.00576069	0.00813397	0.00331867	0.00406909	0.00226690	0.01189252	0.01484982	0.01694401	0.00341152	0.00405007	0.00171185	0.01659692	0.00594203	0.01214191	0.00325890	0.00567408	0.00261877	0.00108968	0.00329485	0.00301166	0.00112476	0.00439203	0.00335453	0.00145842	0.00339848	0.00218259	0.00098124
1.91000000	0.00588798	0.00951225	0.00285038	0.00462549	0.00275872	0.01183124	0.01496418	0.01676250	0.00330286	0.00403106	0.00170353	0.01876797	0.00705880	0.01443265	0.00414603	0.00628306	0.00339613	0.00105221	0.00341988	0.00298769	0.00107012	0.00431001	0.00338895	0.00149721	0.00359895	0.00201701	0.00110472
1.92000000	0.00596752	0.01083945	0.00272925	0.00517953	0.00334006	0.01188630	0.01499247	0.01642484	0.00306351	0.00389269	0.00160776	0.02114483	0.00778654	0.01634712	0.00497138	0.00666534	0.00460859	0.00113209	0.00344696	0.00293118	0.00099871	0.00415224	0.00326317	0.00163600	0.00367109	0.00174055	0.00115397
1.93000000	0.00595392	0.01167596	0.00282892	0.00559306	0.00376131	0.01147588	0.01481192	0.01639932	0.00279458	0.00403951	0.00144468	0.02439733	0.00790614	0.01761239	0.00569902	0.00644204	0.00564625	0.00114613	0.00328028	0.00276550	0.00099287	0.00386771	0.00329738	0.00193912	0.00365354	0.00135388	0.00119993
1.94000000	0.00616558	0.01280817	0.00317061	0.00597033	0.00433678	0.01199268	0.01461672	0.01544748	0.00239010	0.00347484	0.00168349	0.02531973	0.00820860	0.01867965	0.00632793	0.00659004	0.00640662	0.00137452	0.00352177	0.00271736	0.00089483	0.00376608	0.00313035	0.00188687	0.00391703	0.00121282	0.00133900
1.95000000	0.00612451	0.01308180	0.00332232	0.00597293	0.00444457	0.01161048	0.01434047	0.01527888	0.00200081	0.00357268	0.00135236	0.02638995	0.00803359	0.01921330	0.00679063	0.00631362	0.00690956	0.00152948	0.00347825	0.00242660	0.00076242	0.00334109	0.00289681	0.00202517	0.00392299	0.00093008	0.00135234
1.96000000	0.00592917	0.01302548	0.00339635	0.00573173	0.00438358	0.01133407	0.01407849	0.01509492	0.00159666	0.00374361	0.00125340	0.02623040	0.00781276	0.01933651	0.00698165	0.00590243	0.00703277	0.00177055	0.00341274	0.00213897	0.00075839	0.00285618	0.00283189	0.00238769	0.00402369	0.00042808	0.00160787
1.97000000	0.00577783	0.01270568	0.00348725	0.00546695	0.00432251	0.01144784	0.01368858	0.01444235	0.00125871	0.00357385	0.00101180	0.02454969	0.00817431	0.01864350	0.00715639	0.00594920	0.00690240	0.00201372	0.00342138	0.00181627	0.00064873	0.00243797	0.00255018	0.00240972	0.00406533	0.00027399	0.00158374
1.98000000	0.00546367	0.01216123	0.00333484	0.00482063	0.00392910	0.01130220	0.01347291	0.01419255	0.00083499	0.00361172	0.00070552	0.02190028	0.00805099	0.01790411	0.00705984	0.00520452	0.00636810	0.00226683	0.00336837	0.00143386	0.00068356	0.00184773	0.00249998	0.00270432	0.00413038	0.00047927	0.00191484
1.99000000	0.00545146	0.01123398	0.00350593	0.00459125	0.00391902	0.01159341	0.01278255	0.01292257	0.00039525	0.00277454	0.00129858	0.01905451	0.00787116	0.01615146	0.00671654	0.00499211	0.00577827	0.00236523	0.00327799	0.00119676	0.00063150	0.00155911	0.00234759	0.00282116	0.00414983	0.00051555	0.00185276
2.00000000	0.00520187	0.01018880	0.00346124	0.00400498	0.00359354	0.01146336	0.01271726	0.01240407	0.00051994	0.00296078	0.00091553	0.01473553	0.00833298	0.01415729	0.00628688	0.00483936	0.00508138	0.00255544	0.00319092	0.00104151	0.00066495	0.00109951	0.00203892	0.00298055	0.00407887	0.00108776	0.00187064
2.01000000	0.00507905	0.00942705	0.00350970	0.00386464	0.00357505	0.01134674	0.01254287	0.01179330	0.00074770	0.00269988	0.00101224	0.01197650	0.00725270	0.01143419	0.00574913	0.00349176	0.00431406	0.00304928	0.00331673	0.00094338	0.00078880	0.00092376	0.00188518	0.00347260	0.00431250	0.00144783	0.00213258
2.02000000	0.00507653	0.00817861	0.00357264	0.00344414	0.00338985	0.01129274	0.01290823	0.01117928	0.00095157	0.00247151	0.00120441	0.00755077	0.00757437	0.00886225	0.00524655	0.00309955	0.00354103	0.00333060	0.00335046	0.00090302	0.00095441	0.00067266	0.00182967	0.00378427	0.00439845	0.00184265	0.00226839
2.03000000	0.00510312	0.00720851	0.00364236	0.00318320	0.00325384	0.01124914	0.01337106	0.01032308	0.00144180	0.00272605	0.00098033	0.00387542	0.00772072	0.00640924	0.00479439	0.00273674	0.00307282	0.00355077	0.00335376	0.00090726	0.00101885	0.00047927	0.00134711	0.00391465	0.00439380	0.00227522	0.00231027
2.04000000	0.00522182	0.00710094	0.00376656	0.00374071	0.00354625	0.01091548	0.01337051	0.00990887	0.00153150	0.00262543	0.00102140	0.00370317	0.00552272	0.00327389	0.00449940	0.00113765	0.00165462	0.00404057	0.00329756	0.00099563	0.00119073	0.00078598	0.00115588	0.00434414	0.00433417	0.00276303	0.00253973
2.05000000	0.00542607	0.00662217	0.00381457	0.00379568	0.00352516	0.01085905	0.01359720	0.00928936	0.00187647	0.00276312	0.00107917	0.00280526	0.00503747	0.00163035	0.00425020	0.00178330	0.00113742	0.00428557	0.00323267	0.00103563	0.00132758	0.00085380	0.00097823	0.00453154	0.00424623	0.00309722	0.00260490
2.06000000	0.00563331	0.00624698	0.00380538	0.00372058	0.00341502	0.01099801	0.01338973	0.00870785	0.00228663	0.00313103	0.00101350	0.00361127	0.00506864	0.00109967	0.00395107	0.00201074	0.00156197	0.00443146	0.00314510	0.00118060	0.00151674	0.00085087	0.00092061	0.00454070	0.00402630	0.00344864	0.00278043
2.07000000	0.00589899	0.00589711	0.00382498	0.00374176	0.00335487	0.01112888	0.01351726	0.00804664	0.00270549	0.00328753	0.00126422	0.00392819	0.00480333	0.00168234	0.00362292	0.00247490	0.00101104	0.00448244	0.00302778	0.00107333	0.00155589	0.00095234	0.00087928	0.00464033	0.00393086	0.00341705	0.00262818
2.08000000	0.00609816	0.00605531	0.00374373	0.00378453	0.00327494	0.01137326	0.01287915	0.00754083	0.00302426	0.00363093	0.00147207	0.00385010	0.00450291	0.00201750	0.00336599	0.00261417	0.00148609	0.00452358	0.00279868	0.00114351	0.00165868	0.00104257	0.00087429	0.00454516	0.00354515	0.00359294	0.00269201
2.09000000	0.00629466	0.00598037	0.00371874	0.00380181	0.00321893	0.01154797	0.01242483	0.00694684	0.00347548	0.00411536	0.00137170	0.00310534	0.00413247	0.00208559	0.00311036	0.00292492	0.00101737	0.00436615	0.00265446	0.00117677	0.00169538	0.00111115	0.00085703	0.00437438	0.00331286	0.00340934	0.00259948
2.10000000	0.00647203	0.00620055	0.00364847	0.00395192	0.00326843	0.01170916	0.01152872	0.00593555	0.00378921	0.00392392	0.00136046	0.00244429	0.00373229	0.00179446	0.00295966	0.00301198	0.00114759	0.00425948	0.00257869	0.00128639	0.00181101	0.00125695	0.00091707	0.00411960	0.00310929	0.00343665	0.00259472
2.11000000	0.00653904	0.00616403	0.00349158	0.00385851	0.00307923	0.01183898	0.01045374	0.00548099	0.00417189	0.00433721	0.00141822	0.00178723	0.00366727	0.00161647	0.00289561	0.00299762	0.00097859	0.00407373	0.00233263	0.00132813	0.00184982	0.00138645	0.00100642	0.00386426	0.00273778	0.00319041	0.00248390
2.12000000	0.00666959	0.00641629	0.00330654	0.00385859	0.00293136	0.01191509	0.00902699	0.00501189	0.00436163	0.00449001	0.00221390	0.00148885	0.00380313	0.00166160	0.00269582	0.00264212	0.00150169	0.00385749	0.00215316	0.00137270	0.00191014	0.00153949	0.00115321	0.00367450	0.00248052	0.00286188	0.00230681
2.13000000	0.00666553	0.00567526	0.00331890	0.00358273	0.00269846	0.01173217	0.00804096	0.00432946	0.00490000	0.00491836	0.00148237	0.00165547	0.00364880	0.00112931	0.00276581	0.00278215	0.00083525	0.00347291	0.00189611	0.00136190	0.00186170	0.00161665	0.00120832	0.00312153	0.00207583	0.00258642	0.00217773
2.14000000	0.00657471	0.00553378	0.00323385	0.00345550	0.00255974	0.01151236	0.00642647	0.00358104	0.00515234	0.00512156	0.00159039	0.00188492	0.00385014	0.00118605	0.00270207	0.00256826	0.00096530	0.00314599	0.00176042	0.00147049	0.00187518	0.00177965	0.00127647	0.00280707	0.00181818	0.00214085	0.00202685
2.15000000	0.00637979	0.00530676	0.00324781	0.00327274	0.00242927	0.01114167	0.00481290	0.00279179	0.00545876	0.00536820	0.00178903	0.00227022	0.00405425	0.00121378	0.00263664	0.00233666	0.00106291	0.00276275	0.00149719	0.00145148	0.00176916	0.00188120	0.00121135	0.00243560	0.00151589	0.00181739	0.00166805
2.16000000	0.00622536	0.00503299	0.00322943	0.00294773	0.00212849	0.01058219	0.00330738	0.00204398	0.00567702	0.00498189	0.00151887	0.00251151	0.00381383	0.00141832	0.00254400	0.00241677	0.00076705	0.00243315	0.00130684	0.00141099	0.00170990	0.00194050	0.00125344	0.00189496	0.00106989	0.00156299	0.00147893
2.17000000	0.00527314	0.00459417	0.00299300	0.00256005	0.00198391	0.00991185	0.00112430	0.00181000	0.00580267	0.00436033	0.00130313	0.00256845	0.00459843	0.00222104	0.00272423	0.00248589	0.00062047	0.00204451	0.00138087	0.00150130	0.00177155	0.00208412	0.00142717	0.00151458	0.00097527	0.00127497	0.00138890
2.18000000	0.00494720	0.00493412	0.00294963	0.00235431	0.00185391	0.00930960	0.00071098	0.00229292	0.00590124	0.00414394	0.00142323	0.00368172	0.00452221	0.00322539	0.00275025	0.00257737	0.00077148	0.00169604	0.00121042	0.00147244	0.00159397	0.00212349	0.00127762	0.00112231	0.00078511	0.00085278	0.00109855
2.19000000	0.00423042	0.00506302	0.00272866	0.00219703	0.00178447	0.00888203	0.00238984	0.00328865	0.00588210	0.00418078	0.00135576	0.00619143	0.00461336	0.00404671	0.00300643	0.00273387	0.00136147	0.00149104	0.00115814	0.00157115	0.00151055	0.00227461	0.00119857	0.00088649	0.00048866	0.00075739	0.00092280
2.20000000	0.00373721	0.00475534	0.00244294	0.00169499	0.00150109	0.00867118	0.00348940	0.00486745	0.00589904	0.00358417	0.00089064	0.00615861	0.00558943	0.00606382	0.00322159	0.00351875	0.00099560	0.00119890	0.00110072	0.00149764	0.00151730	0.00218828	0.00132719	0.00060585	0.00033890	0.00045545	0.00071046
2.21000000	0.00356496	0.00505863	0.00221869	0.00159647	0.00141872	0.00870881	0.00455592	0.00628188	0.00586199	0.00373521	0.00096412	0.00912561	0.00538799	0.00720925	0.00355796	0.00366064	0.00153826	0.00113033	0.00096888	0.00155089	0.00140507	0.00226423	0.00120960	0.00048243	0.00024319	0.00029008	0.00069733
2.22000000	0.00359715	0.00546558	0.00203623	0.00156255	0.00139282	0.00913135	0.00514119	0.00781804	0.00597894	0.00402552	0.00153150	0.01151239	0.00531526	0.00823052	0.00379349	0.00396051	0.00187630	0.00108288	0.00068473	0.00150401	0.00124622	0.00227583	0.00113575	0.00020049	0.00039883	0.00020267	0.00070868
2.23000000	0.00391051	0.00571284	0.00180585	0.00147823	0.00128248	0.00998945	0.00547008	0.00945225	0.00608228	0.00425780	0.00179786	0.01289344	0.00528930	0.00915314	0.00397855	0.00424881	0.00221855	0.00098569	0.00079927	0.00149293	0.00113423	0.00222549	0.00096677	0.00018109	0.00052604	0.00034171	0.00059466
2.24000000	0.00467170	0.00610619	0.00140716	0.00131904	0.00099369	0.01109467	0.00537219	0.01125436	0.00604572	0.00433889	0.00085590	0.01205324	0.00551140	0.01013189	0.00397824	0.00489650	0.00239333	0.00077135	0.00079731	0.00144250	0.00123044	0.00208597	0.00109664	0.00019771	0.00032514	0.00005633	0.00007653
2.25000000	0.00497590	0.00575363	0.00109520	0.00121475	0.00071655	0.01209449	0.00640189	0.01235684	0.00603690	0.00486577	0.00245085	0.01265655	0.00579560	0.00985579	0.00422483	0.00473696	0.00203596	0.00074896	0.00074410	0.00130608	0.00105301	0.00191285	0.00091780	0.00020256	0.00051844	0.00009967	0.00030214
2.26000000	0.00526115	0.00540193	0.00107405	0.00100894	0.00059896	0.01323323	0.00605726	0.01398330	0.00610781	0.00524747	0.00206848	0.01153314	0.00532990	0.00978985	0.00399124	0.00487215	0.00216823	0.00058194	0.00091051	0.00117993	0.00094487	0.00171604	0.00087054	0.00021424	0.00079595	0.00015707	0.00034067
2.27000000	0.00550829	0.00519945	0.00093883	0.00104796	0.00057485	0.01401331	0.00615448	0.01525556	0.00613260	0.00568396	0.00229772	0.00995925	0.00506523	0.00909457	0.00380868	0.00477020	0.00182013	0.00066200	0.00084331	0.00107007	0.00087177	0.00155257	0.00082904	0.00017996	0.00082141	0.00015758	0.00050375
2.28000000	0.00563334	0.00478116	0.00093346	0.00125271	0.00077258	0.01466785	0.00627518	0.01628084	0.00614817	0.00603820	0.00272975	0.00813506	0.00471181	0.00801804	0.00360017	0.00444519	0.00139825	0.00064120	0.00098301	0.00093568	0.00080283	0.00134617	0.00082451	0.00020956	0.00095037	0.00012416	0.00073393
2.29000000	0.00565483	0.00467388	0.00099104	0.00142822	0.00098275	0.01501467	0.00628960	0.01720186	0.00614743	0.00635258	0.00312077	0.00603632	0.00414721	0.00671161	0.00330090	0.00399070	0.00099375	0.00069397	0.00116655	0.00085300	0.00073438	0.00121204	0.00080349	0.00026478	0.00109790	0.00007020	0.00089902
2.30000000	0.00592703	0.00415904	0.00116068	0.00224161	0.00150057	0.01567928	0.00743721	0.01697616	0.00618059	0.00638862	0.00412767	0.00376315	0.00454777	0.00507282	0.00316879	0.00368190	0.00058396	0.00090906	0.00146328	0.00070182	0.00059940	0.00102840	0.00076200	0.00046684	0.00130643	0.00016870	0.00128053
2.31000000	0.00549713	0.00416894	0.00136487	0.00243286	0.00177265	0.01574362	0.00708370	0.01761909	0.00627264	0.00659285	0.00419823	0.00170530	0.00394766	0.00378562	0.00291390	0.00321027	0.00146364	0.00102319	0.00167149	0.00071395	0.00064278	0.00106574	0.00088940	0.00049836	0.00162457	0.00014157	0.00130421
2.32000000	0.00530463	0.00456242	0.00143903	0.00239673	0.00187318	0.01537082	0.00681095	0.01818975	0.00616201	0.00677635	0.00448085	0.00100020	0.00305209	0.00285960	0.00262014	0.00271093	0.00142796	0.00099707	0.00182147	0.00082885	0.00076689	0.00112455	0.00101093	0.00030328	0.00168048	0.00026977	0.00148589
2.33000000	0.00529561	0.00528524	0.00158927	0.00237184	0.00200050	0.01489361	0.00710635	0.01823107	0.00604805	0.00669689	0.00465016	0.00202744	0.00239744	0.00274989	0.00251070	0.00232661	0.00165847	0.00115438	0.00204223	0.00104224	0.00084728	0.00117913	0.00085341	0.00042281	0.00169499	0.00019200	0.00166627
2.34000000	0.00532677	0.00571885	0.00158190	0.00242276	0.00205370	0.01440674	0.00752019	0.01808965	0.00585666	0.00657955	0.00486278	0.00273674	0.00196052	0.00353243	0.00249177	0.00236880	0.00223391	0.00120556	0.00230575	0.00095545	0.00085588	0.00123910	0.00114179	0.00018694	0.00186294	0.00015522	0.00198272
2.35000000	0.00497554	0.00589282	0.00168934	0.00278236	0.00226205	0.01402463	0.00835095	0.01762013	0.00586979	0.00636373	0.00482277	0.00394999	0.00198766	0.00384399	0.00257603	0.00275163	0.00242464	0.00142390	0.00250702	0.00102804	0.00090095	0.00126637	0.00125974	0.00036940	0.00213851	0.00011974	0.00217903
2.36000000	0.00480725	0.00609527	0.00178793	0.00295615	0.00239991	0.01356843	0.00892227	0.01729188	0.00578556	0.00611452	0.00458800	0.00454011	0.00204763	0.00417999	0.00256538	0.00301242	0.00265225	0.00150957	0.00264698	0.00114950	0.00100383	0.00133949	0.00133945	0.00043384	0.00228553	0.00006398	0.00237856
2.37000000	0.00496963	0.00604307	0.00172400	0.00264571	0.00224452	0.01286131	0.00908482	0.01733270	0.00560635	0.00604373	0.00458084	0.00440558	0.00187214	0.00484033	0.00234842	0.00310478	0.00290654	0.00154017	0.00278386	0.00122980	0.00107769	0.00137146	0.00139914	0.00028501	0.00230918	0.00005803	0.00256645
2.38000000	0.00475278	0.00606482	0.00178012	0.00265597	0.00221550	0.01255397	0.00999476	0.01687424	0.00551919	0.00574462	0.00410957	0.00387071	0.00184202	0.00456666	0.00236184	0.00346061	0.00286175	0.00161711	0.00293604	0.00136229	0.00115063	0.00136792	0.00144219	0.00035290	0.00242530	0.00019910	0.00282877
2.39000000	0.00490022	0.00578924	0.00181909	0.00251247	0.00215937	0.01217906	0.01036465	0.01677188	0.00547669	0.00567110	0.00390455	0.00297950	0.00184140	0.00431352	0.00225834	0.00363233	0.00292923	0.00162481	0.00303194	0.00136085	0.00118207	0.00138715	0.00152508	0.00033215	0.00260928	0.00014117	0.00288595
2.40000000	0.00498718	0.00549216	0.00192938	0.00237999	0.00209195	0.01194392	0.01102455	0.01655791	0.00539889	0.00557110	0.00352860	0.00170207	0.00193118	0.00387059	0.00213350	0.00381715	0.00294186	0.00164936	0.00315172	0.00139805	0.00119588	0.00136348	0.00153713	0.00032137	0.00266986	0.00011855	0.00303534
2.41000000	0.00537417	0.00500394	0.00196171	0.00215965	0.00200337	0.01170838	0.01131354	0.01659177	0.00544130	0.00572525	0.00342242	0.00070207	0.00231604	0.00340035	0.00184866	0.00358942	0.00279317	0.00160013	0.00322408	0.00143926	0.00124142	0.00141739	0.00158455	0.00024497	0.00265906	0.00016700	0.00317280
2.42000000	0.00559394	0.00447050	0.00214907	0.00205525	0.00197415	0.01155498	0.01183924	0.01649814	0.00543723	0.00584735	0.00332503	0.00079180	0.00269077	0.00292533	0.00166753	0.00358985	0.00274662	0.00164801	0.00328603	0.00141649	0.00124128	0.00141230	0.00166494	0.00029225	0.00276255	0.00011828	0.00316485
2.43000000	0.00572613	0.00361287	0.00225160	0.00213745	0.00197150	0.01145354	0.01229016	0.01655052	0.00548168	0.00595872	0.00336668	0.00064684	0.00353165	0.00304921	0.00113947	0.00281250	0.00207475	0.00160026	0.00331574	0.00143919	0.00125996	0.00144715	0.00163465	0.00029511	0.00275183	0.00021517	0.00321709
2.44000000	0.00575497	0.00328119	0.00242741	0.00196286	0.00188878	0.01162707	0.01288852	0.01637570	0.00557684	0.00600167	0.00314318	0.00242269	0.00373515	0.00298566	0.00120091	0.00297532	0.00224290	0.00155789	0.00332277	0.00144289	0.00126170	0.00138381	0.00173446	0.00023169	0.00281862	0.00025251	0.00318590
2.45000000	0.00610226	0.00299041	0.00265201	0.00185745	0.00191543	0.01174698	0.01327561	0.01638812	0.00568626	0.00593735	0.00294391	0.00375124	0.00401488	0.00298463	0.00129380	0.00307423	0.00256076	0.00149510	0.00325709	0.00142771	0.00131279	0.00142634	0.00193638	0.00033475	0.00286361	0.00018408	0.00308311
2.46000000	0.00617423	0.00306749	0.00250192	0.00215326	0.00189562	0.01180411	0.01345032	0.01634121	0.00583519	0.00613931	0.00329674	0.00356442	0.00419124	0.00388132	0.00114212	0.00282108	0.00157987	0.00147062	0.00343203	0.00136366	0.00120694	0.00142346	0.00187017	0.00035104	0.00282065	0.00031245	0.00313997
2.47000000	0.00643490	0.00279109	0.00264195	0.00204928	0.00185891	0.01210784	0.01357524	0.01633904	0.00614092	0.00619322	0.00335227	0.00426114	0.00447943	0.00395609	0.00129140	0.00271654	0.00182910	0.00136576	0.00339283	0.00137383	0.00123141	0.00146762	0.00198779	0.00024930	0.00277139	0.00026277	0.00300943
2.48000000	0.00701372	0.00263915	0.00282629	0.00198421	0.00191434	0.01243417	0.01352849	0.01648568	0.00633352	0.00628845	0.00359224	0.00460200	0.00523268	0.00357879	0.00152728	0.00253971	0.00217730	0.00123188	0.00342242	0.00125954	0.00123198	0.00161470	0.00219796	0.00051296	0.00277992	0.00018901	0.00288024
2.49000000	0.00691930	0.00289718	0.00271102	0.00211906	0.00183596	0.01286468	0.01334038	0.01653580	0.00667920	0.00631298	0.00383008	0.00465847	0.00481021	0.00415113	0.00143264	0.00278875	0.00195232	0.00115887	0.00345855	0.00133538	0.00118610	0.00161384	0.00213921	0.00022079	0.00256582	0.00030961	0.00284584
2.50000000	0.00690307	0.00372307	0.00265213	0.00255286	0.00191711	0.01312428	0.01318928	0.01673558	0.00668924	0.00611160	0.00398626	0.00443386	0.00456709	0.00457140	0.00156162	0.00291583	0.00134687	0.00116459	0.00353012	0.00122880	0.00107520	0.00153624	0.00223767	0.00025643	0.00259763	0.00032273	0.00273100
2.51000000	0.00710427	0.00377652	0.00271646	0.00261245	0.00195703	0.01381798	0.01273870	0.01704873	0.00693262	0.00614980	0.00430208	0.00407453	0.00491328	0.00463202	0.00164931	0.00280591	0.00148637	0.00103749	0.00352495	0.00118665	0.00105050	0.00163195	0.00229211	0.00024518	0.00253840	0.00027382	0.00248343
2.52000000	0.00721120	0.00463941	0.00274368	0.00293143	0.00205125	0.01431016	0.01236060	0.01736973	0.00695513	0.00601564	0.00447383	0.00387957	0.00471128	0.00477563	0.00169241	0.00305816	0.00126502	0.00103307	0.00356962	0.00113451	0.00096325	0.00159135	0.00240749	0.00029276	0.00249798	0.00031402	0.00240857
2.53000000	0.00744427	0.00524148	0.00280154	0.00305377	0.00209898	0.01510936	0.01182680	0.01770999	0.00702748	0.00594231	0.00455954	0.00389958	0.00467732	0.00477374	0.00176118	0.00312779	0.00142590	0.00099711	0.00359457	0.00106798	0.00089818	0.00161512	0.00253699	0.00033275	0.00246775	0.00031651	0.00224079
2.54000000	0.00763652	0.00574272	0.00288863	0.00317326	0.00217520	0.01578474	0.01112552	0.01825344	0.00696345	0.00592519	0.00474329	0.00362316	0.00486767	0.00495637	0.00182305	0.00328454	0.00137829	0.00095146	0.00357306	0.00101935	0.00083841	0.00162880	0.00260208	0.00026964	0.00231770	0.00034616	0.00212425
2.55000000	0.00764580	0.00579568	0.00296541	0.00305840	0.00213769	0.01675786	0.01026924	0.01879070	0.00695957	0.00596425	0.00475016	0.00337588	0.00563828	0.00509369	0.00183347	0.00333049	0.00150180	0.00087746	0.00351220	0.00104501	0.00079495	0.00170093	0.00258007	0.00030995	0.00226791	0.00033694	0.00181039
2.56000000	0.00798040	0.00661981	0.00309988	0.00329992	0.00223346	0.01712730	0.00970622	0.01896516	0.00667534	0.00585590	0.00466748	0.00357714	0.00539401	0.00554254	0.00200290	0.00360982	0.00154632	0.00091944	0.00352564	0.00094331	0.00071973	0.00164990	0.00277666	0.00033181	0.00220355	0.00036290	0.00178854
2.57000000	0.00810440	0.00701298	0.00321964	0.00321485	0.00221108	0.01759276	0.00895911	0.01908882	0.00640424	0.00580249	0.00452052	0.00391617	0.00567580	0.00589560	0.00209050	0.00376240	0.00162490	0.00087923	0.00353075	0.00089815	0.00063729	0.00170732	0.00283745	0.00030670	0.00211705	0.00036080	0.00166418
2.58000000	0.00782291	0.00692245	0.00330322	0.00276751	0.00207717	0.01811834	0.00790343	0.01917931	0.00623671	0.00571754	0.00415842	0.00423554	0.00672891	0.00610437	0.00207789	0.00379748	0.00173230	0.00077747	0.00339286	0.00094387	0.00063396	0.00180145	0.00295221	0.00036832	0.00193786	0.00036833	0.00154485
2.59000000	0.00797847	0.00741032	0.00346989	0.00284253	0.00210753	0.01758181	0.00747930	0.01868900	0.00571870	0.00553345	0.00406279	0.00474988	0.00647946	0.00696867	0.00235237	0.00418014	0.00168554	0.00090582	0.00342664	0.00086837	0.00052166	0.00175507	0.00294859	0.00020506	0.00189441	0.00046915	0.00141039
2.60000000	0.00806525	0.00770273	0.00363155	0.00269900	0.00212706	0.01718327	0.00688221	0.01760800	0.00537921	0.00516494	0.00357953	0.00554822	0.00677891	0.00751362	0.00242833	0.00422925	0.00189461	0.00100993	0.00342693	0.00085464	0.00047857	0.00177408	0.00296216	0.00041856	0.00189112	0.00044156	0.00123962
2.61000000	0.00772680	0.00782728	0.00380982	0.00229334	0.00210501	0.01639144	0.00630498	0.01635697	0.00499490	0.00481468	0.00327435	0.00614050	0.00704001	0.00808273	0.00255208	0.00443352	0.00189361	0.00101925	0.00339032	0.00086465	0.00047113	0.00182407	0.00312664	0.00033363	0.00182728	0.00049237	0.00124918
2.62000000	0.00702579	0.00763533	0.00407299	0.00161420	0.00227081	0.01535205	0.00543945	0.01508675	0.00472494	0.00440346	0.00299869	0.00673643	0.00773784	0.00835348	0.00258591	0.00455337	0.00192226	0.00089295	0.00324686	0.00091355	0.00046561	0.00190541	0.00325551	0.00030336	0.00173774	0.00050328	0.00105817
2.63000000	0.00644439	0.00765599	0.00436013	0.00130500	0.00253292	0.01374095	0.00513968	0.01337931	0.00421388	0.00386365	0.00279993	0.00722730	0.00796376	0.00880929	0.00271249	0.00473215	0.00192611	0.00094062	0.00319343	0.00091126	0.00038044	0.00188795	0.00315237	0.00034775	0.00157405	0.00043213	0.00102328
2.64000000	0.00612790	0.00777135	0.00458074	0.00120174	0.00272435	0.01207613	0.00498008	0.01104845	0.00379859	0.00316323	0.00240845	0.00744597	0.00802094	0.00930168	0.00280428	0.00483234	0.00196863	0.00110312	0.00318573	0.00080309	0.00035354	0.00174016	0.00310197	0.00029162	0.00153593	0.00055790	0.00097883
2.65000000	0.00623218	0.00784433	0.00462163	0.00116980	0.00285575	0.01104983	0.00431508	0.00793737	0.00365756	0.00235273	0.00173505	0.00786858	0.00781077	0.00945395	0.00281761	0.00490674	0.00211746	0.00124667	0.00324751	0.00062882	0.00045618	0.00155187	0.00313317	0.00049925	0.00163484	0.00057739	0.00096695
2.66000000	0.00570315	0.00773349	0.00468881	0.00119372	0.00308493	0.00952975	0.00400791	0.00630173	0.00346152	0.00263784	0.00250460	0.00774226	0.00832740	0.00931136	0.00275557	0.00474920	0.00245838	0.00135366	0.00321058	0.00054096	0.00048958	0.00136747	0.00307230	0.00056540	0.00161105	0.00061935	0.00092849
2.67000000	0.00541423	0.00778860	0.00492856	0.00138218	0.00338508	0.00913378	0.00377572	0.00442589	0.00298173	0.00145153	0.00105456	0.00792351	0.00764592	0.00892322	0.00273122	0.00502298	0.00237667	0.00142144	0.00310655	0.00053278	0.00049440	0.00120292	0.00299207	0.00057708	0.00150399	0.00064095	0.00086310
2.68000000	0.00492626	0.00777991	0.00508928	0.00171080	0.00366728	0.00906578	0.00363412	0.00430842	0.00255318	0.00109182	0.00089273	0.00766084	0.00790695	0.00823519	0.00260943	0.00499995	0.00247697	0.00150740	0.00301177	0.00054398	0.00047201	0.00101833	0.00280169	0.00058798	0.00136131	0.00064550	0.00080904
2.69000000	0.00486419	0.00788200	0.00509465	0.00196412	0.00381933	0.00947081	0.00359803	0.00495187	0.00227106	0.00154042	0.00044058	0.00774949	0.00715930	0.00738004	0.00253945	0.00502467	0.00285564	0.00167844	0.00293591	0.00073154	0.00056035	0.00092091	0.00269785	0.00071578	0.00133351	0.00069048	0.00071616
2.70000000	0.00457589	0.00784371	0.00517441	0.00222482	0.00399991	0.01029424	0.00341009	0.00593826	0.00187921	0.00141371	0.00036928	0.00754218	0.00718875	0.00650954	0.00240904	0.00507897	0.00294479	0.00180755	0.00281141	0.00090623	0.00056214	0.00086705	0.00244373	0.00073631	0.00114358	0.00071927	0.00067581
2.71000000	0.00415132	0.00780786	0.00528640	0.00244580	0.00417735	0.01113326	0.00328475	0.00676463	0.00153984	0.00142389	0.00051261	0.00759135	0.00702126	0.00540834	0.00243466	0.00523277	0.00309154	0.00192490	0.00256892	0.00108709	0.00057725	0.00086462	0.00224998	0.00077449	0.00093031	0.00069676	0.00057061
2.72000000	0.00407375	0.00823461	0.00510958	0.00272124	0.00421991	0.01186004	0.00309746	0.00696146	0.00120777	0.00097856	0.00104220	0.00774224	0.00676200	0.00489851	0.00229804	0.00485351	0.00335527	0.00209851	0.00237733	0.00134792	0.00063289	0.00102198	0.00206424	0.00084467	0.00083242	0.00070655	0.00044939
2.73000000	0.00348338	0.00792447	0.00520161	0.00268241	0.00426497	0.01202040	0.00290725	0.00747450	0.00111993	0.00153123	0.00121672	0.00794041	0.00603445	0.00354941	0.00246846	0.00523759	0.00375750	0.00218542	0.00228729	0.00159895	0.00066189	0.00129082	0.00179649	0.00086782	0.00074547	0.00072436	0.00041210
2.74000000	0.00324821	0.00790117	0.00507727	0.00278865	0.00426477	0.01221394	0.00276639	0.00702299	0.00122752	0.00099720	0.00160837	0.00839340	0.00568464	0.00288386	0.00266927	0.00530983	0.00369766	0.00239327	0.00182385	0.00180236	0.00061206	0.00150630	0.00161982	0.00091029	0.00028935	0.00065943	0.00010420
2.75000000	0.00317892	0.00778320	0.00490979	0.00284302	0.00421210	0.01168914	0.00285033	0.00680309	0.00166174	0.00134626	0.00199893	0.00856090	0.00456087	0.00230125	0.00290665	0.00546792	0.00393554	0.00248574	0.00148346	0.00205560	0.00065757	0.00183768	0.00150716	0.00091310	0.00010772	0.00059609	0.00010910
2.76000000	0.00276530	0.00774563	0.00484750	0.00287803	0.00419433	0.01141414	0.00264089	0.00593407	0.00205796	0.00090429	0.00221363	0.00883850	0.00455082	0.00188992	0.00314377	0.00530877	0.00400890	0.00261576	0.00124512	0.00221745	0.00063144	0.00200172	0.00137074	0.00089692	0.00024064	0.00053574	0.00028537
2.77000000	0.00240352	0.00745398	0.00473748	0.00282283	0.00409827	0.01056013	0.00251693	0.00556385	0.00254880	0.00122412	0.00259374	0.00898932	0.00411646	0.00169704	0.00339728	0.00538831	0.00416896	0.00274600	0.00096285	0.00240882	0.00063902	0.00224301	0.00136179	0.00091016	0.00053358	0.00045256	0.00055673
2.78000000	0.00202993	0.00717265	0.00471622	0.00281775	0.00406046	0.00989505	0.00250978	0.00481195	0.00297769	0.00134412	0.00268811	0.00919894	0.00400302	0.00183214	0.00360442	0.00539137	0.00421410	0.00283647	0.00076614	0.00253195	0.00063866	0.00239398	0.00146252	0.00085466	0.00086313	0.00037609	0.00079663
2.79000000	0.00202101	0.00699176	0.00455387	0.00275721	0.00393444	0.00915634	0.00263757	0.00419460	0.00336348	0.00150417	0.00271470	0.00941705	0.00375936	0.00213114	0.00386775	0.00529017	0.00425027	0.00302601	0.00082544	0.00263930	0.00067741	0.00250899	0.00175804	0.00086977	0.00125405	0.00026057	0.00105963
2.80000000	0.00186663	0.00658692	0.00445204	0.00270847	0.00381035	0.00817455	0.00294500	0.00407722	0.00366353	0.00198924	0.00273353	0.00946663	0.00354157	0.00253783	0.00411124	0.00541080	0.00426749	0.00322832	0.00101200	0.00277852	0.00065748	0.00266885	0.00192476	0.00091796	0.00155999	0.00022712	0.00136931
2.81000000	0.00214505	0.00635510	0.00428329	0.00262748	0.00365988	0.00748912	0.00335120	0.00382588	0.00382397	0.00226485	0.00251651	0.00967011	0.00333870	0.00288280	0.00438150	0.00526505	0.00431613	0.00338412	0.00140426	0.00285672	0.00073431	0.00276956	0.00232679	0.00091763	0.00191062	0.00015835	0.00163178
2.82000000	0.00262238	0.00619082	0.00408630	0.00260032	0.00351177	0.00685556	0.00368618	0.00383400	0.00382975	0.00276801	0.00222082	0.00970970	0.00338755	0.00335989	0.00481792	0.00496740	0.00440049	0.00352550	0.00172402	0.00295190	0.00088351	0.00283231	0.00282717	0.00097918	0.00209056	0.00015655	0.00193643
2.83000000	0.00252685	0.00569811	0.00406834	0.00253143	0.00341072	0.00614654	0.00411964	0.00413028	0.00371488	0.00298901	0.00211377	0.01000210	0.00310296	0.00368382	0.00484218	0.00502377	0.00430061	0.00368671	0.00211415	0.00297474	0.00086952	0.00288284	0.00309837	0.00100992	0.00245289	0.00006960	0.00215297
2.84000000	0.00252132	0.00523597	0.00404344	0.00252379	0.00333768	0.00525735	0.00446529	0.00455960	0.00351460	0.00331396	0.00198361	0.01006089	0.00304718	0.00407700	0.00500508	0.00495783	0.00425829	0.00382649	0.00246488	0.00300702	0.00091133	0.00290257	0.00335574	0.00103448	0.00272360	0.00017119	0.00235646
2.85000000	0.00242560	0.00476445	0.00401286	0.00253909	0.00326083	0.00419344	0.00482351	0.00494518	0.00332852	0.00352906	0.00194731	0.00999764	0.00302110	0.00442471	0.00527737	0.00480562	0.00410883	0.00391196	0.00267741	0.00302797	0.00098448	0.00289130	0.00370952	0.00107919	0.00281763	0.00023374	0.00255438
2.86000000	0.00219006	0.00425409	0.00401671	0.00256533	0.00320775	0.00286330	0.00519678	0.00523767	0.00315776	0.00370878	0.00213461	0.00984949	0.00303594	0.00471245	0.00554855	0.00465344	0.00389252	0.00398975	0.00284433	0.00304560	0.00104697	0.00286199	0.00398199	0.00113140	0.00287879	0.00035789	0.00268370
2.87000000	0.00266599	0.00398759	0.00422960	0.00277526	0.00342564	0.00316978	0.00491987	0.00392542	0.00238217	0.00366881	0.00103009	0.00966329	0.00274367	0.00512651	0.00535836	0.00473583	0.00368019	0.00403409	0.00320169	0.00285822	0.00110749	0.00256792	0.00416947	0.00103075	0.00319281	0.00022064	0.00275530
2.88000000	0.00223783	0.00351274	0.00423610	0.00277525	0.00337887	0.00163070	0.00537130	0.00385901	0.00232897	0.00339351	0.00137351	0.00940706	0.00250118	0.00537557	0.00550233	0.00448561	0.00350417	0.00403421	0.00324041	0.00284189	0.00115078	0.00252259	0.00432928	0.00110988	0.00314316	0.00022871	0.00277455
2.89000000	0.00192444	0.00312763	0.00428759	0.00279703	0.00339180	0.00061544	0.00566728	0.00356263	0.00222088	0.00326995	0.00138318	0.00924356	0.00228258	0.00569469	0.00558758	0.00422928	0.00326726	0.00401101	0.00326156	0.00281288	0.00120447	0.00244710	0.00437736	0.00113126	0.00303965	0.00023548	0.00278269
2.90000000	0.00164846	0.00279097	0.00427400	0.00279282	0.00337083	0.00105192	0.00590415	0.00307832	0.00214251	0.00304717	0.00163745	0.00897577	0.00232850	0.00597673	0.00564669	0.00400347	0.00301320	0.00398955	0.00321611	0.00279504	0.00124568	0.00236515	0.00440688	0.00119415	0.00290950	0.00017361	0.00267542
2.91000000	0.00227955	0.00311437	0.00432177	0.00264025	0.00334408	0.00066409	0.00492165	0.00206945	0.00168884	0.00345460	0.00124613	0.00875607	0.00234908	0.00612922	0.00566070	0.00367077	0.00239363	0.00402197	0.00330987	0.00264498	0.00128190	0.00219625	0.00460086	0.00136834	0.00285384	0.00016715	0.00268495
2.92000000	0.00193219	0.00290561	0.00417287	0.00261608	0.00328194	0.00068133	0.00511964	0.00171022	0.00166489	0.00316336	0.00127437	0.00843622	0.00288590	0.00645651	0.00568354	0.00339975	0.00228150	0.00387500	0.00318477	0.00259220	0.00133163	0.00211573	0.00451931	0.00140793	0.00264159	0.00018444	0.00249433
2.93000000	0.00189616	0.00292369	0.00398360	0.00251876	0.00317534	0.00032402	0.00489280	0.00161319	0.00156256	0.00310058	0.00106900	0.00815150	0.00345671	0.00695762	0.00568221	0.00332726	0.00198788	0.00376281	0.00307431	0.00252128	0.00136607	0.00203935	0.00442678	0.00149484	0.00235587	0.00030138	0.00240071
2.94000000	0.00198249	0.00303812	0.00371341	0.00235320	0.00300322	0.00063062	0.00456270	0.00167224	0.00148118	0.00304866	0.00087490	0.00788948	0.00421112	0.00750630	0.00557438	0.00343333	0.00176030	0.00360796	0.00298652	0.00243679	0.00139821	0.00201580	0.00432677	0.00162009	0.00211283	0.00042690	0.00223448
2.95000000	0.00214719	0.00309106	0.00339247	0.00224171	0.00283248	0.00208285	0.00432715	0.00175532	0.00145002	0.00302777	0.00078540	0.00764773	0.00508351	0.00826674	0.00548902	0.00354291	0.00176071	0.00346719	0.00286086	0.00238080	0.00138039	0.00196318	0.00410908	0.00174830	0.00186035	0.00056330	0.00198427
2.96000000	0.00252335	0.00351867	0.00304965	0.00198554	0.00256997	0.00331771	0.00400469	0.00243041	0.00161217	0.00284418	0.00075327	0.00751122	0.00561248	0.00916800	0.00534185	0.00419081	0.00062409	0.00327568	0.00268010	0.00231898	0.00143575	0.00197857	0.00409204	0.00184891	0.00154555	0.00079521	0.00179365
2.97000000	0.00262217	0.00335830	0.00264885	0.00192745	0.00238448	0.00537871	0.00411541	0.00268774	0.00167853	0.00302501	0.00068015	0.00763490	0.00673696	0.01017449	0.00510705	0.00426819	0.00181291	0.00300754	0.00257890	0.00228568	0.00148673	0.00199476	0.00378909	0.00189565	0.00130844	0.00081877	0.00153983
2.98000000	0.00302105	0.00354443	0.00220412	0.00174934	0.00209937	0.00700017	0.00419194	0.00350127	0.00185033	0.00312918	0.00077907	0.00795476	0.00733038	0.01136652	0.00497794	0.00482687	0.00168660	0.00277665	0.00238430	0.00211866	0.00149132	0.00199746	0.00374042	0.00202308	0.00097870	0.00105944	0.00144367
2.99000000	0.00322169	0.00355357	0.00176448	0.00169288	0.00186905	0.00869208	0.00441531	0.00426021	0.00198751	0.00325264	0.00089767	0.00852360	0.00810363	0.01264029	0.00476473	0.00524244	0.00221391	0.00254343	0.00239845	0.00212922	0.00153594	0.00211905	0.00333664	0.00210515	0.00080957	0.00104452	0.00122443
3.00000000	0.00307940	0.00307359	0.00130650	0.00177604	0.00162710	0.00850587	0.00488345	0.00622676	0.00269196	0.00330305	0.00119207	0.00810257	0.00899314	0.01442668	0.00445632	0.00614042	0.00105576	0.00218144	0.00198606	0.00205713	0.00154956	0.00206583	0.00319964	0.00202560	0.00048997	0.00120571	0.00086066
3.01000000	0.00354216	0.00339535	0.00101234	0.00176449	0.00143416	0.00959925	0.00492196	0.00716903	0.00263832	0.00354652	0.00139830	0.00920947	0.00944314	0.01569552	0.00435718	0.00649237	0.00116209	0.00199887	0.00187593	0.00204220	0.00155757	0.00212373	0.00301286	0.00207546	0.00029839	0.00128714	0.00067571
3.02000000	0.00389739	0.00360708	0.00095503	0.00183162	0.00134782	0.01030189	0.00491334	0.00814637	0.00259915	0.00366670	0.00152049	0.01025047	0.00986225	0.01707601	0.00425451	0.00682344	0.00125278	0.00179724	0.00175733	0.00196424	0.00153445	0.00217844	0.00286521	0.00207455	0.00016459	0.00137743	0.00050525
3.03000000	0.00392168	0.00354443	0.00131726	0.00201703	0.00143340	0.01102718	0.00501533	0.00869212	0.00234167	0.00367983	0.00157551	0.01160141	0.01084362	0.01802965	0.00414165	0.00697454	0.00250657	0.00158180	0.00162944	0.00203536	0.00152598	0.00222279	0.00261491	0.00211415	0.00036613	0.00125795	0.00028228
3.04000000	0.00441937	0.00400953	0.00141775	0.00210313	0.00149588	0.01075878	0.00479946	0.00969700	0.00222430	0.00378449	0.00167204	0.01216782	0.01050357	0.01972279	0.00407739	0.00748936	0.00139185	0.00147392	0.00149358	0.00187533	0.00154195	0.00226038	0.00253061	0.00202998	0.00020429	0.00138172	0.00018145
3.05000000	0.00417440	0.00383076	0.00199097	0.00229135	0.00176476	0.01071031	0.00483878	0.01018776	0.00181875	0.00372992	0.00185448	0.01327866	0.01136434	0.02055318	0.00409544	0.00750370	0.00257325	0.00132533	0.00138227	0.00187474	0.00146736	0.00229566	0.00233732	0.00203584	0.00040633	0.00130388	0.00008182
3.06000000	0.00414422	0.00392277	0.00237363	0.00242017	0.00199459	0.01018240	0.00472850	0.01070216	0.00155475	0.00365601	0.00219033	0.01408583	0.01153658	0.02151653	0.00418820	0.00776531	0.00277315	0.00124735	0.00130372	0.00180788	0.00137835	0.00232835	0.00213771	0.00204476	0.00046878	0.00126858	0.00017859
3.07000000	0.00479261	0.00407375	0.00230345	0.00243920	0.00193200	0.00971575	0.00455133	0.01057181	0.00162722	0.00338022	0.00153097	0.01369156	0.01134069	0.02300811	0.00397699	0.00829077	0.00217501	0.00103704	0.00112780	0.00165700	0.00142051	0.00227895	0.00215781	0.00173865	0.00034223	0.00124526	0.00022149
3.08000000	0.00415985	0.00378289	0.00302388	0.00265154	0.00236690	0.00913331	0.00455535	0.01067596	0.00131810	0.00325136	0.00191293	0.01462835	0.01233345	0.02304676	0.00422354	0.00818717	0.00278174	0.00101498	0.00097694	0.00168379	0.00125242	0.00228874	0.00198046	0.00179163	0.00052814	0.00122489	0.00033722
3.09000000	0.00490276	0.00385450	0.00272262	0.00254299	0.00216487	0.00914411	0.00390759	0.00978682	0.00139572	0.00285292	0.00089662	0.01426322	0.01218747	0.02407931	0.00426437	0.00850292	0.00262760	0.00088634	0.00090722	0.00146355	0.00123771	0.00224669	0.00209006	0.00154692	0.00040000	0.00113995	0.00038728
3.10000000	0.00507602	0.00439526	0.00359353	0.00316462	0.00279294	0.00810694	0.00404910	0.00992974	0.00194171	0.00279038	0.00117260	0.01475111	0.01379961	0.02352501	0.00438806	0.00800547	0.00340894	0.00097008	0.00049489	0.00153509	0.00094543	0.00215361	0.00210193	0.00160762	0.00071307	0.00127204	0.00064194
