PathFileType	4	(X/Y/Z)	TVC_12_Cal_03_0_static_RCNL2025.trc
DataRate	CameraRate	NumFrames	NumMarkers	Units	OrigDataRate	OrigDataStartFrame	OrigNumFrames
100	100	25	27	mm	100	1	25
Frame#	Time	R_Shoulder			L_Shoulder			C7			J_Notch			R_Elbow			L_Elbow			R_Wrist			L_Wrist			R_Asis			L_Asis			R_Psis			L_Psis			Sacral			Thoracic			Sternum			R_Thigh_Lateral			R_Knee_Lateral			R_Shank_Lateral			R_Ankle_Lateral			R_Heel			R_Toe			L_Thigh_Lateral			L_Knee_Lateral			L_Shank_Lateral			L_Ankle_Lateral			L_Heel			L_Toe		
		X1	Y1	Z1	X2	Y2	Z2	X3	Y3	Z3	X4	Y4	Z4	X5	Y5	Z5	X6	Y6	Z6	X7	Y7	Z7	X8	Y8	Z8	X9	Y9	Z9	X10	Y10	Z10	X11	Y11	Z11	X12	Y12	Z12	X13	Y13	Z13	X14	Y14	Z14	X15	Y15	Z15	X16	Y16	Z16	X17	Y17	Z17	X18	Y18	Z18	X19	Y19	Z19	X20	Y20	Z20	X21	Y21	Z21	X22	Y22	Z22	X23	Y23	Z23	X24	Y24	Z24	X25	Y25	Z25	X26	Y26	Z26	X27	Y27	Z27
1	0.00000000	-247.373322	1366.190063	-32.013485	-273.404541	1359.325439	-449.452667	-372.190063	1421.004028	-232.241180	-206.332489	1326.535034	-239.353043	-309.544342	1039.237549	48.900681	-371.182556	1027.971924	-513.643311	-268.231613	793.372650	11.442142	-304.297699	796.343140	-480.760605	-226.105743	929.326904	-63.454704	-253.045044	943.318359	-416.828339	-414.287476	933.723145	-165.508530	-424.555878	937.754272	-270.232391	-419.421677	935.738708	-217.870461	-439.680176	1164.169922	-227.558395	-103.912636	1145.269897	-252.708282	-223.301010	617.719421	-38.049877	-215.107742	454.292511	-88.701538	-283.936005	271.393585	-40.098202	-318.765808	62.778133	-95.988411	-361.248383	60.267948	-153.231262	-186.408463	49.250340	-112.778091	-283.036926	644.716919	-464.847473	-285.060699	475.125549	-385.353821	-315.967010	291.096191	-424.036285	-317.972473	75.123100	-358.398163	-356.589020	55.573994	-304.947876	-172.283417	43.658325	-350.617767
2	0.01000000	-247.377304	1366.175781	-31.931334	-273.214447	1359.441650	-449.341522	-372.139038	1421.000732	-232.158951	-206.195740	1326.666748	-239.199051	-309.597534	1039.200195	48.948647	-371.243622	1028.052856	-513.725403	-268.177719	793.319397	11.562392	-304.236404	796.450226	-480.688629	-226.442474	929.248718	-63.510052	-253.128906	943.201233	-416.789703	-414.354248	933.737366	-165.564621	-424.709656	937.726868	-270.230438	-419.531952	935.732117	-217.897530	-439.758362	1164.178833	-227.518616	-104.124756	1145.243042	-252.628036	-223.153717	617.737244	-37.971348	-215.088348	454.262268	-88.729889	-283.982849	271.457794	-40.091328	-318.920105	62.913712	-95.956589	-361.296906	60.326717	-153.234131	-186.424591	49.255913	-112.758087	-282.936584	644.781311	-464.956360	-284.950745	475.142944	-385.401154	-315.999054	291.190887	-423.936340	-317.883881	75.042755	-358.487091	-356.623810	55.590908	-305.034790	-172.269806	43.612694	-350.643158
3	0.02000000	-247.353058	1366.144653	-31.873497	-272.952881	1359.334595	-449.086212	-372.138977	1421.019653	-232.126785	-206.097366	1326.582031	-239.178513	-309.614441	1038.818726	48.823837	-371.237579	1028.111328	-513.737488	-268.376587	793.124847	11.597000	-304.042801	796.492615	-480.525314	-226.784042	929.204651	-63.401455	-253.204468	943.219727	-416.883728	-414.498871	933.723938	-165.572388	-424.808716	937.730408	-270.167145	-419.653793	935.727173	-217.869766	-439.823120	1164.190552	-227.571838	-104.116600	1145.284790	-252.469299	-222.935837	617.744751	-38.004719	-215.073425	454.239594	-88.714775	-283.943878	271.395203	-40.118641	-318.879974	62.932102	-96.017235	-361.267853	60.283081	-153.231705	-186.465103	49.290680	-112.760994	-282.813324	644.792786	-464.985138	-284.900970	475.102753	-385.421234	-315.819061	291.077148	-424.049469	-317.958984	75.037468	-358.416168	-356.557709	55.499760	-305.017883	-172.234955	43.643593	-350.608643
4	0.03000000	-247.333755	1366.113159	-31.797773	-272.798340	1359.461426	-448.973572	-372.050720	1420.989624	-232.089874	-206.120773	1326.623291	-239.059875	-309.618042	1038.757690	48.836430	-371.285675	1028.156128	-513.856018	-268.670135	793.066589	11.691147	-303.992706	796.567322	-480.578186	-226.912415	929.163696	-63.317333	-253.290283	943.271790	-416.788483	-414.609467	933.735840	-165.530960	-424.883881	937.758850	-270.126221	-419.746674	935.747345	-217.828590	-439.832947	1164.266235	-227.569839	-104.172035	1145.308228	-252.337067	-222.828568	617.756958	-37.998863	-215.154297	454.372009	-88.352440	-283.918823	271.396332	-40.112411	-318.835266	62.916000	-96.002243	-361.308044	60.329407	-153.209396	-186.463181	49.292694	-112.772835	-282.644653	644.726196	-465.108459	-284.850739	475.163422	-385.406769	-315.767029	291.086151	-423.959900	-317.952393	74.989891	-358.418243	-356.544281	55.515232	-305.013123	-172.265579	43.650387	-350.610413
5	0.04000000	-247.288147	1366.103149	-31.701588	-272.753082	1359.505737	-448.917450	-372.009521	1421.026123	-232.010666	-206.110825	1326.550781	-238.903854	-309.749084	1038.670532	48.816597	-371.268616	1028.250488	-513.797180	-268.950394	793.000671	11.722860	-303.912842	796.766418	-480.460297	-226.960251	929.162292	-63.307896	-253.321609	943.118958	-416.944244	-414.749878	933.780090	-165.517990	-424.905609	937.770691	-270.098541	-419.827744	935.775391	-217.808266	-439.934387	1164.252319	-227.483017	-104.091080	1145.218384	-252.266052	-222.743515	617.749695	-37.905090	-215.331436	454.372589	-88.486069	-283.997955	271.428040	-40.100456	-318.832275	62.936317	-96.024689	-361.265533	60.295616	-153.209732	-186.416168	49.254719	-112.774971	-282.427979	644.771729	-465.218689	-284.831329	475.150146	-385.420013	-315.808563	291.124512	-424.003387	-317.980164	75.030029	-358.390381	-356.551392	55.539940	-304.998169	-172.237946	43.665321	-350.553558
6	0.05000000	-247.270157	1366.169067	-31.598625	-272.719879	1359.439209	-448.853638	-372.059021	1421.109863	-231.931427	-206.181534	1326.660645	-238.762405	-309.614044	1038.553833	48.729126	-370.531982	1028.494141	-512.996338	-269.321320	792.931641	11.772804	-303.824127	796.789673	-480.436874	-226.800720	929.240112	-63.246624	-253.446838	943.302673	-416.774323	-414.764343	933.789124	-165.496460	-425.044800	937.751770	-270.104858	-419.904572	935.770447	-217.800659	-439.963074	1164.348755	-227.465775	-104.098862	1145.292480	-252.234253	-222.825378	617.734314	-37.932358	-215.468399	454.288055	-88.612633	-284.104736	271.424561	-40.097488	-318.683777	62.677437	-95.968079	-361.294769	60.248104	-153.213593	-186.313019	49.306107	-112.802971	-282.288971	644.694641	-465.269714	-284.850769	475.107117	-385.375488	-315.826111	291.099182	-423.999817	-317.964111	74.985802	-358.402222	-356.558289	55.537926	-304.988617	-172.164658	43.652328	-350.631165
7	0.06000000	-247.231964	1366.181152	-31.494030	-272.630402	1359.476807	-448.788727	-372.001160	1421.105713	-231.841858	-206.219299	1326.487183	-238.587585	-309.777191	1038.588867	48.738331	-370.431183	1028.462036	-512.920471	-269.625397	792.860901	11.798716	-303.832062	796.931885	-480.342255	-226.604965	929.251587	-63.169846	-253.453796	943.277283	-416.764587	-414.828369	933.795654	-165.411957	-425.227051	937.831299	-270.085297	-420.027710	935.813477	-217.748627	-440.075470	1164.430908	-227.391968	-104.199280	1145.247314	-252.089325	-223.056839	617.827759	-37.877071	-215.616760	454.349762	-88.542976	-284.315460	271.490387	-40.061974	-318.854523	62.805141	-95.931084	-361.300995	60.281796	-153.211212	-186.396118	49.255211	-112.773422	-282.190369	644.706970	-465.287506	-284.973328	475.128387	-385.341797	-315.888367	291.043182	-424.060028	-318.016693	75.097923	-358.332520	-356.596466	55.558846	-305.053619	-172.192001	43.690395	-350.506714
8	0.07000000	-247.250504	1366.223511	-31.451366	-272.804840	1359.707031	-449.168427	-371.984039	1421.193237	-231.815491	-206.338242	1326.565063	-238.326630	-309.917175	1038.593140	48.828724	-371.369415	1028.508911	-513.732483	-269.833511	792.825012	11.826248	-303.852417	796.954071	-480.230423	-226.449905	929.205872	-63.216309	-253.592728	943.251587	-416.780762	-414.952789	933.848633	-165.499191	-425.306763	937.836548	-270.135712	-420.129776	935.842590	-217.817451	-440.074158	1164.427368	-227.367981	-104.739540	1144.842896	-251.191345	-223.227310	617.893250	-37.894043	-215.757095	454.427917	-88.512123	-284.474213	271.528046	-40.116409	-318.924316	62.878040	-95.904953	-361.243469	60.280342	-153.240082	-186.419174	49.249073	-112.781403	-282.236633	644.727783	-465.308594	-285.037903	475.122528	-385.272583	-315.967255	291.048981	-424.055847	-318.041870	75.162125	-358.325317	-356.612335	55.586319	-305.031311	-172.240906	43.675270	-350.585876
9	0.08000000	-247.312531	1366.084351	-31.254885	-272.654968	1359.412231	-448.746887	-372.019867	1421.201782	-231.696808	-206.416519	1326.598999	-238.243195	-310.247925	1038.595459	49.038479	-371.503296	1028.619141	-513.711670	-270.035980	792.759888	11.899967	-303.884232	797.044861	-480.087051	-226.555466	929.194946	-63.185577	-253.607758	943.256042	-416.779877	-415.034851	933.863953	-165.472961	-425.358948	937.833496	-270.117157	-420.196899	935.848724	-217.795059	-440.168457	1164.389893	-227.287308	-104.686668	1145.038452	-251.343796	-223.412201	617.893860	-37.838009	-215.904816	454.528076	-88.280579	-284.495117	271.546692	-40.084560	-318.846680	62.981567	-95.995308	-361.304932	60.318455	-153.141815	-186.424850	49.254879	-112.760117	-282.492798	644.705200	-465.225769	-285.161896	475.175507	-385.148834	-316.220490	291.170746	-423.925415	-317.982727	74.975578	-358.424561	-356.560486	55.553047	-305.026154	-172.187027	43.646584	-350.551819
10	0.09000000	-247.334854	1366.067993	-31.245819	-272.006836	1359.960815	-448.183105	-371.972137	1421.180420	-231.634384	-206.302658	1326.568726	-238.197189	-310.984497	1038.867798	49.432320	-371.678131	1028.704346	-513.679932	-270.339569	792.703156	12.016903	-303.914200	797.197205	-480.023209	-226.876938	929.126465	-63.229710	-253.598602	943.175598	-416.807617	-415.101288	933.877441	-165.521729	-425.424377	937.830322	-270.168549	-420.262833	935.853882	-217.845139	-440.208588	1164.477905	-227.264938	-104.387978	1145.279419	-251.653824	-223.623245	617.823730	-37.877319	-215.929535	454.727051	-88.111610	-284.577881	271.509460	-40.147316	-318.912994	62.927620	-95.962151	-361.332733	60.340122	-153.195190	-186.458542	49.298286	-112.727486	-282.733948	644.656494	-464.998230	-285.270416	475.149689	-385.117859	-316.258820	291.222748	-423.921326	-317.898438	75.027336	-358.468048	-356.565765	55.592854	-304.992432	-172.219635	43.601925	-350.638000
11	0.10000000	-247.312302	1366.235962	-31.030159	-272.798981	1359.929932	-448.850525	-372.014954	1421.230591	-231.556351	-206.337814	1326.668701	-238.053879	-311.248657	1038.956787	49.574337	-370.895294	1028.853882	-512.845032	-270.611328	792.755310	12.161450	-304.003021	797.306885	-479.957031	-227.424408	929.413452	-63.118446	-253.681808	943.206665	-416.719208	-415.123169	933.852783	-165.427246	-425.446228	937.929260	-270.190094	-420.284698	935.891022	-217.808670	-440.230988	1164.509521	-227.235840	-104.088242	1145.456421	-251.736908	-223.851227	617.829895	-37.895741	-215.952087	454.554626	-88.384827	-284.480408	271.474091	-40.118015	-318.884430	63.036812	-95.972198	-361.340240	60.291706	-153.223969	-186.424149	49.257870	-112.785980	-283.021851	644.724487	-464.836304	-285.340302	475.208160	-384.809113	-316.202362	291.199524	-423.902374	-317.937042	75.144104	-358.389038	-356.625763	55.553616	-305.040955	-172.291031	43.696392	-350.550659
12	0.11000000	-247.343918	1366.142578	-31.001986	-272.693665	1359.620483	-448.523956	-372.089264	1421.236084	-231.511002	-206.568222	1326.740723	-237.729385	-311.532654	1038.971436	49.753105	-371.011230	1028.911621	-512.716370	-270.885834	792.791443	12.254679	-304.182693	797.363159	-479.829010	-227.839447	929.245239	-63.151012	-253.699463	943.326050	-416.676361	-415.172394	933.882141	-165.487350	-425.576263	937.935303	-270.208984	-420.374329	935.908722	-217.848167	-440.306244	1164.500122	-227.195724	-104.013985	1145.479004	-251.764511	-224.052872	617.735413	-37.889797	-215.908234	454.639557	-88.111710	-284.520691	271.480164	-40.167877	-318.696075	62.622955	-95.933586	-361.286499	60.193478	-153.250290	-186.401657	49.246181	-112.785446	-283.492523	644.797607	-465.062683	-285.461182	475.190125	-384.857880	-316.133179	291.177612	-423.772278	-317.940216	75.139389	-358.377289	-356.625732	55.587193	-305.038422	-172.235611	43.644161	-350.641785
13	0.12000000	-247.377365	1366.143799	-30.939304	-272.591766	1359.612305	-448.440613	-372.048401	1421.160278	-231.448654	-206.704620	1326.699707	-237.591049	-311.726379	1039.073853	49.904903	-371.204041	1029.017822	-512.655151	-271.202087	792.781403	12.403168	-304.269379	797.508728	-479.766815	-228.071564	929.101807	-63.068382	-253.776459	943.313721	-416.613617	-415.144135	933.749756	-165.508926	-425.570160	937.910950	-270.234619	-420.357147	935.830353	-217.871773	-440.312042	1164.484009	-227.194824	-104.114761	1145.592407	-251.613281	-224.263428	617.718384	-37.876347	-215.906296	454.481720	-88.314957	-284.544403	271.476166	-40.193497	-318.842529	62.747341	-95.970772	-361.280212	60.185238	-153.248276	-186.413147	49.252823	-112.801842	-283.910339	644.905212	-465.300446	-285.540375	475.177338	-384.925507	-315.762115	290.988953	-423.923920	-317.904449	75.192108	-358.437164	-356.569519	55.535038	-305.008240	-172.195343	43.622299	-350.672455
14	0.13000000	-247.475143	1366.092651	-30.889088	-272.671906	1359.817383	-448.251251	-372.110657	1421.159912	-231.378738	-206.705353	1326.643188	-237.417221	-311.933594	1039.110352	50.047672	-371.474823	1029.216797	-512.572449	-271.536957	792.856171	12.676518	-304.448700	797.590973	-479.734238	-228.073807	929.088928	-63.003914	-253.785065	943.221008	-416.637329	-415.270447	933.761963	-165.530518	-425.637878	937.888794	-270.258636	-420.454163	935.825378	-217.894577	-440.385529	1164.456055	-227.117798	-104.245430	1145.581177	-251.451492	-224.326050	617.773621	-37.814045	-215.746902	454.544006	-88.129295	-284.525391	271.380524	-40.212109	-318.915771	62.801105	-95.973465	-361.294891	60.222538	-153.285507	-186.415726	49.218906	-112.804085	-284.104767	645.111267	-465.469360	-285.415283	475.128357	-385.194061	-315.596069	290.969513	-423.844330	-317.875732	74.912262	-358.662720	-356.684265	55.537651	-305.157623	-172.335419	43.854122	-350.564728
15	0.14000000	-247.520538	1366.135864	-30.832834	-272.642029	1359.963989	-448.105957	-372.144958	1421.119995	-231.333542	-206.342743	1327.681641	-237.850189	-312.091064	1039.152710	50.187199	-371.733063	1029.301025	-512.519714	-271.690384	792.920044	12.905995	-304.714874	797.665527	-479.765076	-228.047318	929.019165	-63.005474	-253.842743	943.231079	-416.708038	-415.288147	933.770935	-165.528397	-425.704529	937.888367	-270.232544	-420.496338	935.829651	-217.880470	-440.384552	1164.432861	-227.117249	-104.366745	1145.512207	-251.314148	-224.260635	617.678040	-37.852348	-215.704849	454.447601	-88.359024	-284.439819	271.339386	-40.237431	-318.653503	62.631588	-96.014313	-361.297943	60.226982	-153.288605	-186.382385	49.249344	-112.851440	-284.375061	645.102417	-465.658020	-285.397064	475.100525	-385.234894	-315.491821	290.872620	-423.891083	-317.864349	75.267105	-358.418671	-356.546234	55.543377	-305.112457	-172.223267	43.657257	-350.650452
16	0.15000000	-247.550110	1366.146729	-30.727205	-272.655914	1359.926147	-448.118469	-372.186523	1421.114990	-231.180313	-205.528320	1328.111328	-238.539383	-312.369141	1039.237549	50.360294	-372.001434	1029.423462	-512.377747	-272.001877	792.981628	13.111285	-304.979294	797.780792	-479.701935	-227.922302	928.917969	-63.072098	-253.935410	943.208191	-416.662720	-415.303955	933.780334	-165.500397	-425.753113	937.950317	-270.172394	-420.528534	935.865326	-217.836395	-440.481171	1164.397705	-227.037949	-104.465874	1145.470581	-251.201050	-224.262283	617.605347	-37.830002	-215.621506	454.324768	-88.435097	-284.473969	271.412781	-40.243004	-318.837677	62.831150	-95.974182	-361.284149	60.213703	-153.288635	-186.271881	49.132572	-113.054520	-284.417511	645.191284	-465.661621	-285.299561	475.095154	-385.315186	-315.340668	290.822113	-424.109955	-317.845520	75.221573	-358.448853	-356.502625	55.564293	-305.031982	-172.172592	43.646244	-350.634186
17	0.16000000	-247.561478	1366.118042	-30.622244	-272.676697	1360.061523	-447.944397	-372.192535	1421.093872	-231.176559	-205.871216	1327.201538	-237.820312	-312.743896	1039.373047	50.520298	-372.323120	1029.526001	-512.254700	-272.286835	792.891571	13.174585	-305.314880	797.858032	-479.681000	-227.717957	928.905762	-63.084721	-253.933487	943.198120	-416.613525	-415.412628	933.733521	-165.414429	-425.776245	937.965088	-270.157623	-420.594437	935.849304	-217.786026	-440.447998	1164.380859	-226.924866	-104.333496	1145.528931	-251.198303	-224.000763	617.580383	-37.800537	-215.517029	454.254242	-88.436623	-284.391357	271.412842	-40.194122	-318.766541	62.647655	-95.971054	-361.317078	60.214474	-153.258194	-186.396088	49.230606	-112.815712	-284.386292	645.181885	-465.732086	-285.162567	475.065735	-385.265472	-315.236481	290.763367	-424.076569	-317.791901	75.145164	-358.419098	-356.491486	55.610970	-305.033997	-172.222214	43.689678	-350.615753
18	0.17000000	-247.621185	1366.151611	-30.471066	-272.684998	1360.025879	-447.841003	-372.259521	1421.100708	-230.985947	-206.219910	1327.705078	-237.666092	-312.955078	1039.392578	50.648224	-372.575958	1029.581543	-512.152344	-272.625809	792.829315	13.211449	-305.696945	797.849365	-479.667389	-227.704910	928.822144	-62.941582	-253.912399	943.212219	-416.582550	-415.423523	933.733704	-165.407608	-425.853058	937.957886	-270.119354	-420.638290	935.845795	-217.763481	-440.523834	1164.353394	-226.863190	-104.295494	1145.458862	-251.169647	-223.797775	617.652649	-37.746124	-215.481979	454.210236	-88.444397	-284.300140	271.406586	-40.128109	-318.657745	62.784416	-96.014465	-361.281769	60.212372	-153.249634	-186.500412	49.287968	-112.862785	-284.202271	645.218201	-465.733459	-285.136688	475.050171	-385.222443	-315.255371	290.872803	-424.007935	-317.784821	75.181740	-358.386169	-356.475891	55.602314	-305.033508	-172.269897	43.634834	-350.542999
19	0.18000000	-247.725418	1366.092529	-30.381945	-272.122955	1360.220337	-447.270355	-372.306396	1421.090454	-230.901352	-206.693954	1326.948486	-237.031647	-313.083527	1039.374634	50.753036	-372.779083	1029.726074	-512.074158	-273.222473	793.130676	13.623487	-306.095215	797.986206	-479.697540	-227.802185	928.804810	-62.819248	-253.921707	943.280090	-416.567474	-415.473022	933.758240	-165.475388	-425.856750	937.933411	-270.093903	-420.664886	935.845825	-217.784645	-440.591156	1164.416504	-226.772018	-104.339043	1145.513306	-251.129105	-223.606323	617.623047	-37.748577	-215.545258	454.298828	-88.338654	-284.221802	271.321350	-40.117203	-318.902924	62.966839	-96.032440	-361.330292	60.281895	-153.225677	-186.486267	49.272766	-112.823776	-283.861359	645.334595	-465.753845	-285.099792	475.160034	-385.207733	-315.276947	290.838165	-423.991028	-317.897552	75.244263	-358.398529	-356.586884	55.645622	-305.052643	-172.310440	43.719231	-350.548889
20	0.19000000	-247.714050	1366.053467	-30.266870	-272.117950	1360.177002	-447.141296	-372.257019	1421.031006	-230.862579	-207.078766	1326.841553	-236.434616	-313.452667	1039.441650	50.921932	-372.900269	1029.816040	-512.040894	-273.369492	792.968994	13.623820	-306.496994	797.978302	-479.677170	-227.766571	928.848328	-62.810162	-253.918594	943.231262	-416.612762	-415.567596	933.727356	-165.417358	-425.864685	937.937256	-270.044617	-420.716141	935.832306	-217.730988	-440.536316	1164.427612	-226.709534	-104.470070	1145.484497	-250.898178	-223.405441	617.665283	-37.732723	-215.522354	454.304504	-88.353806	-284.247864	271.416901	-40.118195	-318.958038	62.961567	-95.937233	-361.319214	60.300987	-153.250839	-186.527405	49.304070	-112.770515	-283.289276	645.458984	-465.463470	-285.192627	475.136230	-385.211975	-315.371185	290.889374	-423.873627	-317.868866	75.010262	-358.630646	-356.687256	55.650719	-305.154297	-172.309982	43.724369	-350.545959
21	0.20000000	-247.714844	1365.969238	-30.127188	-272.258972	1360.139771	-447.167877	-372.253418	1420.954590	-230.751450	-207.351578	1326.846069	-236.067459	-313.603119	1039.422363	51.014256	-373.115204	1029.782959	-512.030884	-273.514847	792.902710	13.699440	-306.875793	798.033203	-479.694275	-227.664032	928.903870	-62.805748	-254.003799	943.267090	-416.503510	-415.523743	933.723999	-165.432632	-425.851257	937.947144	-270.064545	-420.687500	935.835571	-217.748589	-440.567047	1164.380615	-226.572006	-104.556320	1145.516235	-250.813873	-223.360947	617.805603	-37.702557	-215.496658	454.320557	-88.416191	-284.294159	271.388031	-40.119446	-318.814240	62.795818	-95.938301	-361.273499	60.296192	-153.248474	-186.410645	49.283566	-112.799118	-282.776459	645.469238	-465.177399	-285.226227	475.164062	-385.208923	-315.483063	290.931396	-423.889221	-317.867706	75.196426	-358.465729	-356.611359	55.683933	-305.070038	-172.282043	43.718761	-350.583344
22	0.21000000	-247.768188	1365.997803	-29.981804	-272.251190	1360.067749	-447.071075	-372.336151	1421.009155	-230.573181	-207.509796	1326.828247	-235.878387	-313.695435	1039.375122	51.085327	-373.365112	1029.955688	-511.828369	-273.679443	792.869476	14.012542	-307.355621	797.985260	-479.667694	-227.541458	928.870667	-62.865372	-254.014725	943.350159	-416.448029	-415.585693	933.735596	-165.386505	-425.956055	937.971191	-269.982758	-420.770874	935.853394	-217.684631	-440.646545	1164.380981	-226.490585	-104.548386	1145.465210	-250.845413	-223.359207	617.862061	-37.680145	-215.534698	454.621155	-88.043274	-284.319092	271.372650	-40.065754	-319.142883	63.008934	-95.831108	-361.262512	60.165741	-153.215012	-186.407959	49.262341	-112.906372	-282.582397	645.466187	-465.076019	-285.362946	475.173950	-385.084320	-315.472565	290.913605	-423.887726	-317.896027	75.300758	-358.426910	-356.542145	55.692627	-305.006927	-172.286362	43.706532	-350.587799
23	0.22000000	-247.742111	1365.900879	-29.892986	-272.296326	1360.156250	-446.946167	-372.315460	1420.985352	-230.457047	-207.376938	1326.904419	-235.809601	-313.809875	1039.308716	51.181679	-373.704620	1030.096680	-511.775116	-274.040649	793.018311	14.302342	-307.822296	797.928009	-479.542145	-227.528976	928.766296	-62.818768	-254.007462	943.363647	-416.443146	-415.573639	933.727783	-165.382050	-425.954224	937.951782	-269.998169	-420.763931	935.839783	-217.690109	-440.625702	1164.320435	-226.364716	-104.595650	1145.432373	-250.755539	-223.356552	617.847900	-37.648804	-215.682373	454.530609	-88.365288	-284.321198	271.373688	-40.059353	-319.079376	62.904598	-95.847054	-361.222717	60.212696	-153.198395	-186.482300	49.288727	-112.816551	-282.589386	645.469849	-465.132141	-285.426514	475.138611	-385.073090	-315.458313	290.869537	-423.909210	-317.844635	75.211456	-358.365234	-356.486176	55.685619	-305.029053	-172.370331	43.904819	-350.563629
24	0.23000000	-247.780197	1365.796143	-29.745188	-272.292603	1360.162231	-446.871277	-372.404144	1420.960083	-230.349182	-207.213089	1327.043701	-235.970383	-313.873016	1039.228394	51.247540	-373.828735	1030.239014	-511.620605	-274.296722	792.943451	14.507071	-308.265869	797.952240	-479.457825	-227.653381	928.751648	-62.748024	-254.084564	943.297913	-416.354065	-415.576630	933.777771	-165.261856	-425.980377	938.006775	-269.963531	-420.778503	935.892273	-217.612694	-440.711914	1164.333130	-226.296555	-104.657944	1145.386475	-250.681839	-223.523544	617.856934	-37.673023	-215.781693	454.338989	-88.388191	-284.402740	271.396606	-40.033276	-319.087341	62.872242	-95.929405	-361.363190	60.186569	-153.242950	-186.476837	49.259949	-112.817307	-282.695557	645.538635	-465.027954	-285.513763	475.263153	-384.777679	-315.366852	290.811737	-423.811218	-317.877930	75.377075	-358.315338	-356.541595	55.670052	-304.999756	-172.293762	43.689980	-350.592499
25	0.24000000	-247.738449	1365.751099	-29.625828	-272.325897	1360.130005	-446.836060	-372.352234	1420.989990	-230.303314	-207.186890	1327.056274	-235.934082	-314.097168	1039.249878	51.429626	-373.956909	1030.354736	-511.571869	-274.529175	792.843201	14.622232	-308.697876	797.962433	-479.407501	-227.712006	928.640381	-62.634029	-254.015182	943.348083	-416.431091	-415.539429	933.765808	-165.291000	-425.980225	938.005310	-269.968079	-420.759827	935.885559	-217.629539	-440.660767	1164.327148	-226.212677	-104.687279	1145.373291	-250.654739	-223.568756	617.830811	-37.730797	-215.823547	454.325714	-88.440460	-284.470215	271.415192	-40.082592	-318.992096	62.857063	-95.935219	-361.368225	60.200359	-153.173462	-186.483521	49.267494	-112.807823	-282.934601	645.499878	-464.954803	-285.479675	475.205933	-384.778625	-315.551971	290.030518	-423.400574	-317.762115	75.309013	-358.436676	-356.592407	55.688622	-305.051483	-172.370834	43.906258	-350.563934
