Model Marker Errors from IK
version=1
nRows=393
nColumns=4
inDegrees=no
endheader
time	total_squared_error	marker_error_RMS	marker_error_max
      0.22000000	      0.00164508	      0.00811192	      0.02052719
      0.23000000	      0.00159274	      0.00798183	      0.02021939
      0.24000000	      0.00154025	      0.00784920	      0.02007647
      0.25000000	      0.00149278	      0.00772731	      0.01963662
      0.26000000	      0.00144126	      0.00759278	      0.01927506
      0.27000000	      0.00139750	      0.00747664	      0.01879905
      0.28000000	      0.00132136	      0.00727010	      0.01842734
      0.29000000	      0.00122776	      0.00700788	      0.01793839
      0.30000000	      0.00118235	      0.00687706	      0.01743481
      0.31000000	      0.00114036	      0.00675385	      0.01708065
      0.32000000	      0.00110499	      0.00664828	      0.01660826
      0.33000000	      0.00107990	      0.00657238	      0.01624451
      0.34000000	      0.00105660	      0.00650107	      0.01585753
      0.35000000	      0.00104008	      0.00645007	      0.01554825
      0.36000000	      0.00103830	      0.00644454	      0.01523013
      0.37000000	      0.00106071	      0.00651371	      0.01496481
      0.38000000	      0.00110784	      0.00665683	      0.01483393
      0.39000000	      0.00112547	      0.00670960	      0.01520987
      0.40000000	      0.00118363	      0.00688078	      0.01672951
      0.41000000	      0.00121457	      0.00697013	      0.01684527
      0.42000000	      0.00125064	      0.00707287	      0.01788754
      0.43000000	      0.00128380	      0.00716603	      0.01879008
      0.44000000	      0.00128071	      0.00715741	      0.01829151
      0.45000000	      0.00127695	      0.00714690	      0.01874301
      0.46000000	      0.00125416	      0.00708283	      0.01831341
      0.47000000	      0.00122835	      0.00700956	      0.01844574
      0.48000000	      0.00118740	      0.00689173	      0.01838509
      0.49000000	      0.00114302	      0.00676171	      0.01812491
      0.50000000	      0.00109910	      0.00663054	      0.01777975
      0.51000000	      0.00106060	      0.00651337	      0.01752166
      0.52000000	      0.00102220	      0.00639436	      0.01711358
      0.53000000	      0.00098716	      0.00628381	      0.01675065
      0.54000000	      0.00095138	      0.00616887	      0.01641626
      0.55000000	      0.00093763	      0.00612413	      0.01597495
      0.56000000	      0.00091224	      0.00604066	      0.01550203
      0.57000000	      0.00090977	      0.00603248	      0.01515190
      0.58000000	      0.00090233	      0.00600775	      0.01471606
      0.59000000	      0.00093551	      0.00611722	      0.01442299
      0.60000000	      0.00090438	      0.00601459	      0.01452028
      0.61000000	      0.00093937	      0.00612983	      0.01432348
      0.62000000	      0.00095892	      0.00619328	      0.01426749
      0.63000000	      0.00100244	      0.00633226	      0.01429184
      0.64000000	      0.00105207	      0.00648713	      0.01448075
      0.65000000	      0.00105373	      0.00649224	      0.01439008
      0.66000000	      0.00107578	      0.00655983	      0.01437504
      0.67000000	      0.00110295	      0.00664214	      0.01442824
      0.68000000	      0.00110727	      0.00665512	      0.01396534
      0.69000000	      0.00110484	      0.00664783	      0.01349426
      0.70000000	      0.00110379	      0.00664468	      0.01357692
      0.71000000	      0.00109322	      0.00661279	      0.01372017
      0.72000000	      0.00110220	      0.00663989	      0.01378109
      0.73000000	      0.00111765	      0.00668627	      0.01393841
      0.74000000	      0.00113288	      0.00673165	      0.01398157
      0.75000000	      0.00115129	      0.00678613	      0.01399744
      0.76000000	      0.00116070	      0.00681381	      0.01397065
      0.77000000	      0.00116616	      0.00682983	      0.01386153
      0.78000000	      0.00114039	      0.00675392	      0.01378030
      0.79000000	      0.00110562	      0.00665017	      0.01356778
      0.80000000	      0.00106261	      0.00651953	      0.01338568
      0.81000000	      0.00101678	      0.00637740	      0.01317559
      0.82000000	      0.00093749	      0.00612369	      0.01278215
      0.83000000	      0.00088170	      0.00593868	      0.01252625
      0.84000000	      0.00082918	      0.00575910	      0.01223257
      0.85000000	      0.00078905	      0.00561802	      0.01198862
      0.86000000	      0.00075994	      0.00551339	      0.01170468
      0.87000000	      0.00074567	      0.00546139	      0.01154041
      0.88000000	      0.00073438	      0.00541990	      0.01122841
      0.89000000	      0.00074687	      0.00546580	      0.01112793
      0.90000000	      0.00075972	      0.00551259	      0.01089265
      0.91000000	      0.00077335	      0.00556185	      0.01088680
      0.92000000	      0.00078089	      0.00558887	      0.01068904
      0.93000000	      0.00078228	      0.00559387	      0.01060887
      0.94000000	      0.00078125	      0.00559018	      0.01055685
      0.95000000	      0.00077490	      0.00556741	      0.01046105
      0.96000000	      0.00077957	      0.00558415	      0.01048302
      0.97000000	      0.00077319	      0.00556127	      0.01037612
      0.98000000	      0.00075584	      0.00549852	      0.01051975
      0.99000000	      0.00073760	      0.00543177	      0.01081294
      1.00000000	      0.00071662	      0.00535395	      0.01104605
      1.01000000	      0.00068993	      0.00525332	      0.01122336
      1.02000000	      0.00066841	      0.00517072	      0.01139655
      1.03000000	      0.00066224	      0.00514679	      0.01154981
      1.04000000	      0.00066990	      0.00517647	      0.01156984
      1.05000000	      0.00070496	      0.00531021	      0.01153291
      1.06000000	      0.00077244	      0.00555854	      0.01135090
      1.07000000	      0.00087811	      0.00592657	      0.01175145
      1.08000000	      0.00102402	      0.00640006	      0.01238591
      1.09000000	      0.00120138	      0.00693219	      0.01470640
      1.10000000	      0.00139499	      0.00746992	      0.01690305
      1.11000000	      0.00157469	      0.00793648	      0.01853467
      1.12000000	      0.00170582	      0.00826032	      0.01948745
      1.13000000	      0.00177191	      0.00841881	      0.01958723
      1.14000000	      0.00175154	      0.00837027	      0.01865598
      1.15000000	      0.00168345	      0.00820597	      0.01748811
      1.16000000	      0.00155741	      0.00789280	      0.01830860
      1.17000000	      0.00147597	      0.00768368	      0.01913287
      1.18000000	      0.00146571	      0.00765692	      0.02008047
      1.19000000	      0.00149564	      0.00773471	      0.02099671
      1.20000000	      0.00152178	      0.00780200	      0.02194239
      1.21000000	      0.00157562	      0.00793883	      0.02282979
      1.22000000	      0.00160696	      0.00801738	      0.02373555
      1.23000000	      0.00164588	      0.00811388	      0.02449517
      1.24000000	      0.00169284	      0.00822882	      0.02527309
      1.25000000	      0.00175910	      0.00838832	      0.02594061
      1.26000000	      0.00184637	      0.00859388	      0.02646499
      1.27000000	      0.00194195	      0.00881351	      0.02700894
      1.28000000	      0.00203123	      0.00901383	      0.02737495
      1.29000000	      0.00209562	      0.00915559	      0.02768409
      1.30000000	      0.00210981	      0.00918652	      0.02781539
      1.31000000	      0.00209004	      0.00914338	      0.02768760
      1.32000000	      0.00204344	      0.00904087	      0.02742750
      1.33000000	      0.00200227	      0.00894935	      0.02734258
      1.34000000	      0.00195918	      0.00885253	      0.02692750
      1.35000000	      0.00190882	      0.00873800	      0.02658675
      1.36000000	      0.00186045	      0.00862658	      0.02613520
      1.37000000	      0.00180739	      0.00850268	      0.02565708
      1.38000000	      0.00171054	      0.00827175	      0.02493120
      1.39000000	      0.00165037	      0.00812494	      0.02446268
      1.40000000	      0.00158657	      0.00796635	      0.02380898
      1.41000000	      0.00153107	      0.00782578	      0.02320253
      1.42000000	      0.00149395	      0.00773033	      0.02274736
      1.43000000	      0.00144249	      0.00759601	      0.02201329
      1.44000000	      0.00140905	      0.00750746	      0.02138725
      1.45000000	      0.00138253	      0.00743648	      0.02084055
      1.46000000	      0.00137662	      0.00742058	      0.02032074
      1.47000000	      0.00137818	      0.00742476	      0.01965553
      1.48000000	      0.00139875	      0.00747998	      0.01913830
      1.49000000	      0.00143655	      0.00758037	      0.01869849
      1.50000000	      0.00148158	      0.00769826	      0.01822681
      1.51000000	      0.00150508	      0.00775908	      0.01847316
      1.52000000	      0.00151097	      0.00777424	      0.01812518
      1.53000000	      0.00151451	      0.00778335	      0.01904843
      1.54000000	      0.00150725	      0.00776467	      0.01889806
      1.55000000	      0.00148165	      0.00769843	      0.01916090
      1.56000000	      0.00144144	      0.00759325	      0.01948621
      1.57000000	      0.00139361	      0.00746622	      0.01966019
      1.58000000	      0.00134302	      0.00732946	      0.01958220
      1.59000000	      0.00128886	      0.00718014	      0.01934137
      1.60000000	      0.00123769	      0.00703617	      0.01892647
      1.61000000	      0.00119081	      0.00690163	      0.01844639
      1.62000000	      0.00115144	      0.00678657	      0.01796290
      1.63000000	      0.00113419	      0.00673553	      0.01747175
      1.64000000	      0.00107900	      0.00656963	      0.01793817
      1.65000000	      0.00106210	      0.00651798	      0.01726086
      1.66000000	      0.00107358	      0.00655311	      0.01670397
      1.67000000	      0.00103922	      0.00644740	      0.01686650
      1.68000000	      0.00105406	      0.00649325	      0.01628960
      1.69000000	      0.00106840	      0.00653728	      0.01621982
      1.70000000	      0.00110788	      0.00665696	      0.01591644
      1.71000000	      0.00115370	      0.00679324	      0.01584998
      1.72000000	      0.00120636	      0.00694652	      0.01597731
      1.73000000	      0.00124596	      0.00705964	      0.01620514
      1.74000000	      0.00130672	      0.00722971	      0.01642377
      1.75000000	      0.00134825	      0.00734370	      0.01640579
      1.76000000	      0.00139423	      0.00746788	      0.01654730
      1.77000000	      0.00140701	      0.00750202	      0.01619313
      1.78000000	      0.00142014	      0.00753696	      0.01587291
      1.79000000	      0.00142421	      0.00754775	      0.01546537
      1.80000000	      0.00142684	      0.00755472	      0.01505189
      1.81000000	      0.00143178	      0.00756777	      0.01478487
      1.82000000	      0.00144246	      0.00759595	      0.01467450
      1.83000000	      0.00147488	      0.00768083	      0.01482896
      1.84000000	      0.00146800	      0.00766290	      0.01480424
      1.85000000	      0.00147917	      0.00769199	      0.01491318
      1.86000000	      0.00148718	      0.00771279	      0.01500823
      1.87000000	      0.00146913	      0.00766584	      0.01480745
      1.88000000	      0.00145177	      0.00762042	      0.01474880
      1.89000000	      0.00141740	      0.00752967	      0.01477010
      1.90000000	      0.00138316	      0.00743817	      0.01485252
      1.91000000	      0.00134700	      0.00734029	      0.01491323
      1.92000000	      0.00128713	      0.00717533	      0.01489252
      1.93000000	      0.00123771	      0.00703621	      0.01492789
      1.94000000	      0.00118127	      0.00687393	      0.01491783
      1.95000000	      0.00112860	      0.00671891	      0.01489295
      1.96000000	      0.00108356	      0.00658350	      0.01485271
      1.97000000	      0.00105166	      0.00648586	      0.01474387
      1.98000000	      0.00101501	      0.00637184	      0.01472555
      1.99000000	      0.00101322	      0.00636621	      0.01463783
      2.00000000	      0.00102199	      0.00639372	      0.01451642
      2.01000000	      0.00103547	      0.00643575	      0.01458263
      2.02000000	      0.00105160	      0.00648567	      0.01452697
      2.03000000	      0.00106389	      0.00652348	      0.01454675
      2.04000000	      0.00107776	      0.00656586	      0.01465336
      2.05000000	      0.00108353	      0.00658339	      0.01475153
      2.06000000	      0.00108986	      0.00660261	      0.01484896
      2.07000000	      0.00109899	      0.00663021	      0.01498008
      2.08000000	      0.00110669	      0.00665340	      0.01512778
      2.09000000	      0.00110745	      0.00665567	      0.01522703
      2.10000000	      0.00109820	      0.00662782	      0.01533814
      2.11000000	      0.00108406	      0.00658503	      0.01546933
      2.12000000	      0.00106210	      0.00651798	      0.01550888
      2.13000000	      0.00104537	      0.00646644	      0.01557724
      2.14000000	      0.00103769	      0.00644263	      0.01562715
      2.15000000	      0.00104326	      0.00645992	      0.01562696
      2.16000000	      0.00106207	      0.00651787	      0.01572481
      2.17000000	      0.00108527	      0.00658870	      0.01586266
      2.18000000	      0.00112931	      0.00672103	      0.01583674
      2.19000000	      0.00115565	      0.00679898	      0.01603621
      2.20000000	      0.00119941	      0.00692649	      0.01621118
      2.21000000	      0.00124759	      0.00706424	      0.01634012
      2.22000000	      0.00129955	      0.00720984	      0.01648671
      2.23000000	      0.00138449	      0.00744174	      0.01698274
      2.24000000	      0.00143060	      0.00756466	      0.01756457
      2.25000000	      0.00147568	      0.00768291	      0.01788071
      2.26000000	      0.00156929	      0.00792285	      0.01902169
      2.27000000	      0.00163722	      0.00809250	      0.01943112
      2.28000000	      0.00172309	      0.00830201	      0.02008848
      2.29000000	      0.00179752	      0.00847943	      0.02060170
      2.30000000	      0.00184185	      0.00858337	      0.02026281
      2.31000000	      0.00187294	      0.00865550	      0.01979424
      2.32000000	      0.00188174	      0.00867581	      0.01883244
      2.33000000	      0.00187147	      0.00865211	      0.01914701
      2.34000000	      0.00185397	      0.00861155	      0.01981616
      2.35000000	      0.00184271	      0.00858536	      0.02041086
      2.36000000	      0.00184970	      0.00860163	      0.02100699
      2.37000000	      0.00188268	      0.00867797	      0.02152593
      2.38000000	      0.00194258	      0.00881494	      0.02213254
      2.39000000	      0.00200975	      0.00896605	      0.02249469
      2.40000000	      0.00210136	      0.00916812	      0.02294108
      2.41000000	      0.00214657	      0.00926623	      0.02310378
      2.42000000	      0.00218728	      0.00935366	      0.02332861
      2.43000000	      0.00220830	      0.00939851	      0.02349251
      2.44000000	      0.00219832	      0.00937725	      0.02347877
      2.45000000	      0.00217931	      0.00933663	      0.02351826
      2.46000000	      0.00215771	      0.00929023	      0.02344655
      2.47000000	      0.00212306	      0.00921534	      0.02320997
      2.48000000	      0.00211472	      0.00919722	      0.02301839
      2.49000000	      0.00210418	      0.00917427	      0.02276383
      2.50000000	      0.00207899	      0.00911920	      0.02240683
      2.51000000	      0.00204482	      0.00904393	      0.02208287
      2.52000000	      0.00201855	      0.00898564	      0.02172021
      2.53000000	      0.00196336	      0.00886196	      0.02137916
      2.54000000	      0.00191497	      0.00875208	      0.02097553
      2.55000000	      0.00187580	      0.00866210	      0.02064842
      2.56000000	      0.00186476	      0.00863657	      0.02033147
      2.57000000	      0.00185716	      0.00861897	      0.02006187
      2.58000000	      0.00187005	      0.00864881	      0.01994948
      2.59000000	      0.00189346	      0.00870277	      0.01974929
      2.60000000	      0.00192323	      0.00877093	      0.01949154
      2.61000000	      0.00198617	      0.00891329	      0.01949428
      2.62000000	      0.00204275	      0.00903937	      0.01931228
      2.63000000	      0.00212425	      0.00921792	      0.01940983
      2.64000000	      0.00219619	      0.00937270	      0.01983096
      2.65000000	      0.00226403	      0.00951636	      0.02004527
      2.66000000	      0.00233120	      0.00965649	      0.02086903
      2.67000000	      0.00239826	      0.00979440	      0.02199329
      2.68000000	      0.00243711	      0.00987342	      0.02174381
      2.69000000	      0.00246744	      0.00993467	      0.02253859
      2.70000000	      0.00247951	      0.00995893	      0.02266705
      2.71000000	      0.00247296	      0.00994578	      0.02303927
      2.72000000	      0.00244935	      0.00989818	      0.02318062
      2.73000000	      0.00240911	      0.00981653	      0.02314421
      2.74000000	      0.00235810	      0.00971206	      0.02288026
      2.75000000	      0.00229316	      0.00957740	      0.02255564
      2.76000000	      0.00223196	      0.00944873	      0.02213601
      2.77000000	      0.00214453	      0.00926182	      0.02155224
      2.78000000	      0.00205995	      0.00907732	      0.02158496
      2.79000000	      0.00199741	      0.00893848	      0.02165839
      2.80000000	      0.00189447	      0.00870510	      0.02160179
      2.81000000	      0.00183960	      0.00857812	      0.02170041
      2.82000000	      0.00178802	      0.00845701	      0.02174336
      2.83000000	      0.00176344	      0.00839868	      0.02186422
      2.84000000	      0.00175308	      0.00837396	      0.02196195
      2.85000000	      0.00176005	      0.00839058	      0.02211352
      2.86000000	      0.00178679	      0.00845408	      0.02220712
      2.87000000	      0.00181248	      0.00851465	      0.02247190
      2.88000000	      0.00182085	      0.00853428	      0.02247789
      2.89000000	      0.00186299	      0.00863247	      0.02266187
      2.90000000	      0.00189265	      0.00870091	      0.02275886
      2.91000000	      0.00192704	      0.00877961	      0.02287409
      2.92000000	      0.00195594	      0.00884519	      0.02291001
      2.93000000	      0.00197603	      0.00889051	      0.02300932
      2.94000000	      0.00199271	      0.00892795	      0.02306142
      2.95000000	      0.00200603	      0.00895776	      0.02307511
      2.96000000	      0.00201765	      0.00898366	      0.02307376
      2.97000000	      0.00202947	      0.00900992	      0.02304960
      2.98000000	      0.00204107	      0.00903565	      0.02310058
      2.99000000	      0.00205203	      0.00905986	      0.02301021
      3.00000000	      0.00206664	      0.00909207	      0.02313356
      3.01000000	      0.00205687	      0.00907054	      0.02306580
      3.02000000	      0.00205203	      0.00905986	      0.02302327
      3.03000000	      0.00201575	      0.00897942	      0.02300776
      3.04000000	      0.00197442	      0.00888689	      0.02300368
      3.05000000	      0.00191721	      0.00875719	      0.02290247
      3.06000000	      0.00185047	      0.00860341	      0.02278128
      3.07000000	      0.00175961	      0.00838954	      0.02265426
      3.08000000	      0.00168680	      0.00821413	      0.02251480
      3.09000000	      0.00161271	      0.00803171	      0.02243662
      3.10000000	      0.00154417	      0.00785920	      0.02215172
      3.11000000	      0.00148096	      0.00769664	      0.02191145
      3.12000000	      0.00143013	      0.00756343	      0.02167513
      3.13000000	      0.00138607	      0.00744599	      0.02136105
      3.14000000	      0.00135607	      0.00736496	      0.02100938
      3.15000000	      0.00133742	      0.00731415	      0.02068264
      3.16000000	      0.00132670	      0.00728479	      0.02032074
      3.17000000	      0.00132412	      0.00727769	      0.02009872
      3.18000000	      0.00131497	      0.00725250	      0.01978083
      3.19000000	      0.00130852	      0.00723469	      0.01948924
      3.20000000	      0.00129801	      0.00720559	      0.01926359
      3.21000000	      0.00128437	      0.00716762	      0.01896886
      3.22000000	      0.00126689	      0.00711869	      0.01871083
      3.23000000	      0.00125968	      0.00709840	      0.01849527
      3.24000000	      0.00122871	      0.00701058	      0.01824210
      3.25000000	      0.00119122	      0.00690282	      0.01788096
      3.26000000	      0.00115410	      0.00679442	      0.01754983
      3.27000000	      0.00111568	      0.00668037	      0.01719313
      3.28000000	      0.00107745	      0.00656490	      0.01677597
      3.29000000	      0.00104197	      0.00645593	      0.01631224
      3.30000000	      0.00101023	      0.00635681	      0.01583061
      3.31000000	      0.00097820	      0.00625523	      0.01534905
      3.32000000	      0.00095672	      0.00618617	      0.01479283
      3.33000000	      0.00093382	      0.00611169	      0.01428070
      3.34000000	      0.00091777	      0.00605895	      0.01373833
      3.35000000	      0.00090863	      0.00602869	      0.01315241
      3.36000000	      0.00092375	      0.00607866	      0.01307433
      3.37000000	      0.00092542	      0.00608415	      0.01372294
      3.38000000	      0.00094282	      0.00614108	      0.01441166
      3.39000000	      0.00097851	      0.00625623	      0.01535150
      3.40000000	      0.00102116	      0.00639113	      0.01632121
      3.41000000	      0.00108991	      0.00660276	      0.01726688
      3.42000000	      0.00114361	      0.00676347	      0.01805087
      3.43000000	      0.00121296	      0.00696552	      0.01888835
      3.44000000	      0.00124554	      0.00705843	      0.01885451
      3.45000000	      0.00129616	      0.00720045	      0.01899299
      3.46000000	      0.00133143	      0.00729776	      0.01876508
      3.47000000	      0.00134942	      0.00734688	      0.01911269
      3.48000000	      0.00136816	      0.00739772	      0.02012019
      3.49000000	      0.00137163	      0.00740710	      0.02111039
      3.50000000	      0.00138667	      0.00744761	      0.02198161
      3.51000000	      0.00141117	      0.00751310	      0.02279835
      3.52000000	      0.00144705	      0.00760801	      0.02360492
      3.53000000	      0.00149758	      0.00773972	      0.02442603
      3.54000000	      0.00158836	      0.00797085	      0.02531844
      3.55000000	      0.00163407	      0.00808473	      0.02578511
      3.56000000	      0.00171160	      0.00827429	      0.02662037
      3.57000000	      0.00177474	      0.00842553	      0.02695462
      3.58000000	      0.00183805	      0.00857449	      0.02740691
      3.59000000	      0.00185319	      0.00860974	      0.02742185
      3.60000000	      0.00187182	      0.00865290	      0.02771229
      3.61000000	      0.00186647	      0.00864053	      0.02777397
      3.62000000	      0.00186138	      0.00862874	      0.02766691
      3.63000000	      0.00185439	      0.00861253	      0.02754575
      3.64000000	      0.00185157	      0.00860597	      0.02732672
      3.65000000	      0.00183439	      0.00856596	      0.02715346
      3.66000000	      0.00179881	      0.00848247	      0.02678346
      3.67000000	      0.00173057	      0.00832002	      0.02636676
      3.68000000	      0.00169570	      0.00823577	      0.02596401
      3.69000000	      0.00167070	      0.00817484	      0.02559688
      3.70000000	      0.00163949	      0.00809812	      0.02502319
      3.71000000	      0.00165165	      0.00812809	      0.02486281
      3.72000000	      0.00164486	      0.00811137	      0.02442673
      3.73000000	      0.00164359	      0.00810825	      0.02400270
      3.74000000	      0.00165723	      0.00814183	      0.02354453
      3.75000000	      0.00168971	      0.00822122	      0.02327418
      3.76000000	      0.00173736	      0.00833632	      0.02287804
      3.77000000	      0.00179566	      0.00847504	      0.02248489
      3.78000000	      0.00187594	      0.00866243	      0.02231177
      3.79000000	      0.00196193	      0.00885875	      0.02205883
      3.80000000	      0.00205459	      0.00906552	      0.02252445
      3.81000000	      0.00209956	      0.00916420	      0.02212013
      3.82000000	      0.00216972	      0.00931605	      0.02272041
      3.83000000	      0.00222216	      0.00942796	      0.02355638
      3.84000000	      0.00225367	      0.00949456	      0.02383132
      3.85000000	      0.00226487	      0.00951812	      0.02417563
      3.86000000	      0.00223752	      0.00946049	      0.02360486
      3.87000000	      0.00219681	      0.00937402	      0.02346058
      3.88000000	      0.00213910	      0.00925008	      0.02308114
      3.89000000	      0.00206573	      0.00909007	      0.02257498
      3.90000000	      0.00198033	      0.00890018	      0.02183195
      3.91000000	      0.00188654	      0.00868686	      0.02097576
      3.92000000	      0.00181419	      0.00851865	      0.02029685
      3.93000000	      0.00170188	      0.00825077	      0.01898153
      3.94000000	      0.00163915	      0.00809727	      0.01813575
      3.95000000	      0.00154489	      0.00786102	      0.01686922
      3.96000000	      0.00147721	      0.00768690	      0.01691571
      3.97000000	      0.00145654	      0.00763293	      0.01738747
      3.98000000	      0.00142733	      0.00755600	      0.01763817
      3.99000000	      0.00140272	      0.00749059	      0.01798836
      4.00000000	      0.00142634	      0.00755337	      0.01844151
      4.01000000	      0.00144768	      0.00760969	      0.01886308
      4.02000000	      0.00149152	      0.00772403	      0.01927746
      4.03000000	      0.00152640	      0.00781383	      0.01976698
      4.04000000	      0.00157363	      0.00793380	      0.02014213
      4.05000000	      0.00160740	      0.00801847	      0.02059632
      4.06000000	      0.00165133	      0.00812732	      0.02096681
      4.07000000	      0.00168960	      0.00822094	      0.02137062
      4.08000000	      0.00172337	      0.00830270	      0.02165381
      4.09000000	      0.00175587	      0.00838062	      0.02199313
      4.10000000	      0.00178616	      0.00845259	      0.02230553
      4.11000000	      0.00181162	      0.00851263	      0.02261253
      4.12000000	      0.00183027	      0.00855632	      0.02284443
      4.13000000	      0.00184290	      0.00858581	      0.02304016
      4.14000000	      0.00184469	      0.00858997	      0.02313498
