TVC20_3_JMP_01_pelvis_thigh_marker_adjustment_task_1_initialErrors.sto
version=1
nRows=121
nColumns=28
inDegrees=no
endheader
time	R_Asis	L_Asis	R_Psis	L_Psis	Sacral	R_Thigh_Lateral	R_Knee_Lateral	R_Shank_Lateral	R_Ankle_Lateral	R_Heel	R_Toe	L_Thigh_Lateral	L_Knee_Lateral	L_Shank_Lateral	L_Ankle_Lateral	L_Heel	L_Toe	R_Shoulder	L_Shoulder	C7	J_Notch	Thoracic	Sternum	R_Elbow	L_Elbow	R_Wrist	L_Wrist
0.30000000	0.00509675	0.00331352	0.00358633	0.00502418	0.00420462	0.01696759	0.03601968	0.01823547	0.01004874	0.01071804	0.00374652	0.00978874	0.03463457	0.00989880	0.00792058	0.00676916	0.00430132	0.01319503	0.00982635	0.00990281	0.00645320	0.00806329	0.01063786	0.01677708	0.00710870	0.00310872	0.00015223
0.31000000	0.00486724	0.00349585	0.00350068	0.00506285	0.00418342	0.01689213	0.03485108	0.01832631	0.00977499	0.01062701	0.00353859	0.00979459	0.03430667	0.00998071	0.00765538	0.00650371	0.00440549	0.01312709	0.00991866	0.00999917	0.00639071	0.00819166	0.01067036	0.01686495	0.00662691	0.00307924	0.00040191
0.32000000	0.00456745	0.00367751	0.00347991	0.00514689	0.00421213	0.01632558	0.03381447	0.01798692	0.00947164	0.01051197	0.00342822	0.00979905	0.03405202	0.01008894	0.00743956	0.00628858	0.00459180	0.01298372	0.01008325	0.01016788	0.00632569	0.00835962	0.01068341	0.01688945	0.00614160	0.00310646	0.00066841
0.33000000	0.00503775	0.00392676	0.00344885	0.00498819	0.00413698	0.01548800	0.03258916	0.01732784	0.00907406	0.01039118	0.00359418	0.00966335	0.03388675	0.01020564	0.00738978	0.00607657	0.00459503	0.01298185	0.01016698	0.01024120	0.00623440	0.00850430	0.01079565	0.01702972	0.00556531	0.00308765	0.00094275
0.34000000	0.00478222	0.00391137	0.00322690	0.00493577	0.00399598	0.01479970	0.03136299	0.01643734	0.00858382	0.01017192	0.00339257	0.00962820	0.03382101	0.01021870	0.00731507	0.00585162	0.00464846	0.01283442	0.01039320	0.01041754	0.00615533	0.00856705	0.01086013	0.01705520	0.00510859	0.00321310	0.00120495
0.35000000	0.00530420	0.00404178	0.00313971	0.00477350	0.00388796	0.01388255	0.02986466	0.01522588	0.00817860	0.01007208	0.00363131	0.00944826	0.03380280	0.01030547	0.00743403	0.00570460	0.00461611	0.01277198	0.01054488	0.01053258	0.00606007	0.00864131	0.01103346	0.01714811	0.00463075	0.00323866	0.00141132
0.36000000	0.00563722	0.00403718	0.00297371	0.00461303	0.00373074	0.01342001	0.02823985	0.01389694	0.00769203	0.00993514	0.00372718	0.00925751	0.03388436	0.01030829	0.00761122	0.00558923	0.00456179	0.01272445	0.01073916	0.01064922	0.00595231	0.00863324	0.01122075	0.01728090	0.00421140	0.00327694	0.00163266
0.37000000	0.00561777	0.00376509	0.00266425	0.00440911	0.00345950	0.01330918	0.02661611	0.01254131	0.00726453	0.00986616	0.00382308	0.00916984	0.03403983	0.01034432	0.00778334	0.00540981	0.00460252	0.01274990	0.01089949	0.01070553	0.00585223	0.00851973	0.01142511	0.01748370	0.00379067	0.00337747	0.00186811
0.38000000	0.00577698	0.00357821	0.00258267	0.00432569	0.00335483	0.01335507	0.02491277	0.01124314	0.00683023	0.00968812	0.00404875	0.00911573	0.03421956	0.01037753	0.00810289	0.00540354	0.00453771	0.01277470	0.01106516	0.01077185	0.00570962	0.00837155	0.01165600	0.01768843	0.00352566	0.00347739	0.00201340
0.39000000	0.00580314	0.00324138	0.00253100	0.00422752	0.00322796	0.01361943	0.02342334	0.01008672	0.00634239	0.00938785	0.00406504	0.00923627	0.03444489	0.01043989	0.00842100	0.00538639	0.00454239	0.01288850	0.01119103	0.01078015	0.00555357	0.00811207	0.01193180	0.01796871	0.00333475	0.00363039	0.00212380
0.40000000	0.00576821	0.00278606	0.00264543	0.00413204	0.00314774	0.01401028	0.02219323	0.00924955	0.00584317	0.00904404	0.00379979	0.00945698	0.03478825	0.01038675	0.00870387	0.00532656	0.00456833	0.01311274	0.01125801	0.01072053	0.00536318	0.00772762	0.01220320	0.01837575	0.00321278	0.00372152	0.00221363
0.41000000	0.00593772	0.00236049	0.00299206	0.00416016	0.00326046	0.01404420	0.02130262	0.00868732	0.00537104	0.00851380	0.00370243	0.00974051	0.03510256	0.01042599	0.00910450	0.00551059	0.00481525	0.01336182	0.01130353	0.01068144	0.00517672	0.00731390	0.01249072	0.01878275	0.00315633	0.00397215	0.00229481
0.42000000	0.00615889	0.00197629	0.00349581	0.00428420	0.00351306	0.01409399	0.02066774	0.00872910	0.00498229	0.00803729	0.00352491	0.01029322	0.03549747	0.01043863	0.00945148	0.00567753	0.00508166	0.01365418	0.01130502	0.01062440	0.00498081	0.00683708	0.01279193	0.01923117	0.00321244	0.00418355	0.00230401
0.43000000	0.00664937	0.00163080	0.00390246	0.00427351	0.00369409	0.01402148	0.02051310	0.00910381	0.00454276	0.00735606	0.00333984	0.01088428	0.03590346	0.01047102	0.00984035	0.00592033	0.00526961	0.01415764	0.01123538	0.01046444	0.00477230	0.00630111	0.01314218	0.01989105	0.00321974	0.00436355	0.00233980
0.44000000	0.00739885	0.00207791	0.00441605	0.00454415	0.00408865	0.01364008	0.02048245	0.00981546	0.00433776	0.00704408	0.00305541	0.01169885	0.03639268	0.01044925	0.01016305	0.00632876	0.00549060	0.01453909	0.01119478	0.01042439	0.00459590	0.00582192	0.01335508	0.02041617	0.00337828	0.00472809	0.00229458
0.45000000	0.00797082	0.00288777	0.00466561	0.00461826	0.00423989	0.01317413	0.02065655	0.01062952	0.00438356	0.00696339	0.00272648	0.01259450	0.03690391	0.01046143	0.01057464	0.00677621	0.00584130	0.01497546	0.01113696	0.01036772	0.00448486	0.00539304	0.01365242	0.02100083	0.00343272	0.00496367	0.00235851
0.46000000	0.00857543	0.00407361	0.00471692	0.00457413	0.00422463	0.01263541	0.02114303	0.01142141	0.00454701	0.00698394	0.00269822	0.01347097	0.03746953	0.01044358	0.01098269	0.00722898	0.00636459	0.01548184	0.01110158	0.01027211	0.00431456	0.00503700	0.01380949	0.02166827	0.00352424	0.00522659	0.00237401
0.47000000	0.00929878	0.00543383	0.00460512	0.00446298	0.00409137	0.01212974	0.02186611	0.01224454	0.00487107	0.00711156	0.00299679	0.01424672	0.03807106	0.01037373	0.01148363	0.00784990	0.00693512	0.01596794	0.01109699	0.01017285	0.00414715	0.00478268	0.01390578	0.02228921	0.00368179	0.00558334	0.00236325
0.48000000	0.01015756	0.00676071	0.00474126	0.00455719	0.00421849	0.01206886	0.02300645	0.01348345	0.00494452	0.00679245	0.00314287	0.01509522	0.03854970	0.01058907	0.01203410	0.00836719	0.00724407	0.01634747	0.01095600	0.01008547	0.00409554	0.00444826	0.01399588	0.02279696	0.00396694	0.00582494	0.00224547
0.49000000	0.01090815	0.00826833	0.00447340	0.00436683	0.00395747	0.01152679	0.02399720	0.01434049	0.00548873	0.00725374	0.00346778	0.01583757	0.03911067	0.01072806	0.01261692	0.00906332	0.00762453	0.01672175	0.01092086	0.00997929	0.00398119	0.00435931	0.01395422	0.02329066	0.00415081	0.00617604	0.00223988
0.50000000	0.01161680	0.00957913	0.00457617	0.00444061	0.00406035	0.01117818	0.02530180	0.01550618	0.00562385	0.00723837	0.00322205	0.01642305	0.03967436	0.01091068	0.01313775	0.00964022	0.00751881	0.01695504	0.01075527	0.00987788	0.00397440	0.00410956	0.01395623	0.02362813	0.00445878	0.00634246	0.00214487
0.51000000	0.01200991	0.01096006	0.00439025	0.00432764	0.00388644	0.01055171	0.02636738	0.01618040	0.00601215	0.00745266	0.00315120	0.01679350	0.04031031	0.01113240	0.01365745	0.01040246	0.00745318	0.01714047	0.01063270	0.00974023	0.00389672	0.00404755	0.01383119	0.02390044	0.00467265	0.00658685	0.00214981
0.52000000	0.01242457	0.01221780	0.00413077	0.00424551	0.00370413	0.00963868	0.02731716	0.01638150	0.00656286	0.00776714	0.00370787	0.01719171	0.04099075	0.01146277	0.01415123	0.01069950	0.00779577	0.01701835	0.01081366	0.00979974	0.00373861	0.00423713	0.01346213	0.02389701	0.00498733	0.00673578	0.00209787
0.53000000	0.01213823	0.01313025	0.00436854	0.00432501	0.00387397	0.00927538	0.02808651	0.01677561	0.00667721	0.00752226	0.00250366	0.01712169	0.04165300	0.01190627	0.01442126	0.01177811	0.00732951	0.01705110	0.01049166	0.00950019	0.00367508	0.00397410	0.01338339	0.02393355	0.00527670	0.00686715	0.00198281
0.54000000	0.01163255	0.01407408	0.00411331	0.00422404	0.00366097	0.00880511	0.02848229	0.01629496	0.00730009	0.00752339	0.00328476	0.01696058	0.04248382	0.01243239	0.01455946	0.01265295	0.00724460	0.01674052	0.01053542	0.00949595	0.00361990	0.00419365	0.01310565	0.02365686	0.00552023	0.00696907	0.00193230
0.55000000	0.01101645	0.01426706	0.00422417	0.00416960	0.00373902	0.00890860	0.02872513	0.01601207	0.00762305	0.00740656	0.00282617	0.01668404	0.04330617	0.01305386	0.01426992	0.01311906	0.00721887	0.01656754	0.01043223	0.00931452	0.00354968	0.00415068	0.01295329	0.02347267	0.00576803	0.00697117	0.00186128
0.56000000	0.00982278	0.01460306	0.00395027	0.00404468	0.00351079	0.00889542	0.02880782	0.01521467	0.00817879	0.00733679	0.00384465	0.01590773	0.04421138	0.01372747	0.01388564	0.01378170	0.00700654	0.01609551	0.01040215	0.00929082	0.00364691	0.00453089	0.01274789	0.02297914	0.00588166	0.00698441	0.00180299
0.57000000	0.00846408	0.01442207	0.00378131	0.00390696	0.00336689	0.00914915	0.02889209	0.01453889	0.00860613	0.00725272	0.00431815	0.01507555	0.04505359	0.01439124	0.01314925	0.01415293	0.00632056	0.01568176	0.01031107	0.00921161	0.00384372	0.00486254	0.01267145	0.02249031	0.00598713	0.00696168	0.00173847
0.58000000	0.00787620	0.01286250	0.00390873	0.00369033	0.00350712	0.01005299	0.02886374	0.01417761	0.00882499	0.00741697	0.00361365	0.01567197	0.04541845	0.01521831	0.01180175	0.01315259	0.00559115	0.01536634	0.01026489	0.00915058	0.00419322	0.00502774	0.01288239	0.02205870	0.00609419	0.00680100	0.00176163
0.59000000	0.00664050	0.01176334	0.00396991	0.00357695	0.00356002	0.01047024	0.02907889	0.01371316	0.00901101	0.00756333	0.00345947	0.01562984	0.04591511	0.01562644	0.01064895	0.01246837	0.00477686	0.01484778	0.01018211	0.00918151	0.00466398	0.00549725	0.01295312	0.02142993	0.00615334	0.00659920	0.00165507
0.60000000	0.00549988	0.01104072	0.00411926	0.00360666	0.00369691	0.01106043	0.02928627	0.01356929	0.00889292	0.00758928	0.00388549	0.01465998	0.04663687	0.01571807	0.00993961	0.01196892	0.00487146	0.01416857	0.01020628	0.00939024	0.00525075	0.00617056	0.01307858	0.02060166	0.00619058	0.00634592	0.00162561
0.61000000	0.00485606	0.00939354	0.00425655	0.00323537	0.00366938	0.01139856	0.02963690	0.01339276	0.00892270	0.00794116	0.00312492	0.01676484	0.04651465	0.01593335	0.00885533	0.01083845	0.00366512	0.01397064	0.01006184	0.00936674	0.00576635	0.00657239	0.01330142	0.02020199	0.00617975	0.00622554	0.00154884
0.62000000	0.00462951	0.00877852	0.00448919	0.00294851	0.00368125	0.01154356	0.02998298	0.01340609	0.00881578	0.00807610	0.00302300	0.01725621	0.04682720	0.01593074	0.00851388	0.01034833	0.00355096	0.01373671	0.01000925	0.00940724	0.00612248	0.00691223	0.01327472	0.01979373	0.00641977	0.00603839	0.00133240
0.63000000	0.00464963	0.00807497	0.00464585	0.00251330	0.00356329	0.01159210	0.03018045	0.01344083	0.00865005	0.00816755	0.00294044	0.01800009	0.04712383	0.01597417	0.00844368	0.01005787	0.00331070	0.01362806	0.00994888	0.00940899	0.00644879	0.00717747	0.01331298	0.01947626	0.00663996	0.00587010	0.00121816
0.64000000	0.00457860	0.00749230	0.00475748	0.00213085	0.00341135	0.01148636	0.03022966	0.01339625	0.00848149	0.00813337	0.00301842	0.01851359	0.04759966	0.01602511	0.00861486	0.01004170	0.00319306	0.01355752	0.00988145	0.00939132	0.00670920	0.00737901	0.01326229	0.01919916	0.00690586	0.00570825	0.00103699
0.65000000	0.00424293	0.00692858	0.00486602	0.00189839	0.00330259	0.01162750	0.03010005	0.01322136	0.00823271	0.00792947	0.00291483	0.01842392	0.04836143	0.01615117	0.00900842	0.01021275	0.00346105	0.01347424	0.00980626	0.00935036	0.00692848	0.00749495	0.01318050	0.01888925	0.00720917	0.00552858	0.00084136
0.66000000	0.00397455	0.00644794	0.00479052	0.00157984	0.00302957	0.01114606	0.02968395	0.01315018	0.00826076	0.00794888	0.00276823	0.01876501	0.04891308	0.01675330	0.00927866	0.01041603	0.00334262	0.01347875	0.00973636	0.00927738	0.00707090	0.00749933	0.01305104	0.01869904	0.00756783	0.00532457	0.00061788
0.67000000	0.00366690	0.00580856	0.00479904	0.00139792	0.00282714	0.01088958	0.02910176	0.01291832	0.00820672	0.00780387	0.00277869	0.01871776	0.04957766	0.01757848	0.00960546	0.01059614	0.00335583	0.01346090	0.00965707	0.00920197	0.00722959	0.00751586	0.01297885	0.01845467	0.00784730	0.00511669	0.00038583
0.68000000	0.00349124	0.00525604	0.00478446	0.00131265	0.00258801	0.01080596	0.02848204	0.01250262	0.00806719	0.00759120	0.00255756	0.01838145	0.05022656	0.01872175	0.01003252	0.01071357	0.00330258	0.01348249	0.00954619	0.00909215	0.00737352	0.00744906	0.01295339	0.01825228	0.00811134	0.00485938	0.00014099
0.69000000	0.00324342	0.00494446	0.00472758	0.00132915	0.00238276	0.01057825	0.02776086	0.01218042	0.00807886	0.00750659	0.00259909	0.01807885	0.05079868	0.02005823	0.01036417	0.01082300	0.00335046	0.01344529	0.00949131	0.00899429	0.00745012	0.00736013	0.01281429	0.01801482	0.00840044	0.00456899	0.00009816
0.70000000	0.00309816	0.00467364	0.00464820	0.00138732	0.00217249	0.01042962	0.02703722	0.01187749	0.00808519	0.00740417	0.00256392	0.01777241	0.05126790	0.02151757	0.01076962	0.01087550	0.00331439	0.01336703	0.00942422	0.00891974	0.00756820	0.00723868	0.01274003	0.01773429	0.00865358	0.00426967	0.00028190
0.71000000	0.00336073	0.00440845	0.00449124	0.00175084	0.00187668	0.01060130	0.02637992	0.01147574	0.00789696	0.00718896	0.00234517	0.01746179	0.05161428	0.02293580	0.01122305	0.01088047	0.00289278	0.01349596	0.00928511	0.00868337	0.00756893	0.00700896	0.01266054	0.01764375	0.00885996	0.00400479	0.00081495
0.72000000	0.00354266	0.00420885	0.00430049	0.00212573	0.00164227	0.01078339	0.02582848	0.01105754	0.00763631	0.00693405	0.00234998	0.01706106	0.05188475	0.02407194	0.01164694	0.01089628	0.00281003	0.01355041	0.00917856	0.00847615	0.00754078	0.00675575	0.01251985	0.01745857	0.00910999	0.00386358	0.00111761
0.73000000	0.00286544	0.00435886	0.00439747	0.00168705	0.00161858	0.00984471	0.02534413	0.01078235	0.00779408	0.00704723	0.00229686	0.01593900	0.05252494	0.02437271	0.01206420	0.01074004	0.00318689	0.01308127	0.00914074	0.00862641	0.00778645	0.00686436	0.01243759	0.01677604	0.00920540	0.00344005	0.00116814
0.74000000	0.00332513	0.00413638	0.00420813	0.00220656	0.00148091	0.01014375	0.02471073	0.01049416	0.00738926	0.00674166	0.00228240	0.01531032	0.05243370	0.02491293	0.01245927	0.01072909	0.00311859	0.01309708	0.00904464	0.00839120	0.00773324	0.00654747	0.01230470	0.01657961	0.00948005	0.00311842	0.00145951
0.75000000	0.00286360	0.00418279	0.00415187	0.00206161	0.00132741	0.00959945	0.02411473	0.01029274	0.00727589	0.00671374	0.00217460	0.01488461	0.05226539	0.02485768	0.01264323	0.01060772	0.00302959	0.01281368	0.00895244	0.00839639	0.00787245	0.00656094	0.01225534	0.01604170	0.00956666	0.00282936	0.00163390
0.76000000	0.00299718	0.00405443	0.00387796	0.00244915	0.00118136	0.00967501	0.02351169	0.00988588	0.00670750	0.00618674	0.00226215	0.01382449	0.05177752	0.02482813	0.01300788	0.01065551	0.00322354	0.01274482	0.00893591	0.00819004	0.00773324	0.00631969	0.01203663	0.01575907	0.00991694	0.00242845	0.00186512
0.77000000	0.00339367	0.00400523	0.00353066	0.00291123	0.00120261	0.00928285	0.02259994	0.00982088	0.00646432	0.00689065	0.00256586	0.01226336	0.05136374	0.02447768	0.01319637	0.01071722	0.00263199	0.01286136	0.00870926	0.00781087	0.00754405	0.00592902	0.01170960	0.01566852	0.01017512	0.00214919	0.00296649
0.78000000	0.00214429	0.00410155	0.00357847	0.00258051	0.00070599	0.00829307	0.02182792	0.00943691	0.00605181	0.00576099	0.00217430	0.01259168	0.05014765	0.02415778	0.01318982	0.01051309	0.00286475	0.01236185	0.00861285	0.00806429	0.00788455	0.00634922	0.01193737	0.01480510	0.01005207	0.00186737	0.00238362
0.79000000	0.00242589	0.00403962	0.00305870	0.00300940	0.00061833	0.00792535	0.02093292	0.00931033	0.00555631	0.00589910	0.00228162	0.01093031	0.04927683	0.02389240	0.01338118	0.01057107	0.00268350	0.01245255	0.00849741	0.00770316	0.00756557	0.00606955	0.01145551	0.01467872	0.01036256	0.00166398	0.00331641
0.80000000	0.00125252	0.00400080	0.00304040	0.00276006	0.00021422	0.00745038	0.02007081	0.00905783	0.00499636	0.00490625	0.00181623	0.01122704	0.04785482	0.02360271	0.01313523	0.01036271	0.00301507	0.01198069	0.00832324	0.00791569	0.00790909	0.00643202	0.01170820	0.01380513	0.01034716	0.00136258	0.00287297
0.81000000	0.00104226	0.00399308	0.00282648	0.00290909	0.00009066	0.00683488	0.01915963	0.00895890	0.00444939	0.00442136	0.00180554	0.01076063	0.04657894	0.02339165	0.01301442	0.01028733	0.00289656	0.01180406	0.00817805	0.00786082	0.00788655	0.00654923	0.01155763	0.01329410	0.01050088	0.00111924	0.00306707
0.82000000	0.00120146	0.00390355	0.00244849	0.00311479	0.00038406	0.00636977	0.01834823	0.00898308	0.00387152	0.00371048	0.00205081	0.01045836	0.04526333	0.02331283	0.01285057	0.01020598	0.00282028	0.01162609	0.00811264	0.00778397	0.00777761	0.00660775	0.01131523	0.01280186	0.01083648	0.00093019	0.00313206
0.83000000	0.00141606	0.00392255	0.00238241	0.00325735	0.00066040	0.00576996	0.01755009	0.00903314	0.00340055	0.00339704	0.00187792	0.01027779	0.04416287	0.02283109	0.01264043	0.01008942	0.00258398	0.01150002	0.00786137	0.00777158	0.00779577	0.00686641	0.01119427	0.01226073	0.01086064	0.00073018	0.00340514
0.84000000	0.00181494	0.00384591	0.00218436	0.00343723	0.00091149	0.00533188	0.01689140	0.00917890	0.00298383	0.00297520	0.00186776	0.01024960	0.04308061	0.02235147	0.01241089	0.00998219	0.00245698	0.01136029	0.00767980	0.00776168	0.00777784	0.00706800	0.01105411	0.01171334	0.01104980	0.00060557	0.00354559
0.85000000	0.00211347	0.00375411	0.00204300	0.00362463	0.00119277	0.00519060	0.01635716	0.00930040	0.00266328	0.00261095	0.00183911	0.01009092	0.04221634	0.02153602	0.01218665	0.00987435	0.00235561	0.01123537	0.00752464	0.00779931	0.00774261	0.00733765	0.01090360	0.01116788	0.01121395	0.00051666	0.00368194
0.86000000	0.00252258	0.00386297	0.00176359	0.00377906	0.00145365	0.00489512	0.01608460	0.00930274	0.00251221	0.00223940	0.00190604	0.00961378	0.04155937	0.02030424	0.01207459	0.00976131	0.00286523	0.01116438	0.00737877	0.00779064	0.00764149	0.00756198	0.01069715	0.01064355	0.01156491	0.00035138	0.00379319
0.87000000	0.00270241	0.00387106	0.00164887	0.00399835	0.00169319	0.00486153	0.01597721	0.00917140	0.00234426	0.00195846	0.00208944	0.00960533	0.04086645	0.01906216	0.01180747	0.00978017	0.00282814	0.01115856	0.00722590	0.00778722	0.00756439	0.00779194	0.01057277	0.01017672	0.01183825	0.00025354	0.00397230
0.88000000	0.00299638	0.00430678	0.00151891	0.00414963	0.00196884	0.00486974	0.01601793	0.00901295	0.00241773	0.00179210	0.00202057	0.00940737	0.04027899	0.01748029	0.01167356	0.00980589	0.00342863	0.01117103	0.00710098	0.00781926	0.00747489	0.00806757	0.01046463	0.00971939	0.01217358	0.00022617	0.00414361
0.89000000	0.00324533	0.00475622	0.00100359	0.00451915	0.00236197	0.00510115	0.01590950	0.00924482	0.00266140	0.00159789	0.00226231	0.01089525	0.03961384	0.01663846	0.01094206	0.00949382	0.00303737	0.01112774	0.00729479	0.00769769	0.00728416	0.00798218	0.01049220	0.00936625	0.01284136	0.00022814	0.00430247
0.90000000	0.00301046	0.00456067	0.00153957	0.00458519	0.00241547	0.00520736	0.01642665	0.00857407	0.00271739	0.00159597	0.00229477	0.01035869	0.03890825	0.01458755	0.01141460	0.01034119	0.00395850	0.01135226	0.00695403	0.00783557	0.00728421	0.00848536	0.01048221	0.00895773	0.01305478	0.00019392	0.00441702
0.91000000	0.00300301	0.00504879	0.00152341	0.00480656	0.00265662	0.00545313	0.01681452	0.00838096	0.00297546	0.00155084	0.00220652	0.01073144	0.03832714	0.01317184	0.01122153	0.01048765	0.00435097	0.01141774	0.00704461	0.00782004	0.00713234	0.00861112	0.01058220	0.00866507	0.01363909	0.00017321	0.00463665
0.92000000	0.00268835	0.00505460	0.00153555	0.00513635	0.00288837	0.00585412	0.01727977	0.00823530	0.00325529	0.00158421	0.00237365	0.01148061	0.03781031	0.01214721	0.01097279	0.01060072	0.00432454	0.01155596	0.00716651	0.00771231	0.00696369	0.00861116	0.01074187	0.00851024	0.01427318	0.00019343	0.00487596
0.93000000	0.00308891	0.00567227	0.00196512	0.00584377	0.00363378	0.00623746	0.01781305	0.00793077	0.00349473	0.00190883	0.00286695	0.01253808	0.03750550	0.01196543	0.01044716	0.01035135	0.00416697	0.01153601	0.00752286	0.00747587	0.00670179	0.00834359	0.01094193	0.00852494	0.01505472	0.00048879	0.00521259
0.94000000	0.00169037	0.00512142	0.00167357	0.00598646	0.00348038	0.00704642	0.01848310	0.00803201	0.00399513	0.00194180	0.00281048	0.01231829	0.03738445	0.01095119	0.01037654	0.01042569	0.00431676	0.01182603	0.00763606	0.00732910	0.00654318	0.00834101	0.01116488	0.00851868	0.01569563	0.00021419	0.00545077
0.95000000	0.00131663	0.00546008	0.00189398	0.00654327	0.00395334	0.00803983	0.01902313	0.00810885	0.00447169	0.00237876	0.00305672	0.01270617	0.03753855	0.01108549	0.00987524	0.00985937	0.00415406	0.01190835	0.00801349	0.00703415	0.00632506	0.00801019	0.01151216	0.00867737	0.01645929	0.00024449	0.00579210
0.96000000	0.00131424	0.00608100	0.00237176	0.00722359	0.00457617	0.00910368	0.01962207	0.00797657	0.00491217	0.00289703	0.00347250	0.01252809	0.03794336	0.01134949	0.00942140	0.00935413	0.00380450	0.01199480	0.00839402	0.00670514	0.00605908	0.00764229	0.01169464	0.00895269	0.01715549	0.00042899	0.00624958
0.97000000	0.00172221	0.00595042	0.00239438	0.00746551	0.00460802	0.01033757	0.02048638	0.00786552	0.00547828	0.00327893	0.00390986	0.01162441	0.03811754	0.01168424	0.00959160	0.00942976	0.00403534	0.01217568	0.00860085	0.00651886	0.00586458	0.00751131	0.01183721	0.00918893	0.01770350	0.00039308	0.00647010
0.98000000	0.00265595	0.00669988	0.00261494	0.00783750	0.00491832	0.01148314	0.02107688	0.00774951	0.00610875	0.00411328	0.00436609	0.01073026	0.03866442	0.01238776	0.00941362	0.00905174	0.00386075	0.01228580	0.00892812	0.00626220	0.00562643	0.00723555	0.01196550	0.00951823	0.01825349	0.00042829	0.00682093
0.99000000	0.00382970	0.00728395	0.00275711	0.00806312	0.00506662	0.01271866	0.02167442	0.00777360	0.00675186	0.00482871	0.00480780	0.00967958	0.03918974	0.01327591	0.00939880	0.00881286	0.00410540	0.01235666	0.00917739	0.00609633	0.00541553	0.00705410	0.01199398	0.00983412	0.01865968	0.00045343	0.00708718
1.00000000	0.00513504	0.00781147	0.00273218	0.00808571	0.00500932	0.01373407	0.02234063	0.00783656	0.00743313	0.00568165	0.00542587	0.00852861	0.03975921	0.01415433	0.00945005	0.00872317	0.00448563	0.01251175	0.00931754	0.00594717	0.00517741	0.00696351	0.01186576	0.01022910	0.01889497	0.00057283	0.00735246
1.01000000	0.00650665	0.00801149	0.00285055	0.00827832	0.00511157	0.01466643	0.02296176	0.00817559	0.00801021	0.00642524	0.00593389	0.00805224	0.04030996	0.01537328	0.00913840	0.00843880	0.00399824	0.01258714	0.00945214	0.00579632	0.00503130	0.00676471	0.01183119	0.01065667	0.01897360	0.00066448	0.00758874
1.02000000	0.00772426	0.00842783	0.00262362	0.00798986	0.00476768	0.01520973	0.02380047	0.00863289	0.00872360	0.00737373	0.00653224	0.00676590	0.04085158	0.01600331	0.00926661	0.00835299	0.00440370	0.01271447	0.00940458	0.00584224	0.00489326	0.00687648	0.01155783	0.01095095	0.01883392	0.00072547	0.00777507
1.03000000	0.00900558	0.00818119	0.00253201	0.00789487	0.00456915	0.01570690	0.02469480	0.00944056	0.00914984	0.00861179	0.00682497	0.00621497	0.04111946	0.01656654	0.00937883	0.00841733	0.00388620	0.01276400	0.00940544	0.00583027	0.00477062	0.00685086	0.01133958	0.01136739	0.01861641	0.00075413	0.00788663
1.04000000	0.00979223	0.00790022	0.00260645	0.00792993	0.00457413	0.01583182	0.02590116	0.01045530	0.00952854	0.00935224	0.00734084	0.00625063	0.04143645	0.01692908	0.00898491	0.00785802	0.00281311	0.01281855	0.00927799	0.00590446	0.00484372	0.00678434	0.01125043	0.01167966	0.01815411	0.00091887	0.00788919
1.05000000	0.01047576	0.00729603	0.00246984	0.00770112	0.00427694	0.01573531	0.02735611	0.01163547	0.00979925	0.01029286	0.00760435	0.00611251	0.04151216	0.01687658	0.00910052	0.00763944	0.00236845	0.01290104	0.00908933	0.00603797	0.00488807	0.00684999	0.01101688	0.01198928	0.01759968	0.00100509	0.00785808
1.06000000	0.01085310	0.00636180	0.00237921	0.00741791	0.00395120	0.01541569	0.02901342	0.01294995	0.00991543	0.01104347	0.00753243	0.00621671	0.04141855	0.01669713	0.00930981	0.00742632	0.00228969	0.01295009	0.00888589	0.00622008	0.00501116	0.00691079	0.01086151	0.01224528	0.01695831	0.00111668	0.00775476
1.07000000	0.01084640	0.00525526	0.00232299	0.00706904	0.00361305	0.01490927	0.03083637	0.01426413	0.00986127	0.01140224	0.00700957	0.00662830	0.04114969	0.01661498	0.00957279	0.00735824	0.00254821	0.01297613	0.00867557	0.00643056	0.00521653	0.00695514	0.01081629	0.01246768	0.01625326	0.00119785	0.00758535
1.08000000	0.01056834	0.00390346	0.00235736	0.00663541	0.00322527	0.01429919	0.03265163	0.01545464	0.00981549	0.01148660	0.00606979	0.00704994	0.04098019	0.01643322	0.00987714	0.00723896	0.00280544	0.01291742	0.00845657	0.00674019	0.00552719	0.00705658	0.01086865	0.01256987	0.01549432	0.00129407	0.00730988
1.09000000	0.00994413	0.00258022	0.00239696	0.00608680	0.00277026	0.01369229	0.03441965	0.01635081	0.00986013	0.01130650	0.00493001	0.00762924	0.04097095	0.01614714	0.01009472	0.00725259	0.00304414	0.01285923	0.00821788	0.00707216	0.00589122	0.00719405	0.01097784	0.01264827	0.01469352	0.00137801	0.00700749
1.10000000	0.00926195	0.00156251	0.00252449	0.00549401	0.00229798	0.01335330	0.03608705	0.01682806	0.01001329	0.01084547	0.00406536	0.00821696	0.04112530	0.01581913	0.01036605	0.00737844	0.00302621	0.01275385	0.00800637	0.00745587	0.00629116	0.00740575	0.01113160	0.01266703	0.01387694	0.00144040	0.00666298
1.11000000	0.00830692	0.00114114	0.00250615	0.00481728	0.00193483	0.01343818	0.03754111	0.01706552	0.01034250	0.01037144	0.00334674	0.00891701	0.04158631	0.01531848	0.01042373	0.00761803	0.00314688	0.01263779	0.00791191	0.00779158	0.00663485	0.00753166	0.01128349	0.01266226	0.01324834	0.00154881	0.00632641
1.12000000	0.00770569	0.00088440	0.00243959	0.00431581	0.00173229	0.01376075	0.03874600	0.01707830	0.01080598	0.01003810	0.00325862	0.00955710	0.04224896	0.01473191	0.01050310	0.00788831	0.00315093	0.01257345	0.00786074	0.00803933	0.00688844	0.00758381	0.01134991	0.01276449	0.01274227	0.00164905	0.00600188
1.13000000	0.00747171	0.00076931	0.00234627	0.00397392	0.00163982	0.01422008	0.03977233	0.01701832	0.01125016	0.00984959	0.00358564	0.01033097	0.04290685	0.01428037	0.01056041	0.00827035	0.00280543	0.01255628	0.00789749	0.00819385	0.00701029	0.00755274	0.01130641	0.01293854	0.01240443	0.00171059	0.00572812
1.14000000	0.00692124	0.00088035	0.00225396	0.00350009	0.00155605	0.01467261	0.04085466	0.01689997	0.01170770	0.00982809	0.00381701	0.01091219	0.04342219	0.01388008	0.01060276	0.00853114	0.00333512	0.01247465	0.00791073	0.00838900	0.00722280	0.00753293	0.01139057	0.01301987	0.01209326	0.00185745	0.00534645
1.15000000	0.00654198	0.00086888	0.00218068	0.00323738	0.00148650	0.01477339	0.04196201	0.01694116	0.01207376	0.01008042	0.00419094	0.01182399	0.04372255	0.01360589	0.01035971	0.00847225	0.00298468	0.01247666	0.00798637	0.00847398	0.00728521	0.00743419	0.01133405	0.01318930	0.01185315	0.00199873	0.00520033
1.16000000	0.00607648	0.00078669	0.00209872	0.00290271	0.00138833	0.01511377	0.04291586	0.01728739	0.01225263	0.01035785	0.00434584	0.01194190	0.04363963	0.01353553	0.01032414	0.00852621	0.00290213	0.01248003	0.00805987	0.00852621	0.00734238	0.00729727	0.01131232	0.01336009	0.01170863	0.00208627	0.00494062
1.17000000	0.00482886	0.00104226	0.00186950	0.00241620	0.00128281	0.01530791	0.04392438	0.01785011	0.01237771	0.01076345	0.00393381	0.01178867	0.04317496	0.01364054	0.01025691	0.00884465	0.00248375	0.01238677	0.00825055	0.00857398	0.00742192	0.00703170	0.01141161	0.01337434	0.01181173	0.00194616	0.00462303
1.18000000	0.00485197	0.00074732	0.00190279	0.00214415	0.00117424	0.01550108	0.04449936	0.01883507	0.01216818	0.01097718	0.00417098	0.01096609	0.04263873	0.01357918	0.01025408	0.00850689	0.00286474	0.01249479	0.00827183	0.00854100	0.00736972	0.00695277	0.01130305	0.01365927	0.01157460	0.00217707	0.00442424
1.19000000	0.00439464	0.00106995	0.00172737	0.00179091	0.00103981	0.01555727	0.04501172	0.01993012	0.01193289	0.01125012	0.00398258	0.01032022	0.04195728	0.01352984	0.01017790	0.00840900	0.00273932	0.01253936	0.00840194	0.00844527	0.00730886	0.00667777	0.01125078	0.01386687	0.01160132	0.00225271	0.00421732
1.20000000	0.00410255	0.00135508	0.00157286	0.00150335	0.00096645	0.01551855	0.04531169	0.02106003	0.01164018	0.01152216	0.00382143	0.01002866	0.04122466	0.01347470	0.01006152	0.00826573	0.00262050	0.01257621	0.00855763	0.00834525	0.00724388	0.00641240	0.01123504	0.01405545	0.01163945	0.00221895	0.00396960
1.21000000	0.00375608	0.00167178	0.00188590	0.00146994	0.00131027	0.01492042	0.04586181	0.02159353	0.01122246	0.01164628	0.00396654	0.00930657	0.04045454	0.01319630	0.01029637	0.00838956	0.00287732	0.01250595	0.00851812	0.00848932	0.00742527	0.00654724	0.01138130	0.01405970	0.01129176	0.00215457	0.00359977
1.22000000	0.00350582	0.00178967	0.00187240	0.00161828	0.00150686	0.01493893	0.04585038	0.02222414	0.01082206	0.01180054	0.00401692	0.00941619	0.03981298	0.01296192	0.01017005	0.00830656	0.00297617	0.01254665	0.00861869	0.00842961	0.00738675	0.00643882	0.01138463	0.01420170	0.01117429	0.00226956	0.00333595
1.23000000	0.00349281	0.00205210	0.00190586	0.00187631	0.00173411	0.01459277	0.04584964	0.02244534	0.01056122	0.01192861	0.00403854	0.00947241	0.03926384	0.01259669	0.01003442	0.00832913	0.00289909	0.01257910	0.00868315	0.00838563	0.00736842	0.00637846	0.01141058	0.01433259	0.01101738	0.00223790	0.00302071
1.24000000	0.00382186	0.00218901	0.00166053	0.00186314	0.00161908	0.01444091	0.04552246	0.02258791	0.01038385	0.01202897	0.00405129	0.01012867	0.03884487	0.01232692	0.00962265	0.00809703	0.00271783	0.01275626	0.00883722	0.00815194	0.00717484	0.00612703	0.01131910	0.01466073	0.01103371	0.00222806	0.00267851
1.25000000	0.00376911	0.00222904	0.00208477	0.00236743	0.00211839	0.01474831	0.04518074	0.02219674	0.01007172	0.01189812	0.00411647	0.01002267	0.03827579	0.01206780	0.00958912	0.00801667	0.00294294	0.01273286	0.00878961	0.00825094	0.00733242	0.00634349	0.01150036	0.01468684	0.01056740	0.00223467	0.00235644
1.26000000	0.00415079	0.00239978	0.00215912	0.00257033	0.00225977	0.01461473	0.04459043	0.02187155	0.01011775	0.01191059	0.00441736	0.01016854	0.03791069	0.01174144	0.00917362	0.00757798	0.00289906	0.01285761	0.00884467	0.00814869	0.00722242	0.00634477	0.01142770	0.01491823	0.01035560	0.00221113	0.00208806
1.27000000	0.00400561	0.00253774	0.00246306	0.00309078	0.00267167	0.01490797	0.04388215	0.02144699	0.01015548	0.01180666	0.00418519	0.00957145	0.03727361	0.01172043	0.00912674	0.00762211	0.00286440	0.01279093	0.00886069	0.00825385	0.00733216	0.00654018	0.01155619	0.01488078	0.00998966	0.00223847	0.00164872
1.28000000	0.00464359	0.00267860	0.00248994	0.00303554	0.00264258	0.01459259	0.04314627	0.02108596	0.01036780	0.01173676	0.00442390	0.00949943	0.03674699	0.01181031	0.00880209	0.00731583	0.00281601	0.01306000	0.00893289	0.00801626	0.00706180	0.00642794	0.01130481	0.01526221	0.00988181	0.00221385	0.00139957
1.29000000	0.00416543	0.00272209	0.00300805	0.00382177	0.00330131	0.01488659	0.04231298	0.02072419	0.01037805	0.01154173	0.00420210	0.00894195	0.03608730	0.01165661	0.00873551	0.00716498	0.00272577	0.01293818	0.00889763	0.00823928	0.00723353	0.00681778	0.01143750	0.01517920	0.00930900	0.00219678	0.00102405
1.30000000	0.00421771	0.00275890	0.00323085	0.00415513	0.00357315	0.01526631	0.04115827	0.02078143	0.01053225	0.01147787	0.00421940	0.00849747	0.03555929	0.01161321	0.00851974	0.00682450	0.00281834	0.01295598	0.00892555	0.00828777	0.00725217	0.00698371	0.01144973	0.01524790	0.00891125	0.00222565	0.00067623
1.31000000	0.00401666	0.00287781	0.00345242	0.00460414	0.00390001	0.01558309	0.04008523	0.02086904	0.01067579	0.01145575	0.00402617	0.00819166	0.03505891	0.01153763	0.00828139	0.00659003	0.00261153	0.01289391	0.00900968	0.00839553	0.00723912	0.00716086	0.01139269	0.01525103	0.00853935	0.00229089	0.00041016
1.32000000	0.00398458	0.00300672	0.00368911	0.00494225	0.00418252	0.01602774	0.03896791	0.02103858	0.01066908	0.01131756	0.00393650	0.00795075	0.03458264	0.01149569	0.00813267	0.00633115	0.00271054	0.01293875	0.00900318	0.00843722	0.00721371	0.00730645	0.01132134	0.01537103	0.00806896	0.00235594	0.00012021
1.33000000	0.00390112	0.00313038	0.00385832	0.00527607	0.00442847	0.01637415	0.03788138	0.02111756	0.01062221	0.01118075	0.00371787	0.00779361	0.03418242	0.01142404	0.00798525	0.00611940	0.00269117	0.01293023	0.00904107	0.00851781	0.00718330	0.00744028	0.01124791	0.01544832	0.00760152	0.00244881	0.00016093
1.34000000	0.00384890	0.00325196	0.00398071	0.00556648	0.00463105	0.01648489	0.03680345	0.02096844	0.01047093	0.01101097	0.00354359	0.00771695	0.03385259	0.01136829	0.00787777	0.00588592	0.00273289	0.01287659	0.00910995	0.00862987	0.00716239	0.00755500	0.01118833	0.01550084	0.00712404	0.00255786	0.00037487
1.35000000	0.00390925	0.00333781	0.00403227	0.00577027	0.00476146	0.01626932	0.03566529	0.02049877	0.01022027	0.01079727	0.00336601	0.00766388	0.03363218	0.01124382	0.00782544	0.00565035	0.00276373	0.01282502	0.00920851	0.00874904	0.00712858	0.00764907	0.01115126	0.01557687	0.00662922	0.00265909	0.00061424
1.36000000	0.00417030	0.00342290	0.00407683	0.00588961	0.00485029	0.01560893	0.03454858	0.01941458	0.00990849	0.01050643	0.00333122	0.00757251	0.03348060	0.01121930	0.00786048	0.00553419	0.00279878	0.01275303	0.00932595	0.00887805	0.00707760	0.00769584	0.01112173	0.01563597	0.00615029	0.00283142	0.00085144
1.37000000	0.00490179	0.00351884	0.00408051	0.00582763	0.00484864	0.01466461	0.03308452	0.01805290	0.00955305	0.01032301	0.00350055	0.00755912	0.03340432	0.01125738	0.00799051	0.00538741	0.00283068	0.01281049	0.00938708	0.00892177	0.00696932	0.00768133	0.01114449	0.01583325	0.00564515	0.00284792	0.00100044
1.38000000	0.00527724	0.00343901	0.00392510	0.00576637	0.00475274	0.01383247	0.03152389	0.01635776	0.00907793	0.01009350	0.00358415	0.00759052	0.03344828	0.01118642	0.00811843	0.00525220	0.00290878	0.01275830	0.00953423	0.00905368	0.00695163	0.00764224	0.01125767	0.01596903	0.00512867	0.00299745	0.00120672
1.39000000	0.00556820	0.00340541	0.00378413	0.00572964	0.00467026	0.01336875	0.02979840	0.01445797	0.00857747	0.01000626	0.00378689	0.00771230	0.03359385	0.01106840	0.00827247	0.00516963	0.00288631	0.01269311	0.00975888	0.00916826	0.00681953	0.00751908	0.01130417	0.01610298	0.00474523	0.00305373	0.00133363
1.40000000	0.00616037	0.00331229	0.00360307	0.00557371	0.00451564	0.01328060	0.02784701	0.01264244	0.00804786	0.00992792	0.00413468	0.00780391	0.03375322	0.01104630	0.00853305	0.00507687	0.00300551	0.01272183	0.00995595	0.00923929	0.00670302	0.00735891	0.01152048	0.01631424	0.00433353	0.00310556	0.00147257
1.41000000	0.00661157	0.00316722	0.00337159	0.00542058	0.00432759	0.01354957	0.02582290	0.01109340	0.00756755	0.00988319	0.00453707	0.00799022	0.03398823	0.01098799	0.00877446	0.00500233	0.00313187	0.01278962	0.01010086	0.00928886	0.00659883	0.00710394	0.01180309	0.01657609	0.00396406	0.00319684	0.00158746
1.42000000	0.00652600	0.00295083	0.00306324	0.00531812	0.00410086	0.01421174	0.02399943	0.00978270	0.00708332	0.00979727	0.00467839	0.00824772	0.03428676	0.01084522	0.00900548	0.00502230	0.00332493	0.01285247	0.01031699	0.00934171	0.00644047	0.00675291	0.01205251	0.01685998	0.00368104	0.00325728	0.00172451
1.43000000	0.00640034	0.00280679	0.00278218	0.00518458	0.00384882	0.01479647	0.02241086	0.00872007	0.00663474	0.00963481	0.00466244	0.00862637	0.03458665	0.01076124	0.00927077	0.00502105	0.00342484	0.01300514	0.01050018	0.00934542	0.00623283	0.00629997	0.01236192	0.01723510	0.00353863	0.00325162	0.00173264
1.44000000	0.00638708	0.00269698	0.00261742	0.00499418	0.00359442	0.01530524	0.02117851	0.00788403	0.00615938	0.00919364	0.00450382	0.00892998	0.03498807	0.01058820	0.00952463	0.00501982	0.00361570	0.01326787	0.01058762	0.00929771	0.00601901	0.00575433	0.01271366	0.01770353	0.00337776	0.00331486	0.00179959
1.45000000	0.00656389	0.00283884	0.00273111	0.00493597	0.00353218	0.01518269	0.02012837	0.00747626	0.00593398	0.00871730	0.00455033	0.00934748	0.03532408	0.01062564	0.00995303	0.00535096	0.00397014	0.01350182	0.01070042	0.00930952	0.00577789	0.00523523	0.01303962	0.01813943	0.00331822	0.00344931	0.00184290
1.46000000	0.00676833	0.00321520	0.00282103	0.00471239	0.00333166	0.01507457	0.01957472	0.00758034	0.00567090	0.00817062	0.00422802	0.00993764	0.03579401	0.01056635	0.01024466	0.00555032	0.00428929	0.01395814	0.01073258	0.00921936	0.00547768	0.00463296	0.01338838	0.01879131	0.00324498	0.00356558	0.00192042
1.47000000	0.00772003	0.00395008	0.00335049	0.00473840	0.00356400	0.01473867	0.01941168	0.00822367	0.00535714	0.00739952	0.00409199	0.01056347	0.03630473	0.01050654	0.01061637	0.00593901	0.00460779	0.01434326	0.01071559	0.00917848	0.00518595	0.00400132	0.01368367	0.01934710	0.00337622	0.00377386	0.00189190
1.48000000	0.00807661	0.00473777	0.00346389	0.00449192	0.00340326	0.01413285	0.01940481	0.00918717	0.00531101	0.00702842	0.00377641	0.01125751	0.03689169	0.01043254	0.01105708	0.00651201	0.00489838	0.01486587	0.01072570	0.00912942	0.00492840	0.00351729	0.01405250	0.02006108	0.00333409	0.00382536	0.00194904
1.49000000	0.00909518	0.00587708	0.00394156	0.00460292	0.00371595	0.01356513	0.02025988	0.00986967	0.00475958	0.00621336	0.00341461	0.01211162	0.03730883	0.01061255	0.01144238	0.00665733	0.00597270	0.01532161	0.01072747	0.00912175	0.00457899	0.00302359	0.01413948	0.02064629	0.00356786	0.00438051	0.00192976
1.50000000	0.00976480	0.00724762	0.00394966	0.00442056	0.00357318	0.01261694	0.02039508	0.01138413	0.00535511	0.00669580	0.00338693	0.01293370	0.03814004	0.01033354	0.01192637	0.00767446	0.00582884	0.01570221	0.01078037	0.00914427	0.00442863	0.00285425	0.01440936	0.02123181	0.00354684	0.00425617	0.00197164
