TVC36_1_JMP_07_upper_limb_body_marker_personalization_task_1_finalErrors.sto
version=1
nRows=321
nColumns=28
inDegrees=no
endheader
time	R_Asis	L_Asis	R_Psis	L_Psis	Sacral	R_Thigh_Lateral	R_Knee_Lateral	R_Shank_Lateral	R_Ankle_Lateral	R_Heel	R_Toe	L_Thigh_Lateral	L_Knee_Lateral	L_Shank_Lateral	L_Ankle_Lateral	L_Heel	L_Toe	R_Shoulder	L_Shoulder	C7	J_Notch	Thoracic	Sternum	R_Elbow	L_Elbow	R_Wrist	L_Wrist
0.50000000	0.00507874	0.00534861	0.00245346	0.00107357	0.00148388	0.01271161	0.01118766	0.01150833	0.00183172	0.00453922	0.00144816	0.00624384	0.01064294	0.01321614	0.00615595	0.00387880	0.00319266	0.00754039	0.00279155	0.00642355	0.00248694	0.00703572	0.00718451	0.00064783	0.00286642	0.00016194	0.00100076
0.51000000	0.00504693	0.00654424	0.00228672	0.00093366	0.00140900	0.01240951	0.01001890	0.01244152	0.00149586	0.00457029	0.00092943	0.00663986	0.01037359	0.01315097	0.00610130	0.00380021	0.00341398	0.00745508	0.00280653	0.00681466	0.00239653	0.00657568	0.00722856	0.00114445	0.00294109	0.00008446	0.00092145
0.52000000	0.00503445	0.00783539	0.00215438	0.00081149	0.00135331	0.01202779	0.00886818	0.01318348	0.00124462	0.00434350	0.00075505	0.00679728	0.01015150	0.01310690	0.00611788	0.00372434	0.00351892	0.00736375	0.00292643	0.00721790	0.00222592	0.00611221	0.00710631	0.00167110	0.00289278	0.00034923	0.00090992
0.53000000	0.00436812	0.00883829	0.00191570	0.00142800	0.00134665	0.01124873	0.00793631	0.01296716	0.00110343	0.00367339	0.00098820	0.00662439	0.01064950	0.01343053	0.00623863	0.00389789	0.00353958	0.00717078	0.00333004	0.00767992	0.00200666	0.00579791	0.00687297	0.00210722	0.00268095	0.00028485	0.00080000
0.54000000	0.00452839	0.01004195	0.00180911	0.00156956	0.00136901	0.01084621	0.00689240	0.01253941	0.00126876	0.00292816	0.00117345	0.00646602	0.01062092	0.01345455	0.00626659	0.00396192	0.00354056	0.00705766	0.00379176	0.00797960	0.00190591	0.00539478	0.00671083	0.00254247	0.00268381	0.00041697	0.00073089
0.55000000	0.00514198	0.01103199	0.00176337	0.00126056	0.00127216	0.01043593	0.00587288	0.01217243	0.00154785	0.00230874	0.00154733	0.00637529	0.01053427	0.01316233	0.00618217	0.00401788	0.00344648	0.00699044	0.00443072	0.00813342	0.00184885	0.00511935	0.00650873	0.00297359	0.00276919	0.00045114	0.00067055
0.56000000	0.00520601	0.01154554	0.00164594	0.00147063	0.00119767	0.00965714	0.00526528	0.01094224	0.00183243	0.00144538	0.00165123	0.00629230	0.01069507	0.01322451	0.00625655	0.00410563	0.00352965	0.00690482	0.00493102	0.00838831	0.00185289	0.00487767	0.00641194	0.00329734	0.00277568	0.00030585	0.00055695
0.57000000	0.00532179	0.01177997	0.00166305	0.00142678	0.00115657	0.00906795	0.00461819	0.00969251	0.00217587	0.00116773	0.00173794	0.00613182	0.01060537	0.01316182	0.00622900	0.00421172	0.00355691	0.00685061	0.00547167	0.00847102	0.00188326	0.00469070	0.00631723	0.00361666	0.00284756	0.00013023	0.00055589
0.58000000	0.00533639	0.01147969	0.00170090	0.00122623	0.00106819	0.00866858	0.00407306	0.00844856	0.00240727	0.00139582	0.00174248	0.00625952	0.01055745	0.01291302	0.00623795	0.00421557	0.00343822	0.00684515	0.00589024	0.00845998	0.00195352	0.00451106	0.00625371	0.00393528	0.00292771	0.00016228	0.00041818
0.59000000	0.00501734	0.01078030	0.00182923	0.00101832	0.00106598	0.00835080	0.00348882	0.00739618	0.00260687	0.00178415	0.00181282	0.00624935	0.01027231	0.01275814	0.00617130	0.00422223	0.00333838	0.00685164	0.00613656	0.00839824	0.00203000	0.00429643	0.00623649	0.00424058	0.00295697	0.00043319	0.00054585
0.60000000	0.00507578	0.00945297	0.00203671	0.00061620	0.00118124	0.00839542	0.00282938	0.00677928	0.00258305	0.00202529	0.00180273	0.00620589	0.00994395	0.01238937	0.00600053	0.00422570	0.00337729	0.00679318	0.00641444	0.00826420	0.00200944	0.00418231	0.00607402	0.00453599	0.00300882	0.00078568	0.00049429
0.61000000	0.00381180	0.00816489	0.00204790	0.00089906	0.00120044	0.00823851	0.00216444	0.00596264	0.00256288	0.00211801	0.00173536	0.00646709	0.00969892	0.01216413	0.00593600	0.00410362	0.00314047	0.00676303	0.00626686	0.00813533	0.00204719	0.00390057	0.00607514	0.00472732	0.00303090	0.00112311	0.00049561
0.62000000	0.00355975	0.00630263	0.00230678	0.00084345	0.00142154	0.00845712	0.00179409	0.00567692	0.00239284	0.00202691	0.00163631	0.00651278	0.00906825	0.01180832	0.00571109	0.00397438	0.00318886	0.00673230	0.00612946	0.00800291	0.00198784	0.00388579	0.00589142	0.00499898	0.00290212	0.00117785	0.00067179
0.63000000	0.00247304	0.00481994	0.00229794	0.00111238	0.00143924	0.00847950	0.00143348	0.00522929	0.00239762	0.00196335	0.00153865	0.00682835	0.00859224	0.01144837	0.00552251	0.00378250	0.00303957	0.00660621	0.00564208	0.00794117	0.00201121	0.00399974	0.00575794	0.00506981	0.00284486	0.00138750	0.00057467
0.64000000	0.00263461	0.00280256	0.00232985	0.00108622	0.00151609	0.00837327	0.00140518	0.00536142	0.00237917	0.00175479	0.00167805	0.00674325	0.00790917	0.01131127	0.00518170	0.00356613	0.00318694	0.00625626	0.00545567	0.00798187	0.00189280	0.00448291	0.00529894	0.00499945	0.00278013	0.00228159	0.00075248
0.65000000	0.00218697	0.00200362	0.00227870	0.00136509	0.00156340	0.00830310	0.00168891	0.00512594	0.00233939	0.00174152	0.00154655	0.00679896	0.00752733	0.01067141	0.00512412	0.00320753	0.00295284	0.00633046	0.00490482	0.00769129	0.00176594	0.00502939	0.00513725	0.00528969	0.00263602	0.00146713	0.00086957
0.66000000	0.00218803	0.00124417	0.00209231	0.00145414	0.00147545	0.00808415	0.00208068	0.00489994	0.00225707	0.00174130	0.00146436	0.00690358	0.00709408	0.01020898	0.00491458	0.00296971	0.00281175	0.00608130	0.00446497	0.00766218	0.00166964	0.00565895	0.00480614	0.00522369	0.00254451	0.00155647	0.00084264
0.67000000	0.00243970	0.00098333	0.00188514	0.00148954	0.00135931	0.00783479	0.00227807	0.00449692	0.00218502	0.00190405	0.00133948	0.00685270	0.00670227	0.00978960	0.00467128	0.00266197	0.00262215	0.00590347	0.00402455	0.00761330	0.00159849	0.00620194	0.00451214	0.00514865	0.00252221	0.00167786	0.00076600
0.68000000	0.00257063	0.00167004	0.00153217	0.00114955	0.00111794	0.00748608	0.00267084	0.00427145	0.00204943	0.00209329	0.00158549	0.00658979	0.00534695	0.00974486	0.00432851	0.00296831	0.00242347	0.00581003	0.00374432	0.00754731	0.00165112	0.00661185	0.00434815	0.00499520	0.00251827	0.00248461	0.00103785
0.69000000	0.00263382	0.00139374	0.00137119	0.00147797	0.00110553	0.00717745	0.00287782	0.00356689	0.00197022	0.00196394	0.00104994	0.00650850	0.00608646	0.00870348	0.00443136	0.00207985	0.00238994	0.00555704	0.00347318	0.00750559	0.00136313	0.00697440	0.00401262	0.00508847	0.00247979	0.00154092	0.00098266
0.70000000	0.00261759	0.00184400	0.00125844	0.00146554	0.00104085	0.00680819	0.00296142	0.00302028	0.00188362	0.00202354	0.00095349	0.00616190	0.00589802	0.00818665	0.00428266	0.00182082	0.00221616	0.00538431	0.00329725	0.00750175	0.00128841	0.00711941	0.00383074	0.00497772	0.00247349	0.00159863	0.00098206
0.71000000	0.00258392	0.00219643	0.00110077	0.00143094	0.00096943	0.00648969	0.00315369	0.00251404	0.00187281	0.00207895	0.00083808	0.00575531	0.00558414	0.00762938	0.00418659	0.00166059	0.00209262	0.00519102	0.00322189	0.00747312	0.00123006	0.00715173	0.00373549	0.00486133	0.00247363	0.00154569	0.00106758
0.72000000	0.00248395	0.00272698	0.00105485	0.00132765	0.00087379	0.00613773	0.00329043	0.00205497	0.00185717	0.00217202	0.00072697	0.00530086	0.00533082	0.00709509	0.00408399	0.00143560	0.00172520	0.00507164	0.00317588	0.00739953	0.00118279	0.00705852	0.00369035	0.00473422	0.00251164	0.00161321	0.00103531
0.73000000	0.00240781	0.00304792	0.00103121	0.00127042	0.00083646	0.00592209	0.00345230	0.00161466	0.00196985	0.00227153	0.00065110	0.00479434	0.00503100	0.00643460	0.00401772	0.00139727	0.00159605	0.00489117	0.00319296	0.00733133	0.00114995	0.00692299	0.00369705	0.00459060	0.00251515	0.00149277	0.00104010
0.74000000	0.00270820	0.00313691	0.00103500	0.00103942	0.00080072	0.00579928	0.00405650	0.00136277	0.00215527	0.00218264	0.00096360	0.00434881	0.00403098	0.00608857	0.00379799	0.00213344	0.00125855	0.00468182	0.00349078	0.00718215	0.00088810	0.00671093	0.00349569	0.00458711	0.00255081	0.00151848	0.00104400
0.75000000	0.00212837	0.00371949	0.00115366	0.00109930	0.00076248	0.00550864	0.00383247	0.00127441	0.00214931	0.00252745	0.00055585	0.00364247	0.00441516	0.00516771	0.00384760	0.00134053	0.00098243	0.00456104	0.00319178	0.00710599	0.00108692	0.00647379	0.00371764	0.00425580	0.00252860	0.00137967	0.00104141
0.76000000	0.00165903	0.00422948	0.00134490	0.00107472	0.00073861	0.00526979	0.00373782	0.00144730	0.00215196	0.00264100	0.00065068	0.00317608	0.00425699	0.00464263	0.00354662	0.00086461	0.00059038	0.00446119	0.00318257	0.00688759	0.00111518	0.00626832	0.00382265	0.00398132	0.00239503	0.00128887	0.00105432
0.77000000	0.00180111	0.00411063	0.00133992	0.00087575	0.00074845	0.00513438	0.00445208	0.00149834	0.00225675	0.00257043	0.00091841	0.00272296	0.00354539	0.00413453	0.00356511	0.00157517	0.00093906	0.00433055	0.00335903	0.00660810	0.00094761	0.00600919	0.00370598	0.00391052	0.00239317	0.00131843	0.00103888
0.78000000	0.00121949	0.00426654	0.00137614	0.00099009	0.00076796	0.00491581	0.00445191	0.00188702	0.00229046	0.00282307	0.00052710	0.00242880	0.00362657	0.00338910	0.00367792	0.00123322	0.00026812	0.00419400	0.00314046	0.00639362	0.00116876	0.00577746	0.00392288	0.00350421	0.00231563	0.00116691	0.00099107
0.79000000	0.00079087	0.00441310	0.00147621	0.00101743	0.00081837	0.00465691	0.00453797	0.00217326	0.00226919	0.00287491	0.00052380	0.00243453	0.00348846	0.00301394	0.00359781	0.00121837	0.00045443	0.00409712	0.00304396	0.00613557	0.00116244	0.00556967	0.00393621	0.00332326	0.00217161	0.00106331	0.00108512
0.80000000	0.00105259	0.00429498	0.00154883	0.00085593	0.00092173	0.00442026	0.00512208	0.00224253	0.00231066	0.00271625	0.00110889	0.00283895	0.00305978	0.00291800	0.00369786	0.00158486	0.00173054	0.00411961	0.00299100	0.00584723	0.00109545	0.00529612	0.00385890	0.00323516	0.00203387	0.00109608	0.00113896
0.81000000	0.00089361	0.00457127	0.00170461	0.00091713	0.00088850	0.00417936	0.00437523	0.00269521	0.00213832	0.00296431	0.00086643	0.00245916	0.00321295	0.00313430	0.00343978	0.00138042	0.00092488	0.00400387	0.00284767	0.00570876	0.00109758	0.00521772	0.00390646	0.00306036	0.00181918	0.00098507	0.00098032
0.82000000	0.00114219	0.00437591	0.00169821	0.00097620	0.00099928	0.00397705	0.00487642	0.00279361	0.00211547	0.00282051	0.00072698	0.00300055	0.00314262	0.00299997	0.00361929	0.00143825	0.00103949	0.00394580	0.00271715	0.00544576	0.00109130	0.00496466	0.00390106	0.00295743	0.00164883	0.00089408	0.00100555
0.83000000	0.00132505	0.00409379	0.00166762	0.00088709	0.00104682	0.00389112	0.00525320	0.00278931	0.00213615	0.00273765	0.00128907	0.00338762	0.00293248	0.00316336	0.00379942	0.00152092	0.00178415	0.00395927	0.00253668	0.00521210	0.00110359	0.00466912	0.00394217	0.00291508	0.00173159	0.00097791	0.00075533
0.84000000	0.00144177	0.00387451	0.00170193	0.00097542	0.00117388	0.00385220	0.00554984	0.00285543	0.00211679	0.00267152	0.00167665	0.00356347	0.00284927	0.00334959	0.00394587	0.00171842	0.00249530	0.00400472	0.00223409	0.00496637	0.00115551	0.00429969	0.00407894	0.00275956	0.00161159	0.00123046	0.00098186
0.85000000	0.00150947	0.00404525	0.00175396	0.00121358	0.00126458	0.00370411	0.00541739	0.00337145	0.00200594	0.00281795	0.00059725	0.00368796	0.00293342	0.00302699	0.00380814	0.00149495	0.00133339	0.00385418	0.00230492	0.00470109	0.00109077	0.00397928	0.00408645	0.00258608	0.00110429	0.00084611	0.00101931
0.86000000	0.00140581	0.00382735	0.00176110	0.00122822	0.00131806	0.00396108	0.00550690	0.00354284	0.00207264	0.00268745	0.00110016	0.00347316	0.00275449	0.00321308	0.00382412	0.00143491	0.00172510	0.00382876	0.00209327	0.00456595	0.00114111	0.00342038	0.00418122	0.00244187	0.00124659	0.00100441	0.00073103
0.87000000	0.00123911	0.00386704	0.00179518	0.00123098	0.00131303	0.00402805	0.00520065	0.00403697	0.00194785	0.00279883	0.00067249	0.00310337	0.00260389	0.00319017	0.00382558	0.00140400	0.00127911	0.00375354	0.00226891	0.00442856	0.00105052	0.00296052	0.00414000	0.00244051	0.00089625	0.00078429	0.00088653
0.88000000	0.00087850	0.00360510	0.00182532	0.00128107	0.00139347	0.00441751	0.00531870	0.00417727	0.00198684	0.00270811	0.00122061	0.00271693	0.00242076	0.00325538	0.00387324	0.00131755	0.00153175	0.00374177	0.00204013	0.00432605	0.00113726	0.00221383	0.00428447	0.00226681	0.00120398	0.00098856	0.00068822
0.89000000	0.00083662	0.00347118	0.00182657	0.00128275	0.00141442	0.00479870	0.00542010	0.00442130	0.00203356	0.00259530	0.00157036	0.00241142	0.00229518	0.00319108	0.00390276	0.00116478	0.00150871	0.00374455	0.00195556	0.00422150	0.00115506	0.00145374	0.00434406	0.00217744	0.00156072	0.00115576	0.00061499
0.90000000	0.00063703	0.00359151	0.00182330	0.00119138	0.00133696	0.00475489	0.00527002	0.00507627	0.00191148	0.00279563	0.00086840	0.00232384	0.00225601	0.00280055	0.00380923	0.00126587	0.00108381	0.00370540	0.00231900	0.00399089	0.00101799	0.00103560	0.00423163	0.00208856	0.00073630	0.00076051	0.00078040
0.91000000	0.00117365	0.00344095	0.00191288	0.00127360	0.00145322	0.00516769	0.00539731	0.00512870	0.00189108	0.00271910	0.00134304	0.00188524	0.00210583	0.00268909	0.00386095	0.00124917	0.00115023	0.00367137	0.00220089	0.00398377	0.00109364	0.00129606	0.00429336	0.00193691	0.00123639	0.00100922	0.00047463
0.92000000	0.00159697	0.00341906	0.00194533	0.00122039	0.00145366	0.00532855	0.00551089	0.00533294	0.00188279	0.00267947	0.00151343	0.00169495	0.00203153	0.00244712	0.00392500	0.00113259	0.00097891	0.00368390	0.00227310	0.00385051	0.00111344	0.00186775	0.00431738	0.00193034	0.00137777	0.00102063	0.00060458
0.93000000	0.00142678	0.00335120	0.00188010	0.00114714	0.00135207	0.00547445	0.00532864	0.00583971	0.00184541	0.00282378	0.00073225	0.00145521	0.00182121	0.00224416	0.00398323	0.00130525	0.00100191	0.00351305	0.00270373	0.00368889	0.00112671	0.00225407	0.00416144	0.00184700	0.00068288	0.00057991	0.00064010
0.94000000	0.00180225	0.00346051	0.00199898	0.00106060	0.00139694	0.00543362	0.00551393	0.00597771	0.00185625	0.00266225	0.00118805	0.00143222	0.00199732	0.00196437	0.00400346	0.00115541	0.00061653	0.00360090	0.00270515	0.00361514	0.00105225	0.00277700	0.00410379	0.00192163	0.00124334	0.00080263	0.00039755
0.95000000	0.00207015	0.00368539	0.00216223	0.00111552	0.00150218	0.00529847	0.00577239	0.00603752	0.00178126	0.00258070	0.00160488	0.00138297	0.00247661	0.00172655	0.00396382	0.00116355	0.00047098	0.00373064	0.00263006	0.00358955	0.00099744	0.00316045	0.00408315	0.00197549	0.00149672	0.00111416	0.00045014
0.96000000	0.00123957	0.00347266	0.00197725	0.00104251	0.00135570	0.00544391	0.00550340	0.00640711	0.00183194	0.00291361	0.00077551	0.00141538	0.00177397	0.00176213	0.00418626	0.00136310	0.00070585	0.00341506	0.00300313	0.00350978	0.00113277	0.00295263	0.00391072	0.00166136	0.00084399	0.00036640	0.00031211
0.97000000	0.00136215	0.00376172	0.00210177	0.00101045	0.00141379	0.00519723	0.00580431	0.00644087	0.00173602	0.00272678	0.00115938	0.00144821	0.00261927	0.00155759	0.00410565	0.00128443	0.00041219	0.00350110	0.00307885	0.00346069	0.00098427	0.00286639	0.00382865	0.00177814	0.00121158	0.00071527	0.00027030
0.98000000	0.00069957	0.00385927	0.00199723	0.00104663	0.00138444	0.00512327	0.00549622	0.00670915	0.00174002	0.00293988	0.00100636	0.00146927	0.00199033	0.00200946	0.00433395	0.00143271	0.00050182	0.00327015	0.00333243	0.00344141	0.00113403	0.00239414	0.00366553	0.00167952	0.00100045	0.00033512	0.00020120
0.99000000	0.00045200	0.00404370	0.00190285	0.00108842	0.00137561	0.00504811	0.00569636	0.00669284	0.00171650	0.00289497	0.00095710	0.00157549	0.00215805	0.00220508	0.00442768	0.00150457	0.00046989	0.00325813	0.00338223	0.00335436	0.00112961	0.00198818	0.00362737	0.00171963	0.00102231	0.00033502	0.00018254
1.00000000	0.00024723	0.00422265	0.00174795	0.00115276	0.00135749	0.00504072	0.00584904	0.00663851	0.00169304	0.00285188	0.00094739	0.00167241	0.00237279	0.00245668	0.00454501	0.00157000	0.00041538	0.00323838	0.00338305	0.00329736	0.00113634	0.00166134	0.00361118	0.00178335	0.00101036	0.00035627	0.00014492
1.01000000	0.00011423	0.00445096	0.00156174	0.00123396	0.00133126	0.00499422	0.00582371	0.00665444	0.00166997	0.00286044	0.00094822	0.00172145	0.00261272	0.00273943	0.00466678	0.00165749	0.00038128	0.00317993	0.00341453	0.00327004	0.00114066	0.00156439	0.00355896	0.00186741	0.00100417	0.00040651	0.00009236
1.02000000	0.00014260	0.00475172	0.00135182	0.00129684	0.00126859	0.00498883	0.00573883	0.00668181	0.00163578	0.00285651	0.00094213	0.00171875	0.00287753	0.00302044	0.00476584	0.00170372	0.00031884	0.00313771	0.00342334	0.00318120	0.00112619	0.00175238	0.00352336	0.00193461	0.00095991	0.00048871	0.00005289
1.03000000	0.00066308	0.00484449	0.00153027	0.00152437	0.00148044	0.00487465	0.00602844	0.00651593	0.00157075	0.00270150	0.00108484	0.00153462	0.00365538	0.00309348	0.00485596	0.00163528	0.00056152	0.00311904	0.00343992	0.00309569	0.00116880	0.00200969	0.00351208	0.00221143	0.00089125	0.00089544	0.00033178
1.04000000	0.00054181	0.00509404	0.00127583	0.00145950	0.00126217	0.00500123	0.00575560	0.00665917	0.00157237	0.00275659	0.00086776	0.00165869	0.00347956	0.00338034	0.00501599	0.00181124	0.00032496	0.00305903	0.00337634	0.00286679	0.00115019	0.00240838	0.00359471	0.00209946	0.00069505	0.00073512	0.00008992
1.05000000	0.00110621	0.00525268	0.00158585	0.00165779	0.00150986	0.00496869	0.00596600	0.00654837	0.00147762	0.00253431	0.00094388	0.00147059	0.00411462	0.00334202	0.00505237	0.00166486	0.00052781	0.00303412	0.00343231	0.00259212	0.00112353	0.00261208	0.00357772	0.00231711	0.00061277	0.00106656	0.00021818
1.06000000	0.00115629	0.00556089	0.00141888	0.00144681	0.00128289	0.00509975	0.00521476	0.00691443	0.00141001	0.00261494	0.00101520	0.00166125	0.00383345	0.00345787	0.00518711	0.00175471	0.00031654	0.00289778	0.00336973	0.00240926	0.00121946	0.00282091	0.00366675	0.00211242	0.00034466	0.00083591	0.00005753
1.07000000	0.00172860	0.00569470	0.00169420	0.00170849	0.00162579	0.00505791	0.00554642	0.00678948	0.00126534	0.00226995	0.00100500	0.00165700	0.00430159	0.00329584	0.00513793	0.00153774	0.00057908	0.00284152	0.00336246	0.00209167	0.00120680	0.00281254	0.00374926	0.00213690	0.00018272	0.00109923	0.00037206
1.08000000	0.00188507	0.00577795	0.00151282	0.00155141	0.00149129	0.00525858	0.00491557	0.00708005	0.00128363	0.00241664	0.00105825	0.00189906	0.00404279	0.00321483	0.00528753	0.00163457	0.00033569	0.00272409	0.00337412	0.00186264	0.00132562	0.00277062	0.00375737	0.00203702	0.00016880	0.00095259	0.00003545
1.09000000	0.00240549	0.00588834	0.00160026	0.00199989	0.00174898	0.00523709	0.00524831	0.00691763	0.00111446	0.00208695	0.00105595	0.00210594	0.00422060	0.00305075	0.00521767	0.00145265	0.00051469	0.00263436	0.00341087	0.00151082	0.00133383	0.00266359	0.00385203	0.00197218	0.00043268	0.00107740	0.00035302
1.10000000	0.00256994	0.00585715	0.00155134	0.00243951	0.00186504	0.00525016	0.00452673	0.00730993	0.00118460	0.00231622	0.00104815	0.00229766	0.00416284	0.00269348	0.00534006	0.00155932	0.00045790	0.00250380	0.00345152	0.00136125	0.00140085	0.00246848	0.00379318	0.00181452	0.00062682	0.00085394	0.00003216
1.11000000	0.00284061	0.00599913	0.00161295	0.00308878	0.00205431	0.00517247	0.00476455	0.00722697	0.00102524	0.00205890	0.00101926	0.00261155	0.00417317	0.00257237	0.00526147	0.00144465	0.00063513	0.00238088	0.00359417	0.00113292	0.00140687	0.00219688	0.00372321	0.00173695	0.00085523	0.00089428	0.00011331
1.12000000	0.00295105	0.00561338	0.00165171	0.00375073	0.00219086	0.00539824	0.00414121	0.00736702	0.00102542	0.00207748	0.00107130	0.00285169	0.00444758	0.00226686	0.00526528	0.00157521	0.00049152	0.00230589	0.00364828	0.00103380	0.00144770	0.00202439	0.00375221	0.00158304	0.00106774	0.00065791	0.00016638
1.13000000	0.00316379	0.00579603	0.00180330	0.00430175	0.00231487	0.00538142	0.00453021	0.00709203	0.00088205	0.00176326	0.00114845	0.00322409	0.00425408	0.00224768	0.00525938	0.00172153	0.00097471	0.00212009	0.00378385	0.00085728	0.00146026	0.00178483	0.00369348	0.00141004	0.00135872	0.00057192	0.00038199
1.14000000	0.00323596	0.00598764	0.00196228	0.00480977	0.00247209	0.00512027	0.00468186	0.00701933	0.00076187	0.00163929	0.00114902	0.00353523	0.00426680	0.00209487	0.00524511	0.00184774	0.00133124	0.00195668	0.00390220	0.00082623	0.00144480	0.00147300	0.00352297	0.00134235	0.00158391	0.00044993	0.00036461
1.15000000	0.00316957	0.00606157	0.00214190	0.00541577	0.00282148	0.00466224	0.00440587	0.00723107	0.00071157	0.00180744	0.00090870	0.00360676	0.00449960	0.00165428	0.00520392	0.00185876	0.00129532	0.00179814	0.00395075	0.00089296	0.00134961	0.00114308	0.00328228	0.00112972	0.00150148	0.00040638	0.00031995
1.16000000	0.00315772	0.00565997	0.00215773	0.00570760	0.00291125	0.00468398	0.00399619	0.00719780	0.00075052	0.00185142	0.00085314	0.00370196	0.00470445	0.00120920	0.00532479	0.00218802	0.00125999	0.00165344	0.00391856	0.00099431	0.00139420	0.00109333	0.00335053	0.00079958	0.00158600	0.00020664	0.00018374
1.17000000	0.00310656	0.00568370	0.00222286	0.00588059	0.00300908	0.00445585	0.00413953	0.00696939	0.00070279	0.00165763	0.00096647	0.00403056	0.00467074	0.00130875	0.00537615	0.00236986	0.00148110	0.00150559	0.00404386	0.00112281	0.00132498	0.00115025	0.00318666	0.00067767	0.00174683	0.00032365	0.00031992
1.18000000	0.00313490	0.00562306	0.00233018	0.00591036	0.00302651	0.00423295	0.00426389	0.00662620	0.00064044	0.00147828	0.00140955	0.00426685	0.00471831	0.00125864	0.00546629	0.00272395	0.00199736	0.00137499	0.00413058	0.00129428	0.00133400	0.00137277	0.00311651	0.00067402	0.00203816	0.00030746	0.00032007
1.19000000	0.00326819	0.00443231	0.00219156	0.00590997	0.00300253	0.00458637	0.00306105	0.00660043	0.00086384	0.00161481	0.00085138	0.00404340	0.00552161	0.00162317	0.00547510	0.00266659	0.00136899	0.00135602	0.00391638	0.00141147	0.00137255	0.00148015	0.00335289	0.00035391	0.00194581	0.00022130	0.00021883
1.20000000	0.00324039	0.00444733	0.00220332	0.00597137	0.00310145	0.00418913	0.00299253	0.00639364	0.00087320	0.00153827	0.00085463	0.00422180	0.00558651	0.00164535	0.00557744	0.00267743	0.00155613	0.00121595	0.00402252	0.00165618	0.00129338	0.00180964	0.00329372	0.00015969	0.00201964	0.00033802	0.00020065
1.21000000	0.00325842	0.00441763	0.00231086	0.00599706	0.00318733	0.00388697	0.00305270	0.00600159	0.00096895	0.00120177	0.00156108	0.00443241	0.00565573	0.00169870	0.00576705	0.00268760	0.00185647	0.00108212	0.00418842	0.00191463	0.00122993	0.00215151	0.00321794	0.00024140	0.00218624	0.00077444	0.00028336
1.22000000	0.00324812	0.00436089	0.00232407	0.00603342	0.00329354	0.00354755	0.00294209	0.00575668	0.00107904	0.00104839	0.00197931	0.00468086	0.00583420	0.00168844	0.00591282	0.00254030	0.00202477	0.00102158	0.00432739	0.00218075	0.00113768	0.00250895	0.00317915	0.00043137	0.00237108	0.00114410	0.00034225
1.23000000	0.00341884	0.00399355	0.00196892	0.00588376	0.00321103	0.00345748	0.00256388	0.00579601	0.00104668	0.00104821	0.00091324	0.00465520	0.00579438	0.00193780	0.00602711	0.00247667	0.00182560	0.00072803	0.00432816	0.00259837	0.00130912	0.00295765	0.00348708	0.00059503	0.00225813	0.00053750	0.00022115
1.24000000	0.00340614	0.00386175	0.00203237	0.00585072	0.00333581	0.00317686	0.00235050	0.00556392	0.00123608	0.00070448	0.00156501	0.00487624	0.00611796	0.00197442	0.00617064	0.00214925	0.00198154	0.00074096	0.00445182	0.00281525	0.00121669	0.00329283	0.00340203	0.00060205	0.00232064	0.00102269	0.00023716
1.25000000	0.00335892	0.00357304	0.00189813	0.00569038	0.00335226	0.00305523	0.00212572	0.00545498	0.00142110	0.00056339	0.00169383	0.00510357	0.00630236	0.00212583	0.00628011	0.00185778	0.00196954	0.00090322	0.00457238	0.00313334	0.00108005	0.00367582	0.00346096	0.00090267	0.00239051	0.00118711	0.00026004
1.26000000	0.00354170	0.00319036	0.00170230	0.00537331	0.00324942	0.00302114	0.00191297	0.00549311	0.00148860	0.00053430	0.00104165	0.00508279	0.00604934	0.00238399	0.00633312	0.00197125	0.00177650	0.00100944	0.00450041	0.00354894	0.00123620	0.00414400	0.00378000	0.00123067	0.00234349	0.00071459	0.00041738
1.27000000	0.00349343	0.00289154	0.00180092	0.00517277	0.00331965	0.00296125	0.00158345	0.00539199	0.00165262	0.00040544	0.00156092	0.00518853	0.00647571	0.00266355	0.00630168	0.00139819	0.00183226	0.00105533	0.00459773	0.00378113	0.00117843	0.00449052	0.00378177	0.00121834	0.00232809	0.00141616	0.00026095
1.28000000	0.00363335	0.00262784	0.00176282	0.00481578	0.00318892	0.00314771	0.00142088	0.00529026	0.00181426	0.00051056	0.00121549	0.00508179	0.00594769	0.00274498	0.00625876	0.00182826	0.00173845	0.00131381	0.00452255	0.00424827	0.00137777	0.00501273	0.00416108	0.00150036	0.00223379	0.00061936	0.00018830
1.29000000	0.00365788	0.00242163	0.00186483	0.00460269	0.00316267	0.00330955	0.00115026	0.00515344	0.00199512	0.00051986	0.00126651	0.00506682	0.00581932	0.00288702	0.00618530	0.00179774	0.00175900	0.00166913	0.00445233	0.00458560	0.00136044	0.00541765	0.00439635	0.00167250	0.00214596	0.00056590	0.00020920
1.30000000	0.00376066	0.00235455	0.00207266	0.00457035	0.00324013	0.00357939	0.00047023	0.00493155	0.00220326	0.00064571	0.00138062	0.00502085	0.00554820	0.00280596	0.00611702	0.00142583	0.00161458	0.00191430	0.00433741	0.00488841	0.00145555	0.00581099	0.00469844	0.00181788	0.00208098	0.00040093	0.00024000
1.31000000	0.00387773	0.00232400	0.00210859	0.00444371	0.00316931	0.00379980	0.00040216	0.00484070	0.00241607	0.00090082	0.00096208	0.00503776	0.00524366	0.00268795	0.00604433	0.00124126	0.00163673	0.00221261	0.00424362	0.00522829	0.00153475	0.00617490	0.00504920	0.00182338	0.00199915	0.00049141	0.00006171
1.32000000	0.00381499	0.00211671	0.00214698	0.00462628	0.00327709	0.00384653	0.00047240	0.00470072	0.00250900	0.00095905	0.00148245	0.00518898	0.00583657	0.00299352	0.00584741	0.00090581	0.00151904	0.00220324	0.00422851	0.00542363	0.00169580	0.00640480	0.00541465	0.00146143	0.00194998	0.00131629	0.00045837
1.33000000	0.00396134	0.00233284	0.00203846	0.00441874	0.00306294	0.00395592	0.00037651	0.00468220	0.00253229	0.00104805	0.00096467	0.00483213	0.00506376	0.00302190	0.00593137	0.00136497	0.00155337	0.00263625	0.00408293	0.00591435	0.00183434	0.00681868	0.00587317	0.00198099	0.00181214	0.00045461	0.00008861
1.34000000	0.00388051	0.00232035	0.00208157	0.00467755	0.00324375	0.00402085	0.00039159	0.00461905	0.00252521	0.00128133	0.00094544	0.00482675	0.00530198	0.00329945	0.00583172	0.00108561	0.00151533	0.00273527	0.00397989	0.00617441	0.00199239	0.00700749	0.00631510	0.00177253	0.00172347	0.00105971	0.00027970
1.35000000	0.00409633	0.00252188	0.00185492	0.00437639	0.00295280	0.00409272	0.00031648	0.00453061	0.00259896	0.00114179	0.00091129	0.00458986	0.00507094	0.00317204	0.00591266	0.00145840	0.00147284	0.00306488	0.00384815	0.00655590	0.00219174	0.00727345	0.00672751	0.00206025	0.00165118	0.00040257	0.00010455
1.36000000	0.00401322	0.00259631	0.00197289	0.00455413	0.00314138	0.00419438	0.00029652	0.00441865	0.00255602	0.00144672	0.00079655	0.00456197	0.00515516	0.00335687	0.00599729	0.00143015	0.00144582	0.00318211	0.00371351	0.00682773	0.00234591	0.00741320	0.00715105	0.00190345	0.00152574	0.00101611	0.00026700
1.37000000	0.00421229	0.00283396	0.00169543	0.00416255	0.00277805	0.00421548	0.00042656	0.00435904	0.00258918	0.00125798	0.00085515	0.00434023	0.00528952	0.00330969	0.00605760	0.00160906	0.00134697	0.00345754	0.00361809	0.00711787	0.00252740	0.00760991	0.00745336	0.00215481	0.00144938	0.00034003	0.00006336
1.38000000	0.00426706	0.00317142	0.00167907	0.00404503	0.00269741	0.00425743	0.00055933	0.00430655	0.00262282	0.00133398	0.00078203	0.00419619	0.00546250	0.00329776	0.00614032	0.00184526	0.00140055	0.00364588	0.00348074	0.00734942	0.00263528	0.00775369	0.00772199	0.00214353	0.00130416	0.00040169	0.00013015
1.39000000	0.00421716	0.00342935	0.00182891	0.00402609	0.00277219	0.00440025	0.00036384	0.00422103	0.00257853	0.00173830	0.00056412	0.00419608	0.00525426	0.00335604	0.00637163	0.00236371	0.00161482	0.00372980	0.00333993	0.00759341	0.00273037	0.00800608	0.00807719	0.00201098	0.00118356	0.00102074	0.00028655
1.40000000	0.00438671	0.00372431	0.00170749	0.00369974	0.00247565	0.00440747	0.00077794	0.00420867	0.00261246	0.00153560	0.00074759	0.00392966	0.00570303	0.00348964	0.00633390	0.00239448	0.00145226	0.00390559	0.00323439	0.00773728	0.00282202	0.00827666	0.00818026	0.00220351	0.00098292	0.00026149	0.00017462
1.41000000	0.00451179	0.00404415	0.00167268	0.00341045	0.00222076	0.00437413	0.00102918	0.00426348	0.00258686	0.00178382	0.00071835	0.00363533	0.00582309	0.00360123	0.00644514	0.00273624	0.00146534	0.00419686	0.00318062	0.00795992	0.00277065	0.00862125	0.00819264	0.00222602	0.00089438	0.00042907	0.00025487
1.42000000	0.00448052	0.00404154	0.00162194	0.00330811	0.00216414	0.00461567	0.00101654	0.00419028	0.00258439	0.00175717	0.00060311	0.00383288	0.00588503	0.00360248	0.00658953	0.00300984	0.00156481	0.00422222	0.00301796	0.00808417	0.00283350	0.00918491	0.00839256	0.00210623	0.00070916	0.00038215	0.00018749
1.43000000	0.00459804	0.00400351	0.00168515	0.00316985	0.00213237	0.00480207	0.00103776	0.00414276	0.00261631	0.00188701	0.00049455	0.00409608	0.00575792	0.00364699	0.00667727	0.00324049	0.00167642	0.00436771	0.00282005	0.00822136	0.00286669	0.00983780	0.00850308	0.00218653	0.00055417	0.00054230	0.00035967
1.44000000	0.00474670	0.00408829	0.00171858	0.00292970	0.00193881	0.00489335	0.00124486	0.00412893	0.00263198	0.00188120	0.00063245	0.00374761	0.00589893	0.00395374	0.00661608	0.00337154	0.00169779	0.00434387	0.00272034	0.00831274	0.00287638	0.01055664	0.00855589	0.00211411	0.00034108	0.00019154	0.00025156
1.45000000	0.00486688	0.00389180	0.00176090	0.00283732	0.00193789	0.00511547	0.00129513	0.00408300	0.00264976	0.00193542	0.00054320	0.00402707	0.00577846	0.00393017	0.00665619	0.00346277	0.00177029	0.00449392	0.00254527	0.00843482	0.00290549	0.01129759	0.00861395	0.00206051	0.00038758	0.00019549	0.00025189
1.46000000	0.00491273	0.00374007	0.00175470	0.00268448	0.00188526	0.00534874	0.00131696	0.00406314	0.00252793	0.00214989	0.00032343	0.00417426	0.00501547	0.00416451	0.00673844	0.00383018	0.00197669	0.00456602	0.00237020	0.00863869	0.00293357	0.01207766	0.00879404	0.00201616	0.00042717	0.00078516	0.00048956
1.47000000	0.00508949	0.00373752	0.00199193	0.00259292	0.00185204	0.00531855	0.00144744	0.00404182	0.00261882	0.00193238	0.00054329	0.00364026	0.00579481	0.00433502	0.00651726	0.00335371	0.00173350	0.00459651	0.00233555	0.00863007	0.00298116	0.01249901	0.00866832	0.00183941	0.00066389	0.00008855	0.00035698
1.48000000	0.00515729	0.00337373	0.00206192	0.00257072	0.00195728	0.00557165	0.00141980	0.00398133	0.00259471	0.00206762	0.00027547	0.00394398	0.00503686	0.00448930	0.00650975	0.00345583	0.00188804	0.00475951	0.00221452	0.00878272	0.00308176	0.01288330	0.00880672	0.00177039	0.00094693	0.00051097	0.00048721
1.49000000	0.00524177	0.00298638	0.00221895	0.00265476	0.00215230	0.00583437	0.00133140	0.00385604	0.00260575	0.00199990	0.00023735	0.00434785	0.00471683	0.00455437	0.00634528	0.00319684	0.00191946	0.00471316	0.00206854	0.00882355	0.00326262	0.01303776	0.00894100	0.00183476	0.00134699	0.00046011	0.00076027
1.50000000	0.00529368	0.00306159	0.00247110	0.00264455	0.00226754	0.00603065	0.00122709	0.00372885	0.00255779	0.00185858	0.00043507	0.00391308	0.00474119	0.00501093	0.00606042	0.00269715	0.00189671	0.00443445	0.00198763	0.00881210	0.00338596	0.01294006	0.00905331	0.00141887	0.00163480	0.00034763	0.00041437
1.51000000	0.00525389	0.00299165	0.00258177	0.00267216	0.00235823	0.00620503	0.00116037	0.00364599	0.00254051	0.00173585	0.00038076	0.00398595	0.00461165	0.00506988	0.00595858	0.00236977	0.00182901	0.00438699	0.00198923	0.00887266	0.00350966	0.01264569	0.00910996	0.00120030	0.00188467	0.00036247	0.00043086
1.52000000	0.00524208	0.00276573	0.00260538	0.00273007	0.00245390	0.00643127	0.00110546	0.00354390	0.00249935	0.00183544	0.00022487	0.00430633	0.00389542	0.00517380	0.00594032	0.00227203	0.00188307	0.00447809	0.00213502	0.00889105	0.00372407	0.01224118	0.00921285	0.00109153	0.00219981	0.00035045	0.00057609
1.53000000	0.00525167	0.00258776	0.00268322	0.00285227	0.00259600	0.00666477	0.00101468	0.00337223	0.00249347	0.00170900	0.00030241	0.00457667	0.00341380	0.00531652	0.00586847	0.00208771	0.00194375	0.00437627	0.00213403	0.00887730	0.00390661	0.01177481	0.00931705	0.00105581	0.00251473	0.00036641	0.00071922
1.54000000	0.00525770	0.00287969	0.00280182	0.00290694	0.00269093	0.00684097	0.00098285	0.00321035	0.00248456	0.00140813	0.00018281	0.00429849	0.00352107	0.00558299	0.00563301	0.00144306	0.00188086	0.00395169	0.00202230	0.00874529	0.00407331	0.01134331	0.00943359	0.00044994	0.00281246	0.00036483	0.00067699
1.55000000	0.00530093	0.00355811	0.00302071	0.00292594	0.00279245	0.00675853	0.00112804	0.00325860	0.00241626	0.00131238	0.00015785	0.00420178	0.00350279	0.00548145	0.00569613	0.00127685	0.00181948	0.00368185	0.00201368	0.00862844	0.00414669	0.01087665	0.00935986	0.00031048	0.00302183	0.00009861	0.00060274
1.56000000	0.00525049	0.00346937	0.00294353	0.00300195	0.00281663	0.00699914	0.00105319	0.00305824	0.00237834	0.00122051	0.00016896	0.00426928	0.00311747	0.00567974	0.00553071	0.00117788	0.00183755	0.00363210	0.00204288	0.00853626	0.00433329	0.01055578	0.00942459	0.00039895	0.00322077	0.00028568	0.00098391
1.57000000	0.00534059	0.00384719	0.00312360	0.00313044	0.00297070	0.00698307	0.00110379	0.00300463	0.00237068	0.00114342	0.00011245	0.00435704	0.00305259	0.00558505	0.00545225	0.00100977	0.00177548	0.00328082	0.00190321	0.00834847	0.00439929	0.01025177	0.00935210	0.00075823	0.00349718	0.00042099	0.00080794
1.58000000	0.00531884	0.00390416	0.00314751	0.00328203	0.00306543	0.00709288	0.00108557	0.00284986	0.00233629	0.00100053	0.00014967	0.00440760	0.00281113	0.00565548	0.00533228	0.00101891	0.00177514	0.00311480	0.00190205	0.00815144	0.00453035	0.01005991	0.00928382	0.00129845	0.00378155	0.00079297	0.00091144
1.59000000	0.00531894	0.00410619	0.00326676	0.00345209	0.00321010	0.00710628	0.00109790	0.00273594	0.00233715	0.00089440	0.00017039	0.00446110	0.00266401	0.00560822	0.00523102	0.00100911	0.00172998	0.00290941	0.00186737	0.00792004	0.00459321	0.00991182	0.00913334	0.00189128	0.00403375	0.00118120	0.00096862
1.60000000	0.00529759	0.00405330	0.00328678	0.00366786	0.00334502	0.00717656	0.00105821	0.00260089	0.00235213	0.00091015	0.00041681	0.00451947	0.00212400	0.00574973	0.00511852	0.00134377	0.00183139	0.00327400	0.00221287	0.00774672	0.00467952	0.00977095	0.00881365	0.00218188	0.00430609	0.00208195	0.00106330
1.61000000	0.00508583	0.00411355	0.00326325	0.00382075	0.00341095	0.00721143	0.00107516	0.00248677	0.00227710	0.00076941	0.00055580	0.00468837	0.00195190	0.00569637	0.00494105	0.00151538	0.00172807	0.00330100	0.00233727	0.00753798	0.00476803	0.00978828	0.00857900	0.00271112	0.00457664	0.00243833	0.00122376
1.62000000	0.00490865	0.00422648	0.00332700	0.00392220	0.00349011	0.00714326	0.00107871	0.00236476	0.00226365	0.00064257	0.00066506	0.00469208	0.00176270	0.00569775	0.00479886	0.00147347	0.00172335	0.00317750	0.00253972	0.00728654	0.00480044	0.00982662	0.00827305	0.00318574	0.00492866	0.00256913	0.00120971
1.63000000	0.00478710	0.00429404	0.00345797	0.00410721	0.00365575	0.00701536	0.00105710	0.00228576	0.00223649	0.00064191	0.00073990	0.00468274	0.00155849	0.00568675	0.00472839	0.00149594	0.00168489	0.00325181	0.00278665	0.00704033	0.00475264	0.00979067	0.00787226	0.00336635	0.00516492	0.00291652	0.00121032
1.64000000	0.00454428	0.00476374	0.00373613	0.00401523	0.00372040	0.00672641	0.00106423	0.00220712	0.00219500	0.00070677	0.00053995	0.00465520	0.00192536	0.00514128	0.00474012	0.00118553	0.00149262	0.00270860	0.00260288	0.00682260	0.00454819	0.00982103	0.00758812	0.00376535	0.00533140	0.00233073	0.00112679
1.65000000	0.00412403	0.00473501	0.00367189	0.00399752	0.00368749	0.00664234	0.00104784	0.00216326	0.00213328	0.00071100	0.00058925	0.00461692	0.00166137	0.00504109	0.00470174	0.00124344	0.00144924	0.00295014	0.00295917	0.00663972	0.00455155	0.00979775	0.00718991	0.00370994	0.00542340	0.00231668	0.00128857
1.66000000	0.00383960	0.00461674	0.00370444	0.00394607	0.00368592	0.00646672	0.00108189	0.00207298	0.00203664	0.00078602	0.00061029	0.00449333	0.00174195	0.00483224	0.00471988	0.00115697	0.00144173	0.00280020	0.00323122	0.00646561	0.00446812	0.00971882	0.00684473	0.00356893	0.00559273	0.00185917	0.00124692
1.67000000	0.00351112	0.00446935	0.00373937	0.00397878	0.00373793	0.00638416	0.00100228	0.00202702	0.00195844	0.00096349	0.00042395	0.00425077	0.00149578	0.00469393	0.00482510	0.00100160	0.00133096	0.00292123	0.00370243	0.00630407	0.00442127	0.00951929	0.00634691	0.00315401	0.00559237	0.00209768	0.00120458
1.68000000	0.00301904	0.00412439	0.00358721	0.00376495	0.00355666	0.00633103	0.00107585	0.00187699	0.00184306	0.00093324	0.00055376	0.00398624	0.00153561	0.00446885	0.00490261	0.00090661	0.00130806	0.00257710	0.00399014	0.00605963	0.00443029	0.00943718	0.00622036	0.00302426	0.00559110	0.00109738	0.00130188
1.69000000	0.00281353	0.00382920	0.00364553	0.00378961	0.00361482	0.00625945	0.00095757	0.00181990	0.00183771	0.00102476	0.00017755	0.00357378	0.00143667	0.00417445	0.00509237	0.00076076	0.00131638	0.00249099	0.00442926	0.00595881	0.00437696	0.00913816	0.00582355	0.00268091	0.00544182	0.00153791	0.00120922
1.70000000	0.00229267	0.00336568	0.00342009	0.00352340	0.00336145	0.00628388	0.00102809	0.00167389	0.00164549	0.00103187	0.00044863	0.00303889	0.00135886	0.00405656	0.00524455	0.00074816	0.00124976	0.00198438	0.00474270	0.00571770	0.00445301	0.00904925	0.00581174	0.00229471	0.00534116	0.00052656	0.00133186
1.71000000	0.00220308	0.00282932	0.00339892	0.00356088	0.00337625	0.00620912	0.00092932	0.00161113	0.00164742	0.00095532	0.00019608	0.00261839	0.00139852	0.00375844	0.00540089	0.00083546	0.00118144	0.00166977	0.00513199	0.00558972	0.00443443	0.00878832	0.00562082	0.00198182	0.00513600	0.00050171	0.00117908
1.72000000	0.00195667	0.00220153	0.00318383	0.00343035	0.00319264	0.00616311	0.00084834	0.00142754	0.00161985	0.00092470	0.00030441	0.00217637	0.00145396	0.00363826	0.00545477	0.00084828	0.00116325	0.00113855	0.00528145	0.00544279	0.00450347	0.00869382	0.00569027	0.00141324	0.00497980	0.00049111	0.00134792
1.73000000	0.00180852	0.00177821	0.00308385	0.00343792	0.00313030	0.00609089	0.00074678	0.00143323	0.00163282	0.00082269	0.00027909	0.00180058	0.00143885	0.00337977	0.00558221	0.00092597	0.00107710	0.00100964	0.00528842	0.00538362	0.00453668	0.00860451	0.00569369	0.00106068	0.00472484	0.00042999	0.00104685
1.74000000	0.00170574	0.00120936	0.00287682	0.00346754	0.00303177	0.00601482	0.00107229	0.00125555	0.00160466	0.00102057	0.00031747	0.00154371	0.00142482	0.00338290	0.00555852	0.00109215	0.00109472	0.00107413	0.00566427	0.00535091	0.00457200	0.00849966	0.00557968	0.00076202	0.00444383	0.00052412	0.00119267
1.75000000	0.00163771	0.00078295	0.00272054	0.00358671	0.00300327	0.00586439	0.00140356	0.00118383	0.00170894	0.00126806	0.00043843	0.00167000	0.00152068	0.00348951	0.00543786	0.00114253	0.00114431	0.00141099	0.00592337	0.00526318	0.00455819	0.00844254	0.00545174	0.00062763	0.00418699	0.00065952	0.00122767
1.76000000	0.00167729	0.00071214	0.00262979	0.00373985	0.00301221	0.00569911	0.00166857	0.00144022	0.00178815	0.00144579	0.00021603	0.00205910	0.00146213	0.00355787	0.00543461	0.00121719	0.00103666	0.00178184	0.00591088	0.00528275	0.00455294	0.00844073	0.00533553	0.00068970	0.00381243	0.00072012	0.00106295
1.77000000	0.00172695	0.00048390	0.00246542	0.00396565	0.00305369	0.00548757	0.00236221	0.00166268	0.00188186	0.00168903	0.00045920	0.00261264	0.00166514	0.00383886	0.00523070	0.00126002	0.00118666	0.00219706	0.00605039	0.00523445	0.00451232	0.00840703	0.00519554	0.00100631	0.00353685	0.00062799	0.00102294
1.78000000	0.00214473	0.00099091	0.00239481	0.00400781	0.00299587	0.00518809	0.00268657	0.00233724	0.00195775	0.00171071	0.00037413	0.00299893	0.00163645	0.00406351	0.00530686	0.00159393	0.00074099	0.00256308	0.00592891	0.00528586	0.00448260	0.00845608	0.00508555	0.00119690	0.00314247	0.00050362	0.00078066
1.79000000	0.00216533	0.00101778	0.00224925	0.00416920	0.00304139	0.00502017	0.00363870	0.00294954	0.00212812	0.00208607	0.00036563	0.00367860	0.00210035	0.00459269	0.00493495	0.00139378	0.00092347	0.00298596	0.00592744	0.00522579	0.00441857	0.00844707	0.00495911	0.00134723	0.00279151	0.00058762	0.00080742
1.80000000	0.00240963	0.00140536	0.00218054	0.00429366	0.00308796	0.00487578	0.00444603	0.00370693	0.00230627	0.00237783	0.00044396	0.00421117	0.00247631	0.00508171	0.00465496	0.00133831	0.00094281	0.00340011	0.00585407	0.00517226	0.00433848	0.00840849	0.00483836	0.00148770	0.00242512	0.00052701	0.00070514
1.81000000	0.00301246	0.00207993	0.00200198	0.00426182	0.00296841	0.00454842	0.00506610	0.00472333	0.00247284	0.00250464	0.00066121	0.00439206	0.00264844	0.00555427	0.00460074	0.00166212	0.00075981	0.00379228	0.00572520	0.00512880	0.00434240	0.00835083	0.00486829	0.00147707	0.00205791	0.00046099	0.00048870
1.82000000	0.00311615	0.00250013	0.00186570	0.00418023	0.00288381	0.00445660	0.00624632	0.00539757	0.00269021	0.00277828	0.00079721	0.00464544	0.00326412	0.00612154	0.00421948	0.00151680	0.00096735	0.00432066	0.00566921	0.00491683	0.00427600	0.00821798	0.00484532	0.00145052	0.00176118	0.00058093	0.00042751
1.83000000	0.00342237	0.00306410	0.00179311	0.00407859	0.00279832	0.00445417	0.00717105	0.00618347	0.00289597	0.00295182	0.00098311	0.00465827	0.00366089	0.00667140	0.00394437	0.00159332	0.00105688	0.00487695	0.00544337	0.00473040	0.00418545	0.00808622	0.00483670	0.00140532	0.00140732	0.00034477	0.00029625
1.84000000	0.00343408	0.00367094	0.00191438	0.00404771	0.00284663	0.00441054	0.00818556	0.00692049	0.00313517	0.00317847	0.00128845	0.00482460	0.00448042	0.00700696	0.00369335	0.00152697	0.00076085	0.00545838	0.00519524	0.00447385	0.00397886	0.00789395	0.00469539	0.00131473	0.00099431	0.00028751	0.00027662
1.85000000	0.00391355	0.00427676	0.00185244	0.00381023	0.00267960	0.00450243	0.00899187	0.00750866	0.00333869	0.00311830	0.00134352	0.00460955	0.00467148	0.00751141	0.00355955	0.00180334	0.00079079	0.00596281	0.00496133	0.00423791	0.00391744	0.00765819	0.00478038	0.00096048	0.00057466	0.00013303	0.00009644
1.86000000	0.00477708	0.00478828	0.00177115	0.00367511	0.00255992	0.00458073	0.00950654	0.00813531	0.00353624	0.00299381	0.00116941	0.00440836	0.00499655	0.00776159	0.00349102	0.00210174	0.00075056	0.00645820	0.00461141	0.00404459	0.00386507	0.00735000	0.00495116	0.00061469	0.00021855	0.00035221	0.00021150
1.87000000	0.00562041	0.00500523	0.00171807	0.00360120	0.00249847	0.00457697	0.01002537	0.00872435	0.00358011	0.00279486	0.00093697	0.00435132	0.00573962	0.00803758	0.00334374	0.00215789	0.00101120	0.00696519	0.00433229	0.00380493	0.00373935	0.00702788	0.00506947	0.00023614	0.00031156	0.00028976	0.00023898
1.88000000	0.00593045	0.00534217	0.00178306	0.00343590	0.00244518	0.00524386	0.01081101	0.00868679	0.00366567	0.00253860	0.00085574	0.00426814	0.00646711	0.00845501	0.00326092	0.00241782	0.00128180	0.00747065	0.00404356	0.00355447	0.00356533	0.00662010	0.00519514	0.00048615	0.00070245	0.00050563	0.00031056
1.89000000	0.00570024	0.00564272	0.00196045	0.00327580	0.00246728	0.00618837	0.01177533	0.00831402	0.00363754	0.00233900	0.00118193	0.00431111	0.00721835	0.00903350	0.00327929	0.00284644	0.00150881	0.00793460	0.00389765	0.00326425	0.00329133	0.00623454	0.00529168	0.00107903	0.00119736	0.00065937	0.00033481
1.90000000	0.00654150	0.00578287	0.00195609	0.00310086	0.00237094	0.00730120	0.01220161	0.00808913	0.00360225	0.00247054	0.00113811	0.00440277	0.00812589	0.00937281	0.00330471	0.00313091	0.00177989	0.00831189	0.00374300	0.00317707	0.00317182	0.00584558	0.00567560	0.00175983	0.00170824	0.00091264	0.00029514
1.91000000	0.00727325	0.00569412	0.00194081	0.00301846	0.00232020	0.00846604	0.01258028	0.00803121	0.00337915	0.00248531	0.00167786	0.00442739	0.00883634	0.00989833	0.00329964	0.00361166	0.00194073	0.00871305	0.00370859	0.00304383	0.00304374	0.00554425	0.00605438	0.00248977	0.00208990	0.00118379	0.00048746
1.92000000	0.00601119	0.00589814	0.00212020	0.00326094	0.00252983	0.00978366	0.01359561	0.00752674	0.00304345	0.00242305	0.00249364	0.00495611	0.00978537	0.01051042	0.00345461	0.00393894	0.00243982	0.00903013	0.00367275	0.00284696	0.00277916	0.00576474	0.00637316	0.00305035	0.00229780	0.00139340	0.00078583
1.93000000	0.00749990	0.00597072	0.00205501	0.00274379	0.00220717	0.01078913	0.01348392	0.00751757	0.00306670	0.00313088	0.00189790	0.00507373	0.00988794	0.01094305	0.00344787	0.00423737	0.00239165	0.00922034	0.00409045	0.00282521	0.00276855	0.00571785	0.00684854	0.00399667	0.00290821	0.00154440	0.00053063
1.94000000	0.00726467	0.00618983	0.00209267	0.00270566	0.00218652	0.01162180	0.01385858	0.00755926	0.00277809	0.00311614	0.00206832	0.00550116	0.01020178	0.01145746	0.00354840	0.00445897	0.00264354	0.00931424	0.00433868	0.00273950	0.00265004	0.00634912	0.00721773	0.00461356	0.00322178	0.00178508	0.00058267
1.95000000	0.00746473	0.00626258	0.00205662	0.00251199	0.00202240	0.01228141	0.01388462	0.00801180	0.00262888	0.00336304	0.00199825	0.00584932	0.01038037	0.01190054	0.00360338	0.00465719	0.00266880	0.00939309	0.00451754	0.00269945	0.00259670	0.00711321	0.00747484	0.00523231	0.00341656	0.00174875	0.00057408
1.96000000	0.00708241	0.00654951	0.00206288	0.00259545	0.00203333	0.01259698	0.01388171	0.00865659	0.00247148	0.00359787	0.00210527	0.00638778	0.01045141	0.01226576	0.00370386	0.00467069	0.00278720	0.00928384	0.00460900	0.00271386	0.00252368	0.00828340	0.00765488	0.00558750	0.00352815	0.00180401	0.00066764
1.97000000	0.00689809	0.00686521	0.00211327	0.00272910	0.00210330	0.01272930	0.01369879	0.00968869	0.00235284	0.00396883	0.00204015	0.00672947	0.01043831	0.01245215	0.00368843	0.00458645	0.00275576	0.00923907	0.00460681	0.00276285	0.00237973	0.00951733	0.00766373	0.00590246	0.00356576	0.00164115	0.00079192
1.98000000	0.00719247	0.00676297	0.00217149	0.00255583	0.00199656	0.01275865	0.01339898	0.01101561	0.00216635	0.00435461	0.00220850	0.00684249	0.01047486	0.01253471	0.00358823	0.00480600	0.00273595	0.00897704	0.00458100	0.00292179	0.00238624	0.01072438	0.00756534	0.00610726	0.00353993	0.00157928	0.00072427
1.99000000	0.00725496	0.00704644	0.00225286	0.00255326	0.00203941	0.01266634	0.01277768	0.01263199	0.00208361	0.00488847	0.00197707	0.00701359	0.01033879	0.01262919	0.00364059	0.00449800	0.00281750	0.00874337	0.00445302	0.00312910	0.00225352	0.01199669	0.00730786	0.00613580	0.00344935	0.00095232	0.00058147
2.00000000	0.00706320	0.00709437	0.00226788	0.00269100	0.00212124	0.01254679	0.01213589	0.01428248	0.00194972	0.00540360	0.00216933	0.00712022	0.01009673	0.01253542	0.00353439	0.00454286	0.00285233	0.00830129	0.00425244	0.00336456	0.00211067	0.01344324	0.00701695	0.00603868	0.00333846	0.00081491	0.00062357
2.01000000	0.00707080	0.00708187	0.00230901	0.00269156	0.00215375	0.01252037	0.01132752	0.01588544	0.00177610	0.00570916	0.00220264	0.00710938	0.00989983	0.01244350	0.00347438	0.00443190	0.00286429	0.00783576	0.00406490	0.00367120	0.00198588	0.01474697	0.00662220	0.00588696	0.00317047	0.00040296	0.00058572
2.02000000	0.00705495	0.00700066	0.00236842	0.00268352	0.00220112	0.01252288	0.01041955	0.01720769	0.00154098	0.00583805	0.00232873	0.00710709	0.00976210	0.01226337	0.00340172	0.00436241	0.00279137	0.00732252	0.00390731	0.00401004	0.00188594	0.01594480	0.00623056	0.00568955	0.00298361	0.00008717	0.00048119
2.03000000	0.00662759	0.00696103	0.00261234	0.00310855	0.00255405	0.01256634	0.00958398	0.01765707	0.00125834	0.00546954	0.00251390	0.00706854	0.00972911	0.01224230	0.00343209	0.00426187	0.00277346	0.00677973	0.00363901	0.00441150	0.00171360	0.01718252	0.00578190	0.00549154	0.00278099	0.00041912	0.00038322
2.04000000	0.00668595	0.00682525	0.00260118	0.00290613	0.00248401	0.01271262	0.00846298	0.01807633	0.00108231	0.00522944	0.00245644	0.00697275	0.00948408	0.01196967	0.00339610	0.00421101	0.00265349	0.00623935	0.00366963	0.00469136	0.00162050	0.01799218	0.00541447	0.00535665	0.00267397	0.00069952	0.00038888
2.05000000	0.00625477	0.00673415	0.00284835	0.00330487	0.00283257	0.01268746	0.00744966	0.01727509	0.00096512	0.00455865	0.00243354	0.00695444	0.00951352	0.01194991	0.00347347	0.00413756	0.00269973	0.00568124	0.00357043	0.00501721	0.00154949	0.01877912	0.00511401	0.00512226	0.00252173	0.00088990	0.00034030
2.06000000	0.00600851	0.00653527	0.00290327	0.00337187	0.00292116	0.01257149	0.00639639	0.01619209	0.00112043	0.00387513	0.00232073	0.00688919	0.00946465	0.01186439	0.00353829	0.00412943	0.00266797	0.00516478	0.00360974	0.00522193	0.00147098	0.01922976	0.00484376	0.00498612	0.00249703	0.00101620	0.00032303
2.07000000	0.00618156	0.00617621	0.00275787	0.00303353	0.00271129	0.01221132	0.00535378	0.01514003	0.00135189	0.00332069	0.00227615	0.00695339	0.00939142	0.01163675	0.00357664	0.00417248	0.00255496	0.00469088	0.00379747	0.00526355	0.00142449	0.01927853	0.00463805	0.00493462	0.00259408	0.00108226	0.00032381
2.08000000	0.00565605	0.00601172	0.00277956	0.00321982	0.00283693	0.01157334	0.00454861	0.01329301	0.00163030	0.00243857	0.00199405	0.00696865	0.00940949	0.01165034	0.00379475	0.00414565	0.00265154	0.00424331	0.00380265	0.00534116	0.00141910	0.01934559	0.00456844	0.00488222	0.00266124	0.00101328	0.00039446
2.09000000	0.00583832	0.00569474	0.00264854	0.00301502	0.00269040	0.01113551	0.00368137	0.01167970	0.00195760	0.00191179	0.00180824	0.00705367	0.00934103	0.01155088	0.00393229	0.00414846	0.00250129	0.00385850	0.00391198	0.00524446	0.00143736	0.01900610	0.00456254	0.00488245	0.00284955	0.00101714	0.00046636
2.10000000	0.00625284	0.00532299	0.00237874	0.00269698	0.00242005	0.01091090	0.00289312	0.01019715	0.00223070	0.00155377	0.00162802	0.00727805	0.00929052	0.01136040	0.00410983	0.00415122	0.00278510	0.00352998	0.00403399	0.00507612	0.00149892	0.01846317	0.00463552	0.00484421	0.00304492	0.00108415	0.00043191
2.11000000	0.00532961	0.00520762	0.00228188	0.00284754	0.00245461	0.01047014	0.00241440	0.00827149	0.00250166	0.00130008	0.00128957	0.00743204	0.00940168	0.01140729	0.00435493	0.00411891	0.00266065	0.00323197	0.00398742	0.00495710	0.00147094	0.01809883	0.00464894	0.00493583	0.00318637	0.00088532	0.00055691
2.12000000	0.00606480	0.00492849	0.00200881	0.00245458	0.00215735	0.01058579	0.00183470	0.00738088	0.00270624	0.00123720	0.00131104	0.00757409	0.00917763	0.01121190	0.00449009	0.00389547	0.00283334	0.00300543	0.00398887	0.00467252	0.00153367	0.01727825	0.00484022	0.00488634	0.00345861	0.00117979	0.00052171
2.13000000	0.00631540	0.00463394	0.00187400	0.00229777	0.00203372	0.01060639	0.00181711	0.00672759	0.00279858	0.00120194	0.00121901	0.00773448	0.00893518	0.01097213	0.00455738	0.00374237	0.00276915	0.00274872	0.00392121	0.00435634	0.00154307	0.01661481	0.00491707	0.00500613	0.00364232	0.00121292	0.00057837
2.14000000	0.00575804	0.00420158	0.00199430	0.00242600	0.00215601	0.01046828	0.00201028	0.00613641	0.00286704	0.00143878	0.00103308	0.00788096	0.00867121	0.01078436	0.00458212	0.00379987	0.00269636	0.00246238	0.00360190	0.00411569	0.00157246	0.01617127	0.00495865	0.00508191	0.00368037	0.00098715	0.00062988
2.15000000	0.00487290	0.00394497	0.00206068	0.00244591	0.00218401	0.01013532	0.00236117	0.00550822	0.00304813	0.00165116	0.00102027	0.00801764	0.00862993	0.01058483	0.00458798	0.00365285	0.00248144	0.00221639	0.00324464	0.00388766	0.00146870	0.01577621	0.00478322	0.00513042	0.00364317	0.00093002	0.00073272
2.16000000	0.00518036	0.00373431	0.00202963	0.00212516	0.00204351	0.00974674	0.00378562	0.00574223	0.00328600	0.00111232	0.00153729	0.00806786	0.00819677	0.01049389	0.00442944	0.00328540	0.00282974	0.00203567	0.00289121	0.00365763	0.00146573	0.01507472	0.00474394	0.00465825	0.00369204	0.00170670	0.00066625
2.17000000	0.00441168	0.00334261	0.00227311	0.00244598	0.00230107	0.00943830	0.00325355	0.00493204	0.00320766	0.00209374	0.00108205	0.00800513	0.00794598	0.01008637	0.00433739	0.00316484	0.00244104	0.00171885	0.00224634	0.00346861	0.00127982	0.01501606	0.00440152	0.00487816	0.00351133	0.00110913	0.00078764
2.18000000	0.00455888	0.00305990	0.00237664	0.00241804	0.00236360	0.00911736	0.00389589	0.00496774	0.00316993	0.00207919	0.00128335	0.00797624	0.00726580	0.00973962	0.00408647	0.00286894	0.00245526	0.00156173	0.00177279	0.00332406	0.00109334	0.01466739	0.00400455	0.00460614	0.00339626	0.00131797	0.00078309
2.19000000	0.00479692	0.00261565	0.00238107	0.00247319	0.00240179	0.00871340	0.00430158	0.00479108	0.00304681	0.00231017	0.00115598	0.00777871	0.00689954	0.00931623	0.00389816	0.00257246	0.00238594	0.00114532	0.00125134	0.00310887	0.00104582	0.01445399	0.00378729	0.00444969	0.00323106	0.00104379	0.00083063
2.20000000	0.00503610	0.00207122	0.00238288	0.00251489	0.00242838	0.00831541	0.00453170	0.00448689	0.00291165	0.00244234	0.00119280	0.00757534	0.00664516	0.00888795	0.00369192	0.00226718	0.00228182	0.00080841	0.00074195	0.00300632	0.00098677	0.01431702	0.00355762	0.00417712	0.00305448	0.00096596	0.00085995
2.21000000	0.00525688	0.00153808	0.00239012	0.00251996	0.00243802	0.00794536	0.00469424	0.00417551	0.00271380	0.00256892	0.00113081	0.00734978	0.00635711	0.00842844	0.00348098	0.00202678	0.00221466	0.00058812	0.00042640	0.00296809	0.00090741	0.01423189	0.00333067	0.00385650	0.00291644	0.00100228	0.00088465
2.22000000	0.00533689	0.00102760	0.00244983	0.00254972	0.00248246	0.00756276	0.00486804	0.00386270	0.00254865	0.00248598	0.00123159	0.00716003	0.00603699	0.00800095	0.00333749	0.00172057	0.00209608	0.00064307	0.00060942	0.00299401	0.00082187	0.01423572	0.00304912	0.00354076	0.00275507	0.00083966	0.00079404
2.23000000	0.00541085	0.00078351	0.00248588	0.00254159	0.00249553	0.00718354	0.00492560	0.00352531	0.00249421	0.00252662	0.00123622	0.00688590	0.00576597	0.00751879	0.00320331	0.00143831	0.00195713	0.00088032	0.00079655	0.00303890	0.00078653	0.01429421	0.00292561	0.00321803	0.00262667	0.00071557	0.00078488
2.24000000	0.00537126	0.00096066	0.00256472	0.00255550	0.00254018	0.00678067	0.00496140	0.00323910	0.00241257	0.00258525	0.00109667	0.00659068	0.00555958	0.00697363	0.00315668	0.00120256	0.00184962	0.00116278	0.00094128	0.00313145	0.00072678	0.01441273	0.00277828	0.00292106	0.00258087	0.00069595	0.00076808
2.25000000	0.00529892	0.00140607	0.00264898	0.00255675	0.00258115	0.00638447	0.00498890	0.00296477	0.00246078	0.00264793	0.00104806	0.00625962	0.00528460	0.00646938	0.00311960	0.00096215	0.00166698	0.00149196	0.00101856	0.00323377	0.00066518	0.01457120	0.00269592	0.00262802	0.00254973	0.00060924	0.00078502
2.26000000	0.00524293	0.00201223	0.00274700	0.00255424	0.00262601	0.00595844	0.00497127	0.00267124	0.00251174	0.00268507	0.00101443	0.00595499	0.00514810	0.00594285	0.00299732	0.00077940	0.00130588	0.00177830	0.00107532	0.00335281	0.00063802	0.01475988	0.00257020	0.00235936	0.00249901	0.00053590	0.00077698
2.27000000	0.00519782	0.00240940	0.00287069	0.00255517	0.00268556	0.00565146	0.00511632	0.00246611	0.00266591	0.00280789	0.00097452	0.00561601	0.00477542	0.00535021	0.00307952	0.00072716	0.00113398	0.00208440	0.00103851	0.00341844	0.00055733	0.01493126	0.00249359	0.00206628	0.00250512	0.00041856	0.00080441
2.28000000	0.00530158	0.00277138	0.00296656	0.00253005	0.00271761	0.00536497	0.00522888	0.00226002	0.00290368	0.00296544	0.00098293	0.00530547	0.00449515	0.00472097	0.00323284	0.00056837	0.00095289	0.00239291	0.00098935	0.00344945	0.00047515	0.01505417	0.00248220	0.00175489	0.00251335	0.00035510	0.00081301
2.29000000	0.00554370	0.00322599	0.00312708	0.00255659	0.00280361	0.00512620	0.00526082	0.00195690	0.00301948	0.00306758	0.00094378	0.00509254	0.00424403	0.00419614	0.00318249	0.00051515	0.00062139	0.00260515	0.00100955	0.00351954	0.00047279	0.01512047	0.00236199	0.00148200	0.00244127	0.00025901	0.00082733
2.30000000	0.00580225	0.00324669	0.00323598	0.00259958	0.00288127	0.00498528	0.00567445	0.00196107	0.00329168	0.00322452	0.00096888	0.00486405	0.00370839	0.00359495	0.00351371	0.00074414	0.00043118	0.00282021	0.00093924	0.00348100	0.00045851	0.01507634	0.00226904	0.00120205	0.00251681	0.00017760	0.00078433
2.31000000	0.00625675	0.00342436	0.00336914	0.00266004	0.00297489	0.00473422	0.00591086	0.00192026	0.00350507	0.00334358	0.00090150	0.00469212	0.00350306	0.00311387	0.00367882	0.00077876	0.00021093	0.00297431	0.00092414	0.00345736	0.00049216	0.01495436	0.00214950	0.00092888	0.00252137	0.00010581	0.00065909
2.32000000	0.00685604	0.00370800	0.00355225	0.00275359	0.00310804	0.00440341	0.00591386	0.00185798	0.00359273	0.00342212	0.00093247	0.00444669	0.00338545	0.00300759	0.00356820	0.00079978	0.00013809	0.00306111	0.00096740	0.00345466	0.00054601	0.01476498	0.00201349	0.00070211	0.00234004	0.00005600	0.00079040
2.33000000	0.00732557	0.00360760	0.00364120	0.00287602	0.00321540	0.00418834	0.00628235	0.00189602	0.00378238	0.00350676	0.00086445	0.00436925	0.00302294	0.00269747	0.00377861	0.00084504	0.00028029	0.00316094	0.00102154	0.00340494	0.00057358	0.01443679	0.00196952	0.00052213	0.00230148	0.00007298	0.00080268
2.34000000	0.00782804	0.00367022	0.00374728	0.00298789	0.00332248	0.00388841	0.00645263	0.00194382	0.00392775	0.00360594	0.00083746	0.00423721	0.00287551	0.00269982	0.00376534	0.00092772	0.00048015	0.00318123	0.00105839	0.00332407	0.00063807	0.01403423	0.00180876	0.00033117	0.00215236	0.00011375	0.00073680
2.35000000	0.00804748	0.00341210	0.00377073	0.00318683	0.00343728	0.00370263	0.00714466	0.00188155	0.00407770	0.00345394	0.00140924	0.00414684	0.00247063	0.00260923	0.00387923	0.00096643	0.00154658	0.00315985	0.00112948	0.00317671	0.00066663	0.01355737	0.00181753	0.00063372	0.00201049	0.00038081	0.00072379
2.36000000	0.00837288	0.00340606	0.00376895	0.00328595	0.00348448	0.00343157	0.00761564	0.00183484	0.00419112	0.00335241	0.00135874	0.00417722	0.00245793	0.00245588	0.00392431	0.00087847	0.00134088	0.00313740	0.00129059	0.00306806	0.00064775	0.01293161	0.00175395	0.00075983	0.00181365	0.00045959	0.00055348
2.37000000	0.00832163	0.00306984	0.00381998	0.00350114	0.00361817	0.00326597	0.00805339	0.00184108	0.00427812	0.00332115	0.00166203	0.00391557	0.00223568	0.00230196	0.00403477	0.00107455	0.00201849	0.00297788	0.00145053	0.00305133	0.00066785	0.01237365	0.00172565	0.00122701	0.00170777	0.00056586	0.00067461
2.38000000	0.00868444	0.00337858	0.00382478	0.00333050	0.00353444	0.00277713	0.00757487	0.00209376	0.00431783	0.00369783	0.00056466	0.00353655	0.00217725	0.00224417	0.00386892	0.00087787	0.00066234	0.00279170	0.00150351	0.00296936	0.00076609	0.01180959	0.00150044	0.00024919	0.00135148	0.00030874	0.00059460
2.39000000	0.00841461	0.00306258	0.00382106	0.00349078	0.00361592	0.00275705	0.00794577	0.00205792	0.00439016	0.00361046	0.00115028	0.00313720	0.00189089	0.00215846	0.00391047	0.00087436	0.00113245	0.00258510	0.00168927	0.00292229	0.00075984	0.01118866	0.00153430	0.00072025	0.00118911	0.00042361	0.00043338
2.40000000	0.00861936	0.00330731	0.00383518	0.00334108	0.00354231	0.00255511	0.00723998	0.00245053	0.00433185	0.00376390	0.00101562	0.00243526	0.00185238	0.00234854	0.00368307	0.00113209	0.00075638	0.00227720	0.00181820	0.00295354	0.00084196	0.01070851	0.00142740	0.00020943	0.00076864	0.00005763	0.00051449
2.41000000	0.00813256	0.00293529	0.00383093	0.00350493	0.00362751	0.00274814	0.00765958	0.00245552	0.00442519	0.00372283	0.00159562	0.00205978	0.00160874	0.00222465	0.00378096	0.00108462	0.00119641	0.00208043	0.00193346	0.00289874	0.00088274	0.01010934	0.00145244	0.00069626	0.00076780	0.00029920	0.00038381
2.42000000	0.00783202	0.00267649	0.00378106	0.00357715	0.00364093	0.00298663	0.00801801	0.00253113	0.00448616	0.00366758	0.00196742	0.00187353	0.00144486	0.00204293	0.00382410	0.00106526	0.00139644	0.00187693	0.00206417	0.00285456	0.00090396	0.00953878	0.00148096	0.00121328	0.00092674	0.00053214	0.00056551
2.43000000	0.00801703	0.00297519	0.00382286	0.00339961	0.00356604	0.00301170	0.00761337	0.00312408	0.00436668	0.00384815	0.00100702	0.00174447	0.00152595	0.00185528	0.00364902	0.00122957	0.00075971	0.00170108	0.00218182	0.00285865	0.00097611	0.00910537	0.00145975	0.00028417	0.00037497	0.00012363	0.00039997
2.44000000	0.00781382	0.00271331	0.00385150	0.00350784	0.00363851	0.00334771	0.00785008	0.00329877	0.00446870	0.00378841	0.00162523	0.00157091	0.00138585	0.00178663	0.00370720	0.00112241	0.00117996	0.00156254	0.00225650	0.00287461	0.00105369	0.00870664	0.00149016	0.00078815	0.00057706	0.00046086	0.00044808
2.45000000	0.00785917	0.00253491	0.00380673	0.00351735	0.00362274	0.00376570	0.00809870	0.00343253	0.00450040	0.00379681	0.00208157	0.00162080	0.00128640	0.00167875	0.00372141	0.00107990	0.00145352	0.00144781	0.00233019	0.00289295	0.00110097	0.00835482	0.00149711	0.00130980	0.00100537	0.00064969	0.00062994
2.46000000	0.00825094	0.00282092	0.00389332	0.00338258	0.00359278	0.00390867	0.00782056	0.00397571	0.00432263	0.00395484	0.00112429	0.00179081	0.00139642	0.00149844	0.00352963	0.00126384	0.00095154	0.00145555	0.00238701	0.00293363	0.00121105	0.00816255	0.00148290	0.00034100	0.00083989	0.00020015	0.00032322
2.47000000	0.00839545	0.00267730	0.00391048	0.00341687	0.00362085	0.00414345	0.00794284	0.00416669	0.00433370	0.00389746	0.00163379	0.00197742	0.00128524	0.00146012	0.00356866	0.00108130	0.00124965	0.00137203	0.00245141	0.00302465	0.00127374	0.00804049	0.00151425	0.00083749	0.00107651	0.00053148	0.00019417
2.48000000	0.00873009	0.00282032	0.00385027	0.00324966	0.00350414	0.00441782	0.00794746	0.00442617	0.00417001	0.00391745	0.00105925	0.00208360	0.00134230	0.00141140	0.00348350	0.00129199	0.00113535	0.00145219	0.00244169	0.00305393	0.00144845	0.00797830	0.00154007	0.00027706	0.00126658	0.00042535	0.00029733
2.49000000	0.00868600	0.00282460	0.00385291	0.00325310	0.00350826	0.00441365	0.00801931	0.00460918	0.00415581	0.00390358	0.00158567	0.00239768	0.00130398	0.00139621	0.00351026	0.00112265	0.00134673	0.00135570	0.00250169	0.00314881	0.00147117	0.00797821	0.00159392	0.00083534	0.00142767	0.00056166	0.00010076
2.50000000	0.00854184	0.00290721	0.00371766	0.00314163	0.00338389	0.00454114	0.00817251	0.00467794	0.00409180	0.00379659	0.00199499	0.00264373	0.00142671	0.00135652	0.00356591	0.00104690	0.00153156	0.00130354	0.00253081	0.00324180	0.00152729	0.00796166	0.00163271	0.00140382	0.00166745	0.00099922	0.00049525
2.51000000	0.00817105	0.00308232	0.00353910	0.00299313	0.00321790	0.00462201	0.00834389	0.00470569	0.00397961	0.00364334	0.00228079	0.00280943	0.00169224	0.00128185	0.00365136	0.00105692	0.00164770	0.00123068	0.00251490	0.00330306	0.00162208	0.00797434	0.00172668	0.00206991	0.00187062	0.00135151	0.00073425
2.52000000	0.00767578	0.00308429	0.00336929	0.00266607	0.00297631	0.00460278	0.00768099	0.00512121	0.00367732	0.00374208	0.00126721	0.00231027	0.00118382	0.00192288	0.00363657	0.00143123	0.00154069	0.00156889	0.00242031	0.00342825	0.00192274	0.00822811	0.00189894	0.00050793	0.00172157	0.00037142	0.00029471
2.53000000	0.00678911	0.00350584	0.00310827	0.00244321	0.00273260	0.00451160	0.00792837	0.00514470	0.00356230	0.00352102	0.00168544	0.00243813	0.00169607	0.00161757	0.00369848	0.00148341	0.00129141	0.00143796	0.00243689	0.00348695	0.00193105	0.00815967	0.00200961	0.00116723	0.00186509	0.00099861	0.00038487
2.54000000	0.00566094	0.00331385	0.00274612	0.00212961	0.00239712	0.00456407	0.00799397	0.00512529	0.00330478	0.00341939	0.00101654	0.00202057	0.00117231	0.00191400	0.00388898	0.00147925	0.00162079	0.00178641	0.00215166	0.00354645	0.00230217	0.00837078	0.00229712	0.00140669	0.00166627	0.00075329	0.00029773
2.55000000	0.00450750	0.00401070	0.00254366	0.00199472	0.00222288	0.00441711	0.00826199	0.00512500	0.00317610	0.00316109	0.00143378	0.00199284	0.00223777	0.00143002	0.00385834	0.00165212	0.00109236	0.00168793	0.00217366	0.00355821	0.00232271	0.00828747	0.00254387	0.00238169	0.00179188	0.00152722	0.00044319
2.56000000	0.00369295	0.00385667	0.00207022	0.00137931	0.00166064	0.00445535	0.00712262	0.00568171	0.00298001	0.00329855	0.00105277	0.00163385	0.00122781	0.00186571	0.00396699	0.00165164	0.00125402	0.00219120	0.00193685	0.00368670	0.00262034	0.00853606	0.00289279	0.00178369	0.00162143	0.00051249	0.00015675
2.57000000	0.00277786	0.00419915	0.00184951	0.00108566	0.00138627	0.00445059	0.00697632	0.00575275	0.00282370	0.00315223	0.00097789	0.00133567	0.00125579	0.00179170	0.00399187	0.00164104	0.00112201	0.00248687	0.00169489	0.00368889	0.00285657	0.00862972	0.00328366	0.00214807	0.00144886	0.00048562	0.00018919
2.58000000	0.00189528	0.00440531	0.00175171	0.00100363	0.00129707	0.00441506	0.00696060	0.00568174	0.00271468	0.00302391	0.00106029	0.00093480	0.00142578	0.00173269	0.00403420	0.00163194	0.00096032	0.00292459	0.00135601	0.00371254	0.00312038	0.00875993	0.00372925	0.00260476	0.00119400	0.00066201	0.00018860
2.59000000	0.00137343	0.00457605	0.00171055	0.00103487	0.00130173	0.00437431	0.00692222	0.00565869	0.00267224	0.00298904	0.00118769	0.00068580	0.00163339	0.00172486	0.00409207	0.00164064	0.00074452	0.00346677	0.00091078	0.00373896	0.00337275	0.00886376	0.00412070	0.00322846	0.00090068	0.00093425	0.00038161
2.60000000	0.00165223	0.00478678	0.00172241	0.00099529	0.00128055	0.00437169	0.00678235	0.00568322	0.00265370	0.00295718	0.00113924	0.00087393	0.00171642	0.00171804	0.00410717	0.00164684	0.00059822	0.00379436	0.00059689	0.00368568	0.00362535	0.00898906	0.00455897	0.00346062	0.00062256	0.00084409	0.00042086
2.61000000	0.00233855	0.00528934	0.00198120	0.00092204	0.00136442	0.00432102	0.00629706	0.00591185	0.00251164	0.00292282	0.00113856	0.00100223	0.00187182	0.00158737	0.00401231	0.00153648	0.00063913	0.00397253	0.00060323	0.00369607	0.00377162	0.00906134	0.00494800	0.00338862	0.00038595	0.00012911	0.00021647
2.62000000	0.00223496	0.00594252	0.00226772	0.00110536	0.00161689	0.00432349	0.00585208	0.00600899	0.00246330	0.00280905	0.00110452	0.00134046	0.00194352	0.00143982	0.00406539	0.00124864	0.00028028	0.00440369	0.00065295	0.00368753	0.00390361	0.00908782	0.00514647	0.00362418	0.00008548	0.00024921	0.00024414
2.63000000	0.00252759	0.00610189	0.00237958	0.00131543	0.00178147	0.00447561	0.00595250	0.00582363	0.00249300	0.00281351	0.00111149	0.00160885	0.00212145	0.00165382	0.00410082	0.00125034	0.00060193	0.00455612	0.00099081	0.00362641	0.00410459	0.00914794	0.00546467	0.00372295	0.00025814	0.00048468	0.00014631
2.64000000	0.00285773	0.00633150	0.00253558	0.00143994	0.00192655	0.00449419	0.00574909	0.00593436	0.00249560	0.00285171	0.00108508	0.00192182	0.00230444	0.00176382	0.00417604	0.00120615	0.00080912	0.00463767	0.00130971	0.00361788	0.00421702	0.00915260	0.00567239	0.00374752	0.00057687	0.00057653	0.00006466
2.65000000	0.00299573	0.00651670	0.00268909	0.00164212	0.00210989	0.00450798	0.00564765	0.00596869	0.00249166	0.00283764	0.00109679	0.00224383	0.00242242	0.00194087	0.00429646	0.00119436	0.00093695	0.00471405	0.00166067	0.00360950	0.00432150	0.00911369	0.00579702	0.00371033	0.00083527	0.00067230	0.00005990
2.66000000	0.00252688	0.00695620	0.00305172	0.00219054	0.00257128	0.00435730	0.00595998	0.00586088	0.00232416	0.00250361	0.00134256	0.00244189	0.00293280	0.00239540	0.00415292	0.00101656	0.00185415	0.00442801	0.00179214	0.00359038	0.00448121	0.00904888	0.00611050	0.00378494	0.00098209	0.00142832	0.00044307
2.67000000	0.00327008	0.00671596	0.00292545	0.00198030	0.00240586	0.00450801	0.00549520	0.00604353	0.00250826	0.00285489	0.00109112	0.00280424	0.00263017	0.00229632	0.00452596	0.00117835	0.00107331	0.00456410	0.00219473	0.00359517	0.00451687	0.00882925	0.00590683	0.00339327	0.00129209	0.00081471	0.00007167
2.68000000	0.00294552	0.00710778	0.00325333	0.00236271	0.00275946	0.00437014	0.00573334	0.00593951	0.00236486	0.00248207	0.00145000	0.00291545	0.00263724	0.00261142	0.00452214	0.00094080	0.00147007	0.00414385	0.00218858	0.00356354	0.00465678	0.00858664	0.00607615	0.00324618	0.00139478	0.00135019	0.00044391
2.69000000	0.00358872	0.00678953	0.00317148	0.00229360	0.00268928	0.00444275	0.00531842	0.00611412	0.00250869	0.00276709	0.00109262	0.00304621	0.00262556	0.00254022	0.00478591	0.00115112	0.00108439	0.00418383	0.00255712	0.00352693	0.00467458	0.00811025	0.00573271	0.00283836	0.00158415	0.00084639	0.00004911
2.70000000	0.00374279	0.00669142	0.00328978	0.00245782	0.00282844	0.00440374	0.00523151	0.00605195	0.00249395	0.00266677	0.00107470	0.00303295	0.00266679	0.00262436	0.00493561	0.00113745	0.00108196	0.00392755	0.00268857	0.00347628	0.00476313	0.00761197	0.00561748	0.00254205	0.00169965	0.00090295	0.00011315
2.71000000	0.00401943	0.00649450	0.00337258	0.00263924	0.00295641	0.00432872	0.00514292	0.00593231	0.00250051	0.00257445	0.00116678	0.00305110	0.00273807	0.00269246	0.00499267	0.00108174	0.00104362	0.00365653	0.00277025	0.00341882	0.00484722	0.00703810	0.00547690	0.00224953	0.00177426	0.00103205	0.00005764
2.72000000	0.00426206	0.00674187	0.00360466	0.00283961	0.00317397	0.00417759	0.00513536	0.00569928	0.00245090	0.00220667	0.00170474	0.00294949	0.00234707	0.00253250	0.00502514	0.00112384	0.00109719	0.00313337	0.00261816	0.00330281	0.00495139	0.00656626	0.00545222	0.00209011	0.00183631	0.00132247	0.00017579
2.73000000	0.00465066	0.00604178	0.00340290	0.00297435	0.00314262	0.00407638	0.00473878	0.00566475	0.00249025	0.00235227	0.00131875	0.00315142	0.00303781	0.00244971	0.00498195	0.00091482	0.00074509	0.00309212	0.00288272	0.00327257	0.00498281	0.00596267	0.00520634	0.00195179	0.00185113	0.00151966	0.00033365
2.74000000	0.00494111	0.00612175	0.00338413	0.00311865	0.00321275	0.00382197	0.00452911	0.00556064	0.00235508	0.00219573	0.00110546	0.00275061	0.00280961	0.00232056	0.00496733	0.00096341	0.00083106	0.00266296	0.00283526	0.00313405	0.00501560	0.00582601	0.00502790	0.00200844	0.00180967	0.00191842	0.00014894
2.75000000	0.00470817	0.00612619	0.00330172	0.00333697	0.00328195	0.00370304	0.00445907	0.00512023	0.00240185	0.00172457	0.00172163	0.00283490	0.00248257	0.00179381	0.00505949	0.00159874	0.00178325	0.00222891	0.00263903	0.00302502	0.00509579	0.00596228	0.00503594	0.00229338	0.00189829	0.00243152	0.00037937
2.76000000	0.00446406	0.00514122	0.00275213	0.00339218	0.00302583	0.00364062	0.00385553	0.00496571	0.00233339	0.00180005	0.00120352	0.00299115	0.00346598	0.00178121	0.00497076	0.00133311	0.00049243	0.00212512	0.00294894	0.00298174	0.00509639	0.00596155	0.00489465	0.00233106	0.00172780	0.00277949	0.00010764
2.77000000	0.00364266	0.00499953	0.00259250	0.00349917	0.00293308	0.00349245	0.00376357	0.00448700	0.00234085	0.00136796	0.00178472	0.00312928	0.00335231	0.00125003	0.00507806	0.00202461	0.00158809	0.00182220	0.00280596	0.00288481	0.00514075	0.00629547	0.00488738	0.00267596	0.00183262	0.00324636	0.00041653
2.78000000	0.00309438	0.00449968	0.00272894	0.00339397	0.00278552	0.00332708	0.00303707	0.00443494	0.00219814	0.00139108	0.00108744	0.00324666	0.00410578	0.00099638	0.00501437	0.00199236	0.00073661	0.00164117	0.00307902	0.00282086	0.00505075	0.00644885	0.00466660	0.00289988	0.00158301	0.00359789	0.00010706
2.79000000	0.00195724	0.00427045	0.00327509	0.00338049	0.00285894	0.00324247	0.00304375	0.00390650	0.00221372	0.00092002	0.00158468	0.00352916	0.00420107	0.00063422	0.00518453	0.00271714	0.00148223	0.00149296	0.00300128	0.00278705	0.00506143	0.00671002	0.00464124	0.00323165	0.00165103	0.00397864	0.00046795
2.80000000	0.00161275	0.00424059	0.00445734	0.00332390	0.00337568	0.00307057	0.00278043	0.00387827	0.00202124	0.00089917	0.00108151	0.00370547	0.00471749	0.00056389	0.00520707	0.00287299	0.00142231	0.00132724	0.00337241	0.00259729	0.00488881	0.00688219	0.00424805	0.00344688	0.00143894	0.00424744	0.00054053
2.81000000	0.00184820	0.00391360	0.00517566	0.00342887	0.00380297	0.00305791	0.00283258	0.00341500	0.00198846	0.00043872	0.00152472	0.00414442	0.00504352	0.00045363	0.00552962	0.00353129	0.00202910	0.00144509	0.00320746	0.00277720	0.00492711	0.00707876	0.00432044	0.00371426	0.00166697	0.00448381	0.00080824
2.82000000	0.00283126	0.00370054	0.00585242	0.00369008	0.00436533	0.00309133	0.00287461	0.00310713	0.00192066	0.00024660	0.00172947	0.00456791	0.00555241	0.00046430	0.00580207	0.00392117	0.00239568	0.00156669	0.00326602	0.00280205	0.00491978	0.00728883	0.00426940	0.00379561	0.00188177	0.00475079	0.00098728
2.83000000	0.00379333	0.00359239	0.00628803	0.00416099	0.00492609	0.00317830	0.00291679	0.00291415	0.00185075	0.00028510	0.00171604	0.00496058	0.00612832	0.00044490	0.00606933	0.00415019	0.00260302	0.00174617	0.00340602	0.00273681	0.00486425	0.00754271	0.00413885	0.00377878	0.00198541	0.00498987	0.00119651
2.84000000	0.00442253	0.00359709	0.00650394	0.00484829	0.00547553	0.00332185	0.00281207	0.00290714	0.00171929	0.00041375	0.00140518	0.00525590	0.00667722	0.00035638	0.00631724	0.00418209	0.00257694	0.00192323	0.00364425	0.00247810	0.00472357	0.00793347	0.00383345	0.00376713	0.00184407	0.00507086	0.00134617
2.85000000	0.00499117	0.00324744	0.00625823	0.00524091	0.00563951	0.00308952	0.00106877	0.00297421	0.00195429	0.00047174	0.00114754	0.00564166	0.00726751	0.00031864	0.00659910	0.00426926	0.00170159	0.00215724	0.00346342	0.00244309	0.00451109	0.00835182	0.00363092	0.00430766	0.00088268	0.00475720	0.00031432
2.86000000	0.00529899	0.00335923	0.00550170	0.00573265	0.00554410	0.00326991	0.00151021	0.00278208	0.00181076	0.00047906	0.00128028	0.00591867	0.00772679	0.00038705	0.00687987	0.00423045	0.00185772	0.00249257	0.00354558	0.00226127	0.00441175	0.00884959	0.00343935	0.00407022	0.00086816	0.00484624	0.00036028
2.87000000	0.00516829	0.00326550	0.00474457	0.00608726	0.00537499	0.00335563	0.00113569	0.00273234	0.00183386	0.00060989	0.00097509	0.00602153	0.00788837	0.00025118	0.00724648	0.00445294	0.00164644	0.00289059	0.00348750	0.00202576	0.00418433	0.00933424	0.00313230	0.00444318	0.00074728	0.00441945	0.00026619
2.88000000	0.00507670	0.00336495	0.00361296	0.00628679	0.00493485	0.00355575	0.00156202	0.00266820	0.00164831	0.00066747	0.00102189	0.00620273	0.00828562	0.00048872	0.00742781	0.00422683	0.00166126	0.00320878	0.00362480	0.00183240	0.00399418	0.00960479	0.00298395	0.00402940	0.00078046	0.00457195	0.00022910
2.89000000	0.00482825	0.00344360	0.00256645	0.00638931	0.00447158	0.00374121	0.00181625	0.00268626	0.00150038	0.00086654	0.00113471	0.00633378	0.00857891	0.00074233	0.00760783	0.00402809	0.00159627	0.00352069	0.00377833	0.00165289	0.00377651	0.00964283	0.00297129	0.00371451	0.00084797	0.00479382	0.00038137
2.90000000	0.00437679	0.00298096	0.00177362	0.00636149	0.00406233	0.00387410	0.00105214	0.00273799	0.00158528	0.00077065	0.00069357	0.00602637	0.00811575	0.00041963	0.00793880	0.00434725	0.00182602	0.00412558	0.00310897	0.00180407	0.00348059	0.00960283	0.00294520	0.00473803	0.00052896	0.00358898	0.00032784
2.91000000	0.00407797	0.00314270	0.00117685	0.00633538	0.00366717	0.00404709	0.00129399	0.00274872	0.00136235	0.00092700	0.00080835	0.00605214	0.00845939	0.00068935	0.00802412	0.00410970	0.00159777	0.00437261	0.00335212	0.00174382	0.00323129	0.00913736	0.00329876	0.00425989	0.00055451	0.00397061	0.00032852
2.92000000	0.00382133	0.00294116	0.00062322	0.00630319	0.00335513	0.00420906	0.00082397	0.00284965	0.00139173	0.00083996	0.00053419	0.00575582	0.00815611	0.00063386	0.00818857	0.00418995	0.00188703	0.00492545	0.00275725	0.00210152	0.00299930	0.00875422	0.00357041	0.00495945	0.00038524	0.00323238	0.00036273
2.93000000	0.00361676	0.00312022	0.00084679	0.00635341	0.00322555	0.00430490	0.00091627	0.00287498	0.00126682	0.00093675	0.00074067	0.00571799	0.00851632	0.00083524	0.00826324	0.00410304	0.00169946	0.00509910	0.00298606	0.00217862	0.00278719	0.00818067	0.00416533	0.00454157	0.00049522	0.00374588	0.00027319
2.94000000	0.00339268	0.00313527	0.00057196	0.00640470	0.00313033	0.00450721	0.00065466	0.00286180	0.00123069	0.00090377	0.00035136	0.00561239	0.00831719	0.00094715	0.00837360	0.00431003	0.00186270	0.00560781	0.00249361	0.00253768	0.00255032	0.00787666	0.00438095	0.00521716	0.00060131	0.00326869	0.00019339
2.95000000	0.00336798	0.00331216	0.00078033	0.00656768	0.00320404	0.00456794	0.00062649	0.00289681	0.00111395	0.00110088	0.00079914	0.00563359	0.00872496	0.00109562	0.00840065	0.00417425	0.00170630	0.00570819	0.00282136	0.00266234	0.00250922	0.00759355	0.00511836	0.00483963	0.00058354	0.00407394	0.00040793
2.96000000	0.00347544	0.00322769	0.00047651	0.00657245	0.00316408	0.00475829	0.00021266	0.00286072	0.00112695	0.00092814	0.00050256	0.00566448	0.00862025	0.00153011	0.00833097	0.00411717	0.00191206	0.00621800	0.00235445	0.00306234	0.00236684	0.00774499	0.00534275	0.00565515	0.00047299	0.00347462	0.00041646
2.97000000	0.00350062	0.00348628	0.00048483	0.00688060	0.00343802	0.00488812	0.00028570	0.00288715	0.00105557	0.00121927	0.00075350	0.00588462	0.00903868	0.00164894	0.00819804	0.00393105	0.00182887	0.00625280	0.00279360	0.00311854	0.00240455	0.00801008	0.00600681	0.00527563	0.00074917	0.00434927	0.00036593
2.98000000	0.00379151	0.00338534	0.00043054	0.00678929	0.00338291	0.00506949	0.00026507	0.00287781	0.00112985	0.00099058	0.00061527	0.00609553	0.00899947	0.00241662	0.00802841	0.00377471	0.00202741	0.00669755	0.00242009	0.00343101	0.00220294	0.00873377	0.00603485	0.00612007	0.00084481	0.00387297	0.00045032
2.99000000	0.00410027	0.00343304	0.00046259	0.00673021	0.00337108	0.00522665	0.00055967	0.00286849	0.00122671	0.00101984	0.00070749	0.00633249	0.00915236	0.00302817	0.00782355	0.00347682	0.00213268	0.00691846	0.00249677	0.00361983	0.00217729	0.00966901	0.00632042	0.00633428	0.00105826	0.00413160	0.00050618
3.00000000	0.00429142	0.00384401	0.00051606	0.00668500	0.00336120	0.00544148	0.00054936	0.00289352	0.00130582	0.00121193	0.00064236	0.00668830	0.00931900	0.00340112	0.00771954	0.00327348	0.00224252	0.00703250	0.00256340	0.00381352	0.00205365	0.01077023	0.00644150	0.00630812	0.00136422	0.00455987	0.00051026
3.01000000	0.00453419	0.00406687	0.00056948	0.00645238	0.00322206	0.00565965	0.00079472	0.00285956	0.00136949	0.00120420	0.00069219	0.00693653	0.00938420	0.00390044	0.00759107	0.00288135	0.00222819	0.00713189	0.00259331	0.00403443	0.00197013	0.01199228	0.00665348	0.00657417	0.00155466	0.00449114	0.00069061
3.02000000	0.00469755	0.00434367	0.00057478	0.00622764	0.00309865	0.00588644	0.00104310	0.00280492	0.00145599	0.00122744	0.00068734	0.00692883	0.00927630	0.00444767	0.00737507	0.00258109	0.00232484	0.00720995	0.00269425	0.00432534	0.00198642	0.01316594	0.00695319	0.00660647	0.00172265	0.00447376	0.00073472
3.03000000	0.00475410	0.00474109	0.00064058	0.00596657	0.00292793	0.00615617	0.00102987	0.00282570	0.00144394	0.00142999	0.00058038	0.00711411	0.00920538	0.00469760	0.00734496	0.00236786	0.00229560	0.00720270	0.00276630	0.00464133	0.00190971	0.01412359	0.00709198	0.00634694	0.00196372	0.00462374	0.00079124
3.04000000	0.00487495	0.00501855	0.00065299	0.00563181	0.00268346	0.00632654	0.00130961	0.00277622	0.00156095	0.00133037	0.00060565	0.00691523	0.00896112	0.00515591	0.00720245	0.00215453	0.00240274	0.00723231	0.00279837	0.00493251	0.00177739	0.01486622	0.00725643	0.00642114	0.00222749	0.00414585	0.00081446
3.05000000	0.00488788	0.00526693	0.00083477	0.00533948	0.00246476	0.00659805	0.00134406	0.00283753	0.00152573	0.00152373	0.00047926	0.00696568	0.00876126	0.00530995	0.00719911	0.00212859	0.00235494	0.00714114	0.00286460	0.00522117	0.00165288	0.01526274	0.00736820	0.00601396	0.00246226	0.00410916	0.00094132
3.06000000	0.00493296	0.00551367	0.00091328	0.00507703	0.00223487	0.00674725	0.00165603	0.00277522	0.00154565	0.00147487	0.00048866	0.00665650	0.00840704	0.00561902	0.00710184	0.00197827	0.00239344	0.00714754	0.00285081	0.00553446	0.00151199	0.01543533	0.00746082	0.00576158	0.00259297	0.00358883	0.00104148
3.07000000	0.00488370	0.00551635	0.00113220	0.00485962	0.00204909	0.00692837	0.00174131	0.00293168	0.00154400	0.00153334	0.00037726	0.00666417	0.00818606	0.00566154	0.00708812	0.00206344	0.00230743	0.00699789	0.00293473	0.00572520	0.00137737	0.01532241	0.00760452	0.00538947	0.00288161	0.00318155	0.00104762
3.08000000	0.00486871	0.00558988	0.00125191	0.00475145	0.00189492	0.00705604	0.00196402	0.00295089	0.00149445	0.00148843	0.00041798	0.00640264	0.00791516	0.00576085	0.00697317	0.00198212	0.00227626	0.00694002	0.00291663	0.00597069	0.00129482	0.01501764	0.00773519	0.00506739	0.00299081	0.00254564	0.00115550
3.09000000	0.00483279	0.00558204	0.00139451	0.00474264	0.00181832	0.00714304	0.00210368	0.00307850	0.00145610	0.00151089	0.00042261	0.00628680	0.00768829	0.00570462	0.00691119	0.00205391	0.00223905	0.00684564	0.00295693	0.00611769	0.00114688	0.01455911	0.00779527	0.00469422	0.00318047	0.00208993	0.00119755
3.10000000	0.00481316	0.00525018	0.00157164	0.00481154	0.00179002	0.00731808	0.00220715	0.00321427	0.00140118	0.00160369	0.00046368	0.00629347	0.00739171	0.00566165	0.00687662	0.00224615	0.00217396	0.00673790	0.00301172	0.00624317	0.00110565	0.01398984	0.00790773	0.00438035	0.00343055	0.00180882	0.00112131
3.11000000	0.00482527	0.00494617	0.00176259	0.00489720	0.00177646	0.00742063	0.00232140	0.00336323	0.00142269	0.00156004	0.00050121	0.00638845	0.00729539	0.00551570	0.00681538	0.00231877	0.00211082	0.00657768	0.00309485	0.00623021	0.00101874	0.01335292	0.00798059	0.00412904	0.00363903	0.00150389	0.00124489
3.12000000	0.00491894	0.00464477	0.00191481	0.00507026	0.00179924	0.00755291	0.00244022	0.00339298	0.00142805	0.00152377	0.00057286	0.00631528	0.00709257	0.00548139	0.00677327	0.00240935	0.00204980	0.00648549	0.00312802	0.00627274	0.00107126	0.01266959	0.00807089	0.00388255	0.00376714	0.00115458	0.00129720
3.13000000	0.00490954	0.00503115	0.00192080	0.00539021	0.00204167	0.00744099	0.00246670	0.00323735	0.00138790	0.00138550	0.00034679	0.00594784	0.00709114	0.00530081	0.00669739	0.00233784	0.00205775	0.00651082	0.00312244	0.00634117	0.00101065	0.01200780	0.00800298	0.00343866	0.00376354	0.00068356	0.00129812
3.14000000	0.00502465	0.00460044	0.00202449	0.00559032	0.00215046	0.00761640	0.00242316	0.00324400	0.00140838	0.00151858	0.00057549	0.00596701	0.00671614	0.00527379	0.00677212	0.00264608	0.00211688	0.00628662	0.00308225	0.00629645	0.00130415	0.01138742	0.00829889	0.00316369	0.00394394	0.00125858	0.00120216
3.15000000	0.00522073	0.00426625	0.00220083	0.00567969	0.00221855	0.00770721	0.00242236	0.00326154	0.00147695	0.00131536	0.00043336	0.00601123	0.00677975	0.00523992	0.00656614	0.00242067	0.00204892	0.00621077	0.00316912	0.00618849	0.00129422	0.01086681	0.00826258	0.00283836	0.00407826	0.00012294	0.00127426
3.16000000	0.00533994	0.00411010	0.00225652	0.00585530	0.00242945	0.00774970	0.00233418	0.00320007	0.00157424	0.00135068	0.00043473	0.00591033	0.00657987	0.00527696	0.00650798	0.00240376	0.00202312	0.00616928	0.00324151	0.00611476	0.00144986	0.01046996	0.00827584	0.00247454	0.00418839	0.00021851	0.00129952
3.17000000	0.00551533	0.00392176	0.00237965	0.00589551	0.00255479	0.00784340	0.00228392	0.00310424	0.00162697	0.00129819	0.00039335	0.00586266	0.00644537	0.00531446	0.00645933	0.00241319	0.00203084	0.00606596	0.00327626	0.00600465	0.00159500	0.01016796	0.00831012	0.00213916	0.00433139	0.00027193	0.00130800
3.18000000	0.00563573	0.00369616	0.00245101	0.00585419	0.00262287	0.00796950	0.00213964	0.00309218	0.00168373	0.00130423	0.00063313	0.00593429	0.00629787	0.00534261	0.00648498	0.00243679	0.00201135	0.00597138	0.00334687	0.00586302	0.00180866	0.00999664	0.00832979	0.00181735	0.00449863	0.00036551	0.00129203
3.19000000	0.00580503	0.00349788	0.00252224	0.00586020	0.00275839	0.00806190	0.00210617	0.00299325	0.00172484	0.00128876	0.00062765	0.00581086	0.00611349	0.00552134	0.00637379	0.00231338	0.00201686	0.00583850	0.00338770	0.00573659	0.00196202	0.00995736	0.00840323	0.00134790	0.00465138	0.00058178	0.00134795
3.20000000	0.00594032	0.00336182	0.00261923	0.00578909	0.00286293	0.00814233	0.00196513	0.00299615	0.00180587	0.00128096	0.00073308	0.00581277	0.00595785	0.00560949	0.00634416	0.00233499	0.00204810	0.00582969	0.00348398	0.00560970	0.00211439	0.00994222	0.00833615	0.00110464	0.00484021	0.00061788	0.00126587
3.21000000	0.00608334	0.00317636	0.00261207	0.00570335	0.00289940	0.00820549	0.00173551	0.00299039	0.00195109	0.00137765	0.00116113	0.00575871	0.00581826	0.00574794	0.00636213	0.00225049	0.00204897	0.00575234	0.00341343	0.00551363	0.00231985	0.00992372	0.00856307	0.00158196	0.00495643	0.00139244	0.00125239
3.22000000	0.00618225	0.00311741	0.00278644	0.00570215	0.00307510	0.00828256	0.00183806	0.00292682	0.00191991	0.00120373	0.00081246	0.00561067	0.00564353	0.00591203	0.00622831	0.00226393	0.00209489	0.00562344	0.00362172	0.00532907	0.00239177	0.01000979	0.00841233	0.00078053	0.00514983	0.00078353	0.00133677
3.23000000	0.00627684	0.00309779	0.00291292	0.00569602	0.00320300	0.00829976	0.00182187	0.00289913	0.00194441	0.00118365	0.00072624	0.00545243	0.00547621	0.00604725	0.00617458	0.00227201	0.00209813	0.00556509	0.00377151	0.00519332	0.00248361	0.00998285	0.00835764	0.00079825	0.00535856	0.00086963	0.00134393
3.24000000	0.00624028	0.00309677	0.00303334	0.00573388	0.00334746	0.00836030	0.00171798	0.00290423	0.00200826	0.00116441	0.00063086	0.00533225	0.00534998	0.00609719	0.00610808	0.00229062	0.00209636	0.00557303	0.00378075	0.00507980	0.00255370	0.00990464	0.00843553	0.00106019	0.00539360	0.00078619	0.00122998
3.25000000	0.00620625	0.00320398	0.00321738	0.00584621	0.00352544	0.00838441	0.00172495	0.00281859	0.00200247	0.00117988	0.00050115	0.00508227	0.00515856	0.00615917	0.00607532	0.00228225	0.00203263	0.00558270	0.00397681	0.00495946	0.00258464	0.00976227	0.00829426	0.00106300	0.00555081	0.00070662	0.00123544
3.26000000	0.00609891	0.00321398	0.00316403	0.00573867	0.00340090	0.00851426	0.00157387	0.00282870	0.00204812	0.00103178	0.00093823	0.00498302	0.00507714	0.00618867	0.00613717	0.00233785	0.00213776	0.00595385	0.00412283	0.00485500	0.00271022	0.00945352	0.00822927	0.00176415	0.00563892	0.00124654	0.00119647
3.27000000	0.00587780	0.00322814	0.00321121	0.00587787	0.00346807	0.00861003	0.00151461	0.00288753	0.00192182	0.00107656	0.00081178	0.00476968	0.00489924	0.00622875	0.00604425	0.00226174	0.00199010	0.00553345	0.00440550	0.00457374	0.00274383	0.00939425	0.00836064	0.00091527	0.00576594	0.00053365	0.00128526
3.28000000	0.00561586	0.00331003	0.00324947	0.00598635	0.00348345	0.00873546	0.00144051	0.00291806	0.00186604	0.00109176	0.00084349	0.00465460	0.00474322	0.00612032	0.00598888	0.00233772	0.00198512	0.00561128	0.00466249	0.00441245	0.00277491	0.00916200	0.00827180	0.00063526	0.00585841	0.00034194	0.00128200
3.29000000	0.00540948	0.00339880	0.00330466	0.00613791	0.00349682	0.00884337	0.00142630	0.00288163	0.00181231	0.00109701	0.00087903	0.00445158	0.00455003	0.00605899	0.00594974	0.00228482	0.00193621	0.00553555	0.00491868	0.00418684	0.00274453	0.00894242	0.00835065	0.00029363	0.00588009	0.00020883	0.00123398
3.30000000	0.00520427	0.00351691	0.00327927	0.00630082	0.00346549	0.00886151	0.00139570	0.00286565	0.00176716	0.00114209	0.00094116	0.00428515	0.00432587	0.00594002	0.00589457	0.00230455	0.00192475	0.00564680	0.00533455	0.00396372	0.00275641	0.00868159	0.00832690	0.00028935	0.00601366	0.00021704	0.00107313
3.31000000	0.00499886	0.00360770	0.00332152	0.00645600	0.00348880	0.00896568	0.00139749	0.00287233	0.00172902	0.00113770	0.00091057	0.00422120	0.00416051	0.00577740	0.00585822	0.00224295	0.00184316	0.00556609	0.00565915	0.00370993	0.00270544	0.00851327	0.00838412	0.00071325	0.00597015	0.00035206	0.00109827
3.32000000	0.00483082	0.00368844	0.00328895	0.00660473	0.00352380	0.00901475	0.00142824	0.00281816	0.00168051	0.00122695	0.00095301	0.00418198	0.00393772	0.00561297	0.00578565	0.00221665	0.00179713	0.00561000	0.00609207	0.00350509	0.00268573	0.00832774	0.00829751	0.00134378	0.00604215	0.00041662	0.00115378
3.33000000	0.00483630	0.00371606	0.00349969	0.00691942	0.00385185	0.00885449	0.00147615	0.00267825	0.00167212	0.00125603	0.00075167	0.00400114	0.00411184	0.00500929	0.00582040	0.00196133	0.00165614	0.00529194	0.00618562	0.00328205	0.00255151	0.00817795	0.00850869	0.00184023	0.00593164	0.00042767	0.00094595
3.34000000	0.00468654	0.00368617	0.00324725	0.00685181	0.00386452	0.00888781	0.00149261	0.00266842	0.00166600	0.00134329	0.00072196	0.00407025	0.00371245	0.00496297	0.00576224	0.00200782	0.00157583	0.00538700	0.00682711	0.00308745	0.00259851	0.00799493	0.00831386	0.00246713	0.00607192	0.00048306	0.00104422
3.35000000	0.00477445	0.00359487	0.00311102	0.00674053	0.00398302	0.00885937	0.00152873	0.00260904	0.00168521	0.00132709	0.00077108	0.00392705	0.00342799	0.00487454	0.00564221	0.00199724	0.00162044	0.00520960	0.00719231	0.00295437	0.00256225	0.00776300	0.00844995	0.00304348	0.00606874	0.00015130	0.00102242
3.36000000	0.00480976	0.00353835	0.00299646	0.00645912	0.00411650	0.00879555	0.00152015	0.00256155	0.00174767	0.00135104	0.00060224	0.00394327	0.00321747	0.00463863	0.00558325	0.00204611	0.00152509	0.00519815	0.00774629	0.00287577	0.00263014	0.00743813	0.00829393	0.00357777	0.00615342	0.00042061	0.00098011
3.37000000	0.00489814	0.00343493	0.00309859	0.00607089	0.00428555	0.00863863	0.00154534	0.00248061	0.00177886	0.00137081	0.00058026	0.00378066	0.00294911	0.00444992	0.00553198	0.00204672	0.00146432	0.00496501	0.00816188	0.00282158	0.00268563	0.00705294	0.00831938	0.00419684	0.00622996	0.00079072	0.00090105
3.38000000	0.00504358	0.00322234	0.00354998	0.00557859	0.00447656	0.00847423	0.00156201	0.00241196	0.00185881	0.00126577	0.00055628	0.00355552	0.00283876	0.00415446	0.00554334	0.00196750	0.00133508	0.00465033	0.00851427	0.00279305	0.00277682	0.00660499	0.00832408	0.00476134	0.00625695	0.00154438	0.00093074
3.39000000	0.00516950	0.00293010	0.00438728	0.00502845	0.00470975	0.00825344	0.00160731	0.00240792	0.00192153	0.00107025	0.00064918	0.00335769	0.00299178	0.00355919	0.00569151	0.00184707	0.00116287	0.00432530	0.00868970	0.00286514	0.00295614	0.00612899	0.00834203	0.00532695	0.00619731	0.00217997	0.00076343
3.40000000	0.00532306	0.00281390	0.00521990	0.00441709	0.00482400	0.00808206	0.00171343	0.00247757	0.00201191	0.00105960	0.00050454	0.00316699	0.00279513	0.00320106	0.00578846	0.00187804	0.00105854	0.00406744	0.00897472	0.00298494	0.00308619	0.00556406	0.00822824	0.00596031	0.00613290	0.00289687	0.00073970
3.41000000	0.00537482	0.00281755	0.00605193	0.00400689	0.00494389	0.00790953	0.00207307	0.00258426	0.00216393	0.00133121	0.00027400	0.00291872	0.00229306	0.00302264	0.00579575	0.00206879	0.00096382	0.00391435	0.00934490	0.00317148	0.00311253	0.00495894	0.00784731	0.00666502	0.00604370	0.00358294	0.00080142
3.42000000	0.00545303	0.00277579	0.00680900	0.00361449	0.00497385	0.00769441	0.00255794	0.00279657	0.00227088	0.00147944	0.00014962	0.00255917	0.00201831	0.00281205	0.00590603	0.00213155	0.00095427	0.00367210	0.00945245	0.00335375	0.00323591	0.00448769	0.00764547	0.00717579	0.00589201	0.00434784	0.00079513
3.43000000	0.00556560	0.00270160	0.00744352	0.00330116	0.00495713	0.00746500	0.00272255	0.00344583	0.00251404	0.00162002	0.00028109	0.00226066	0.00215816	0.00236026	0.00609690	0.00218949	0.00092011	0.00337426	0.00928879	0.00355222	0.00342182	0.00425681	0.00755074	0.00756364	0.00557595	0.00484954	0.00081260
3.44000000	0.00562364	0.00296917	0.00770734	0.00328751	0.00482640	0.00722900	0.00356282	0.00396019	0.00268002	0.00196134	0.00031245	0.00197301	0.00190273	0.00226016	0.00616112	0.00233892	0.00092213	0.00315110	0.00918354	0.00372600	0.00342073	0.00398873	0.00730169	0.00800492	0.00522264	0.00515627	0.00057903
3.45000000	0.00567656	0.00316253	0.00778355	0.00329315	0.00463480	0.00689359	0.00441110	0.00466978	0.00288569	0.00229188	0.00057323	0.00161006	0.00164731	0.00225936	0.00620337	0.00248620	0.00097105	0.00293122	0.00895950	0.00387480	0.00340032	0.00383751	0.00703532	0.00833316	0.00483267	0.00542846	0.00053568
3.46000000	0.00543749	0.00360977	0.00760680	0.00356210	0.00443214	0.00644211	0.00570424	0.00528756	0.00316815	0.00281969	0.00141873	0.00157369	0.00096988	0.00251435	0.00597952	0.00251818	0.00080303	0.00283887	0.00888201	0.00398309	0.00307812	0.00353115	0.00657892	0.00888091	0.00439156	0.00547938	0.00048167
3.47000000	0.00590173	0.00357509	0.00741544	0.00331697	0.00404961	0.00605348	0.00606912	0.00646026	0.00333732	0.00288287	0.00094512	0.00142529	0.00115534	0.00263542	0.00612736	0.00270040	0.00089649	0.00257329	0.00833216	0.00416697	0.00318546	0.00376297	0.00637874	0.00865233	0.00377771	0.00560003	0.00045569
3.48000000	0.00567860	0.00375126	0.00712928	0.00336535	0.00379159	0.00567345	0.00728898	0.00710564	0.00358841	0.00312445	0.00117239	0.00205085	0.00104904	0.00323294	0.00578488	0.00249522	0.00103336	0.00240651	0.00804301	0.00427802	0.00302724	0.00370266	0.00601100	0.00865413	0.00321835	0.00553222	0.00022974
3.49000000	0.00574658	0.00388069	0.00683713	0.00321190	0.00342570	0.00524554	0.00812867	0.00788455	0.00392358	0.00328340	0.00117341	0.00281251	0.00123213	0.00377568	0.00548033	0.00235689	0.00096795	0.00226835	0.00767747	0.00434376	0.00285145	0.00367383	0.00565188	0.00863445	0.00262286	0.00537241	0.00015144
3.50000000	0.00562363	0.00417643	0.00654306	0.00328073	0.00313739	0.00499249	0.00928828	0.00842035	0.00405267	0.00319784	0.00130314	0.00363178	0.00183742	0.00449846	0.00500945	0.00202646	0.00107472	0.00229445	0.00742844	0.00435459	0.00255956	0.00373938	0.00515569	0.00841345	0.00190190	0.00517884	0.00012663
3.51000000	0.00573691	0.00428980	0.00643736	0.00313684	0.00283872	0.00503032	0.01017133	0.00875645	0.00425273	0.00294670	0.00112145	0.00421044	0.00243975	0.00531015	0.00455237	0.00172072	0.00118180	0.00237706	0.00711136	0.00439787	0.00244211	0.00396732	0.00481663	0.00823576	0.00123430	0.00477243	0.00023870
3.52000000	0.00628566	0.00451217	0.00635054	0.00313988	0.00245725	0.00498270	0.01082354	0.00920080	0.00432065	0.00259442	0.00092203	0.00449426	0.00317624	0.00600644	0.00422946	0.00176660	0.00101716	0.00273631	0.00689878	0.00436169	0.00227917	0.00440870	0.00444556	0.00792719	0.00051772	0.00448281	0.00041727
3.53000000	0.00604472	0.00464111	0.00645343	0.00316533	0.00235164	0.00571880	0.01196428	0.00901431	0.00424489	0.00240253	0.00090676	0.00510245	0.00412686	0.00697757	0.00355148	0.00115741	0.00123663	0.00333768	0.00686705	0.00426850	0.00214910	0.00500012	0.00412371	0.00750239	0.00050919	0.00419840	0.00026653
3.54000000	0.00651822	0.00493135	0.00663095	0.00348602	0.00220824	0.00659161	0.01259899	0.00888165	0.00418221	0.00232088	0.00118463	0.00522660	0.00490295	0.00766918	0.00326809	0.00141324	0.00120466	0.00400319	0.00683604	0.00422387	0.00215081	0.00572171	0.00402842	0.00707754	0.00095147	0.00381560	0.00052029
3.55000000	0.00642514	0.00516509	0.00685268	0.00370009	0.00215699	0.00780010	0.01351761	0.00841614	0.00398878	0.00251984	0.00144334	0.00547750	0.00568755	0.00853918	0.00288456	0.00168545	0.00136979	0.00477221	0.00690374	0.00417153	0.00221275	0.00637019	0.00416755	0.00658468	0.00155581	0.00345497	0.00055675
3.56000000	0.00636959	0.00549266	0.00710779	0.00395105	0.00216801	0.00902304	0.01421545	0.00794201	0.00378854	0.00283826	0.00174538	0.00565306	0.00645587	0.00931416	0.00273934	0.00217789	0.00151080	0.00564116	0.00705905	0.00407057	0.00224991	0.00694914	0.00442536	0.00603228	0.00218665	0.00312683	0.00056308
3.57000000	0.00523602	0.00593256	0.00733535	0.00407357	0.00204426	0.01039109	0.01513200	0.00748406	0.00343378	0.00292590	0.00218475	0.00580519	0.00812454	0.00995455	0.00301322	0.00234489	0.00189037	0.00655450	0.00699724	0.00384046	0.00230879	0.00731158	0.00488178	0.00569150	0.00248231	0.00277812	0.00087956
3.58000000	0.00528296	0.00614363	0.00759289	0.00406097	0.00223769	0.01129776	0.01558067	0.00717422	0.00317809	0.00310909	0.00200164	0.00605841	0.00843905	0.01063430	0.00321093	0.00301164	0.00189930	0.00717780	0.00714120	0.00393981	0.00257861	0.00752974	0.00547879	0.00491943	0.00298260	0.00255832	0.00075018
3.59000000	0.00590276	0.00631067	0.00773422	0.00443275	0.00237225	0.01226999	0.01558014	0.00730809	0.00302129	0.00341159	0.00179451	0.00603274	0.00881352	0.01111573	0.00350838	0.00330103	0.00222436	0.00779009	0.00717705	0.00392730	0.00279158	0.00747190	0.00600860	0.00426146	0.00332238	0.00231927	0.00069770
3.60000000	0.00461231	0.00642504	0.00781908	0.00408953	0.00235599	0.01313634	0.01580137	0.00765580	0.00284502	0.00376519	0.00188017	0.00647938	0.01006121	0.01162610	0.00408347	0.00340735	0.00295576	0.00847351	0.00672689	0.00383791	0.00297793	0.00733389	0.00656785	0.00368240	0.00328386	0.00229024	0.00091508
3.61000000	0.00500517	0.00659472	0.00782832	0.00426579	0.00256664	0.01349719	0.01587742	0.00791586	0.00269390	0.00342223	0.00150295	0.00654603	0.01029102	0.01191509	0.00426812	0.00368928	0.00272251	0.00880537	0.00672765	0.00400302	0.00318578	0.00708232	0.00714478	0.00295581	0.00355175	0.00185095	0.00078823
3.62000000	0.00440880	0.00667040	0.00781589	0.00406865	0.00265098	0.01385686	0.01581617	0.00863607	0.00255252	0.00354354	0.00127307	0.00687412	0.01061717	0.01225166	0.00456496	0.00377218	0.00293422	0.00905838	0.00641275	0.00412267	0.00335519	0.00672725	0.00764979	0.00237273	0.00355340	0.00158253	0.00085524
3.63000000	0.00386952	0.00677730	0.00791818	0.00385249	0.00282702	0.01403738	0.01550033	0.00960086	0.00252097	0.00395720	0.00090170	0.00725690	0.01084356	0.01240734	0.00478605	0.00359147	0.00299669	0.00919185	0.00597064	0.00423460	0.00351457	0.00641403	0.00807353	0.00178894	0.00349160	0.00150680	0.00095811
3.64000000	0.00345962	0.00668537	0.00810019	0.00392948	0.00307214	0.01408302	0.01517765	0.01054345	0.00249798	0.00413523	0.00119583	0.00752893	0.01070985	0.01255917	0.00482726	0.00387407	0.00310007	0.00911163	0.00549876	0.00433679	0.00365914	0.00606129	0.00841595	0.00130290	0.00332680	0.00147893	0.00089048
3.65000000	0.00306443	0.00672791	0.00830547	0.00393060	0.00321863	0.01409524	0.01464909	0.01159895	0.00249592	0.00456214	0.00080007	0.00779349	0.01057374	0.01262164	0.00484989	0.00365532	0.00317798	0.00893615	0.00500331	0.00447911	0.00370171	0.00580936	0.00858065	0.00132610	0.00320578	0.00111349	0.00097809
3.66000000	0.00260047	0.00680716	0.00867331	0.00417665	0.00346439	0.01388737	0.01402842	0.01260189	0.00242941	0.00470941	0.00113332	0.00798644	0.01026792	0.01258798	0.00480639	0.00381237	0.00303641	0.00854558	0.00449727	0.00463425	0.00380606	0.00568169	0.00876266	0.00132088	0.00308113	0.00100741	0.00111234
3.67000000	0.00179536	0.00682273	0.00941196	0.00400273	0.00387728	0.01379573	0.01334640	0.01300793	0.00237300	0.00462865	0.00115433	0.00812067	0.01021550	0.01269554	0.00489897	0.00363887	0.00311860	0.00816974	0.00392403	0.00479804	0.00373284	0.00550816	0.00865823	0.00125908	0.00285694	0.00102656	0.00092756
3.68000000	0.00181065	0.00690829	0.00984233	0.00445485	0.00403961	0.01365024	0.01242617	0.01375599	0.00229096	0.00460328	0.00100358	0.00825432	0.00989969	0.01251924	0.00483748	0.00345719	0.00317723	0.00755688	0.00356141	0.00503419	0.00372724	0.00538641	0.00861018	0.00138004	0.00276918	0.00089753	0.00091079
3.69000000	0.00082059	0.00701347	0.01043511	0.00439199	0.00424878	0.01337879	0.01161251	0.01373975	0.00213926	0.00414499	0.00100045	0.00835913	0.00979921	0.01258097	0.00486128	0.00336257	0.00320447	0.00698939	0.00317195	0.00538400	0.00365344	0.00530461	0.00852373	0.00135529	0.00253835	0.00087291	0.00087417
3.70000000	0.00103716	0.00706207	0.01080464	0.00491856	0.00438601	0.01314379	0.01050112	0.01385875	0.00209976	0.00382493	0.00125712	0.00838727	0.00958431	0.01242276	0.00480886	0.00330119	0.00313831	0.00639513	0.00282429	0.00567781	0.00361156	0.00516044	0.00837433	0.00137016	0.00243846	0.00082163	0.00087722
