SUBJ24_1_JMP_07_upper_limb_body_marker_personalization_task_1_initialErrors.sto
version=1
nRows=289
nColumns=26
inDegrees=no
endheader
time	R_Asis	L_Asis	Sacral	R_Thigh_Lateral	R_Knee_Lateral	R_Shank_Lateral	R_Ankle_Lateral	R_Heel	R_Toe	L_Thigh_Lateral	L_Knee_Lateral	L_Shank_Lateral	L_Ankle_Lateral	L_Heel	L_Toe	R_Shoulder	L_Shoulder	C7	J_Notch	Thoracic	Sternum	R_Elbow	L_Elbow	R_Wrist	L_Wrist
0.00000000	0.00584729	0.00350468	0.00135187	0.00727305	0.00719532	0.00497794	0.00393258	0.00265796	0.00393075	0.00163984	0.00285660	0.00255127	0.00347060	0.00320247	0.00176054	0.00131357	0.00382307	0.00239735	0.00204407	0.00668644	0.00690298	0.00155508	0.00172461	0.00221619	0.00334778
0.01000000	0.00587829	0.00335130	0.00161088	0.00569369	0.00808042	0.00386737	0.00421549	0.00313307	0.00391692	0.00168008	0.00302520	0.00256801	0.00361599	0.00262146	0.00197762	0.00183285	0.00326088	0.00269711	0.00145439	0.00680822	0.00497503	0.00174987	0.00119313	0.00235145	0.00272245
0.02000000	0.00594096	0.00380265	0.00149316	0.00449300	0.00890216	0.00206658	0.00461284	0.00315752	0.00333615	0.00153197	0.00329886	0.00247307	0.00377478	0.00222128	0.00208466	0.00206860	0.00294844	0.00261631	0.00128976	0.00666748	0.00381974	0.00161036	0.00084520	0.00231186	0.00236857
0.03000000	0.00573348	0.00376932	0.00162386	0.00390136	0.00966457	0.00263635	0.00492270	0.00306598	0.00247222	0.00129125	0.00346256	0.00234618	0.00362165	0.00207974	0.00191957	0.00263109	0.00263497	0.00261647	0.00111428	0.00665582	0.00392772	0.00179084	0.00052442	0.00230142	0.00201136
0.04000000	0.00567896	0.00370737	0.00202098	0.00401303	0.01035110	0.00445154	0.00522169	0.00291227	0.00156340	0.00116824	0.00340339	0.00229874	0.00346038	0.00178314	0.00204559	0.00303949	0.00233113	0.00265865	0.00105206	0.00669907	0.00442139	0.00189826	0.00032058	0.00221898	0.00166350
0.05000000	0.00535104	0.00367058	0.00232175	0.00512022	0.01087498	0.00661390	0.00551301	0.00272706	0.00097346	0.00120414	0.00318065	0.00237237	0.00333526	0.00159085	0.00197635	0.00338925	0.00228418	0.00257438	0.00102329	0.00672981	0.00475784	0.00190267	0.00039152	0.00228574	0.00153985
0.06000000	0.00515700	0.00372401	0.00261108	0.00610959	0.01144140	0.00879707	0.00573388	0.00268602	0.00106017	0.00144432	0.00286035	0.00236052	0.00303855	0.00159344	0.00168332	0.00343003	0.00234110	0.00241241	0.00109388	0.00662666	0.00464390	0.00198135	0.00028589	0.00203431	0.00155464
0.07000000	0.00530911	0.00369655	0.00314098	0.00754003	0.01220752	0.01002550	0.00586015	0.00328898	0.00181708	0.00174327	0.00237148	0.00238177	0.00267940	0.00175720	0.00146864	0.00330580	0.00225646	0.00234898	0.00117738	0.00645655	0.00422812	0.00215219	0.00045961	0.00182680	0.00158217
0.08000000	0.00501867	0.00345971	0.00315943	0.00747288	0.01212875	0.01256347	0.00623910	0.00362474	0.00195397	0.00187086	0.00203655	0.00257719	0.00266793	0.00148489	0.00149725	0.00325234	0.00273532	0.00215364	0.00116712	0.00639641	0.00352318	0.00187743	0.00067854	0.00161362	0.00192392
0.09000000	0.00540544	0.00328254	0.00365854	0.00840705	0.01265876	0.01353741	0.00634557	0.00419502	0.00243219	0.00203623	0.00161981	0.00276186	0.00244899	0.00152577	0.00143819	0.00300871	0.00279235	0.00208513	0.00122039	0.00611689	0.00330241	0.00184838	0.00098584	0.00135655	0.00214646
0.10000000	0.00517621	0.00301135	0.00350052	0.00796694	0.01245340	0.01535118	0.00671824	0.00474296	0.00241483	0.00204066	0.00150990	0.00279401	0.00241406	0.00136679	0.00140065	0.00292254	0.00318966	0.00193263	0.00123837	0.00589648	0.00360261	0.00162754	0.00131307	0.00111300	0.00249564
0.11000000	0.00520481	0.00276111	0.00357178	0.00803550	0.01254847	0.01609730	0.00680743	0.00533195	0.00271675	0.00207336	0.00144513	0.00291911	0.00232441	0.00125993	0.00147245	0.00276483	0.00325863	0.00188364	0.00130102	0.00557036	0.00435614	0.00144207	0.00145398	0.00094494	0.00272555
0.12000000	0.00530351	0.00238481	0.00377835	0.00846181	0.01274884	0.01611428	0.00691132	0.00564279	0.00307981	0.00222320	0.00159405	0.00306382	0.00221321	0.00107905	0.00144636	0.00255621	0.00311407	0.00182916	0.00132931	0.00512905	0.00515196	0.00134261	0.00158870	0.00073210	0.00278669
0.13000000	0.00512271	0.00199514	0.00382437	0.00853319	0.01285025	0.01593062	0.00696471	0.00583522	0.00331763	0.00256183	0.00178515	0.00324172	0.00211954	0.00092547	0.00143903	0.00230965	0.00295925	0.00172853	0.00137698	0.00466937	0.00594921	0.00116401	0.00163269	0.00053742	0.00279006
0.14000000	0.00478546	0.00145548	0.00374090	0.00848806	0.01297696	0.01549173	0.00698703	0.00590341	0.00336099	0.00310005	0.00198371	0.00343589	0.00200634	0.00082375	0.00123434	0.00205470	0.00281729	0.00155330	0.00152197	0.00420941	0.00681585	0.00094497	0.00165514	0.00037039	0.00266569
0.15000000	0.00447194	0.00178985	0.00358611	0.00762243	0.01260309	0.01533602	0.00689589	0.00594613	0.00324715	0.00367880	0.00186942	0.00377838	0.00196981	0.00067215	0.00136085	0.00189339	0.00251171	0.00145156	0.00152906	0.00365185	0.00779161	0.00078514	0.00140013	0.00026874	0.00227034
0.16000000	0.00419882	0.00140482	0.00348672	0.00781877	0.01283934	0.01458567	0.00695266	0.00565764	0.00287867	0.00443297	0.00244325	0.00398549	0.00177707	0.00094230	0.00058224	0.00161738	0.00226765	0.00119636	0.00178481	0.00317942	0.00818829	0.00055520	0.00158882	0.00008936	0.00185149
0.17000000	0.00405616	0.00173860	0.00343972	0.00740022	0.01273139	0.01407613	0.00671567	0.00553458	0.00295954	0.00506675	0.00199467	0.00439795	0.00164230	0.00076361	0.00099344	0.00141527	0.00176543	0.00108300	0.00173598	0.00258695	0.00820497	0.00035670	0.00098272	0.00008106	0.00127663
0.18000000	0.00383672	0.00170986	0.00315105	0.00748615	0.01281746	0.01338135	0.00667581	0.00541326	0.00287331	0.00580016	0.00232667	0.00467721	0.00144109	0.00093989	0.00054653	0.00126083	0.00142511	0.00099814	0.00187114	0.00221418	0.00727003	0.00012715	0.00086389	0.00026831	0.00070851
0.19000000	0.00389663	0.00204398	0.00307323	0.00733371	0.01277368	0.01268691	0.00648224	0.00516673	0.00260359	0.00650107	0.00203382	0.00545693	0.00139017	0.00111469	0.00069273	0.00120331	0.00133026	0.00114231	0.00166851	0.00208329	0.00583028	0.00013110	0.00036582	0.00024018	0.00014026
0.20000000	0.00379890	0.00221638	0.00285399	0.00750402	0.01273646	0.01201146	0.00639598	0.00498779	0.00243744	0.00722124	0.00212971	0.00605469	0.00130011	0.00138516	0.00054094	0.00115882	0.00170949	0.00127570	0.00160277	0.00228191	0.00388050	0.00009016	0.00040389	0.00027429	0.00051609
0.21000000	0.00377216	0.00246043	0.00256611	0.00776526	0.01254552	0.01154283	0.00626213	0.00485399	0.00234706	0.00793970	0.00232593	0.00657754	0.00120168	0.00160712	0.00042420	0.00104961	0.00229533	0.00151340	0.00160367	0.00266252	0.00198020	0.00014832	0.00079561	0.00031309	0.00098512
0.22000000	0.00367218	0.00274443	0.00226797	0.00805964	0.01224158	0.01128373	0.00608299	0.00489018	0.00242004	0.00863232	0.00258482	0.00702923	0.00110664	0.00179766	0.00039357	0.00104101	0.00289461	0.00165975	0.00168542	0.00313832	0.00125662	0.00021790	0.00116847	0.00040094	0.00137962
0.23000000	0.00490293	0.00343097	0.00185709	0.00880322	0.01133619	0.01142573	0.00609936	0.00474727	0.00198784	0.00930947	0.00383166	0.00695528	0.00121633	0.00245986	0.00081836	0.00139878	0.00321902	0.00195190	0.00192438	0.00378243	0.00224159	0.00057921	0.00093657	0.00079438	0.00192117
0.24000000	0.00338751	0.00353508	0.00190399	0.00889851	0.01113847	0.01119689	0.00565253	0.00494055	0.00213780	0.00990788	0.00310103	0.00817960	0.00120346	0.00225634	0.00038942	0.00131020	0.00384339	0.00191873	0.00183584	0.00388768	0.00304053	0.00040631	0.00166563	0.00045255	0.00206688
0.25000000	0.00321936	0.00372751	0.00179338	0.00939689	0.01039404	0.01133903	0.00531799	0.00510514	0.00201749	0.01051450	0.00356900	0.00862707	0.00122310	0.00242751	0.00046039	0.00157797	0.00411278	0.00200750	0.00193010	0.00417756	0.00348101	0.00054647	0.00181074	0.00056294	0.00226645
0.26000000	0.00303756	0.00381813	0.00169253	0.00988251	0.00956631	0.01145440	0.00491692	0.00517478	0.00174815	0.01094425	0.00385065	0.00926794	0.00134065	0.00257990	0.00053265	0.00180140	0.00434302	0.00201376	0.00196126	0.00430362	0.00356303	0.00068019	0.00190019	0.00063281	0.00250914
0.27000000	0.00305495	0.00372576	0.00168535	0.01034161	0.00865198	0.01132367	0.00440035	0.00510655	0.00148473	0.01116003	0.00411370	0.00997996	0.00146692	0.00286880	0.00079562	0.00217627	0.00447391	0.00204960	0.00194682	0.00440938	0.00345358	0.00076483	0.00195984	0.00075573	0.00262813
0.28000000	0.00302341	0.00350436	0.00157204	0.01046198	0.00779019	0.01105139	0.00372788	0.00506274	0.00139739	0.01140478	0.00452299	0.01039242	0.00156942	0.00297164	0.00088054	0.00245328	0.00450186	0.00203643	0.00197375	0.00434389	0.00358152	0.00090152	0.00200583	0.00085333	0.00272073
0.29000000	0.00284399	0.00317466	0.00142628	0.01012028	0.00713940	0.01039742	0.00298074	0.00493418	0.00139620	0.01150706	0.00484124	0.01071924	0.00161844	0.00304409	0.00090059	0.00273878	0.00447704	0.00203855	0.00200688	0.00419630	0.00392460	0.00106588	0.00199281	0.00093941	0.00280231
0.30000000	0.00255100	0.00319868	0.00171447	0.00895796	0.00639510	0.01021498	0.00225288	0.00512499	0.00204080	0.01153129	0.00519102	0.01047516	0.00170719	0.00303780	0.00093338	0.00295318	0.00405248	0.00210403	0.00233352	0.00396496	0.00477729	0.00139042	0.00207990	0.00137309	0.00271362
0.31000000	0.00220077	0.00262690	0.00160282	0.00821765	0.00579005	0.00733821	0.00119360	0.00392541	0.00120066	0.01154738	0.00532558	0.01092290	0.00161210	0.00310193	0.00107732	0.00310272	0.00448761	0.00216418	0.00221806	0.00388645	0.00510380	0.00126455	0.00203126	0.00115866	0.00290891
0.32000000	0.00233604	0.00249180	0.00241476	0.00607503	0.00555471	0.00625691	0.00067183	0.00380552	0.00184959	0.01156316	0.00567238	0.01047679	0.00166363	0.00296178	0.00101852	0.00319254	0.00420013	0.00235078	0.00249776	0.00363178	0.00565871	0.00149727	0.00197786	0.00146027	0.00287154
0.33000000	0.00215674	0.00219344	0.00235264	0.00488593	0.00515598	0.00368904	0.00050646	0.00241869	0.00090197	0.01143349	0.00577934	0.01067626	0.00151557	0.00304019	0.00113590	0.00319265	0.00451330	0.00241137	0.00253579	0.00359702	0.00593212	0.00139945	0.00201334	0.00139400	0.00297971
0.34000000	0.00374273	0.00218144	0.00321214	0.00487002	0.00508025	0.00387264	0.00074549	0.00228607	0.00141021	0.01147051	0.00591824	0.01034482	0.00162173	0.00283125	0.00106210	0.00315150	0.00440026	0.00257296	0.00260361	0.00332989	0.00587662	0.00144304	0.00198885	0.00151772	0.00300507
0.35000000	0.00361780	0.00206606	0.00297500	0.00586305	0.00518768	0.00497105	0.00129780	0.00180897	0.00075431	0.01142905	0.00610198	0.01041120	0.00150544	0.00291505	0.00108803	0.00304444	0.00476516	0.00257062	0.00252526	0.00323299	0.00534853	0.00124235	0.00218992	0.00137201	0.00305199
0.36000000	0.00467064	0.00238489	0.00318585	0.00734660	0.00532752	0.00621753	0.00159088	0.00195963	0.00077648	0.01146439	0.00630581	0.01019559	0.00152228	0.00287968	0.00104105	0.00274837	0.00492866	0.00256920	0.00255890	0.00306295	0.00488732	0.00107721	0.00229090	0.00133248	0.00314374
0.37000000	0.00528649	0.00297809	0.00320808	0.00840384	0.00533577	0.00695053	0.00174681	0.00208528	0.00085545	0.01140417	0.00633248	0.01014683	0.00154398	0.00288467	0.00108485	0.00232763	0.00524076	0.00247505	0.00260954	0.00295701	0.00577205	0.00077498	0.00246697	0.00123803	0.00328021
0.38000000	0.00580754	0.00412422	0.00333360	0.00876628	0.00523311	0.00676283	0.00172915	0.00195286	0.00092370	0.01142168	0.00609840	0.00997885	0.00165242	0.00291961	0.00130258	0.00196284	0.00569662	0.00247212	0.00277266	0.00310738	0.00871283	0.00047255	0.00254039	0.00119511	0.00345974
0.39000000	0.00581681	0.00535275	0.00339102	0.00797289	0.00515325	0.00608075	0.00170020	0.00167615	0.00098576	0.01136542	0.00581850	0.00987664	0.00169261	0.00296501	0.00138571	0.00158300	0.00624653	0.00231974	0.00303291	0.00342696	0.01281123	0.00084813	0.00275195	0.00119837	0.00371529
0.40000000	0.00563336	0.00607592	0.00345476	0.00683527	0.00500635	0.00504303	0.00147701	0.00122161	0.00117782	0.01100602	0.00605037	0.00999135	0.00161381	0.00308410	0.00121998	0.00054241	0.00621084	0.00190120	0.00358206	0.00333629	0.01661688	0.00033984	0.00323129	0.00075901	0.00382642
0.41000000	0.00527676	0.00700384	0.00331225	0.00497800	0.00486258	0.00411110	0.00143374	0.00104090	0.00130907	0.01087648	0.00587191	0.00983101	0.00163101	0.00307994	0.00125947	0.00044734	0.00625812	0.00184037	0.00379821	0.00351953	0.01875731	0.00050749	0.00337354	0.00071550	0.00387356
0.42000000	0.00503520	0.00764768	0.00301736	0.00307879	0.00453732	0.00326153	0.00149268	0.00148148	0.00183908	0.01072346	0.00528025	0.00976047	0.00169805	0.00284428	0.00159346	0.00051117	0.00626711	0.00198150	0.00378888	0.00368495	0.01868302	0.00068324	0.00314978	0.00085684	0.00401602
0.43000000	0.00471641	0.00741818	0.00245867	0.00170935	0.00427992	0.00323410	0.00163710	0.00133014	0.00172732	0.01037636	0.00522517	0.00953403	0.00165501	0.00288052	0.00164135	0.00079113	0.00566760	0.00193247	0.00358418	0.00337421	0.01670406	0.00073355	0.00308145	0.00106390	0.00386460
0.44000000	0.00447648	0.00713904	0.00210513	0.00117158	0.00361663	0.00351012	0.00153620	0.00180761	0.00188270	0.00999458	0.00515677	0.00888831	0.00177343	0.00247831	0.00189939	0.00121202	0.00479788	0.00191945	0.00319679	0.00295089	0.01322365	0.00085088	0.00283243	0.00142546	0.00369387
0.45000000	0.00438040	0.00657384	0.00215185	0.00155281	0.00296696	0.00381256	0.00136779	0.00223450	0.00185152	0.00929857	0.00504771	0.00811315	0.00193336	0.00199617	0.00214520	0.00157603	0.00392586	0.00205129	0.00277818	0.00265154	0.00927591	0.00107319	0.00259650	0.00174531	0.00345664
0.46000000	0.00385517	0.00558469	0.00238618	0.00237189	0.00249289	0.00457429	0.00143735	0.00224696	0.00188267	0.00851461	0.00431648	0.00770721	0.00179627	0.00128105	0.00276371	0.00173740	0.00374726	0.00220633	0.00233460	0.00292020	0.00539639	0.00124406	0.00233702	0.00192376	0.00344788
0.47000000	0.00342707	0.00514674	0.00248230	0.00288488	0.00173742	0.00555844	0.00138419	0.00238197	0.00168344	0.00729867	0.00434871	0.00640286	0.00213732	0.00109025	0.00289618	0.00188824	0.00298773	0.00229237	0.00213560	0.00291317	0.00298777	0.00141623	0.00223882	0.00211326	0.00322587
0.48000000	0.00408565	0.00464420	0.00250708	0.00364551	0.00148529	0.00554902	0.00159504	0.00228074	0.00149736	0.00592052	0.00422433	0.00501512	0.00226022	0.00078955	0.00279848	0.00201244	0.00251604	0.00241173	0.00195318	0.00305654	0.00202329	0.00148521	0.00217869	0.00214167	0.00303529
0.49000000	0.00395521	0.00441937	0.00245153	0.00407394	0.00134959	0.00522105	0.00179406	0.00249095	0.00119944	0.00458085	0.00377312	0.00385302	0.00238441	0.00079328	0.00271013	0.00192592	0.00233210	0.00244616	0.00184309	0.00321177	0.00240828	0.00126673	0.00205130	0.00201048	0.00295995
0.50000000	0.00314313	0.00466386	0.00250940	0.00388822	0.00154935	0.00491399	0.00189340	0.00248171	0.00128007	0.00363349	0.00343803	0.00276859	0.00242458	0.00092451	0.00248622	0.00168121	0.00240524	0.00247198	0.00175050	0.00345941	0.00275130	0.00100815	0.00196362	0.00168122	0.00281540
0.51000000	0.00315784	0.00498131	0.00249251	0.00391201	0.00177625	0.00424194	0.00219173	0.00202821	0.00140274	0.00319601	0.00333765	0.00141174	0.00258324	0.00095194	0.00164758	0.00170578	0.00222645	0.00254594	0.00169436	0.00358317	0.00282048	0.00081379	0.00178419	0.00143070	0.00262504
0.52000000	0.00275189	0.00511438	0.00255708	0.00413179	0.00204406	0.00347641	0.00207486	0.00220042	0.00126423	0.00398252	0.00332038	0.00165512	0.00271423	0.00119692	0.00082457	0.00182724	0.00220772	0.00255950	0.00161090	0.00362780	0.00270613	0.00054790	0.00162485	0.00119127	0.00238625
0.53000000	0.00226941	0.00517201	0.00271179	0.00428292	0.00218518	0.00308085	0.00193044	0.00209445	0.00122863	0.00509299	0.00368616	0.00325868	0.00298497	0.00153875	0.00066321	0.00199011	0.00220354	0.00256313	0.00156368	0.00365453	0.00239126	0.00034156	0.00142084	0.00097775	0.00212541
0.54000000	0.00179788	0.00503194	0.00300222	0.00436910	0.00216477	0.00284666	0.00179208	0.00192791	0.00128053	0.00648350	0.00432656	0.00509610	0.00340545	0.00187248	0.00137828	0.00213451	0.00232571	0.00246896	0.00147374	0.00371843	0.00196274	0.00033138	0.00124860	0.00081082	0.00179396
0.55000000	0.00169911	0.00480722	0.00321151	0.00417443	0.00230740	0.00231839	0.00132406	0.00244652	0.00097769	0.00809859	0.00542348	0.00692611	0.00372951	0.00256117	0.00272071	0.00242301	0.00207320	0.00253542	0.00155295	0.00350334	0.00170206	0.00051367	0.00099033	0.00063348	0.00150623
0.56000000	0.00161315	0.00423476	0.00313362	0.00372568	0.00184056	0.00250679	0.00144950	0.00174256	0.00109568	0.00882970	0.00576131	0.00988223	0.00426021	0.00293292	0.00298298	0.00245155	0.00216657	0.00252436	0.00145476	0.00351974	0.00160284	0.00019748	0.00074772	0.00077909	0.00114813
0.57000000	0.00181954	0.00401893	0.00323019	0.00344794	0.00170346	0.00251193	0.00129517	0.00179961	0.00098662	0.01001819	0.00655430	0.01225317	0.00452347	0.00345600	0.00375826	0.00254644	0.00208537	0.00248971	0.00141781	0.00335106	0.00152346	0.00033460	0.00052650	0.00076419	0.00079766
0.58000000	0.00212265	0.00410886	0.00323163	0.00326155	0.00168717	0.00238613	0.00108651	0.00200606	0.00085061	0.01118695	0.00732088	0.01446901	0.00460995	0.00404066	0.00448205	0.00269330	0.00185870	0.00248229	0.00140256	0.00298206	0.00156644	0.00056686	0.00067957	0.00073647	0.00044216
0.59000000	0.00267825	0.00437543	0.00307712	0.00284465	0.00174097	0.00244524	0.00103127	0.00196117	0.00080432	0.01191852	0.00763016	0.01665980	0.00469611	0.00434314	0.00472067	0.00259386	0.00167959	0.00252806	0.00137994	0.00258636	0.00177204	0.00060965	0.00061765	0.00068974	0.00022584
0.60000000	0.00323069	0.00455011	0.00272329	0.00240488	0.00188499	0.00235004	0.00092894	0.00193984	0.00096756	0.01221611	0.00757711	0.01849796	0.00462250	0.00462537	0.00482246	0.00241802	0.00153974	0.00258090	0.00138681	0.00228351	0.00201459	0.00057926	0.00035912	0.00067537	0.00035802
0.61000000	0.00373416	0.00477543	0.00248112	0.00206519	0.00217335	0.00205190	0.00079305	0.00214245	0.00098000	0.01257405	0.00744956	0.01953746	0.00453314	0.00476259	0.00481630	0.00237412	0.00118173	0.00261288	0.00143547	0.00180475	0.00217266	0.00056746	0.00063939	0.00049392	0.00073635
0.62000000	0.00431862	0.00481466	0.00207614	0.00180731	0.00243839	0.00189796	0.00068430	0.00236870	0.00113012	0.01255325	0.00701569	0.02003790	0.00438498	0.00489378	0.00470853	0.00228548	0.00098450	0.00256894	0.00153336	0.00153146	0.00230210	0.00048623	0.00065890	0.00037109	0.00109324
0.63000000	0.00436008	0.00480064	0.00177659	0.00182912	0.00289059	0.00158905	0.00078212	0.00282261	0.00132428	0.01319734	0.00687041	0.01950590	0.00445884	0.00486076	0.00444198	0.00236343	0.00049039	0.00265841	0.00160209	0.00144513	0.00220024	0.00061502	0.00094989	0.00019874	0.00164168
0.64000000	0.00503845	0.00438454	0.00143940	0.00160307	0.00318469	0.00214498	0.00104292	0.00280849	0.00148437	0.01250769	0.00611560	0.01922542	0.00419336	0.00489304	0.00445283	0.00252105	0.00066249	0.00240827	0.00179787	0.00151213	0.00228237	0.00029793	0.00053253	0.00022916	0.00185830
0.65000000	0.00497936	0.00448083	0.00127109	0.00220880	0.00353841	0.00248748	0.00154280	0.00333788	0.00155895	0.01301696	0.00593275	0.01792784	0.00431300	0.00493894	0.00425675	0.00280676	0.00106514	0.00241837	0.00188095	0.00200962	0.00206957	0.00033141	0.00093842	0.00046081	0.00221214
0.66000000	0.00549380	0.00448001	0.00159751	0.00200995	0.00423275	0.00346118	0.00190052	0.00296261	0.00141035	0.01248274	0.00541709	0.01711448	0.00419194	0.00498453	0.00417840	0.00334649	0.00139668	0.00209523	0.00205241	0.00234719	0.00214422	0.00058527	0.00094708	0.00074154	0.00231502
0.67000000	0.00588400	0.00464932	0.00190508	0.00285116	0.00448320	0.00429387	0.00225925	0.00310561	0.00159927	0.01261705	0.00533430	0.01603306	0.00416712	0.00505664	0.00414397	0.00391906	0.00195512	0.00195796	0.00219227	0.00298855	0.00222095	0.00087743	0.00116280	0.00098029	0.00250857
0.68000000	0.00616183	0.00472772	0.00239036	0.00332946	0.00513151	0.00519436	0.00267363	0.00309353	0.00161229	0.01286603	0.00533879	0.01515589	0.00421060	0.00511319	0.00402557	0.00447988	0.00251037	0.00182376	0.00231889	0.00357639	0.00234960	0.00103214	0.00127832	0.00124805	0.00269870
0.69000000	0.00658896	0.00486212	0.00279628	0.00411495	0.00542713	0.00601690	0.00296862	0.00316569	0.00177356	0.01322030	0.00540564	0.01456578	0.00416943	0.00523777	0.00400322	0.00501944	0.00310684	0.00177347	0.00246371	0.00416294	0.00265746	0.00125859	0.00156115	0.00143578	0.00286085
0.70000000	0.00701519	0.00501115	0.00311640	0.00490741	0.00567645	0.00665542	0.00325251	0.00337139	0.00156617	0.01363946	0.00538253	0.01431093	0.00408584	0.00536093	0.00404696	0.00549403	0.00373990	0.00178208	0.00263599	0.00470912	0.00309407	0.00138265	0.00193890	0.00163153	0.00304614
0.71000000	0.00750974	0.00514226	0.00353659	0.00546867	0.00592713	0.00733441	0.00340624	0.00337810	0.00162332	0.01415790	0.00546768	0.01414563	0.00401949	0.00541735	0.00390228	0.00595436	0.00426167	0.00181229	0.00275246	0.00510722	0.00347005	0.00157737	0.00218471	0.00176017	0.00316025
0.72000000	0.00785253	0.00518707	0.00383618	0.00584384	0.00622189	0.00788239	0.00358245	0.00345257	0.00163452	0.01485875	0.00555053	0.01404739	0.00388812	0.00547366	0.00379954	0.00626252	0.00479450	0.00192810	0.00284942	0.00538898	0.00378164	0.00162230	0.00247103	0.00185414	0.00333493
0.73000000	0.00819802	0.00536177	0.00419476	0.00620347	0.00649049	0.00845634	0.00360451	0.00332339	0.00173445	0.01539616	0.00557063	0.01376811	0.00376464	0.00533451	0.00342925	0.00668670	0.00513005	0.00195359	0.00302596	0.00560784	0.00428454	0.00174702	0.00260452	0.00202298	0.00345032
0.74000000	0.00836437	0.00541169	0.00435698	0.00651141	0.00674232	0.00886252	0.00366196	0.00330987	0.00170089	0.01585271	0.00555495	0.01344233	0.00355168	0.00522517	0.00317743	0.00696924	0.00546371	0.00205422	0.00315679	0.00573982	0.00469526	0.00182169	0.00281189	0.00210593	0.00361360
0.75000000	0.00843121	0.00544642	0.00444134	0.00676150	0.00694387	0.00922062	0.00364631	0.00332929	0.00175099	0.01601047	0.00550399	0.01291142	0.00332500	0.00503088	0.00282348	0.00719586	0.00574923	0.00220964	0.00325999	0.00586175	0.00505202	0.00187613	0.00296079	0.00216382	0.00376195
0.76000000	0.00834663	0.00535651	0.00432252	0.00696348	0.00709899	0.00943254	0.00358385	0.00341414	0.00169006	0.01570917	0.00548601	0.01221749	0.00304098	0.00485818	0.00256921	0.00735336	0.00599019	0.00234020	0.00338044	0.00594765	0.00552678	0.00189593	0.00314426	0.00225968	0.00396733
0.77000000	0.00812787	0.00510873	0.00429038	0.00717833	0.00718751	0.00965212	0.00352412	0.00339484	0.00178403	0.01513692	0.00550003	0.01095684	0.00275490	0.00441514	0.00214455	0.00755854	0.00611428	0.00252386	0.00343993	0.00604224	0.00582458	0.00202918	0.00320169	0.00227953	0.00410580
0.78000000	0.00784726	0.00483385	0.00415951	0.00723775	0.00723502	0.00976922	0.00340774	0.00343674	0.00181199	0.01396051	0.00552611	0.00955653	0.00245174	0.00397618	0.00181759	0.00766486	0.00617702	0.00267562	0.00350589	0.00608274	0.00620467	0.00208377	0.00325899	0.00238148	0.00425497
0.79000000	0.00744475	0.00434947	0.00397372	0.00728191	0.00726272	0.00976417	0.00327263	0.00347310	0.00179656	0.01243892	0.00557868	0.00786878	0.00215943	0.00342752	0.00153720	0.00775838	0.00623339	0.00284371	0.00355054	0.00612247	0.00656707	0.00215852	0.00333726	0.00245594	0.00438923
0.80000000	0.00704887	0.00387666	0.00390818	0.00740849	0.00727357	0.00966221	0.00312872	0.00342241	0.00176798	0.01071863	0.00560172	0.00596574	0.00187721	0.00279963	0.00130524	0.00776091	0.00625279	0.00296726	0.00354810	0.00608601	0.00687787	0.00222234	0.00340010	0.00252987	0.00452503
0.81000000	0.00659968	0.00353442	0.00393514	0.00753178	0.00716135	0.00962987	0.00297985	0.00339970	0.00180789	0.00909886	0.00561161	0.00398374	0.00174499	0.00200308	0.00097140	0.00771920	0.00623225	0.00310934	0.00353637	0.00601544	0.00713040	0.00227778	0.00339824	0.00256465	0.00462177
0.82000000	0.00620065	0.00388497	0.00421234	0.00778195	0.00695934	0.00940140	0.00281771	0.00324594	0.00187469	0.00810167	0.00554308	0.00276927	0.00162912	0.00121437	0.00091612	0.00741507	0.00629711	0.00317303	0.00355679	0.00585491	0.00744813	0.00222342	0.00349538	0.00252569	0.00487608
0.83000000	0.00564425	0.00352878	0.00428011	0.00800511	0.00694165	0.00944433	0.00266080	0.00325162	0.00178844	0.00774999	0.00553235	0.00241297	0.00169190	0.00114365	0.00044461	0.00746123	0.00616058	0.00330059	0.00347328	0.00575672	0.00747884	0.00231716	0.00337166	0.00258230	0.00479516
0.84000000	0.00509657	0.00377954	0.00441988	0.00827075	0.00683411	0.00939170	0.00256745	0.00310997	0.00173988	0.00804697	0.00544103	0.00351351	0.00167878	0.00146235	0.00019874	0.00726714	0.00615062	0.00335842	0.00344350	0.00568093	0.00760029	0.00229746	0.00336562	0.00259736	0.00486111
0.85000000	0.00483036	0.00440864	0.00485240	0.00872336	0.00599181	0.00958949	0.00232470	0.00308263	0.00195731	0.00871902	0.00585795	0.00387104	0.00204999	0.00115098	0.00132042	0.00692013	0.00600035	0.00336053	0.00345305	0.00548266	0.00768376	0.00253842	0.00324330	0.00241665	0.00488262
0.86000000	0.00413879	0.00426337	0.00471279	0.00877433	0.00644978	0.00933591	0.00235235	0.00280658	0.00169752	0.00857163	0.00535572	0.00509745	0.00169795	0.00200199	0.00036543	0.00673156	0.00603805	0.00333609	0.00339005	0.00539680	0.00760200	0.00229824	0.00321098	0.00256147	0.00490989
0.87000000	0.00403240	0.00448336	0.00476513	0.00882658	0.00520323	0.00996240	0.00215557	0.00310115	0.00166401	0.00801138	0.00511339	0.00539620	0.00129522	0.00166849	0.00068913	0.00637800	0.00607734	0.00334786	0.00339442	0.00538110	0.00741053	0.00229999	0.00325158	0.00243007	0.00506588
0.88000000	0.00334518	0.00393376	0.00466449	0.00958679	0.00582333	0.00908160	0.00236854	0.00267487	0.00158033	0.00738615	0.00520982	0.00447115	0.00157434	0.00149097	0.00058043	0.00614878	0.00608203	0.00327281	0.00334572	0.00524667	0.00723140	0.00211916	0.00327743	0.00250634	0.00486022
0.89000000	0.00324349	0.00384303	0.00460107	0.00972047	0.00558487	0.00895831	0.00243699	0.00268586	0.00143417	0.00622137	0.00503139	0.00353814	0.00148324	0.00131233	0.00072373	0.00574282	0.00596320	0.00316428	0.00340535	0.00517241	0.00718912	0.00208581	0.00311237	0.00246935	0.00483824
0.90000000	0.00328901	0.00359834	0.00456204	0.00995749	0.00470670	0.00906132	0.00259940	0.00250733	0.00136902	0.00519845	0.00473579	0.00264674	0.00118408	0.00195703	0.00153481	0.00555427	0.00594885	0.00314849	0.00337537	0.00511805	0.00682416	0.00187884	0.00318061	0.00259162	0.00464660
0.91000000	0.00355047	0.00339628	0.00424432	0.00996118	0.00495522	0.00863049	0.00274660	0.00277816	0.00171878	0.00397986	0.00462449	0.00195703	0.00155983	0.00165439	0.00099820	0.00517009	0.00595691	0.00301893	0.00333872	0.00516853	0.00666184	0.00190822	0.00314926	0.00235716	0.00473018
0.92000000	0.00388906	0.00350665	0.00418426	0.00985463	0.00502514	0.00815956	0.00303674	0.00265662	0.00178136	0.00317280	0.00443464	0.00153644	0.00155879	0.00213499	0.00127075	0.00478473	0.00588124	0.00277750	0.00328139	0.00501097	0.00656228	0.00182925	0.00315884	0.00226290	0.00476991
0.93000000	0.00437847	0.00353816	0.00422163	0.00951997	0.00521810	0.00765087	0.00327133	0.00252119	0.00215664	0.00246717	0.00417378	0.00169482	0.00151795	0.00292531	0.00129764	0.00431917	0.00576291	0.00249661	0.00315526	0.00470944	0.00639277	0.00168634	0.00310069	0.00215906	0.00481317
0.94000000	0.00466242	0.00342337	0.00400197	0.00922532	0.00546648	0.00707141	0.00342274	0.00235731	0.00264565	0.00166820	0.00388353	0.00266225	0.00156681	0.00331957	0.00181011	0.00426421	0.00573958	0.00237154	0.00292322	0.00469651	0.00605838	0.00149314	0.00304635	0.00219933	0.00477730
0.95000000	0.00540052	0.00368320	0.00384571	0.00841281	0.00619061	0.00589233	0.00374058	0.00240444	0.00324338	0.00088599	0.00371737	0.00360251	0.00176936	0.00326909	0.00167101	0.00382965	0.00566159	0.00219597	0.00272010	0.00455172	0.00588001	0.00141043	0.00317216	0.00194941	0.00478912
0.96000000	0.00582207	0.00373781	0.00359795	0.00742991	0.00688249	0.00467090	0.00395795	0.00254826	0.00384037	0.00034881	0.00345712	0.00434301	0.00197725	0.00315710	0.00176560	0.00366325	0.00560341	0.00205692	0.00246056	0.00456020	0.00569478	0.00132865	0.00316404	0.00187827	0.00476595
0.97000000	0.00626498	0.00379216	0.00336175	0.00619405	0.00763957	0.00334998	0.00420691	0.00290052	0.00415260	0.00048608	0.00312558	0.00467088	0.00217232	0.00297510	0.00189548	0.00362793	0.00542956	0.00205301	0.00226458	0.00469103	0.00551179	0.00127765	0.00302078	0.00182709	0.00461242
0.98000000	0.00648842	0.00399829	0.00325922	0.00527972	0.00831790	0.00170772	0.00446962	0.00304154	0.00410423	0.00079954	0.00288153	0.00403230	0.00227194	0.00296258	0.00160986	0.00348865	0.00528839	0.00200315	0.00209208	0.00466588	0.00549796	0.00122919	0.00279112	0.00173484	0.00448504
0.99000000	0.00692740	0.00390755	0.00316437	0.00370922	0.00902472	0.00158163	0.00467938	0.00334710	0.00371025	0.00104573	0.00253230	0.00396484	0.00236051	0.00266161	0.00172949	0.00361862	0.00505970	0.00206497	0.00189210	0.00489596	0.00522348	0.00125876	0.00257016	0.00170049	0.00422158
1.00000000	0.00705574	0.00414597	0.00321033	0.00331888	0.00954891	0.00292108	0.00494897	0.00299207	0.00299533	0.00135508	0.00246205	0.00353427	0.00242330	0.00222219	0.00184128	0.00367329	0.00496467	0.00212951	0.00171902	0.00498205	0.00505468	0.00113928	0.00244912	0.00166877	0.00399461
1.01000000	0.00734920	0.00415406	0.00342240	0.00356641	0.01019861	0.00435767	0.00505339	0.00310853	0.00207276	0.00173951	0.00208364	0.00334966	0.00217197	0.00227369	0.00164584	0.00380112	0.00472639	0.00215490	0.00164569	0.00506389	0.00486236	0.00120277	0.00215470	0.00162365	0.00372327
1.02000000	0.00701730	0.00431529	0.00346642	0.00451128	0.01048296	0.00652397	0.00536699	0.00247968	0.00103844	0.00206318	0.00195358	0.00313667	0.00205112	0.00189343	0.00163675	0.00397145	0.00483285	0.00218590	0.00160102	0.00511136	0.00478899	0.00110182	0.00218977	0.00156314	0.00362306
1.03000000	0.00685095	0.00438705	0.00375052	0.00536386	0.01089216	0.00822300	0.00562522	0.00257681	0.00071551	0.00237421	0.00174125	0.00311064	0.00184025	0.00173473	0.00152589	0.00410183	0.00480905	0.00218471	0.00163878	0.00503382	0.00468859	0.00110223	0.00212538	0.00144632	0.00348944
1.04000000	0.00662001	0.00437367	0.00407403	0.00603103	0.01126692	0.00984073	0.00590611	0.00297652	0.00111291	0.00268567	0.00158419	0.00316977	0.00166769	0.00158099	0.00138395	0.00421921	0.00480305	0.00214959	0.00167950	0.00486907	0.00463147	0.00108844	0.00212620	0.00132715	0.00339099
1.05000000	0.00635673	0.00416868	0.00455077	0.00751325	0.01204098	0.01041253	0.00599768	0.00409706	0.00231773	0.00315792	0.00212953	0.00314686	0.00153352	0.00128114	0.00110634	0.00442084	0.00464833	0.00209122	0.00192050	0.00470406	0.00509694	0.00190355	0.00198243	0.00129635	0.00328924
1.06000000	0.00655650	0.00424828	0.00509760	0.00838476	0.01249393	0.01159494	0.00623283	0.00464820	0.00294077	0.00338235	0.00163321	0.00346484	0.00123377	0.00138015	0.00093077	0.00420214	0.00450246	0.00192097	0.00177421	0.00410090	0.00491359	0.00152261	0.00212575	0.00112707	0.00314397
1.07000000	0.00586655	0.00399298	0.00474413	0.00711230	0.01199262	0.01425427	0.00670495	0.00484070	0.00204665	0.00345577	0.00159834	0.00363021	0.00132766	0.00115182	0.00105178	0.00434642	0.00482356	0.00207582	0.00162760	0.00405966	0.00472366	0.00108125	0.00237430	0.00073930	0.00324515
1.08000000	0.00603341	0.00388394	0.00506049	0.00782785	0.01233038	0.01507347	0.00672470	0.00543293	0.00260186	0.00365690	0.00184733	0.00383904	0.00125246	0.00104750	0.00104798	0.00415515	0.00458551	0.00197949	0.00155025	0.00349861	0.00477020	0.00113019	0.00236967	0.00060153	0.00312662
1.09000000	0.00565713	0.00385363	0.00474536	0.00771250	0.01222034	0.01621242	0.00694787	0.00578147	0.00259578	0.00383705	0.00187366	0.00407717	0.00127437	0.00097876	0.00102790	0.00415528	0.00454918	0.00201468	0.00137473	0.00327593	0.00474062	0.00102079	0.00237913	0.00039369	0.00309829
1.10000000	0.00559239	0.00343582	0.00466323	0.00860161	0.01253558	0.01642177	0.00693354	0.00605153	0.00308217	0.00411115	0.00245392	0.00424466	0.00123204	0.00087261	0.00069946	0.00374352	0.00425822	0.00181560	0.00121522	0.00264353	0.00475818	0.00114044	0.00244674	0.00027655	0.00298331
1.11000000	0.00573508	0.00334558	0.00456325	0.00866224	0.01236627	0.01674132	0.00687284	0.00621853	0.00343494	0.00442673	0.00245789	0.00455218	0.00123084	0.00077685	0.00115585	0.00347562	0.00378361	0.00174212	0.00108767	0.00214211	0.00445427	0.00107197	0.00212443	0.00027601	0.00271674
1.12000000	0.00545299	0.00297444	0.00417775	0.00896326	0.01238888	0.01671556	0.00680286	0.00625479	0.00359305	0.00480663	0.00262014	0.00482953	0.00119359	0.00072987	0.00100559	0.00305621	0.00337682	0.00156236	0.00096046	0.00179931	0.00415122	0.00101256	0.00196265	0.00030401	0.00245601
1.13000000	0.00531746	0.00276041	0.00368804	0.00889243	0.01229370	0.01658179	0.00669241	0.00618172	0.00346482	0.00525557	0.00240173	0.00526371	0.00125946	0.00079176	0.00091471	0.00272543	0.00300143	0.00140988	0.00095896	0.00178135	0.00368755	0.00089110	0.00159825	0.00018229	0.00211318
1.14000000	0.00491812	0.00204314	0.00313920	0.00932152	0.01225232	0.01620513	0.00666132	0.00601606	0.00345544	0.00577940	0.00279215	0.00538457	0.00112614	0.00087121	0.00044800	0.00207812	0.00257656	0.00115046	0.00088391	0.00197771	0.00321691	0.00072466	0.00151720	0.00037000	0.00170745
1.15000000	0.00494174	0.00211348	0.00285954	0.00920891	0.01207268	0.01568960	0.00644748	0.00581710	0.00330910	0.00637915	0.00259723	0.00587372	0.00109748	0.00094896	0.00055044	0.00154975	0.00214982	0.00090198	0.00096724	0.00241248	0.00253564	0.00055619	0.00099018	0.00041564	0.00126217
1.16000000	0.00468941	0.00214325	0.00248163	0.00927186	0.01188192	0.01494002	0.00637384	0.00563083	0.00307710	0.00702082	0.00252367	0.00642696	0.00106644	0.00116695	0.00043990	0.00103190	0.00187831	0.00062025	0.00103994	0.00297108	0.00195106	0.00033084	0.00066436	0.00052608	0.00075931
1.17000000	0.00451639	0.00217709	0.00214316	0.00932934	0.01149580	0.01426110	0.00625218	0.00553721	0.00308421	0.00782851	0.00275029	0.00673002	0.00091504	0.00126215	0.00028297	0.00043978	0.00180421	0.00048810	0.00103018	0.00358941	0.00133348	0.00028279	0.00042629	0.00071596	0.00037675
1.18000000	0.00435059	0.00255960	0.00206607	0.00932111	0.01104076	0.01345296	0.00615000	0.00538091	0.00280699	0.00858432	0.00275991	0.00739569	0.00092562	0.00154276	0.00037004	0.00040633	0.00202104	0.00050366	0.00103756	0.00418794	0.00111790	0.00050016	0.00032026	0.00084098	0.00021597
1.19000000	0.00468776	0.00297688	0.00176332	0.00978228	0.01017354	0.01296629	0.00610479	0.00526401	0.00239236	0.00937696	0.00362804	0.00744170	0.00102935	0.00207452	0.00092554	0.00125635	0.00204868	0.00094218	0.00104400	0.00485651	0.00099698	0.00103267	0.00043730	0.00131925	0.00072116
1.20000000	0.00394603	0.00321509	0.00207125	0.00943554	0.00979760	0.01200715	0.00583349	0.00527710	0.00230544	0.01010674	0.00309015	0.00847952	0.00109135	0.00204684	0.00058071	0.00155845	0.00281699	0.00102860	0.00114479	0.00532446	0.00186661	0.00112693	0.00080162	0.00122379	0.00098445
1.21000000	0.00369293	0.00337253	0.00215404	0.00961004	0.00914494	0.01128613	0.00567193	0.00514497	0.00195287	0.01061300	0.00345403	0.00909004	0.00130513	0.00236316	0.00082856	0.00215997	0.00329352	0.00134467	0.00126961	0.00579161	0.00243141	0.00138712	0.00095932	0.00147577	0.00136888
1.22000000	0.00383011	0.00369999	0.00196424	0.00958086	0.00821538	0.01114597	0.00529412	0.00540698	0.00190167	0.01127187	0.00413035	0.00902341	0.00149381	0.00249697	0.00084504	0.00285613	0.00354572	0.00152465	0.00143134	0.00601332	0.00301510	0.00185571	0.00108303	0.00183254	0.00163174
1.23000000	0.00354400	0.00376559	0.00205888	0.00931746	0.00773977	0.01058791	0.00479360	0.00554575	0.00165210	0.01186635	0.00441313	0.00924154	0.00162052	0.00248855	0.00077233	0.00334414	0.00400077	0.00171148	0.00161100	0.00617053	0.00357758	0.00218307	0.00142331	0.00197107	0.00185708
1.24000000	0.00453782	0.00403010	0.00241733	0.00918224	0.00616849	0.01094889	0.00460878	0.00517484	0.00179665	0.01187763	0.00467083	0.00953782	0.00148495	0.00322578	0.00132588	0.00408942	0.00439031	0.00193486	0.00179346	0.00637824	0.00401801	0.00269659	0.00165599	0.00245964	0.00216646
1.25000000	0.00319566	0.00364547	0.00234558	0.00905584	0.00647403	0.00867099	0.00363946	0.00478122	0.00105121	0.01204258	0.00474665	0.01026202	0.00176611	0.00310591	0.00119455	0.00417016	0.00519531	0.00214934	0.00189630	0.00640860	0.00452753	0.00238480	0.00184494	0.00219336	0.00245340
1.26000000	0.00302970	0.00346545	0.00264148	0.00802272	0.00627129	0.00806053	0.00301252	0.00474094	0.00116597	0.01219222	0.00510016	0.01016678	0.00172536	0.00306585	0.00116224	0.00455752	0.00544808	0.00219132	0.00208089	0.00625664	0.00502818	0.00265114	0.00190830	0.00239081	0.00269216
1.27000000	0.00296526	0.00334839	0.00298780	0.00728043	0.00586003	0.00640404	0.00230364	0.00393499	0.00103105	0.01218846	0.00502812	0.01047287	0.00177940	0.00327377	0.00131868	0.00477691	0.00598787	0.00236768	0.00217655	0.00618064	0.00538494	0.00256592	0.00219240	0.00245600	0.00285491
1.28000000	0.00370781	0.00347472	0.00407271	0.00581202	0.00538045	0.00611706	0.00197204	0.00385403	0.00263597	0.01203378	0.00508742	0.01045035	0.00166922	0.00350766	0.00143707	0.00515491	0.00615457	0.00237244	0.00232672	0.00595112	0.00582850	0.00280936	0.00242019	0.00291044	0.00293383
1.29000000	0.00321148	0.00307340	0.00399534	0.00548814	0.00535566	0.00345201	0.00105449	0.00263500	0.00096140	0.01221906	0.00531871	0.01036019	0.00176712	0.00325493	0.00133887	0.00525416	0.00674112	0.00256738	0.00241734	0.00596455	0.00621146	0.00269133	0.00247850	0.00267490	0.00320486
1.30000000	0.00367600	0.00290699	0.00457579	0.00551342	0.00537198	0.00286650	0.00095536	0.00188943	0.00087528	0.01223950	0.00560542	0.01015494	0.00175348	0.00320624	0.00133957	0.00544389	0.00703529	0.00267351	0.00254311	0.00585605	0.00657815	0.00281327	0.00254661	0.00274955	0.00332794
1.31000000	0.00433039	0.00282740	0.00506045	0.00631378	0.00538010	0.00359009	0.00109623	0.00150409	0.00097669	0.01227041	0.00577383	0.00994128	0.00176955	0.00320425	0.00140020	0.00557435	0.00730791	0.00273931	0.00269460	0.00579428	0.00704893	0.00283793	0.00266783	0.00290424	0.00347343
1.32000000	0.00503431	0.00277558	0.00558787	0.00762175	0.00553674	0.00478458	0.00143611	0.00131319	0.00102676	0.01229853	0.00593558	0.00983014	0.00182641	0.00317522	0.00142540	0.00568429	0.00751607	0.00285253	0.00277144	0.00572012	0.00724771	0.00285723	0.00274209	0.00295364	0.00354928
1.33000000	0.00583519	0.00270603	0.00607709	0.00897435	0.00555413	0.00562901	0.00154831	0.00139581	0.00130150	0.01242408	0.00606703	0.00962710	0.00187596	0.00302082	0.00134768	0.00584183	0.00759667	0.00292159	0.00288117	0.00570085	0.00751694	0.00292933	0.00273618	0.00312543	0.00366790
1.34000000	0.00644820	0.00283504	0.00638202	0.01000604	0.00564766	0.00575879	0.00177209	0.00152119	0.00147967	0.01229701	0.00591271	0.00979352	0.00190370	0.00327949	0.00188978	0.00577879	0.00761854	0.00293165	0.00310395	0.00566332	0.00797521	0.00291187	0.00287441	0.00339542	0.00377732
1.35000000	0.00617287	0.00274902	0.00615892	0.00942345	0.00564800	0.00603847	0.00195642	0.00137575	0.00138040	0.01237751	0.00622674	0.00968330	0.00206856	0.00322803	0.00154835	0.00599914	0.00793954	0.00300835	0.00299116	0.00592104	0.00791064	0.00302369	0.00296538	0.00322122	0.00383543
1.36000000	0.00611087	0.00278060	0.00606627	0.00881233	0.00557509	0.00555825	0.00200161	0.00121107	0.00147015	0.01246589	0.00621438	0.00957193	0.00214777	0.00322896	0.00149057	0.00610349	0.00803500	0.00303082	0.00302104	0.00610701	0.00802939	0.00305181	0.00303071	0.00337208	0.00387872
1.37000000	0.00616255	0.00281016	0.00603461	0.00790194	0.00536924	0.00471349	0.00191879	0.00119582	0.00159907	0.01232131	0.00628754	0.00952911	0.00225870	0.00331831	0.00152851	0.00622348	0.00789985	0.00302626	0.00307049	0.00621582	0.00813732	0.00320621	0.00309559	0.00344462	0.00389507
1.38000000	0.00611530	0.00288577	0.00584372	0.00661981	0.00523151	0.00383205	0.00194997	0.00122688	0.00169405	0.01223292	0.00618707	0.00944528	0.00224931	0.00331131	0.00153261	0.00627466	0.00780786	0.00304887	0.00310011	0.00637665	0.00814446	0.00321239	0.00313014	0.00352883	0.00390686
1.39000000	0.00633937	0.00296840	0.00573875	0.00525650	0.00475856	0.00316079	0.00202685	0.00194182	0.00212415	0.01202214	0.00572649	0.00929296	0.00235190	0.00315967	0.00174390	0.00645482	0.00778006	0.00312036	0.00301049	0.00664897	0.00785883	0.00329743	0.00299086	0.00364533	0.00406624
1.40000000	0.00677261	0.00304493	0.00580921	0.00437785	0.00449085	0.00268100	0.00175033	0.00220320	0.00174540	0.01139797	0.00598146	0.00898070	0.00232687	0.00313296	0.00177381	0.00656276	0.00702149	0.00297338	0.00307541	0.00645223	0.00791179	0.00356860	0.00302361	0.00377423	0.00390615
1.41000000	0.00710506	0.00328165	0.00585881	0.00328420	0.00389244	0.00298690	0.00185231	0.00264163	0.00214232	0.01097058	0.00531664	0.00877332	0.00235173	0.00251384	0.00260427	0.00650460	0.00684509	0.00307512	0.00298589	0.00656649	0.00731914	0.00345374	0.00278758	0.00369257	0.00411196
1.42000000	0.00738715	0.00344129	0.00558125	0.00245493	0.00352828	0.00335868	0.00150394	0.00257024	0.00155217	0.01015255	0.00558275	0.00785537	0.00231789	0.00233709	0.00225851	0.00666052	0.00606086	0.00287557	0.00301333	0.00640113	0.00733646	0.00373282	0.00289521	0.00391553	0.00384557
1.43000000	0.00727191	0.00367674	0.00527783	0.00165904	0.00299940	0.00439553	0.00153233	0.00238011	0.00158245	0.00932568	0.00510683	0.00728520	0.00227554	0.00188047	0.00273804	0.00649370	0.00588155	0.00285830	0.00295145	0.00649140	0.00683956	0.00347375	0.00287913	0.00385983	0.00390096
1.44000000	0.00753954	0.00403086	0.00523161	0.00232141	0.00266737	0.00444376	0.00144144	0.00255464	0.00125742	0.00818307	0.00507035	0.00613639	0.00242803	0.00136025	0.00303624	0.00639944	0.00523005	0.00274685	0.00291704	0.00625745	0.00644789	0.00349251	0.00280299	0.00376298	0.00377276
1.45000000	0.00712594	0.00439372	0.00480698	0.00194733	0.00236713	0.00512831	0.00177687	0.00226228	0.00147310	0.00697928	0.00462283	0.00526922	0.00246530	0.00109781	0.00344554	0.00608352	0.00511325	0.00273734	0.00286392	0.00632988	0.00593861	0.00309487	0.00279796	0.00352882	0.00378799
1.46000000	0.00703427	0.00477856	0.00469837	0.00240008	0.00253253	0.00455723	0.00213527	0.00224256	0.00127337	0.00556333	0.00445359	0.00389062	0.00263339	0.00104686	0.00337841	0.00577240	0.00471439	0.00262507	0.00278441	0.00615312	0.00549790	0.00283918	0.00277162	0.00324410	0.00364110
1.47000000	0.00639263	0.00514565	0.00431867	0.00231756	0.00261709	0.00431072	0.00224529	0.00215248	0.00140819	0.00408796	0.00406770	0.00288194	0.00267635	0.00119965	0.00330506	0.00532627	0.00470981	0.00257728	0.00271207	0.00623941	0.00515628	0.00233858	0.00280366	0.00289507	0.00359706
1.48000000	0.00612748	0.00547782	0.00421450	0.00247070	0.00285256	0.00385783	0.00245142	0.00175527	0.00143294	0.00266028	0.00389344	0.00128978	0.00279125	0.00125273	0.00270489	0.00493038	0.00444316	0.00243899	0.00262733	0.00608738	0.00493819	0.00197976	0.00274135	0.00255824	0.00346566
1.49000000	0.00569710	0.00567070	0.00416840	0.00277071	0.00306320	0.00350291	0.00236280	0.00172047	0.00130447	0.00197649	0.00377602	0.00065849	0.00281452	0.00138829	0.00203687	0.00447463	0.00435351	0.00231099	0.00250615	0.00597308	0.00475267	0.00157074	0.00272656	0.00221379	0.00333612
1.50000000	0.00525333	0.00577372	0.00420900	0.00309891	0.00322736	0.00302967	0.00197694	0.00207511	0.00111117	0.00297122	0.00398239	0.00172268	0.00288347	0.00174071	0.00160813	0.00400964	0.00438276	0.00218590	0.00236148	0.00586621	0.00465740	0.00123496	0.00271903	0.00185602	0.00320004
1.51000000	0.00494501	0.00567647	0.00430020	0.00316315	0.00313933	0.00303610	0.00190753	0.00185757	0.00104034	0.00446901	0.00427535	0.00348599	0.00322054	0.00199349	0.00115315	0.00374487	0.00427342	0.00211986	0.00225299	0.00572307	0.00466521	0.00098423	0.00265002	0.00164286	0.00294718
1.52000000	0.00463947	0.00540842	0.00418904	0.00286464	0.00250687	0.00277768	0.00174147	0.00162360	0.00103319	0.00546492	0.00432598	0.00605049	0.00368957	0.00266581	0.00100200	0.00370985	0.00426371	0.00200731	0.00214037	0.00570556	0.00466681	0.00091243	0.00253496	0.00164032	0.00274363
1.53000000	0.00433986	0.00514602	0.00428749	0.00261538	0.00223722	0.00268289	0.00163516	0.00158378	0.00098570	0.00692242	0.00483170	0.00824114	0.00430153	0.00323392	0.00193300	0.00363018	0.00421162	0.00200307	0.00203131	0.00556828	0.00459016	0.00087847	0.00244067	0.00154664	0.00249807
1.54000000	0.00414506	0.00500940	0.00437708	0.00252569	0.00195739	0.00243334	0.00149377	0.00193793	0.00159209	0.00876319	0.00591986	0.01004984	0.00461709	0.00442735	0.00430239	0.00356277	0.00450583	0.00204528	0.00207427	0.00558929	0.00425580	0.00097619	0.00321278	0.00147187	0.00246618
1.55000000	0.00408811	0.00478584	0.00444165	0.00223962	0.00203570	0.00269909	0.00138740	0.00170288	0.00106870	0.00963578	0.00607014	0.01299837	0.00522259	0.00432257	0.00374106	0.00359989	0.00406418	0.00202959	0.00177402	0.00516310	0.00425110	0.00096111	0.00219155	0.00145425	0.00200517
1.56000000	0.00402839	0.00487256	0.00449311	0.00209731	0.00220062	0.00261888	0.00119591	0.00194589	0.00100975	0.01100052	0.00673809	0.01517976	0.00533124	0.00490452	0.00465605	0.00361688	0.00382801	0.00197507	0.00172924	0.00478407	0.00426131	0.00113670	0.00229982	0.00138207	0.00166576
1.57000000	0.00402725	0.00511688	0.00447887	0.00179907	0.00262099	0.00262004	0.00121278	0.00191085	0.00114342	0.01209057	0.00712336	0.01717184	0.00536667	0.00514396	0.00523546	0.00357297	0.00366374	0.00200886	0.00172356	0.00446798	0.00415473	0.00127232	0.00263569	0.00125743	0.00150347
1.58000000	0.00441311	0.00480801	0.00411497	0.00165819	0.00279722	0.00279581	0.00110231	0.00214497	0.00122424	0.01205940	0.00679003	0.01936121	0.00521800	0.00514381	0.00508062	0.00350790	0.00354552	0.00194528	0.00136626	0.00426477	0.00383456	0.00118372	0.00182919	0.00122142	0.00106626
1.59000000	0.00460524	0.00470756	0.00387956	0.00157338	0.00310623	0.00275466	0.00111049	0.00231820	0.00132345	0.01236558	0.00658834	0.02058481	0.00499926	0.00517217	0.00507590	0.00325522	0.00320175	0.00186088	0.00124056	0.00383056	0.00368002	0.00111533	0.00168787	0.00101183	0.00075898
1.60000000	0.00441595	0.00514747	0.00366231	0.00167610	0.00383821	0.00239008	0.00103382	0.00256956	0.00173671	0.01316008	0.00660405	0.02063715	0.00494119	0.00487813	0.00483740	0.00295400	0.00281669	0.00163173	0.00120161	0.00333813	0.00370629	0.00126388	0.00214710	0.00091624	0.00074008
1.61000000	0.00489252	0.00451104	0.00325581	0.00199168	0.00350531	0.00297370	0.00137117	0.00286239	0.00139308	0.01258773	0.00605394	0.02080124	0.00454824	0.00495276	0.00474112	0.00241120	0.00236086	0.00153044	0.00095872	0.00299508	0.00334970	0.00081992	0.00147844	0.00045821	0.00038212
1.62000000	0.00463534	0.00386951	0.00271201	0.00196103	0.00393652	0.00338292	0.00167721	0.00297718	0.00147040	0.01228494	0.00565240	0.02025563	0.00437537	0.00490829	0.00459824	0.00190516	0.00190228	0.00131637	0.00088675	0.00274983	0.00314781	0.00055297	0.00128557	0.00021577	0.00020503
1.63000000	0.00442634	0.00407417	0.00237700	0.00281318	0.00474062	0.00335799	0.00187058	0.00338365	0.00199413	0.01295451	0.00589198	0.01872902	0.00437272	0.00464044	0.00407052	0.00135183	0.00114526	0.00090063	0.00094986	0.00245158	0.00318343	0.00078679	0.00125733	0.00020541	0.00075415
1.64000000	0.00489320	0.00390403	0.00207775	0.00364754	0.00432677	0.00452399	0.00227004	0.00368863	0.00156010	0.01228839	0.00557074	0.01767658	0.00415782	0.00482981	0.00412041	0.00090684	0.00080109	0.00071746	0.00092952	0.00265333	0.00256488	0.00044019	0.00109987	0.00045610	0.00066566
1.65000000	0.00482884	0.00390506	0.00164532	0.00420286	0.00477849	0.00522264	0.00265895	0.00400146	0.00172619	0.01245908	0.00571835	0.01636048	0.00411315	0.00493554	0.00400128	0.00092152	0.00065890	0.00038367	0.00105044	0.00289815	0.00230784	0.00055786	0.00090966	0.00064111	0.00103328
1.66000000	0.00525715	0.00414719	0.00159670	0.00469537	0.00527883	0.00605813	0.00285275	0.00396379	0.00173980	0.01235773	0.00581569	0.01535050	0.00397854	0.00495910	0.00383716	0.00142889	0.00101678	0.00014524	0.00110292	0.00333566	0.00191065	0.00076977	0.00087901	0.00086027	0.00123096
1.67000000	0.00545506	0.00439429	0.00115561	0.00510339	0.00662354	0.00602656	0.00285149	0.00388326	0.00240004	0.01352381	0.00572830	0.01444191	0.00403098	0.00502712	0.00356927	0.00177973	0.00193230	0.00033609	0.00132611	0.00383150	0.00206455	0.00084367	0.00053919	0.00114410	0.00202787
1.68000000	0.00578002	0.00457901	0.00206017	0.00476989	0.00668112	0.00755214	0.00331478	0.00394734	0.00186393	0.01326969	0.00607522	0.01369745	0.00391706	0.00498266	0.00324451	0.00242926	0.00206403	0.00068198	0.00138589	0.00409637	0.00158781	0.00098745	0.00059301	0.00116433	0.00183420
1.69000000	0.00615533	0.00468111	0.00222955	0.00520449	0.00698050	0.00793587	0.00345764	0.00415466	0.00178671	0.01367289	0.00602102	0.01348324	0.00367513	0.00517885	0.00333541	0.00277770	0.00273679	0.00090904	0.00158333	0.00441198	0.00175876	0.00107357	0.00106077	0.00121899	0.00210530
1.70000000	0.00654598	0.00476299	0.00265793	0.00563787	0.00721242	0.00845796	0.00344044	0.00417138	0.00190114	0.01411923	0.00601334	0.01302886	0.00348013	0.00509104	0.00301002	0.00325705	0.00321882	0.00118673	0.00177808	0.00473796	0.00209601	0.00124494	0.00123430	0.00133998	0.00239512
1.71000000	0.00678802	0.00492344	0.00300912	0.00589670	0.00737910	0.00898405	0.00350389	0.00424409	0.00202087	0.01452486	0.00589368	0.01250636	0.00326132	0.00491206	0.00255988	0.00363374	0.00365883	0.00146407	0.00195461	0.00496588	0.00245865	0.00129821	0.00128885	0.00148144	0.00266797
1.72000000	0.00690894	0.00481700	0.00307468	0.00622392	0.00759196	0.00924735	0.00351792	0.00429936	0.00197312	0.01456337	0.00578652	0.01203135	0.00293586	0.00483782	0.00232717	0.00395331	0.00410743	0.00171898	0.00216615	0.00515287	0.00295941	0.00137650	0.00161018	0.00157470	0.00292496
1.73000000	0.00690701	0.00466700	0.00310935	0.00654110	0.00772772	0.00951313	0.00354644	0.00434969	0.00201072	0.01422931	0.00570791	0.01123316	0.00261738	0.00460125	0.00198640	0.00425853	0.00448873	0.00191455	0.00233853	0.00527851	0.00348179	0.00145803	0.00176611	0.00174334	0.00321543
1.74000000	0.00679620	0.00432351	0.00299968	0.00683345	0.00782658	0.00965368	0.00354853	0.00434412	0.00210061	0.01356459	0.00574671	0.01011699	0.00232811	0.00426490	0.00182775	0.00447755	0.00481303	0.00214134	0.00250451	0.00533493	0.00392937	0.00157265	0.00201914	0.00175767	0.00346976
1.75000000	0.00660808	0.00404626	0.00299613	0.00706917	0.00779338	0.00997202	0.00349337	0.00434152	0.00207717	0.01233643	0.00574306	0.00848010	0.00207709	0.00372641	0.00140136	0.00482328	0.00498452	0.00242439	0.00261314	0.00545392	0.00439626	0.00172250	0.00208654	0.00188091	0.00364276
1.76000000	0.00633732	0.00361704	0.00291841	0.00726286	0.00778852	0.01008790	0.00341789	0.00430141	0.00206839	0.01080627	0.00577837	0.00672282	0.00185436	0.00315206	0.00115342	0.00504386	0.00520565	0.00259010	0.00269074	0.00550744	0.00483891	0.00180832	0.00227922	0.00200025	0.00385394
1.77000000	0.00596645	0.00333180	0.00300728	0.00752654	0.00770127	0.01021560	0.00340114	0.00420498	0.00211036	0.00920317	0.00578770	0.00472341	0.00177113	0.00236482	0.00082325	0.00527281	0.00528251	0.00281560	0.00273027	0.00555406	0.00520326	0.00194166	0.00230339	0.00205255	0.00398606
1.78000000	0.00552871	0.00324286	0.00314501	0.00781717	0.00766120	0.01021239	0.00334209	0.00404915	0.00209311	0.00791554	0.00574968	0.00307298	0.00172946	0.00173987	0.00056166	0.00545865	0.00537685	0.00298819	0.00274773	0.00561557	0.00556481	0.00204836	0.00241346	0.00209209	0.00412619
1.79000000	0.00506410	0.00368397	0.00340846	0.00819227	0.00755443	0.01011719	0.00320404	0.00386943	0.00206839	0.00744368	0.00567563	0.00255803	0.00170630	0.00148213	0.00032112	0.00555061	0.00546481	0.00311517	0.00277994	0.00566021	0.00592397	0.00209455	0.00250745	0.00210837	0.00428518
1.80000000	0.00457252	0.00458988	0.00385617	0.00865796	0.00728248	0.01004446	0.00310125	0.00366024	0.00203560	0.00787556	0.00559686	0.00329432	0.00173349	0.00153266	0.00041658	0.00545100	0.00547825	0.00312224	0.00280001	0.00553061	0.00622919	0.00206556	0.00257926	0.00212571	0.00448761
1.81000000	0.00395043	0.00460448	0.00391079	0.00875134	0.00749040	0.01020968	0.00306190	0.00336362	0.00199932	0.00827849	0.00545214	0.00445023	0.00189848	0.00224184	0.00046073	0.00560638	0.00539959	0.00328530	0.00262735	0.00561862	0.00617744	0.00219834	0.00252741	0.00216785	0.00440403
1.82000000	0.00334221	0.00501467	0.00416086	0.00919476	0.00708527	0.01019479	0.00296785	0.00332186	0.00198307	0.00868228	0.00544009	0.00508555	0.00193544	0.00220613	0.00071202	0.00543468	0.00533780	0.00326786	0.00261031	0.00550048	0.00624297	0.00217559	0.00252088	0.00213957	0.00443064
1.83000000	0.00287471	0.00522572	0.00430954	0.00961436	0.00628727	0.01029601	0.00290660	0.00317632	0.00207824	0.00860170	0.00535577	0.00504722	0.00191460	0.00195516	0.00085545	0.00533095	0.00523496	0.00322229	0.00249822	0.00543522	0.00613330	0.00228310	0.00254005	0.00211132	0.00437382
1.84000000	0.00245351	0.00509926	0.00433018	0.00999412	0.00562481	0.01028741	0.00292881	0.00304763	0.00218641	0.00794927	0.00516920	0.00464987	0.00178011	0.00172528	0.00099956	0.00514692	0.00506667	0.00316739	0.00240482	0.00537309	0.00593027	0.00233247	0.00251471	0.00214034	0.00427276
1.85000000	0.00209579	0.00450157	0.00409103	0.01018523	0.00508741	0.01028868	0.00305432	0.00293865	0.00225965	0.00681305	0.00495087	0.00404099	0.00166154	0.00159140	0.00139475	0.00500618	0.00490143	0.00311018	0.00228560	0.00541851	0.00566216	0.00237531	0.00256820	0.00221982	0.00409992
1.86000000	0.00220985	0.00449689	0.00400831	0.01017466	0.00555031	0.00979023	0.00320507	0.00316131	0.00193074	0.00527793	0.00483686	0.00302737	0.00183144	0.00122734	0.00128026	0.00438629	0.00456617	0.00290848	0.00237380	0.00518266	0.00562131	0.00220940	0.00218595	0.00213488	0.00414185
1.87000000	0.00231940	0.00410529	0.00377793	0.01020284	0.00464963	0.00983664	0.00334337	0.00285787	0.00227471	0.00415196	0.00446584	0.00244234	0.00157064	0.00210616	0.00205117	0.00422383	0.00435087	0.00278758	0.00212141	0.00516358	0.00511152	0.00222764	0.00222486	0.00222062	0.00386217
1.88000000	0.00298163	0.00420138	0.00352950	0.01002821	0.00516254	0.00901443	0.00349438	0.00286771	0.00211425	0.00297631	0.00436059	0.00206386	0.00184673	0.00207520	0.00155149	0.00362881	0.00414611	0.00253028	0.00210332	0.00498131	0.00493757	0.00207709	0.00199998	0.00206276	0.00397874
1.89000000	0.00345528	0.00408067	0.00322063	0.00962037	0.00519546	0.00846590	0.00361665	0.00260382	0.00241326	0.00222235	0.00408658	0.00242734	0.00187277	0.00263596	0.00165553	0.00316598	0.00391188	0.00230260	0.00197502	0.00482567	0.00467506	0.00191047	0.00185287	0.00200039	0.00390942
1.90000000	0.00386211	0.00387674	0.00273382	0.00897661	0.00544353	0.00782132	0.00366789	0.00237150	0.00291081	0.00149327	0.00370718	0.00321385	0.00189641	0.00314664	0.00173418	0.00292135	0.00373262	0.00217267	0.00169459	0.00478464	0.00418062	0.00179321	0.00189226	0.00191635	0.00373643
1.91000000	0.00394258	0.00367086	0.00226186	0.00816084	0.00593524	0.00703660	0.00371263	0.00215208	0.00342852	0.00114700	0.00346750	0.00391261	0.00188537	0.00328802	0.00214458	0.00293158	0.00350851	0.00210474	0.00131022	0.00485279	0.00373691	0.00181834	0.00193831	0.00193505	0.00348901
1.92000000	0.00449261	0.00417091	0.00213868	0.00720029	0.00685387	0.00513018	0.00380577	0.00208702	0.00351259	0.00084657	0.00328220	0.00389839	0.00204755	0.00328367	0.00147375	0.00222677	0.00323004	0.00172691	0.00140013	0.00441497	0.00380510	0.00150398	0.00145860	0.00179962	0.00349792
1.93000000	0.00481275	0.00380882	0.00171809	0.00551160	0.00767022	0.00406065	0.00397131	0.00253183	0.00380907	0.00082696	0.00272679	0.00439211	0.00216150	0.00309178	0.00168880	0.00221191	0.00289817	0.00179787	0.00121804	0.00440835	0.00334730	0.00145167	0.00133155	0.00175542	0.00321384
1.94000000	0.00472093	0.00382676	0.00157984	0.00455120	0.00845259	0.00239112	0.00416477	0.00278211	0.00346687	0.00101799	0.00262823	0.00389056	0.00230398	0.00283283	0.00151053	0.00209157	0.00272725	0.00164824	0.00120934	0.00428807	0.00332876	0.00145045	0.00098507	0.00174836	0.00300081
1.95000000	0.00504579	0.00345237	0.00160947	0.00275461	0.00940678	0.00243888	0.00431696	0.00308332	0.00311839	0.00123792	0.00232525	0.00387772	0.00237385	0.00253231	0.00165712	0.00223526	0.00240159	0.00178257	0.00118858	0.00435264	0.00296711	0.00151619	0.00100592	0.00172761	0.00265338
1.96000000	0.00482884	0.00349864	0.00176741	0.00305445	0.00997868	0.00404324	0.00469209	0.00300287	0.00211389	0.00148266	0.00232954	0.00343854	0.00238444	0.00215822	0.00154619	0.00228154	0.00239673	0.00167562	0.00126892	0.00434449	0.00296822	0.00148534	0.00076440	0.00173892	0.00252666
1.97000000	0.00501518	0.00319316	0.00222142	0.00413105	0.01081454	0.00559448	0.00490791	0.00318578	0.00150301	0.00187958	0.00211092	0.00338693	0.00223954	0.00202533	0.00151543	0.00244833	0.00215647	0.00174569	0.00130284	0.00438906	0.00276939	0.00164170	0.00081322	0.00170131	0.00223821
1.98000000	0.00508730	0.00314912	0.00272585	0.00596935	0.01156533	0.00725444	0.00517570	0.00339635	0.00170814	0.00229574	0.00201999	0.00341872	0.00207906	0.00174381	0.00157880	0.00250090	0.00200470	0.00177306	0.00139647	0.00436117	0.00274478	0.00169878	0.00080621	0.00170211	0.00203561
1.99000000	0.00458827	0.00308908	0.00290468	0.00640588	0.01166242	0.01012657	0.00565818	0.00316969	0.00117336	0.00255504	0.00185158	0.00335252	0.00203681	0.00143458	0.00133964	0.00264769	0.00231104	0.00163106	0.00140074	0.00442330	0.00285296	0.00162729	0.00056883	0.00157687	0.00216463
2.00000000	0.00468970	0.00312447	0.00345395	0.00784232	0.01234694	0.01141579	0.00584354	0.00368275	0.00198307	0.00299520	0.00163427	0.00350802	0.00179672	0.00142167	0.00118506	0.00265187	0.00227445	0.00160649	0.00141879	0.00429226	0.00294362	0.00178050	0.00056757	0.00151270	0.00209696
2.01000000	0.00446343	0.00308895	0.00362095	0.00780165	0.01241494	0.01379066	0.00617219	0.00419964	0.00219561	0.00328205	0.00152781	0.00361692	0.00178755	0.00109747	0.00126371	0.00275096	0.00255559	0.00160608	0.00136296	0.00432552	0.00300898	0.00161577	0.00060363	0.00137184	0.00228194
2.02000000	0.00454134	0.00322463	0.00386505	0.00815538	0.01267582	0.01537606	0.00641999	0.00472494	0.00243935	0.00355641	0.00146240	0.00373689	0.00168245	0.00102089	0.00109820	0.00274284	0.00271369	0.00158531	0.00130056	0.00419257	0.00317335	0.00161593	0.00082509	0.00124620	0.00238405
2.03000000	0.00470647	0.00338482	0.00402907	0.00842597	0.01287708	0.01669316	0.00656227	0.00527174	0.00269189	0.00374325	0.00146004	0.00386410	0.00163305	0.00094574	0.00113256	0.00271752	0.00283366	0.00159872	0.00119452	0.00400703	0.00327491	0.00156045	0.00096639	0.00111506	0.00249137
2.04000000	0.00506655	0.00343493	0.00433588	0.00919797	0.01325267	0.01726919	0.00661922	0.00572372	0.00317323	0.00387006	0.00171272	0.00398128	0.00150545	0.00090752	0.00089327	0.00250903	0.00274658	0.00155672	0.00112825	0.00355976	0.00341722	0.00155629	0.00109323	0.00099529	0.00253263
2.05000000	0.00517457	0.00333190	0.00439152	0.00972967	0.01342382	0.01763925	0.00670020	0.00606369	0.00364709	0.00400090	0.00192119	0.00412857	0.00144315	0.00086762	0.00092947	0.00233042	0.00262704	0.00153252	0.00104748	0.00312321	0.00347530	0.00151174	0.00119696	0.00090857	0.00256324
2.06000000	0.00522734	0.00296691	0.00425427	0.01009388	0.01349203	0.01766534	0.00675002	0.00629477	0.00387625	0.00427943	0.00231228	0.00427362	0.00140733	0.00081796	0.00081622	0.00224699	0.00244298	0.00147837	0.00082678	0.00269630	0.00338306	0.00158615	0.00139425	0.00095694	0.00255093
2.07000000	0.00491834	0.00282137	0.00415941	0.01005118	0.01349499	0.01760595	0.00667848	0.00638180	0.00404205	0.00450048	0.00229161	0.00452146	0.00138012	0.00086940	0.00103612	0.00188583	0.00208356	0.00147988	0.00082388	0.00205289	0.00312469	0.00133684	0.00128297	0.00071690	0.00230033
2.08000000	0.00472293	0.00293996	0.00371702	0.00927118	0.01313723	0.01759577	0.00663265	0.00631334	0.00394365	0.00479361	0.00208657	0.00493096	0.00148483	0.00088447	0.00139078	0.00175280	0.00179062	0.00153966	0.00065446	0.00163562	0.00279943	0.00115429	0.00075218	0.00059008	0.00188143
2.09000000	0.00423146	0.00265550	0.00319925	0.00914525	0.01310297	0.01711156	0.00662355	0.00614796	0.00368661	0.00535736	0.00210983	0.00503561	0.00145129	0.00095079	0.00088480	0.00144886	0.00161315	0.00149971	0.00067518	0.00121260	0.00240620	0.00089010	0.00052651	0.00040443	0.00149635
2.10000000	0.00414022	0.00199974	0.00298884	0.00942854	0.01314789	0.01630635	0.00669921	0.00582009	0.00347792	0.00596009	0.00266546	0.00517779	0.00137517	0.00117693	0.00048181	0.00093131	0.00127012	0.00135775	0.00095174	0.00077547	0.00190757	0.00059308	0.00061567	0.00027007	0.00114201
2.11000000	0.00396487	0.00191414	0.00272916	0.00921601	0.01296124	0.01555029	0.00657643	0.00567316	0.00377129	0.00666902	0.00245912	0.00550996	0.00121661	0.00118242	0.00052223	0.00063275	0.00138548	0.00132319	0.00103379	0.00118324	0.00150496	0.00038184	0.00031740	0.00016599	0.00075357
2.12000000	0.00410336	0.00212694	0.00251432	0.00906550	0.01277463	0.01470498	0.00648815	0.00544572	0.00364635	0.00737479	0.00255064	0.00593925	0.00122907	0.00142077	0.00037833	0.00069568	0.00176742	0.00131000	0.00120351	0.00185021	0.00118385	0.00023039	0.00045671	0.00013930	0.00036403
2.13000000	0.00412882	0.00238020	0.00237599	0.00898425	0.01249554	0.01384294	0.00636449	0.00526119	0.00366019	0.00816402	0.00253520	0.00639683	0.00123867	0.00153578	0.00037642	0.00102334	0.00230366	0.00142548	0.00136679	0.00257295	0.00118657	0.00033004	0.00072131	0.00033062	0.00016779
2.14000000	0.00411623	0.00286055	0.00238204	0.00885944	0.01209622	0.01299855	0.00621919	0.00506638	0.00333984	0.00887041	0.00248277	0.00701803	0.00129585	0.00179855	0.00058319	0.00142250	0.00305243	0.00158174	0.00145989	0.00332921	0.00168665	0.00056227	0.00111825	0.00049685	0.00054143
2.15000000	0.00409503	0.00319975	0.00247782	0.00893932	0.01158882	0.01224386	0.00614038	0.00489822	0.00303671	0.00944994	0.00258815	0.00760513	0.00138407	0.00205123	0.00061319	0.00192540	0.00368336	0.00173829	0.00156801	0.00399615	0.00212013	0.00082384	0.00136734	0.00070918	0.00097837
2.16000000	0.00419878	0.00345768	0.00257549	0.00902248	0.01089944	0.01181665	0.00591659	0.00502161	0.00309303	0.01011899	0.00301231	0.00767634	0.00142451	0.00213089	0.00056870	0.00251978	0.00414861	0.00185786	0.00182024	0.00460886	0.00256017	0.00120654	0.00150369	0.00098052	0.00122706
2.17000000	0.00411883	0.00375675	0.00275058	0.00918254	0.01016065	0.01129827	0.00574504	0.00490514	0.00261130	0.01049931	0.00303583	0.00825896	0.00152374	0.00238388	0.00074517	0.00296929	0.00481189	0.00196898	0.00188649	0.00510834	0.00307839	0.00140957	0.00178921	0.00114523	0.00162868
2.18000000	0.00435553	0.00400909	0.00275815	0.00931355	0.00927639	0.01137385	0.00543356	0.00527104	0.00256341	0.01093542	0.00354209	0.00811767	0.00162624	0.00250126	0.00082535	0.00355812	0.00509594	0.00197360	0.00218200	0.00544922	0.00355834	0.00173945	0.00176000	0.00150498	0.00184629
2.19000000	0.00422417	0.00401734	0.00280378	0.00945917	0.00863253	0.01073244	0.00508186	0.00502253	0.00197848	0.01117398	0.00349987	0.00864084	0.00165482	0.00260994	0.00091364	0.00386636	0.00587397	0.00212679	0.00221796	0.00582281	0.00403942	0.00189043	0.00219199	0.00152906	0.00215092
2.20000000	0.00448103	0.00410926	0.00284051	0.00959321	0.00782311	0.01026658	0.00455490	0.00493165	0.00171169	0.01122769	0.00377945	0.00898351	0.00175553	0.00278412	0.00108255	0.00424674	0.00643542	0.00222677	0.00235188	0.00605219	0.00441460	0.00200601	0.00239292	0.00176390	0.00240500
2.21000000	0.00457140	0.00399412	0.00284023	0.00916322	0.00738533	0.00995206	0.00399047	0.00503608	0.00148936	0.01149669	0.00427124	0.00871959	0.00169345	0.00274036	0.00109270	0.00459290	0.00676322	0.00223401	0.00259723	0.00611594	0.00489425	0.00227086	0.00247314	0.00192441	0.00261595
2.22000000	0.00472963	0.00400349	0.00330043	0.00836382	0.00672342	0.00979581	0.00341927	0.00504231	0.00166810	0.01158716	0.00437866	0.00862443	0.00184609	0.00281087	0.00115277	0.00499849	0.00703027	0.00227811	0.00281992	0.00614064	0.00527360	0.00244686	0.00260176	0.00234107	0.00273657
2.23000000	0.00496426	0.00397756	0.00312092	0.00790208	0.00629397	0.00751553	0.00267402	0.00389039	0.00106128	0.01149498	0.00428028	0.00918893	0.00173726	0.00292312	0.00139639	0.00510352	0.00784737	0.00248297	0.00281831	0.00628111	0.00555901	0.00226787	0.00296181	0.00225968	0.00310794
2.24000000	0.00504299	0.00389374	0.00351534	0.00680404	0.00590215	0.00591100	0.00205297	0.00315164	0.00091745	0.01165436	0.00464281	0.00903188	0.00179041	0.00285804	0.00133331	0.00534132	0.00821792	0.00259451	0.00298585	0.00625270	0.00592781	0.00244876	0.00313576	0.00244090	0.00329743
2.25000000	0.00519295	0.00388224	0.00397231	0.00580240	0.00544170	0.00413960	0.00149988	0.00235110	0.00061240	0.01172979	0.00484471	0.00894522	0.00182188	0.00284981	0.00140122	0.00556519	0.00862379	0.00273760	0.00311402	0.00627831	0.00628740	0.00252650	0.00329573	0.00263789	0.00354162
2.26000000	0.00550470	0.00367731	0.00460016	0.00546655	0.00541263	0.00328891	0.00116976	0.00173578	0.00106671	0.01183908	0.00525734	0.00867975	0.00176783	0.00278887	0.00142056	0.00572069	0.00889653	0.00287851	0.00327585	0.00625435	0.00664554	0.00274474	0.00335024	0.00279791	0.00371217
2.27000000	0.00590179	0.00382892	0.00496600	0.00596481	0.00511924	0.00300627	0.00116140	0.00095631	0.00055182	0.01194287	0.00532492	0.00862182	0.00186591	0.00284763	0.00143602	0.00591369	0.00925777	0.00302378	0.00334051	0.00633082	0.00692162	0.00277327	0.00359952	0.00299244	0.00387081
2.28000000	0.00641097	0.00377041	0.00545043	0.00726180	0.00509698	0.00396715	0.00124922	0.00096287	0.00072138	0.01204800	0.00560018	0.00841407	0.00187592	0.00285607	0.00143040	0.00611954	0.00942773	0.00316213	0.00345649	0.00639652	0.00719906	0.00295083	0.00370147	0.00316864	0.00400698
2.29000000	0.00713184	0.00379270	0.00601468	0.00859174	0.00497014	0.00483820	0.00129323	0.00118679	0.00095985	0.01222864	0.00571953	0.00815062	0.00188176	0.00279587	0.00138841	0.00628021	0.00948866	0.00327798	0.00356534	0.00642944	0.00740838	0.00307725	0.00376007	0.00336734	0.00412770
2.30000000	0.00725628	0.00385664	0.00618063	0.00904352	0.00492638	0.00537106	0.00151350	0.00145381	0.00109582	0.01228923	0.00593346	0.00802901	0.00191635	0.00289403	0.00136045	0.00642310	0.00955093	0.00334192	0.00364027	0.00649870	0.00758984	0.00326232	0.00400209	0.00345336	0.00417495
2.31000000	0.00760075	0.00388278	0.00641004	0.00904775	0.00480714	0.00508326	0.00165892	0.00131134	0.00122451	0.01225818	0.00573325	0.00790034	0.00207202	0.00293983	0.00132552	0.00663221	0.00974266	0.00346857	0.00355728	0.00671508	0.00739233	0.00330250	0.00380062	0.00367622	0.00444111
2.32000000	0.00741969	0.00392641	0.00631516	0.00815068	0.00469189	0.00459704	0.00181691	0.00115666	0.00111512	0.01212337	0.00583385	0.00778855	0.00205266	0.00303501	0.00125225	0.00668373	0.00960925	0.00347167	0.00365774	0.00674996	0.00756136	0.00342736	0.00405357	0.00370494	0.00443965
2.33000000	0.00728281	0.00389707	0.00612829	0.00680659	0.00456330	0.00371611	0.00192254	0.00097650	0.00103643	0.01181573	0.00573987	0.00759627	0.00209195	0.00312519	0.00134957	0.00680352	0.00948419	0.00348283	0.00367378	0.00687390	0.00754868	0.00353083	0.00410686	0.00383366	0.00452952
2.34000000	0.00742789	0.00391749	0.00620459	0.00552208	0.00433172	0.00278315	0.00181765	0.00112701	0.00111468	0.01114706	0.00590454	0.00749583	0.00227495	0.00315654	0.00149225	0.00676640	0.00901916	0.00343558	0.00371633	0.00672199	0.00746307	0.00361447	0.00409674	0.00384624	0.00457680
2.35000000	0.00737841	0.00383419	0.00581341	0.00402948	0.00422596	0.00199181	0.00191255	0.00144569	0.00120789	0.01057553	0.00556504	0.00714501	0.00225101	0.00302146	0.00166292	0.00679557	0.00890610	0.00343596	0.00356126	0.00688932	0.00710541	0.00367161	0.00409468	0.00386951	0.00462165
2.36000000	0.00761215	0.00367906	0.00553607	0.00290449	0.00401850	0.00189386	0.00183198	0.00194975	0.00148392	0.00993550	0.00551394	0.00657959	0.00223705	0.00260801	0.00184068	0.00674525	0.00819270	0.00337629	0.00357849	0.00668935	0.00690967	0.00363444	0.00408067	0.00396500	0.00455023
2.37000000	0.00791544	0.00369426	0.00575588	0.00200398	0.00377152	0.00192226	0.00155582	0.00288706	0.00138814	0.00891943	0.00548490	0.00594162	0.00227328	0.00209005	0.00213983	0.00655415	0.00725442	0.00320863	0.00354231	0.00625582	0.00660055	0.00370723	0.00379238	0.00398305	0.00452086
2.38000000	0.00786864	0.00354693	0.00527306	0.00098317	0.00380664	0.00271695	0.00138822	0.00309507	0.00158249	0.00790190	0.00502913	0.00537297	0.00210709	0.00142960	0.00260249	0.00633869	0.00687511	0.00313333	0.00329528	0.00620794	0.00605340	0.00360324	0.00365829	0.00385060	0.00458276
2.39000000	0.00787739	0.00370174	0.00514429	0.00124042	0.00345734	0.00354119	0.00090454	0.00358908	0.00166040	0.00662881	0.00507722	0.00423834	0.00227774	0.00104980	0.00297720	0.00615103	0.00578775	0.00293396	0.00326236	0.00565246	0.00574465	0.00351728	0.00347585	0.00388926	0.00436170
2.40000000	0.00755525	0.00387676	0.00454951	0.00166686	0.00333857	0.00504275	0.00084660	0.00360153	0.00171956	0.00531819	0.00461057	0.00330159	0.00222064	0.00094069	0.00344581	0.00578905	0.00532125	0.00278693	0.00306589	0.00542234	0.00529103	0.00317129	0.00334878	0.00370611	0.00436272
2.41000000	0.00727995	0.00408751	0.00427079	0.00272938	0.00305418	0.00516946	0.00110795	0.00373265	0.00170683	0.00370033	0.00441936	0.00197384	0.00255109	0.00136319	0.00331246	0.00553929	0.00465641	0.00257884	0.00293896	0.00506760	0.00495366	0.00303041	0.00320937	0.00353301	0.00422594
2.42000000	0.00679563	0.00452603	0.00390716	0.00260578	0.00296843	0.00532157	0.00151430	0.00345686	0.00182276	0.00225547	0.00405022	0.00056195	0.00263652	0.00157448	0.00316488	0.00518563	0.00433639	0.00245273	0.00276368	0.00485112	0.00447512	0.00267603	0.00310319	0.00324613	0.00408290
2.43000000	0.00625586	0.00491925	0.00369593	0.00241649	0.00281441	0.00487872	0.00174746	0.00332341	0.00188072	0.00128871	0.00374128	0.00084574	0.00274102	0.00175110	0.00268003	0.00477288	0.00417729	0.00230678	0.00258997	0.00468767	0.00406698	0.00225848	0.00301939	0.00292641	0.00397442
2.44000000	0.00565947	0.00526960	0.00366222	0.00241008	0.00270638	0.00421891	0.00168886	0.00344207	0.00199964	0.00232158	0.00368167	0.00185938	0.00274807	0.00189243	0.00229699	0.00432806	0.00424374	0.00223520	0.00241304	0.00464085	0.00365000	0.00178488	0.00302445	0.00255432	0.00379125
2.45000000	0.00541854	0.00539468	0.00374347	0.00267712	0.00281971	0.00342470	0.00167682	0.00324106	0.00191391	0.00327775	0.00363030	0.00374627	0.00279091	0.00207062	0.00128256	0.00418133	0.00407149	0.00212413	0.00235492	0.00450917	0.00338221	0.00162486	0.00278985	0.00235655	0.00350039
2.46000000	0.00526810	0.00538911	0.00396595	0.00279594	0.00281716	0.00313133	0.00139846	0.00312898	0.00193355	0.00449190	0.00395927	0.00521749	0.00304776	0.00224940	0.00074977	0.00395748	0.00414468	0.00210496	0.00226358	0.00443907	0.00313511	0.00133343	0.00266078	0.00214692	0.00318512
2.47000000	0.00509512	0.00533369	0.00440863	0.00276476	0.00280498	0.00297226	0.00112789	0.00318636	0.00168183	0.00578354	0.00479566	0.00643273	0.00315680	0.00275281	0.00122887	0.00383038	0.00427228	0.00211306	0.00220105	0.00437194	0.00304556	0.00116676	0.00246708	0.00194138	0.00295463
2.48000000	0.00507811	0.00497201	0.00462232	0.00265598	0.00275923	0.00296943	0.00080420	0.00306847	0.00162622	0.00683312	0.00553132	0.00823527	0.00357168	0.00294748	0.00183697	0.00395034	0.00443219	0.00218158	0.00215320	0.00439156	0.00296334	0.00121548	0.00241969	0.00192977	0.00254493
2.49000000	0.00480306	0.00435352	0.00456205	0.00236008	0.00268916	0.00296824	0.00055885	0.00273606	0.00156926	0.00699054	0.00575436	0.01079227	0.00391238	0.00337976	0.00187846	0.00432033	0.00463186	0.00220554	0.00212091	0.00452989	0.00311467	0.00146199	0.00225662	0.00209513	0.00217338
2.50000000	0.00490745	0.00405356	0.00469294	0.00255926	0.00275036	0.00284191	0.00050677	0.00278952	0.00176668	0.00802572	0.00654852	0.01257788	0.00398424	0.00419870	0.00312416	0.00442409	0.00479128	0.00230656	0.00216398	0.00443755	0.00328147	0.00150143	0.00254584	0.00205960	0.00184206
2.51000000	0.00504351	0.00400714	0.00491954	0.00265192	0.00271141	0.00305086	0.00050208	0.00308111	0.00146828	0.00888205	0.00710300	0.01455819	0.00412826	0.00427406	0.00334845	0.00458185	0.00468496	0.00226004	0.00206769	0.00411244	0.00336970	0.00167933	0.00223142	0.00205990	0.00151776
2.52000000	0.00498085	0.00363733	0.00470813	0.00224494	0.00298768	0.00335614	0.00081970	0.00280497	0.00161149	0.00886995	0.00686077	0.01674460	0.00418454	0.00446022	0.00324009	0.00475459	0.00475684	0.00236519	0.00196551	0.00409280	0.00323937	0.00171368	0.00188161	0.00204557	0.00120981
2.53000000	0.00506294	0.00371744	0.00473111	0.00221895	0.00334230	0.00331772	0.00088798	0.00301146	0.00149648	0.00952994	0.00694005	0.01792218	0.00419156	0.00450108	0.00327321	0.00465845	0.00446326	0.00224663	0.00191456	0.00363910	0.00337569	0.00171189	0.00180411	0.00189947	0.00094897
2.54000000	0.00477253	0.00362850	0.00446295	0.00228730	0.00368667	0.00314207	0.00105131	0.00320092	0.00171171	0.01029429	0.00696054	0.01841341	0.00420010	0.00451789	0.00318554	0.00457242	0.00404732	0.00197513	0.00189760	0.00322680	0.00363260	0.00179153	0.00201319	0.00188298	0.00080801
2.55000000	0.00490912	0.00342867	0.00431301	0.00239749	0.00382256	0.00318255	0.00123092	0.00350080	0.00158135	0.01049800	0.00668365	0.01856666	0.00413660	0.00451377	0.00308748	0.00416565	0.00354617	0.00185377	0.00179058	0.00283255	0.00327656	0.00159385	0.00175368	0.00149324	0.00064337
2.56000000	0.00498480	0.00376689	0.00452557	0.00237391	0.00544340	0.00273117	0.00137853	0.00289879	0.00223789	0.01104856	0.00648303	0.01799692	0.00433813	0.00448588	0.00277833	0.00339445	0.00286435	0.00163468	0.00176993	0.00244946	0.00305007	0.00138093	0.00261503	0.00105021	0.00119061
2.57000000	0.00477424	0.00378649	0.00348701	0.00273001	0.00418641	0.00387711	0.00166957	0.00357265	0.00178181	0.01030390	0.00604946	0.01753090	0.00380099	0.00442956	0.00291918	0.00312260	0.00262012	0.00152277	0.00148170	0.00254856	0.00264620	0.00094693	0.00137802	0.00084294	0.00040737
2.58000000	0.00447494	0.00381530	0.00303446	0.00308981	0.00438666	0.00426062	0.00204260	0.00373882	0.00172526	0.01041510	0.00590744	0.01654969	0.00376518	0.00439774	0.00285893	0.00262001	0.00193610	0.00140697	0.00143918	0.00261227	0.00228402	0.00064071	0.00111857	0.00051368	0.00062356
2.59000000	0.00408925	0.00393209	0.00254881	0.00373207	0.00462932	0.00456743	0.00239946	0.00392902	0.00173949	0.01078856	0.00590225	0.01545875	0.00376819	0.00443045	0.00284214	0.00219699	0.00106232	0.00125995	0.00154502	0.00283800	0.00204626	0.00061876	0.00107631	0.00034227	0.00095322
2.60000000	0.00388676	0.00415569	0.00210323	0.00415166	0.00483136	0.00516271	0.00272702	0.00418226	0.00177477	0.01109167	0.00584437	0.01455843	0.00377325	0.00453899	0.00297445	0.00197568	0.00041984	0.00132847	0.00157508	0.00317725	0.00170553	0.00039660	0.00094760	0.00002761	0.00137523
2.61000000	0.00417621	0.00430375	0.00203201	0.00475091	0.00506963	0.00585068	0.00299353	0.00414130	0.00172778	0.01119944	0.00584194	0.01389251	0.00359915	0.00462619	0.00303010	0.00191389	0.00052075	0.00164478	0.00150124	0.00358783	0.00125543	0.00042601	0.00108913	0.00024268	0.00146734
2.62000000	0.00436418	0.00425182	0.00217120	0.00485589	0.00568380	0.00667532	0.00322004	0.00397419	0.00196983	0.01179214	0.00594574	0.01324923	0.00361895	0.00457052	0.00280957	0.00200103	0.00108637	0.00198332	0.00146856	0.00388763	0.00099504	0.00054928	0.00073155	0.00048541	0.00178241
2.63000000	0.00461609	0.00425437	0.00224520	0.00512171	0.00607207	0.00727258	0.00339715	0.00408024	0.00178919	0.01249615	0.00592205	0.01300700	0.00344203	0.00466602	0.00289224	0.00228770	0.00180447	0.00220388	0.00161258	0.00415638	0.00071231	0.00063397	0.00094468	0.00069729	0.00207663
2.64000000	0.00501020	0.00455118	0.00188287	0.00532306	0.00696506	0.00732322	0.00325747	0.00394988	0.00226422	0.01384784	0.00530369	0.01328918	0.00339662	0.00466357	0.00290446	0.00212434	0.00294155	0.00245691	0.00184899	0.00459790	0.00080923	0.00045460	0.00096743	0.00093426	0.00274126
2.65000000	0.00528663	0.00425951	0.00272504	0.00599634	0.00665405	0.00845739	0.00354212	0.00415748	0.00191901	0.01385885	0.00581786	0.01257062	0.00304990	0.00464089	0.00260835	0.00265872	0.00294379	0.00277569	0.00184626	0.00455789	0.00082396	0.00096829	0.00120461	0.00100313	0.00254337
2.66000000	0.00546012	0.00427611	0.00287686	0.00633552	0.00696277	0.00894217	0.00363185	0.00420349	0.00195405	0.01431166	0.00569361	0.01226950	0.00283706	0.00448647	0.00229881	0.00279965	0.00339271	0.00303754	0.00200603	0.00468007	0.00107017	0.00109377	0.00121157	0.00119376	0.00277575
2.67000000	0.00560371	0.00405219	0.00269228	0.00667801	0.00722330	0.00920184	0.00365841	0.00426936	0.00186806	0.01437701	0.00565564	0.01185688	0.00247891	0.00452843	0.00220576	0.00290928	0.00383002	0.00320133	0.00222646	0.00480408	0.00145035	0.00124600	0.00143640	0.00132985	0.00299071
2.68000000	0.00558441	0.00378875	0.00263940	0.00704669	0.00736541	0.00957458	0.00372044	0.00427327	0.00193353	0.01409512	0.00563775	0.01090464	0.00222237	0.00422513	0.00181236	0.00301263	0.00411158	0.00342515	0.00237564	0.00489209	0.00177884	0.00143714	0.00143139	0.00150177	0.00313538
2.69000000	0.00546748	0.00348493	0.00246523	0.00713537	0.00741864	0.00999816	0.00378125	0.00424725	0.00204811	0.01331117	0.00563748	0.00957320	0.00200563	0.00376846	0.00147945	0.00314409	0.00436013	0.00361656	0.00249868	0.00498715	0.00214909	0.00165527	0.00134256	0.00168908	0.00331626
2.70000000	0.00521152	0.00285348	0.00218350	0.00740844	0.00758035	0.01010427	0.00380531	0.00430303	0.00196625	0.01200673	0.00573873	0.00799795	0.00175042	0.00346626	0.00122773	0.00320875	0.00460296	0.00373991	0.00265645	0.00502811	0.00258650	0.00181803	0.00150224	0.00181579	0.00343487
2.71000000	0.00493566	0.00233417	0.00209066	0.00765405	0.00762677	0.01022540	0.00379083	0.00428851	0.00198361	0.01036921	0.00582516	0.00612410	0.00161247	0.00299027	0.00094710	0.00330802	0.00480321	0.00385687	0.00276811	0.00505743	0.00302631	0.00196933	0.00157022	0.00197067	0.00355459
2.72000000	0.00476186	0.00267527	0.00231200	0.00785040	0.00755437	0.01009197	0.00375077	0.00422221	0.00198487	0.00897006	0.00584527	0.00456364	0.00154785	0.00242173	0.00082748	0.00324376	0.00517398	0.00380485	0.00296803	0.00501882	0.00359018	0.00203763	0.00176827	0.00198626	0.00390569
2.73000000	0.00423928	0.00238702	0.00258186	0.00816426	0.00761208	0.01025557	0.00368871	0.00422049	0.00200629	0.00773208	0.00587939	0.00281457	0.00153706	0.00221757	0.00032552	0.00347816	0.00525420	0.00406302	0.00295633	0.00509663	0.00393480	0.00220061	0.00178519	0.00217391	0.00387513
2.74000000	0.00379477	0.00293910	0.00306415	0.00830720	0.00749575	0.01040115	0.00368197	0.00416920	0.00203201	0.00762020	0.00586288	0.00280332	0.00171952	0.00197869	0.00025793	0.00357011	0.00544410	0.00421603	0.00298114	0.00510181	0.00425686	0.00232070	0.00183944	0.00222781	0.00398078
2.75000000	0.00337273	0.00362878	0.00356031	0.00851788	0.00746067	0.01038481	0.00360263	0.00410568	0.00203947	0.00817213	0.00583046	0.00387971	0.00188218	0.00211010	0.00055750	0.00362392	0.00566494	0.00433920	0.00299501	0.00509852	0.00455918	0.00238328	0.00198677	0.00230945	0.00411336
2.76000000	0.00304885	0.00460258	0.00410765	0.00895101	0.00720838	0.01021789	0.00349292	0.00397334	0.00201161	0.00883541	0.00576251	0.00472737	0.00200484	0.00216635	0.00086143	0.00360498	0.00589216	0.00444043	0.00306477	0.00509184	0.00491335	0.00240989	0.00219084	0.00233785	0.00433307
2.77000000	0.00270121	0.00512278	0.00452487	0.00939626	0.00673112	0.01015319	0.00338710	0.00377868	0.00219605	0.00910030	0.00574025	0.00512848	0.00227689	0.00197623	0.00130725	0.00367039	0.00623937	0.00457257	0.00302065	0.00525156	0.00496312	0.00242857	0.00242237	0.00241519	0.00442287
2.78000000	0.00217611	0.00458541	0.00459700	0.00936890	0.00697099	0.01034756	0.00346572	0.00363821	0.00208651	0.00856096	0.00559770	0.00542674	0.00233407	0.00235588	0.00125926	0.00361207	0.00624053	0.00477092	0.00309881	0.00520263	0.00520871	0.00255890	0.00239870	0.00244812	0.00443445
2.79000000	0.00190649	0.00450068	0.00477320	0.00979876	0.00655365	0.01026980	0.00335842	0.00364032	0.00210115	0.00770909	0.00546075	0.00487038	0.00238053	0.00216173	0.00136168	0.00362321	0.00643108	0.00491936	0.00311174	0.00539579	0.00525879	0.00262880	0.00253791	0.00251897	0.00449481
2.80000000	0.00181981	0.00423622	0.00486748	0.01018172	0.00606732	0.01021854	0.00334153	0.00355619	0.00212787	0.00652326	0.00524060	0.00406871	0.00236990	0.00204001	0.00143242	0.00362505	0.00661214	0.00504801	0.00311597	0.00566398	0.00522070	0.00269192	0.00265756	0.00262335	0.00449662
2.81000000	0.00204775	0.00398521	0.00499804	0.01049138	0.00579274	0.01007115	0.00337633	0.00357377	0.00209729	0.00518536	0.00507484	0.00311073	0.00240610	0.00185346	0.00148710	0.00351967	0.00666260	0.00510134	0.00316090	0.00581709	0.00519729	0.00282355	0.00266184	0.00263537	0.00447274
2.82000000	0.00245639	0.00369867	0.00502244	0.01062820	0.00568355	0.00982252	0.00348272	0.00354200	0.00215080	0.00394031	0.00494525	0.00216835	0.00249700	0.00170191	0.00148898	0.00338802	0.00673957	0.00508043	0.00322576	0.00599811	0.00519025	0.00295615	0.00279357	0.00258309	0.00441333
2.83000000	0.00287670	0.00385364	0.00537203	0.01069339	0.00468329	0.00999137	0.00352315	0.00327887	0.00210328	0.00313729	0.00442321	0.00163992	0.00224589	0.00275972	0.00202949	0.00316868	0.00668028	0.00510656	0.00315468	0.00605495	0.00477465	0.00269993	0.00278988	0.00283242	0.00418552
2.84000000	0.00340392	0.00363489	0.00523639	0.01038325	0.00507784	0.00940706	0.00358537	0.00330556	0.00232799	0.00228211	0.00421641	0.00189749	0.00234479	0.00284449	0.00190784	0.00290515	0.00676534	0.00499027	0.00311766	0.00609212	0.00461871	0.00267175	0.00282630	0.00266730	0.00430977
2.85000000	0.00398879	0.00366725	0.00523916	0.00999667	0.00532639	0.00873806	0.00367556	0.00304904	0.00246987	0.00153159	0.00407571	0.00255386	0.00237276	0.00322914	0.00194806	0.00259682	0.00668058	0.00481977	0.00305724	0.00589591	0.00439548	0.00247660	0.00283051	0.00257050	0.00435144
2.86000000	0.00446399	0.00366708	0.00510452	0.00938006	0.00574442	0.00794787	0.00371997	0.00265658	0.00274448	0.00089275	0.00388297	0.00351688	0.00228081	0.00359113	0.00204684	0.00232809	0.00652895	0.00471032	0.00290175	0.00567363	0.00407262	0.00232327	0.00279010	0.00243422	0.00436495
2.87000000	0.00479463	0.00366289	0.00484594	0.00846650	0.00635546	0.00701181	0.00378538	0.00232551	0.00314241	0.00111136	0.00368163	0.00455271	0.00213994	0.00370779	0.00210287	0.00211901	0.00635610	0.00454680	0.00268962	0.00539967	0.00367693	0.00212782	0.00271864	0.00233824	0.00435047
2.88000000	0.00518987	0.00431127	0.00475167	0.00758562	0.00720902	0.00526580	0.00391719	0.00205218	0.00334089	0.00157778	0.00369177	0.00468975	0.00201750	0.00354386	0.00165342	0.00214341	0.00593706	0.00421885	0.00264373	0.00485231	0.00356480	0.00179483	0.00249019	0.00223815	0.00430980
