SUBJ59_1_JMP_05_torso_marker_adjustment_task_1_finalErrors.sto
version=1
nRows=292
nColumns=26
inDegrees=no
endheader
time	R_Asis	L_Asis	Sacral	R_Thigh_Lateral	R_Knee_Lateral	R_Shank_Lateral	R_Ankle_Lateral	R_Heel	R_Toe	L_Thigh_Lateral	L_Knee_Lateral	L_Shank_Lateral	L_Ankle_Lateral	L_Heel	L_Toe	R_Shoulder	L_Shoulder	C7	J_Notch	Thoracic	Sternum	R_Elbow	L_Elbow	R_Wrist	L_Wrist
0.00000000	0.00398134	0.00225852	0.00305918	0.01083032	0.00311702	0.01069641	0.00214266	0.00488904	0.00104588	0.00652658	0.00244461	0.00418877	0.00174020	0.00367169	0.00287713	0.00184176	0.00234457	0.00163033	0.00168997	0.00099337	0.00197525	0.00048966	0.00173819	0.00093714	0.00259509
0.01000000	0.00401980	0.00213414	0.00286792	0.01109507	0.00261788	0.01105616	0.00220727	0.00495257	0.00111192	0.00654523	0.00257627	0.00419411	0.00177650	0.00382362	0.00278206	0.00167281	0.00243440	0.00168843	0.00166417	0.00091887	0.00215908	0.00066589	0.00163361	0.00065638	0.00289064
0.02000000	0.00385369	0.00198639	0.00292683	0.01143307	0.00282778	0.01126366	0.00192836	0.00469784	0.00105710	0.00659501	0.00256127	0.00406182	0.00177345	0.00350112	0.00291433	0.00151503	0.00215799	0.00168690	0.00182422	0.00087026	0.00257922	0.00060510	0.00197800	0.00056567	0.00300821
0.03000000	0.00401760	0.00194918	0.00278897	0.01173750	0.00211886	0.01158621	0.00216175	0.00471813	0.00132794	0.00659263	0.00274564	0.00406226	0.00184061	0.00372133	0.00277631	0.00127492	0.00234953	0.00177212	0.00175788	0.00084719	0.00276415	0.00100427	0.00180429	0.00022986	0.00342727
0.04000000	0.00376528	0.00187667	0.00298687	0.01194763	0.00251400	0.01142116	0.00203952	0.00443263	0.00098473	0.00655804	0.00270290	0.00407781	0.00178004	0.00347332	0.00280379	0.00112649	0.00212568	0.00177749	0.00193144	0.00079442	0.00312966	0.00095742	0.00230477	0.00011701	0.00354036
0.05000000	0.00383400	0.00182929	0.00268322	0.01206432	0.00210515	0.01143590	0.00214239	0.00427310	0.00090661	0.00665199	0.00280749	0.00406766	0.00193040	0.00352127	0.00276267	0.00088625	0.00215308	0.00184654	0.00196133	0.00093894	0.00344649	0.00132166	0.00212538	0.00055897	0.00391830
0.06000000	0.00365631	0.00182355	0.00295288	0.01177354	0.00231100	0.01075152	0.00228236	0.00395711	0.00108188	0.00666734	0.00297626	0.00414613	0.00185858	0.00342101	0.00281026	0.00085757	0.00221290	0.00185742	0.00209569	0.00115462	0.00366203	0.00133440	0.00275857	0.00047652	0.00402919
0.07000000	0.00388555	0.00173090	0.00258583	0.01136783	0.00202941	0.01015430	0.00239737	0.00382435	0.00080703	0.00680499	0.00305416	0.00422633	0.00204216	0.00345218	0.00275597	0.00088482	0.00246098	0.00201939	0.00210250	0.00157709	0.00389336	0.00163084	0.00257584	0.00095425	0.00435699
0.08000000	0.00411520	0.00163479	0.00246234	0.01071499	0.00207115	0.00898406	0.00246239	0.00359261	0.00084240	0.00696462	0.00327342	0.00429234	0.00215920	0.00336214	0.00281263	0.00100885	0.00274299	0.00210938	0.00212872	0.00196365	0.00412083	0.00180759	0.00289938	0.00118557	0.00453016
0.09000000	0.00338769	0.00160879	0.00266525	0.00967844	0.00231704	0.00745623	0.00274091	0.00341450	0.00111096	0.00682961	0.00331372	0.00471791	0.00206796	0.00347249	0.00273475	0.00106019	0.00297408	0.00217096	0.00233481	0.00234273	0.00436837	0.00177668	0.00335183	0.00119465	0.00478794
0.10000000	0.00382252	0.00144050	0.00234427	0.00884200	0.00216378	0.00594514	0.00276829	0.00325440	0.00112299	0.00698742	0.00345811	0.00485731	0.00227814	0.00338903	0.00277142	0.00133315	0.00327820	0.00232707	0.00234335	0.00276211	0.00461439	0.00196719	0.00341949	0.00151112	0.00503504
0.11000000	0.00347460	0.00138398	0.00232348	0.00818787	0.00227658	0.00409655	0.00290165	0.00320162	0.00135403	0.00695458	0.00358300	0.00504925	0.00237099	0.00343014	0.00273971	0.00138627	0.00347739	0.00232788	0.00248158	0.00300548	0.00496052	0.00205001	0.00388418	0.00161329	0.00521440
0.12000000	0.00395793	0.00120622	0.00235903	0.00802961	0.00214935	0.00239409	0.00286632	0.00317706	0.00137915	0.00700702	0.00351351	0.00513076	0.00259784	0.00335729	0.00276518	0.00167038	0.00369064	0.00244239	0.00245646	0.00328815	0.00513859	0.00220550	0.00384602	0.00190214	0.00548563
0.13000000	0.00384479	0.00110477	0.00254570	0.00833320	0.00206376	0.00087013	0.00285414	0.00317193	0.00154708	0.00694394	0.00352289	0.00517984	0.00269943	0.00330124	0.00283454	0.00178093	0.00383092	0.00245773	0.00252773	0.00344577	0.00542602	0.00229105	0.00419877	0.00201642	0.00562437
0.14000000	0.00411032	0.00089961	0.00311756	0.00894764	0.00201464	0.00143094	0.00289231	0.00314967	0.00162774	0.00692891	0.00333875	0.00512841	0.00293404	0.00331503	0.00275153	0.00194589	0.00390120	0.00253280	0.00250613	0.00353581	0.00558303	0.00237839	0.00416047	0.00219971	0.00586867
0.15000000	0.00354490	0.00096085	0.00328103	0.00961271	0.00186410	0.00294727	0.00288875	0.00321420	0.00180937	0.00682569	0.00330817	0.00500088	0.00299694	0.00331860	0.00278545	0.00211994	0.00396264	0.00251027	0.00258120	0.00362563	0.00585983	0.00245008	0.00449184	0.00225842	0.00602802
0.16000000	0.00374752	0.00092835	0.00379635	0.01001360	0.00168312	0.00392675	0.00275136	0.00306717	0.00180960	0.00682390	0.00311295	0.00489860	0.00319751	0.00322446	0.00279477	0.00233341	0.00397516	0.00255635	0.00259269	0.00368337	0.00611286	0.00257045	0.00455731	0.00246615	0.00622872
0.17000000	0.00400116	0.00097930	0.00449894	0.01030358	0.00120674	0.00422559	0.00281889	0.00273497	0.00195729	0.00676481	0.00296586	0.00489141	0.00345520	0.00324133	0.00279834	0.00258536	0.00419334	0.00275900	0.00251335	0.00388339	0.00612217	0.00272263	0.00379320	0.00267098	0.00694194
0.18000000	0.00392613	0.00079203	0.00495479	0.00980533	0.00143111	0.00453470	0.00253179	0.00247876	0.00188768	0.00696850	0.00273457	0.00480376	0.00352799	0.00318671	0.00267359	0.00267969	0.00386916	0.00268029	0.00259268	0.00369943	0.00647556	0.00278537	0.00460612	0.00277633	0.00653225
0.19000000	0.00282528	0.00112045	0.00471542	0.00914599	0.00130602	0.00446191	0.00240162	0.00218443	0.00197461	0.00689931	0.00269298	0.00484279	0.00353250	0.00317891	0.00260671	0.00282878	0.00381592	0.00258316	0.00265856	0.00369707	0.00682651	0.00283597	0.00487704	0.00278434	0.00663606
0.20000000	0.00315579	0.00115268	0.00509200	0.00804707	0.00104631	0.00379046	0.00220999	0.00148938	0.00201297	0.00692468	0.00238728	0.00472467	0.00390424	0.00313300	0.00247756	0.00319772	0.00391869	0.00273736	0.00258793	0.00391146	0.00687316	0.00311624	0.00424917	0.00307290	0.00704956
0.21000000	0.00283677	0.00152119	0.00551148	0.00689003	0.00124078	0.00306994	0.00236228	0.00103690	0.00196142	0.00702104	0.00215614	0.00460025	0.00397779	0.00302231	0.00235950	0.00334981	0.00357236	0.00256589	0.00260506	0.00373700	0.00705182	0.00321129	0.00501512	0.00322073	0.00651693
0.22000000	0.00219927	0.00224011	0.00527984	0.00585533	0.00122872	0.00268144	0.00241671	0.00072712	0.00195426	0.00685810	0.00213370	0.00454707	0.00397954	0.00294966	0.00221372	0.00355236	0.00340717	0.00250620	0.00261494	0.00374729	0.00716615	0.00330324	0.00482062	0.00328275	0.00651809
0.23000000	0.00238264	0.00259109	0.00574377	0.00480096	0.00169084	0.00249063	0.00276274	0.00118257	0.00192719	0.00668948	0.00181704	0.00425550	0.00435622	0.00279240	0.00202797	0.00383553	0.00321099	0.00246892	0.00254925	0.00373582	0.00708195	0.00352929	0.00469721	0.00353438	0.00629115
0.24000000	0.00265126	0.00360299	0.00572638	0.00417106	0.00182188	0.00261760	0.00291762	0.00190479	0.00167885	0.00640008	0.00182787	0.00398866	0.00441535	0.00256124	0.00175435	0.00401603	0.00300366	0.00239090	0.00251550	0.00369240	0.00698474	0.00365613	0.00438979	0.00360962	0.00614457
0.25000000	0.00297927	0.00401039	0.00623663	0.00354839	0.00266820	0.00302182	0.00328276	0.00276083	0.00158739	0.00610318	0.00163566	0.00345274	0.00482706	0.00221742	0.00153005	0.00425536	0.00286476	0.00232909	0.00242573	0.00365759	0.00675423	0.00383819	0.00419136	0.00383623	0.00586515
0.26000000	0.00324295	0.00481030	0.00638341	0.00325820	0.00329728	0.00387076	0.00336607	0.00329355	0.00154263	0.00572420	0.00173260	0.00287136	0.00498657	0.00196320	0.00119463	0.00435936	0.00277542	0.00224380	0.00237628	0.00359238	0.00662343	0.00398228	0.00392056	0.00399721	0.00565584
0.27000000	0.00342410	0.00525291	0.00658406	0.00338086	0.00392763	0.00483553	0.00345033	0.00380730	0.00140759	0.00527690	0.00211534	0.00221959	0.00516675	0.00135838	0.00064486	0.00446935	0.00277760	0.00211342	0.00226001	0.00355625	0.00638333	0.00403076	0.00374525	0.00408849	0.00547160
0.28000000	0.00352382	0.00594682	0.00655656	0.00372277	0.00388976	0.00575158	0.00319206	0.00397367	0.00127935	0.00470953	0.00231870	0.00162445	0.00519981	0.00121727	0.00060779	0.00441286	0.00277785	0.00203780	0.00219125	0.00345165	0.00619101	0.00398262	0.00353051	0.00400183	0.00527266
0.29000000	0.00345936	0.00607838	0.00648183	0.00422313	0.00436664	0.00594915	0.00300988	0.00389326	0.00128250	0.00409495	0.00311910	0.00110600	0.00504259	0.00099175	0.00069450	0.00438430	0.00286575	0.00189721	0.00201773	0.00348381	0.00589747	0.00382448	0.00358626	0.00389717	0.00510539
0.30000000	0.00339821	0.00709830	0.00642084	0.00438654	0.00297627	0.00546957	0.00236078	0.00354688	0.00086552	0.00343573	0.00274747	0.00065578	0.00485095	0.00169267	0.00165166	0.00410359	0.00277912	0.00192042	0.00194993	0.00322852	0.00561911	0.00354047	0.00328328	0.00342760	0.00492175
0.31000000	0.00313100	0.00651950	0.00600582	0.00403600	0.00293713	0.00511327	0.00224993	0.00329729	0.00060787	0.00230749	0.00336973	0.00083219	0.00476621	0.00253997	0.00259298	0.00378904	0.00282900	0.00178435	0.00187426	0.00318995	0.00548684	0.00316283	0.00328294	0.00308323	0.00489433
0.32000000	0.00280789	0.00670508	0.00577955	0.00347732	0.00254828	0.00438099	0.00180635	0.00271090	0.00072056	0.00165448	0.00334031	0.00125869	0.00434166	0.00335599	0.00341366	0.00346642	0.00271642	0.00177017	0.00173254	0.00303054	0.00518137	0.00277522	0.00313682	0.00257600	0.00479002
0.33000000	0.00272866	0.00605318	0.00533402	0.00294813	0.00254443	0.00375372	0.00164857	0.00228211	0.00053990	0.00147934	0.00361482	0.00144131	0.00404177	0.00411061	0.00415734	0.00293554	0.00273959	0.00164564	0.00172698	0.00295171	0.00499496	0.00220971	0.00318133	0.00198958	0.00476879
0.34000000	0.00271640	0.00594437	0.00510259	0.00238953	0.00232114	0.00318639	0.00137131	0.00187828	0.00056299	0.00212721	0.00352632	0.00167297	0.00353257	0.00457082	0.00471654	0.00237631	0.00265451	0.00169999	0.00158412	0.00286151	0.00460536	0.00165411	0.00312553	0.00132270	0.00458716
0.35000000	0.00265711	0.00627833	0.00478295	0.00217667	0.00230515	0.00254808	0.00116958	0.00143307	0.00076163	0.00321064	0.00325915	0.00177581	0.00271178	0.00477656	0.00489255	0.00189269	0.00254646	0.00186398	0.00148183	0.00277339	0.00433982	0.00122683	0.00293318	0.00080691	0.00436066
0.36000000	0.00278883	0.00575211	0.00461794	0.00213512	0.00212253	0.00231575	0.00122744	0.00138753	0.00074845	0.00445590	0.00358715	0.00182293	0.00210054	0.00479385	0.00497518	0.00124654	0.00264658	0.00192245	0.00147657	0.00271053	0.00392684	0.00066366	0.00286755	0.00018728	0.00412107
0.37000000	0.00288307	0.00592451	0.00442361	0.00225982	0.00225671	0.00212131	0.00124264	0.00133617	0.00085025	0.00554455	0.00378089	0.00177858	0.00124626	0.00471851	0.00468911	0.00081283	0.00259356	0.00219939	0.00144991	0.00266247	0.00357059	0.00049254	0.00256112	0.00046776	0.00370280
0.38000000	0.00265374	0.00515196	0.00426980	0.00255287	0.00207190	0.00209131	0.00158409	0.00125356	0.00101077	0.00676495	0.00433563	0.00252911	0.00067676	0.00475371	0.00433644	0.00074092	0.00274429	0.00227895	0.00164541	0.00251694	0.00316122	0.00060169	0.00242655	0.00103357	0.00339169
0.39000000	0.00249368	0.00544868	0.00408070	0.00272926	0.00218765	0.00226030	0.00168193	0.00149568	0.00091168	0.00752882	0.00461528	0.00221535	0.00124617	0.00477205	0.00370989	0.00081398	0.00270038	0.00250997	0.00162210	0.00240613	0.00270328	0.00065092	0.00196443	0.00115613	0.00281454
0.40000000	0.00218398	0.00495577	0.00392664	0.00302111	0.00230081	0.00260038	0.00194859	0.00166898	0.00089303	0.00831341	0.00486442	0.00234935	0.00193391	0.00494139	0.00307611	0.00109484	0.00263259	0.00256154	0.00176045	0.00214527	0.00227605	0.00071720	0.00162776	0.00127389	0.00233199
0.41000000	0.00189324	0.00409704	0.00372186	0.00352224	0.00231037	0.00289502	0.00216201	0.00175108	0.00100976	0.00911083	0.00477169	0.00262077	0.00249786	0.00519301	0.00251283	0.00142213	0.00247510	0.00248776	0.00201114	0.00182460	0.00178091	0.00064987	0.00143918	0.00145745	0.00185581
0.42000000	0.00163732	0.00307395	0.00332873	0.00399742	0.00258260	0.00330332	0.00233917	0.00175775	0.00121894	0.00981775	0.00464188	0.00317596	0.00300941	0.00540900	0.00264416	0.00142560	0.00232248	0.00248560	0.00223931	0.00168063	0.00131721	0.00046554	0.00134424	0.00132940	0.00146390
0.43000000	0.00195983	0.00271077	0.00328405	0.00411584	0.00250477	0.00389111	0.00235859	0.00193796	0.00102411	0.01037248	0.00418150	0.00430432	0.00306482	0.00550158	0.00142503	0.00170151	0.00193852	0.00219658	0.00223749	0.00124535	0.00115939	0.00067888	0.00081212	0.00122650	0.00109984
0.44000000	0.00217529	0.00223141	0.00330995	0.00424609	0.00286208	0.00408926	0.00231272	0.00200589	0.00102231	0.01087861	0.00380695	0.00599503	0.00311106	0.00553584	0.00131404	0.00174768	0.00156785	0.00208775	0.00228142	0.00105187	0.00117892	0.00068868	0.00050245	0.00100699	0.00077134
0.45000000	0.00254720	0.00172382	0.00323626	0.00431683	0.00310423	0.00414744	0.00224497	0.00198885	0.00111110	0.01153797	0.00327512	0.00759039	0.00292693	0.00554584	0.00124383	0.00186720	0.00126655	0.00188875	0.00222951	0.00090641	0.00141508	0.00063661	0.00044064	0.00092025	0.00052911
0.46000000	0.00282777	0.00114620	0.00276640	0.00426712	0.00331607	0.00410399	0.00214663	0.00197720	0.00120337	0.01177847	0.00296186	0.00939209	0.00279320	0.00569208	0.00114049	0.00191841	0.00104631	0.00184664	0.00213463	0.00090757	0.00165839	0.00068977	0.00038877	0.00096825	0.00037621
0.47000000	0.00304462	0.00094388	0.00209845	0.00421291	0.00377734	0.00392855	0.00195081	0.00192639	0.00130541	0.01173656	0.00277218	0.01100545	0.00240624	0.00609118	0.00137907	0.00182605	0.00107056	0.00179935	0.00198431	0.00103201	0.00192817	0.00065812	0.00079746	0.00122389	0.00015541
0.48000000	0.00295890	0.00104840	0.00153107	0.00413695	0.00391249	0.00373523	0.00175619	0.00194900	0.00137068	0.01169984	0.00261743	0.01219832	0.00207332	0.00629859	0.00154380	0.00169867	0.00118032	0.00184664	0.00179646	0.00106208	0.00222459	0.00067429	0.00076686	0.00156900	0.00049961
0.49000000	0.00259672	0.00150439	0.00179417	0.00429490	0.00367842	0.00318461	0.00159908	0.00168065	0.00159666	0.01262992	0.00184977	0.01191187	0.00194090	0.00557606	0.00062147	0.00153596	0.00125912	0.00185120	0.00161851	0.00100151	0.00272429	0.00089464	0.00047832	0.00194806	0.00007698
0.50000000	0.00219594	0.00159525	0.00125925	0.00440014	0.00381684	0.00301252	0.00135338	0.00174304	0.00161814	0.01216329	0.00188658	0.01234616	0.00176247	0.00576769	0.00056963	0.00133673	0.00139637	0.00198431	0.00150737	0.00103836	0.00306383	0.00111130	0.00060218	0.00239192	0.00025629
0.51000000	0.00174834	0.00163767	0.00096298	0.00445700	0.00397942	0.00300206	0.00117069	0.00176860	0.00169860	0.01189782	0.00181144	0.01225906	0.00176451	0.00575675	0.00056825	0.00129539	0.00144484	0.00215384	0.00143301	0.00108644	0.00343505	0.00139763	0.00092135	0.00279974	0.00037412
0.52000000	0.00145509	0.00159948	0.00102978	0.00455222	0.00424777	0.00310132	0.00094770	0.00184312	0.00171534	0.01164302	0.00188507	0.01186130	0.00186274	0.00571646	0.00073040	0.00140295	0.00142699	0.00230175	0.00145218	0.00114668	0.00380320	0.00155166	0.00122099	0.00329549	0.00071489
0.53000000	0.00110428	0.00244203	0.00094953	0.00454813	0.00389286	0.00264322	0.00107292	0.00159698	0.00195322	0.01165326	0.00172295	0.01100429	0.00220225	0.00556297	0.00029476	0.00173370	0.00165227	0.00251169	0.00151685	0.00102045	0.00397753	0.00192509	0.00084177	0.00364064	0.00025446
0.54000000	0.00093163	0.00220285	0.00132432	0.00460832	0.00388447	0.00281848	0.00106734	0.00163293	0.00202528	0.01145282	0.00190643	0.01053956	0.00239847	0.00565123	0.00046657	0.00197078	0.00165015	0.00258880	0.00160734	0.00103059	0.00430719	0.00218526	0.00111763	0.00393508	0.00047779
0.55000000	0.00101468	0.00271952	0.00156090	0.00454797	0.00376056	0.00275468	0.00112280	0.00161799	0.00211112	0.01129180	0.00192916	0.01022197	0.00272427	0.00566815	0.00041008	0.00223342	0.00176877	0.00273705	0.00171019	0.00097926	0.00449063	0.00230942	0.00132072	0.00411769	0.00048212
0.56000000	0.00113930	0.00191920	0.00202419	0.00465793	0.00409718	0.00311897	0.00098608	0.00179966	0.00209704	0.01171896	0.00218252	0.00997911	0.00296666	0.00555286	0.00058142	0.00247333	0.00180014	0.00276184	0.00180830	0.00094387	0.00485279	0.00220946	0.00175062	0.00441570	0.00082427
0.57000000	0.00137165	0.00185205	0.00236334	0.00482501	0.00416390	0.00310895	0.00120455	0.00163052	0.00224628	0.01185939	0.00229930	0.01028626	0.00320298	0.00562487	0.00106639	0.00250949	0.00175619	0.00274627	0.00198597	0.00097009	0.00520711	0.00244571	0.00207474	0.00437686	0.00103812
0.58000000	0.00142247	0.00284157	0.00239166	0.00493610	0.00393049	0.00273170	0.00127185	0.00149742	0.00246645	0.01187838	0.00201740	0.01073436	0.00327054	0.00573433	0.00131130	0.00260456	0.00197009	0.00271644	0.00207067	0.00092352	0.00540033	0.00268502	0.00225356	0.00435101	0.00110327
0.59000000	0.00161776	0.00202894	0.00281659	0.00516083	0.00431390	0.00279687	0.00113329	0.00167790	0.00244121	0.01277270	0.00215116	0.01106387	0.00337833	0.00550085	0.00096090	0.00283958	0.00223155	0.00281951	0.00214132	0.00092106	0.00578044	0.00248482	0.00267394	0.00447918	0.00146768
0.60000000	0.00157335	0.00360029	0.00300318	0.00520640	0.00405264	0.00238007	0.00123058	0.00144192	0.00261436	0.01272993	0.00154634	0.01167434	0.00341020	0.00553530	0.00122988	0.00293538	0.00253009	0.00289859	0.00218130	0.00100608	0.00587833	0.00256221	0.00279887	0.00441119	0.00139123
0.61000000	0.00179338	0.00253095	0.00326235	0.00555872	0.00435158	0.00241510	0.00108168	0.00161277	0.00267843	0.01327577	0.00171152	0.01212251	0.00327635	0.00545331	0.00136371	0.00314435	0.00281862	0.00293378	0.00223906	0.00128647	0.00639237	0.00257705	0.00313654	0.00462069	0.00179821
0.62000000	0.00186404	0.00364657	0.00348729	0.00567101	0.00425738	0.00228998	0.00116780	0.00138622	0.00269614	0.01315023	0.00123466	0.01240484	0.00327335	0.00514830	0.00154834	0.00317161	0.00301346	0.00294650	0.00234822	0.00152305	0.00670361	0.00295238	0.00326486	0.00462026	0.00177871
0.63000000	0.00216399	0.00282562	0.00364562	0.00598805	0.00442883	0.00239906	0.00112781	0.00140787	0.00273191	0.01302466	0.00138745	0.01256254	0.00318201	0.00483902	0.00155408	0.00328638	0.00336449	0.00302035	0.00245418	0.00184440	0.00720409	0.00306078	0.00351813	0.00486586	0.00218166
0.64000000	0.00219140	0.00365337	0.00388268	0.00609398	0.00450201	0.00237093	0.00104140	0.00138689	0.00267403	0.01244953	0.00170797	0.01196753	0.00313344	0.00435280	0.00145585	0.00354796	0.00355278	0.00320896	0.00251642	0.00234075	0.00751680	0.00346248	0.00356447	0.00510597	0.00220802
0.65000000	0.00241659	0.00286895	0.00400806	0.00635662	0.00465259	0.00241519	0.00103998	0.00138286	0.00266699	0.01152981	0.00199010	0.01141232	0.00298772	0.00395477	0.00131990	0.00373759	0.00385363	0.00337048	0.00263735	0.00273953	0.00800281	0.00375502	0.00375169	0.00541442	0.00258567
0.66000000	0.00250114	0.00309713	0.00417772	0.00642977	0.00472003	0.00246946	0.00093928	0.00137747	0.00261565	0.01030335	0.00250297	0.01005753	0.00300035	0.00337651	0.00103186	0.00405039	0.00402741	0.00355697	0.00274386	0.00318703	0.00832979	0.00420683	0.00381993	0.00579974	0.00265130
0.67000000	0.00269034	0.00236160	0.00426507	0.00664059	0.00478389	0.00256120	0.00100805	0.00140498	0.00255496	0.00879830	0.00266099	0.00876274	0.00288170	0.00294123	0.00077207	0.00425956	0.00429278	0.00369683	0.00290346	0.00349703	0.00882249	0.00454110	0.00397877	0.00615379	0.00309062
0.68000000	0.00291720	0.00218471	0.00451133	0.00684364	0.00488059	0.00253906	0.00106512	0.00138689	0.00249119	0.00727852	0.00293269	0.00717365	0.00267679	0.00240069	0.00041195	0.00439788	0.00443228	0.00383803	0.00310012	0.00368329	0.00926423	0.00478876	0.00410937	0.00645333	0.00334450
0.69000000	0.00309298	0.00217002	0.00476943	0.00701405	0.00497346	0.00252152	0.00109370	0.00135915	0.00244912	0.00609151	0.00315375	0.00532158	0.00250834	0.00188586	0.00022833	0.00455584	0.00460401	0.00395625	0.00325135	0.00383527	0.00961940	0.00504260	0.00424302	0.00672906	0.00353431
0.70000000	0.00326635	0.00227109	0.00511848	0.00719645	0.00501097	0.00256799	0.00111735	0.00137522	0.00238687	0.00570726	0.00318821	0.00337868	0.00241276	0.00167912	0.00075866	0.00466859	0.00476484	0.00407900	0.00338441	0.00393269	0.00994763	0.00530112	0.00435538	0.00690238	0.00372957
0.71000000	0.00325817	0.00159956	0.00517193	0.00715080	0.00510507	0.00244281	0.00106938	0.00130722	0.00243273	0.00628815	0.00325149	0.00098533	0.00260893	0.00187398	0.00117875	0.00503923	0.00495075	0.00428203	0.00336410	0.00419775	0.00999587	0.00570502	0.00439263	0.00703815	0.00363819
0.72000000	0.00335199	0.00195553	0.00566363	0.00745239	0.00502959	0.00242197	0.00123095	0.00129539	0.00237929	0.00775480	0.00322259	0.00171454	0.00258770	0.00217597	0.00148710	0.00490531	0.00502836	0.00433586	0.00352462	0.00403404	0.01041046	0.00567589	0.00453907	0.00709510	0.00388275
0.73000000	0.00327542	0.00195635	0.00576361	0.00756061	0.00491840	0.00215010	0.00133185	0.00125508	0.00242664	0.00890039	0.00247947	0.00398413	0.00297566	0.00314868	0.00196823	0.00511069	0.00528235	0.00446739	0.00355631	0.00413477	0.01066259	0.00593053	0.00468076	0.00711772	0.00393717
0.74000000	0.00315746	0.00224740	0.00631874	0.00777812	0.00494225	0.00196960	0.00146004	0.00125103	0.00241402	0.01047006	0.00246590	0.00552790	0.00302173	0.00349335	0.00215543	0.00494202	0.00534128	0.00444797	0.00364982	0.00388918	0.01101703	0.00588915	0.00479836	0.00713570	0.00409965
0.75000000	0.00298061	0.00211228	0.00659740	0.00792411	0.00484145	0.00177757	0.00153022	0.00129004	0.00240603	0.01147487	0.00217006	0.00701857	0.00326233	0.00398998	0.00238682	0.00497414	0.00545980	0.00459699	0.00371862	0.00384302	0.01124958	0.00595015	0.00482626	0.00700042	0.00412909
0.76000000	0.00285933	0.00232717	0.00704689	0.00808659	0.00474356	0.00163354	0.00168239	0.00129139	0.00237467	0.01212601	0.00213402	0.00771874	0.00321424	0.00402853	0.00241455	0.00478231	0.00550962	0.00454653	0.00375872	0.00359876	0.01156416	0.00584918	0.00494096	0.00698063	0.00427204
0.77000000	0.00258837	0.00256783	0.00748904	0.00826002	0.00469422	0.00150773	0.00176764	0.00139670	0.00233117	0.01210369	0.00198397	0.00780348	0.00329327	0.00376502	0.00242520	0.00462058	0.00553700	0.00450989	0.00382252	0.00342348	0.01190043	0.00599606	0.00495105	0.00680252	0.00449678
0.78000000	0.00250077	0.00272187	0.00778683	0.00835160	0.00454820	0.00145575	0.00196139	0.00156025	0.00224369	0.01119811	0.00183611	0.00749051	0.00313144	0.00342362	0.00247058	0.00446266	0.00568078	0.00448933	0.00385608	0.00334107	0.01218192	0.00614003	0.00499697	0.00657017	0.00476900
0.79000000	0.00239056	0.00185954	0.00735633	0.00828788	0.00429849	0.00129370	0.00203193	0.00137500	0.00223144	0.00999753	0.00164423	0.00668905	0.00325788	0.00341287	0.00235242	0.00456767	0.00568821	0.00451462	0.00384633	0.00333005	0.01226497	0.00567203	0.00502606	0.00675968	0.00448519
0.80000000	0.00241259	0.00208031	0.00759798	0.00838777	0.00406470	0.00130451	0.00227026	0.00155120	0.00203938	0.00807217	0.00131337	0.00543568	0.00327068	0.00294113	0.00228740	0.00446599	0.00583353	0.00444777	0.00381290	0.00336007	0.01238005	0.00569710	0.00499082	0.00655317	0.00477614
0.81000000	0.00220869	0.00202533	0.00757090	0.00830278	0.00378354	0.00131308	0.00245157	0.00166709	0.00184249	0.00607438	0.00172438	0.00411638	0.00367329	0.00271136	0.00180277	0.00445233	0.00597566	0.00437006	0.00377759	0.00337888	0.01239782	0.00551098	0.00512573	0.00651793	0.00467544
0.82000000	0.00218315	0.00269266	0.00709088	0.00821141	0.00371759	0.00135268	0.00240576	0.00154815	0.00167857	0.00456765	0.00169642	0.00296482	0.00371512	0.00230267	0.00143168	0.00432199	0.00615079	0.00428300	0.00376044	0.00343734	0.01238149	0.00537945	0.00518744	0.00628929	0.00476024
0.83000000	0.00226715	0.00296652	0.00746401	0.00816547	0.00349475	0.00117992	0.00273802	0.00169018	0.00142474	0.00285859	0.00230079	0.00260558	0.00403124	0.00243556	0.00117319	0.00417854	0.00633498	0.00414790	0.00371751	0.00343644	0.01228355	0.00506470	0.00530109	0.00609599	0.00494214
0.84000000	0.00252436	0.00332713	0.00785083	0.00818465	0.00342321	0.00073934	0.00292814	0.00153789	0.00121813	0.00186352	0.00321329	0.00284141	0.00423667	0.00283223	0.00127829	0.00399060	0.00651878	0.00405329	0.00368548	0.00343926	0.01210284	0.00483309	0.00525638	0.00574777	0.00515628
0.85000000	0.00287398	0.00451230	0.00786833	0.00791004	0.00354602	0.00078150	0.00299308	0.00141827	0.00083145	0.00259564	0.00229275	0.00307686	0.00364904	0.00331031	0.00072307	0.00373488	0.00666268	0.00384506	0.00360666	0.00331192	0.01186826	0.00436864	0.00544123	0.00547772	0.00526815
0.86000000	0.00300516	0.00461256	0.00806279	0.00761985	0.00345554	0.00073840	0.00327986	0.00154930	0.00043659	0.00312740	0.00285962	0.00433474	0.00364523	0.00389730	0.00090718	0.00365726	0.00687048	0.00374122	0.00352264	0.00328726	0.01164676	0.00417153	0.00545092	0.00515071	0.00548026
0.87000000	0.00329729	0.00479695	0.00817973	0.00730756	0.00355608	0.00155905	0.00341623	0.00164159	0.00049866	0.00408825	0.00318525	0.00568862	0.00342159	0.00431599	0.00105490	0.00353998	0.00696429	0.00356071	0.00337155	0.00318578	0.01135638	0.00391139	0.00548658	0.00498850	0.00552953
0.88000000	0.00351268	0.00490674	0.00824846	0.00690148	0.00373073	0.00277571	0.00352641	0.00199801	0.00068395	0.00509630	0.00332133	0.00668382	0.00315138	0.00452509	0.00118084	0.00344405	0.00695397	0.00345547	0.00325938	0.00306097	0.01107853	0.00376923	0.00535808	0.00482130	0.00546387
0.89000000	0.00365422	0.00500134	0.00836461	0.00645687	0.00405401	0.00435871	0.00343129	0.00242360	0.00107357	0.00590942	0.00339833	0.00708456	0.00290400	0.00440739	0.00148361	0.00351791	0.00694081	0.00341706	0.00305299	0.00293412	0.01063426	0.00382839	0.00513473	0.00464681	0.00529440
0.90000000	0.00490217	0.00482076	0.00811516	0.00676644	0.00359045	0.00509546	0.00375898	0.00299808	0.00188794	0.00626642	0.00230461	0.00673119	0.00229184	0.00435871	0.00086260	0.00322673	0.00661141	0.00321804	0.00303004	0.00252488	0.01049399	0.00349426	0.00498242	0.00467642	0.00506927
0.91000000	0.00494296	0.00483007	0.00807843	0.00661786	0.00353365	0.00632493	0.00389865	0.00365613	0.00240376	0.00624783	0.00194409	0.00634491	0.00218729	0.00415451	0.00086314	0.00340646	0.00631876	0.00318063	0.00285881	0.00239484	0.01010181	0.00372230	0.00456668	0.00475540	0.00470872
0.92000000	0.00540475	0.00460677	0.00788124	0.00670532	0.00348720	0.00739911	0.00390263	0.00403360	0.00282662	0.00589130	0.00158223	0.00568521	0.00210203	0.00385498	0.00086136	0.00357015	0.00596412	0.00309642	0.00277203	0.00225873	0.00984680	0.00398321	0.00421951	0.00492405	0.00435110
0.93000000	0.00624054	0.00432653	0.00760067	0.00681049	0.00319852	0.00824381	0.00391990	0.00430282	0.00303527	0.00551926	0.00148085	0.00470691	0.00199619	0.00361035	0.00086236	0.00387654	0.00561302	0.00314382	0.00272394	0.00228078	0.00954489	0.00419756	0.00383823	0.00501632	0.00398995
0.94000000	0.00650673	0.00440710	0.00766335	0.00689225	0.00323317	0.00850273	0.00386745	0.00436552	0.00314323	0.00516330	0.00126546	0.00396280	0.00203779	0.00341692	0.00093456	0.00431165	0.00516370	0.00315806	0.00264232	0.00244635	0.00913113	0.00452705	0.00340197	0.00520973	0.00354744
0.95000000	0.00717275	0.00431550	0.00746711	0.00675396	0.00319650	0.00848194	0.00353597	0.00418603	0.00322929	0.00487847	0.00126699	0.00325026	0.00202859	0.00331376	0.00098597	0.00468250	0.00491686	0.00324333	0.00260661	0.00269665	0.00876353	0.00473817	0.00309256	0.00529106	0.00329942
0.96000000	0.00774337	0.00428719	0.00735081	0.00633782	0.00315771	0.00811163	0.00317009	0.00407311	0.00316888	0.00479529	0.00136050	0.00269115	0.00207057	0.00325484	0.00104697	0.00501722	0.00469615	0.00332194	0.00258768	0.00296244	0.00840237	0.00486452	0.00283504	0.00532705	0.00309545
0.97000000	0.00799851	0.00433793	0.00735139	0.00596093	0.00322592	0.00735342	0.00274613	0.00386898	0.00325405	0.00485137	0.00134770	0.00243448	0.00207675	0.00326861	0.00107315	0.00527034	0.00461996	0.00341994	0.00257061	0.00319803	0.00798683	0.00486591	0.00268623	0.00526542	0.00298151
0.98000000	0.00780705	0.00455140	0.00763415	0.00575638	0.00334026	0.00642050	0.00235413	0.00367940	0.00340876	0.00509534	0.00115092	0.00244555	0.00214813	0.00314808	0.00120077	0.00547360	0.00460235	0.00352736	0.00253869	0.00337698	0.00741139	0.00472596	0.00263401	0.00509972	0.00283155
0.99000000	0.00817497	0.00450430	0.00748256	0.00537845	0.00303256	0.00552523	0.00209826	0.00369511	0.00347005	0.00533467	0.00138814	0.00258086	0.00218258	0.00328440	0.00118278	0.00545311	0.00475993	0.00353293	0.00252475	0.00345358	0.00698583	0.00444109	0.00262665	0.00474701	0.00293602
1.00000000	0.00738044	0.00477280	0.00788397	0.00531491	0.00301354	0.00485058	0.00185108	0.00365502	0.00361251	0.00578786	0.00134268	0.00276256	0.00227869	0.00311441	0.00133524	0.00530660	0.00490056	0.00355422	0.00258484	0.00351562	0.00646487	0.00403886	0.00277425	0.00438259	0.00294435
1.01000000	0.00757842	0.00467330	0.00765957	0.00517865	0.00235219	0.00406276	0.00185070	0.00344976	0.00378500	0.00589717	0.00159361	0.00341992	0.00230203	0.00338699	0.00120634	0.00514148	0.00509099	0.00335298	0.00256262	0.00342441	0.00600558	0.00363090	0.00275768	0.00392520	0.00307646
1.02000000	0.00633211	0.00464731	0.00773412	0.00528806	0.00248834	0.00347118	0.00171480	0.00332684	0.00406971	0.00628030	0.00192321	0.00368107	0.00233449	0.00343347	0.00141685	0.00501375	0.00537440	0.00330059	0.00260518	0.00357060	0.00553934	0.00335353	0.00311226	0.00348779	0.00320321
1.03000000	0.00672939	0.00478549	0.00753219	0.00492402	0.00148152	0.00313641	0.00188133	0.00323484	0.00388806	0.00640255	0.00169256	0.00394074	0.00216620	0.00336451	0.00134267	0.00454466	0.00541305	0.00302516	0.00258344	0.00331893	0.00514128	0.00269236	0.00302355	0.00301371	0.00313405
1.04000000	0.00596948	0.00493546	0.00732258	0.00487133	0.00124433	0.00295793	0.00183564	0.00310087	0.00392796	0.00650719	0.00179163	0.00403320	0.00206484	0.00328941	0.00147227	0.00424112	0.00549459	0.00291276	0.00260721	0.00330866	0.00479235	0.00233620	0.00313819	0.00261709	0.00308468
1.05000000	0.00575686	0.00475513	0.00717312	0.00479260	0.00082526	0.00258845	0.00189599	0.00298553	0.00379498	0.00652266	0.00185665	0.00408418	0.00191532	0.00327229	0.00153198	0.00397648	0.00543551	0.00257847	0.00245968	0.00315629	0.00444490	0.00198877	0.00298097	0.00234807	0.00293385
1.06000000	0.00531410	0.00476936	0.00669630	0.00480870	0.00068333	0.00250608	0.00190845	0.00292060	0.00364191	0.00642127	0.00192953	0.00398599	0.00173585	0.00322715	0.00168178	0.00380463	0.00535462	0.00238622	0.00232893	0.00313249	0.00410261	0.00176659	0.00293996	0.00212039	0.00267155
1.07000000	0.00488407	0.00465364	0.00606371	0.00495576	0.00080185	0.00260497	0.00182950	0.00282977	0.00349626	0.00628492	0.00224174	0.00376913	0.00150168	0.00334204	0.00179377	0.00375701	0.00523156	0.00225753	0.00225214	0.00316932	0.00372363	0.00176463	0.00293875	0.00200475	0.00231651
1.08000000	0.00480640	0.00459119	0.00559569	0.00499809	0.00058668	0.00272752	0.00182060	0.00288582	0.00318728	0.00610956	0.00210187	0.00356257	0.00135242	0.00318113	0.00198909	0.00362484	0.00499079	0.00197239	0.00199306	0.00310443	0.00327310	0.00161333	0.00277812	0.00192992	0.00195491
1.09000000	0.00481125	0.00465347	0.00499944	0.00518082	0.00062060	0.00305501	0.00148193	0.00264816	0.00353516	0.00579458	0.00281103	0.00337977	0.00099782	0.00371284	0.00215642	0.00354139	0.00477257	0.00187728	0.00181352	0.00315869	0.00271057	0.00164096	0.00275610	0.00180895	0.00169917
1.10000000	0.00472561	0.00425478	0.00444413	0.00531843	0.00062869	0.00324806	0.00155752	0.00280205	0.00284309	0.00585590	0.00230534	0.00330037	0.00102658	0.00326403	0.00226852	0.00344186	0.00447145	0.00148889	0.00160787	0.00302668	0.00251947	0.00166089	0.00254976	0.00189817	0.00123731
1.11000000	0.00500970	0.00434344	0.00377673	0.00549963	0.00066108	0.00382312	0.00146045	0.00300447	0.00262511	0.00570516	0.00304443	0.00331109	0.00078515	0.00382700	0.00223074	0.00339783	0.00404588	0.00140807	0.00159188	0.00312803	0.00197591	0.00181724	0.00241830	0.00191415	0.00139331
1.12000000	0.00370602	0.00399903	0.00430346	0.00572931	0.00115626	0.00403920	0.00126359	0.00288107	0.00241266	0.00567895	0.00248844	0.00312033	0.00103996	0.00312835	0.00252107	0.00314770	0.00361786	0.00105794	0.00139700	0.00289741	0.00214669	0.00150319	0.00129487	0.00182288	0.00022614
1.13000000	0.00415842	0.00382433	0.00345968	0.00605686	0.00107105	0.00448866	0.00115603	0.00289098	0.00233512	0.00563121	0.00299284	0.00326613	0.00102188	0.00347046	0.00253359	0.00298241	0.00323018	0.00092359	0.00132062	0.00282328	0.00199266	0.00149318	0.00121280	0.00180844	0.00063825
1.14000000	0.00361958	0.00363939	0.00340484	0.00616784	0.00141564	0.00520648	0.00108715	0.00306585	0.00201829	0.00562620	0.00252936	0.00317352	0.00126775	0.00310129	0.00274830	0.00283312	0.00286430	0.00093648	0.00132099	0.00279560	0.00183970	0.00124369	0.00103409	0.00172807	0.00092717
1.15000000	0.00381688	0.00335405	0.00288000	0.00642355	0.00145950	0.00582142	0.00108991	0.00321226	0.00184161	0.00567411	0.00263657	0.00324770	0.00148344	0.00305342	0.00287403	0.00263241	0.00252719	0.00091637	0.00132243	0.00269882	0.00180373	0.00113596	0.00103027	0.00156206	0.00137190
1.16000000	0.00360057	0.00316810	0.00263780	0.00671921	0.00164390	0.00643506	0.00113018	0.00336764	0.00167038	0.00564644	0.00270973	0.00326818	0.00163140	0.00302922	0.00294138	0.00242509	0.00223129	0.00102713	0.00140280	0.00260175	0.00174064	0.00100575	0.00116860	0.00139148	0.00169740
1.17000000	0.00352167	0.00297552	0.00226554	0.00719442	0.00176646	0.00700481	0.00124821	0.00350816	0.00156676	0.00564422	0.00274974	0.00333301	0.00178904	0.00299360	0.00302189	0.00219740	0.00196431	0.00112076	0.00148329	0.00246923	0.00178651	0.00085441	0.00125280	0.00122521	0.00202372
1.18000000	0.00338481	0.00271490	0.00220800	0.00766814	0.00189859	0.00762327	0.00134302	0.00363037	0.00143452	0.00562026	0.00282879	0.00328220	0.00189971	0.00295675	0.00310422	0.00196925	0.00177279	0.00121417	0.00157814	0.00228079	0.00197814	0.00069783	0.00136829	0.00098117	0.00229978
1.19000000	0.00333597	0.00239036	0.00197684	0.00835781	0.00195658	0.00824337	0.00152644	0.00377304	0.00137015	0.00568264	0.00292644	0.00323490	0.00204120	0.00289986	0.00319376	0.00175857	0.00168899	0.00135863	0.00168009	0.00205774	0.00225992	0.00069816	0.00147679	0.00071907	0.00251547
1.20000000	0.00331012	0.00209776	0.00193412	0.00908137	0.00198306	0.00886376	0.00171575	0.00388812	0.00129139	0.00575448	0.00303712	0.00315816	0.00213489	0.00279245	0.00331727	0.00156910	0.00161813	0.00149033	0.00181109	0.00179150	0.00264511	0.00075850	0.00159997	0.00052762	0.00274132
1.21000000	0.00297679	0.00204790	0.00240681	0.00965479	0.00202937	0.00936444	0.00202348	0.00395360	0.00109880	0.00561955	0.00300179	0.00314166	0.00205200	0.00285060	0.00328174	0.00147956	0.00166663	0.00164183	0.00193281	0.00154672	0.00301540	0.00084667	0.00173817	0.00030044	0.00302732
1.22000000	0.00335568	0.00224924	0.00211407	0.01041803	0.00088954	0.00975946	0.00281793	0.00422630	0.00162395	0.00580690	0.00319787	0.00325322	0.00196521	0.00316490	0.00326635	0.00169853	0.00232390	0.00193577	0.00191403	0.00127603	0.00343327	0.00131588	0.00170141	0.00043555	0.00342735
1.23000000	0.00299705	0.00231057	0.00238265	0.01069687	0.00186017	0.00999089	0.00242342	0.00394501	0.00103697	0.00584022	0.00310402	0.00307437	0.00203329	0.00276059	0.00331609	0.00151061	0.00218662	0.00198273	0.00219850	0.00112904	0.00416143	0.00144035	0.00218295	0.00031936	0.00344638
1.24000000	0.00290684	0.00262452	0.00248975	0.01076082	0.00182025	0.00996065	0.00256862	0.00379070	0.00086404	0.00592122	0.00315935	0.00312466	0.00200463	0.00277487	0.00322427	0.00174204	0.00261520	0.00222031	0.00230871	0.00115605	0.00468557	0.00172548	0.00239232	0.00058907	0.00367271
1.25000000	0.00305440	0.00286541	0.00212145	0.01057784	0.00156038	0.00964920	0.00257932	0.00360334	0.00060791	0.00620729	0.00325361	0.00312754	0.00206165	0.00279868	0.00309993	0.00203357	0.00297777	0.00244638	0.00246161	0.00132377	0.00530322	0.00211123	0.00255970	0.00101109	0.00386437
1.26000000	0.00298954	0.00290021	0.00214727	0.00984867	0.00155602	0.00880878	0.00261120	0.00336422	0.00070537	0.00630874	0.00326481	0.00332438	0.00204735	0.00279375	0.00299554	0.00224938	0.00339214	0.00262259	0.00257942	0.00161747	0.00590540	0.00241527	0.00286794	0.00128902	0.00410374
1.27000000	0.00273268	0.00284323	0.00255838	0.00879532	0.00159129	0.00742404	0.00270243	0.00304828	0.00081081	0.00637080	0.00335762	0.00354418	0.00200474	0.00277664	0.00291947	0.00246962	0.00378721	0.00289606	0.00271187	0.00198477	0.00639143	0.00257324	0.00317751	0.00145443	0.00426537
1.28000000	0.00264455	0.00256618	0.00265440	0.00766447	0.00160053	0.00583339	0.00266361	0.00278774	0.00088321	0.00652355	0.00341464	0.00369401	0.00203058	0.00277873	0.00283990	0.00274133	0.00410410	0.00307475	0.00283678	0.00227050	0.00690080	0.00285747	0.00340517	0.00173961	0.00443660
1.29000000	0.00295817	0.00233564	0.00302509	0.00683970	0.00149832	0.00407475	0.00256592	0.00251376	0.00092327	0.00672009	0.00334235	0.00377168	0.00222019	0.00276001	0.00272010	0.00300207	0.00432547	0.00326781	0.00296004	0.00246213	0.00738413	0.00314457	0.00345660	0.00215079	0.00456876
1.30000000	0.00256077	0.00198711	0.00343643	0.00669143	0.00155190	0.00196046	0.00256108	0.00252950	0.00114694	0.00678115	0.00340784	0.00378279	0.00222812	0.00272371	0.00272082	0.00315004	0.00462235	0.00340020	0.00304592	0.00263522	0.00785202	0.00332559	0.00376960	0.00230147	0.00469695
1.31000000	0.00255474	0.00173322	0.00398886	0.00740265	0.00155103	0.00076468	0.00253550	0.00258528	0.00128143	0.00691365	0.00339935	0.00372507	0.00231467	0.00267277	0.00271633	0.00336799	0.00483180	0.00353904	0.00314305	0.00273873	0.00826442	0.00351665	0.00391556	0.00255088	0.00479321
1.32000000	0.00276840	0.00180958	0.00533479	0.00866485	0.00092529	0.00193157	0.00295737	0.00247839	0.00240525	0.00690933	0.00314700	0.00378020	0.00249902	0.00276421	0.00258876	0.00361962	0.00511911	0.00365908	0.00311660	0.00279934	0.00847736	0.00365585	0.00387366	0.00282266	0.00507557
1.33000000	0.00318457	0.00161752	0.00567325	0.00961975	0.00184762	0.00338896	0.00229068	0.00245113	0.00149772	0.00724282	0.00322995	0.00346096	0.00269486	0.00261904	0.00254687	0.00368383	0.00497716	0.00367683	0.00336595	0.00258880	0.00903224	0.00384429	0.00390149	0.00309670	0.00507669
1.34000000	0.00272395	0.00132689	0.00566002	0.01023224	0.00164549	0.00451683	0.00223970	0.00250759	0.00170239	0.00729293	0.00335246	0.00329677	0.00269370	0.00256670	0.00260983	0.00399168	0.00520288	0.00366049	0.00343394	0.00261927	0.00945916	0.00410344	0.00423400	0.00335704	0.00511963
1.35000000	0.00305219	0.00126811	0.00651346	0.01029382	0.00137177	0.00461675	0.00229817	0.00200594	0.00170682	0.00724329	0.00312644	0.00325573	0.00302316	0.00255359	0.00247283	0.00423691	0.00549265	0.00365506	0.00339068	0.00260794	0.00967611	0.00426039	0.00416339	0.00372492	0.00548000
1.36000000	0.00240278	0.00106985	0.00640462	0.00963959	0.00133036	0.00477035	0.00229721	0.00201443	0.00192507	0.00736385	0.00321725	0.00316346	0.00298635	0.00247967	0.00249186	0.00437554	0.00543751	0.00368763	0.00350310	0.00252871	0.00989703	0.00429411	0.00442414	0.00368955	0.00529428
1.37000000	0.00275687	0.00119411	0.00697518	0.00845343	0.00120179	0.00385985	0.00233871	0.00141531	0.00183938	0.00734717	0.00293310	0.00298575	0.00340212	0.00228985	0.00241721	0.00453753	0.00554221	0.00368353	0.00348436	0.00247088	0.00997717	0.00434524	0.00433202	0.00393772	0.00546645
1.38000000	0.00270459	0.00143117	0.00710251	0.00688375	0.00090902	0.00304582	0.00261443	0.00105889	0.00192456	0.00720872	0.00276631	0.00288491	0.00358748	0.00217863	0.00239339	0.00475556	0.00549148	0.00364417	0.00351597	0.00241135	0.01004974	0.00449174	0.00440396	0.00409950	0.00538394
1.39000000	0.00288660	0.00210353	0.00677682	0.00531208	0.00080277	0.00240966	0.00274961	0.00093130	0.00186432	0.00695365	0.00279874	0.00273787	0.00369744	0.00209635	0.00225805	0.00489036	0.00554436	0.00366191	0.00351810	0.00248447	0.01008117	0.00449552	0.00439623	0.00416607	0.00533569
1.40000000	0.00325250	0.00259935	0.00695232	0.00388934	0.00154378	0.00206999	0.00303458	0.00126396	0.00173308	0.00660557	0.00256064	0.00250207	0.00413098	0.00189392	0.00212448	0.00510305	0.00551748	0.00358033	0.00346965	0.00248422	0.01002080	0.00462156	0.00430623	0.00439449	0.00524715
1.41000000	0.00412791	0.00360414	0.00691054	0.00317662	0.00153019	0.00205202	0.00296305	0.00191430	0.00132599	0.00616698	0.00260528	0.00231486	0.00433341	0.00151090	0.00189119	0.00527595	0.00543961	0.00356560	0.00337074	0.00251415	0.00976372	0.00460756	0.00407673	0.00438841	0.00513026
1.42000000	0.00430301	0.00406091	0.00714905	0.00235809	0.00270696	0.00246395	0.00312209	0.00271263	0.00118875	0.00573854	0.00248399	0.00170333	0.00474735	0.00130235	0.00167285	0.00540077	0.00532685	0.00335719	0.00330505	0.00245330	0.00973999	0.00469175	0.00402546	0.00459872	0.00499092
1.43000000	0.00491893	0.00508500	0.00724821	0.00224715	0.00214744	0.00256137	0.00274577	0.00338124	0.00097833	0.00514529	0.00251350	0.00120747	0.00489735	0.00087526	0.00118425	0.00547348	0.00509097	0.00318415	0.00324008	0.00232070	0.00957570	0.00471568	0.00374858	0.00460541	0.00491631
1.44000000	0.00496891	0.00542510	0.00739140	0.00212191	0.00317604	0.00367033	0.00269976	0.00398890	0.00102271	0.00452674	0.00270352	0.00057990	0.00515022	0.00103340	0.00082733	0.00556212	0.00506846	0.00302552	0.00308193	0.00230459	0.00939909	0.00466447	0.00371607	0.00468038	0.00484917
1.45000000	0.00505013	0.00565488	0.00761267	0.00273272	0.00415689	0.00480126	0.00254516	0.00425818	0.00148084	0.00389268	0.00347226	0.00105349	0.00509609	0.00151187	0.00056025	0.00565752	0.00507972	0.00290514	0.00283608	0.00232545	0.00904164	0.00450296	0.00382477	0.00464537	0.00476021
1.46000000	0.00486290	0.00676365	0.00761056	0.00368223	0.00287508	0.00501241	0.00215506	0.00446453	0.00134011	0.00312759	0.00304193	0.00154381	0.00510822	0.00229826	0.00125234	0.00549859	0.00476153	0.00271474	0.00288433	0.00208247	0.00901877	0.00442223	0.00349103	0.00441987	0.00485265
1.47000000	0.00471876	0.00647168	0.00745392	0.00407785	0.00306875	0.00571119	0.00206066	0.00456544	0.00129875	0.00210947	0.00347934	0.00227918	0.00516751	0.00330330	0.00219396	0.00536796	0.00493490	0.00258395	0.00265105	0.00215106	0.00880034	0.00415084	0.00366474	0.00422000	0.00494178
1.48000000	0.00448853	0.00638028	0.00732562	0.00429315	0.00309462	0.00604165	0.00188312	0.00438846	0.00142176	0.00125210	0.00377371	0.00298469	0.00505371	0.00428298	0.00315927	0.00518060	0.00510619	0.00247984	0.00243900	0.00225295	0.00851567	0.00385154	0.00384647	0.00389094	0.00498364
1.49000000	0.00422052	0.00615455	0.00714544	0.00433643	0.00313194	0.00606419	0.00174688	0.00408138	0.00149733	0.00123351	0.00394668	0.00350285	0.00483672	0.00521820	0.00400896	0.00492630	0.00534479	0.00235062	0.00229138	0.00242800	0.00831480	0.00349341	0.00392712	0.00351707	0.00513112
1.50000000	0.00379560	0.00689551	0.00722557	0.00412838	0.00270362	0.00571093	0.00148961	0.00364798	0.00158678	0.00171454	0.00333112	0.00406720	0.00454889	0.00567345	0.00489020	0.00454015	0.00532134	0.00227545	0.00226907	0.00241748	0.00806581	0.00313715	0.00387949	0.00298654	0.00503426
1.51000000	0.00389727	0.00647178	0.00702964	0.00388685	0.00260197	0.00558712	0.00162672	0.00339225	0.00154662	0.00315337	0.00337121	0.00385678	0.00438111	0.00589553	0.00554738	0.00413850	0.00561340	0.00210787	0.00209238	0.00261295	0.00770890	0.00267255	0.00402897	0.00245524	0.00508803
1.52000000	0.00370776	0.00659040	0.00694771	0.00364279	0.00247739	0.00523845	0.00167144	0.00309077	0.00166288	0.00432276	0.00299051	0.00381238	0.00403432	0.00583593	0.00576367	0.00371130	0.00582481	0.00203077	0.00197638	0.00274332	0.00737861	0.00230027	0.00412075	0.00197123	0.00494111
1.53000000	0.00349523	0.00674897	0.00673557	0.00359458	0.00247016	0.00482915	0.00180814	0.00278696	0.00183707	0.00537182	0.00284064	0.00376796	0.00355152	0.00542315	0.00573736	0.00344463	0.00598879	0.00198501	0.00190421	0.00292518	0.00704177	0.00208545	0.00406030	0.00164923	0.00473448
1.54000000	0.00355413	0.00659347	0.00678083	0.00339659	0.00225099	0.00478067	0.00210995	0.00279479	0.00171069	0.00647057	0.00313671	0.00337910	0.00298617	0.00499101	0.00548155	0.00299868	0.00604363	0.00182231	0.00184974	0.00285033	0.00669976	0.00180905	0.00392063	0.00128296	0.00456655
1.55000000	0.00360710	0.00656938	0.00673820	0.00342642	0.00232846	0.00472509	0.00236316	0.00276196	0.00172661	0.00719501	0.00358808	0.00321284	0.00242437	0.00458428	0.00498484	0.00277173	0.00595437	0.00176691	0.00182634	0.00279137	0.00634631	0.00172372	0.00357523	0.00112868	0.00428479
1.56000000	0.00355445	0.00631325	0.00660220	0.00360690	0.00218407	0.00482009	0.00270455	0.00280023	0.00175024	0.00789557	0.00403275	0.00294747	0.00176650	0.00421292	0.00449193	0.00266281	0.00592106	0.00163941	0.00176780	0.00263275	0.00595016	0.00170534	0.00335448	0.00104355	0.00398499
1.57000000	0.00378475	0.00575992	0.00638089	0.00398532	0.00208996	0.00502242	0.00305673	0.00295798	0.00169367	0.00853097	0.00420634	0.00277440	0.00134427	0.00417116	0.00379485	0.00262893	0.00578751	0.00147765	0.00173670	0.00237404	0.00553263	0.00174584	0.00306355	0.00097824	0.00371146
1.58000000	0.00384614	0.00568608	0.00638428	0.00431768	0.00216511	0.00531545	0.00315211	0.00296470	0.00167734	0.00873604	0.00436880	0.00273259	0.00139027	0.00407506	0.00312504	0.00276063	0.00541801	0.00136862	0.00169325	0.00208922	0.00504362	0.00189404	0.00263842	0.00109667	0.00331819
1.59000000	0.00424161	0.00469330	0.00590806	0.00488000	0.00265815	0.00572786	0.00319389	0.00298118	0.00175206	0.00900380	0.00433866	0.00291171	0.00177242	0.00418157	0.00289735	0.00296182	0.00515567	0.00133034	0.00172676	0.00196946	0.00473616	0.00209396	0.00246153	0.00106906	0.00292650
1.60000000	0.00447007	0.00445539	0.00565213	0.00521853	0.00266358	0.00631876	0.00322379	0.00301301	0.00156491	0.00912251	0.00395055	0.00344217	0.00188042	0.00438665	0.00187456	0.00302654	0.00471879	0.00115865	0.00157259	0.00154718	0.00424215	0.00214284	0.00203338	0.00108438	0.00259871
1.61000000	0.00468896	0.00365200	0.00502149	0.00550054	0.00321827	0.00674390	0.00302442	0.00287781	0.00164326	0.00921074	0.00384753	0.00451706	0.00198925	0.00447464	0.00170956	0.00314163	0.00441339	0.00106216	0.00153648	0.00143941	0.00392060	0.00227952	0.00195031	0.00102004	0.00228970
1.62000000	0.00445963	0.00349743	0.00503827	0.00553129	0.00327081	0.00705847	0.00294038	0.00280982	0.00156210	0.00939474	0.00329679	0.00548633	0.00195430	0.00481782	0.00102095	0.00308051	0.00389374	0.00100604	0.00124526	0.00109733	0.00330179	0.00218522	0.00142543	0.00089146	0.00195786
1.63000000	0.00429239	0.00318206	0.00485841	0.00567527	0.00329660	0.00672006	0.00273051	0.00265405	0.00166386	0.01001806	0.00278063	0.00629656	0.00172036	0.00465674	0.00089265	0.00282664	0.00354219	0.00089369	0.00108209	0.00082511	0.00277629	0.00196048	0.00117754	0.00054947	0.00176180
1.64000000	0.00412693	0.00269097	0.00401868	0.00537827	0.00371341	0.00672722	0.00238905	0.00247904	0.00170059	0.01006992	0.00270054	0.00769669	0.00164175	0.00499514	0.00081893	0.00258217	0.00333578	0.00082097	0.00095703	0.00077064	0.00240980	0.00177871	0.00121675	0.00010382	0.00147637
1.65000000	0.00354627	0.00224708	0.00322865	0.00507261	0.00403870	0.00660363	0.00216061	0.00240795	0.00174699	0.01021019	0.00261767	0.00897617	0.00157325	0.00540211	0.00108784	0.00235429	0.00319078	0.00077903	0.00078351	0.00071192	0.00205720	0.00167118	0.00118412	0.00030416	0.00128700
1.66000000	0.00297377	0.00199412	0.00306264	0.00480570	0.00394207	0.00624655	0.00205515	0.00243161	0.00209769	0.01050219	0.00219997	0.01004823	0.00163420	0.00573392	0.00040651	0.00198806	0.00291438	0.00100491	0.00066546	0.00067381	0.00152880	0.00142094	0.00081432	0.00084560	0.00103823
1.67000000	0.00264382	0.00179823	0.00251708	0.00476318	0.00351584	0.00562297	0.00199892	0.00251798	0.00213960	0.01159071	0.00165596	0.01033934	0.00179614	0.00562727	0.00029494	0.00159331	0.00284094	0.00099610	0.00070651	0.00057432	0.00123167	0.00125267	0.00065347	0.00133900	0.00095082
1.68000000	0.00220440	0.00151047	0.00179600	0.00454606	0.00417468	0.00566821	0.00161107	0.00263893	0.00218570	0.01193844	0.00171740	0.01155336	0.00203665	0.00585636	0.00075858	0.00134003	0.00273487	0.00115863	0.00077690	0.00062886	0.00108019	0.00110479	0.00086575	0.00184689	0.00076843
1.69000000	0.00170540	0.00184623	0.00158242	0.00454206	0.00387814	0.00535638	0.00188565	0.00266557	0.00247301	0.01251586	0.00140654	0.01218662	0.00221287	0.00621583	0.00019888	0.00126247	0.00254483	0.00119719	0.00096134	0.00077626	0.00097051	0.00123821	0.00041252	0.00222003	0.00052275
1.70000000	0.00129466	0.00161852	0.00124988	0.00454349	0.00401699	0.00537341	0.00195237	0.00266192	0.00263722	0.01292862	0.00158203	0.01309490	0.00237020	0.00647689	0.00021923	0.00125122	0.00238976	0.00128705	0.00112160	0.00081652	0.00107219	0.00131613	0.00067055	0.00261196	0.00031730
1.71000000	0.00140580	0.00113385	0.00126245	0.00460022	0.00470979	0.00556606	0.00163934	0.00300297	0.00255563	0.01353564	0.00190698	0.01376630	0.00256905	0.00647384	0.00032336	0.00120333	0.00227872	0.00147491	0.00123886	0.00086343	0.00125878	0.00108922	0.00131797	0.00308068	0.00078081
1.72000000	0.00120453	0.00251899	0.00084255	0.00465249	0.00422393	0.00525366	0.00209122	0.00274004	0.00287049	0.01372397	0.00141101	0.01409904	0.00275656	0.00647750	0.00039004	0.00136787	0.00222367	0.00146032	0.00141392	0.00101958	0.00153323	0.00152772	0.00089747	0.00316108	0.00021839
1.73000000	0.00152016	0.00176527	0.00134649	0.00475300	0.00478234	0.00535327	0.00175949	0.00313667	0.00278443	0.01423197	0.00171194	0.01424983	0.00279557	0.00638415	0.00053920	0.00144667	0.00217387	0.00162956	0.00149288	0.00103237	0.00188957	0.00127884	0.00144113	0.00363047	0.00080746
1.74000000	0.00151997	0.00304689	0.00114610	0.00478899	0.00444268	0.00515278	0.00208211	0.00278971	0.00298343	0.01406403	0.00110148	0.01432542	0.00286107	0.00622300	0.00067942	0.00161807	0.00219796	0.00161292	0.00167773	0.00118105	0.00234756	0.00175350	0.00143475	0.00361833	0.00071510
1.75000000	0.00171092	0.00311071	0.00146122	0.00489269	0.00452510	0.00508369	0.00207207	0.00275563	0.00300394	0.01395176	0.00081094	0.01420069	0.00284222	0.00603387	0.00076437	0.00177511	0.00227513	0.00169774	0.00181726	0.00129912	0.00281509	0.00190956	0.00166577	0.00379168	0.00094611
1.76000000	0.00202989	0.00238728	0.00192480	0.00502169	0.00483536	0.00492082	0.00195004	0.00277069	0.00300019	0.01385056	0.00066224	0.01391339	0.00282847	0.00572783	0.00067583	0.00197673	0.00235956	0.00174256	0.00197700	0.00144282	0.00343467	0.00185081	0.00193658	0.00414496	0.00142796
1.77000000	0.00230578	0.00205618	0.00238680	0.00521806	0.00501249	0.00488169	0.00173928	0.00293227	0.00297059	0.01353267	0.00056880	0.01337084	0.00266171	0.00548308	0.00071969	0.00218515	0.00249347	0.00193460	0.00212855	0.00165870	0.00398750	0.00202350	0.00216943	0.00443156	0.00182124
1.78000000	0.00233112	0.00290329	0.00223370	0.00531834	0.00490083	0.00508919	0.00178276	0.00270669	0.00298708	0.01276674	0.00089068	0.01266824	0.00263187	0.00514742	0.00055748	0.00235876	0.00275092	0.00203361	0.00224495	0.00197121	0.00437438	0.00235108	0.00223528	0.00450175	0.00176427
1.79000000	0.00255552	0.00221703	0.00252867	0.00549696	0.00517194	0.00530766	0.00145067	0.00304053	0.00288648	0.01223526	0.00104730	0.01167874	0.00254841	0.00500193	0.00141224	0.00269981	0.00300814	0.00229513	0.00238150	0.00243021	0.00493302	0.00266098	0.00234754	0.00488421	0.00225474
1.80000000	0.00263822	0.00236017	0.00247317	0.00566551	0.00516532	0.00539639	0.00157212	0.00263270	0.00296591	0.01131179	0.00200539	0.01087937	0.00241076	0.00445592	0.00045677	0.00281861	0.00317703	0.00238336	0.00255172	0.00266282	0.00537774	0.00285970	0.00252446	0.00504736	0.00220858
1.81000000	0.00286073	0.00187907	0.00270551	0.00592470	0.00537917	0.00543538	0.00154185	0.00266710	0.00287500	0.01053982	0.00248413	0.00981075	0.00232436	0.00404798	0.00027791	0.00297048	0.00331068	0.00252180	0.00277127	0.00292104	0.00595834	0.00315820	0.00256669	0.00529916	0.00252624
1.82000000	0.00295614	0.00181450	0.00276879	0.00608601	0.00537962	0.00567544	0.00146418	0.00268450	0.00281112	0.00962188	0.00298194	0.00852440	0.00219727	0.00362785	0.00040914	0.00316252	0.00339873	0.00275900	0.00296698	0.00321080	0.00643961	0.00342276	0.00262141	0.00560185	0.00260261
1.83000000	0.00298370	0.00181994	0.00287328	0.00627139	0.00554048	0.00566396	0.00151255	0.00261291	0.00273475	0.00884101	0.00348316	0.00708113	0.00219723	0.00318339	0.00068733	0.00333783	0.00356139	0.00287228	0.00313792	0.00347678	0.00695758	0.00385957	0.00263404	0.00586716	0.00284948
1.84000000	0.00293992	0.00161106	0.00262269	0.00634360	0.00544614	0.00585054	0.00143813	0.00260344	0.00265907	0.00806956	0.00403676	0.00523992	0.00228268	0.00276774	0.00103422	0.00361283	0.00367825	0.00317116	0.00323077	0.00382274	0.00720418	0.00427398	0.00257705	0.00607086	0.00276619
1.85000000	0.00294185	0.00198586	0.00291190	0.00651380	0.00551314	0.00571754	0.00151405	0.00245796	0.00258389	0.00773352	0.00424858	0.00368134	0.00240068	0.00242854	0.00134379	0.00367452	0.00370931	0.00328468	0.00341345	0.00398404	0.00775020	0.00461416	0.00258513	0.00627157	0.00299090
1.86000000	0.00294921	0.00248922	0.00318090	0.00666701	0.00548187	0.00549755	0.00155772	0.00233671	0.00255837	0.00798653	0.00455440	0.00193301	0.00255128	0.00220500	0.00160652	0.00374497	0.00375282	0.00337538	0.00355130	0.00411918	0.00820045	0.00484627	0.00261863	0.00649582	0.00305518
1.87000000	0.00286829	0.00186059	0.00299973	0.00667933	0.00532878	0.00547148	0.00155290	0.00234213	0.00246185	0.00870977	0.00477746	0.00064554	0.00290290	0.00231778	0.00203167	0.00406812	0.00378283	0.00359636	0.00359518	0.00434519	0.00847718	0.00521846	0.00255458	0.00665200	0.00294711
1.88000000	0.00280088	0.00259599	0.00333564	0.00686798	0.00518216	0.00522159	0.00166124	0.00223439	0.00244167	0.00990292	0.00479445	0.00207870	0.00314797	0.00255642	0.00231208	0.00414840	0.00382745	0.00365698	0.00370504	0.00444064	0.00895667	0.00546172	0.00257079	0.00674864	0.00309603
1.89000000	0.00280424	0.00335449	0.00390517	0.00708490	0.00500069	0.00503259	0.00175484	0.00227884	0.00235869	0.01127207	0.00469670	0.00359276	0.00346422	0.00284837	0.00258221	0.00418938	0.00387029	0.00372989	0.00380036	0.00450758	0.00936116	0.00563041	0.00259225	0.00677609	0.00319522
1.90000000	0.00268689	0.00270100	0.00374419	0.00718725	0.00484806	0.00487933	0.00180662	0.00229068	0.00238389	0.01237213	0.00466589	0.00525052	0.00371590	0.00363298	0.00274389	0.00452998	0.00398996	0.00381502	0.00383004	0.00462718	0.00971303	0.00589461	0.00255817	0.00685881	0.00314421
1.91000000	0.00261094	0.00339293	0.00433915	0.00745410	0.00458325	0.00473307	0.00190267	0.00231858	0.00233023	0.01332594	0.00445803	0.00614963	0.00383259	0.00386341	0.00286517	0.00451628	0.00404638	0.00380041	0.00395173	0.00460114	0.01016250	0.00598062	0.00258707	0.00684426	0.00331216
1.92000000	0.00251058	0.00292709	0.00439560	0.00760641	0.00440472	0.00472627	0.00195074	0.00232862	0.00228051	0.01367583	0.00407326	0.00710454	0.00406311	0.00439170	0.00289616	0.00476112	0.00423152	0.00384828	0.00397682	0.00465936	0.01045512	0.00614572	0.00263679	0.00685198	0.00331701
1.93000000	0.00222165	0.00349696	0.00535086	0.00785368	0.00405649	0.00457902	0.00205502	0.00243800	0.00217508	0.01386130	0.00353671	0.00701078	0.00429949	0.00422030	0.00308208	0.00467168	0.00432194	0.00371466	0.00403150	0.00453770	0.01079578	0.00641702	0.00261683	0.00678301	0.00344752
1.94000000	0.00217763	0.00378140	0.00596097	0.00802755	0.00374165	0.00444255	0.00228239	0.00250320	0.00200020	0.01338331	0.00325865	0.00678130	0.00417812	0.00379955	0.00300686	0.00468614	0.00447840	0.00373472	0.00414354	0.00452385	0.01103600	0.00644877	0.00271113	0.00664870	0.00362945
1.95000000	0.00232762	0.00326726	0.00581164	0.00820271	0.00365562	0.00420574	0.00241628	0.00228765	0.00197014	0.01246204	0.00329832	0.00631543	0.00381284	0.00389651	0.00250548	0.00462181	0.00470963	0.00362107	0.00429630	0.00435331	0.01127509	0.00598581	0.00302120	0.00678071	0.00377898
1.96000000	0.00223792	0.00277239	0.00605974	0.00822461	0.00331788	0.00412082	0.00252539	0.00241932	0.00168618	0.01118697	0.00284409	0.00563468	0.00394994	0.00349920	0.00239754	0.00456894	0.00491737	0.00357131	0.00434129	0.00430359	0.01131534	0.00598958	0.00308080	0.00663481	0.00382441
1.97000000	0.00224781	0.00189538	0.00596146	0.00818449	0.00314448	0.00402858	0.00257648	0.00223427	0.00152209	0.00967777	0.00252959	0.00501483	0.00397860	0.00324792	0.00221653	0.00444490	0.00511970	0.00342841	0.00434576	0.00420601	0.01126094	0.00590725	0.00322771	0.00649254	0.00395372
1.98000000	0.00237337	0.00187297	0.00627854	0.00804335	0.00284478	0.00367831	0.00287923	0.00220905	0.00124427	0.00803734	0.00204617	0.00444752	0.00405325	0.00298472	0.00189903	0.00425875	0.00527364	0.00326425	0.00435331	0.00405344	0.01113224	0.00571906	0.00333986	0.00630765	0.00411116
1.99000000	0.00274163	0.00185440	0.00641489	0.00783554	0.00267302	0.00326153	0.00304293	0.00214660	0.00095688	0.00651543	0.00181077	0.00425148	0.00402110	0.00295836	0.00163123	0.00399735	0.00539548	0.00314514	0.00437817	0.00388442	0.01089002	0.00535291	0.00342799	0.00600250	0.00417937
2.00000000	0.00302633	0.00202386	0.00651151	0.00751139	0.00249084	0.00261833	0.00334727	0.00188633	0.00079095	0.00511605	0.00181280	0.00438258	0.00380240	0.00310992	0.00162236	0.00383141	0.00559621	0.00294883	0.00422980	0.00372985	0.01053631	0.00511363	0.00348208	0.00577944	0.00438173
2.01000000	0.00360718	0.00262521	0.00640655	0.00703305	0.00255152	0.00226021	0.00338226	0.00182256	0.00028183	0.00499182	0.00142106	0.00420036	0.00302417	0.00296361	0.00083813	0.00346292	0.00541686	0.00277966	0.00421936	0.00335943	0.01017988	0.00455051	0.00344516	0.00543469	0.00431885
2.02000000	0.00383274	0.00266371	0.00636983	0.00648655	0.00259852	0.00156230	0.00369061	0.00203274	0.00050126	0.00419888	0.00173815	0.00483130	0.00274996	0.00306648	0.00067633	0.00340877	0.00540398	0.00265928	0.00401585	0.00317284	0.00972415	0.00425444	0.00340887	0.00516782	0.00430440
2.03000000	0.00396172	0.00260613	0.00609311	0.00585022	0.00311817	0.00159056	0.00379360	0.00215403	0.00100363	0.00384637	0.00234614	0.00522505	0.00226269	0.00322865	0.00103477	0.00344749	0.00536798	0.00259226	0.00375851	0.00304488	0.00927765	0.00412123	0.00326210	0.00493080	0.00428002
2.04000000	0.00408467	0.00258458	0.00578397	0.00514902	0.00356880	0.00247965	0.00394801	0.00274709	0.00135377	0.00362082	0.00274745	0.00547082	0.00190475	0.00317687	0.00118313	0.00345215	0.00512298	0.00249428	0.00353941	0.00283863	0.00889920	0.00393496	0.00304109	0.00482062	0.00415768
2.05000000	0.00447297	0.00260157	0.00555705	0.00464648	0.00372854	0.00366956	0.00407614	0.00329928	0.00214828	0.00341908	0.00246055	0.00540556	0.00144615	0.00314035	0.00114981	0.00350788	0.00469134	0.00246418	0.00341645	0.00258814	0.00854146	0.00373954	0.00283636	0.00463619	0.00380689
2.06000000	0.00531346	0.00265134	0.00552912	0.00467450	0.00353962	0.00438499	0.00423439	0.00379153	0.00257847	0.00404052	0.00123156	0.00409671	0.00070049	0.00280117	0.00096706	0.00350320	0.00423120	0.00235920	0.00323473	0.00220933	0.00820688	0.00353648	0.00239371	0.00461788	0.00361218
2.07000000	0.00518954	0.00260879	0.00540296	0.00446956	0.00409437	0.00574964	0.00416524	0.00427622	0.00290449	0.00397710	0.00095473	0.00386333	0.00061689	0.00268707	0.00116921	0.00370054	0.00382556	0.00236263	0.00300165	0.00197844	0.00791599	0.00368332	0.00202388	0.00467533	0.00327065
2.08000000	0.00520126	0.00256443	0.00532837	0.00461079	0.00455986	0.00679085	0.00401683	0.00460463	0.00302682	0.00409481	0.00065938	0.00358638	0.00055094	0.00266282	0.00122666	0.00394421	0.00348330	0.00245401	0.00280836	0.00183467	0.00761061	0.00381608	0.00170343	0.00471997	0.00289991
2.09000000	0.00548411	0.00242764	0.00527770	0.00486142	0.00464935	0.00748339	0.00378090	0.00465267	0.00303701	0.00430761	0.00040272	0.00343263	0.00055880	0.00266126	0.00128665	0.00412537	0.00316867	0.00247693	0.00261040	0.00175614	0.00731211	0.00396317	0.00150099	0.00481395	0.00256476
2.10000000	0.00591028	0.00223322	0.00526031	0.00506848	0.00464061	0.00762088	0.00336022	0.00451338	0.00285935	0.00464309	0.00042235	0.00335557	0.00060338	0.00277015	0.00127077	0.00424962	0.00297930	0.00260282	0.00244740	0.00186408	0.00697867	0.00410694	0.00126805	0.00479440	0.00229122
2.11000000	0.00656992	0.00215348	0.00538325	0.00498572	0.00430258	0.00741113	0.00291343	0.00419568	0.00263105	0.00500115	0.00033845	0.00341364	0.00079905	0.00287733	0.00131471	0.00436023	0.00273225	0.00259944	0.00226237	0.00187678	0.00657983	0.00408684	0.00101295	0.00477606	0.00206880
2.12000000	0.00677749	0.00219628	0.00553435	0.00495373	0.00418585	0.00673374	0.00234419	0.00385033	0.00247201	0.00539842	0.00024856	0.00357675	0.00093849	0.00301081	0.00133092	0.00436410	0.00266420	0.00269645	0.00206997	0.00197844	0.00616787	0.00404999	0.00087468	0.00468128	0.00189145
2.13000000	0.00552056	0.00214877	0.00609926	0.00537382	0.00503279	0.00574313	0.00141424	0.00390537	0.00285532	0.00606161	0.00073587	0.00358114	0.00137909	0.00310901	0.00152445	0.00472317	0.00273893	0.00294847	0.00167915	0.00232131	0.00560315	0.00427104	0.00103310	0.00462446	0.00172685
2.14000000	0.00695152	0.00237513	0.00591076	0.00505251	0.00384022	0.00520560	0.00138560	0.00351750	0.00253313	0.00615974	0.00024649	0.00385765	0.00125229	0.00328511	0.00136357	0.00411894	0.00283404	0.00288568	0.00169074	0.00204177	0.00526506	0.00362633	0.00092852	0.00416675	0.00171403
2.15000000	0.00546805	0.00232605	0.00623964	0.00575118	0.00449843	0.00450272	0.00096284	0.00356588	0.00312106	0.00655773	0.00103972	0.00397580	0.00171652	0.00338880	0.00163274	0.00424170	0.00297014	0.00311494	0.00134432	0.00230140	0.00479642	0.00360938	0.00132053	0.00393581	0.00180607
2.16000000	0.00654374	0.00254762	0.00607897	0.00551728	0.00337813	0.00420511	0.00108526	0.00353849	0.00291531	0.00656172	0.00070756	0.00422782	0.00158560	0.00347430	0.00142509	0.00357355	0.00315465	0.00296306	0.00130956	0.00190704	0.00448033	0.00291569	0.00119945	0.00344948	0.00188249
2.17000000	0.00531964	0.00270226	0.00619115	0.00588252	0.00350142	0.00381869	0.00111416	0.00361255	0.00311451	0.00682543	0.00134534	0.00423396	0.00184023	0.00347271	0.00157437	0.00326332	0.00331016	0.00313051	0.00128061	0.00196041	0.00430112	0.00250340	0.00165055	0.00310645	0.00194876
2.18000000	0.00581382	0.00273264	0.00609766	0.00571686	0.00263858	0.00357080	0.00117152	0.00343625	0.00318340	0.00673469	0.00121474	0.00455018	0.00179960	0.00356208	0.00153178	0.00280142	0.00344954	0.00277358	0.00118073	0.00155458	0.00402077	0.00208899	0.00145503	0.00265286	0.00208356
2.19000000	0.00521115	0.00280657	0.00597763	0.00585792	0.00236216	0.00338820	0.00136652	0.00328797	0.00330324	0.00676273	0.00141167	0.00466565	0.00183430	0.00359372	0.00157183	0.00236171	0.00359785	0.00261098	0.00118637	0.00140588	0.00393697	0.00168467	0.00158144	0.00231472	0.00215518
2.20000000	0.00451194	0.00289930	0.00569369	0.00595197	0.00217849	0.00365799	0.00166353	0.00334121	0.00324442	0.00678168	0.00158652	0.00472615	0.00186585	0.00356327	0.00167064	0.00209825	0.00369950	0.00249692	0.00113562	0.00144223	0.00378474	0.00132106	0.00182950	0.00200358	0.00214124
2.21000000	0.00414363	0.00279667	0.00544670	0.00609729	0.00192704	0.00407289	0.00184947	0.00325628	0.00322498	0.00678956	0.00160394	0.00471015	0.00178912	0.00356107	0.00174516	0.00180718	0.00376968	0.00221727	0.00103502	0.00140334	0.00359367	0.00107097	0.00198490	0.00175615	0.00195489
2.22000000	0.00353662	0.00272439	0.00485084	0.00637730	0.00196246	0.00469698	0.00212061	0.00333137	0.00322707	0.00672868	0.00208353	0.00464969	0.00170965	0.00368623	0.00190361	0.00176069	0.00376909	0.00214954	0.00100234	0.00167006	0.00348345	0.00106732	0.00213416	0.00155829	0.00188641
2.23000000	0.00344212	0.00268842	0.00452119	0.00653039	0.00174110	0.00535946	0.00225955	0.00346097	0.00298430	0.00663774	0.00173443	0.00446184	0.00151630	0.00359855	0.00194922	0.00145718	0.00365346	0.00191493	0.00086386	0.00166141	0.00320991	0.00092624	0.00209215	0.00140966	0.00162739
2.24000000	0.00323263	0.00227360	0.00430111	0.00691869	0.00178090	0.00547528	0.00223297	0.00331952	0.00289849	0.00657148	0.00158596	0.00431926	0.00134425	0.00363436	0.00206982	0.00116169	0.00355969	0.00154030	0.00063959	0.00158777	0.00276749	0.00091204	0.00180896	0.00131252	0.00123265
2.25000000	0.00324401	0.00238219	0.00362356	0.00708673	0.00163268	0.00613703	0.00197024	0.00327635	0.00309406	0.00632341	0.00213446	0.00412432	0.00114933	0.00404712	0.00221976	0.00109083	0.00327406	0.00154154	0.00057177	0.00183096	0.00263380	0.00111890	0.00195022	0.00122265	0.00125163
2.26000000	0.00276787	0.00194014	0.00371848	0.00747299	0.00170080	0.00569011	0.00200773	0.00335012	0.00270693	0.00637536	0.00167077	0.00386061	0.00095594	0.00370774	0.00222617	0.00083448	0.00297691	0.00123611	0.00049017	0.00151840	0.00235787	0.00077354	0.00052327	0.00126374	0.00033415
2.27000000	0.00300022	0.00179852	0.00297649	0.00760750	0.00162715	0.00588555	0.00186870	0.00339361	0.00261107	0.00625777	0.00168777	0.00370304	0.00068265	0.00380079	0.00235117	0.00069704	0.00274578	0.00112282	0.00027556	0.00164143	0.00217536	0.00089282	0.00076476	0.00114884	0.00043673
2.28000000	0.00326287	0.00195245	0.00202083	0.00753100	0.00132328	0.00628981	0.00203603	0.00413218	0.00217301	0.00612864	0.00233750	0.00349966	0.00063939	0.00424603	0.00260261	0.00062773	0.00216532	0.00133053	0.00059365	0.00180078	0.00282870	0.00125506	0.00126460	0.00113364	0.00131346
2.29000000	0.00306367	0.00116800	0.00212905	0.00753667	0.00159359	0.00623987	0.00154994	0.00374015	0.00226479	0.00626308	0.00171856	0.00339515	0.00034965	0.00358299	0.00252274	0.00048797	0.00242318	0.00118144	0.00029557	0.00159160	0.00238636	0.00121571	0.00110465	0.00101400	0.00129564
2.30000000	0.00346887	0.00104231	0.00174581	0.00771070	0.00154284	0.00620689	0.00137100	0.00372073	0.00224029	0.00624509	0.00217518	0.00342313	0.00054146	0.00380310	0.00259533	0.00045542	0.00230928	0.00132273	0.00053940	0.00145759	0.00274311	0.00142997	0.00147734	0.00100772	0.00162499
2.31000000	0.00230114	0.00093969	0.00171853	0.00758161	0.00206290	0.00634439	0.00123499	0.00380267	0.00201693	0.00613620	0.00199750	0.00348759	0.00037365	0.00338462	0.00253276	0.00074913	0.00236695	0.00158703	0.00066499	0.00134062	0.00307925	0.00108483	0.00143405	0.00073764	0.00176525
2.32000000	0.00265950	0.00076214	0.00136490	0.00785347	0.00177269	0.00645364	0.00138360	0.00390519	0.00190340	0.00627728	0.00258629	0.00346147	0.00062414	0.00363765	0.00267129	0.00101179	0.00265111	0.00175955	0.00082824	0.00102921	0.00340929	0.00141815	0.00163899	0.00060285	0.00215493
2.33000000	0.00341065	0.00064406	0.00152262	0.00823740	0.00151296	0.00669378	0.00160140	0.00399568	0.00176198	0.00642030	0.00296931	0.00353433	0.00084098	0.00380626	0.00291320	0.00131231	0.00301318	0.00196164	0.00103911	0.00067354	0.00377173	0.00180405	0.00178465	0.00049394	0.00249375
2.34000000	0.00219660	0.00079629	0.00141219	0.00816216	0.00228725	0.00732735	0.00137344	0.00382427	0.00150392	0.00630884	0.00252392	0.00372534	0.00069219	0.00328326	0.00270773	0.00127612	0.00287470	0.00206684	0.00133284	0.00071649	0.00431822	0.00160851	0.00216849	0.00022964	0.00252578
2.35000000	0.00221318	0.00101491	0.00143106	0.00864807	0.00227947	0.00793423	0.00150572	0.00383365	0.00130830	0.00646692	0.00270545	0.00375284	0.00074442	0.00323377	0.00287029	0.00155744	0.00314998	0.00220912	0.00156302	0.00041746	0.00469179	0.00192842	0.00228572	0.00029045	0.00269299
2.36000000	0.00216742	0.00142516	0.00163444	0.00917121	0.00240430	0.00847640	0.00167588	0.00369204	0.00108062	0.00644036	0.00293279	0.00385982	0.00069433	0.00323590	0.00294640	0.00179203	0.00333046	0.00237820	0.00176211	0.00019395	0.00511433	0.00212664	0.00250309	0.00048021	0.00289432
2.37000000	0.00222488	0.00178109	0.00172498	0.00989419	0.00220942	0.00908084	0.00190647	0.00365290	0.00096745	0.00666659	0.00312837	0.00380733	0.00076452	0.00317841	0.00309453	0.00214544	0.00364262	0.00257203	0.00196341	0.00035812	0.00546684	0.00246723	0.00253704	0.00089919	0.00304235
2.38000000	0.00232087	0.00220373	0.00209294	0.01035441	0.00222678	0.00940702	0.00213809	0.00355217	0.00083845	0.00657032	0.00324466	0.00394248	0.00066274	0.00312671	0.00305749	0.00232406	0.00379039	0.00272536	0.00214598	0.00070823	0.00594699	0.00265820	0.00286798	0.00111756	0.00322589
2.39000000	0.00247665	0.00260239	0.00235310	0.01090845	0.00097435	0.00962105	0.00288120	0.00375808	0.00149953	0.00677364	0.00351917	0.00400619	0.00071755	0.00324346	0.00310166	0.00289635	0.00452369	0.00313921	0.00218132	0.00143291	0.00609584	0.00298147	0.00267884	0.00163727	0.00359586
2.40000000	0.00241339	0.00282100	0.00264878	0.01098801	0.00196765	0.00963741	0.00243491	0.00330079	0.00063039	0.00673723	0.00356176	0.00398206	0.00065718	0.00288986	0.00297503	0.00290702	0.00431767	0.00311978	0.00245025	0.00152899	0.00668650	0.00316164	0.00315121	0.00182360	0.00364376
2.41000000	0.00240890	0.00306909	0.00276787	0.01087437	0.00172413	0.00933423	0.00247309	0.00313075	0.00074450	0.00686647	0.00373419	0.00398094	0.00070449	0.00272897	0.00292485	0.00314827	0.00450151	0.00325751	0.00265409	0.00191113	0.00719121	0.00343344	0.00342682	0.00214993	0.00382908
2.42000000	0.00231824	0.00323463	0.00300718	0.01045370	0.00159189	0.00862763	0.00253811	0.00300420	0.00070251	0.00692498	0.00382493	0.00403640	0.00075483	0.00255591	0.00286086	0.00339763	0.00476046	0.00341694	0.00277745	0.00225843	0.00754359	0.00364271	0.00358230	0.00246749	0.00407814
2.43000000	0.00239540	0.00339456	0.00303367	0.00978922	0.00126665	0.00778363	0.00243331	0.00282325	0.00052520	0.00709476	0.00377441	0.00410844	0.00096834	0.00247585	0.00277201	0.00370208	0.00496451	0.00351461	0.00295031	0.00254081	0.00790788	0.00390901	0.00349660	0.00294689	0.00438082
2.44000000	0.00207291	0.00341230	0.00323594	0.00881668	0.00130676	0.00630151	0.00237116	0.00257752	0.00083061	0.00711472	0.00402857	0.00402306	0.00099719	0.00225433	0.00274777	0.00385185	0.00510726	0.00355346	0.00310313	0.00276827	0.00837651	0.00410385	0.00390554	0.00310168	0.00453031
2.45000000	0.00231176	0.00358279	0.00380125	0.00784582	0.00096832	0.00490076	0.00264062	0.00242032	0.00158896	0.00720634	0.00389896	0.00417552	0.00124264	0.00226154	0.00269325	0.00407801	0.00553721	0.00373119	0.00312940	0.00299938	0.00844662	0.00424283	0.00352122	0.00338748	0.00498945
2.46000000	0.00166980	0.00332033	0.00379511	0.00734962	0.00121206	0.00288569	0.00232205	0.00232330	0.00114942	0.00725246	0.00418164	0.00399713	0.00128361	0.00201343	0.00269842	0.00415151	0.00540499	0.00361239	0.00332390	0.00298961	0.00898376	0.00437976	0.00417248	0.00344492	0.00499118
2.47000000	0.00203376	0.00331196	0.00432360	0.00732472	0.00129517	0.00132844	0.00224434	0.00221232	0.00127966	0.00734830	0.00399570	0.00399353	0.00156771	0.00197578	0.00263246	0.00431560	0.00551271	0.00365840	0.00346574	0.00297107	0.00916700	0.00447456	0.00402445	0.00366108	0.00524905
2.48000000	0.00231149	0.00314450	0.00470561	0.00774258	0.00149932	0.00102894	0.00207916	0.00215609	0.00139506	0.00745096	0.00400591	0.00386466	0.00180377	0.00194110	0.00261031	0.00441057	0.00549687	0.00361220	0.00361640	0.00287247	0.00945928	0.00457968	0.00422263	0.00378198	0.00539995
2.49000000	0.00217500	0.00281246	0.00488823	0.00836917	0.00142989	0.00237240	0.00201292	0.00217839	0.00155889	0.00748217	0.00408220	0.00367884	0.00195605	0.00179515	0.00263843	0.00454379	0.00553093	0.00353500	0.00367837	0.00274957	0.00969484	0.00471985	0.00452650	0.00386366	0.00557254
2.50000000	0.00273155	0.00266464	0.00570169	0.00896174	0.00145358	0.00323945	0.00219268	0.00181456	0.00213498	0.00748308	0.00389660	0.00349857	0.00236132	0.00189839	0.00256645	0.00470989	0.00596726	0.00367249	0.00358686	0.00261515	0.00946007	0.00481220	0.00383274	0.00396287	0.00625407
2.51000000	0.00263014	0.00246004	0.00576724	0.00896240	0.00173375	0.00398361	0.00199389	0.00177911	0.00179267	0.00763343	0.00387761	0.00342860	0.00251330	0.00182331	0.00257089	0.00459627	0.00550698	0.00356361	0.00385817	0.00239409	0.00984764	0.00475420	0.00473940	0.00399431	0.00582791
2.52000000	0.00245344	0.00213504	0.00570745	0.00861693	0.00147202	0.00411688	0.00206425	0.00153812	0.00191827	0.00760609	0.00391717	0.00328462	0.00267658	0.00176452	0.00258360	0.00461302	0.00535269	0.00351352	0.00393387	0.00220704	0.01003126	0.00478142	0.00510155	0.00402243	0.00587977
2.53000000	0.00281950	0.00219818	0.00600736	0.00765240	0.00152238	0.00368331	0.00217682	0.00100565	0.00192269	0.00744943	0.00358295	0.00304816	0.00326567	0.00194306	0.00250501	0.00480519	0.00581137	0.00375092	0.00391239	0.00213372	0.00978405	0.00484603	0.00420348	0.00421339	0.00659759
2.54000000	0.00259272	0.00206592	0.00539766	0.00654584	0.00124261	0.00331040	0.00233080	0.00089313	0.00186100	0.00735360	0.00386100	0.00303543	0.00313029	0.00188077	0.00243169	0.00464052	0.00534333	0.00361967	0.00394503	0.00197248	0.00994420	0.00471740	0.00495972	0.00404773	0.00634566
2.55000000	0.00296688	0.00227499	0.00539402	0.00515408	0.00128738	0.00263919	0.00258481	0.00103026	0.00175750	0.00717524	0.00384827	0.00281419	0.00342130	0.00192674	0.00232410	0.00463246	0.00508151	0.00361567	0.00398729	0.00189581	0.00990851	0.00466435	0.00501718	0.00407459	0.00637993
2.56000000	0.00288244	0.00238189	0.00557555	0.00347245	0.00180485	0.00233502	0.00333347	0.00283493	0.00169201	0.00670081	0.00341368	0.00257305	0.00415838	0.00209640	0.00224820	0.00486845	0.00541162	0.00375499	0.00390280	0.00199356	0.00958408	0.00472059	0.00443248	0.00431278	0.00682880
2.57000000	0.00369382	0.00269518	0.00566036	0.00262326	0.00304297	0.00259033	0.00336922	0.00276511	0.00149644	0.00667783	0.00349705	0.00208736	0.00419863	0.00198229	0.00219218	0.00476999	0.00460247	0.00353811	0.00387833	0.00174192	0.00963853	0.00461672	0.00513255	0.00434626	0.00629706
2.58000000	0.00477383	0.00355819	0.00538321	0.00235464	0.00232527	0.00260536	0.00317665	0.00352608	0.00123423	0.00615829	0.00359543	0.00189551	0.00422569	0.00173400	0.00183009	0.00466441	0.00422717	0.00344379	0.00378896	0.00172402	0.00945272	0.00450928	0.00488751	0.00421434	0.00639710
2.59000000	0.00496238	0.00376657	0.00564770	0.00175848	0.00335569	0.00339295	0.00335681	0.00430495	0.00114652	0.00567994	0.00347340	0.00137327	0.00463709	0.00182099	0.00150718	0.00482543	0.00409104	0.00337708	0.00360231	0.00155741	0.00913382	0.00448237	0.00484413	0.00431823	0.00630480
2.60000000	0.00540805	0.00469045	0.00575943	0.00239268	0.00269661	0.00363534	0.00313216	0.00471843	0.00135953	0.00512401	0.00347517	0.00127059	0.00469854	0.00169258	0.00125395	0.00483014	0.00383950	0.00324673	0.00347765	0.00139205	0.00882376	0.00440694	0.00471859	0.00419485	0.00622785
2.61000000	0.00535779	0.00472731	0.00583782	0.00281916	0.00342466	0.00472198	0.00311725	0.00495627	0.00137025	0.00431994	0.00368601	0.00156815	0.00498765	0.00221324	0.00101726	0.00480678	0.00370426	0.00307565	0.00324699	0.00113335	0.00856054	0.00418898	0.00469919	0.00413725	0.00622976
2.62000000	0.00518263	0.00485655	0.00581274	0.00335862	0.00381727	0.00553842	0.00293348	0.00485326	0.00150010	0.00344671	0.00404535	0.00239047	0.00515126	0.00289794	0.00140063	0.00467619	0.00365151	0.00287871	0.00304958	0.00082025	0.00828838	0.00390782	0.00474401	0.00392511	0.00619571
2.63000000	0.00493807	0.00487425	0.00573237	0.00377685	0.00409535	0.00589627	0.00263385	0.00444857	0.00173977	0.00247255	0.00455120	0.00351050	0.00514130	0.00379966	0.00208348	0.00449654	0.00369390	0.00261680	0.00284207	0.00043656	0.00800700	0.00357136	0.00474922	0.00362553	0.00627677
2.64000000	0.00445880	0.00602002	0.00571484	0.00408856	0.00265303	0.00532544	0.00235030	0.00413500	0.00172015	0.00157063	0.00403324	0.00410003	0.00551476	0.00463985	0.00326794	0.00416000	0.00384221	0.00244497	0.00285470	0.00020519	0.00760738	0.00312743	0.00481207	0.00294750	0.00606029
2.65000000	0.00408701	0.00573866	0.00531017	0.00384223	0.00274184	0.00531152	0.00215729	0.00380850	0.00177953	0.00111663	0.00449784	0.00490833	0.00574235	0.00539070	0.00412847	0.00379479	0.00417267	0.00215250	0.00272933	0.00067919	0.00739939	0.00260830	0.00496677	0.00245013	0.00612196
2.66000000	0.00369272	0.00598309	0.00525002	0.00331533	0.00268716	0.00514618	0.00196414	0.00339522	0.00192132	0.00198230	0.00459312	0.00576740	0.00583015	0.00580839	0.00480467	0.00332980	0.00448250	0.00188901	0.00276640	0.00118071	0.00714062	0.00202773	0.00510238	0.00180062	0.00600507
2.67000000	0.00354080	0.00587922	0.00501228	0.00288163	0.00281074	0.00482174	0.00194553	0.00322031	0.00203330	0.00337267	0.00472259	0.00613715	0.00595751	0.00595176	0.00525885	0.00288336	0.00499274	0.00159683	0.00269160	0.00171088	0.00687709	0.00147801	0.00531284	0.00122461	0.00597928
2.68000000	0.00342408	0.00606441	0.00497204	0.00241710	0.00276780	0.00461068	0.00197759	0.00302714	0.00222561	0.00475564	0.00463990	0.00617468	0.00594402	0.00558493	0.00566712	0.00238825	0.00537421	0.00140584	0.00277448	0.00215144	0.00667912	0.00097468	0.00537502	0.00067177	0.00578962
2.69000000	0.00342080	0.00602983	0.00489219	0.00225417	0.00286949	0.00433211	0.00214642	0.00301918	0.00237649	0.00604047	0.00460053	0.00568380	0.00590403	0.00522569	0.00564989	0.00199986	0.00579223	0.00133834	0.00277751	0.00247483	0.00642983	0.00056620	0.00534721	0.00027702	0.00569168
2.70000000	0.00342379	0.00617882	0.00500479	0.00218790	0.00277826	0.00418224	0.00237083	0.00302876	0.00246153	0.00707371	0.00440612	0.00487950	0.00556686	0.00460164	0.00571937	0.00162192	0.00603244	0.00137557	0.00280833	0.00262484	0.00618378	0.00035932	0.00512367	0.00025516	0.00546308
2.71000000	0.00323374	0.00517775	0.00520732	0.00252315	0.00341900	0.00383620	0.00256106	0.00317916	0.00257646	0.00827644	0.00489263	0.00361966	0.00470894	0.00493838	0.00558217	0.00158136	0.00640493	0.00161941	0.00269089	0.00276463	0.00584095	0.00029467	0.00507869	0.00038790	0.00525838
2.72000000	0.00336996	0.00614202	0.00517028	0.00250542	0.00270329	0.00384049	0.00282574	0.00311800	0.00270274	0.00828360	0.00425923	0.00288813	0.00426871	0.00357509	0.00555724	0.00138550	0.00617298	0.00156368	0.00272290	0.00246107	0.00551609	0.00043385	0.00447131	0.00047783	0.00473512
2.73000000	0.00369700	0.00567143	0.00513214	0.00282952	0.00281856	0.00370691	0.00304957	0.00331464	0.00268589	0.00854876	0.00432750	0.00241741	0.00339790	0.00348301	0.00528143	0.00140642	0.00597146	0.00160563	0.00258280	0.00219565	0.00512695	0.00049275	0.00392128	0.00052146	0.00436394
2.74000000	0.00399925	0.00552563	0.00508271	0.00323665	0.00271553	0.00377993	0.00330466	0.00345481	0.00265772	0.00845014	0.00415467	0.00255382	0.00267146	0.00323682	0.00490406	0.00150039	0.00558539	0.00155658	0.00246140	0.00176462	0.00462571	0.00059542	0.00324655	0.00039820	0.00388046
2.75000000	0.00419573	0.00564320	0.00525494	0.00370156	0.00292377	0.00397690	0.00334324	0.00347436	0.00262661	0.00809968	0.00400734	0.00239356	0.00208609	0.00310771	0.00435409	0.00167697	0.00490778	0.00141753	0.00236305	0.00133658	0.00411286	0.00070075	0.00243776	0.00018378	0.00328268
2.76000000	0.00483409	0.00503205	0.00475622	0.00431216	0.00327491	0.00422391	0.00342367	0.00354462	0.00262312	0.00781105	0.00376238	0.00225001	0.00162391	0.00326964	0.00366821	0.00181266	0.00427578	0.00138803	0.00219830	0.00095688	0.00360521	0.00097100	0.00205320	0.00030790	0.00259378
2.77000000	0.00496955	0.00472818	0.00445821	0.00473305	0.00323969	0.00473196	0.00354647	0.00360190	0.00254748	0.00746137	0.00326185	0.00185027	0.00158092	0.00316875	0.00302467	0.00203925	0.00357229	0.00114322	0.00199311	0.00049173	0.00295556	0.00131800	0.00135744	0.00054904	0.00202823
2.78000000	0.00532780	0.00432342	0.00372726	0.00514848	0.00366923	0.00496659	0.00347884	0.00351735	0.00256319	0.00716362	0.00290789	0.00132353	0.00158040	0.00323180	0.00237156	0.00214686	0.00286742	0.00116892	0.00182956	0.00044730	0.00245044	0.00148441	0.00162034	0.00064536	0.00129031
2.79000000	0.00515818	0.00385989	0.00337863	0.00537002	0.00370213	0.00505809	0.00352826	0.00342734	0.00260811	0.00703583	0.00248511	0.00145118	0.00161219	0.00323386	0.00180078	0.00232632	0.00224856	0.00119541	0.00169013	0.00062143	0.00172618	0.00169949	0.00159348	0.00072041	0.00075400
2.80000000	0.00501624	0.00351913	0.00249892	0.00545687	0.00384319	0.00510339	0.00342314	0.00328507	0.00260628	0.00699435	0.00212996	0.00225111	0.00174839	0.00332373	0.00137640	0.00238700	0.00205823	0.00139563	0.00153196	0.00094486	0.00119503	0.00171826	0.00207762	0.00058497	0.00030774
2.81000000	0.00464902	0.00309032	0.00161716	0.00556130	0.00403295	0.00491160	0.00331853	0.00311426	0.00267124	0.00711354	0.00185447	0.00334498	0.00170651	0.00352567	0.00100815	0.00238980	0.00218230	0.00171638	0.00144262	0.00123122	0.00100568	0.00165335	0.00246996	0.00036156	0.00058680
2.82000000	0.00418006	0.00249848	0.00102307	0.00562384	0.00410810	0.00466996	0.00322304	0.00297331	0.00276567	0.00739349	0.00165169	0.00453806	0.00159131	0.00372719	0.00081093	0.00234942	0.00245122	0.00202672	0.00152101	0.00138975	0.00143081	0.00150698	0.00273079	0.00005135	0.00098486
2.83000000	0.00359982	0.00219088	0.00093785	0.00575142	0.00438482	0.00455594	0.00303497	0.00266183	0.00288446	0.00764993	0.00165563	0.00584778	0.00131922	0.00408748	0.00068176	0.00215941	0.00278763	0.00247294	0.00157841	0.00161582	0.00196729	0.00124119	0.00291534	0.00045177	0.00164955
2.84000000	0.00336990	0.00139879	0.00161360	0.00578600	0.00381461	0.00394311	0.00310943	0.00269756	0.00295603	0.00845080	0.00123122	0.00673927	0.00114110	0.00421444	0.00065373	0.00178378	0.00333446	0.00274746	0.00170561	0.00172386	0.00251439	0.00097948	0.00293110	0.00098648	0.00177444
2.85000000	0.00275558	0.00122763	0.00234560	0.00585534	0.00413956	0.00416746	0.00289415	0.00257107	0.00296127	0.00900075	0.00127473	0.00816263	0.00103206	0.00446958	0.00070758	0.00162457	0.00352117	0.00300384	0.00198778	0.00172863	0.00329482	0.00079062	0.00286950	0.00155074	0.00241953
2.86000000	0.00255488	0.00146694	0.00280999	0.00592601	0.00408559	0.00400808	0.00289012	0.00255144	0.00313853	0.00979744	0.00105338	0.00907287	0.00090368	0.00471268	0.00061228	0.00135676	0.00386947	0.00320288	0.00223738	0.00180649	0.00392906	0.00105304	0.00278334	0.00210686	0.00240956
2.87000000	0.00240032	0.00183998	0.00321033	0.00593510	0.00407220	0.00402762	0.00280483	0.00252038	0.00320623	0.01046576	0.00097215	0.01020438	0.00097630	0.00496446	0.00045119	0.00128748	0.00422644	0.00338218	0.00251210	0.00194362	0.00459064	0.00143523	0.00276564	0.00269541	0.00268605
2.88000000	0.00245944	0.00237779	0.00382895	0.00603070	0.00412290	0.00404166	0.00267508	0.00251828	0.00330822	0.01121697	0.00091228	0.01112868	0.00115322	0.00518184	0.00030210	0.00145784	0.00445145	0.00353728	0.00278793	0.00199349	0.00513038	0.00182083	0.00265924	0.00315813	0.00286424
2.89000000	0.00259303	0.00285691	0.00425082	0.00602866	0.00415970	0.00407760	0.00256748	0.00254145	0.00332523	0.01184614	0.00091302	0.01201849	0.00145548	0.00534433	0.00018061	0.00186656	0.00476415	0.00370300	0.00304351	0.00218451	0.00570733	0.00225294	0.00261876	0.00361069	0.00312147
2.90000000	0.00286935	0.00334135	0.00474618	0.00610470	0.00426607	0.00412897	0.00239697	0.00250292	0.00334665	0.01254486	0.00079013	0.01265629	0.00166300	0.00539070	0.00036937	0.00229704	0.00498649	0.00385990	0.00329234	0.00230385	0.00632272	0.00267203	0.00259611	0.00401647	0.00331436
2.91000000	0.00318204	0.00221938	0.00561421	0.00624403	0.00468816	0.00416156	0.00196617	0.00276616	0.00322675	0.01349834	0.00096614	0.01307428	0.00187616	0.00542699	0.00066177	0.00290015	0.00530584	0.00409261	0.00340567	0.00259725	0.00688836	0.00316641	0.00281357	0.00453222	0.00401761
