SUBJ51_1_JMP_07_upper_limb_body_marker_personalization_task_1_initialErrors.sto
version=1
nRows=221
nColumns=26
inDegrees=no
endheader
time	R_Asis	L_Asis	Sacral	R_Thigh_Lateral	R_Knee_Lateral	R_Shank_Lateral	R_Ankle_Lateral	R_Heel	R_Toe	L_Thigh_Lateral	L_Knee_Lateral	L_Shank_Lateral	L_Ankle_Lateral	L_Heel	L_Toe	R_Shoulder	L_Shoulder	C7	J_Notch	Thoracic	Sternum	R_Elbow	L_Elbow	R_Wrist	L_Wrist
0.00000000	0.00701660	0.00424465	0.00553727	0.01072416	0.00445916	0.00618403	0.00446870	0.00117143	0.00029567	0.00828326	0.00573504	0.00242419	0.00080497	0.00338014	0.00136303	0.01471989	0.00491851	0.00438296	0.00753078	0.00217933	0.01264379	0.00754906	0.00159779	0.01477374	0.00297331
0.01000000	0.00666781	0.00413663	0.00546387	0.01079480	0.00456438	0.00620261	0.00466294	0.00109459	0.00038493	0.00935094	0.00581864	0.00254162	0.00151511	0.00441134	0.00164043	0.01504232	0.00496376	0.00444119	0.00780660	0.00166283	0.01221511	0.00769902	0.00155865	0.01496987	0.00304403
0.02000000	0.00677973	0.00447415	0.00590190	0.01086189	0.00475088	0.00646131	0.00477810	0.00092757	0.00034248	0.01053121	0.00581584	0.00306722	0.00243423	0.00569574	0.00174735	0.01469443	0.00493328	0.00458482	0.00812680	0.00142426	0.01255921	0.00796685	0.00146312	0.01516238	0.00301551
0.03000000	0.00624942	0.00373545	0.00528305	0.01087456	0.00476459	0.00621841	0.00497253	0.00080873	0.00048074	0.01141547	0.00561232	0.00400808	0.00312514	0.00652510	0.00244554	0.01454054	0.00541626	0.00468614	0.00821187	0.00151894	0.01311584	0.00862626	0.00133788	0.01555740	0.00299669
0.04000000	0.00612156	0.00371713	0.00556264	0.01097575	0.00485822	0.00599515	0.00509059	0.00075781	0.00042748	0.01176210	0.00520725	0.00444837	0.00380275	0.00735001	0.00278722	0.01386660	0.00578109	0.00496288	0.00843323	0.00175679	0.01354017	0.00894671	0.00130928	0.01600450	0.00305716
0.05000000	0.00619623	0.00401247	0.00627615	0.01109072	0.00502452	0.00596774	0.00516511	0.00066120	0.00048258	0.01165645	0.00491998	0.00418219	0.00412364	0.00775474	0.00283828	0.01304586	0.00600508	0.00526457	0.00867799	0.00187748	0.01384612	0.00913979	0.00136430	0.01654067	0.00326132
0.06000000	0.00579026	0.00370372	0.00628826	0.01115411	0.00511419	0.00573405	0.00515153	0.00073606	0.00061706	0.01093825	0.00447171	0.00400548	0.00414541	0.00775196	0.00297236	0.01272247	0.00653382	0.00551417	0.00879933	0.00214887	0.01423879	0.00956821	0.00150156	0.01710815	0.00360048
0.07000000	0.00570808	0.00342591	0.00663501	0.01124292	0.00520678	0.00560291	0.00501305	0.00071735	0.00066995	0.00977155	0.00403146	0.00365927	0.00415373	0.00758094	0.00299688	0.01236631	0.00682612	0.00573898	0.00894862	0.00224553	0.01458985	0.00998356	0.00155770	0.01762170	0.00382327
0.08000000	0.00575280	0.00326943	0.00704818	0.01120455	0.00513826	0.00546234	0.00491777	0.00072121	0.00084511	0.00835293	0.00366372	0.00322535	0.00386040	0.00720500	0.00279633	0.01210725	0.00712130	0.00596719	0.00907994	0.00235586	0.01491568	0.01031679	0.00152898	0.01807333	0.00396851
0.09000000	0.00580810	0.00367537	0.00749059	0.01118267	0.00501504	0.00546944	0.00486901	0.00085794	0.00100377	0.00675853	0.00318672	0.00276485	0.00365504	0.00662488	0.00259135	0.01187577	0.00732046	0.00612908	0.00918678	0.00242233	0.01520307	0.01057805	0.00164862	0.01849837	0.00431412
0.10000000	0.00590053	0.00410257	0.00781025	0.01104386	0.00478439	0.00552650	0.00483371	0.00101547	0.00117356	0.00515100	0.00274560	0.00240197	0.00341024	0.00598987	0.00235946	0.01167051	0.00740985	0.00616300	0.00924289	0.00240169	0.01540186	0.01086504	0.00177202	0.01884824	0.00466757
0.11000000	0.00602312	0.00449367	0.00803607	0.01081633	0.00444664	0.00545269	0.00476253	0.00107789	0.00134371	0.00364515	0.00242386	0.00214727	0.00318904	0.00537248	0.00217326	0.01135881	0.00753917	0.00620052	0.00925670	0.00240353	0.01548020	0.01110057	0.00188143	0.01904339	0.00505376
0.12000000	0.00597628	0.00493452	0.00807788	0.01032150	0.00394421	0.00547195	0.00483702	0.00116835	0.00162569	0.00229647	0.00208725	0.00210102	0.00302288	0.00482649	0.00200422	0.01106874	0.00762300	0.00611632	0.00918357	0.00237561	0.01550162	0.01111194	0.00207996	0.01931796	0.00546736
0.13000000	0.00654987	0.00500030	0.00837446	0.00988218	0.00377622	0.00481818	0.00435826	0.00095148	0.00156637	0.00190162	0.00208702	0.00170738	0.00223867	0.00362576	0.00153343	0.01025758	0.00770491	0.00617249	0.00907016	0.00226488	0.01527843	0.01113061	0.00201577	0.01920397	0.00571336
0.14000000	0.00668192	0.00515666	0.00853987	0.00901302	0.00339040	0.00452061	0.00436455	0.00089585	0.00201017	0.00153844	0.00151210	0.00232257	0.00237690	0.00318763	0.00147808	0.00974902	0.00769580	0.00598009	0.00874431	0.00220099	0.01503596	0.01112305	0.00204826	0.01925702	0.00611355
0.15000000	0.00717279	0.00509011	0.00881097	0.00804365	0.00336345	0.00361243	0.00413445	0.00077724	0.00235709	0.00248435	0.00126668	0.00294482	0.00189939	0.00255240	0.00113997	0.00898688	0.00760672	0.00585223	0.00835736	0.00208966	0.01477880	0.01093470	0.00205208	0.01917649	0.00642365
0.16000000	0.00750331	0.00509158	0.00884900	0.00662810	0.00374213	0.00310636	0.00419252	0.00121823	0.00303395	0.00320576	0.00111374	0.00435778	0.00186525	0.00262411	0.00124062	0.00851096	0.00737752	0.00558571	0.00776203	0.00208795	0.01444996	0.01091257	0.00191185	0.01908773	0.00666290
0.17000000	0.00815786	0.00473629	0.00909996	0.00526287	0.00394083	0.00267222	0.00430818	0.00177880	0.00363224	0.00423592	0.00103412	0.00538622	0.00139301	0.00251867	0.00103438	0.00793268	0.00723008	0.00543416	0.00712655	0.00218766	0.01417531	0.01062320	0.00179749	0.01892795	0.00685665
0.18000000	0.00865908	0.00435870	0.00909173	0.00363100	0.00443320	0.00336414	0.00476715	0.00258836	0.00431071	0.00480170	0.00146830	0.00681262	0.00119423	0.00282484	0.00135149	0.00768926	0.00694579	0.00515710	0.00646618	0.00240680	0.01393637	0.01059821	0.00162780	0.01871896	0.00695587
0.19000000	0.00937040	0.00402044	0.00929391	0.00237324	0.00468118	0.00470992	0.00533412	0.00318781	0.00477814	0.00541355	0.00175539	0.00781622	0.00113318	0.00282794	0.00159159	0.00748653	0.00668685	0.00503408	0.00597699	0.00275979	0.01374478	0.01035155	0.00143584	0.01842898	0.00695599
0.20000000	0.00995698	0.00378904	0.00946071	0.00201610	0.00492000	0.00599792	0.00596537	0.00344323	0.00504219	0.00592204	0.00188043	0.00871358	0.00134478	0.00287516	0.00180658	0.00746434	0.00644123	0.00486995	0.00556523	0.00320187	0.01358468	0.01021572	0.00130710	0.01810451	0.00689804
0.21000000	0.01044275	0.00380566	0.00929731	0.00303345	0.00502565	0.00691854	0.00644588	0.00334719	0.00508067	0.00651480	0.00194738	0.00940454	0.00170411	0.00271822	0.00211308	0.00759514	0.00620720	0.00471470	0.00532640	0.00374098	0.01354217	0.01012114	0.00133460	0.01779141	0.00681472
0.22000000	0.01097633	0.00377908	0.00956864	0.00419108	0.00458108	0.00741226	0.00676445	0.00278655	0.00484053	0.00680471	0.00191059	0.00983710	0.00191108	0.00270519	0.00236788	0.00771367	0.00602777	0.00459041	0.00517440	0.00424149	0.01348108	0.00999490	0.00144995	0.01743577	0.00678026
0.23000000	0.01133427	0.00393946	0.00984973	0.00512012	0.00386448	0.00734207	0.00699307	0.00228929	0.00424078	0.00703579	0.00185590	0.00981114	0.00208032	0.00255987	0.00249313	0.00779180	0.00584517	0.00450894	0.00513738	0.00467069	0.01350552	0.00972846	0.00152870	0.01719037	0.00668442
0.24000000	0.01162133	0.00411839	0.01040674	0.00568533	0.00294631	0.00689533	0.00680401	0.00227504	0.00362767	0.00692056	0.00154972	0.00949594	0.00220734	0.00255518	0.00241790	0.00791893	0.00587077	0.00450418	0.00495885	0.00510526	0.01320382	0.00953693	0.00169135	0.01672401	0.00667166
0.25000000	0.01095260	0.00434020	0.01046342	0.00645467	0.00255049	0.00596372	0.00645084	0.00416211	0.00351791	0.00683833	0.00188534	0.00871060	0.00214771	0.00279904	0.00156738	0.00823907	0.00582652	0.00443529	0.00492543	0.00550750	0.01321447	0.00986994	0.00181494	0.01634946	0.00660238
0.26000000	0.01134205	0.00468285	0.01140727	0.00641672	0.00138783	0.00536169	0.00598677	0.00342532	0.00237138	0.00616681	0.00157938	0.00779006	0.00220732	0.00250328	0.00185756	0.00765862	0.00587887	0.00448050	0.00474630	0.00543861	0.01277349	0.00864829	0.00160521	0.01578934	0.00654436
0.27000000	0.01080399	0.00521251	0.01138413	0.00684221	0.00135288	0.00509710	0.00526664	0.00401407	0.00214049	0.00580158	0.00136536	0.00672089	0.00237144	0.00225505	0.00190128	0.00745833	0.00583456	0.00439268	0.00460493	0.00539933	0.01243988	0.00812397	0.00165421	0.01511901	0.00645446
0.28000000	0.01017233	0.00550730	0.01145241	0.00710715	0.00170738	0.00506191	0.00465863	0.00390266	0.00194708	0.00540147	0.00146009	0.00570859	0.00235130	0.00228332	0.00171599	0.00710726	0.00585162	0.00423768	0.00433560	0.00523499	0.01197630	0.00735277	0.00172537	0.01427287	0.00636279
0.29000000	0.00928699	0.00588013	0.01106367	0.00722353	0.00219514	0.00541789	0.00407751	0.00369658	0.00207213	0.00530003	0.00129103	0.00479028	0.00247432	0.00214024	0.00171102	0.00683114	0.00573222	0.00400957	0.00410313	0.00499659	0.01146635	0.00688613	0.00177046	0.01314337	0.00621200
0.30000000	0.00842718	0.00615705	0.01062483	0.00713473	0.00273847	0.00544281	0.00353857	0.00318946	0.00222112	0.00528006	0.00123883	0.00408614	0.00249635	0.00217140	0.00166509	0.00643136	0.00559878	0.00372526	0.00379207	0.00465137	0.01087969	0.00625627	0.00179401	0.01192077	0.00604370
0.31000000	0.00766759	0.00631509	0.01005588	0.00699345	0.00321896	0.00500298	0.00306504	0.00251341	0.00225547	0.00532839	0.00120835	0.00368360	0.00246751	0.00221307	0.00166842	0.00604187	0.00547790	0.00344244	0.00343038	0.00432150	0.01022482	0.00545918	0.00180482	0.01059173	0.00582207
0.32000000	0.00702327	0.00630979	0.00935323	0.00698449	0.00356242	0.00427842	0.00274482	0.00188509	0.00245511	0.00545570	0.00126654	0.00357768	0.00235836	0.00230179	0.00161057	0.00559566	0.00527317	0.00314685	0.00311627	0.00398107	0.00960036	0.00480161	0.00171366	0.00922729	0.00548911
0.33000000	0.00647353	0.00611743	0.00856925	0.00730148	0.00366427	0.00409494	0.00237124	0.00137040	0.00270514	0.00558474	0.00125680	0.00363795	0.00224267	0.00238798	0.00163484	0.00520584	0.00505634	0.00282249	0.00278089	0.00367123	0.00900539	0.00388524	0.00165828	0.00793911	0.00507277
0.34000000	0.00620812	0.00580625	0.00770360	0.00786274	0.00366735	0.00475715	0.00223158	0.00125936	0.00326500	0.00578757	0.00139631	0.00379204	0.00205492	0.00248486	0.00155039	0.00479029	0.00475671	0.00250222	0.00247820	0.00341434	0.00840306	0.00334451	0.00154840	0.00660404	0.00452475
0.35000000	0.00614263	0.00540420	0.00670468	0.00863492	0.00363501	0.00603142	0.00228745	0.00137112	0.00400074	0.00602961	0.00180051	0.00393749	0.00175208	0.00260096	0.00135163	0.00434910	0.00437036	0.00219021	0.00226714	0.00319795	0.00789806	0.00333693	0.00142905	0.00524826	0.00383431
0.36000000	0.00623033	0.00480649	0.00561893	0.00958941	0.00345838	0.00742102	0.00235089	0.00172325	0.00471729	0.00633127	0.00204848	0.00398226	0.00156758	0.00264592	0.00130394	0.00400772	0.00406419	0.00177907	0.00196720	0.00303684	0.00739317	0.00332942	0.00151849	0.00401345	0.00311149
0.37000000	0.00648178	0.00440656	0.00489318	0.01056439	0.00332971	0.00863230	0.00252308	0.00210150	0.00528695	0.00646564	0.00199242	0.00389464	0.00142207	0.00264747	0.00128528	0.00366855	0.00361214	0.00150743	0.00166891	0.00291086	0.00671236	0.00303377	0.00155958	0.00284049	0.00221083
0.38000000	0.00662550	0.00418442	0.00424102	0.01136958	0.00309015	0.00947045	0.00259686	0.00273127	0.00573806	0.00649629	0.00153399	0.00372132	0.00135217	0.00271258	0.00146260	0.00335249	0.00304768	0.00115902	0.00148737	0.00270463	0.00617583	0.00231154	0.00118538	0.00195370	0.00127783
0.39000000	0.00664254	0.00382508	0.00346827	0.01239773	0.00296844	0.00998306	0.00264860	0.00327573	0.00602688	0.00667529	0.00157479	0.00330772	0.00124565	0.00273709	0.00142418	0.00291988	0.00256137	0.00085932	0.00146713	0.00248795	0.00574815	0.00235781	0.00094228	0.00096240	0.00044802
0.40000000	0.00679523	0.00342443	0.00272884	0.01338554	0.00275054	0.01041889	0.00262845	0.00377999	0.00586767	0.00700324	0.00211546	0.00314860	0.00118922	0.00284122	0.00130084	0.00244784	0.00231090	0.00065401	0.00145411	0.00226882	0.00518500	0.00248884	0.00123224	0.00061160	0.00080846
0.41000000	0.00689859	0.00333018	0.00220654	0.01388318	0.00251782	0.01075338	0.00264648	0.00442028	0.00598245	0.00710558	0.00181505	0.00287596	0.00110232	0.00290856	0.00141514	0.00210242	0.00193759	0.00053896	0.00170926	0.00204230	0.00493977	0.00237018	0.00091140	0.00096622	0.00146306
0.42000000	0.00674627	0.00298651	0.00167282	0.01497379	0.00210517	0.01104833	0.00259638	0.00471084	0.00550270	0.00750803	0.00225655	0.00293967	0.00113253	0.00294479	0.00136127	0.00169312	0.00199152	0.00072409	0.00193695	0.00184014	0.00460551	0.00233971	0.00097741	0.00209326	0.00249541
0.43000000	0.00698526	0.00306403	0.00168917	0.01558350	0.00181432	0.01125842	0.00255557	0.00496326	0.00529971	0.00763422	0.00214688	0.00276912	0.00096416	0.00295008	0.00136476	0.00128832	0.00222401	0.00100622	0.00232582	0.00157830	0.00462951	0.00220500	0.00142205	0.00275291	0.00303524
0.44000000	0.00665451	0.00292319	0.00166930	0.01665628	0.00134401	0.01151450	0.00246097	0.00502273	0.00473430	0.00805664	0.00268033	0.00302182	0.00088163	0.00295158	0.00129314	0.00124168	0.00254680	0.00128932	0.00266230	0.00154215	0.00458782	0.00199537	0.00133021	0.00392119	0.00391025
0.45000000	0.00688166	0.00316682	0.00219332	0.01689251	0.00132267	0.01185487	0.00243479	0.00498653	0.00454331	0.00823447	0.00254292	0.00294144	0.00078964	0.00278847	0.00131495	0.00130168	0.00316110	0.00172159	0.00306174	0.00128565	0.00499108	0.00189976	0.00198617	0.00460751	0.00443137
0.46000000	0.00674995	0.00335384	0.00264191	0.01731305	0.00135823	0.01200729	0.00236812	0.00484118	0.00420016	0.00853550	0.00267032	0.00299467	0.00073583	0.00257995	0.00125081	0.00173091	0.00373862	0.00211488	0.00342882	0.00120444	0.00543336	0.00171979	0.00228353	0.00556857	0.00508086
0.47000000	0.00652725	0.00363430	0.00310989	0.01740607	0.00153227	0.01201574	0.00227404	0.00462011	0.00392694	0.00882546	0.00279597	0.00309863	0.00073749	0.00234658	0.00116510	0.00225800	0.00439736	0.00252866	0.00376622	0.00116974	0.00601988	0.00156566	0.00254309	0.00657872	0.00574617
0.48000000	0.00626756	0.00397090	0.00359614	0.01722709	0.00174795	0.01168251	0.00214028	0.00431825	0.00356187	0.00909006	0.00282805	0.00315061	0.00079179	0.00206782	0.00108640	0.00277432	0.00502350	0.00294976	0.00411364	0.00124407	0.00670918	0.00147347	0.00292547	0.00756797	0.00637476
0.49000000	0.00595937	0.00429528	0.00398556	0.01660140	0.00200658	0.01112496	0.00197184	0.00396809	0.00318570	0.00932807	0.00284005	0.00319871	0.00085990	0.00177561	0.00101186	0.00331217	0.00571000	0.00338044	0.00442885	0.00138709	0.00742581	0.00142016	0.00327445	0.00855770	0.00702209
0.50000000	0.00482250	0.00465953	0.00436576	0.01603078	0.00234698	0.01029839	0.00170573	0.00356660	0.00227698	0.00968893	0.00312345	0.00324901	0.00081357	0.00164564	0.00086065	0.00385084	0.00623864	0.00368092	0.00475883	0.00151354	0.00822433	0.00132154	0.00331758	0.00972482	0.00783542
0.51000000	0.00514506	0.00480663	0.00454936	0.01409300	0.00249596	0.00934455	0.00145276	0.00317296	0.00261129	0.00978978	0.00294535	0.00327711	0.00089519	0.00127299	0.00090572	0.00418396	0.00712946	0.00415688	0.00498070	0.00168444	0.00885315	0.00155683	0.00391602	0.01019052	0.00836908
0.52000000	0.00508125	0.00487962	0.00472858	0.01238964	0.00275936	0.00797982	0.00119418	0.00272424	0.00195521	0.00985488	0.00277146	0.00350973	0.00099202	0.00113923	0.00068846	0.00459097	0.00781483	0.00446444	0.00522712	0.00184780	0.00946107	0.00152169	0.00444877	0.01055638	0.00895865
0.53000000	0.00475401	0.00490411	0.00479603	0.01056586	0.00289172	0.00652537	0.00104530	0.00223939	0.00152427	0.00995901	0.00273996	0.00371088	0.00098736	0.00097285	0.00057311	0.00502726	0.00850096	0.00467853	0.00543886	0.00198539	0.01002216	0.00148733	0.00489356	0.01051583	0.00958591
0.54000000	0.00448074	0.00485577	0.00489883	0.00899258	0.00304414	0.00497438	0.00100391	0.00183908	0.00123741	0.01011119	0.00274442	0.00388215	0.00095126	0.00086141	0.00043862	0.00545829	0.00918320	0.00484405	0.00558260	0.00209040	0.01042437	0.00148690	0.00529272	0.00986495	0.01019301
0.55000000	0.00414940	0.00465479	0.00483961	0.00814841	0.00315265	0.00345910	0.00104394	0.00183771	0.00107496	0.01028735	0.00272515	0.00403678	0.00095888	0.00073087	0.00032498	0.00595387	0.00971744	0.00492681	0.00581807	0.00217869	0.01098266	0.00147069	0.00558044	0.00879461	0.01083050
0.56000000	0.00397835	0.00455186	0.00471232	0.00835152	0.00339082	0.00198579	0.00105014	0.00250876	0.00088350	0.01025501	0.00246170	0.00451044	0.00092295	0.00078249	0.00021243	0.00656303	0.01047476	0.00495971	0.00580328	0.00240886	0.01125091	0.00108220	0.00625221	0.00706119	0.01131647
0.57000000	0.00386367	0.00437001	0.00465443	0.00953390	0.00353842	0.00159616	0.00114678	0.00340310	0.00102166	0.01034907	0.00238002	0.00479267	0.00093262	0.00067469	0.00029463	0.00711317	0.01091356	0.00496617	0.00596052	0.00255135	0.01173296	0.00072241	0.00662317	0.00514554	0.01187007
0.58000000	0.00435080	0.00430016	0.00515104	0.01098011	0.00373205	0.00188417	0.00142879	0.00427816	0.00108055	0.01071887	0.00239664	0.00487036	0.00094959	0.00055936	0.00061298	0.00763723	0.01108537	0.00498764	0.00615467	0.00258762	0.01214783	0.00148084	0.00674979	0.00354924	0.01235027
0.59000000	0.00393763	0.00403939	0.00479606	0.01199056	0.00366994	0.00292315	0.00162885	0.00499868	0.00152128	0.01065667	0.00232337	0.00512131	0.00097837	0.00052431	0.00072081	0.00827074	0.01166940	0.00502620	0.00618042	0.00279212	0.01259895	0.00132346	0.00736399	0.00179365	0.01275358
0.60000000	0.00415153	0.00387138	0.00510211	0.01254231	0.00362389	0.00318964	0.00184570	0.00532478	0.00178969	0.01080951	0.00220962	0.00534150	0.00110561	0.00038494	0.00099134	0.00858181	0.01181073	0.00500220	0.00628586	0.00279681	0.01306912	0.00209545	0.00776932	0.00079241	0.01320750
0.61000000	0.00428173	0.00370933	0.00553371	0.01240350	0.00349130	0.00311235	0.00206356	0.00537704	0.00171371	0.01102694	0.00215919	0.00538708	0.00120441	0.00033555	0.00116034	0.00897501	0.01186273	0.00508702	0.00645185	0.00275299	0.01354396	0.00298003	0.00798088	0.00081267	0.01359892
0.62000000	0.00443868	0.00346976	0.00597229	0.01165640	0.00329663	0.00293720	0.00230299	0.00508364	0.00173095	0.01118758	0.00207432	0.00551030	0.00134334	0.00031691	0.00130593	0.00919477	0.01175812	0.00518198	0.00663315	0.00268567	0.01400765	0.00358600	0.00837781	0.00091302	0.01390672
0.63000000	0.00485962	0.00347439	0.00687458	0.01046405	0.00310252	0.00253114	0.00245692	0.00469020	0.00137649	0.01132421	0.00168741	0.00571688	0.00148656	0.00062089	0.00145566	0.00941626	0.01173537	0.00548422	0.00671108	0.00266291	0.01408130	0.00405509	0.00796427	0.00151311	0.01448109
0.64000000	0.00530527	0.00322302	0.00708896	0.00888249	0.00281305	0.00224692	0.00265577	0.00406814	0.00134888	0.01142708	0.00176492	0.00584157	0.00163339	0.00044008	0.00147343	0.00936167	0.01117192	0.00546256	0.00698827	0.00255325	0.01465512	0.00413330	0.00899013	0.00272641	0.01444734
0.65000000	0.00595760	0.00313771	0.00765311	0.00720555	0.00261299	0.00188886	0.00284837	0.00336991	0.00128203	0.01138237	0.00149314	0.00612654	0.00184071	0.00058794	0.00153513	0.00931405	0.01080412	0.00562554	0.00711858	0.00256376	0.01479751	0.00409910	0.00908371	0.00442330	0.01479057
0.66000000	0.00673646	0.00335012	0.00811848	0.00558268	0.00253896	0.00158090	0.00295097	0.00281389	0.00118163	0.01136682	0.00130585	0.00632052	0.00196668	0.00067412	0.00152308	0.00917559	0.01015823	0.00579203	0.00731285	0.00257895	0.01484160	0.00396889	0.00932256	0.00643112	0.01490705
0.67000000	0.00738277	0.00344475	0.00850859	0.00410803	0.00269651	0.00151746	0.00312689	0.00247797	0.00119667	0.01111005	0.00099682	0.00656398	0.00218191	0.00105860	0.00155352	0.00905561	0.00962650	0.00586666	0.00734556	0.00268615	0.01470555	0.00376591	0.00931495	0.00850054	0.01518321
0.68000000	0.00807212	0.00447822	0.00860130	0.00296676	0.00223876	0.00106174	0.00301530	0.00194922	0.00096737	0.01098972	0.00108709	0.00644877	0.00203514	0.00092415	0.00160519	0.00888210	0.00855128	0.00591028	0.00754788	0.00262976	0.01452749	0.00364831	0.00947433	0.01053662	0.01510162
0.69000000	0.00859825	0.00474349	0.00894849	0.00196302	0.00287365	0.00153653	0.00306975	0.00227024	0.00104743	0.01033704	0.00091437	0.00667300	0.00219774	0.00154053	0.00184538	0.00866123	0.00793495	0.00591864	0.00746371	0.00278694	0.01405808	0.00336589	0.00947194	0.01205752	0.01517887
0.70000000	0.00886878	0.00552217	0.00893671	0.00117782	0.00342185	0.00248863	0.00294631	0.00250195	0.00107242	0.00975393	0.00122304	0.00635845	0.00217529	0.00179778	0.00225452	0.00845355	0.00718034	0.00586004	0.00743134	0.00287065	0.01360792	0.00317869	0.00952554	0.01324179	0.01512689
0.71000000	0.00909359	0.00646808	0.00890073	0.00085866	0.00271513	0.00262971	0.00259236	0.00243145	0.00066807	0.00897117	0.00167266	0.00564422	0.00214771	0.00193810	0.00271149	0.00826037	0.00648852	0.00574204	0.00737271	0.00269986	0.01306070	0.00305124	0.00934817	0.01404728	0.01508129
0.72000000	0.00904741	0.00689049	0.00884115	0.00113244	0.00334791	0.00406821	0.00225880	0.00262313	0.00094876	0.00783755	0.00214177	0.00486681	0.00243124	0.00239521	0.00338825	0.00799420	0.00608543	0.00560159	0.00720676	0.00268141	0.01248879	0.00282473	0.00939187	0.01435930	0.01500923
0.73000000	0.00881805	0.00719217	0.00866785	0.00155076	0.00359743	0.00512308	0.00198566	0.00262932	0.00134844	0.00653758	0.00253137	0.00364993	0.00294285	0.00278830	0.00405611	0.00777553	0.00581839	0.00540760	0.00703248	0.00252531	0.01198057	0.00263219	0.00934510	0.01443142	0.01496715
0.74000000	0.00851360	0.00742281	0.00864830	0.00185727	0.00348809	0.00571665	0.00192038	0.00251300	0.00151622	0.00503767	0.00271566	0.00224583	0.00372546	0.00307147	0.00473338	0.00746424	0.00569895	0.00525763	0.00690119	0.00233963	0.01151323	0.00240368	0.00917634	0.01422107	0.01491562
0.75000000	0.00821914	0.00716547	0.00847930	0.00231752	0.00354997	0.00624311	0.00202290	0.00237139	0.00168730	0.00324666	0.00301526	0.00143978	0.00455298	0.00332930	0.00532857	0.00715706	0.00570103	0.00501855	0.00670812	0.00227720	0.01117202	0.00217733	0.00913592	0.01383159	0.01489425
0.76000000	0.00785588	0.00723901	0.00865045	0.00258914	0.00312449	0.00652239	0.00209716	0.00215605	0.00191789	0.00198388	0.00273761	0.00201066	0.00558183	0.00301074	0.00569563	0.00685401	0.00573905	0.00479314	0.00655212	0.00225187	0.01083136	0.00201608	0.00900862	0.01337504	0.01475904
0.77000000	0.00745442	0.00752601	0.00914117	0.00282731	0.00259275	0.00636627	0.00214943	0.00192630	0.00195102	0.00202735	0.00188311	0.00339199	0.00666120	0.00248050	0.00570538	0.00657597	0.00569697	0.00461129	0.00648411	0.00231573	0.01053303	0.00178615	0.00871283	0.01285154	0.01453651
0.78000000	0.00725165	0.00730232	0.00910815	0.00332643	0.00224640	0.00609138	0.00224089	0.00166933	0.00194278	0.00334122	0.00137110	0.00449987	0.00728446	0.00229750	0.00545871	0.00639994	0.00588824	0.00437157	0.00632357	0.00267126	0.01039215	0.00178010	0.00860991	0.01236684	0.01428902
0.79000000	0.00697316	0.00745420	0.00948729	0.00331370	0.00184562	0.00562555	0.00216049	0.00155082	0.00183497	0.00431769	0.00074424	0.00521999	0.00789735	0.00228559	0.00504391	0.00627887	0.00589688	0.00418723	0.00618468	0.00296225	0.01012272	0.00174831	0.00822753	0.01190916	0.01390517
0.80000000	0.00720116	0.00718365	0.00959365	0.00352671	0.00141300	0.00489283	0.00236904	0.00157214	0.00184081	0.00541724	0.00077136	0.00546837	0.00795358	0.00274115	0.00447359	0.00613396	0.00593734	0.00400825	0.00601697	0.00323638	0.00988341	0.00181549	0.00792631	0.01146342	0.01341001
0.81000000	0.00748261	0.00701859	0.00977973	0.00355204	0.00114277	0.00412029	0.00248373	0.00162342	0.00183440	0.00606570	0.00142960	0.00538580	0.00770103	0.00304539	0.00399613	0.00606775	0.00584001	0.00385890	0.00579863	0.00339918	0.00950212	0.00199432	0.00746079	0.01111514	0.01276127
0.82000000	0.00755550	0.00693334	0.00989427	0.00342985	0.00142862	0.00358523	0.00221164	0.00157724	0.00176388	0.00617963	0.00265967	0.00522675	0.00718523	0.00307790	0.00346121	0.00612931	0.00562446	0.00375641	0.00559507	0.00348929	0.00912003	0.00226388	0.00673929	0.01090943	0.01198276
0.83000000	0.00828429	0.00629783	0.00985069	0.00373574	0.00161721	0.00267907	0.00238806	0.00158267	0.00187265	0.00645576	0.00297521	0.00491618	0.00642630	0.00334885	0.00321596	0.00605606	0.00538256	0.00365226	0.00532120	0.00346521	0.00862884	0.00241577	0.00639731	0.01058876	0.01106853
0.84000000	0.00841633	0.00626068	0.00948189	0.00391031	0.00200750	0.00254648	0.00228621	0.00171250	0.00181819	0.00630693	0.00404535	0.00480533	0.00553328	0.00254837	0.00278517	0.00622395	0.00511349	0.00352387	0.00497846	0.00338359	0.00811936	0.00279869	0.00531130	0.01055003	0.01017895
0.85000000	0.00884653	0.00561571	0.00901461	0.00435051	0.00222571	0.00218378	0.00248479	0.00182542	0.00182849	0.00646189	0.00444479	0.00460105	0.00482224	0.00229094	0.00271524	0.00625455	0.00484107	0.00339964	0.00460403	0.00326635	0.00758752	0.00298649	0.00496959	0.01035007	0.00908257
0.86000000	0.00911131	0.00507754	0.00847122	0.00468551	0.00237899	0.00214856	0.00256731	0.00192148	0.00186292	0.00663028	0.00496876	0.00465568	0.00415884	0.00193827	0.00262021	0.00628569	0.00458766	0.00325790	0.00417355	0.00309914	0.00700432	0.00315415	0.00440232	0.01012484	0.00805159
0.87000000	0.00931148	0.00445245	0.00791344	0.00495668	0.00269299	0.00230591	0.00246662	0.00188661	0.00188575	0.00697942	0.00537149	0.00495278	0.00370959	0.00189464	0.00270286	0.00618180	0.00428105	0.00313808	0.00380654	0.00288844	0.00645744	0.00312724	0.00419554	0.00972297	0.00697207
0.88000000	0.00902301	0.00406270	0.00714857	0.00524951	0.00263850	0.00255956	0.00250809	0.00204096	0.00180652	0.00760544	0.00568132	0.00558188	0.00339705	0.00182348	0.00281589	0.00613807	0.00404272	0.00292502	0.00335205	0.00267315	0.00592370	0.00317380	0.00362299	0.00935554	0.00597663
0.89000000	0.00865401	0.00362960	0.00647529	0.00543604	0.00266337	0.00284758	0.00239390	0.00202133	0.00179062	0.00831669	0.00587796	0.00662820	0.00314911	0.00199044	0.00290938	0.00591803	0.00377062	0.00270332	0.00294537	0.00241682	0.00537661	0.00305742	0.00320812	0.00877038	0.00504003
0.90000000	0.00824276	0.00300681	0.00598315	0.00551668	0.00243360	0.00304250	0.00226926	0.00200106	0.00180863	0.00910346	0.00579651	0.00769518	0.00294132	0.00221889	0.00313410	0.00559045	0.00351353	0.00242584	0.00254692	0.00211398	0.00483996	0.00288692	0.00199172	0.00803606	0.00437284
0.91000000	0.00747194	0.00268851	0.00523864	0.00569889	0.00229430	0.00310193	0.00211705	0.00200641	0.00175738	0.00983713	0.00580422	0.00874700	0.00271614	0.00243294	0.00310737	0.00521713	0.00322156	0.00208013	0.00219016	0.00183724	0.00436147	0.00274279	0.00180427	0.00724346	0.00351889
0.92000000	0.00652346	0.00254137	0.00441097	0.00587539	0.00244021	0.00320885	0.00186995	0.00199379	0.00151220	0.01073877	0.00574115	0.00947052	0.00249885	0.00241496	0.00261074	0.00481042	0.00288636	0.00166205	0.00193309	0.00156255	0.00396534	0.00261160	0.00202417	0.00641489	0.00260847
0.93000000	0.00599854	0.00232699	0.00419987	0.00593430	0.00183553	0.00303042	0.00180094	0.00193440	0.00166762	0.01103986	0.00556606	0.01010844	0.00242265	0.00282790	0.00289098	0.00415127	0.00270070	0.00143207	0.00170752	0.00136287	0.00345642	0.00227058	0.00119811	0.00526491	0.00202991
0.94000000	0.00525163	0.00246721	0.00381918	0.00607563	0.00156994	0.00295769	0.00168388	0.00190337	0.00155949	0.01159503	0.00540313	0.01049076	0.00225093	0.00299582	0.00262462	0.00352246	0.00236546	0.00105959	0.00163929	0.00108833	0.00307898	0.00208425	0.00092001	0.00419304	0.00135160
0.95000000	0.00432550	0.00236089	0.00304282	0.00638513	0.00166246	0.00298059	0.00163345	0.00192883	0.00131838	0.01236464	0.00526807	0.01072766	0.00193885	0.00306454	0.00218960	0.00301559	0.00215328	0.00068888	0.00174405	0.00089590	0.00270314	0.00208981	0.00108576	0.00311831	0.00070970
0.96000000	0.00386889	0.00264048	0.00310110	0.00658192	0.00137677	0.00297533	0.00153898	0.00188476	0.00140254	0.01263583	0.00514434	0.01088985	0.00196477	0.00321256	0.00238857	0.00236930	0.00191847	0.00061358	0.00179137	0.00073366	0.00235470	0.00188667	0.00068420	0.00197447	0.00032586
0.97000000	0.00339130	0.00286044	0.00301183	0.00685365	0.00125509	0.00310868	0.00148704	0.00187494	0.00125588	0.01317669	0.00492523	0.01093230	0.00186874	0.00328909	0.00227368	0.00183213	0.00179813	0.00073201	0.00202208	0.00058120	0.00210962	0.00186599	0.00058103	0.00090815	0.00075362
0.98000000	0.00306411	0.00298433	0.00303997	0.00717135	0.00126886	0.00327140	0.00145914	0.00190465	0.00104564	0.01368563	0.00473463	0.01098764	0.00176343	0.00342046	0.00234904	0.00136989	0.00183178	0.00109585	0.00226915	0.00039719	0.00201700	0.00192309	0.00069132	0.00029234	0.00136803
0.99000000	0.00267668	0.00236425	0.00263743	0.00765140	0.00153610	0.00355215	0.00157643	0.00190194	0.00087555	0.01442093	0.00458272	0.01109641	0.00167688	0.00366230	0.00261845	0.00114738	0.00212211	0.00149898	0.00264977	0.00029835	0.00224968	0.00205856	0.00108392	0.00123777	0.00215172
1.00000000	0.00301387	0.00284183	0.00346229	0.00782534	0.00143531	0.00378681	0.00152283	0.00197800	0.00097529	0.01474352	0.00423436	0.01129687	0.00198389	0.00374260	0.00280770	0.00103036	0.00231897	0.00191071	0.00288000	0.00026901	0.00263743	0.00218419	0.00115076	0.00227685	0.00255946
1.01000000	0.00315460	0.00266673	0.00363896	0.00817364	0.00145095	0.00399463	0.00155298	0.00200583	0.00099924	0.01535548	0.00382670	0.01157230	0.00217078	0.00402221	0.00311752	0.00127431	0.00278464	0.00233594	0.00320951	0.00030861	0.00331961	0.00237148	0.00143726	0.00326411	0.00314658
1.02000000	0.00337346	0.00295754	0.00407374	0.00839122	0.00153046	0.00427206	0.00158850	0.00207906	0.00088954	0.01595796	0.00321316	0.01187779	0.00242270	0.00422873	0.00326954	0.00172603	0.00327736	0.00275945	0.00347720	0.00047018	0.00407698	0.00264948	0.00161194	0.00422624	0.00359963
1.03000000	0.00366424	0.00178779	0.00409916	0.00873601	0.00204607	0.00452370	0.00152957	0.00210249	0.00122945	0.01716972	0.00258097	0.01208315	0.00254208	0.00449450	0.00351529	0.00210519	0.00374505	0.00324153	0.00386886	0.00069525	0.00505826	0.00260321	0.00181024	0.00530453	0.00414404
1.04000000	0.00408105	0.00308678	0.00467689	0.00877139	0.00159591	0.00465249	0.00159843	0.00217397	0.00103818	0.01710184	0.00203472	0.01248842	0.00269434	0.00465682	0.00376530	0.00281086	0.00425362	0.00360435	0.00402415	0.00100536	0.00590060	0.00317280	0.00183434	0.00618901	0.00435018
1.05000000	0.00420434	0.00339437	0.00489948	0.00893611	0.00162910	0.00482831	0.00158941	0.00215856	0.00103196	0.01732657	0.00139237	0.01269196	0.00277622	0.00475215	0.00385188	0.00343211	0.00473821	0.00401881	0.00427749	0.00128542	0.00680346	0.00347125	0.00185156	0.00713190	0.00460422
1.06000000	0.00455063	0.00198970	0.00505952	0.00920970	0.00195224	0.00491254	0.00132624	0.00219242	0.00152058	0.01790682	0.00145006	0.01266995	0.00251514	0.00490185	0.00315377	0.00431955	0.00532919	0.00451202	0.00445776	0.00170435	0.00767732	0.00340993	0.00189875	0.00829699	0.00489943
1.07000000	0.00449227	0.00363451	0.00519552	0.00918204	0.00159416	0.00497329	0.00151619	0.00215881	0.00090945	0.01681265	0.00146914	0.01236133	0.00255845	0.00449242	0.00358383	0.00481774	0.00551455	0.00476506	0.00476053	0.00192320	0.00861327	0.00423962	0.00179102	0.00897523	0.00499305
1.08000000	0.00442721	0.00358788	0.00514485	0.00931381	0.00155802	0.00501465	0.00149703	0.00210226	0.00084354	0.01579213	0.00213174	0.01176852	0.00233935	0.00429805	0.00333024	0.00549612	0.00596824	0.00505459	0.00501149	0.00212240	0.00944428	0.00458442	0.00178245	0.00983376	0.00519227
1.09000000	0.00442744	0.00328923	0.00513232	0.00949896	0.00156944	0.00495827	0.00152695	0.00209464	0.00076387	0.01438777	0.00276326	0.01077670	0.00206375	0.00403344	0.00290396	0.00621269	0.00633840	0.00538124	0.00527108	0.00236107	0.01018275	0.00501584	0.00174629	0.01060744	0.00532405
1.10000000	0.00444973	0.00302761	0.00513590	0.00965043	0.00148403	0.00490484	0.00150615	0.00202993	0.00069218	0.01260395	0.00334605	0.00928176	0.00174061	0.00379821	0.00242044	0.00688556	0.00654288	0.00560838	0.00554970	0.00261268	0.01097777	0.00541874	0.00172218	0.01141799	0.00548542
1.11000000	0.00443312	0.00260826	0.00509953	0.00985555	0.00144140	0.00480929	0.00153097	0.00196022	0.00062797	0.01074154	0.00385321	0.00739455	0.00148461	0.00377584	0.00196202	0.00755334	0.00679264	0.00585342	0.00583935	0.00283396	0.01168475	0.00588478	0.00171487	0.01210501	0.00564268
1.12000000	0.00452608	0.00233083	0.00505686	0.01027182	0.00142885	0.00474406	0.00157752	0.00183950	0.00073067	0.00938546	0.00413288	0.00542189	0.00146082	0.00418244	0.00127134	0.00792783	0.00697593	0.00608312	0.00621650	0.00293085	0.01238685	0.00599069	0.00187098	0.01278648	0.00594645
1.13000000	0.00456727	0.00219370	0.00518349	0.01031080	0.00130145	0.00450476	0.00164465	0.00184041	0.00067318	0.00847534	0.00447978	0.00314339	0.00156376	0.00431250	0.00178033	0.00870272	0.00715837	0.00622821	0.00637594	0.00323762	0.01295869	0.00673458	0.00178465	0.01339965	0.00596545
1.14000000	0.00460715	0.00222998	0.00529068	0.01051958	0.00117616	0.00427026	0.00170085	0.00180351	0.00061557	0.00870528	0.00460571	0.00177134	0.00204173	0.00517564	0.00175578	0.00915602	0.00735852	0.00638233	0.00661771	0.00337970	0.01351973	0.00716722	0.00178881	0.01395522	0.00609452
1.15000000	0.00483063	0.00320526	0.00554660	0.01087804	0.00117043	0.00403662	0.00170627	0.00170346	0.00071999	0.00950657	0.00459822	0.00192799	0.00256233	0.00602458	0.00180029	0.00936027	0.00747015	0.00658573	0.00692934	0.00342993	0.01404956	0.00728864	0.00195253	0.01449492	0.00636023
1.16000000	0.00471219	0.00290600	0.00557598	0.01088653	0.00111222	0.00364524	0.00178351	0.00172452	0.00079860	0.00999547	0.00427876	0.00319243	0.00310455	0.00674155	0.00255866	0.00987675	0.00776083	0.00666280	0.00704586	0.00356946	0.01454980	0.00784033	0.00186609	0.01502413	0.00644712
1.17000000	0.00480449	0.00370341	0.00592311	0.01107127	0.00107766	0.00325869	0.00176809	0.00177445	0.00085076	0.01019916	0.00409097	0.00350795	0.00341717	0.00713668	0.00257742	0.00998310	0.00785531	0.00677401	0.00729994	0.00354933	0.01504339	0.00806736	0.00195986	0.01553526	0.00673564
1.18000000	0.00472711	0.00393070	0.00615872	0.01117305	0.00107508	0.00285418	0.00179718	0.00181207	0.00095640	0.00977808	0.00387069	0.00346358	0.00353019	0.00717902	0.00275141	0.01012348	0.00800855	0.00680886	0.00745617	0.00353457	0.01547319	0.00857797	0.00213252	0.01595408	0.00705157
1.19000000	0.00479832	0.00320966	0.00652037	0.01109857	0.00099990	0.00245298	0.00173063	0.00181933	0.00105752	0.00874555	0.00352464	0.00320077	0.00376539	0.00721349	0.00278531	0.01025127	0.00825760	0.00685361	0.00750585	0.00356510	0.01571024	0.00892104	0.00209374	0.01644129	0.00724441
1.20000000	0.00503035	0.00389308	0.00724313	0.01109710	0.00092599	0.00212135	0.00184527	0.00209210	0.00130680	0.00744604	0.00320463	0.00254974	0.00356426	0.00677924	0.00243216	0.01012181	0.00834499	0.00703278	0.00768019	0.00359301	0.01587237	0.00865047	0.00224704	0.01707605	0.00751080
1.21000000	0.00506101	0.00366645	0.00712185	0.01108332	0.00111541	0.00187560	0.00182515	0.00187595	0.00134675	0.00597811	0.00285443	0.00208609	0.00349391	0.00614253	0.00216938	0.00985018	0.00853662	0.00686131	0.00772298	0.00354298	0.01616934	0.00967681	0.00242749	0.01719210	0.00791969
1.22000000	0.00529583	0.00386563	0.00764100	0.01086511	0.00110609	0.00172086	0.00210381	0.00213498	0.00137079	0.00450049	0.00248430	0.00164929	0.00341921	0.00528638	0.00210654	0.00945614	0.00862211	0.00688527	0.00778842	0.00363527	0.01620266	0.00990779	0.00251761	0.01753467	0.00817285
1.23000000	0.00546596	0.00412867	0.00798267	0.01050373	0.00131363	0.00162945	0.00239741	0.00236966	0.00153134	0.00320155	0.00208210	0.00140935	0.00321388	0.00450319	0.00183695	0.00899061	0.00875729	0.00682044	0.00776033	0.00376828	0.01613144	0.01001707	0.00272340	0.01788080	0.00850523
1.24000000	0.00581430	0.00433746	0.00830169	0.01003953	0.00165472	0.00162724	0.00265929	0.00247391	0.00174772	0.00202568	0.00182610	0.00142700	0.00306798	0.00380964	0.00166343	0.00831289	0.00888856	0.00671619	0.00767803	0.00390609	0.01592882	0.01023495	0.00294160	0.01802271	0.00883837
1.25000000	0.00641907	0.00431742	0.00857723	0.00942759	0.00205066	0.00138677	0.00278704	0.00229679	0.00205208	0.00132713	0.00171188	0.00158077	0.00201327	0.00227499	0.00092797	0.00737388	0.00906893	0.00654715	0.00758194	0.00385345	0.01558191	0.01027752	0.00283228	0.01801273	0.00903820
1.26000000	0.00658126	0.00451830	0.00890468	0.00853654	0.00257140	0.00175041	0.00322805	0.00272133	0.00244966	0.00111025	0.00123360	0.00264816	0.00179033	0.00207310	0.00111897	0.00678697	0.00911120	0.00637788	0.00731089	0.00407486	0.01519049	0.01034733	0.00298167	0.01807013	0.00930787
1.27000000	0.00727499	0.00451498	0.00905927	0.00774946	0.00283127	0.00210235	0.00345528	0.00266376	0.00296508	0.00222371	0.00107417	0.00382579	0.00105288	0.00171248	0.00091566	0.00600286	0.00908775	0.00617176	0.00711737	0.00406907	0.01483768	0.01030586	0.00304906	0.01795958	0.00955208
1.28000000	0.00751022	0.00454748	0.00915614	0.00659399	0.00335130	0.00285114	0.00388162	0.00312622	0.00363882	0.00294349	0.00162729	0.00557669	0.00066040	0.00195288	0.00144561	0.00566073	0.00896840	0.00599541	0.00675265	0.00425047	0.01443466	0.01028006	0.00307502	0.01795505	0.00964608
1.29000000	0.00806310	0.00446575	0.00912286	0.00563685	0.00337239	0.00388258	0.00437381	0.00330713	0.00416247	0.00361349	0.00190780	0.00688079	0.00051569	0.00204257	0.00171922	0.00536623	0.00880944	0.00585722	0.00654016	0.00422703	0.01417712	0.01019873	0.00302477	0.01778183	0.00972486
1.30000000	0.00830205	0.00451081	0.00900746	0.00452056	0.00367089	0.00467265	0.00496300	0.00377580	0.00475983	0.00405494	0.00231297	0.00830333	0.00108417	0.00214945	0.00222133	0.00540989	0.00850792	0.00578608	0.00626860	0.00435030	0.01391793	0.01012390	0.00286835	0.01768965	0.00954736
1.31000000	0.00880057	0.00460038	0.00897962	0.00383191	0.00328114	0.00565207	0.00559665	0.00372501	0.00501690	0.00449507	0.00247523	0.00919864	0.00176249	0.00205093	0.00256173	0.00549600	0.00832633	0.00563159	0.00608688	0.00425646	0.01376598	0.00991905	0.00276286	0.01748069	0.00943791
1.32000000	0.00905906	0.00489573	0.00886238	0.00360178	0.00331313	0.00602044	0.00601951	0.00374077	0.00519999	0.00499488	0.00249039	0.01009805	0.00223160	0.00196533	0.00281807	0.00580526	0.00798788	0.00553360	0.00592776	0.00435120	0.01369977	0.00968699	0.00260352	0.01734123	0.00911913
1.33000000	0.00948360	0.00526370	0.00911216	0.00344568	0.00259945	0.00638719	0.00643929	0.00312848	0.00494149	0.00533315	0.00242411	0.01058621	0.00258790	0.00192919	0.00282430	0.00601726	0.00783177	0.00536320	0.00584120	0.00433986	0.01369515	0.00937385	0.00251322	0.01699034	0.00890336
1.34000000	0.00970352	0.00577952	0.00926191	0.00386566	0.00246875	0.00600969	0.00656166	0.00288448	0.00453485	0.00568204	0.00231778	0.01076031	0.00272423	0.00186733	0.00292862	0.00636662	0.00763509	0.00524036	0.00571253	0.00452682	0.01368214	0.00912046	0.00242939	0.01661075	0.00860214
1.35000000	0.00994707	0.00630519	0.00972869	0.00388231	0.00218068	0.00555528	0.00652496	0.00261683	0.00388926	0.00571476	0.00231862	0.01052063	0.00267190	0.00171901	0.00272164	0.00650972	0.00758350	0.00511328	0.00562792	0.00464867	0.01366014	0.00863493	0.00245613	0.01604399	0.00839476
1.36000000	0.00989283	0.00675651	0.00994032	0.00430940	0.00235650	0.00486524	0.00613459	0.00332864	0.00324961	0.00566067	0.00209282	0.00982307	0.00266630	0.00161363	0.00267033	0.00667685	0.00757323	0.00503130	0.00546992	0.00485844	0.01355087	0.00821999	0.00251641	0.01536304	0.00818533
1.37000000	0.00982227	0.00708812	0.01046681	0.00440466	0.00257769	0.00430469	0.00572029	0.00373696	0.00251883	0.00522108	0.00227376	0.00881178	0.00245248	0.00152797	0.00236454	0.00652386	0.00761491	0.00489044	0.00529909	0.00485798	0.01337040	0.00747759	0.00269607	0.01451211	0.00808965
1.38000000	0.00951047	0.00728097	0.01077134	0.00472317	0.00278892	0.00426014	0.00513932	0.00417727	0.00195944	0.00484678	0.00229395	0.00758974	0.00231508	0.00149468	0.00224952	0.00631698	0.00765351	0.00478068	0.00504078	0.00483098	0.01302278	0.00674089	0.00286636	0.01351382	0.00798359
1.39000000	0.00894813	0.00737319	0.01079081	0.00501669	0.00284340	0.00489229	0.00453158	0.00449937	0.00163504	0.00469573	0.00209256	0.00629342	0.00239328	0.00162540	0.00218186	0.00611913	0.00766459	0.00473743	0.00469930	0.00483912	0.01250364	0.00618448	0.00298180	0.01234843	0.00781388
1.40000000	0.00843152	0.00735589	0.01102539	0.00507015	0.00314983	0.00516981	0.00395660	0.00412901	0.00139478	0.00453310	0.00234876	0.00530363	0.00211928	0.00148055	0.00208567	0.00559595	0.00768452	0.00453115	0.00433309	0.00453782	0.01191298	0.00510920	0.00316494	0.01112180	0.00774790
1.41000000	0.00753482	0.00731026	0.01075995	0.00517556	0.00320372	0.00530888	0.00358557	0.00393764	0.00174112	0.00466738	0.00232248	0.00452840	0.00214582	0.00154122	0.00198925	0.00527313	0.00762229	0.00443587	0.00391517	0.00442160	0.01125012	0.00480556	0.00319806	0.00967518	0.00752091
1.42000000	0.00652915	0.00737331	0.01048787	0.00531638	0.00340656	0.00491138	0.00329274	0.00344757	0.00235974	0.00469451	0.00256925	0.00413807	0.00202674	0.00144047	0.00191004	0.00491061	0.00749279	0.00429597	0.00355420	0.00419477	0.01050513	0.00458339	0.00314117	0.00825852	0.00716115
1.43000000	0.00588225	0.00698894	0.01010404	0.00564943	0.00357732	0.00426529	0.00296826	0.00269855	0.00224474	0.00476267	0.00244055	0.00403736	0.00215282	0.00155718	0.00198020	0.00439865	0.00744388	0.00397649	0.00303527	0.00381985	0.00987150	0.00298884	0.00325975	0.00696714	0.00692310
1.44000000	0.00509431	0.00678947	0.00940746	0.00624651	0.00367633	0.00374388	0.00284540	0.00242403	0.00288897	0.00485588	0.00283066	0.00438388	0.00199154	0.00150361	0.00165872	0.00417140	0.00726304	0.00382509	0.00266414	0.00365652	0.00920801	0.00317390	0.00313234	0.00542039	0.00635007
1.45000000	0.00457545	0.00646388	0.00858652	0.00722926	0.00363208	0.00427248	0.00270065	0.00222387	0.00355276	0.00497185	0.00297575	0.00489331	0.00195565	0.00154384	0.00151055	0.00394115	0.00710930	0.00358487	0.00224656	0.00343264	0.00859928	0.00298484	0.00308996	0.00405340	0.00570470
1.46000000	0.00370523	0.00599141	0.00833229	0.00860659	0.00328662	0.00566492	0.00232937	0.00219295	0.00410743	0.00508355	0.00285603	0.00524685	0.00207672	0.00161075	0.00163559	0.00365432	0.00681648	0.00326205	0.00174778	0.00308477	0.00796181	0.00125441	0.00299643	0.00289711	0.00502673
1.47000000	0.00346908	0.00557607	0.00749708	0.00982226	0.00304960	0.00726323	0.00218467	0.00251504	0.00484122	0.00526244	0.00281291	0.00568147	0.00204302	0.00164174	0.00168502	0.00350868	0.00655611	0.00299496	0.00136518	0.00282764	0.00739421	0.00094852	0.00293101	0.00166376	0.00416838
1.48000000	0.00330506	0.00523936	0.00688232	0.01111761	0.00265544	0.00849666	0.00202699	0.00278455	0.00519762	0.00548840	0.00273437	0.00586012	0.00197230	0.00153932	0.00151249	0.00334134	0.00610593	0.00279830	0.00112914	0.00254823	0.00684527	0.00052227	0.00269130	0.00053208	0.00324132
1.49000000	0.00378656	0.00431995	0.00548086	0.01227183	0.00245773	0.00956543	0.00196806	0.00302008	0.00529629	0.00589021	0.00345338	0.00603133	0.00150225	0.00151860	0.00097992	0.00320323	0.00582445	0.00258295	0.00089237	0.00226336	0.00660080	0.00132902	0.00284913	0.00095460	0.00228673
1.50000000	0.00406600	0.00373238	0.00456538	0.01329445	0.00215844	0.01029964	0.00196642	0.00332486	0.00537764	0.00608556	0.00334885	0.00586436	0.00134419	0.00144617	0.00092923	0.00300411	0.00539931	0.00242617	0.00082510	0.00205527	0.00578415	0.00147143	0.00283665	0.00225022	0.00116194
1.51000000	0.00393504	0.00363293	0.00481666	0.01364386	0.00162226	0.01066973	0.00204521	0.00368144	0.00546479	0.00611006	0.00263265	0.00550902	0.00130127	0.00131502	0.00134353	0.00277136	0.00456585	0.00248164	0.00111875	0.00187080	0.00507711	0.00066017	0.00224832	0.00261859	0.00018577
1.52000000	0.00436847	0.00276464	0.00361046	0.01481660	0.00147704	0.01070818	0.00212535	0.00373790	0.00469401	0.00654994	0.00368517	0.00516690	0.00056978	0.00168713	0.00087546	0.00230718	0.00398842	0.00244150	0.00112574	0.00163303	0.00470088	0.00107628	0.00238086	0.00390715	0.00118355
1.53000000	0.00441053	0.00199662	0.00328722	0.01480470	0.00153916	0.01097633	0.00198087	0.00415815	0.00507624	0.00689361	0.00278481	0.00459462	0.00096561	0.00124759	0.00151473	0.00185289	0.00337842	0.00248557	0.00158783	0.00160334	0.00382173	0.00101861	0.00223014	0.00475442	0.00228112
1.54000000	0.00450902	0.00137640	0.00326686	0.01493235	0.00166708	0.01099979	0.00200008	0.00423833	0.00487706	0.00720159	0.00283000	0.00439902	0.00084343	0.00123189	0.00155200	0.00135883	0.00261777	0.00267238	0.00194753	0.00162798	0.00336306	0.00096891	0.00218217	0.00555354	0.00322525
1.55000000	0.00453198	0.00116784	0.00393552	0.01527566	0.00170848	0.01064101	0.00205325	0.00415514	0.00412042	0.00728917	0.00288982	0.00437920	0.00078330	0.00121333	0.00111336	0.00097589	0.00166482	0.00293505	0.00236060	0.00178843	0.00302065	0.00038238	0.00244512	0.00620716	0.00398955
1.56000000	0.00438058	0.00074600	0.00374778	0.01547808	0.00213712	0.01053530	0.00198555	0.00418437	0.00404792	0.00785905	0.00295390	0.00413515	0.00079245	0.00100443	0.00124271	0.00080323	0.00108950	0.00321943	0.00281049	0.00194089	0.00307722	0.00051212	0.00245922	0.00700327	0.00500142
1.57000000	0.00432553	0.00097831	0.00444962	0.01559834	0.00239247	0.01013084	0.00196682	0.00396307	0.00360783	0.00798684	0.00309212	0.00427590	0.00088201	0.00103518	0.00095480	0.00131825	0.00095048	0.00354023	0.00320843	0.00216135	0.00353628	0.00033321	0.00299458	0.00760013	0.00583309
1.58000000	0.00431676	0.00129303	0.00473561	0.01561546	0.00272834	0.00978993	0.00198350	0.00377063	0.00326394	0.00830191	0.00308793	0.00418306	0.00093479	0.00091104	0.00094499	0.00203010	0.00169309	0.00386344	0.00362316	0.00238294	0.00437696	0.00047315	0.00340000	0.00823241	0.00670620
1.59000000	0.00424691	0.00176636	0.00512913	0.01545732	0.00309165	0.00940917	0.00181616	0.00357659	0.00310907	0.00861471	0.00312696	0.00412167	0.00098833	0.00083235	0.00089256	0.00270865	0.00265269	0.00421261	0.00401282	0.00261406	0.00537059	0.00068657	0.00377346	0.00875426	0.00759148
1.60000000	0.00409403	0.00214945	0.00518956	0.01529157	0.00339471	0.00901557	0.00164338	0.00341718	0.00292604	0.00909864	0.00330523	0.00383567	0.00100865	0.00071984	0.00089993	0.00345719	0.00359593	0.00449369	0.00437980	0.00274971	0.00651474	0.00104900	0.00386460	0.00937635	0.00853016
1.61000000	0.00424241	0.00260355	0.00583879	0.01435212	0.00355374	0.00858306	0.00148861	0.00318599	0.00268200	0.00911279	0.00310829	0.00400769	0.00099856	0.00069628	0.00084436	0.00399467	0.00474465	0.00489234	0.00479081	0.00306102	0.00767327	0.00102577	0.00471409	0.00969546	0.00924302
1.62000000	0.00421345	0.00288404	0.00622424	0.01342643	0.00373381	0.00809742	0.00134188	0.00282817	0.00219777	0.00931710	0.00302629	0.00397377	0.00099704	0.00069949	0.00077451	0.00452453	0.00574351	0.00514956	0.00513643	0.00317827	0.00878877	0.00113168	0.00517295	0.01012579	0.01003194
1.63000000	0.00420519	0.00304534	0.00666079	0.01223847	0.00381445	0.00732649	0.00102817	0.00247725	0.00166960	0.00942501	0.00290441	0.00405716	0.00097249	0.00072994	0.00070095	0.00493471	0.00675516	0.00540927	0.00548359	0.00330056	0.00988986	0.00114202	0.00578511	0.01049226	0.01073876
1.64000000	0.00387176	0.00310660	0.00698274	0.01103098	0.00375193	0.00661458	0.00072051	0.00215892	0.00121910	0.00976142	0.00301781	0.00392261	0.00099055	0.00072765	0.00069495	0.00537123	0.00761091	0.00555628	0.00580683	0.00323881	0.01099826	0.00135052	0.00599346	0.01107241	0.01146333
1.65000000	0.00397304	0.00315693	0.00735201	0.00957298	0.00375168	0.00524343	0.00042312	0.00167194	0.00088665	0.00968246	0.00272769	0.00429430	0.00096416	0.00081400	0.00050950	0.00555341	0.00870128	0.00577728	0.00608663	0.00342010	0.01190503	0.00116378	0.00687978	0.01117763	0.01209181
1.66000000	0.00385921	0.00311100	0.00765900	0.00877307	0.00370920	0.00381423	0.00038424	0.00161419	0.00054549	0.00984277	0.00266356	0.00443412	0.00098515	0.00090537	0.00049474	0.00575725	0.00959282	0.00593918	0.00636207	0.00347161	0.01280754	0.00112297	0.00740499	0.01142639	0.01268997
1.67000000	0.00374987	0.00310532	0.00790877	0.00878248	0.00362939	0.00244299	0.00064249	0.00199568	0.00066043	0.01001701	0.00259441	0.00463440	0.00102904	0.00093442	0.00042313	0.00592077	0.01040665	0.00605012	0.00662794	0.00350394	0.01366404	0.00108620	0.00790171	0.01162570	0.01326029
1.68000000	0.00373469	0.00303184	0.00817984	0.00966306	0.00355203	0.00155082	0.00087064	0.00264641	0.00076684	0.01035595	0.00264062	0.00456940	0.00114080	0.00098467	0.00045188	0.00613639	0.01111645	0.00611989	0.00686223	0.00349355	0.01444667	0.00113952	0.00819099	0.01188379	0.01381811
1.69000000	0.00369746	0.00313684	0.00832493	0.01076389	0.00357898	0.00178638	0.00118814	0.00347103	0.00114550	0.01041461	0.00240572	0.00491091	0.00127866	0.00104800	0.00052688	0.00623853	0.01178025	0.00620471	0.00705481	0.00358729	0.01509418	0.00100282	0.00884024	0.01189616	0.01422542
1.70000000	0.00384930	0.00324162	0.00874252	0.01177516	0.00358762	0.00218845	0.00144469	0.00410111	0.00117227	0.01073190	0.00228410	0.00492647	0.00140485	0.00116939	0.00062523	0.00639361	0.01215142	0.00625521	0.00725205	0.00352930	0.01568790	0.00102887	0.00897935	0.01209368	0.01468845
1.71000000	0.00379375	0.00322857	0.00872976	0.01212039	0.00347272	0.00268457	0.00169016	0.00450625	0.00146534	0.01079497	0.00215943	0.00511055	0.00159962	0.00111552	0.00071870	0.00658005	0.01259748	0.00624636	0.00737621	0.00358976	0.01620273	0.00094382	0.00964010	0.01215897	0.01498739
1.72000000	0.00397536	0.00328836	0.00904158	0.01198103	0.00329947	0.00261268	0.00187764	0.00458519	0.00146281	0.01097864	0.00201553	0.00516165	0.00179840	0.00112127	0.00080820	0.00681131	0.01272240	0.00621526	0.00748493	0.00350284	0.01661483	0.00100372	0.00980141	0.01239235	0.01539547
1.73000000	0.00418554	0.00335647	0.00942714	0.01128202	0.00313657	0.00236890	0.00213295	0.00437708	0.00148058	0.01106336	0.00176570	0.00528736	0.00202490	0.00101506	0.00095639	0.00707845	0.01278258	0.00625010	0.00756111	0.00347829	0.01684726	0.00105747	0.00999548	0.01259385	0.01571253
1.74000000	0.00451278	0.00337423	0.00934548	0.01012308	0.00284740	0.00219793	0.00228520	0.00410450	0.00135418	0.01103077	0.00162518	0.00543642	0.00214821	0.00098373	0.00108968	0.00724315	0.01260874	0.00610340	0.00762869	0.00336551	0.01717800	0.00100540	0.01045046	0.01278746	0.01597261
1.75000000	0.00515664	0.00361343	0.00996512	0.00879927	0.00264102	0.00188242	0.00250255	0.00355105	0.00142987	0.01097747	0.00096539	0.00570197	0.00242687	0.00088244	0.00142282	0.00743575	0.01236743	0.00621187	0.00764177	0.00338128	0.01702182	0.00108429	0.01008115	0.01292883	0.01647069
1.76000000	0.00564287	0.00369207	0.00987975	0.00733475	0.00260997	0.00173975	0.00281269	0.00292812	0.00130824	0.01083377	0.00102788	0.00585068	0.00255882	0.00045606	0.00132485	0.00755105	0.01188741	0.00603727	0.00767797	0.00326681	0.01709316	0.00110340	0.01080145	0.01316748	0.01640002
1.77000000	0.00622668	0.00408417	0.00989259	0.00595585	0.00262754	0.00165984	0.00296777	0.00252941	0.00150501	0.01058744	0.00064510	0.00601712	0.00262652	0.00033757	0.00142278	0.00763837	0.01126947	0.00594892	0.00767321	0.00320938	0.01687503	0.00120099	0.01099671	0.01333917	0.01646983
1.78000000	0.00666274	0.00431048	0.00981445	0.00470802	0.00272063	0.00186000	0.00308824	0.00262183	0.00181967	0.01008294	0.00063959	0.00615753	0.00286358	0.00059259	0.00177401	0.00778099	0.01072614	0.00584107	0.00759389	0.00324188	0.01642871	0.00123180	0.01096566	0.01353478	0.01660010
1.79000000	0.00708217	0.00539191	0.00978930	0.00390328	0.00192116	0.00111987	0.00282843	0.00182211	0.00151739	0.00962375	0.00058633	0.00593379	0.00259158	0.00066856	0.00186962	0.00770357	0.00963228	0.00568274	0.00756286	0.00303305	0.01594537	0.00098830	0.01085690	0.01370030	0.01650882
1.80000000	0.00737597	0.00587970	0.00969620	0.00294862	0.00238532	0.00195196	0.00285017	0.00238648	0.00161416	0.00877147	0.00117301	0.00600383	0.00260852	0.00117612	0.00233220	0.00759629	0.00893371	0.00554264	0.00742000	0.00306755	0.01520042	0.00096802	0.01081675	0.01375112	0.01645704
1.81000000	0.00739180	0.00664398	0.00947662	0.00227140	0.00292339	0.00303140	0.00254176	0.00269063	0.00162168	0.00793049	0.00167136	0.00549351	0.00235813	0.00160310	0.00281590	0.00738945	0.00820035	0.00535876	0.00727814	0.00298068	0.01451825	0.00101009	0.01072554	0.01383565	0.01635041
1.82000000	0.00725838	0.00662069	0.00899788	0.00171220	0.00357886	0.00419384	0.00210974	0.00326679	0.00211340	0.00654086	0.00264586	0.00498094	0.00235427	0.00248406	0.00361234	0.00726151	0.00800626	0.00518137	0.00705227	0.00297737	0.01375980	0.00100052	0.01058573	0.01382263	0.01635926
1.83000000	0.00704380	0.00741149	0.00918752	0.00152586	0.00305057	0.00413023	0.00147289	0.00270704	0.00115190	0.00552856	0.00278150	0.00363860	0.00211415	0.00276272	0.00395806	0.00684362	0.00725890	0.00502698	0.00693862	0.00256762	0.01318539	0.00082622	0.01025636	0.01381036	0.01608161
1.84000000	0.00666496	0.00758852	0.00899691	0.00112323	0.00333393	0.00517473	0.00114635	0.00272217	0.00173107	0.00396555	0.00316662	0.00270243	0.00262760	0.00327091	0.00450395	0.00647649	0.00718824	0.00489730	0.00675338	0.00238343	0.01261631	0.00069117	0.01017337	0.01353760	0.01586571
1.85000000	0.00632943	0.00768202	0.00896074	0.00098408	0.00346605	0.00588411	0.00120159	0.00266537	0.00219779	0.00240511	0.00333188	0.00220795	0.00341801	0.00348643	0.00497997	0.00609840	0.00720772	0.00475383	0.00660564	0.00219022	0.01222859	0.00059313	0.00994985	0.01314192	0.01568700
1.86000000	0.00612082	0.00769878	0.00898539	0.00123082	0.00333620	0.00663091	0.00144953	0.00259210	0.00242922	0.00160730	0.00332134	0.00280802	0.00443426	0.00343537	0.00520214	0.00577155	0.00743861	0.00460372	0.00643260	0.00217519	0.01192483	0.00054027	0.00975591	0.01264275	0.01543489
1.87000000	0.00582731	0.00786305	0.00930206	0.00182483	0.00306928	0.00713010	0.00164127	0.00240244	0.00255943	0.00256724	0.00286353	0.00393231	0.00547969	0.00296951	0.00514411	0.00545376	0.00763695	0.00441869	0.00631169	0.00229654	0.01183923	0.00045567	0.00948635	0.01211691	0.01513734
1.88000000	0.00591345	0.00776923	0.00927799	0.00275126	0.00264368	0.00750047	0.00182160	0.00228471	0.00259163	0.00422537	0.00269350	0.00501847	0.00616132	0.00257342	0.00495207	0.00520718	0.00799030	0.00425532	0.00623118	0.00266164	0.01186072	0.00033461	0.00923520	0.01154432	0.01479556
1.89000000	0.00589090	0.00785642	0.00979834	0.00333068	0.00223441	0.00773823	0.00188548	0.00219582	0.00260538	0.00548641	0.00193985	0.00578141	0.00683581	0.00222556	0.00458721	0.00499755	0.00816651	0.00411865	0.00613403	0.00296312	0.01184442	0.00035021	0.00881013	0.01101251	0.01435615
1.90000000	0.00596242	0.00795908	0.01020537	0.00385412	0.00185777	0.00755275	0.00196202	0.00218484	0.00250010	0.00642055	0.00110903	0.00609309	0.00726530	0.00229844	0.00411019	0.00493543	0.00834828	0.00403243	0.00599156	0.00328686	0.01175345	0.00052009	0.00833654	0.01058898	0.01374285
1.91000000	0.00600178	0.00803623	0.01066710	0.00396164	0.00175303	0.00722399	0.00184638	0.00204706	0.00225935	0.00688621	0.00068721	0.00602029	0.00739371	0.00278934	0.00354585	0.00493500	0.00835792	0.00393976	0.00584296	0.00349178	0.01163227	0.00081746	0.00776002	0.01028407	0.01303508
1.92000000	0.00624037	0.00787077	0.01084970	0.00393275	0.00161927	0.00670163	0.00188426	0.00212458	0.00211563	0.00719192	0.00125049	0.00576238	0.00706842	0.00303247	0.00312016	0.00497886	0.00828925	0.00383836	0.00567008	0.00361175	0.01141279	0.00118213	0.00713657	0.01006880	0.01223217
1.93000000	0.00654129	0.00754579	0.01090597	0.00380401	0.00154572	0.00608650	0.00195756	0.00221945	0.00206008	0.00729908	0.00200648	0.00549910	0.00646857	0.00287927	0.00276262	0.00506199	0.00811331	0.00374647	0.00545854	0.00364000	0.01106916	0.00155345	0.00639688	0.00992175	0.01134900
1.94000000	0.00688077	0.00709717	0.01076559	0.00372249	0.00162252	0.00552212	0.00203092	0.00229138	0.00205442	0.00724756	0.00273950	0.00524890	0.00574159	0.00263092	0.00248963	0.00516058	0.00783741	0.00364038	0.00522217	0.00359058	0.01066645	0.00189377	0.00563779	0.00981441	0.01038277
1.95000000	0.00729580	0.00637439	0.01042016	0.00383118	0.00171503	0.00515085	0.00214043	0.00243383	0.00194808	0.00734505	0.00320974	0.00488319	0.00514132	0.00242163	0.00237142	0.00520481	0.00756545	0.00353056	0.00498538	0.00348575	0.01019578	0.00210735	0.00529621	0.00962320	0.00926318
1.96000000	0.00749068	0.00568832	0.01012155	0.00392857	0.00179515	0.00509134	0.00222110	0.00251393	0.00202015	0.00746071	0.00374634	0.00492678	0.00449030	0.00213401	0.00223946	0.00519822	0.00728387	0.00336894	0.00470097	0.00338085	0.00968880	0.00225401	0.00478340	0.00937014	0.00822690
1.97000000	0.00725635	0.00505182	0.01003143	0.00403806	0.00214646	0.00526277	0.00217968	0.00243432	0.00218875	0.00778613	0.00413422	0.00544503	0.00388943	0.00192023	0.00215357	0.00525250	0.00694867	0.00318069	0.00431288	0.00343697	0.00914538	0.00246569	0.00363616	0.00909380	0.00739836
1.98000000	0.00712146	0.00437135	0.01014145	0.00423747	0.00220110	0.00584155	0.00215576	0.00243237	0.00227827	0.00845397	0.00418381	0.00613644	0.00355424	0.00200186	0.00227716	0.00501835	0.00666380	0.00299972	0.00404730	0.00344711	0.00865791	0.00241450	0.00336130	0.00849133	0.00648195
1.99000000	0.00673251	0.00366665	0.01068714	0.00446184	0.00230276	0.00640077	0.00221030	0.00237745	0.00246795	0.00924612	0.00396010	0.00717571	0.00319269	0.00227000	0.00263572	0.00476214	0.00646364	0.00286351	0.00374701	0.00373578	0.00814332	0.00235690	0.00286429	0.00774756	0.00568555
2.00000000	0.00626315	0.00342083	0.01153891	0.00465794	0.00258336	0.00729446	0.00205672	0.00227837	0.00237942	0.01016332	0.00369231	0.00807961	0.00292694	0.00232185	0.00259874	0.00424240	0.00623660	0.00269923	0.00355080	0.00396238	0.00772833	0.00213407	0.00292899	0.00676307	0.00491256
2.01000000	0.00567898	0.00298174	0.01243758	0.00501366	0.00231986	0.00775469	0.00224869	0.00214055	0.00278141	0.01084799	0.00318336	0.00881687	0.00275549	0.00268424	0.00299037	0.00373650	0.00606614	0.00253652	0.00328158	0.00437605	0.00725244	0.00197000	0.00227450	0.00568694	0.00438796
2.02000000	0.00501722	0.00311705	0.01278710	0.00529179	0.00235127	0.00836899	0.00224768	0.00201819	0.00277178	0.01163610	0.00284830	0.00924278	0.00249348	0.00272135	0.00267556	0.00305109	0.00581439	0.00227993	0.00308537	0.00461342	0.00686020	0.00178163	0.00229936	0.00449118	0.00380986
2.03000000	0.00431900	0.00306481	0.01252330	0.00559991	0.00234956	0.00871175	0.00232596	0.00184415	0.00287197	0.01204542	0.00261048	0.00960756	0.00225691	0.00299753	0.00259952	0.00238102	0.00548588	0.00197978	0.00282900	0.00479592	0.00633515	0.00163986	0.00212822	0.00326496	0.00328173
2.04000000	0.00343048	0.00245154	0.01158094	0.00594499	0.00208420	0.00885124	0.00238535	0.00168099	0.00285811	0.01235876	0.00245850	0.00970326	0.00228972	0.00312175	0.00254711	0.00187020	0.00515253	0.00172703	0.00262154	0.00490465	0.00576531	0.00148970	0.00184077	0.00208421	0.00285720
2.05000000	0.00253341	0.00236154	0.01032531	0.00629217	0.00186866	0.00861453	0.00257715	0.00162482	0.00247625	0.01286731	0.00229161	0.00966064	0.00207758	0.00318420	0.00213321	0.00139859	0.00470960	0.00143405	0.00249142	0.00492159	0.00531428	0.00145104	0.00174188	0.00103080	0.00239219
2.06000000	0.00208953	0.00273247	0.00957583	0.00641806	0.00196620	0.00845929	0.00247997	0.00140371	0.00251104	0.01329733	0.00247437	0.00988392	0.00188205	0.00345865	0.00213399	0.00117447	0.00419333	0.00112447	0.00229053	0.00501197	0.00484595	0.00153771	0.00154799	0.00018387	0.00182157
2.07000000	0.00159600	0.00273581	0.00957974	0.00652294	0.00196663	0.00834251	0.00246568	0.00137791	0.00224427	0.01383712	0.00235762	0.01002612	0.00185559	0.00366789	0.00215814	0.00127213	0.00389137	0.00095005	0.00237248	0.00515436	0.00469944	0.00171295	0.00137000	0.00112348	0.00145030
2.08000000	0.00168081	0.00276520	0.01031499	0.00668905	0.00215162	0.00804824	0.00238730	0.00127911	0.00219820	0.01455021	0.00228216	0.01040650	0.00191567	0.00390699	0.00241659	0.00152066	0.00352626	0.00095335	0.00245929	0.00540732	0.00463810	0.00193682	0.00114977	0.00208068	0.00099279
2.09000000	0.00195255	0.00266949	0.01119627	0.00684754	0.00224262	0.00784995	0.00234653	0.00128632	0.00214071	0.01538012	0.00220517	0.01080440	0.00208352	0.00420109	0.00280290	0.00179144	0.00318648	0.00115828	0.00257980	0.00562378	0.00470322	0.00222104	0.00092316	0.00301023	0.00058417
2.10000000	0.00244352	0.00276437	0.01163545	0.00708045	0.00252680	0.00773900	0.00222714	0.00135556	0.00195536	0.01646427	0.00202163	0.01123063	0.00228131	0.00460169	0.00336716	0.00211643	0.00283190	0.00144476	0.00266578	0.00570740	0.00458439	0.00237867	0.00081466	0.00401162	0.00027484
2.11000000	0.00231140	0.00384413	0.01076798	0.00728199	0.00348412	0.00795998	0.00173133	0.00257530	0.00086797	0.01796681	0.00202499	0.01160009	0.00263576	0.00492704	0.00363392	0.00294679	0.00280961	0.00175499	0.00289811	0.00567509	0.00476028	0.00215778	0.00061174	0.00552522	0.00090966
2.12000000	0.00295966	0.00274999	0.00990395	0.00756565	0.00260471	0.00788827	0.00205122	0.00147944	0.00201852	0.01758548	0.00176423	0.01231239	0.00322492	0.00489437	0.00417187	0.00347266	0.00282808	0.00208933	0.00313712	0.00548270	0.00461791	0.00312729	0.00044687	0.00614333	0.00077907
2.13000000	0.00341054	0.00352683	0.00821336	0.00787064	0.00269780	0.00785341	0.00201786	0.00158147	0.00182954	0.01805235	0.00178153	0.01277884	0.00357197	0.00492786	0.00444454	0.00416070	0.00305756	0.00257135	0.00335209	0.00523730	0.00457383	0.00347323	0.00032225	0.00723602	0.00116441
2.14000000	0.00389612	0.00451067	0.00654555	0.00806592	0.00277309	0.00795840	0.00198446	0.00166611	0.00172890	0.01829859	0.00188395	0.01308611	0.00371333	0.00486621	0.00466279	0.00497647	0.00342233	0.00301596	0.00364742	0.00493975	0.00477602	0.00396776	0.00028056	0.00837081	0.00149203
2.15000000	0.00455372	0.00530133	0.00540041	0.00831398	0.00295760	0.00787169	0.00199754	0.00162432	0.00163463	0.01839368	0.00218307	0.01335617	0.00369066	0.00487227	0.00497104	0.00557067	0.00400505	0.00358442	0.00386789	0.00474693	0.00499313	0.00421269	0.00040961	0.00946251	0.00190490
2.16000000	0.00486853	0.00596605	0.00447264	0.00834864	0.00291689	0.00816840	0.00193216	0.00167206	0.00154844	0.01775736	0.00270566	0.01323199	0.00360353	0.00448080	0.00440437	0.00651094	0.00453363	0.00388807	0.00420260	0.00453493	0.00565956	0.00508846	0.00019616	0.01054486	0.00203825
2.17000000	0.00526577	0.00628315	0.00463773	0.00850188	0.00303840	0.00805154	0.00191205	0.00169906	0.00144275	0.01696159	0.00313924	0.01298127	0.00325174	0.00419956	0.00423514	0.00710760	0.00506247	0.00434369	0.00447793	0.00448189	0.00616137	0.00536214	0.00033111	0.01160323	0.00242439
2.18000000	0.00546107	0.00636986	0.00439967	0.00848732	0.00290443	0.00830754	0.00189192	0.00172659	0.00142373	0.01528002	0.00389924	0.01215851	0.00288356	0.00359594	0.00347415	0.00788450	0.00546499	0.00457138	0.00482670	0.00439477	0.00689359	0.00626180	0.00021638	0.01254197	0.00248032
2.19000000	0.00564747	0.00626528	0.00478314	0.00859151	0.00293287	0.00825605	0.00186586	0.00166470	0.00133096	0.01327171	0.00442476	0.01105377	0.00242593	0.00310171	0.00296585	0.00847291	0.00584345	0.00481786	0.00511158	0.00437560	0.00747682	0.00683657	0.00026683	0.01345027	0.00270452
2.20000000	0.00582033	0.00608247	0.00516612	0.00872766	0.00292912	0.00817796	0.00183271	0.00153876	0.00127720	0.01095318	0.00485215	0.00946021	0.00204195	0.00279759	0.00231198	0.00901804	0.00627060	0.00504221	0.00535535	0.00434303	0.00793982	0.00751464	0.00033777	0.01422709	0.00289551
