TVC04_3_JMP_03_lower_limb_body_marker_personalization_task_1_initialErrors.sto
version=1
nRows=211
nColumns=28
inDegrees=no
endheader
time	R_Asis	L_Asis	R_Psis	L_Psis	Sacral	R_Thigh_Lateral	R_Knee_Lateral	R_Shank_Lateral	R_Ankle_Lateral	R_Heel	R_Toe	L_Thigh_Lateral	L_Knee_Lateral	L_Shank_Lateral	L_Ankle_Lateral	L_Heel	L_Toe	R_Shoulder	L_Shoulder	C7	J_Notch	Thoracic	Sternum	R_Elbow	L_Elbow	R_Wrist	L_Wrist
0.40000000	0.00498786	0.00420252	0.00550164	0.00468031	0.00502245	0.00728717	0.00333873	0.00857348	0.00113113	0.00170162	0.00190516	0.01460978	0.01318526	0.02047038	0.00585141	0.00573194	0.00825693	0.00835785	0.01457044	0.01485718	0.01662791	0.00790322	0.01989563	0.02677817	0.01470994	0.01578758	0.00701078
0.41000000	0.00486573	0.00363285	0.00532403	0.00456141	0.00487187	0.00608933	0.00318054	0.00781456	0.00119632	0.00158925	0.00172063	0.01437494	0.01325319	0.01978533	0.00587062	0.00566769	0.00809448	0.00839170	0.01452781	0.01486304	0.01663161	0.00804227	0.01983955	0.02637659	0.01473570	0.01527803	0.00769888
0.42000000	0.00464257	0.00372171	0.00543695	0.00445220	0.00485444	0.00560707	0.00334207	0.00698481	0.00121590	0.00124030	0.00185848	0.01413464	0.01330483	0.01848653	0.00591454	0.00554961	0.00788552	0.00843709	0.01457621	0.01489246	0.01661724	0.00820265	0.01979609	0.02591435	0.01484898	0.01473174	0.00800169
0.43000000	0.00451976	0.00370577	0.00547762	0.00441463	0.00484655	0.00532162	0.00333765	0.00674533	0.00134989	0.00115348	0.00190538	0.01391747	0.01325651	0.01703779	0.00599137	0.00537775	0.00754297	0.00851558	0.01452595	0.01493760	0.01666450	0.00841033	0.01982927	0.02534015	0.01488524	0.01419123	0.00842023
0.44000000	0.00459726	0.00376679	0.00520299	0.00439056	0.00469934	0.00501754	0.00345045	0.00689896	0.00155895	0.00138441	0.00188737	0.01390884	0.01290261	0.01589093	0.00598173	0.00532587	0.00721471	0.00870254	0.01441382	0.01484681	0.01658162	0.00861965	0.01969860	0.02487236	0.01495282	0.01378518	0.00931557
0.45000000	0.00427850	0.00388488	0.00530116	0.00430334	0.00470122	0.00540686	0.00344054	0.00687585	0.00169865	0.00113389	0.00166617	0.01347980	0.01239312	0.01458216	0.00585782	0.00514942	0.00694478	0.00883815	0.01441654	0.01486857	0.01657322	0.00884605	0.01969718	0.02434309	0.01503055	0.01317969	0.00969632
0.46000000	0.00435217	0.00406839	0.00538334	0.00425650	0.00471407	0.00572448	0.00334131	0.00716192	0.00193862	0.00103148	0.00197245	0.01309120	0.01190741	0.01294687	0.00566440	0.00477015	0.00645646	0.00912428	0.01428186	0.01487419	0.01662895	0.00907305	0.01980723	0.02367379	0.01510990	0.01271187	0.00986003
0.47000000	0.00419944	0.00431757	0.00528961	0.00408736	0.00458323	0.00625243	0.00370358	0.00712597	0.00211001	0.00086775	0.00190085	0.01279555	0.01107513	0.01182099	0.00535572	0.00445617	0.00620869	0.00939212	0.01428705	0.01475588	0.01652502	0.00924245	0.01971380	0.02319250	0.01530669	0.01224486	0.01045248
0.48000000	0.00406114	0.00441534	0.00524432	0.00393255	0.00449765	0.00675628	0.00381873	0.00742342	0.00223749	0.00084397	0.00193812	0.01238442	0.01015540	0.01065662	0.00502605	0.00405578	0.00572197	0.00968859	0.01422667	0.01469411	0.01652646	0.00944914	0.01975264	0.02262097	0.01545613	0.01175402	0.01091109
0.49000000	0.00396819	0.00469471	0.00499400	0.00381347	0.00433721	0.00728575	0.00393424	0.00770152	0.00235236	0.00092414	0.00176043	0.01217105	0.00891746	0.00973055	0.00460280	0.00367665	0.00501579	0.00999630	0.01424665	0.01454411	0.01642931	0.00966566	0.01966501	0.02213500	0.01570717	0.01129550	0.01168114
0.50000000	0.00390706	0.00448687	0.00506165	0.00359947	0.00427831	0.00792102	0.00396044	0.00813486	0.00247340	0.00090248	0.00193297	0.01150660	0.00807378	0.00831517	0.00401959	0.00305155	0.00427796	0.01042748	0.01413136	0.01449044	0.01647835	0.00983842	0.01978581	0.02159047	0.01581247	0.01088895	0.01187089
0.51000000	0.00378783	0.00467779	0.00472850	0.00344855	0.00405234	0.00860174	0.00424485	0.00828926	0.00251198	0.00093110	0.00170023	0.01107291	0.00674079	0.00748658	0.00347802	0.00260668	0.00338179	0.01074828	0.01423932	0.01424491	0.01634903	0.00999409	0.01967046	0.02121779	0.01618683	0.01044893	0.01270449
0.52000000	0.00375759	0.00430643	0.00482813	0.00319751	0.00398174	0.00936720	0.00422348	0.00876595	0.00264748	0.00107290	0.00180316	0.01017066	0.00623579	0.00589543	0.00285775	0.00208327	0.00282400	0.01119503	0.01413794	0.01418682	0.01643937	0.01012432	0.01982958	0.02073009	0.01633298	0.01005631	0.01278293
0.53000000	0.00361419	0.00404270	0.00475199	0.00304878	0.00386842	0.01022337	0.00474048	0.00905060	0.00258042	0.00109756	0.00166618	0.00952254	0.00583859	0.00449098	0.00230389	0.00168675	0.00218887	0.01152353	0.01422693	0.01401204	0.01640850	0.01019198	0.01983639	0.02036375	0.01659700	0.00970338	0.01326095
0.54000000	0.00351415	0.00401764	0.00463764	0.00315669	0.00384536	0.01105630	0.00516597	0.00933518	0.00254055	0.00125745	0.00150074	0.00899838	0.00567071	0.00343929	0.00187020	0.00145938	0.00130508	0.01186862	0.01431150	0.01373769	0.01629240	0.01024140	0.01971636	0.02021044	0.01689283	0.00943578	0.01386140
0.55000000	0.00358128	0.00332043	0.00471497	0.00312467	0.00385858	0.01172653	0.00529406	0.01015252	0.00261093	0.00154277	0.00155652	0.00874499	0.00616787	0.00261000	0.00157823	0.00095154	0.00113922	0.01220281	0.01426967	0.01372869	0.01644029	0.01037815	0.01988290	0.01979201	0.01700585	0.00906709	0.01399907
0.56000000	0.00365044	0.00339732	0.00470394	0.00333107	0.00393645	0.01244414	0.00546833	0.01052770	0.00263396	0.00176029	0.00141587	0.00889281	0.00666137	0.00361950	0.00149672	0.00059687	0.00104608	0.01246057	0.01438985	0.01359965	0.01642910	0.01050039	0.01985024	0.01957519	0.01732633	0.00872626	0.01432114
0.57000000	0.00348353	0.00307899	0.00477514	0.00359626	0.00407297	0.01309513	0.00602172	0.01075564	0.00262339	0.00195671	0.00130384	0.00967552	0.00742442	0.00540315	0.00163331	0.00087947	0.00091667	0.01260128	0.01452824	0.01342491	0.01642413	0.01046726	0.01982663	0.01945963	0.01756041	0.00849156	0.01468530
0.58000000	0.00336680	0.00340388	0.00493371	0.00409012	0.00437541	0.01358738	0.00638621	0.01103962	0.00250252	0.00218665	0.00108118	0.01090409	0.00816947	0.00713850	0.00182012	0.00107336	0.00126892	0.01268153	0.01460802	0.01323848	0.01641053	0.01042439	0.01975346	0.01953472	0.01771422	0.00826083	0.01505824
0.59000000	0.00360148	0.00339422	0.00496709	0.00413229	0.00442541	0.01386614	0.00632986	0.01154551	0.00255048	0.00230781	0.00121895	0.01128418	0.00888681	0.00951249	0.00230136	0.00174202	0.00129408	0.01290816	0.01461278	0.01336159	0.01645501	0.01070228	0.01970214	0.01938068	0.01780671	0.00801657	0.01509852
0.60000000	0.00329572	0.00398833	0.00497714	0.00448846	0.00459363	0.01412066	0.00708205	0.01135354	0.00244651	0.00206201	0.00168772	0.01258172	0.00956679	0.01045948	0.00285480	0.00147192	0.00197853	0.01295187	0.01480029	0.01318561	0.01631684	0.01072723	0.01946836	0.01962075	0.01804451	0.00778141	0.01557533
0.61000000	0.00343684	0.00357855	0.00512482	0.00457810	0.00472188	0.01405829	0.00657491	0.01163623	0.00252387	0.00236445	0.00110245	0.01272197	0.00986685	0.01230169	0.00341488	0.00257336	0.00188346	0.01283593	0.01476362	0.01332657	0.01646319	0.01076178	0.01954045	0.01958610	0.01798376	0.00770399	0.01542128
0.62000000	0.00319003	0.00374006	0.00519152	0.00482559	0.00487448	0.01392308	0.00694263	0.01143795	0.00233535	0.00202942	0.00136897	0.01337026	0.00994984	0.01273792	0.00396124	0.00247650	0.00227692	0.01275037	0.01485239	0.01326497	0.01635939	0.01070602	0.01933780	0.01994354	0.01801037	0.00755138	0.01567605
0.63000000	0.00295305	0.00358309	0.00527317	0.00502698	0.00501530	0.01363585	0.00692068	0.01122628	0.00237181	0.00197585	0.00105666	0.01356368	0.00991924	0.01283206	0.00450295	0.00250701	0.00237165	0.01255460	0.01476532	0.01333402	0.01646210	0.01064833	0.01937209	0.02019644	0.01787733	0.00750360	0.01562467
0.64000000	0.00266292	0.00331394	0.00519590	0.00497226	0.00495836	0.01317478	0.00672190	0.01098102	0.00258117	0.00194953	0.00106113	0.01294735	0.00969295	0.01280855	0.00486835	0.00267955	0.00286032	0.01224836	0.01489515	0.01334949	0.01638838	0.01056774	0.01925052	0.02050012	0.01784094	0.00770028	0.01569492
0.65000000	0.00251419	0.00312163	0.00510678	0.00493175	0.00490919	0.01260803	0.00645394	0.01054241	0.00265765	0.00161149	0.00115286	0.01191161	0.00927553	0.01257472	0.00514520	0.00275092	0.00306876	0.01198343	0.01492629	0.01344939	0.01637023	0.01057218	0.01920080	0.02082134	0.01772399	0.00772768	0.01571718
0.66000000	0.00239535	0.00287152	0.00504812	0.00493000	0.00489726	0.01193253	0.00608657	0.00998478	0.00275894	0.00134971	0.00117160	0.01055325	0.00882980	0.01222196	0.00519309	0.00271798	0.00312339	0.01174315	0.01488289	0.01360157	0.01639106	0.01057860	0.01923753	0.02116582	0.01749942	0.00776393	0.01559804
0.67000000	0.00241295	0.00296099	0.00487502	0.00487946	0.00479977	0.01133040	0.00568172	0.00877188	0.00281247	0.00102750	0.00111426	0.00907103	0.00823018	0.01163543	0.00492944	0.00268364	0.00301618	0.01147798	0.01496628	0.01357892	0.01629962	0.01049390	0.01921429	0.02162429	0.01745388	0.00796491	0.01560313
0.68000000	0.00242508	0.00245697	0.00480184	0.00480071	0.00474641	0.01041321	0.00507156	0.00786355	0.00278853	0.00089001	0.00106766	0.00753910	0.00774321	0.01126763	0.00443759	0.00256237	0.00276842	0.01120349	0.01494579	0.01365929	0.01629348	0.01039154	0.01932543	0.02208332	0.01716070	0.00809045	0.01544658
0.69000000	0.00265467	0.00191006	0.00472343	0.00471986	0.00468984	0.00934616	0.00445616	0.00659872	0.00263273	0.00093959	0.00110514	0.00618264	0.00718016	0.01080663	0.00378793	0.00249430	0.00255703	0.01097601	0.01493844	0.01370785	0.01627061	0.01027414	0.01948513	0.02250755	0.01689593	0.00830191	0.01529653
0.70000000	0.00324418	0.00161789	0.00475356	0.00489766	0.00481688	0.00784533	0.00334866	0.00541825	0.00242811	0.00162649	0.00190352	0.00481320	0.00672666	0.01054967	0.00307194	0.00260045	0.00282361	0.01077779	0.01481417	0.01387303	0.01634771	0.01021122	0.01981304	0.02285297	0.01650310	0.00837257	0.01495835
0.71000000	0.00271220	0.00259988	0.00453484	0.00460569	0.00454239	0.00707134	0.00364970	0.00367996	0.00173358	0.00199722	0.00159998	0.00531750	0.00610662	0.00854416	0.00226419	0.00195652	0.00113591	0.01057176	0.01490300	0.01347684	0.01617168	0.00955118	0.01993511	0.02368115	0.01639878	0.00882996	0.01488085
0.72000000	0.00282538	0.00284508	0.00454796	0.00450765	0.00450547	0.00615312	0.00363676	0.00274482	0.00124713	0.00256873	0.00238099	0.00473617	0.00562192	0.00798079	0.00166680	0.00184905	0.00104720	0.01038524	0.01485259	0.01345446	0.01619259	0.00929444	0.02027480	0.02411287	0.01607874	0.00910078	0.01458106
0.73000000	0.00340084	0.00292568	0.00459157	0.00440722	0.00449241	0.00550775	0.00359399	0.00316507	0.00105015	0.00310899	0.00327879	0.00450725	0.00520886	0.00767477	0.00135579	0.00173913	0.00131920	0.01019828	0.01484227	0.01346153	0.01622463	0.00908450	0.02063425	0.02446389	0.01577475	0.00935400	0.01425376
0.74000000	0.00378460	0.00344548	0.00462214	0.00441304	0.00450394	0.00601924	0.00384491	0.00509908	0.00182348	0.00353810	0.00356191	0.00454667	0.00469347	0.00718878	0.00123505	0.00174320	0.00111954	0.01010445	0.01474389	0.01340695	0.01625806	0.00883600	0.02098922	0.02489441	0.01545383	0.00966377	0.01387096
0.75000000	0.00411897	0.00404371	0.00465605	0.00434112	0.00447823	0.00725453	0.00415338	0.00755010	0.00254256	0.00380798	0.00389962	0.00502756	0.00427114	0.00662325	0.00122879	0.00158139	0.00098289	0.00996249	0.01469911	0.01335199	0.01629829	0.00859318	0.02132628	0.02525360	0.01522903	0.00996770	0.01351088
0.76000000	0.00471721	0.00469744	0.00457533	0.00420768	0.00436804	0.00880395	0.00444080	0.01006536	0.00302054	0.00395971	0.00410182	0.00579554	0.00391584	0.00605122	0.00134775	0.00159585	0.00080309	0.00982061	0.01466853	0.01326279	0.01634377	0.00834070	0.02164190	0.02554647	0.01514912	0.01027041	0.01321477
0.77000000	0.00476877	0.00537478	0.00465749	0.00411306	0.00435555	0.01060101	0.00458634	0.01255545	0.00374926	0.00393591	0.00358269	0.00641755	0.00341561	0.00584457	0.00164073	0.00171359	0.00057807	0.00981776	0.01458552	0.01317127	0.01630927	0.00815206	0.02179546	0.02598536	0.01500608	0.01065477	0.01281988
0.78000000	0.00499047	0.00600974	0.00464018	0.00409759	0.00433548	0.01231896	0.00469440	0.01467810	0.00416416	0.00398076	0.00317087	0.00721914	0.00325514	0.00560771	0.00194881	0.00184978	0.00038971	0.00963336	0.01458297	0.01318173	0.01639987	0.00801914	0.02205557	0.02614043	0.01498975	0.01086105	0.01253916
0.79000000	0.00499702	0.00655675	0.00466390	0.00406191	0.00433235	0.01365893	0.00479314	0.01652581	0.00437485	0.00387801	0.00261216	0.00791179	0.00311491	0.00579284	0.00232803	0.00202610	0.00029754	0.00959199	0.01452358	0.01313768	0.01640460	0.00791314	0.02213093	0.02645395	0.01501307	0.01120743	0.01217884
0.80000000	0.00485549	0.00694336	0.00464958	0.00411061	0.00434555	0.01447454	0.00489674	0.01803492	0.00455422	0.00382299	0.00192502	0.00831412	0.00324632	0.00632161	0.00243177	0.00199102	0.00039395	0.00951318	0.01452367	0.01311600	0.01637834	0.00785600	0.02210438	0.02674956	0.01508823	0.01147933	0.01195983
0.81000000	0.00517148	0.00717992	0.00456007	0.00423723	0.00437525	0.01493433	0.00497318	0.01882787	0.00424923	0.00379454	0.00179220	0.00906873	0.00355993	0.00684125	0.00284193	0.00222361	0.00030850	0.00944236	0.01445739	0.01317431	0.01650179	0.00782821	0.02223827	0.02686737	0.01512638	0.01174702	0.01160611
0.82000000	0.00505739	0.00736319	0.00448543	0.00431854	0.00438817	0.01491870	0.00510673	0.01928185	0.00391793	0.00379645	0.00160436	0.00957105	0.00393905	0.00760039	0.00300248	0.00235253	0.00028493	0.00943435	0.01440677	0.01319025	0.01652472	0.00781233	0.02220212	0.02710170	0.01523036	0.01205422	0.01129401
0.83000000	0.00487601	0.00756951	0.00437108	0.00442567	0.00438492	0.01445277	0.00512497	0.01947319	0.00343426	0.00397327	0.00156782	0.00981822	0.00438084	0.00844495	0.00300538	0.00240024	0.00026160	0.00931343	0.01442894	0.01325702	0.01658918	0.00781062	0.02218719	0.02717698	0.01540147	0.01232930	0.01110527
0.84000000	0.00451170	0.00681008	0.00405686	0.00464493	0.00433516	0.01407755	0.00553415	0.01945480	0.00274470	0.00402732	0.00212132	0.00981096	0.00549711	0.00890398	0.00274709	0.00226536	0.00027171	0.00933958	0.01444120	0.01322411	0.01650002	0.00780820	0.02194098	0.02748857	0.01551693	0.01262135	0.01104899
0.85000000	0.00465231	0.00689435	0.00400261	0.00475170	0.00437077	0.01343822	0.00583201	0.01886648	0.00199558	0.00403534	0.00265087	0.00999099	0.00576989	0.00958364	0.00274774	0.00230459	0.00025360	0.00930949	0.01435570	0.01336042	0.01665054	0.00784272	0.02201923	0.02751160	0.01552322	0.01291680	0.01058094
0.86000000	0.00460631	0.00681227	0.00392420	0.00481406	0.00436573	0.01292868	0.00634111	0.01823964	0.00126913	0.00397187	0.00324785	0.01001784	0.00603032	0.00988853	0.00263471	0.00238134	0.00031883	0.00924935	0.01436078	0.01345976	0.01669616	0.00784867	0.02194468	0.02762248	0.01558902	0.01321311	0.01021016
0.87000000	0.00408065	0.00664762	0.00375952	0.00487547	0.00428685	0.01286113	0.00680781	0.01769700	0.00091254	0.00418349	0.00354129	0.00983947	0.00632270	0.00951584	0.00243679	0.00222999	0.00031294	0.00930120	0.01429501	0.01345938	0.01663572	0.00779321	0.02174245	0.02796045	0.01553820	0.01349217	0.00997433
0.88000000	0.00422044	0.00645309	0.00374651	0.00497666	0.00433193	0.01252043	0.00735428	0.01713245	0.00055185	0.00414611	0.00423291	0.00962329	0.00633970	0.00941595	0.00232178	0.00224803	0.00039133	0.00907913	0.01440925	0.01366800	0.01672811	0.00781890	0.02172546	0.02782502	0.01553605	0.01379425	0.00960474
0.89000000	0.00405921	0.00628295	0.00369086	0.00499849	0.00430513	0.01250675	0.00792588	0.01669090	0.00062402	0.00416848	0.00457393	0.00932802	0.00623531	0.00898505	0.00223870	0.00220485	0.00037230	0.00910100	0.01427446	0.01375282	0.01676034	0.00779884	0.02164630	0.02796777	0.01540952	0.01420458	0.00902928
0.90000000	0.00415767	0.00623990	0.00367311	0.00496129	0.00426447	0.01275368	0.00860258	0.01624903	0.00084962	0.00396265	0.00453758	0.00907951	0.00614316	0.00842874	0.00208532	0.00223110	0.00051543	0.00899583	0.01433489	0.01380908	0.01667013	0.00775730	0.02139440	0.02805986	0.01537950	0.01471800	0.00872640
0.91000000	0.00438541	0.00587035	0.00355355	0.00511634	0.00424513	0.01301378	0.00898201	0.01593909	0.00083922	0.00416026	0.00457764	0.00890311	0.00612535	0.00771297	0.00213303	0.00201375	0.00062769	0.00903264	0.01416543	0.01392442	0.01670449	0.00775928	0.02135302	0.02834279	0.01481997	0.01479498	0.00828874
0.92000000	0.00436687	0.00594233	0.00363948	0.00512487	0.00428625	0.01338404	0.00930358	0.01577057	0.00100436	0.00428466	0.00426404	0.00872112	0.00602807	0.00733202	0.00194286	0.00192923	0.00079880	0.00883052	0.01420678	0.01408193	0.01670824	0.00777472	0.02123869	0.02825204	0.01464948	0.01534338	0.00777028
0.93000000	0.00475163	0.00587693	0.00367428	0.00521916	0.00433204	0.01367984	0.00956257	0.01547549	0.00098467	0.00423266	0.00404554	0.00876613	0.00607990	0.00697151	0.00196484	0.00181513	0.00077899	0.00880858	0.01422636	0.01417551	0.01660820	0.00780641	0.02105342	0.02838806	0.01442422	0.01558706	0.00723437
0.94000000	0.00501428	0.00584734	0.00363462	0.00530855	0.00434037	0.01391364	0.00970587	0.01516915	0.00114269	0.00422818	0.00378629	0.00878523	0.00621478	0.00679091	0.00188797	0.00175139	0.00083172	0.00866289	0.01418230	0.01432603	0.01667118	0.00782954	0.02107594	0.02844180	0.01393326	0.01587659	0.00677092
0.95000000	0.00525287	0.00591972	0.00373945	0.00532375	0.00439350	0.01421784	0.00955024	0.01470364	0.00141355	0.00438271	0.00340597	0.00890024	0.00624913	0.00689882	0.00181304	0.00179878	0.00081269	0.00851643	0.01423084	0.01440000	0.01656723	0.00786234	0.02087137	0.02847552	0.01374283	0.01641276	0.00630685
0.96000000	0.00547161	0.00601412	0.00380581	0.00542608	0.00447952	0.01414448	0.00942876	0.01383783	0.00140161	0.00419582	0.00309570	0.00912716	0.00645026	0.00709557	0.00185282	0.00177704	0.00090689	0.00836973	0.01428636	0.01456421	0.01657488	0.00795954	0.02086861	0.02846520	0.01327873	0.01674987	0.00584186
0.97000000	0.00533592	0.00633803	0.00405545	0.00522777	0.00453629	0.01446697	0.00836590	0.01286236	0.00209371	0.00492996	0.00275735	0.00940553	0.00640926	0.00726143	0.00173669	0.00181864	0.00146516	0.00819816	0.01439677	0.01460058	0.01640946	0.00806096	0.02061353	0.02866353	0.01310336	0.01759599	0.00520897
0.98000000	0.00567520	0.00604059	0.00391937	0.00553254	0.00460925	0.01376380	0.00842475	0.01130203	0.00146071	0.00384832	0.00298477	0.00988520	0.00694771	0.00744716	0.00184789	0.00182954	0.00094119	0.00813174	0.01438102	0.01471412	0.01646374	0.00806514	0.02072863	0.02864032	0.01270255	0.01754283	0.00488508
0.99000000	0.00586214	0.00599432	0.00404397	0.00549373	0.00465946	0.01320851	0.00722054	0.00997268	0.00152818	0.00375395	0.00315242	0.01043026	0.00720756	0.00748509	0.00178600	0.00186298	0.00096666	0.00807661	0.01449884	0.01469013	0.01624936	0.00811815	0.02048726	0.02888657	0.01259262	0.01815159	0.00439957
1.00000000	0.00597604	0.00588886	0.00404379	0.00547031	0.00465858	0.01244658	0.00633097	0.00827641	0.00132011	0.00330040	0.00333160	0.01101808	0.00753812	0.00751104	0.00179378	0.00189567	0.00105592	0.00807838	0.01457846	0.01463432	0.01606583	0.00812311	0.02031891	0.02917303	0.01245223	0.01866825	0.00397365
1.01000000	0.00592171	0.00577507	0.00398010	0.00552721	0.00466700	0.01133969	0.00552408	0.00667451	0.00120207	0.00290116	0.00334715	0.01149305	0.00773921	0.00772095	0.00183266	0.00200703	0.00110486	0.00794710	0.01469762	0.01469336	0.01605218	0.00816335	0.02036320	0.02936150	0.01220768	0.01895136	0.00357604
1.02000000	0.00573494	0.00572004	0.00399531	0.00556114	0.00472166	0.01019143	0.00475480	0.00512351	0.00098011	0.00228291	0.00325747	0.01204169	0.00803453	0.00781090	0.00186084	0.00198190	0.00113169	0.00783324	0.01481934	0.01473192	0.01600584	0.00820218	0.02035514	0.02948636	0.01205444	0.01936835	0.00328610
1.03000000	0.00514882	0.00563407	0.00393178	0.00560068	0.00474812	0.00892747	0.00430685	0.00393066	0.00096886	0.00187358	0.00283889	0.01222359	0.00800157	0.00847831	0.00191003	0.00223032	0.00097675	0.00764808	0.01498514	0.01482962	0.01604894	0.00826563	0.02045261	0.02960679	0.01188809	0.01964571	0.00289967
1.04000000	0.00546649	0.00542854	0.00403293	0.00555591	0.00479100	0.00794556	0.00340095	0.00287413	0.00105120	0.00172775	0.00249773	0.01279756	0.00835396	0.00819392	0.00182447	0.00214209	0.00112135	0.00783115	0.01504342	0.01462596	0.01576046	0.00820824	0.02018281	0.03010639	0.01197652	0.02032717	0.00256842
1.05000000	0.00464999	0.00526597	0.00396247	0.00567348	0.00483998	0.00733220	0.00360541	0.00239498	0.00090322	0.00161264	0.00221234	0.01288970	0.00862808	0.00870037	0.00179601	0.00223089	0.00092676	0.00764299	0.01521669	0.01477760	0.01583817	0.00831289	0.02028610	0.03020280	0.01186938	0.02044004	0.00237498
1.06000000	0.00466452	0.00487490	0.00399838	0.00574757	0.00489971	0.00744720	0.00354142	0.00328488	0.00105244	0.00208498	0.00219240	0.01325621	0.00912010	0.00839841	0.00178129	0.00205153	0.00105607	0.00770688	0.01525197	0.01472758	0.01575941	0.00834639	0.02022374	0.03058947	0.01188998	0.02081574	0.00216022
1.07000000	0.00450968	0.00487374	0.00414361	0.00587989	0.00504799	0.00831314	0.00371880	0.00497435	0.00117613	0.00250971	0.00191991	0.01328382	0.00922812	0.00862114	0.00166689	0.00220395	0.00110596	0.00769642	0.01532223	0.01478497	0.01576101	0.00842961	0.02022237	0.03081390	0.01191223	0.02104899	0.00192272
1.08000000	0.00456736	0.00470185	0.00428328	0.00599395	0.00517675	0.00957307	0.00405678	0.00653626	0.00129734	0.00285347	0.00188815	0.01335749	0.00954321	0.00841839	0.00149827	0.00215399	0.00117950	0.00773331	0.01540244	0.01481406	0.01571423	0.00852166	0.02015759	0.03111272	0.01201365	0.02131541	0.00178621
1.09000000	0.00517356	0.00469694	0.00461201	0.00613943	0.00541536	0.01073284	0.00466239	0.00779216	0.00153990	0.00305125	0.00163136	0.01338814	0.00969215	0.00815918	0.00118938	0.00219248	0.00104250	0.00779376	0.01548191	0.01480287	0.01560094	0.00857129	0.01998012	0.03143900	0.01225403	0.02162254	0.00161163
1.10000000	0.00552577	0.00474107	0.00487314	0.00621851	0.00558771	0.01194625	0.00591453	0.00804940	0.00228283	0.00263261	0.00160063	0.01324882	0.00980816	0.00786261	0.00087571	0.00197378	0.00187428	0.00795485	0.01562204	0.01488177	0.01551202	0.00878570	0.01989297	0.03168802	0.01242312	0.02189664	0.00134715
1.11000000	0.00584877	0.00482520	0.00504735	0.00623551	0.00568681	0.01240323	0.00630860	0.00857527	0.00269171	0.00212415	0.00225590	0.01306411	0.00973311	0.00768121	0.00058170	0.00172830	0.00246358	0.00807269	0.01577947	0.01489698	0.01531253	0.00892310	0.01959799	0.03204090	0.01276993	0.02216851	0.00140488
1.12000000	0.00511779	0.00464984	0.00509056	0.00645978	0.00582055	0.01242657	0.00561156	0.00966246	0.00282028	0.00304923	0.00244330	0.01292343	0.00988677	0.00702898	0.00044125	0.00207987	0.00132936	0.00803049	0.01554358	0.01502495	0.01554413	0.00893724	0.01975565	0.03195935	0.01274504	0.02206822	0.00150572
1.13000000	0.00464491	0.00460746	0.00515592	0.00659098	0.00592110	0.01244613	0.00549965	0.00952268	0.00337421	0.00273797	0.00298072	0.01262552	0.00964989	0.00657196	0.00025246	0.00183938	0.00162268	0.00809898	0.01553453	0.01518803	0.01561391	0.00911687	0.01978829	0.03196433	0.01284479	0.02199242	0.00127981
1.14000000	0.00425670	0.00486568	0.00527615	0.00666995	0.00602775	0.01193695	0.00514012	0.00976474	0.00388241	0.00269739	0.00327032	0.01223013	0.00918059	0.00609521	0.00019224	0.00175279	0.00157122	0.00809047	0.01552658	0.01535818	0.01569416	0.00926788	0.01980739	0.03183821	0.01304019	0.02190288	0.00141024
1.15000000	0.00395392	0.00502148	0.00543247	0.00678509	0.00617037	0.01143680	0.00493362	0.00993005	0.00415880	0.00278764	0.00350517	0.01186454	0.00864772	0.00537577	0.00030820	0.00141718	0.00160824	0.00815463	0.01555959	0.01551926	0.01572541	0.00940465	0.01981027	0.03167037	0.01325553	0.02170541	0.00148437
1.16000000	0.00361222	0.00500620	0.00546708	0.00676004	0.00618143	0.01076541	0.00463112	0.01041713	0.00412795	0.00308479	0.00393941	0.01142755	0.00792555	0.00464400	0.00061074	0.00140524	0.00134280	0.00817241	0.01552180	0.01566867	0.01582021	0.00959557	0.01990318	0.03153166	0.01333322	0.02160079	0.00145319
1.17000000	0.00393244	0.00480268	0.00562219	0.00658636	0.00616866	0.01000144	0.00460657	0.01070357	0.00383254	0.00308514	0.00331348	0.01121270	0.00761827	0.00255277	0.00060744	0.00095084	0.00102820	0.00843140	0.01542650	0.01547001	0.01567032	0.00940567	0.01978425	0.03159423	0.01372911	0.02164645	0.00170142
1.18000000	0.00349050	0.00515439	0.00573351	0.00659858	0.00624181	0.00951132	0.00473017	0.01163695	0.00327179	0.00329953	0.00355246	0.01050984	0.00699038	0.00183257	0.00072995	0.00074837	0.00098200	0.00837463	0.01543925	0.01571658	0.01579532	0.00966921	0.01992617	0.03115566	0.01374311	0.02138883	0.00172922
1.19000000	0.00357733	0.00482299	0.00578290	0.00636410	0.00614570	0.00907126	0.00492708	0.01191989	0.00251839	0.00330697	0.00339693	0.01009964	0.00710959	0.00092039	0.00086900	0.00100534	0.00064810	0.00853637	0.01544055	0.01556441	0.01562617	0.00953595	0.01980092	0.03104751	0.01406196	0.02139913	0.00196889
1.20000000	0.00358913	0.00476144	0.00590107	0.00624138	0.00614121	0.00869470	0.00513019	0.01229029	0.00167891	0.00343201	0.00362486	0.00945129	0.00743848	0.00244749	0.00111045	0.00157825	0.00109944	0.00856106	0.01547054	0.01556858	0.01560271	0.00950324	0.01983205	0.03067223	0.01428177	0.02117890	0.00222089
1.21000000	0.00346763	0.00487492	0.00590092	0.00613469	0.00608554	0.00825814	0.00510934	0.01275369	0.00105243	0.00348025	0.00381011	0.00877239	0.00804178	0.00361023	0.00160292	0.00224504	0.00212591	0.00861752	0.01530359	0.01565287	0.01571329	0.00964349	0.02001861	0.03025084	0.01416923	0.02093363	0.00233932
1.22000000	0.00370597	0.00438746	0.00577673	0.00591013	0.00589647	0.00780811	0.00481930	0.01254011	0.00057994	0.00354196	0.00399921	0.00835970	0.00895843	0.00560179	0.00237872	0.00285710	0.00269063	0.00872002	0.01521170	0.01557990	0.01568955	0.00958658	0.02007963	0.02992139	0.01420980	0.02077415	0.00254958
1.23000000	0.00386926	0.00452403	0.00589709	0.00556453	0.00576903	0.00745846	0.00464742	0.01169451	0.00053970	0.00334740	0.00329148	0.00717007	0.00955331	0.00829635	0.00271387	0.00344207	0.00212534	0.00883055	0.01516608	0.01539472	0.01564810	0.00932804	0.02014140	0.02961863	0.01443477	0.02055178	0.00270361
1.24000000	0.00418100	0.00548224	0.00614744	0.00559142	0.00588143	0.00782194	0.00435874	0.01047244	0.00073568	0.00302370	0.00272519	0.00759757	0.01040270	0.00867874	0.00378962	0.00388358	0.00324081	0.00881823	0.01498189	0.01560738	0.01588955	0.00956794	0.02046645	0.02907701	0.01403027	0.02002972	0.00297204
1.25000000	0.00414956	0.00419504	0.00573294	0.00512102	0.00544310	0.00742125	0.00332811	0.00983146	0.00081547	0.00327106	0.00254170	0.00669970	0.01054990	0.01190878	0.00433893	0.00410654	0.00161807	0.00897516	0.01504785	0.01521012	0.01557217	0.00913893	0.02015491	0.02895299	0.01451691	0.02006456	0.00339597
1.26000000	0.00456573	0.00401308	0.00568131	0.00515550	0.00541765	0.00804777	0.00259648	0.00897163	0.00105736	0.00326588	0.00229096	0.00816448	0.01103737	0.01265728	0.00549225	0.00421960	0.00246953	0.00896772	0.01498045	0.01526353	0.01565268	0.00917988	0.02021080	0.02845765	0.01454569	0.01959297	0.00379529
1.27000000	0.00471321	0.00320016	0.00553358	0.00487805	0.00519111	0.00839546	0.00213835	0.00872290	0.00129343	0.00337536	0.00170257	0.00817248	0.01075862	0.01471186	0.00600992	0.00440357	0.00235596	0.00911477	0.01491223	0.01505484	0.01552916	0.00900187	0.02006824	0.02833213	0.01471155	0.01940513	0.00407292
1.28000000	0.00478977	0.00329043	0.00556790	0.00498060	0.00525467	0.00957510	0.00184120	0.00887725	0.00157273	0.00338258	0.00176563	0.01006525	0.01081460	0.01494468	0.00708672	0.00439368	0.00325382	0.00914458	0.01480912	0.01511034	0.01558999	0.00911866	0.02004899	0.02796050	0.01466196	0.01897817	0.00459671
1.29000000	0.00493733	0.00294846	0.00549214	0.00493261	0.00518172	0.01055847	0.00160484	0.00958164	0.00163978	0.00356987	0.00185348	0.01098414	0.01049111	0.01584893	0.00760202	0.00455076	0.00395822	0.00918846	0.01477712	0.01502229	0.01551716	0.00909634	0.01988722	0.02783357	0.01478162	0.01867076	0.00501156
1.30000000	0.00488872	0.00309109	0.00563051	0.00499498	0.00527884	0.01177170	0.00167604	0.01052132	0.00168655	0.00355030	0.00164525	0.01201014	0.01040296	0.01629839	0.00780932	0.00462209	0.00472522	0.00925021	0.01471449	0.01502850	0.01554084	0.00917447	0.01980975	0.02760944	0.01483061	0.01827413	0.00554503
1.31000000	0.00514272	0.00273121	0.00565261	0.00482909	0.00518929	0.01241257	0.00205871	0.01132342	0.00146517	0.00353882	0.00141887	0.01198913	0.00994335	0.01762783	0.00774260	0.00506649	0.00595309	0.00920295	0.01469939	0.01485848	0.01547074	0.00905408	0.01962973	0.02763077	0.01504258	0.01811289	0.00601046
1.32000000	0.00500898	0.00276653	0.00575133	0.00486249	0.00526023	0.01307025	0.00251171	0.01239600	0.00135835	0.00348474	0.00155004	0.01253624	0.00998662	0.01801134	0.00763677	0.00526365	0.00666743	0.00920729	0.01461483	0.01488329	0.01554464	0.00915675	0.01961835	0.02753605	0.01495476	0.01772791	0.00662247
1.33000000	0.00496767	0.00268081	0.00578293	0.00486430	0.00527829	0.01317211	0.00293788	0.01307765	0.00116327	0.00341595	0.00178819	0.01271017	0.01014375	0.01860957	0.00734697	0.00541331	0.00732308	0.00912226	0.01461493	0.01486162	0.01556899	0.00918936	0.01955303	0.02749383	0.01499791	0.01740183	0.00721450
1.34000000	0.00515871	0.00285639	0.00586410	0.00489543	0.00532503	0.01283977	0.00331839	0.01305805	0.00104242	0.00326552	0.00200789	0.01278077	0.01040681	0.01912448	0.00704911	0.00552555	0.00782654	0.00905061	0.01466048	0.01481954	0.01553714	0.00921415	0.01944025	0.02745376	0.01514259	0.01713576	0.00760073
1.35000000	0.00493762	0.00268945	0.00583673	0.00486529	0.00530570	0.01207236	0.00374390	0.01291490	0.00078384	0.00312607	0.00175602	0.01213437	0.01064880	0.01974114	0.00647935	0.00564619	0.00829317	0.00908438	0.01451956	0.01477615	0.01560224	0.00925480	0.01947839	0.02752814	0.01492222	0.01684766	0.00828201
1.36000000	0.00517062	0.00316893	0.00606552	0.00493368	0.00544229	0.01128133	0.00371352	0.01208217	0.00091328	0.00290240	0.00192148	0.01267665	0.01146421	0.01917901	0.00630050	0.00518221	0.00796168	0.00895718	0.01466713	0.01480518	0.01558541	0.00931809	0.01942110	0.02730745	0.01513554	0.01648202	0.00856645
1.37000000	0.00509807	0.00316142	0.00614096	0.00497331	0.00550759	0.01033463	0.00354232	0.01120425	0.00099426	0.00268162	0.00194744	0.01244290	0.01207505	0.01881296	0.00591808	0.00487984	0.00774946	0.00893403	0.01459226	0.01483375	0.01568920	0.00939045	0.01954864	0.02716235	0.01498578	0.01612178	0.00900456
1.38000000	0.00487270	0.00288985	0.00621698	0.00495742	0.00554911	0.00925345	0.00363339	0.01010709	0.00101029	0.00244893	0.00199184	0.01202825	0.01253981	0.01847942	0.00560117	0.00465178	0.00754810	0.00884958	0.01467889	0.01479906	0.01565384	0.00940361	0.01951844	0.02708040	0.01504200	0.01577842	0.00946920
1.39000000	0.00483903	0.00302001	0.00639533	0.00498668	0.00565590	0.00831579	0.00357446	0.00933117	0.00098209	0.00233162	0.00194168	0.01171113	0.01300693	0.01764354	0.00532468	0.00422842	0.00689637	0.00881475	0.01463960	0.01482418	0.01571545	0.00949077	0.01961618	0.02688233	0.01490790	0.01542304	0.00988496
1.40000000	0.00465205	0.00279093	0.00649199	0.00499156	0.00571757	0.00766224	0.00357403	0.00857860	0.00100439	0.00215330	0.00198583	0.01135684	0.01333820	0.01674888	0.00501778	0.00393565	0.00644283	0.00882462	0.01465405	0.01477851	0.01567073	0.00953183	0.01960171	0.02672120	0.01489920	0.01511639	0.01032298
1.41000000	0.00458188	0.00277648	0.00664971	0.00503999	0.00582479	0.00724675	0.00354913	0.00815656	0.00108036	0.00209308	0.00191294	0.01087800	0.01338466	0.01577157	0.00486294	0.00372025	0.00578420	0.00883049	0.01463681	0.01477338	0.01566658	0.00962193	0.01963241	0.02648469	0.01481892	0.01474334	0.01076191
1.42000000	0.00463006	0.00286823	0.00651357	0.00510084	0.00578897	0.00694135	0.00373591	0.00788132	0.00104486	0.00207827	0.00183129	0.01052622	0.01319736	0.01496594	0.00462155	0.00358642	0.00523406	0.00893242	0.01456388	0.01461683	0.01554242	0.00964550	0.01947498	0.02637775	0.01478841	0.01454674	0.01155624
1.43000000	0.00435205	0.00260720	0.00685926	0.00512338	0.00598501	0.00723381	0.00363933	0.00798315	0.00129750	0.00202808	0.00188248	0.01006950	0.01296221	0.01339937	0.00450843	0.00336616	0.00460125	0.00893708	0.01460809	0.01470130	0.01556929	0.00979763	0.01959563	0.02595180	0.01477403	0.01408402	0.01159297
1.44000000	0.00432263	0.00289158	0.00679537	0.00524376	0.00601654	0.00742426	0.00381634	0.00807482	0.00133212	0.00194821	0.00174711	0.00972455	0.01235528	0.01225675	0.00438956	0.00335128	0.00411561	0.00901372	0.01462074	0.01461053	0.01545447	0.00989861	0.01945713	0.02570514	0.01485763	0.01370455	0.01224277
1.45000000	0.00413717	0.00273603	0.00697320	0.00524720	0.00611439	0.00794504	0.00401193	0.00822037	0.00154221	0.00181204	0.00194876	0.00919966	0.01172641	0.01070151	0.00414519	0.00304029	0.00380493	0.00909015	0.01465289	0.01461902	0.01541681	0.01003687	0.01947295	0.02529631	0.01496799	0.01331502	0.01239422
1.46000000	0.00408763	0.00338310	0.00685950	0.00539893	0.00613533	0.00826985	0.00411786	0.00847487	0.00162516	0.00182513	0.00176536	0.00894646	0.01070315	0.00936344	0.00402887	0.00305154	0.00325660	0.00923936	0.01464652	0.01453647	0.01529936	0.01020487	0.01932204	0.02500616	0.01506903	0.01297273	0.01298591
1.47000000	0.00399452	0.00313000	0.00699880	0.00541666	0.00621931	0.00876927	0.00390129	0.00877883	0.00188792	0.00177329	0.00187479	0.00841753	0.00976552	0.00773592	0.00366968	0.00267549	0.00289960	0.00943827	0.01457638	0.01456938	0.01530021	0.01042051	0.01937699	0.02454449	0.01516760	0.01260136	0.01302767
1.48000000	0.00385919	0.00369489	0.00688220	0.00550433	0.00620378	0.00916920	0.00410824	0.00881033	0.00194200	0.00169711	0.00175356	0.00822259	0.00853164	0.00643935	0.00340911	0.00249360	0.00256588	0.00955475	0.01467844	0.01451172	0.01519900	0.01058386	0.01925600	0.02417498	0.01539117	0.01219655	0.01352727
1.49000000	0.00365257	0.00382046	0.00688306	0.00547895	0.00618941	0.00965381	0.00439075	0.00882534	0.00197312	0.00159182	0.00172775	0.00801550	0.00747840	0.00504090	0.00296919	0.00205843	0.00242577	0.00977114	0.01472141	0.01446396	0.01510231	0.01074881	0.01916592	0.02383080	0.01558247	0.01186295	0.01380925
1.50000000	0.00337173	0.00329116	0.00692872	0.00540886	0.00618456	0.01000569	0.00433340	0.00917399	0.00213402	0.00164006	0.00184985	0.00789249	0.00675067	0.00335764	0.00246815	0.00157775	0.00189016	0.01001285	0.01465548	0.01449908	0.01512144	0.01097595	0.01919244	0.02339832	0.01569039	0.01153805	0.01390364
1.51000000	0.00324853	0.00383968	0.00671421	0.00536550	0.00604632	0.01032277	0.00450544	0.00909276	0.00213785	0.00161150	0.00168639	0.00796682	0.00583812	0.00247113	0.00196368	0.00121021	0.00141254	0.01021412	0.01476597	0.01437150	0.01501926	0.01106557	0.01906010	0.02310941	0.01601471	0.01122019	0.01433197
1.52000000	0.00323403	0.00337220	0.00676590	0.00527403	0.00602624	0.01068995	0.00430283	0.00926193	0.00223925	0.00155221	0.00179953	0.00804637	0.00559346	0.00143361	0.00153506	0.00068606	0.00134348	0.01048661	0.01468354	0.01445568	0.01509768	0.01131167	0.01913936	0.02264585	0.01617510	0.01083979	0.01429077
1.53000000	0.00291158	0.00308488	0.00669943	0.00506410	0.00588251	0.01101335	0.00457416	0.00930544	0.00230124	0.00162173	0.00166942	0.00843689	0.00580531	0.00194586	0.00124024	0.00020939	0.00104410	0.01069459	0.01472800	0.01437196	0.01505230	0.01134905	0.01906237	0.02237757	0.01640121	0.01061572	0.01451006
1.54000000	0.00273884	0.00360667	0.00650757	0.00497891	0.00572600	0.01130425	0.00485237	0.00914354	0.00224560	0.00167054	0.00150601	0.00912043	0.00626188	0.00278353	0.00134752	0.00049797	0.00076924	0.01083353	0.01483548	0.01420413	0.01501651	0.01128490	0.01897529	0.02220062	0.01670197	0.01037235	0.01485745
1.55000000	0.00263624	0.00256615	0.00657957	0.00479650	0.00567300	0.01151917	0.00501461	0.00958372	0.00230382	0.00170704	0.00156866	0.00964930	0.00697511	0.00489812	0.00165960	0.00092020	0.00079017	0.01104834	0.01482305	0.01427666	0.01502577	0.01140703	0.01894913	0.02184849	0.01680939	0.01015539	0.01483998
1.56000000	0.00248871	0.00279298	0.00652434	0.00475780	0.00560591	0.01171880	0.00533585	0.00948553	0.00232353	0.00171446	0.00149422	0.01057928	0.00771985	0.00648044	0.00217364	0.00146255	0.00077712	0.01121986	0.01480948	0.01417471	0.01506192	0.01136149	0.01891680	0.02171917	0.01705473	0.00990468	0.01496045
1.57000000	0.00259555	0.00265559	0.00652230	0.00479893	0.00561476	0.01183762	0.00529794	0.00983617	0.00237317	0.00190916	0.00133711	0.01122592	0.00850203	0.00842517	0.00256925	0.00193535	0.00089300	0.01133276	0.01479836	0.01420898	0.01510667	0.01140926	0.01887721	0.02148838	0.01719075	0.00972300	0.01499785
1.58000000	0.00265520	0.00338699	0.00648104	0.00499176	0.00567675	0.01200825	0.00532365	0.00977603	0.00240107	0.00195777	0.00131688	0.01159430	0.00927471	0.01011269	0.00306241	0.00255600	0.00100671	0.01142318	0.01486272	0.01418813	0.01509451	0.01144913	0.01876122	0.02135933	0.01743452	0.00954720	0.01512087
1.59000000	0.00260873	0.00427580	0.00641933	0.00535005	0.00580074	0.01204462	0.00585629	0.00968867	0.00242664	0.00176153	0.00143642	0.01248221	0.01004294	0.01096407	0.00346399	0.00245312	0.00185481	0.01142925	0.01498085	0.01404970	0.01504273	0.01129845	0.01859540	0.02136289	0.01773801	0.00950527	0.01533737
1.60000000	0.00247853	0.00377093	0.00658145	0.00546817	0.00592552	0.01211636	0.00593711	0.00957863	0.00237241	0.00198911	0.00111195	0.01325571	0.01014691	0.01244756	0.00388370	0.00303607	0.00130919	0.01138742	0.01499210	0.01399592	0.01504708	0.01108112	0.01852195	0.02147224	0.01781103	0.00936588	0.01526455
1.61000000	0.00262926	0.00308804	0.00662608	0.00556016	0.00599121	0.01188402	0.00574316	0.00987250	0.00250377	0.00207536	0.00115774	0.01320744	0.01038317	0.01355655	0.00421008	0.00341356	0.00161644	0.01142591	0.01489139	0.01409585	0.01510753	0.01112891	0.01847842	0.02143426	0.01777614	0.00932357	0.01517102
1.62000000	0.00259544	0.00327992	0.00668026	0.00588472	0.00617269	0.01175664	0.00606971	0.00960913	0.00234222	0.00174638	0.00125427	0.01326263	0.01033638	0.01373969	0.00457237	0.00339903	0.00182654	0.01131141	0.01495819	0.01407595	0.01508944	0.01099042	0.01836716	0.02154169	0.01787868	0.00934109	0.01517797
1.63000000	0.00242306	0.00317884	0.00666337	0.00602726	0.00623468	0.01148804	0.00616738	0.00942178	0.00230347	0.00156455	0.00133436	0.01291436	0.00987965	0.01374264	0.00489621	0.00361492	0.00203349	0.01123096	0.01508711	0.01398583	0.01494637	0.01083435	0.01812542	0.02180759	0.01799007	0.00951080	0.01526744
1.64000000	0.00233395	0.00294225	0.00677332	0.00627888	0.00641905	0.01123670	0.00609289	0.00907106	0.00214787	0.00140816	0.00133538	0.01240982	0.00945378	0.01319058	0.00521465	0.00365297	0.00215904	0.01109492	0.01502241	0.01409166	0.01502141	0.01078226	0.01814040	0.02193711	0.01790176	0.00952391	0.01507481
1.65000000	0.00231817	0.00320210	0.00675924	0.00655873	0.00656526	0.01104118	0.00530577	0.00834613	0.00239421	0.00117043	0.00114512	0.01056603	0.00945973	0.01233447	0.00546590	0.00315116	0.00265262	0.01104884	0.01496512	0.01421719	0.01499856	0.01092063	0.01803211	0.02211209	0.01787288	0.00955286	0.01498412
1.66000000	0.00223332	0.00278374	0.00679937	0.00669751	0.00666362	0.01059909	0.00478432	0.00792461	0.00242081	0.00131761	0.00125097	0.00945029	0.00862090	0.01154619	0.00550661	0.00329143	0.00294750	0.01088908	0.01497508	0.01429122	0.01499839	0.01085545	0.01803384	0.02235767	0.01775566	0.00962595	0.01482420
1.67000000	0.00211769	0.00235410	0.00681423	0.00678292	0.00672737	0.01011283	0.00444434	0.00742333	0.00241404	0.00090590	0.00118912	0.00804989	0.00809902	0.01066799	0.00547424	0.00292306	0.00290405	0.01076139	0.01495810	0.01436772	0.01495202	0.01083744	0.01798980	0.02264895	0.01762081	0.00980355	0.01467445
1.68000000	0.00176445	0.00227897	0.00682049	0.00683627	0.00676456	0.00978550	0.00411476	0.00638212	0.00232571	0.00071736	0.00088840	0.00684303	0.00741403	0.00969845	0.00514996	0.00278846	0.00274636	0.01069232	0.01500085	0.01427554	0.01485858	0.01065168	0.01793718	0.02308845	0.01756406	0.01009997	0.01465787
1.69000000	0.00221726	0.00212105	0.00673919	0.00697310	0.00680686	0.00892442	0.00275082	0.00585900	0.00249934	0.00156483	0.00163461	0.00573643	0.00672240	0.00917014	0.00485058	0.00311122	0.00283985	0.01060710	0.01503985	0.01429344	0.01475551	0.01057447	0.01794247	0.02348119	0.01735223	0.01038839	0.01446753
1.70000000	0.00186386	0.00260792	0.00680154	0.00699351	0.00684942	0.00830166	0.00339888	0.00451877	0.00194974	0.00112228	0.00058564	0.00580421	0.00625106	0.00799692	0.00425510	0.00237767	0.00174044	0.01053233	0.01509607	0.01411583	0.01470917	0.01016957	0.01807032	0.02398215	0.01726640	0.01065317	0.01441501
1.71000000	0.00220129	0.00232104	0.00683082	0.00694220	0.00685317	0.00716499	0.00323203	0.00335174	0.00167802	0.00152683	0.00120227	0.00524039	0.00601279	0.00809783	0.00366502	0.00240610	0.00155034	0.01049875	0.01502762	0.01410999	0.01470295	0.01005616	0.01827413	0.02433981	0.01699492	0.01099344	0.01416750
1.72000000	0.00289536	0.00232291	0.00681030	0.00702331	0.00689564	0.00575956	0.00352577	0.00203296	0.00147902	0.00205650	0.00206412	0.00504451	0.00594609	0.00824932	0.00310288	0.00244567	0.00147401	0.01041141	0.01500104	0.01410951	0.01470324	0.00992932	0.01854198	0.02465594	0.01676003	0.01128886	0.01389615
1.73000000	0.00307438	0.00258244	0.00687440	0.00698015	0.00691288	0.00470186	0.00371377	0.00233969	0.00136648	0.00267316	0.00271665	0.00509773	0.00577179	0.00842544	0.00250633	0.00253048	0.00134009	0.01035048	0.01502725	0.01402472	0.01469268	0.00967690	0.01882266	0.02505356	0.01648709	0.01161198	0.01372616
1.74000000	0.00342973	0.00301935	0.00687664	0.00695864	0.00691042	0.00397936	0.00412635	0.00406722	0.00198799	0.00328857	0.00347650	0.00548135	0.00577815	0.00840373	0.00210895	0.00246751	0.00114946	0.01032803	0.01501692	0.01392710	0.01466183	0.00946087	0.01909029	0.02545430	0.01624990	0.01198479	0.01352278
1.75000000	0.00403662	0.00353331	0.00685973	0.00689518	0.00687759	0.00425823	0.00470134	0.00642075	0.00264372	0.00373632	0.00422586	0.00600412	0.00587749	0.00837275	0.00188781	0.00234203	0.00122164	0.01029306	0.01498708	0.01384828	0.01469112	0.00926231	0.01941698	0.02579263	0.01600679	0.01234134	0.01330582
1.76000000	0.00441520	0.00423749	0.00693098	0.00691735	0.00692788	0.00604511	0.00498891	0.00898359	0.00366584	0.00397427	0.00435273	0.00646309	0.00575599	0.00833488	0.00186898	0.00231815	0.00080925	0.01017850	0.01498858	0.01382556	0.01470431	0.00913875	0.01972969	0.02611183	0.01577517	0.01260184	0.01304392
1.77000000	0.00533575	0.00481561	0.00692108	0.00696273	0.00695124	0.00818772	0.00553536	0.01152850	0.00427080	0.00415750	0.00434005	0.00721224	0.00588519	0.00805076	0.00199522	0.00220334	0.00070402	0.01007608	0.01498075	0.01382084	0.01476263	0.00905838	0.02004623	0.02635820	0.01554854	0.01286682	0.01278564
1.78000000	0.00521227	0.00560712	0.00705858	0.00691055	0.00699537	0.01058321	0.00561178	0.01415084	0.00497475	0.00404401	0.00385429	0.00763402	0.00557932	0.00799195	0.00211003	0.00225725	0.00053587	0.00998734	0.01494078	0.01379681	0.01481850	0.00896117	0.02027021	0.02665153	0.01535687	0.01320067	0.01260903
1.79000000	0.00524420	0.00642022	0.00716671	0.00690549	0.00704647	0.01263735	0.00574055	0.01638645	0.00541611	0.00394444	0.00316046	0.00807172	0.00536811	0.00796795	0.00223037	0.00227705	0.00030069	0.00990267	0.01493683	0.01378024	0.01484176	0.00890337	0.02039840	0.02695771	0.01523616	0.01350099	0.01241500
1.80000000	0.00588336	0.00678606	0.00716949	0.00699073	0.00709805	0.01440689	0.00604043	0.01789197	0.00536627	0.00400128	0.00274780	0.00887340	0.00544439	0.00781817	0.00258734	0.00235935	0.00024320	0.00974860	0.01491360	0.01384849	0.01497838	0.00891268	0.02061163	0.02709292	0.01506672	0.01371934	0.01224827
1.81000000	0.00566244	0.00753217	0.00726028	0.00695769	0.00712808	0.01520908	0.00595755	0.01938938	0.00517486	0.00389783	0.00209291	0.00912843	0.00516635	0.00824662	0.00268632	0.00242008	0.00026376	0.00971038	0.01488432	0.01382973	0.01500855	0.00887475	0.02061930	0.02741866	0.01503856	0.01400040	0.01203978
1.82000000	0.00558363	0.00786357	0.00721858	0.00704821	0.00715237	0.01538956	0.00597590	0.02044245	0.00472582	0.00391990	0.00167890	0.00945829	0.00542687	0.00843187	0.00265261	0.00235515	0.00037193	0.00960601	0.01491020	0.01382459	0.01504938	0.00883317	0.02058881	0.02762475	0.01512271	0.01422891	0.01196199
1.83000000	0.00570974	0.00802083	0.00717287	0.00713130	0.00717819	0.01546669	0.00608794	0.02069146	0.00401976	0.00403870	0.00179267	0.00981732	0.00552814	0.00894427	0.00279923	0.00243314	0.00030453	0.00953283	0.01489223	0.01386741	0.01513036	0.00886644	0.02057674	0.02779915	0.01511143	0.01443360	0.01178942
1.84000000	0.00625772	0.00809429	0.00707856	0.00728992	0.00721667	0.01540401	0.00648654	0.02040553	0.00309405	0.00418776	0.00243417	0.01015191	0.00578284	0.00950621	0.00287599	0.00248603	0.00032196	0.00942966	0.01484428	0.01398758	0.01529352	0.00897094	0.02063698	0.02787223	0.01502773	0.01455485	0.01153472
1.85000000	0.00635924	0.00820478	0.00697994	0.00736662	0.00720762	0.01503638	0.00678167	0.02031901	0.00223536	0.00440997	0.00305087	0.01024458	0.00597685	0.00999843	0.00276880	0.00254943	0.00038297	0.00936816	0.01479768	0.01405354	0.01540767	0.00900673	0.02060151	0.02800948	0.01501037	0.01474695	0.01130317
1.86000000	0.00641556	0.00818337	0.00684531	0.00744801	0.00717984	0.01468447	0.00717111	0.02032884	0.00140785	0.00463159	0.00389952	0.01017940	0.00616409	0.01035551	0.00263035	0.00253889	0.00042582	0.00934301	0.01477662	0.01409249	0.01547004	0.00902884	0.02051844	0.02815442	0.01495668	0.01498272	0.01107189
1.87000000	0.00608788	0.00792341	0.00663421	0.00752148	0.00710026	0.01475344	0.00760443	0.02049336	0.00114652	0.00512972	0.00461133	0.01008877	0.00660766	0.00997945	0.00236643	0.00233969	0.00032987	0.00931476	0.01480509	0.01406137	0.01545456	0.00892900	0.02029531	0.02843293	0.01497450	0.01520922	0.01095212
1.88000000	0.00649748	0.00779205	0.00652763	0.00763842	0.00710747	0.01452214	0.00819457	0.02054536	0.00073422	0.00533865	0.00579182	0.00983710	0.00665276	0.01019337	0.00220857	0.00237196	0.00037000	0.00924286	0.01472694	0.01417973	0.01559538	0.00902062	0.02030455	0.02839754	0.01480036	0.01540834	0.01060716
1.89000000	0.00661617	0.00757020	0.00633091	0.00769653	0.00702897	0.01505921	0.00885316	0.02042953	0.00101726	0.00553248	0.00612181	0.00964394	0.00660920	0.00982785	0.00224112	0.00218137	0.00054152	0.00911168	0.01483953	0.01422349	0.01556971	0.00897258	0.02012091	0.02860857	0.01471842	0.01548988	0.01035695
1.90000000	0.00677322	0.00755745	0.00623920	0.00775170	0.00700729	0.01505311	0.00940657	0.02058868	0.00110319	0.00552098	0.00657606	0.00923812	0.00657308	0.00965948	0.00193643	0.00229413	0.00038466	0.00901948	0.01477305	0.01430229	0.01566974	0.00897189	0.02009324	0.02852448	0.01449291	0.01590125	0.01004067
1.91000000	0.00677482	0.00737517	0.00611383	0.00782456	0.00697405	0.01528735	0.00979898	0.02059825	0.00115886	0.00547457	0.00651577	0.00897654	0.00643679	0.00927856	0.00192858	0.00213508	0.00037527	0.00898643	0.01466900	0.01433880	0.01571854	0.00895918	0.02004453	0.02861559	0.01424458	0.01619069	0.00956336
1.92000000	0.00748680	0.00707974	0.00578650	0.00796007	0.00685805	0.01593756	0.01031166	0.02002251	0.00130280	0.00537609	0.00590111	0.00892322	0.00649645	0.00858029	0.00196108	0.00189021	0.00037899	0.00884974	0.01469672	0.01441235	0.01573387	0.00895485	0.02000023	0.02883211	0.01374629	0.01624656	0.00920642
1.93000000	0.00716193	0.00707378	0.00580061	0.00797024	0.00686662	0.01605179	0.01046176	0.01993906	0.00127923	0.00526433	0.00530571	0.00881122	0.00637021	0.00825209	0.00188482	0.00182673	0.00044078	0.00876923	0.01466073	0.01442873	0.01571918	0.00892356	0.01988685	0.02886184	0.01346581	0.01672649	0.00883358
1.94000000	0.00765992	0.00702913	0.00561308	0.00804623	0.00680193	0.01611294	0.01065653	0.01923519	0.00123825	0.00496069	0.00456214	0.00886529	0.00638528	0.00800554	0.00191653	0.00167933	0.00044026	0.00861983	0.01470944	0.01450077	0.01571332	0.00897863	0.01986999	0.02897307	0.01300725	0.01687926	0.00843512
1.95000000	0.00748922	0.00694470	0.00562469	0.00807169	0.00681298	0.01600565	0.01050813	0.01859644	0.00128527	0.00481474	0.00392683	0.00903809	0.00640265	0.00775985	0.00187334	0.00158639	0.00045349	0.00856036	0.01473528	0.01447721	0.01561850	0.00896646	0.01973355	0.02912910	0.01274437	0.01730432	0.00800075
1.96000000	0.00748746	0.00694861	0.00560190	0.00809877	0.00681824	0.01572379	0.01034012	0.01734489	0.00134517	0.00455199	0.00328770	0.00929258	0.00651656	0.00782666	0.00189567	0.00161050	0.00050549	0.00837797	0.01482130	0.01456473	0.01561117	0.00907294	0.01974753	0.02917063	0.01228358	0.01760454	0.00764798
1.97000000	0.00686964	0.00688724	0.00577641	0.00801555	0.00686322	0.01534657	0.00961916	0.01602827	0.00160676	0.00455881	0.00285425	0.00970852	0.00659085	0.00774122	0.00185948	0.00154146	0.00077648	0.00837758	0.01485612	0.01447955	0.01546416	0.00902459	0.01957460	0.02941136	0.01207231	0.01826589	0.00728872
1.98000000	0.00702061	0.00664221	0.00577707	0.00807543	0.00689343	0.01455792	0.00897686	0.01394306	0.00148500	0.00409503	0.00293729	0.01035160	0.00700037	0.00773153	0.00194757	0.00152590	0.00092049	0.00836526	0.01493211	0.01443844	0.01531842	0.00910179	0.01948725	0.02968487	0.01182107	0.01855234	0.00680361
1.99000000	0.00626730	0.00693043	0.00623692	0.00782427	0.00701070	0.01386442	0.00729596	0.01192440	0.00215073	0.00457130	0.00239336	0.01096379	0.00705450	0.00776119	0.00195428	0.00157798	0.00138789	0.00846015	0.01504649	0.01433321	0.01509055	0.00916160	0.01927542	0.03003676	0.01165477	0.01951126	0.00645244
2.00000000	0.00626077	0.00673855	0.00603647	0.00804413	0.00703763	0.01215590	0.00712940	0.00919508	0.00132440	0.00317643	0.00254798	0.01130573	0.00738542	0.00872526	0.00201453	0.00184967	0.00082687	0.00806580	0.01521841	0.01458209	0.01529146	0.00939696	0.01966146	0.02985917	0.01105376	0.01934248	0.00611014
2.01000000	0.00592128	0.00656357	0.00630013	0.00794504	0.00712497	0.01091312	0.00548694	0.00708239	0.00144204	0.00294736	0.00273854	0.01208939	0.00778601	0.00867135	0.00198900	0.00188030	0.00111758	0.00821740	0.01529256	0.01441045	0.01507206	0.00935329	0.01952360	0.03028148	0.01099041	0.02007275	0.00574360
2.02000000	0.00567972	0.00625188	0.00624455	0.00801931	0.00714141	0.00962722	0.00482684	0.00477691	0.00121535	0.00228833	0.00325152	0.01268871	0.00831370	0.00888924	0.00205308	0.00194742	0.00117092	0.00809179	0.01541994	0.01446507	0.01512290	0.00943413	0.01971654	0.03051906	0.01075873	0.02022979	0.00526942
2.03000000	0.00546447	0.00625521	0.00646868	0.00793559	0.00722604	0.00838017	0.00361738	0.00331407	0.00135183	0.00189128	0.00298139	0.01337340	0.00867164	0.00906958	0.00209354	0.00200699	0.00134424	0.00825326	0.01555829	0.01428837	0.01485493	0.00939023	0.01953866	0.03085943	0.01072212	0.02096110	0.00510024
2.04000000	0.00461728	0.00584432	0.00648804	0.00801806	0.00729379	0.00754114	0.00358318	0.00266370	0.00117898	0.00133542	0.00246284	0.01346320	0.00914148	0.00991472	0.00211962	0.00219988	0.00068566	0.00797672	0.01577322	0.01446377	0.01497508	0.00952737	0.01975127	0.03086983	0.01049453	0.02110880	0.00490077
2.05000000	0.00449356	0.00578403	0.00661892	0.00803778	0.00737282	0.00736821	0.00319316	0.00312805	0.00124716	0.00155768	0.00231765	0.01387384	0.00936554	0.00999835	0.00219374	0.00223681	0.00081538	0.00796206	0.01590733	0.01445437	0.01493609	0.00954417	0.01979915	0.03110459	0.01045518	0.02151353	0.00462051
2.06000000	0.00442662	0.00572439	0.00675783	0.00808074	0.00746574	0.00785092	0.00305349	0.00398930	0.00131961	0.00180946	0.00202328	0.01410190	0.00956324	0.01009290	0.00218088	0.00231774	0.00078303	0.00794423	0.01603243	0.01445734	0.01490783	0.00954665	0.01982731	0.03132454	0.01045074	0.02187616	0.00439708
2.07000000	0.00443060	0.00547109	0.00683347	0.00809690	0.00750893	0.00868674	0.00300768	0.00511208	0.00144571	0.00235336	0.00182970	0.01434259	0.00983318	0.00988241	0.00219682	0.00224582	0.00094927	0.00799746	0.01613412	0.01444570	0.01486901	0.00956664	0.01982450	0.03165091	0.01047471	0.02224839	0.00415300
2.08000000	0.00499063	0.00553670	0.00714695	0.00817611	0.00770486	0.00956908	0.00314280	0.00589449	0.00167492	0.00265023	0.00136511	0.01454784	0.00998439	0.00953868	0.00202806	0.00222738	0.00100233	0.00807460	0.01617092	0.01441673	0.01482404	0.00950983	0.01975678	0.03190854	0.01062905	0.02271107	0.00393031
2.09000000	0.00580083	0.00576128	0.00757774	0.00814821	0.00790351	0.01017113	0.00420989	0.00638058	0.00230401	0.00281197	0.00104904	0.01446529	0.00991012	0.00944200	0.00187723	0.00210127	0.00183650	0.00812965	0.01643317	0.01443094	0.01466329	0.00960029	0.01952340	0.03227963	0.01088283	0.02304571	0.00365501
2.10000000	0.00465039	0.00540052	0.00719578	0.00840686	0.00784480	0.01117021	0.00355516	0.00793063	0.00197691	0.00340776	0.00170720	0.01430116	0.01016308	0.00938076	0.00179353	0.00209286	0.00105839	0.00793549	0.01637576	0.01468057	0.01493137	0.00976646	0.01979163	0.03209910	0.01070645	0.02291485	0.00358190
2.11000000	0.00495464	0.00556578	0.00744006	0.00853915	0.00803387	0.01125659	0.00400852	0.00785980	0.00225663	0.00327294	0.00173172	0.01403959	0.01010039	0.00922982	0.00145104	0.00206362	0.00130880	0.00791824	0.01654444	0.01475005	0.01484979	0.00980183	0.01956433	0.03222242	0.01102342	0.02309100	0.00333775
2.12000000	0.00486147	0.00583385	0.00741249	0.00841711	0.00796414	0.01061062	0.00387658	0.00771460	0.00238215	0.00315270	0.00205061	0.01350408	0.00992495	0.00920784	0.00108351	0.00203920	0.00210028	0.00822341	0.01658945	0.01470259	0.01470311	0.00996962	0.01939229	0.03248202	0.01123366	0.02357391	0.00304923
2.13000000	0.00458509	0.00548011	0.00739784	0.00881143	0.00815381	0.01015482	0.00412174	0.00742069	0.00277710	0.00303247	0.00227093	0.01339973	0.01009246	0.00872002	0.00090736	0.00197328	0.00075187	0.00794799	0.01652171	0.01503327	0.01500339	0.01012081	0.01953470	0.03215246	0.01120166	0.02317820	0.00310153
2.14000000	0.00447061	0.00550582	0.00735452	0.00893927	0.00819901	0.00916005	0.00388071	0.00703626	0.00286493	0.00294588	0.00323965	0.01297487	0.00988311	0.00841133	0.00069135	0.00195871	0.00115386	0.00797840	0.01654393	0.01514696	0.01502439	0.01024931	0.01941865	0.03211151	0.01138954	0.02315524	0.00288759
2.15000000	0.00453267	0.00582725	0.00730834	0.00891386	0.00816327	0.00836824	0.00358042	0.00638598	0.00290877	0.00233436	0.00275578	0.01261121	0.00926845	0.00743656	0.00048160	0.00165786	0.00150493	0.00802652	0.01648750	0.01521844	0.01512883	0.01025133	0.01943047	0.03207313	0.01155296	0.02306541	0.00306501
2.16000000	0.00443820	0.00611205	0.00732091	0.00900464	0.00822226	0.00708073	0.00348805	0.00670223	0.00275784	0.00237563	0.00323763	0.01211285	0.00875705	0.00703525	0.00039107	0.00154983	0.00142440	0.00801790	0.01648996	0.01538696	0.01519725	0.01047061	0.01938080	0.03183672	0.01166786	0.02294161	0.00298648
2.17000000	0.00445548	0.00631978	0.00739591	0.00911898	0.00832383	0.00588396	0.00355174	0.00724656	0.00244974	0.00237132	0.00386704	0.01172843	0.00824708	0.00639890	0.00038628	0.00138211	0.00140833	0.00797082	0.01650778	0.01555472	0.01525967	0.01066018	0.01931979	0.03154455	0.01183338	0.02271505	0.00293592
2.18000000	0.00423801	0.00639660	0.00745518	0.00898650	0.00829074	0.00486356	0.00364001	0.00753679	0.00195153	0.00237881	0.00392386	0.01156586	0.00781023	0.00503409	0.00051614	0.00103898	0.00129469	0.00816097	0.01635581	0.01548981	0.01524952	0.01063326	0.01925621	0.03147019	0.01200524	0.02274232	0.00304512
2.19000000	0.00429278	0.00685708	0.00756494	0.00900086	0.00836249	0.00408782	0.00369358	0.00846890	0.00135171	0.00298218	0.00503627	0.01106467	0.00690070	0.00427873	0.00082993	0.00139748	0.00123887	0.00809406	0.01641090	0.01563692	0.01532521	0.01080468	0.01929588	0.03107208	0.01216258	0.02244441	0.00289431
2.20000000	0.00401023	0.00663777	0.00765376	0.00887644	0.00834608	0.00335489	0.00401875	0.00917125	0.00115739	0.00295810	0.00507820	0.01081070	0.00689805	0.00274473	0.00072265	0.00047201	0.00079662	0.00824493	0.01625885	0.01555766	0.01526664	0.01080074	0.01919638	0.03090402	0.01226625	0.02237871	0.00311689
2.21000000	0.00395653	0.00673526	0.00776030	0.00875921	0.00834332	0.00293186	0.00426086	0.00986303	0.00122012	0.00314216	0.00543519	0.01026489	0.00672688	0.00146870	0.00089709	0.00063449	0.00101644	0.00822778	0.01624793	0.01558301	0.01528875	0.01085853	0.01922926	0.03057358	0.01235938	0.02212492	0.00314227
2.22000000	0.00388312	0.00689213	0.00795757	0.00863908	0.00837992	0.00272934	0.00423793	0.01027178	0.00124881	0.00320546	0.00529961	0.00961216	0.00688624	0.00081741	0.00118975	0.00127853	0.00168753	0.00830030	0.01619743	0.01555801	0.01527703	0.01090049	0.01926887	0.03021178	0.01240549	0.02192152	0.00315565
2.23000000	0.00406406	0.00610660	0.00778232	0.00817727	0.00804510	0.00296397	0.00395366	0.01007514	0.00125746	0.00316782	0.00512639	0.00904679	0.00773805	0.00286907	0.00153894	0.00173620	0.00159620	0.00837556	0.01602945	0.01529315	0.01521932	0.01058633	0.01924524	0.03015154	0.01257606	0.02188391	0.00331756
2.24000000	0.00437494	0.00638624	0.00795838	0.00791876	0.00798336	0.00373176	0.00364525	0.00964758	0.00093376	0.00283480	0.00426689	0.00804053	0.00837553	0.00370011	0.00223260	0.00242109	0.00282471	0.00829285	0.01589005	0.01533149	0.01541436	0.01064676	0.01955944	0.02978094	0.01231800	0.02153420	0.00329023
2.25000000	0.00466549	0.00511565	0.00760931	0.00749415	0.00758707	0.00441573	0.00284414	0.00930014	0.00067676	0.00287695	0.00377261	0.00728476	0.00943040	0.00647277	0.00254331	0.00286350	0.00240811	0.00837413	0.01589439	0.01497412	0.01518249	0.01016534	0.01932304	0.02965081	0.01277170	0.02147838	0.00366270
2.26000000	0.00498498	0.00488591	0.00757714	0.00726487	0.00743932	0.00572315	0.00233370	0.00867587	0.00041640	0.00255271	0.00321277	0.00687150	0.01035618	0.00732685	0.00333776	0.00322194	0.00327251	0.00840881	0.01573212	0.01488768	0.01526800	0.01004673	0.01948370	0.02929068	0.01271447	0.02118308	0.00380486
2.27000000	0.00540706	0.00454213	0.00744295	0.00696868	0.00720048	0.00689553	0.00195722	0.00844074	0.00069323	0.00267110	0.00272597	0.00693697	0.01112640	0.00826592	0.00414338	0.00366652	0.00372467	0.00847544	0.01556892	0.01475971	0.01532236	0.00990301	0.01960824	0.02906297	0.01261783	0.02089812	0.00396170
2.28000000	0.00524010	0.00421457	0.00733393	0.00639710	0.00685720	0.00781846	0.00170436	0.00861161	0.00110746	0.00276338	0.00203259	0.00502069	0.01095980	0.01123152	0.00401085	0.00367524	0.00212826	0.00850779	0.01550106	0.01444062	0.01524214	0.00945108	0.01954623	0.02908513	0.01287755	0.02079499	0.00420236
2.29000000	0.00532039	0.00433295	0.00725660	0.00633184	0.00677346	0.00916221	0.00150604	0.00925293	0.00137643	0.00286012	0.00214185	0.00634790	0.01137777	0.01145437	0.00485056	0.00379508	0.00276610	0.00845481	0.01544040	0.01445365	0.01532529	0.00941781	0.01960580	0.02875486	0.01288319	0.02033922	0.00447912
2.30000000	0.00564070	0.00574286	0.00768179	0.00630154	0.00692562	0.01058625	0.00188175	0.01004158	0.00152908	0.00292469	0.00134093	0.00796744	0.01171079	0.01101524	0.00541981	0.00389792	0.00412569	0.00844122	0.01513977	0.01460330	0.01568111	0.00957992	0.01999897	0.02844021	0.01242348	0.01974361	0.00454653
2.31000000	0.00528841	0.00462038	0.00695813	0.00617646	0.00651756	0.01114307	0.00149497	0.01135413	0.00154261	0.00308243	0.00267985	0.00864850	0.01147079	0.01292527	0.00567601	0.00403687	0.00347114	0.00855799	0.01526458	0.01429801	0.01533296	0.00916786	0.01946881	0.02841614	0.01318772	0.01964034	0.00506965
2.32000000	0.00535885	0.00435934	0.00702290	0.00591256	0.00638720	0.01170818	0.00234314	0.01171578	0.00128330	0.00305523	0.00191170	0.00807078	0.01067814	0.01500519	0.00529814	0.00412439	0.00366619	0.00858320	0.01515757	0.01409813	0.01533505	0.00881846	0.01938216	0.02847031	0.01346839	0.01943709	0.00541919
2.33000000	0.00498677	0.00460011	0.00696958	0.00591043	0.00634265	0.01206427	0.00296219	0.01265658	0.00124777	0.00300020	0.00213743	0.00936174	0.01083048	0.01547022	0.00541415	0.00416294	0.00452910	0.00861138	0.01504580	0.01416382	0.01546103	0.00888811	0.01941557	0.02830197	0.01347367	0.01896471	0.00578996
2.34000000	0.00495982	0.00465337	0.00689467	0.00586372	0.00623797	0.01182013	0.00337311	0.01278207	0.00116754	0.00292098	0.00232086	0.00988364	0.01075563	0.01679601	0.00537675	0.00449799	0.00525980	0.00862356	0.01504198	0.01410971	0.01544385	0.00879839	0.01926075	0.02823078	0.01377105	0.01867675	0.00613811
2.35000000	0.00455701	0.00459408	0.00684217	0.00580506	0.00615654	0.01129454	0.00396427	0.01293365	0.00103556	0.00284815	0.00219709	0.01038635	0.01101297	0.01771326	0.00521838	0.00458660	0.00617861	0.00866631	0.01491779	0.01418503	0.01560722	0.00888812	0.01935179	0.02813874	0.01373377	0.01818501	0.00653880
2.36000000	0.00452036	0.00492950	0.00678839	0.00577297	0.00605021	0.01039499	0.00396276	0.01228134	0.00114995	0.00264725	0.00258491	0.01098337	0.01132926	0.01860269	0.00526094	0.00476311	0.00660234	0.00866598	0.01496737	0.01417342	0.01558266	0.00888564	0.01918590	0.02801786	0.01407629	0.01786357	0.00682586
2.37000000	0.00408223	0.00462873	0.00676719	0.00567646	0.00596388	0.00924902	0.00434742	0.01163745	0.00102675	0.00262476	0.00207618	0.01086353	0.01168408	0.01952076	0.00488426	0.00488014	0.00732517	0.00871399	0.01481411	0.01425026	0.01576726	0.00898715	0.01932185	0.02792107	0.01397977	0.01740540	0.00730881
2.38000000	0.00385929	0.00428160	0.00673457	0.00559383	0.00586965	0.00784062	0.00450517	0.01074365	0.00095306	0.00264196	0.00180954	0.01070336	0.01206494	0.02022878	0.00476408	0.00490522	0.00780159	0.00873898	0.01478450	0.01424514	0.01582292	0.00897857	0.01929805	0.02783217	0.01409955	0.01695947	0.00794811
2.39000000	0.00375904	0.00494798	0.00674956	0.00561473	0.00583123	0.00697445	0.00406430	0.00947170	0.00121748	0.00213537	0.00272812	0.01177512	0.01288494	0.01945308	0.00499244	0.00480953	0.00716374	0.00860019	0.01500843	0.01438551	0.01583552	0.00916918	0.01921096	0.02736932	0.01450510	0.01650846	0.00787044
2.40000000	0.00357918	0.00448894	0.00664443	0.00547956	0.00568205	0.00566079	0.00421948	0.00857678	0.00102280	0.00224903	0.00223556	0.01150452	0.01319847	0.01955790	0.00481742	0.00476824	0.00744493	0.00868582	0.01487533	0.01433508	0.01587584	0.00917540	0.01918639	0.02726847	0.01453201	0.01616194	0.00857757
2.41000000	0.00365049	0.00508855	0.00670472	0.00551015	0.00570914	0.00515489	0.00376835	0.00784922	0.00125505	0.00198501	0.00242943	0.01182212	0.01371650	0.01821371	0.00493432	0.00460495	0.00672533	0.00877282	0.01478475	0.01449153	0.01603959	0.00944887	0.01936538	0.02676968	0.01448120	0.01566895	0.00850492
2.42000000	0.00351294	0.00435384	0.00650997	0.00543927	0.00558189	0.00440907	0.00403671	0.00727721	0.00114880	0.00214636	0.00222117	0.01180109	0.01379488	0.01778237	0.00487121	0.00459276	0.00675491	0.00883505	0.01476274	0.01440710	0.01597243	0.00946268	0.01923526	0.02656276	0.01463721	0.01530257	0.00929267
2.43000000	0.00362590	0.00466445	0.00658972	0.00544918	0.00564307	0.00441938	0.00359854	0.00686951	0.00142153	0.00176685	0.00243655	0.01171933	0.01377677	0.01638312	0.00496960	0.00451335	0.00616782	0.00891562	0.01466441	0.01452228	0.01612077	0.00967819	0.01942364	0.02604582	0.01463481	0.01476219	0.00924116
2.44000000	0.00339749	0.00405661	0.00645598	0.00540731	0.00560096	0.00441293	0.00385749	0.00678174	0.00141050	0.00178499	0.00222787	0.01177364	0.01345283	0.01556680	0.00495351	0.00462370	0.00602542	0.00898436	0.01470438	0.01444451	0.01602646	0.00973681	0.01931177	0.02572955	0.01479926	0.01431852	0.00991880
2.45000000	0.00327978	0.00387594	0.00632327	0.00544635	0.00561059	0.00456392	0.00434458	0.00698323	0.00148090	0.00216850	0.00209151	0.01205043	0.01276029	0.01481874	0.00498457	0.00510074	0.00599360	0.00911527	0.01464389	0.01438779	0.01602191	0.00982493	0.01932259	0.02521312	0.01503281	0.01387318	0.01066487
2.46000000	0.00316718	0.00412757	0.00654957	0.00520992	0.00563503	0.00533550	0.00457974	0.00684438	0.00154988	0.00151750	0.00251734	0.01159242	0.01227799	0.01332755	0.00467891	0.00438047	0.00562252	0.00927479	0.01457200	0.01435358	0.01602901	0.00991984	0.01942146	0.02491637	0.01502700	0.01341849	0.01050509
2.47000000	0.00336027	0.00380175	0.00640673	0.00519264	0.00563824	0.00573826	0.00411473	0.00737525	0.00186654	0.00172140	0.00250948	0.01156856	0.01149272	0.01199054	0.00462003	0.00421085	0.00499651	0.00949735	0.01451824	0.01430561	0.01602960	0.01004016	0.01951337	0.02431109	0.01516273	0.01304281	0.01087342
2.48000000	0.00328423	0.00379821	0.00625106	0.00514195	0.00559185	0.00635727	0.00437523	0.00760276	0.00184716	0.00174709	0.00221886	0.01158975	0.01026054	0.01113922	0.00433829	0.00409885	0.00472156	0.00962056	0.01459461	0.01419381	0.01595377	0.01010454	0.01951228	0.02383715	0.01541970	0.01258239	0.01155228
2.49000000	0.00325166	0.00381988	0.00629992	0.00493719	0.00556069	0.00707332	0.00440427	0.00776704	0.00190087	0.00159339	0.00235492	0.01124939	0.00923868	0.00975799	0.00381338	0.00355478	0.00421446	0.00993321	0.01450054	0.01409137	0.01595204	0.01017490	0.01964677	0.02339883	0.01557282	0.01218810	0.01173952
2.50000000	0.00321449	0.00396291	0.00598131	0.00489122	0.00541995	0.00770276	0.00455028	0.00784558	0.00189302	0.00165587	0.00201933	0.01106409	0.00763777	0.00890868	0.00325832	0.00331990	0.00354613	0.01013441	0.01462675	0.01389045	0.01581393	0.01021569	0.01960329	0.02299972	0.01590699	0.01183233	0.01253047
