Model Marker Errors from IK
version=1
nRows=614
nColumns=4
inDegrees=no
endheader
time	total_squared_error	marker_error_RMS	marker_error_max
      0.27000000	      0.00683141	      0.01590645	      0.05810976
      0.28000000	      0.00686254	      0.01594266	      0.05839974
      0.29000000	      0.00688611	      0.01597000	      0.05872061
      0.30000000	      0.00691507	      0.01600356	      0.05898140
      0.31000000	      0.00695694	      0.01605193	      0.05935695
      0.32000000	      0.00700172	      0.01610351	      0.05954605
      0.33000000	      0.00707611	      0.01618883	      0.05979066
      0.34000000	      0.00718343	      0.01631113	      0.06008575
      0.35000000	      0.00732304	      0.01646887	      0.06016742
      0.36000000	      0.00748695	      0.01665216	      0.06034940
      0.37000000	      0.00768284	      0.01686860	      0.06050935
      0.38000000	      0.00787769	      0.01708116	      0.06078317
      0.39000000	      0.00808586	      0.01730539	      0.06079993
      0.40000000	      0.00829198	      0.01752456	      0.06094954
      0.41000000	      0.00849318	      0.01773591	      0.06112646
      0.42000000	      0.00870506	      0.01795577	      0.06135138
      0.43000000	      0.00893729	      0.01819370	      0.06160261
      0.44000000	      0.00921683	      0.01847604	      0.06181766
      0.45000000	      0.00947765	      0.01873564	      0.06208376
      0.46000000	      0.00976688	      0.01901937	      0.06235310
      0.47000000	      0.01011358	      0.01935400	      0.06252636
      0.48000000	      0.01047828	      0.01969986	      0.06273832
      0.49000000	      0.01075032	      0.01995395	      0.06291963
      0.50000000	      0.01111163	      0.02028649	      0.06302150
      0.51000000	      0.01140405	      0.02055169	      0.06307651
      0.52000000	      0.01158597	      0.02071497	      0.06311623
      0.53000000	      0.01188575	      0.02098126	      0.06305815
      0.54000000	      0.01199124	      0.02107415	      0.06300473
      0.55000000	      0.01223484	      0.02128713	      0.06286210
      0.56000000	      0.01236033	      0.02139603	      0.06273762
      0.57000000	      0.01245802	      0.02148041	      0.06256496
      0.58000000	      0.01249554	      0.02151274	      0.06243669
      0.59000000	      0.01260479	      0.02160657	      0.06227512
      0.60000000	      0.01260886	      0.02161006	      0.06212821
      0.61000000	      0.01266243	      0.02165592	      0.06197839
      0.62000000	      0.01268686	      0.02167680	      0.06187093
      0.63000000	      0.01269797	      0.02168629	      0.06175539
      0.64000000	      0.01272703	      0.02171109	      0.06167982
      0.65000000	      0.01276699	      0.02174515	      0.06145412
      0.66000000	      0.01273128	      0.02171472	      0.06161336
      0.67000000	      0.01262198	      0.02162130	      0.06157725
      0.68000000	      0.01261852	      0.02161834	      0.06158656
      0.69000000	      0.01259463	      0.02159786	      0.06160379
      0.70000000	      0.01235782	      0.02139386	      0.06171812
      0.71000000	      0.01232471	      0.02136517	      0.06170285
      0.72000000	      0.01217036	      0.02123097	      0.06178643
      0.73000000	      0.01213154	      0.02119708	      0.06174377
      0.74000000	      0.01186795	      0.02096554	      0.06190273
      0.75000000	      0.01172108	      0.02083540	      0.06191065
      0.76000000	      0.01165441	      0.02077606	      0.06183436
      0.77000000	      0.01139617	      0.02054460	      0.06194624
      0.78000000	      0.01130817	      0.02046512	      0.06190714
      0.79000000	      0.01104200	      0.02022283	      0.06200090
      0.80000000	      0.01086582	      0.02006085	      0.06202797
      0.81000000	      0.01069400	      0.01990161	      0.06204908
      0.82000000	      0.01057814	      0.01979350	      0.06209736
      0.83000000	      0.01040856	      0.01963421	      0.06213021
      0.84000000	      0.01021573	      0.01945149	      0.06219948
      0.85000000	      0.01011195	      0.01935244	      0.06222555
      0.86000000	      0.00995608	      0.01920270	      0.06227428
      0.87000000	      0.00986867	      0.01911822	      0.06231738
      0.88000000	      0.00976442	      0.01901697	      0.06232864
      0.89000000	      0.00970212	      0.01895621	      0.06233897
      0.90000000	      0.00965178	      0.01890696	      0.06232152
      0.91000000	      0.00954515	      0.01880223	      0.06234618
      0.92000000	      0.00945002	      0.01870831	      0.06232881
      0.93000000	      0.00941478	      0.01867339	      0.06227034
      0.94000000	      0.00937861	      0.01863749	      0.06222445
      0.95000000	      0.00935432	      0.01861333	      0.06219529
      0.96000000	      0.00929737	      0.01855659	      0.06217095
      0.97000000	      0.00929920	      0.01855842	      0.06211181
      0.98000000	      0.00932775	      0.01858688	      0.06207723
      0.99000000	      0.00933175	      0.01859087	      0.06199523
      1.00000000	      0.00938571	      0.01864454	      0.06203656
      1.01000000	      0.00936678	      0.01862573	      0.06200148
      1.02000000	      0.00942912	      0.01868761	      0.06200725
      1.03000000	      0.00945992	      0.01871810	      0.06195551
      1.04000000	      0.00952829	      0.01878563	      0.06193483
      1.05000000	      0.00955761	      0.01881450	      0.06191948
      1.06000000	      0.00960722	      0.01886327	      0.06183514
      1.07000000	      0.00963810	      0.01889356	      0.06179170
      1.08000000	      0.00965121	      0.01890641	      0.06174692
      1.09000000	      0.00963735	      0.01889282	      0.06171673
      1.10000000	      0.00960656	      0.01886262	      0.06164835
      1.11000000	      0.00959179	      0.01884812	      0.06163194
      1.12000000	      0.00953062	      0.01878792	      0.06153175
      1.13000000	      0.00951944	      0.01877690	      0.06151505
      1.14000000	      0.00947398	      0.01873201	      0.06144801
      1.15000000	      0.00948305	      0.01874098	      0.06142095
      1.16000000	      0.00946902	      0.01872710	      0.06146696
      1.17000000	      0.00953544	      0.01879267	      0.06148933
      1.18000000	      0.00956363	      0.01882042	      0.06157757
      1.19000000	      0.00963868	      0.01889413	      0.06163429
      1.20000000	      0.00969158	      0.01894591	      0.06175861
      1.21000000	      0.00974669	      0.01899970	      0.06188365
      1.22000000	      0.00981251	      0.01906374	      0.06200503
      1.23000000	      0.00988661	      0.01913558	      0.06216088
      1.24000000	      0.00993489	      0.01918225	      0.06232803
      1.25000000	      0.00996647	      0.01921272	      0.06249018
      1.26000000	      0.01006600	      0.01930841	      0.06263195
      1.27000000	      0.01016174	      0.01940002	      0.06274570
      1.28000000	      0.01019098	      0.01942791	      0.06284481
      1.29000000	      0.01029081	      0.01952284	      0.06290083
      1.30000000	      0.01037816	      0.01960551	      0.06290701
      1.31000000	      0.01045284	      0.01967593	      0.06279848
      1.32000000	      0.01052326	      0.01974210	      0.06272986
      1.33000000	      0.01046923	      0.01969135	      0.06275692
      1.34000000	      0.01050856	      0.01972831	      0.06265756
      1.35000000	      0.01052124	      0.01974021	      0.06255310
      1.36000000	      0.01055155	      0.01976862	      0.06246692
      1.37000000	      0.01057747	      0.01979289	      0.06240836
      1.38000000	      0.01061199	      0.01982515	      0.06244430
      1.39000000	      0.01064639	      0.01985726	      0.06246260
      1.40000000	      0.01068573	      0.01989391	      0.06264268
      1.41000000	      0.01072577	      0.01993115	      0.06281175
      1.42000000	      0.01075490	      0.01995820	      0.06296402
      1.43000000	      0.01076484	      0.01996742	      0.06318556
      1.44000000	      0.01074751	      0.01995134	      0.06325995
      1.45000000	      0.01072522	      0.01993064	      0.06345835
      1.46000000	      0.01066507	      0.01987467	      0.06354843
      1.47000000	      0.01058249	      0.01979758	      0.06350097
      1.48000000	      0.01047297	      0.01969487	      0.06340007
      1.49000000	      0.01033891	      0.01956841	      0.06322181
      1.50000000	      0.01018701	      0.01942413	      0.06299588
      1.51000000	      0.00996085	      0.01920730	      0.06279608
      1.52000000	      0.00974727	      0.01900026	      0.06251149
      1.53000000	      0.00955924	      0.01881611	      0.06211954
      1.54000000	      0.00929745	      0.01855667	      0.06176983
      1.55000000	      0.00908108	      0.01833947	      0.06135265
      1.56000000	      0.00885111	      0.01810577	      0.06096301
      1.57000000	      0.00861958	      0.01786740	      0.06059578
      1.58000000	      0.00838511	      0.01762270	      0.06023335
      1.59000000	      0.00816497	      0.01738983	      0.05991229
      1.60000000	      0.00797377	      0.01718502	      0.05962378
      1.61000000	      0.00777572	      0.01697026	      0.05934268
      1.62000000	      0.00763057	      0.01681112	      0.05910739
      1.63000000	      0.00752067	      0.01668961	      0.05895667
      1.64000000	      0.00743137	      0.01659024	      0.05878320
      1.65000000	      0.00737392	      0.01652599	      0.05868565
      1.66000000	      0.00734516	      0.01649373	      0.05864088
      1.67000000	      0.00736056	      0.01651101	      0.05855308
      1.68000000	      0.00733533	      0.01648269	      0.05874702
      1.69000000	      0.00734427	      0.01649272	      0.05886155
      1.70000000	      0.00737863	      0.01653126	      0.05897599
      1.71000000	      0.00741035	      0.01656676	      0.05914008
      1.72000000	      0.00741151	      0.01656805	      0.05939139
      1.73000000	      0.00743764	      0.01659724	      0.05971117
      1.74000000	      0.00745672	      0.01661851	      0.05996428
      1.75000000	      0.00743944	      0.01659925	      0.06008457
      1.76000000	      0.00746637	      0.01662926	      0.06037162
      1.77000000	      0.00750550	      0.01667278	      0.06054599
      1.78000000	      0.00756476	      0.01673846	      0.06070174
      1.79000000	      0.00760046	      0.01677792	      0.06075297
      1.80000000	      0.00769404	      0.01688090	      0.06082056
      1.81000000	      0.00780685	      0.01700420	      0.06090722
      1.82000000	      0.00793265	      0.01714065	      0.06100179
      1.83000000	      0.00806983	      0.01728822	      0.06113091
      1.84000000	      0.00821268	      0.01744056	      0.06126277
      1.85000000	      0.00836590	      0.01760251	      0.06140295
      1.86000000	      0.00854242	      0.01778724	      0.06162288
      1.87000000	      0.00873574	      0.01798738	      0.06184508
      1.88000000	      0.00896340	      0.01822025	      0.06208663
      1.89000000	      0.00926959	      0.01852885	      0.06227663
      1.90000000	      0.00953717	      0.01879437	      0.06248865
      1.91000000	      0.00983166	      0.01908234	      0.06272371
      1.92000000	      0.01021890	      0.01945450	      0.06290330
      1.93000000	      0.01047397	      0.01969581	      0.06313276
      1.94000000	      0.01086035	      0.02005580	      0.06320265
      1.95000000	      0.01115849	      0.02032923	      0.06327372
      1.96000000	      0.01135080	      0.02050366	      0.06341294
      1.97000000	      0.01167975	      0.02079864	      0.06333531
      1.98000000	      0.01189505	      0.02098946	      0.06329825
      1.99000000	      0.01207339	      0.02114622	      0.06322085
      2.00000000	      0.01214748	      0.02121101	      0.06316732
      2.01000000	      0.01232535	      0.02136573	      0.06298972
      2.02000000	      0.01238271	      0.02141539	      0.06284696
      2.03000000	      0.01241383	      0.02144228	      0.06268351
      2.04000000	      0.01243708	      0.02146235	      0.06249539
      2.05000000	      0.01241549	      0.02144372	      0.06238357
      2.06000000	      0.01245162	      0.02147490	      0.06220464
      2.07000000	      0.01243730	      0.02146255	      0.06207446
      2.08000000	      0.01243055	      0.02145672	      0.06203987
      2.09000000	      0.01245730	      0.02147980	      0.06185095
      2.10000000	      0.01243114	      0.02145723	      0.06189057
      2.11000000	      0.01234154	      0.02137976	      0.06189424
      2.12000000	      0.01236514	      0.02140019	      0.06188125
      2.13000000	      0.01237906	      0.02141223	      0.06189655
      2.14000000	      0.01234752	      0.02138494	      0.06200675
      2.15000000	      0.01216532	      0.02122657	      0.06200728
      2.16000000	      0.01214801	      0.02121147	      0.06199765
      2.17000000	      0.01209392	      0.02116419	      0.06202174
      2.18000000	      0.01201725	      0.02109700	      0.06204904
      2.19000000	      0.01167112	      0.02079095	      0.06212056
      2.20000000	      0.01157561	      0.02070571	      0.06207802
      2.21000000	      0.01146820	      0.02060942	      0.06204921
      2.22000000	      0.01117253	      0.02034202	      0.06220459
      2.23000000	      0.01099325	      0.02017815	      0.06222078
      2.24000000	      0.01087193	      0.02006649	      0.06227189
      2.25000000	      0.01066682	      0.01987630	      0.06230426
      2.26000000	      0.01051710	      0.01973631	      0.06235703
      2.27000000	      0.01040899	      0.01963462	      0.06242160
      2.28000000	      0.01031411	      0.01954492	      0.06247589
      2.29000000	      0.01025005	      0.01948414	      0.06252381
      2.30000000	      0.01004061	      0.01928405	      0.06259537
      2.31000000	      0.00998035	      0.01922609	      0.06265489
      2.32000000	      0.00992300	      0.01917077	      0.06266736
      2.33000000	      0.00978228	      0.01903436	      0.06271059
      2.34000000	      0.00972877	      0.01898222	      0.06274979
      2.35000000	      0.00967689	      0.01893155	      0.06276304
      2.36000000	      0.00959227	      0.01884859	      0.06276041
      2.37000000	      0.00954721	      0.01880426	      0.06275200
      2.38000000	      0.00952046	      0.01877790	      0.06275045
      2.39000000	      0.00948770	      0.01874557	      0.06268925
      2.40000000	      0.00945334	      0.01871159	      0.06270594
      2.41000000	      0.00945242	      0.01871068	      0.06269397
      2.42000000	      0.00939488	      0.01865365	      0.06267335
      2.43000000	      0.00940244	      0.01866115	      0.06265137
      2.44000000	      0.00942856	      0.01868705	      0.06270424
      2.45000000	      0.00943402	      0.01869247	      0.06261113
      2.46000000	      0.00946266	      0.01872082	      0.06263570
      2.47000000	      0.00946562	      0.01872374	      0.06254133
      2.48000000	      0.00950011	      0.01875782	      0.06249750
      2.49000000	      0.00953918	      0.01879636	      0.06241129
      2.50000000	      0.00957539	      0.01883200	      0.06238631
      2.51000000	      0.00961763	      0.01887348	      0.06233082
      2.52000000	      0.00962636	      0.01888205	      0.06234053
      2.53000000	      0.00966882	      0.01892365	      0.06227147
      2.54000000	      0.00967281	      0.01892755	      0.06224045
      2.55000000	      0.00970437	      0.01895840	      0.06206779
      2.56000000	      0.00969714	      0.01895134	      0.06215894
      2.57000000	      0.00971532	      0.01896910	      0.06207244
      2.58000000	      0.00966554	      0.01892044	      0.06201831
      2.59000000	      0.00963961	      0.01889504	      0.06170680
      2.60000000	      0.00959426	      0.01885054	      0.06181304
      2.61000000	      0.00949758	      0.01875532	      0.06184989
      2.62000000	      0.00944400	      0.01870235	      0.06168049
      2.63000000	      0.00937145	      0.01863037	      0.06157900
      2.64000000	      0.00930187	      0.01856108	      0.06150009
      2.65000000	      0.00927427	      0.01853352	      0.06136318
      2.66000000	      0.00925515	      0.01851440	      0.06121418
      2.67000000	      0.00925089	      0.01851015	      0.06109443
      2.68000000	      0.00924913	      0.01850839	      0.06108356
      2.69000000	      0.00928488	      0.01854413	      0.06107721
      2.70000000	      0.00930061	      0.01855982	      0.06108954
      2.71000000	      0.00932423	      0.01858338	      0.06113762
      2.72000000	      0.00936055	      0.01861954	      0.06121456
      2.73000000	      0.00941381	      0.01867243	      0.06130145
      2.74000000	      0.00946003	      0.01871821	      0.06143425
      2.75000000	      0.00951824	      0.01877571	      0.06157687
      2.76000000	      0.00958417	      0.01884063	      0.06170610
      2.77000000	      0.00964208	      0.01889746	      0.06196503
      2.78000000	      0.00968172	      0.01893627	      0.06220051
      2.79000000	      0.00974613	      0.01899916	      0.06237475
      2.80000000	      0.00980741	      0.01905879	      0.06253175
      2.81000000	      0.00982159	      0.01907256	      0.06276672
      2.82000000	      0.00987876	      0.01912799	      0.06290659
      2.83000000	      0.00993368	      0.01918109	      0.06296585
      2.84000000	      0.00994590	      0.01919288	      0.06304292
      2.85000000	      0.00999672	      0.01924186	      0.06302307
      2.86000000	      0.01004152	      0.01928492	      0.06293038
      2.87000000	      0.01007915	      0.01932102	      0.06281068
      2.88000000	      0.01011492	      0.01935528	      0.06260179
      2.89000000	      0.01010686	      0.01934756	      0.06238267
      2.90000000	      0.01015574	      0.01939429	      0.06213184
      2.91000000	      0.01021297	      0.01944886	      0.06190236
      2.92000000	      0.01027525	      0.01950807	      0.06172324
      2.93000000	      0.01033256	      0.01956240	      0.06164460
      2.94000000	      0.01038875	      0.01961551	      0.06156522
      2.95000000	      0.01043210	      0.01965640	      0.06162106
      2.96000000	      0.01045795	      0.01968074	      0.06168126
      2.97000000	      0.01046816	      0.01969034	      0.06188569
      2.98000000	      0.01046125	      0.01968384	      0.06203175
      2.99000000	      0.01042165	      0.01964655	      0.06230364
      3.00000000	      0.01034465	      0.01957384	      0.06249679
      3.01000000	      0.01023070	      0.01946573	      0.06272730
      3.02000000	      0.01010435	      0.01934516	      0.06279261
      3.03000000	      0.00995594	      0.01920256	      0.06275560
      3.04000000	      0.00974762	      0.01900061	      0.06278227
      3.05000000	      0.00955639	      0.01881331	      0.06263627
      3.06000000	      0.00935460	      0.01861361	      0.06241004
      3.07000000	      0.00915625	      0.01841522	      0.06211037
      3.08000000	      0.00895921	      0.01821600	      0.06173426
      3.09000000	      0.00876202	      0.01801442	      0.06132816
      3.10000000	      0.00859101	      0.01783776	      0.06095169
      3.11000000	      0.00844098	      0.01768131	      0.06050587
      3.12000000	      0.00827087	      0.01750225	      0.06007629
      3.13000000	      0.00812622	      0.01734852	      0.05966316
      3.14000000	      0.00801897	      0.01723366	      0.05913559
      3.15000000	      0.00783261	      0.01703223	      0.05889406
      3.16000000	      0.00769307	      0.01687983	      0.05854960
      3.17000000	      0.00756522	      0.01673898	      0.05823003
      3.18000000	      0.00743987	      0.01659972	      0.05794153
      3.19000000	      0.00733033	      0.01647706	      0.05773621
      3.20000000	      0.00722307	      0.01635607	      0.05753968
      3.21000000	      0.00713687	      0.01625818	      0.05738497
      3.22000000	      0.00706766	      0.01617916	      0.05729992
      3.23000000	      0.00701795	      0.01612216	      0.05728121
      3.24000000	      0.00698829	      0.01608806	      0.05732308
      3.25000000	      0.00701995	      0.01612445	      0.05730001
      3.26000000	      0.00698014	      0.01607867	      0.05763101
      3.27000000	      0.00701081	      0.01611396	      0.05791352
      3.28000000	      0.00704641	      0.01615482	      0.05818351
      3.29000000	      0.00707415	      0.01618658	      0.05855219
      3.30000000	      0.00713090	      0.01625139	      0.05888130
      3.31000000	      0.00717706	      0.01630390	      0.05931363
      3.32000000	      0.00723306	      0.01636738	      0.05960181
      3.33000000	      0.00728993	      0.01643160	      0.06005782
      3.34000000	      0.00735975	      0.01651010	      0.06017650
      3.35000000	      0.00742040	      0.01657799	      0.06054633
      3.36000000	      0.00751023	      0.01667803	      0.06055683
      3.37000000	      0.00760893	      0.01678726	      0.06058894
      3.38000000	      0.00769520	      0.01688216	      0.06064933
      3.39000000	      0.00779548	      0.01699181	      0.06077882
      3.40000000	      0.00791995	      0.01712692	      0.06082552
      3.41000000	      0.00804466	      0.01726124	      0.06097044
      3.42000000	      0.00818659	      0.01741285	      0.06116808
      3.43000000	      0.00835814	      0.01759434	      0.06135851
      3.44000000	      0.00855771	      0.01780315	      0.06162481
      3.45000000	      0.00878414	      0.01803715	      0.06190446
      3.46000000	      0.00902739	      0.01828518	      0.06228572
      3.47000000	      0.00929240	      0.01855163	      0.06252034
      3.48000000	      0.00955711	      0.01881401	      0.06281472
      3.49000000	      0.00991970	      0.01916759	      0.06284499
      3.50000000	      0.01012389	      0.01936386	      0.06294540
      3.51000000	      0.01041315	      0.01963854	      0.06297922
      3.52000000	      0.01056911	      0.01978506	      0.06296005
      3.53000000	      0.01081036	      0.02000959	      0.06288808
      3.54000000	      0.01091517	      0.02010636	      0.06280299
      3.55000000	      0.01100392	      0.02018793	      0.06276361
      3.56000000	      0.01125272	      0.02041489	      0.06252340
      3.57000000	      0.01130350	      0.02046089	      0.06243511
      3.58000000	      0.01138951	      0.02053859	      0.06234746
      3.59000000	      0.01162982	      0.02075414	      0.06213424
      3.60000000	      0.01170030	      0.02081692	      0.06207941
      3.61000000	      0.01180949	      0.02091383	      0.06200084
      3.62000000	      0.01194800	      0.02103612	      0.06184802
      3.63000000	      0.01212298	      0.02118960	      0.06176118
      3.64000000	      0.01224310	      0.02129432	      0.06169683
      3.65000000	      0.01234727	      0.02138472	      0.06168267
      3.66000000	      0.01244972	      0.02147326	      0.06168689
      3.67000000	      0.01253055	      0.02154285	      0.06164039
      3.68000000	      0.01262619	      0.02162491	      0.06152130
      3.69000000	      0.01258303	      0.02158792	      0.06161465
      3.70000000	      0.01257848	      0.02158401	      0.06170268
      3.71000000	      0.01246283	      0.02148456	      0.06167850
      3.72000000	      0.01242032	      0.02144789	      0.06166371
      3.73000000	      0.01228737	      0.02133279	      0.06173585
      3.74000000	      0.01220538	      0.02126149	      0.06175820
      3.75000000	      0.01197961	      0.02106393	      0.06182191
      3.76000000	      0.01186372	      0.02096180	      0.06185564
      3.77000000	      0.01164467	      0.02076738	      0.06186180
      3.78000000	      0.01151196	      0.02064870	      0.06191114
      3.79000000	      0.01129284	      0.02045124	      0.06190935
      3.80000000	      0.01118585	      0.02035413	      0.06190225
      3.81000000	      0.01094790	      0.02013648	      0.06194649
      3.82000000	      0.01075438	      0.01995772	      0.06195983
      3.83000000	      0.01062862	      0.01984068	      0.06197871
      3.84000000	      0.01041234	      0.01963778	      0.06196566
      3.85000000	      0.01030856	      0.01953967	      0.06194855
      3.86000000	      0.01015977	      0.01939814	      0.06198626
      3.87000000	      0.01005550	      0.01929834	      0.06195230
      3.88000000	      0.00980767	      0.01905904	      0.06199484
      3.89000000	      0.00970380	      0.01895785	      0.06199267
      3.90000000	      0.00962079	      0.01887659	      0.06199783
      3.91000000	      0.00954874	      0.01880577	      0.06197069
      3.92000000	      0.00936512	      0.01862408	      0.06203348
      3.93000000	      0.00930308	      0.01856229	      0.06198599
      3.94000000	      0.00920344	      0.01846262	      0.06202895
      3.95000000	      0.00916055	      0.01841955	      0.06193225
      3.96000000	      0.00908949	      0.01834796	      0.06195213
      3.97000000	      0.00904514	      0.01830315	      0.06191428
      3.98000000	      0.00901544	      0.01827308	      0.06186332
      3.99000000	      0.00900513	      0.01826263	      0.06181030
      4.00000000	      0.00892697	      0.01818320	      0.06185075
      4.01000000	      0.00892409	      0.01818026	      0.06177400
      4.02000000	      0.00892200	      0.01817813	      0.06173746
      4.03000000	      0.00891961	      0.01817570	      0.06173153
      4.04000000	      0.00891046	      0.01816637	      0.06184310
      4.05000000	      0.00891812	      0.01817418	      0.06177953
      4.06000000	      0.00891546	      0.01817146	      0.06184503
      4.07000000	      0.00892183	      0.01817796	      0.06181920
      4.08000000	      0.00892804	      0.01818429	      0.06182327
      4.09000000	      0.00892627	      0.01818248	      0.06184363
      4.10000000	      0.00893095	      0.01818725	      0.06187225
      4.11000000	      0.00893822	      0.01819464	      0.06184437
      4.12000000	      0.00894788	      0.01820447	      0.06190540
      4.13000000	      0.00895690	      0.01821365	      0.06188433
      4.14000000	      0.00897718	      0.01823426	      0.06197158
      4.15000000	      0.00900242	      0.01825987	      0.06185733
      4.16000000	      0.00902655	      0.01828433	      0.06194498
      4.17000000	      0.00905618	      0.01831432	      0.06184516
      4.18000000	      0.00908782	      0.01834628	      0.06195335
      4.19000000	      0.00911013	      0.01836878	      0.06193664
      4.20000000	      0.00914901	      0.01840794	      0.06200229
      4.21000000	      0.00919916	      0.01845832	      0.06192355
      4.22000000	      0.00921488	      0.01847409	      0.06200402
      4.23000000	      0.00925539	      0.01851465	      0.06194224
      4.24000000	      0.00930416	      0.01856336	      0.06195411
      4.25000000	      0.00930024	      0.01855946	      0.06194461
      4.26000000	      0.00933447	      0.01859357	      0.06183731
      4.27000000	      0.00932033	      0.01857948	      0.06187842
      4.28000000	      0.00932419	      0.01858333	      0.06174060
      4.29000000	      0.00932938	      0.01858850	      0.06172671
      4.30000000	      0.00930816	      0.01856735	      0.06158598
      4.31000000	      0.00931564	      0.01857482	      0.06166105
      4.32000000	      0.00928076	      0.01854000	      0.06168556
      4.33000000	      0.00935703	      0.01861603	      0.06165002
      4.34000000	      0.00939516	      0.01865392	      0.06169189
      4.35000000	      0.00941590	      0.01867450	      0.06183793
      4.36000000	      0.00947404	      0.01873207	      0.06183493
      4.37000000	      0.00956608	      0.01882284	      0.06205300
      4.38000000	      0.00961955	      0.01887537	      0.06219552
      4.39000000	      0.00967478	      0.01892948	      0.06236449
      4.40000000	      0.00974919	      0.01900214	      0.06252274
      4.41000000	      0.00984004	      0.01909047	      0.06265224
      4.42000000	      0.00984307	      0.01909341	      0.06285626
      4.43000000	      0.00990623	      0.01915456	      0.06296939
      4.44000000	      0.01002933	      0.01927321	      0.06302349
      4.45000000	      0.01014719	      0.01938612	      0.06307846
      4.46000000	      0.01002364	      0.01926774	      0.06310601
      4.47000000	      0.01001227	      0.01925681	      0.06305157
      4.48000000	      0.00997932	      0.01922510	      0.06289729
      4.49000000	      0.00993913	      0.01918634	      0.06274142
      4.50000000	      0.00986369	      0.01911340	      0.06248095
      4.51000000	      0.00976623	      0.01901873	      0.06219132
      4.52000000	      0.00968846	      0.01894286	      0.06197446
      4.53000000	      0.00961405	      0.01886997	      0.06165520
      4.54000000	      0.00955700	      0.01881390	      0.06146924
      4.55000000	      0.00952335	      0.01878075	      0.06131332
      4.56000000	      0.00953165	      0.01878893	      0.06128325
      4.57000000	      0.00957139	      0.01882806	      0.06133782
      4.58000000	      0.00964814	      0.01890340	      0.06152635
      4.59000000	      0.00975318	      0.01900602	      0.06168357
      4.60000000	      0.00989497	      0.01914368	      0.06204321
      4.61000000	      0.01003404	      0.01927774	      0.06247771
      4.62000000	      0.01016538	      0.01940349	      0.06280933
      4.63000000	      0.01026901	      0.01950215	      0.06309480
      4.64000000	      0.01033897	      0.01956847	      0.06319189
      4.65000000	      0.01035796	      0.01958643	      0.06327508
      4.66000000	      0.01033778	      0.01956734	      0.06321638
      4.67000000	      0.01024067	      0.01947522	      0.06318497
      4.68000000	      0.01014173	      0.01938091	      0.06287448
      4.69000000	      0.00996194	      0.01920835	      0.06256968
      4.70000000	      0.00982136	      0.01907234	      0.06214296
      4.71000000	      0.00958034	      0.01883686	      0.06175881
      4.72000000	      0.00941820	      0.01867679	      0.06120090
      4.73000000	      0.00915115	      0.01841009	      0.06084175
      4.74000000	      0.00892047	      0.01817657	      0.06039746
      4.75000000	      0.00865521	      0.01790428	      0.05999493
      4.76000000	      0.00837603	      0.01761315	      0.05965168
      4.77000000	      0.00810824	      0.01732931	      0.05932086
      4.78000000	      0.00785375	      0.01705519	      0.05899067
      4.79000000	      0.00761750	      0.01679671	      0.05870617
      4.80000000	      0.00741675	      0.01657391	      0.05840795
      4.81000000	      0.00723325	      0.01636760	      0.05814431
      4.82000000	      0.00711194	      0.01622976	      0.05791057
      4.83000000	      0.00700614	      0.01610859	      0.05769696
      4.84000000	      0.00693587	      0.01602761	      0.05751117
      4.85000000	      0.00688501	      0.01596873	      0.05736608
      4.86000000	      0.00684847	      0.01592631	      0.05727814
      4.87000000	      0.00686329	      0.01594352	      0.05705258
      4.88000000	      0.00682356	      0.01589731	      0.05723815
      4.89000000	      0.00685071	      0.01592890	      0.05734106
      4.90000000	      0.00689503	      0.01598035	      0.05757339
      4.91000000	      0.00693803	      0.01603009	      0.05788547
      4.92000000	      0.00702438	      0.01612954	      0.05825657
      4.93000000	      0.00712579	      0.01624556	      0.05883528
      4.94000000	      0.00724366	      0.01637936	      0.05945980
      4.95000000	      0.00737591	      0.01652821	      0.05966761
      4.96000000	      0.00749799	      0.01666443	      0.06032592
      4.97000000	      0.00762078	      0.01680033	      0.06099007
      4.98000000	      0.00776382	      0.01695727	      0.06110414
      4.99000000	      0.00787744	      0.01708090	      0.06165470
      5.00000000	      0.00801114	      0.01722524	      0.06158910
      5.01000000	      0.00814396	      0.01736745	      0.06169369
      5.02000000	      0.00825787	      0.01748848	      0.06190073
      5.03000000	      0.00840479	      0.01764337	      0.06168187
      5.04000000	      0.00854159	      0.01778638	      0.06175618
      5.05000000	      0.00871021	      0.01796108	      0.06146207
      5.06000000	      0.00889438	      0.01814997	      0.06141929
      5.07000000	      0.00908896	      0.01834743	      0.06124349
      5.08000000	      0.00929811	      0.01855733	      0.06125488
      5.09000000	      0.00955602	      0.01881294	      0.06117386
      5.10000000	      0.00978627	      0.01903824	      0.06133735
      5.11000000	      0.01010283	      0.01934370	      0.06134561
      5.12000000	      0.01036488	      0.01959297	      0.06152531
      5.13000000	      0.01059860	      0.01981264	      0.06171366
      5.14000000	      0.01095531	      0.02014329	      0.06187114
      5.15000000	      0.01120330	      0.02037001	      0.06199989
      5.16000000	      0.01131628	      0.02047245	      0.06221229
      5.17000000	      0.01161284	      0.02073898	      0.06216904
      5.18000000	      0.01177086	      0.02087961	      0.06214782
      5.19000000	      0.01181954	      0.02092273	      0.06212086
      5.20000000	      0.01201095	      0.02109147	      0.06199571
      5.21000000	      0.01207727	      0.02114961	      0.06182625
      5.22000000	      0.01222868	      0.02128178	      0.06164529
      5.23000000	      0.01234556	      0.02138324	      0.06147993
      5.24000000	      0.01244169	      0.02146633	      0.06132230
      5.25000000	      0.01263136	      0.02162934	      0.06113645
      5.26000000	      0.01279218	      0.02176659	      0.06096913
      5.27000000	      0.01294621	      0.02189724	      0.06088373
      5.28000000	      0.01311769	      0.02204179	      0.06076880
      5.29000000	      0.01326154	      0.02216231	      0.06070134
      5.30000000	      0.01340311	      0.02228029	      0.06072347
      5.31000000	      0.01341392	      0.02228927	      0.06069187
      5.32000000	      0.01350736	      0.02236677	      0.06068576
      5.33000000	      0.01338788	      0.02226763	      0.06080292
      5.34000000	      0.01333200	      0.02222111	      0.06086333
      5.35000000	      0.01316167	      0.02207870	      0.06096984
      5.36000000	      0.01310360	      0.02202994	      0.06095786
      5.37000000	      0.01282551	      0.02179493	      0.06109938
      5.38000000	      0.01256538	      0.02157277	      0.06116359
      5.39000000	      0.01228007	      0.02132645	      0.06126639
      5.40000000	      0.01209842	      0.02116813	      0.06129021
      5.41000000	      0.01176609	      0.02087537	      0.06127499
      5.42000000	      0.01165257	      0.02077442	      0.06124017
      5.43000000	      0.01127572	      0.02043574	      0.06131548
      5.44000000	      0.01114967	      0.02032119	      0.06136399
      5.45000000	      0.01084042	      0.02003739	      0.06133400
      5.46000000	      0.01073935	      0.01994377	      0.06132842
      5.47000000	      0.01045795	      0.01968074	      0.06138145
      5.48000000	      0.01032565	      0.01955586	      0.06141149
      5.49000000	      0.01010607	      0.01934680	      0.06143691
      5.50000000	      0.00998389	      0.01922951	      0.06143023
      5.51000000	      0.00983104	      0.01908174	      0.06150135
      5.52000000	      0.00963420	      0.01888973	      0.06151391
      5.53000000	      0.00952078	      0.01877822	      0.06148149
      5.54000000	      0.00940401	      0.01866271	      0.06148081
      5.55000000	      0.00932216	      0.01858131	      0.06147630
      5.56000000	      0.00924848	      0.01850774	      0.06137233
      5.57000000	      0.00917607	      0.01843514	      0.06131396
      5.58000000	      0.00915897	      0.01841796	      0.06132909
      5.59000000	      0.00908784	      0.01834630	      0.06124548
      5.60000000	      0.00909530	      0.01835383	      0.06123913
      5.61000000	      0.00908785	      0.01834630	      0.06101954
      5.62000000	      0.00910624	      0.01836486	      0.06100334
      5.63000000	      0.00915695	      0.01841592	      0.06081607
      5.64000000	      0.00916019	      0.01841918	      0.06085606
      5.65000000	      0.00920603	      0.01846522	      0.06075232
      5.66000000	      0.00925000	      0.01850925	      0.06069652
      5.67000000	      0.00926055	      0.01851981	      0.06074280
      5.68000000	      0.00929648	      0.01855570	      0.06060136
      5.69000000	      0.00928853	      0.01854777	      0.06066423
      5.70000000	      0.00931680	      0.01857597	      0.06063322
      5.71000000	      0.00929199	      0.01855122	      0.06056799
      5.72000000	      0.00929841	      0.01855763	      0.06059142
      5.73000000	      0.00925387	      0.01851313	      0.06050243
      5.74000000	      0.00922047	      0.01847969	      0.06055071
      5.75000000	      0.00925774	      0.01851700	      0.06062839
      5.76000000	      0.00924061	      0.01849986	      0.06065129
      5.77000000	      0.00928159	      0.01854083	      0.06076286
      5.78000000	      0.00929266	      0.01855189	      0.06088746
      5.79000000	      0.00931892	      0.01857809	      0.06104635
      5.80000000	      0.00936011	      0.01861910	      0.06117091
      5.81000000	      0.00941173	      0.01867037	      0.06136869
      5.82000000	      0.00947194	      0.01872999	      0.06164104
      5.83000000	      0.00956701	      0.01882375	      0.06181656
      5.84000000	      0.00967215	      0.01892690	      0.06201363
      5.85000000	      0.00964900	      0.01890425	      0.06239776
      5.86000000	      0.00978861	      0.01904051	      0.06268426
      5.87000000	      0.00994258	      0.01918968	      0.06296844
      5.88000000	      0.01002939	      0.01927327	      0.06325635
      5.89000000	      0.01022812	      0.01946328	      0.06351910
      5.90000000	      0.01042856	      0.01965307	      0.06374768
      5.91000000	      0.01063059	      0.01984252	      0.06392588
      5.92000000	      0.01083357	      0.02003106	      0.06400675
      5.93000000	      0.01101497	      0.02019807	      0.06409688
      5.94000000	      0.01116993	      0.02033964	      0.06405317
      5.95000000	      0.01129176	      0.02045026	      0.06399861
      5.96000000	      0.01136942	      0.02052046	      0.06388700
      5.97000000	      0.01141359	      0.02056029	      0.06371357
      5.98000000	      0.01139925	      0.02054737	      0.06350224
      5.99000000	      0.01132538	      0.02048068	      0.06334828
      6.00000000	      0.01121099	      0.02037699	      0.06316026
      6.01000000	      0.01107019	      0.02024863	      0.06303481
      6.02000000	      0.01090374	      0.02009582	      0.06290469
      6.03000000	      0.01070714	      0.01991384	      0.06279225
      6.04000000	      0.01049793	      0.01971832	      0.06269790
      6.05000000	      0.01029576	      0.01952753	      0.06256265
      6.06000000	      0.01009491	      0.01933612	      0.06244037
      6.07000000	      0.00987060	      0.01912009	      0.06236858
      6.08000000	      0.00967227	      0.01892703	      0.06217507
      6.09000000	      0.00949288	      0.01875068	      0.06190300
      6.10000000	      0.00931390	      0.01857308	      0.06163141
      6.11000000	      0.00910579	      0.01836441	      0.06129226
      6.12000000	      0.00890494	      0.01816075	      0.06101805
      6.13000000	      0.00873537	      0.01798701	      0.06057400
      6.14000000	      0.00857906	      0.01782535	      0.06010620
      6.15000000	      0.00841422	      0.01765327	      0.05962580
      6.16000000	      0.00823247	      0.01746157	      0.05916298
      6.17000000	      0.00807901	      0.01729805	      0.05866035
      6.18000000	      0.00791125	      0.01711751	      0.05820190
      6.19000000	      0.00775879	      0.01695178	      0.05778845
      6.20000000	      0.00761710	      0.01679628	      0.05739726
      6.21000000	      0.00749625	      0.01666250	      0.05714070
      6.22000000	      0.00735996	      0.01651033	      0.05680934
      6.23000000	      0.00725440	      0.01639151	      0.05661056
      6.24000000	      0.00713705	      0.01625839	      0.05644139
      6.25000000	      0.00705127	      0.01616039	      0.05637314
      6.26000000	      0.00695424	      0.01604881	      0.05631894
      6.27000000	      0.00687622	      0.01595854	      0.05630231
      6.28000000	      0.00682478	      0.01589873	      0.05630265
      6.29000000	      0.00675570	      0.01581806	      0.05641220
      6.30000000	      0.00673179	      0.01579005	      0.05645734
      6.31000000	      0.00669170	      0.01574296	      0.05665333
      6.32000000	      0.00670288	      0.01575610	      0.05680766
      6.33000000	      0.00670259	      0.01575576	      0.05698372
      6.34000000	      0.00674047	      0.01580022	      0.05732313
      6.35000000	      0.00678635	      0.01585391	      0.05754724
      6.36000000	      0.00685741	      0.01593669	      0.05799789
      6.37000000	      0.00694713	      0.01604061	      0.05838115
      6.38000000	      0.00703963	      0.01614705	      0.05888653
      6.39000000	      0.00713706	      0.01625840	      0.05937697
      6.40000000	      0.00723781	      0.01637275	      0.05992259
